{
"type": "FeatureCollection",
"name": "Helsinki-geojson",
"crs": { "type": "name", "properties": { "name": "urn:ogc:def:crs:EPSG::3857" } },
"features": [
{ "type": "Feature", "properties": { "gap": "(11434578920, 13328980750)", "B": 16546.5, "nodelist": [ 11434578920, 13328980750 ], "source": 11434578920, "target": 13328980750, "edge_list": "[(11434578920, 13328980750)]" }, "geometry": { "type": "LineString", "coordinates": [ [ 2776963.0, 8438550.0 ], [ 2776967.0, 8438556.0 ] ] } },
{ "type": "Feature", "properties": { "gap": "(11434578920, 12304372668)", "B": 16543.816177203833, "nodelist": [ 11434578920, 13328980750, 12304372668 ], "source": 11434578920, "target": 12304372668, "edge_list": "[(11434578920, 13328980750), (13328980750, 12304372668)]" }, "geometry": { "type": "LineString", "coordinates": [ [ 2776963.0, 8438550.0 ], [ 2776967.0, 8438556.0 ], [ 2776953.0, 8438555.0 ] ] } },
{ "type": "Feature", "properties": { "gap": "(12304372668, 13328980750)", "B": 16542.5, "nodelist": [ 12304372668, 13328980750 ], "source": 12304372668, "target": 13328980750, "edge_list": "[(12304372668, 13328980750)]" }, "geometry": { "type": "LineString", "coordinates": [ [ 2776953.0, 8438555.0 ], [ 2776967.0, 8438556.0 ] ] } },
{ "type": "Feature", "properties": { "gap": "(173248847, 1514631272)", "B": 12788.0, "nodelist": [ 173248847, 1514631272 ], "source": 173248847, "target": 1514631272, "edge_list": "[(173248847, 1514631272)]" }, "geometry": { "type": "LineString", "coordinates": [ [ 2776646.0, 8438352.0 ], [ 2776663.0, 8438353.0 ] ] } },
{ "type": "Feature", "properties": { "gap": "(4447421087, 4447421088)", "B": 12478.5, "nodelist": [ 4447421087, 4447421088 ], "source": 4447421087, "target": 4447421088, "edge_list": "[(4447421087, 4447421088)]" }, "geometry": { "type": "LineString", "coordinates": [ [ 2776892.0, 8438352.0 ], [ 2776900.0, 8438352.0 ] ] } },
{ "type": "Feature", "properties": { "gap": "(60070671, 9591805330)", "B": 12095.985228311158, "nodelist": [ 60070671, 256835342, 9591805330 ], "source": 60070671, "target": 9591805330, "edge_list": "[(60070671, 256835342), (256835342, 9591805330)]" }, "geometry": { "type": "LineString", "coordinates": [ [ 2774168.0, 8436437.0 ], [ 2774169.0, 8436426.0 ], [ 2774166.0, 8436415.0 ], [ 2774159.0, 8436415.0 ] ] } },
{ "type": "Feature", "properties": { "gap": "(256835342, 9591805330)", "B": 12094.5, "nodelist": [ 256835342, 9591805330 ], "source": 256835342, "target": 9591805330, "edge_list": "[(256835342, 9591805330)]" }, "geometry": { "type": "LineString", "coordinates": [ [ 2774166.0, 8436415.0 ], [ 2774159.0, 8436415.0 ] ] } },
{ "type": "Feature", "properties": { "gap": "(1372425714, 9591805330)", "B": 11454.258214667063, "nodelist": [ 1372425714, 60070671, 256835342, 9591805330 ], "source": 1372425714, "target": 9591805330, "edge_list": "[(60070671, 1372425714), (60070671, 256835342), (256835342, 9591805330)]" }, "geometry": { "type": "LineString", "coordinates": [ [ 2774188.0, 8436438.0 ], [ 2774168.0, 8436437.0 ], [ 2774169.0, 8436426.0 ], [ 2774166.0, 8436415.0 ], [ 2774159.0, 8436415.0 ] ] } },
{ "type": "Feature", "properties": { "gap": "(1371700052, 1371700053)", "B": 11219.5, "nodelist": [ 1371700052, 1371700053 ], "source": 1371700052, "target": 1371700053, "edge_list": "[(1371700052, 1371700053)]" }, "geometry": { "type": "LineString", "coordinates": [ [ 2776840.0, 8438351.0 ], [ 2776866.0, 8438351.0 ] ] } },
{ "type": "Feature", "properties": { "gap": "(1011525940, 9591805330)", "B": 11029.491107171389, "nodelist": [ 1011525940, 1372425714, 60070671, 256835342, 9591805330 ], "source": 1011525940, "target": 9591805330, "edge_list": "[(1372425714, 1011525940), (60070671, 1372425714), (60070671, 256835342), (256835342, 9591805330)]" }, "geometry": { "type": "LineString", "coordinates": [ [ 2774159.0, 8436415.0 ], [ 2774166.0, 8436415.0 ], [ 2774169.0, 8436426.0 ], [ 2774168.0, 8436437.0 ], [ 2774188.0, 8436438.0 ], [ 2774194.0, 8436439.0 ], [ 2774205.0, 8436442.0 ], [ 2774224.0, 8436446.0 ] ] } },
{ "type": "Feature", "properties": { "gap": "(9591805330, 12811590388)", "B": 10897.416474442072, "nodelist": [ 9591805330, 256835342, 60070671, 1372425714, 1011525940, 12811590388 ], "source": 9591805330, "target": 12811590388, "edge_list": "[(9591805330, 256835342), (256835342, 60070671), (60070671, 1372425714), (1372425714, 1011525940), (1011525940, 12811590388)]" }, "geometry": { "type": "LineString", "coordinates": [ [ 2774159.0, 8436415.0 ], [ 2774166.0, 8436415.0 ], [ 2774169.0, 8436426.0 ], [ 2774168.0, 8436437.0 ], [ 2774188.0, 8436438.0 ], [ 2774194.0, 8436439.0 ], [ 2774205.0, 8436442.0 ], [ 2774224.0, 8436446.0 ], [ 2774248.0, 8436452.0 ] ] } },
{ "type": "Feature", "properties": { "gap": "(321216336, 9591805330)", "B": 10714.783212712924, "nodelist": [ 321216336, 12811590388, 1011525940, 1372425714, 60070671, 256835342, 9591805330 ], "source": 321216336, "target": 9591805330, "edge_list": "[(12811590388, 321216336), (1011525940, 12811590388), (1372425714, 1011525940), (60070671, 1372425714), (60070671, 256835342), (256835342, 9591805330)]" }, "geometry": { "type": "LineString", "coordinates": [ [ 2774159.0, 8436415.0 ], [ 2774166.0, 8436415.0 ], [ 2774169.0, 8436426.0 ], [ 2774168.0, 8436437.0 ], [ 2774188.0, 8436438.0 ], [ 2774194.0, 8436439.0 ], [ 2774205.0, 8436442.0 ], [ 2774224.0, 8436446.0 ], [ 2774248.0, 8436452.0 ], [ 2774248.0, 8436469.0 ], [ 2774248.0, 8436518.0 ] ] } },
{ "type": "Feature", "properties": { "gap": "(256835342, 321216336)", "B": 10652.402135865168, "nodelist": [ 256835342, 60070671, 1372425714, 1011525940, 12811590388, 321216336 ], "source": 256835342, "target": 321216336, "edge_list": "[(256835342, 60070671), (60070671, 1372425714), (1372425714, 1011525940), (1011525940, 12811590388), (12811590388, 321216336)]" }, "geometry": { "type": "LineString", "coordinates": [ [ 2774166.0, 8436415.0 ], [ 2774169.0, 8436426.0 ], [ 2774168.0, 8436437.0 ], [ 2774188.0, 8436438.0 ], [ 2774194.0, 8436439.0 ], [ 2774205.0, 8436442.0 ], [ 2774224.0, 8436446.0 ], [ 2774248.0, 8436452.0 ], [ 2774248.0, 8436469.0 ], [ 2774248.0, 8436518.0 ] ] } },
{ "type": "Feature", "properties": { "gap": "(523290658, 8655020898)", "B": 10611.000000000002, "nodelist": [ 523290658, 8655020898 ], "source": 523290658, "target": 8655020898, "edge_list": "[(523290658, 8655020898)]" }, "geometry": { "type": "LineString", "coordinates": [ [ 2774183.0, 8437166.0 ], [ 2774184.0, 8437159.0 ] ] } },
{ "type": "Feature", "properties": { "gap": "(60070671, 321216336)", "B": 10435.759884334895, "nodelist": [ 60070671, 1372425714, 1011525940, 12811590388, 321216336 ], "source": 60070671, "target": 321216336, "edge_list": "[(60070671, 1372425714), (1372425714, 1011525940), (1011525940, 12811590388), (12811590388, 321216336)]" }, "geometry": { "type": "LineString", "coordinates": [ [ 2774168.0, 8436437.0 ], [ 2774188.0, 8436438.0 ], [ 2774194.0, 8436439.0 ], [ 2774205.0, 8436442.0 ], [ 2774224.0, 8436446.0 ], [ 2774248.0, 8436452.0 ], [ 2774248.0, 8436469.0 ], [ 2774248.0, 8436518.0 ] ] } },
{ "type": "Feature", "properties": { "gap": "(321216336, 1372425714)", "B": 10429.612651247278, "nodelist": [ 321216336, 12811590388, 1011525940, 1372425714 ], "source": 321216336, "target": 1372425714, "edge_list": "[(12811590388, 321216336), (1011525940, 12811590388), (1372425714, 1011525940)]" }, "geometry": { "type": "LineString", "coordinates": [ [ 2774188.0, 8436438.0 ], [ 2774194.0, 8436439.0 ], [ 2774205.0, 8436442.0 ], [ 2774224.0, 8436446.0 ], [ 2774248.0, 8436452.0 ], [ 2774248.0, 8436469.0 ], [ 2774248.0, 8436518.0 ] ] } },
{ "type": "Feature", "properties": { "gap": "(321216336, 1011525940)", "B": 10411.745095033721, "nodelist": [ 321216336, 12811590388, 1011525940 ], "source": 321216336, "target": 1011525940, "edge_list": "[(12811590388, 321216336), (1011525940, 12811590388)]" }, "geometry": { "type": "LineString", "coordinates": [ [ 2774224.0, 8436446.0 ], [ 2774248.0, 8436452.0 ], [ 2774248.0, 8436469.0 ], [ 2774248.0, 8436518.0 ] ] } },
{ "type": "Feature", "properties": { "gap": "(321216336, 12811590388)", "B": 10408.0, "nodelist": [ 321216336, 12811590388 ], "source": 321216336, "target": 12811590388, "edge_list": "[(12811590388, 321216336)]" }, "geometry": { "type": "LineString", "coordinates": [ [ 2774248.0, 8436452.0 ], [ 2774248.0, 8436469.0 ], [ 2774248.0, 8436518.0 ] ] } },
{ "type": "Feature", "properties": { "gap": "(299268464, 11764634346)", "B": 9833.5, "nodelist": [ 299268464, 11764634346 ], "source": 299268464, "target": 11764634346, "edge_list": "[(299268464, 11764634346)]" }, "geometry": { "type": "LineString", "coordinates": [ [ 2776195.0, 8437915.0 ], [ 2776194.0, 8437918.0 ], [ 2776193.0, 8437925.0 ] ] } },
{ "type": "Feature", "properties": { "gap": "(299268464, 5181628184)", "B": 9816.6403437026056, "nodelist": [ 299268464, 11764634346, 5181628184 ], "source": 299268464, "target": 5181628184, "edge_list": "[(299268464, 11764634346), (11764634346, 5181628184)]" }, "geometry": { "type": "LineString", "coordinates": [ [ 2776195.0, 8437915.0 ], [ 2776194.0, 8437918.0 ], [ 2776193.0, 8437925.0 ], [ 2776191.0, 8437937.0 ] ] } },
{ "type": "Feature", "properties": { "gap": "(299268464, 13674647094)", "B": 9766.5588484646451, "nodelist": [ 299268464, 11764634346, 5181628184, 13674647094 ], "source": 299268464, "target": 13674647094, "edge_list": "[(299268464, 11764634346), (11764634346, 5181628184), (5181628184, 13674647094)]" }, "geometry": { "type": "LineString", "coordinates": [ [ 2776195.0, 8437915.0 ], [ 2776194.0, 8437918.0 ], [ 2776193.0, 8437925.0 ], [ 2776191.0, 8437937.0 ], [ 2776187.0, 8437936.0 ] ] } },
{ "type": "Feature", "properties": { "gap": "(11764634346, 13674647094)", "B": 9725.0411658222238, "nodelist": [ 11764634346, 5181628184, 13674647094 ], "source": 11764634346, "target": 13674647094, "edge_list": "[(11764634346, 5181628184), (5181628184, 13674647094)]" }, "geometry": { "type": "LineString", "coordinates": [ [ 2776193.0, 8437925.0 ], [ 2776191.0, 8437937.0 ], [ 2776187.0, 8437936.0 ] ] } },
{ "type": "Feature", "properties": { "gap": "(25290779, 1519479201)", "B": 9499.0, "nodelist": [ 25290779, 1519479201 ], "source": 25290779, "target": 1519479201, "edge_list": "[(25290779, 1519479201)]" }, "geometry": { "type": "LineString", "coordinates": [ [ 2773676.0, 8436955.0 ], [ 2773666.0, 8436951.0 ] ] } },
{ "type": "Feature", "properties": { "gap": "(318943727, 13674647097)", "B": 9480.5, "nodelist": [ 318943727, 13674647097 ], "source": 318943727, "target": 13674647097, "edge_list": "[(318943727, 13674647097)]" }, "geometry": { "type": "LineString", "coordinates": [ [ 2776199.0, 8437990.0 ], [ 2776201.0, 8437973.0 ], [ 2776202.0, 8437967.0 ] ] } },
{ "type": "Feature", "properties": { "gap": "(5181628184, 13674647094)", "B": 9469.0000000000018, "nodelist": [ 5181628184, 13674647094 ], "source": 5181628184, "target": 13674647094, "edge_list": "[(5181628184, 13674647094)]" }, "geometry": { "type": "LineString", "coordinates": [ [ 2776191.0, 8437937.0 ], [ 2776187.0, 8437936.0 ] ] } },
{ "type": "Feature", "properties": { "gap": "(13674647095, 13674647096)", "B": 9452.5, "nodelist": [ 13674647095, 13674647096 ], "source": 13674647095, "target": 13674647096, "edge_list": "[(13674647095, 13674647096)]" }, "geometry": { "type": "LineString", "coordinates": [ [ 2776185.0, 8437955.0 ], [ 2776191.0, 8437956.0 ] ] } },
{ "type": "Feature", "properties": { "gap": "(25290779, 280922895)", "B": 9290.0037696541731, "nodelist": [ 25290779, 1519479201, 280922895 ], "source": 25290779, "target": 280922895, "edge_list": "[(25290779, 1519479201), (1519479201, 280922895)]" }, "geometry": { "type": "LineString", "coordinates": [ [ 2773676.0, 8436955.0 ], [ 2773666.0, 8436951.0 ], [ 2773659.0, 8436942.0 ] ] } },
{ "type": "Feature", "properties": { "gap": "(581077481, 603743775)", "B": 9096.0, "nodelist": [ 581077481, 603743775 ], "source": 581077481, "target": 603743775, "edge_list": "[(581077481, 603743775)]" }, "geometry": { "type": "LineString", "coordinates": [ [ 2777177.0, 8438961.0 ], [ 2777181.0, 8438981.0 ], [ 2777182.0, 8438989.0 ] ] } },
{ "type": "Feature", "properties": { "gap": "(280922895, 1519479201)", "B": 9092.5, "nodelist": [ 280922895, 1519479201 ], "source": 280922895, "target": 1519479201, "edge_list": "[(280922895, 1519479201)]" }, "geometry": { "type": "LineString", "coordinates": [ [ 2773659.0, 8436942.0 ], [ 2773666.0, 8436951.0 ] ] } },
{ "type": "Feature", "properties": { "gap": "(173248847, 10681801713)", "B": 9004.2753404688428, "nodelist": [ 173248847, 1514631272, 10681801713 ], "source": 173248847, "target": 10681801713, "edge_list": "[(173248847, 1514631272), (1514631272, 10681801713)]" }, "geometry": { "type": "LineString", "coordinates": [ [ 2776646.0, 8438352.0 ], [ 2776663.0, 8438353.0 ], [ 2776663.0, 8438361.0 ] ] } },
{ "type": "Feature", "properties": { "gap": "(720762194, 9591805330)", "B": 8697.7232325168552, "nodelist": [ 720762194, 12811590388, 1011525940, 1372425714, 60070671, 256835342, 9591805330 ], "source": 720762194, "target": 9591805330, "edge_list": "[(12811590388, 720762194), (1011525940, 12811590388), (1372425714, 1011525940), (60070671, 1372425714), (60070671, 256835342), (256835342, 9591805330)]" }, "geometry": { "type": "LineString", "coordinates": [ [ 2774159.0, 8436415.0 ], [ 2774166.0, 8436415.0 ], [ 2774169.0, 8436426.0 ], [ 2774168.0, 8436437.0 ], [ 2774188.0, 8436438.0 ], [ 2774194.0, 8436439.0 ], [ 2774205.0, 8436442.0 ], [ 2774224.0, 8436446.0 ], [ 2774248.0, 8436452.0 ], [ 2774275.0, 8436459.0 ] ] } },
{ "type": "Feature", "properties": { "gap": "(3227200762, 7699177474)", "B": 8625.0, "nodelist": [ 3227200762, 7699177474 ], "source": 3227200762, "target": 7699177474, "edge_list": "[(3227200762, 7699177474)]" }, "geometry": { "type": "LineString", "coordinates": [ [ 2775729.0, 8436748.0 ], [ 2775727.0, 8436746.0 ], [ 2775725.0, 8436746.0 ] ] } },
{ "type": "Feature", "properties": { "gap": "(3227200762, 7698500012)", "B": 8615.9804360666676, "nodelist": [ 3227200762, 7699177474, 7698500012 ], "source": 3227200762, "target": 7698500012, "edge_list": "[(3227200762, 7699177474), (7699177474, 7698500012)]" }, "geometry": { "type": "LineString", "coordinates": [ [ 2775729.0, 8436748.0 ], [ 2775727.0, 8436746.0 ], [ 2775725.0, 8436746.0 ], [ 2775723.0, 8436746.0 ] ] } },
{ "type": "Feature", "properties": { "gap": "(7698500012, 7699177474)", "B": 8600.0, "nodelist": [ 7698500012, 7699177474 ], "source": 7698500012, "target": 7699177474, "edge_list": "[(7698500012, 7699177474)]" }, "geometry": { "type": "LineString", "coordinates": [ [ 2775723.0, 8436746.0 ], [ 2775725.0, 8436746.0 ] ] } },
{ "type": "Feature", "properties": { "gap": "(3227200762, 7698500015)", "B": 8585.7138258874184, "nodelist": [ 3227200762, 7699177474, 7698500012, 7698500015 ], "source": 3227200762, "target": 7698500015, "edge_list": "[(3227200762, 7699177474), (7699177474, 7698500012), (7698500012, 7698500015)]" }, "geometry": { "type": "LineString", "coordinates": [ [ 2775729.0, 8436748.0 ], [ 2775727.0, 8436746.0 ], [ 2775725.0, 8436746.0 ], [ 2775723.0, 8436746.0 ], [ 2775717.0, 8436746.0 ], [ 2775707.0, 8436740.0 ], [ 2775705.0, 8436738.0 ] ] } },
{ "type": "Feature", "properties": { "gap": "(7698500015, 7699177474)", "B": 8577.8311882613525, "nodelist": [ 7698500015, 7698500012, 7699177474 ], "source": 7698500015, "target": 7699177474, "edge_list": "[(7698500015, 7698500012), (7698500012, 7699177474)]" }, "geometry": { "type": "LineString", "coordinates": [ [ 2775705.0, 8436738.0 ], [ 2775707.0, 8436740.0 ], [ 2775717.0, 8436746.0 ], [ 2775723.0, 8436746.0 ], [ 2775725.0, 8436746.0 ] ] } },
{ "type": "Feature", "properties": { "gap": "(7698500012, 7698500015)", "B": 8575.0, "nodelist": [ 7698500012, 7698500015 ], "source": 7698500012, "target": 7698500015, "edge_list": "[(7698500012, 7698500015)]" }, "geometry": { "type": "LineString", "coordinates": [ [ 2775723.0, 8436746.0 ], [ 2775717.0, 8436746.0 ], [ 2775707.0, 8436740.0 ], [ 2775705.0, 8436738.0 ] ] } },
{ "type": "Feature", "properties": { "gap": "(3227199758, 3227200762)", "B": 8573.833292162959, "nodelist": [ 3227199758, 7698500015, 7698500012, 7699177474, 3227200762 ], "source": 3227199758, "target": 3227200762, "edge_list": "[(3227199758, 7698500015), (7698500015, 7698500012), (7698500012, 7699177474), (7699177474, 3227200762)]" }, "geometry": { "type": "LineString", "coordinates": [ [ 2775697.0, 8436733.0 ], [ 2775705.0, 8436738.0 ], [ 2775707.0, 8436740.0 ], [ 2775717.0, 8436746.0 ], [ 2775723.0, 8436746.0 ], [ 2775725.0, 8436746.0 ], [ 2775727.0, 8436746.0 ], [ 2775729.0, 8436748.0 ] ] } },
{ "type": "Feature", "properties": { "gap": "(3227199758, 7699177474)", "B": 8566.4611448129199, "nodelist": [ 3227199758, 7698500015, 7698500012, 7699177474 ], "source": 3227199758, "target": 7699177474, "edge_list": "[(3227199758, 7698500015), (7698500015, 7698500012), (7698500012, 7699177474)]" }, "geometry": { "type": "LineString", "coordinates": [ [ 2775697.0, 8436733.0 ], [ 2775705.0, 8436738.0 ], [ 2775707.0, 8436740.0 ], [ 2775717.0, 8436746.0 ], [ 2775723.0, 8436746.0 ], [ 2775725.0, 8436746.0 ] ] } },
{ "type": "Feature", "properties": { "gap": "(3227199758, 7698500012)", "B": 8563.4922968438914, "nodelist": [ 3227199758, 7698500015, 7698500012 ], "source": 3227199758, "target": 7698500012, "edge_list": "[(3227199758, 7698500015), (7698500015, 7698500012)]" }, "geometry": { "type": "LineString", "coordinates": [ [ 2775697.0, 8436733.0 ], [ 2775705.0, 8436738.0 ], [ 2775707.0, 8436740.0 ], [ 2775717.0, 8436746.0 ], [ 2775723.0, 8436746.0 ] ] } },
{ "type": "Feature", "properties": { "gap": "(297281931, 318910475)", "B": 8543.0, "nodelist": [ 297281931, 318910475 ], "source": 297281931, "target": 318910475, "edge_list": "[(297281931, 318910475)]" }, "geometry": { "type": "LineString", "coordinates": [ [ 2776193.0, 8438326.0 ], [ 2776193.0, 8438336.0 ] ] } },
{ "type": "Feature", "properties": { "gap": "(297281931, 8305722473)", "B": 8538.209223914595, "nodelist": [ 297281931, 318910475, 8305722473 ], "source": 297281931, "target": 8305722473, "edge_list": "[(297281931, 318910475), (318910475, 8305722473)]" }, "geometry": { "type": "LineString", "coordinates": [ [ 2776193.0, 8438326.0 ], [ 2776193.0, 8438336.0 ], [ 2776191.0, 8438356.0 ] ] } },
{ "type": "Feature", "properties": { "gap": "(3227199758, 7698500015)", "B": 8537.5, "nodelist": [ 3227199758, 7698500015 ], "source": 3227199758, "target": 7698500015, "edge_list": "[(3227199758, 7698500015)]" }, "geometry": { "type": "LineString", "coordinates": [ [ 2775697.0, 8436733.0 ], [ 2775705.0, 8436738.0 ] ] } },
{ "type": "Feature", "properties": { "gap": "(318910475, 8305722473)", "B": 8536.0, "nodelist": [ 318910475, 8305722473 ], "source": 318910475, "target": 8305722473, "edge_list": "[(318910475, 8305722473)]" }, "geometry": { "type": "LineString", "coordinates": [ [ 2776193.0, 8438336.0 ], [ 2776191.0, 8438356.0 ] ] } },
{ "type": "Feature", "properties": { "gap": "(12811590388, 13030901840)", "B": 8468.7586850033949, "nodelist": [ 12811590388, 321216336, 311510898, 13030901840 ], "source": 12811590388, "target": 13030901840, "edge_list": "[(12811590388, 321216336), (321216336, 311510898), (311510898, 13030901840)]" }, "geometry": { "type": "LineString", "coordinates": [ [ 2774248.0, 8436452.0 ], [ 2774248.0, 8436469.0 ], [ 2774248.0, 8436518.0 ], [ 2774247.0, 8436526.0 ], [ 2774245.0, 8436533.0 ] ] } },
{ "type": "Feature", "properties": { "gap": "(321216336, 9591805328)", "B": 8313.9698215530661, "nodelist": [ 321216336, 12811590388, 1011525940, 1372425714, 60070671, 256835342, 9591805328 ], "source": 321216336, "target": 9591805328, "edge_list": "[(12811590388, 321216336), (1011525940, 12811590388), (1372425714, 1011525940), (60070671, 1372425714), (60070671, 256835342), (256835342, 9591805328)]" }, "geometry": { "type": "LineString", "coordinates": [ [ 2774169.0, 8436368.0 ], [ 2774166.0, 8436415.0 ], [ 2774169.0, 8436426.0 ], [ 2774168.0, 8436437.0 ], [ 2774188.0, 8436438.0 ], [ 2774194.0, 8436439.0 ], [ 2774205.0, 8436442.0 ], [ 2774224.0, 8436446.0 ], [ 2774248.0, 8436452.0 ], [ 2774248.0, 8436469.0 ], [ 2774248.0, 8436518.0 ] ] } },
{ "type": "Feature", "properties": { "gap": "(3227199758, 7698500011)", "B": 8168.6661703698637, "nodelist": [ 3227199758, 7698500015, 7698500012, 7698500011 ], "source": 3227199758, "target": 7698500011, "edge_list": "[(3227199758, 7698500015), (7698500015, 7698500012), (7698500012, 7698500011)]" }, "geometry": { "type": "LineString", "coordinates": [ [ 2775697.0, 8436733.0 ], [ 2775705.0, 8436738.0 ], [ 2775707.0, 8436740.0 ], [ 2775717.0, 8436746.0 ], [ 2775723.0, 8436746.0 ], [ 2775721.0, 8436745.0 ] ] } },
{ "type": "Feature", "properties": { "gap": "(295057566, 9327554266)", "B": 8147.5, "nodelist": [ 295057566, 9327554266 ], "source": 295057566, "target": 9327554266, "edge_list": "[(295057566, 9327554266)]" }, "geometry": { "type": "LineString", "coordinates": [ [ 2776006.0, 8437587.0 ], [ 2775965.0, 8437599.0 ] ] } },
{ "type": "Feature", "properties": { "gap": "(7698500011, 7698500015)", "B": 8016.0318177932968, "nodelist": [ 7698500011, 7698500012, 7698500015 ], "source": 7698500011, "target": 7698500015, "edge_list": "[(7698500011, 7698500012), (7698500012, 7698500015)]" }, "geometry": { "type": "LineString", "coordinates": [ [ 2775721.0, 8436745.0 ], [ 2775723.0, 8436746.0 ], [ 2775717.0, 8436746.0 ], [ 2775707.0, 8436740.0 ], [ 2775705.0, 8436738.0 ] ] } },
{ "type": "Feature", "properties": { "gap": "(8305722473, 11869879539)", "B": 7832.2961901038989, "nodelist": [ 8305722473, 318910475, 297281931, 11869879539 ], "source": 8305722473, "target": 11869879539, "edge_list": "[(8305722473, 318910475), (318910475, 297281931), (297281931, 11869879539)]" }, "geometry": { "type": "LineString", "coordinates": [ [ 2776191.0, 8438356.0 ], [ 2776193.0, 8438336.0 ], [ 2776193.0, 8438326.0 ], [ 2776185.0, 8438326.0 ] ] } },
{ "type": "Feature", "properties": { "gap": "(25238944, 9591805330)", "B": 7785.4426574115005, "nodelist": [ 25238944, 1011525940, 1372425714, 60070671, 256835342, 9591805330 ], "source": 25238944, "target": 9591805330, "edge_list": "[(1011525940, 25238944), (1372425714, 1011525940), (60070671, 1372425714), (60070671, 256835342), (256835342, 9591805330)]" }, "geometry": { "type": "LineString", "coordinates": [ [ 2774159.0, 8436415.0 ], [ 2774166.0, 8436415.0 ], [ 2774169.0, 8436426.0 ], [ 2774168.0, 8436437.0 ], [ 2774188.0, 8436438.0 ], [ 2774194.0, 8436439.0 ], [ 2774205.0, 8436442.0 ], [ 2774224.0, 8436446.0 ], [ 2774225.0, 8436483.0 ] ] } },
{ "type": "Feature", "properties": { "gap": "(1382297433, 1382297439)", "B": 7706.5, "nodelist": [ 1382297433, 1382297439 ], "source": 1382297433, "target": 1382297439, "edge_list": "[(1382297433, 1382297439)]" }, "geometry": { "type": "LineString", "coordinates": [ [ 2774595.0, 8436615.0 ], [ 2774603.0, 8436645.0 ] ] } },
{ "type": "Feature", "properties": { "gap": "(1382297433, 1382297434)", "B": 7678.0, "nodelist": [ 1382297433, 1382297434 ], "source": 1382297433, "target": 1382297434, "edge_list": "[(1382297433, 1382297434)]" }, "geometry": { "type": "LineString", "coordinates": [ [ 2774595.0, 8436615.0 ], [ 2774530.0, 8436632.0 ] ] } },
{ "type": "Feature", "properties": { "gap": "(3237856907, 3237856912)", "B": 7488.5, "nodelist": [ 3237856907, 3237856912 ], "source": 3237856907, "target": 3237856912, "edge_list": "[(3237856907, 3237856912)]" }, "geometry": { "type": "LineString", "coordinates": [ [ 2776124.0, 8438665.0 ], [ 2776122.0, 8438679.0 ], [ 2776121.0, 8438686.0 ] ] } },
{ "type": "Feature", "properties": { "gap": "(292717111, 1724492957)", "B": 7486.0000000000009, "nodelist": [ 292717111, 1724492957 ], "source": 292717111, "target": 1724492957, "edge_list": "[(292717111, 1724492957)]" }, "geometry": { "type": "LineString", "coordinates": [ [ 2775633.0, 8438500.0 ], [ 2775628.0, 8438513.0 ], [ 2775626.0, 8438518.0 ], [ 2775626.0, 8438521.0 ] ] } },
{ "type": "Feature", "properties": { "gap": "(268410428, 321216336)", "B": 7426.9246342619326, "nodelist": [ 268410428, 9591805330, 256835342, 60070671, 1372425714, 1011525940, 12811590388, 321216336 ], "source": 268410428, "target": 321216336, "edge_list": "[(268410428, 9591805330), (9591805330, 256835342), (256835342, 60070671), (60070671, 1372425714), (1372425714, 1011525940), (1011525940, 12811590388), (12811590388, 321216336)]" }, "geometry": { "type": "LineString", "coordinates": [ [ 2774080.0, 8436410.0 ], [ 2774159.0, 8436415.0 ], [ 2774166.0, 8436415.0 ], [ 2774169.0, 8436426.0 ], [ 2774168.0, 8436437.0 ], [ 2774188.0, 8436438.0 ], [ 2774194.0, 8436439.0 ], [ 2774205.0, 8436442.0 ], [ 2774224.0, 8436446.0 ], [ 2774248.0, 8436452.0 ], [ 2774248.0, 8436469.0 ], [ 2774248.0, 8436518.0 ] ] } },
{ "type": "Feature", "properties": { "gap": "(9591805328, 12811590388)", "B": 7397.5381340146369, "nodelist": [ 9591805328, 256835342, 60070671, 1372425714, 1011525940, 12811590388 ], "source": 9591805328, "target": 12811590388, "edge_list": "[(9591805328, 256835342), (256835342, 60070671), (60070671, 1372425714), (1372425714, 1011525940), (1011525940, 12811590388)]" }, "geometry": { "type": "LineString", "coordinates": [ [ 2774169.0, 8436368.0 ], [ 2774166.0, 8436415.0 ], [ 2774169.0, 8436426.0 ], [ 2774168.0, 8436437.0 ], [ 2774188.0, 8436438.0 ], [ 2774194.0, 8436439.0 ], [ 2774205.0, 8436442.0 ], [ 2774224.0, 8436446.0 ], [ 2774248.0, 8436452.0 ] ] } },
{ "type": "Feature", "properties": { "gap": "(321216336, 720762194)", "B": 7305.4350862880474, "nodelist": [ 321216336, 12811590388, 720762194 ], "source": 321216336, "target": 720762194, "edge_list": "[(12811590388, 321216336), (12811590388, 720762194)]" }, "geometry": { "type": "LineString", "coordinates": [ [ 2774248.0, 8436518.0 ], [ 2774248.0, 8436469.0 ], [ 2774248.0, 8436452.0 ], [ 2774275.0, 8436459.0 ] ] } },
{ "type": "Feature", "properties": { "gap": "(3227200762, 7698500011)", "B": 7198.2585200434505, "nodelist": [ 3227200762, 7699177474, 7698500012, 7698500011 ], "source": 3227200762, "target": 7698500011, "edge_list": "[(3227200762, 7699177474), (7699177474, 7698500012), (7698500012, 7698500011)]" }, "geometry": { "type": "LineString", "coordinates": [ [ 2775729.0, 8436748.0 ], [ 2775727.0, 8436746.0 ], [ 2775725.0, 8436746.0 ], [ 2775723.0, 8436746.0 ], [ 2775721.0, 8436745.0 ] ] } },
{ "type": "Feature", "properties": { "gap": "(8860018021, 9551494167)", "B": 7113.0, "nodelist": [ 8860018021, 9551494167 ], "source": 8860018021, "target": 9551494167, "edge_list": "[(8860018021, 9551494167)]" }, "geometry": { "type": "LineString", "coordinates": [ [ 2777309.0, 8437906.0 ], [ 2777306.0, 8437906.0 ], [ 2777269.0, 8437904.0 ] ] } },
{ "type": "Feature", "properties": { "gap": "(176246326, 6849434403)", "B": 7094.5, "nodelist": [ 176246326, 6849434403 ], "source": 176246326, "target": 6849434403, "edge_list": "[(176246326, 6849434403)]" }, "geometry": { "type": "LineString", "coordinates": [ [ 2775962.0, 8437822.0 ], [ 2775955.0, 8437831.0 ] ] } },
{ "type": "Feature", "properties": { "gap": "(176246326, 292723253)", "B": 7090.231398648406, "nodelist": [ 176246326, 6849434403, 292723253 ], "source": 176246326, "target": 292723253, "edge_list": "[(176246326, 6849434403), (6849434403, 292723253)]" }, "geometry": { "type": "LineString", "coordinates": [ [ 2775962.0, 8437822.0 ], [ 2775955.0, 8437831.0 ], [ 2775941.0, 8437849.0 ], [ 2775906.0, 8437878.0 ] ] } },
{ "type": "Feature", "properties": { "gap": "(176246326, 302569345)", "B": 7070.6757198518699, "nodelist": [ 176246326, 6849434403, 292723253, 302569345 ], "source": 176246326, "target": 302569345, "edge_list": "[(176246326, 6849434403), (6849434403, 292723253), (292723253, 302569345)]" }, "geometry": { "type": "LineString", "coordinates": [ [ 2775962.0, 8437822.0 ], [ 2775955.0, 8437831.0 ], [ 2775941.0, 8437849.0 ], [ 2775906.0, 8437878.0 ], [ 2775895.0, 8437886.0 ] ] } },
{ "type": "Feature", "properties": { "gap": "(176246326, 257751136)", "B": 7052.7184447380441, "nodelist": [ 176246326, 6849434403, 292723253, 302569345, 257751136 ], "source": 176246326, "target": 257751136, "edge_list": "[(176246326, 6849434403), (6849434403, 292723253), (292723253, 302569345), (302569345, 257751136)]" }, "geometry": { "type": "LineString", "coordinates": [ [ 2775962.0, 8437822.0 ], [ 2775955.0, 8437831.0 ], [ 2775941.0, 8437849.0 ], [ 2775906.0, 8437878.0 ], [ 2775895.0, 8437886.0 ], [ 2775882.0, 8437897.0 ] ] } },
{ "type": "Feature", "properties": { "gap": "(257751136, 6849434403)", "B": 7047.8374075599495, "nodelist": [ 257751136, 302569345, 292723253, 6849434403 ], "source": 257751136, "target": 6849434403, "edge_list": "[(257751136, 302569345), (302569345, 292723253), (292723253, 6849434403)]" }, "geometry": { "type": "LineString", "coordinates": [ [ 2775882.0, 8437897.0 ], [ 2775895.0, 8437886.0 ], [ 2775906.0, 8437878.0 ], [ 2775941.0, 8437849.0 ], [ 2775955.0, 8437831.0 ] ] } },
{ "type": "Feature", "properties": { "gap": "(318575123, 945714827)", "B": 7044.5, "nodelist": [ 318575123, 945714827 ], "source": 318575123, "target": 945714827, "edge_list": "[(945714827, 318575123)]" }, "geometry": { "type": "LineString", "coordinates": [ [ 2777419.0, 8439185.0 ], [ 2777419.0, 8439181.0 ], [ 2777419.0, 8439167.0 ], [ 2777425.0, 8439052.0 ], [ 2777425.0, 8439038.0 ] ] } },
{ "type": "Feature", "properties": { "gap": "(318910475, 11869879539)", "B": 7024.8648190328768, "nodelist": [ 318910475, 297281931, 11869879539 ], "source": 318910475, "target": 11869879539, "edge_list": "[(318910475, 297281931), (297281931, 11869879539)]" }, "geometry": { "type": "LineString", "coordinates": [ [ 2776193.0, 8438336.0 ], [ 2776193.0, 8438326.0 ], [ 2776185.0, 8438326.0 ] ] } },
{ "type": "Feature", "properties": { "gap": "(257751136, 292723253)", "B": 6958.5666388965747, "nodelist": [ 257751136, 302569345, 292723253 ], "source": 257751136, "target": 292723253, "edge_list": "[(257751136, 302569345), (302569345, 292723253)]" }, "geometry": { "type": "LineString", "coordinates": [ [ 2775882.0, 8437897.0 ], [ 2775895.0, 8437886.0 ], [ 2775906.0, 8437878.0 ] ] } },
{ "type": "Feature", "properties": { "gap": "(257751136, 302569345)", "B": 6952.5, "nodelist": [ 257751136, 302569345 ], "source": 257751136, "target": 302569345, "edge_list": "[(257751136, 302569345)]" }, "geometry": { "type": "LineString", "coordinates": [ [ 2775882.0, 8437897.0 ], [ 2775895.0, 8437886.0 ] ] } },
{ "type": "Feature", "properties": { "gap": "(1382297434, 1382297436)", "B": 6895.9214536095124, "nodelist": [ 1382297434, 1382297433, 1382297439, 1382297437, 1382297436 ], "source": 1382297434, "target": 1382297436, "edge_list": "[(1382297434, 1382297433), (1382297433, 1382297439), (1382297439, 1382297437), (1382297437, 1382297436)]" }, "geometry": { "type": "LineString", "coordinates": [ [ 2774530.0, 8436632.0 ], [ 2774595.0, 8436615.0 ], [ 2774603.0, 8436645.0 ], [ 2774652.0, 8436632.0 ], [ 2774686.0, 8436623.0 ] ] } },
{ "type": "Feature", "properties": { "gap": "(1382297433, 1382297437)", "B": 6876.6442723699574, "nodelist": [ 1382297433, 1382297439, 1382297437 ], "source": 1382297433, "target": 1382297437, "edge_list": "[(1382297433, 1382297439), (1382297439, 1382297437)]" }, "geometry": { "type": "LineString", "coordinates": [ [ 2774595.0, 8436615.0 ], [ 2774603.0, 8436645.0 ], [ 2774652.0, 8436632.0 ] ] } },
{ "type": "Feature", "properties": { "gap": "(3170187304, 6503544224)", "B": 6874.5, "nodelist": [ 3170187304, 6503544224 ], "source": 3170187304, "target": 6503544224, "edge_list": "[(3170187304, 6503544224)]" }, "geometry": { "type": "LineString", "coordinates": [ [ 2776588.0, 8437818.0 ], [ 2776588.0, 8437824.0 ] ] } },
{ "type": "Feature", "properties": { "gap": "(1011525854, 9591805330)", "B": 6864.374978975392, "nodelist": [ 1011525854, 720762194, 12811590388, 1011525940, 1372425714, 60070671, 256835342, 9591805330 ], "source": 1011525854, "target": 9591805330, "edge_list": "[(720762194, 1011525854), (12811590388, 720762194), (1011525940, 12811590388), (1372425714, 1011525940), (60070671, 1372425714), (60070671, 256835342), (256835342, 9591805330)]" }, "geometry": { "type": "LineString", "coordinates": [ [ 2774159.0, 8436415.0 ], [ 2774166.0, 8436415.0 ], [ 2774169.0, 8436426.0 ], [ 2774168.0, 8436437.0 ], [ 2774188.0, 8436438.0 ], [ 2774194.0, 8436439.0 ], [ 2774205.0, 8436442.0 ], [ 2774224.0, 8436446.0 ], [ 2774248.0, 8436452.0 ], [ 2774275.0, 8436459.0 ], [ 2774312.0, 8436464.0 ] ] } },
{ "type": "Feature", "properties": { "gap": "(1011525940, 9591805328)", "B": 6822.1943616703647, "nodelist": [ 1011525940, 1372425714, 60070671, 256835342, 9591805328 ], "source": 1011525940, "target": 9591805328, "edge_list": "[(1372425714, 1011525940), (60070671, 1372425714), (60070671, 256835342), (256835342, 9591805328)]" }, "geometry": { "type": "LineString", "coordinates": [ [ 2774169.0, 8436368.0 ], [ 2774166.0, 8436415.0 ], [ 2774169.0, 8436426.0 ], [ 2774168.0, 8436437.0 ], [ 2774188.0, 8436438.0 ], [ 2774194.0, 8436439.0 ], [ 2774205.0, 8436442.0 ], [ 2774224.0, 8436446.0 ] ] } },
{ "type": "Feature", "properties": { "gap": "(173248847, 4447421089)", "B": 6753.2217497074598, "nodelist": [ 173248847, 1514631272, 10681801713, 4447421089 ], "source": 173248847, "target": 4447421089, "edge_list": "[(173248847, 1514631272), (1514631272, 10681801713), (10681801713, 4447421089)]" }, "geometry": { "type": "LineString", "coordinates": [ [ 2776646.0, 8438352.0 ], [ 2776663.0, 8438353.0 ], [ 2776663.0, 8438361.0 ], [ 2776662.0, 8438369.0 ] ] } },
{ "type": "Feature", "properties": { "gap": "(282423814, 297291238)", "B": 6664.0, "nodelist": [ 282423814, 297291238 ], "source": 282423814, "target": 297291238, "edge_list": "[(282423814, 297291238)]" }, "geometry": { "type": "LineString", "coordinates": [ [ 2777423.0, 8438968.0 ], [ 2777423.0, 8438972.0 ], [ 2777423.0, 8438982.0 ] ] } },
{ "type": "Feature", "properties": { "gap": "(282423814, 463272210)", "B": 6631.1589935650427, "nodelist": [ 282423814, 297291238, 463272210 ], "source": 282423814, "target": 463272210, "edge_list": "[(282423814, 297291238), (297291238, 463272210)]" }, "geometry": { "type": "LineString", "coordinates": [ [ 2777423.0, 8438968.0 ], [ 2777423.0, 8438972.0 ], [ 2777423.0, 8438982.0 ], [ 2777422.0, 8439001.0 ] ] } },
{ "type": "Feature", "properties": { "gap": "(282423814, 947967070)", "B": 6617.003610188015, "nodelist": [ 282423814, 297291238, 463272210, 947967070 ], "source": 282423814, "target": 947967070, "edge_list": "[(282423814, 297291238), (297291238, 463272210), (463272210, 947967070)]" }, "geometry": { "type": "LineString", "coordinates": [ [ 2777423.0, 8438968.0 ], [ 2777423.0, 8438972.0 ], [ 2777423.0, 8438982.0 ], [ 2777422.0, 8439001.0 ], [ 2777418.0, 8438999.0 ], [ 2777412.0, 8438997.0 ], [ 2777401.0, 8438996.0 ] ] } },
{ "type": "Feature", "properties": { "gap": "(297291238, 947967070)", "B": 6601.1271703478415, "nodelist": [ 297291238, 463272210, 947967070 ], "source": 297291238, "target": 947967070, "edge_list": "[(297291238, 463272210), (463272210, 947967070)]" }, "geometry": { "type": "LineString", "coordinates": [ [ 2777423.0, 8438982.0 ], [ 2777422.0, 8439001.0 ], [ 2777418.0, 8438999.0 ], [ 2777412.0, 8438997.0 ], [ 2777401.0, 8438996.0 ] ] } },
{ "type": "Feature", "properties": { "gap": "(463272210, 947967070)", "B": 6595.5, "nodelist": [ 463272210, 947967070 ], "source": 463272210, "target": 947967070, "edge_list": "[(463272210, 947967070)]" }, "geometry": { "type": "LineString", "coordinates": [ [ 2777422.0, 8439001.0 ], [ 2777418.0, 8438999.0 ], [ 2777412.0, 8438997.0 ], [ 2777401.0, 8438996.0 ] ] } },
{ "type": "Feature", "properties": { "gap": "(318575123, 13242942633)", "B": 6569.5107011481341, "nodelist": [ 318575123, 945714827, 13242942633 ], "source": 318575123, "target": 13242942633, "edge_list": "[(945714827, 318575123), (13242942633, 945714827)]" }, "geometry": { "type": "LineString", "coordinates": [ [ 2777418.0, 8439195.0 ], [ 2777419.0, 8439185.0 ], [ 2777419.0, 8439181.0 ], [ 2777419.0, 8439167.0 ], [ 2777425.0, 8439052.0 ], [ 2777425.0, 8439038.0 ] ] } },
{ "type": "Feature", "properties": { "gap": "(3227199758, 3227200764)", "B": 6497.9693530990753, "nodelist": [ 3227199758, 7698500015, 7698500012, 7699177474, 3227200762, 3227200764 ], "source": 3227199758, "target": 3227200764, "edge_list": "[(3227199758, 7698500015), (7698500015, 7698500012), (7698500012, 7699177474), (7699177474, 3227200762), (3227200762, 3227200764)]" }, "geometry": { "type": "LineString", "coordinates": [ [ 2775697.0, 8436733.0 ], [ 2775705.0, 8436738.0 ], [ 2775707.0, 8436740.0 ], [ 2775717.0, 8436746.0 ], [ 2775723.0, 8436746.0 ], [ 2775725.0, 8436746.0 ], [ 2775727.0, 8436746.0 ], [ 2775729.0, 8436748.0 ], [ 2775740.0, 8436753.0 ] ] } },
{ "type": "Feature", "properties": { "gap": "(296250573, 296250574)", "B": 6479.5, "nodelist": [ 296250573, 296250574 ], "source": 296250573, "target": 296250574, "edge_list": "[(296250573, 296250574)]" }, "geometry": { "type": "LineString", "coordinates": [ [ 2776493.0, 8437133.0 ], [ 2776501.0, 8437139.0 ] ] } },
{ "type": "Feature", "properties": { "gap": "(296250573, 297679981)", "B": 6476.9161913175785, "nodelist": [ 296250573, 296250574, 297679981 ], "source": 296250573, "target": 297679981, "edge_list": "[(296250573, 296250574), (296250574, 297679981)]" }, "geometry": { "type": "LineString", "coordinates": [ [ 2776493.0, 8437133.0 ], [ 2776501.0, 8437139.0 ], [ 2776509.0, 8437145.0 ] ] } },
{ "type": "Feature", "properties": { "gap": "(296250574, 297679981)", "B": 6474.5, "nodelist": [ 296250574, 297679981 ], "source": 296250574, "target": 297679981, "edge_list": "[(296250574, 297679981)]" }, "geometry": { "type": "LineString", "coordinates": [ [ 2776501.0, 8437139.0 ], [ 2776509.0, 8437145.0 ] ] } },
{ "type": "Feature", "properties": { "gap": "(296250570, 296250576)", "B": 6470.0, "nodelist": [ 296250570, 296250576 ], "source": 296250570, "target": 296250576, "edge_list": "[(296250570, 296250576)]" }, "geometry": { "type": "LineString", "coordinates": [ [ 2776548.0, 8437172.0 ], [ 2776543.0, 8437168.0 ], [ 2776535.0, 8437163.0 ] ] } },
{ "type": "Feature", "properties": { "gap": "(296250570, 297679977)", "B": 6469.1706481325791, "nodelist": [ 296250570, 296250576, 297679977 ], "source": 296250570, "target": 297679977, "edge_list": "[(296250570, 296250576), (296250576, 297679977)]" }, "geometry": { "type": "LineString", "coordinates": [ [ 2776548.0, 8437172.0 ], [ 2776543.0, 8437168.0 ], [ 2776535.0, 8437163.0 ], [ 2776526.0, 8437157.0 ] ] } },
{ "type": "Feature", "properties": { "gap": "(296250576, 297679977)", "B": 6467.9999999999991, "nodelist": [ 296250576, 297679977 ], "source": 296250576, "target": 297679977, "edge_list": "[(296250576, 297679977)]" }, "geometry": { "type": "LineString", "coordinates": [ [ 2776535.0, 8437163.0 ], [ 2776526.0, 8437157.0 ] ] } },
{ "type": "Feature", "properties": { "gap": "(296250570, 296250573)", "B": 6467.2443761720542, "nodelist": [ 296250570, 296250576, 297679977, 297679981, 296250574, 296250573 ], "source": 296250570, "target": 296250573, "edge_list": "[(296250570, 296250576), (296250576, 297679977), (297679977, 297679981), (297679981, 296250574), (296250574, 296250573)]" }, "geometry": { "type": "LineString", "coordinates": [ [ 2776548.0, 8437172.0 ], [ 2776543.0, 8437168.0 ], [ 2776535.0, 8437163.0 ], [ 2776526.0, 8437157.0 ], [ 2776521.0, 8437153.0 ], [ 2776516.0, 8437150.0 ], [ 2776509.0, 8437145.0 ], [ 2776501.0, 8437139.0 ], [ 2776493.0, 8437133.0 ] ] } },
{ "type": "Feature", "properties": { "gap": "(296250573, 296250576)", "B": 6466.4172093623665, "nodelist": [ 296250573, 296250574, 297679981, 297679977, 296250576 ], "source": 296250573, "target": 296250576, "edge_list": "[(296250573, 296250574), (296250574, 297679981), (297679981, 297679977), (297679977, 296250576)]" }, "geometry": { "type": "LineString", "coordinates": [ [ 2776493.0, 8437133.0 ], [ 2776501.0, 8437139.0 ], [ 2776509.0, 8437145.0 ], [ 2776516.0, 8437150.0 ], [ 2776521.0, 8437153.0 ], [ 2776526.0, 8437157.0 ], [ 2776535.0, 8437163.0 ] ] } },
{ "type": "Feature", "properties": { "gap": "(296250573, 297679977)", "B": 6465.9896989232957, "nodelist": [ 296250573, 296250574, 297679981, 297679977 ], "source": 296250573, "target": 297679977, "edge_list": "[(296250573, 296250574), (296250574, 297679981), (297679981, 297679977)]" }, "geometry": { "type": "LineString", "coordinates": [ [ 2776493.0, 8437133.0 ], [ 2776501.0, 8437139.0 ], [ 2776509.0, 8437145.0 ], [ 2776516.0, 8437150.0 ], [ 2776521.0, 8437153.0 ], [ 2776526.0, 8437157.0 ] ] } },
{ "type": "Feature", "properties": { "gap": "(296250570, 296250574)", "B": 6465.2532020354383, "nodelist": [ 296250570, 296250576, 297679977, 297679981, 296250574 ], "source": 296250570, "target": 296250574, "edge_list": "[(296250570, 296250576), (296250576, 297679977), (297679977, 297679981), (297679981, 296250574)]" }, "geometry": { "type": "LineString", "coordinates": [ [ 2776548.0, 8437172.0 ], [ 2776543.0, 8437168.0 ], [ 2776535.0, 8437163.0 ], [ 2776526.0, 8437157.0 ], [ 2776521.0, 8437153.0 ], [ 2776516.0, 8437150.0 ], [ 2776509.0, 8437145.0 ], [ 2776501.0, 8437139.0 ] ] } },
{ "type": "Feature", "properties": { "gap": "(296250570, 297679981)", "B": 6463.3088355225063, "nodelist": [ 296250570, 296250576, 297679977, 297679981 ], "source": 296250570, "target": 297679981, "edge_list": "[(296250570, 296250576), (296250576, 297679977), (297679977, 297679981)]" }, "geometry": { "type": "LineString", "coordinates": [ [ 2776548.0, 8437172.0 ], [ 2776543.0, 8437168.0 ], [ 2776535.0, 8437163.0 ], [ 2776526.0, 8437157.0 ], [ 2776521.0, 8437153.0 ], [ 2776516.0, 8437150.0 ], [ 2776509.0, 8437145.0 ] ] } },
{ "type": "Feature", "properties": { "gap": "(296250574, 297679977)", "B": 6461.9359630180879, "nodelist": [ 296250574, 297679981, 297679977 ], "source": 296250574, "target": 297679977, "edge_list": "[(296250574, 297679981), (297679981, 297679977)]" }, "geometry": { "type": "LineString", "coordinates": [ [ 2776501.0, 8437139.0 ], [ 2776509.0, 8437145.0 ], [ 2776516.0, 8437150.0 ], [ 2776521.0, 8437153.0 ], [ 2776526.0, 8437157.0 ] ] } },
{ "type": "Feature", "properties": { "gap": "(296250576, 297679981)", "B": 6460.0898650727349, "nodelist": [ 296250576, 297679977, 297679981 ], "source": 296250576, "target": 297679981, "edge_list": "[(296250576, 297679977), (297679977, 297679981)]" }, "geometry": { "type": "LineString", "coordinates": [ [ 2776535.0, 8437163.0 ], [ 2776526.0, 8437157.0 ], [ 2776521.0, 8437153.0 ], [ 2776516.0, 8437150.0 ], [ 2776509.0, 8437145.0 ] ] } },
{ "type": "Feature", "properties": { "gap": "(297679977, 297679981)", "B": 6456.0, "nodelist": [ 297679977, 297679981 ], "source": 297679977, "target": 297679981, "edge_list": "[(297679977, 297679981)]" }, "geometry": { "type": "LineString", "coordinates": [ [ 2776526.0, 8437157.0 ], [ 2776521.0, 8437153.0 ], [ 2776516.0, 8437150.0 ], [ 2776509.0, 8437145.0 ] ] } },
{ "type": "Feature", "properties": { "gap": "(1382297433, 1382297436)", "B": 6449.5316933942704, "nodelist": [ 1382297433, 1382297439, 1382297437, 1382297436 ], "source": 1382297433, "target": 1382297436, "edge_list": "[(1382297433, 1382297439), (1382297439, 1382297437), (1382297437, 1382297436)]" }, "geometry": { "type": "LineString", "coordinates": [ [ 2774595.0, 8436615.0 ], [ 2774603.0, 8436645.0 ], [ 2774652.0, 8436632.0 ], [ 2774686.0, 8436623.0 ] ] } },
{ "type": "Feature", "properties": { "gap": "(268410428, 12811590388)", "B": 6386.809009825598, "nodelist": [ 268410428, 9591805330, 256835342, 60070671, 1372425714, 1011525940, 12811590388 ], "source": 268410428, "target": 12811590388, "edge_list": "[(268410428, 9591805330), (9591805330, 256835342), (256835342, 60070671), (60070671, 1372425714), (1372425714, 1011525940), (1011525940, 12811590388)]" }, "geometry": { "type": "LineString", "coordinates": [ [ 2774080.0, 8436410.0 ], [ 2774159.0, 8436415.0 ], [ 2774166.0, 8436415.0 ], [ 2774169.0, 8436426.0 ], [ 2774168.0, 8436437.0 ], [ 2774188.0, 8436438.0 ], [ 2774194.0, 8436439.0 ], [ 2774205.0, 8436442.0 ], [ 2774224.0, 8436446.0 ], [ 2774248.0, 8436452.0 ] ] } },
{ "type": "Feature", "properties": { "gap": "(720762197, 9591805330)", "B": 6344.5940805737828, "nodelist": [ 720762197, 720762194, 12811590388, 1011525940, 1372425714, 60070671, 256835342, 9591805330 ], "source": 720762197, "target": 9591805330, "edge_list": "[(720762197, 720762194), (12811590388, 720762194), (1011525940, 12811590388), (1372425714, 1011525940), (60070671, 1372425714), (60070671, 256835342), (256835342, 9591805330)]" }, "geometry": { "type": "LineString", "coordinates": [ [ 2774159.0, 8436415.0 ], [ 2774166.0, 8436415.0 ], [ 2774169.0, 8436426.0 ], [ 2774168.0, 8436437.0 ], [ 2774188.0, 8436438.0 ], [ 2774194.0, 8436439.0 ], [ 2774205.0, 8436442.0 ], [ 2774224.0, 8436446.0 ], [ 2774248.0, 8436452.0 ], [ 2774275.0, 8436459.0 ], [ 2774272.0, 8436511.0 ] ] } },
{ "type": "Feature", "properties": { "gap": "(173248847, 11886560176)", "B": 6305.3018013727087, "nodelist": [ 173248847, 1514631272, 10681801713, 11886560176 ], "source": 173248847, "target": 11886560176, "edge_list": "[(173248847, 1514631272), (1514631272, 10681801713), (10681801713, 11886560176)]" }, "geometry": { "type": "LineString", "coordinates": [ [ 2776646.0, 8438352.0 ], [ 2776663.0, 8438353.0 ], [ 2776663.0, 8438361.0 ], [ 2776658.0, 8438360.0 ], [ 2776652.0, 8438360.0 ] ] } }
]
}
