{
"type": "FeatureCollection",
"name": "Stockholm-geojson",
"crs": { "type": "name", "properties": { "name": "urn:ogc:def:crs:EPSG::3857" } },
"features": [
{ "type": "Feature", "properties": { "gap": "(5538374, 175158398)", "B": 5745.0, "nodelist": [ 5538374, 175158398 ], "source": 5538374, "target": 175158398, "edge_list": "[(5538374, 175158398)]" }, "geometry": { "type": "LineString", "coordinates": [ [ 2006983.0, 8248138.0 ], [ 2006956.0, 8248118.0 ], [ 2006924.0, 8248094.0 ] ] } },
{ "type": "Feature", "properties": { "gap": "(5538374, 2018523870)", "B": 5095.8668936629547, "nodelist": [ 5538374, 175158398, 2018523870 ], "source": 5538374, "target": 2018523870, "edge_list": "[(5538374, 175158398), (175158398, 2018523870)]" }, "geometry": { "type": "LineString", "coordinates": [ [ 2006983.0, 8248138.0 ], [ 2006956.0, 8248118.0 ], [ 2006924.0, 8248094.0 ], [ 2006910.0, 8248103.0 ] ] } },
{ "type": "Feature", "properties": { "gap": "(5249107524, 5249107525)", "B": 4788.5, "nodelist": [ 5249107524, 5249107525 ], "source": 5249107524, "target": 5249107525, "edge_list": "[(5249107524, 5249107525)]" }, "geometry": { "type": "LineString", "coordinates": [ [ 2006714.0, 8247428.0 ], [ 2006731.0, 8247449.0 ] ] } },
{ "type": "Feature", "properties": { "gap": "(5249082518, 5249082520)", "B": 4770.5, "nodelist": [ 5249082518, 5249082520 ], "source": 5249082518, "target": 5249082520, "edge_list": "[(5249082518, 5249082520)]" }, "geometry": { "type": "LineString", "coordinates": [ [ 2006713.0, 8247309.0 ], [ 2006701.0, 8247321.0 ], [ 2006688.0, 8247339.0 ] ] } },
{ "type": "Feature", "properties": { "gap": "(1164227345, 11114349322)", "B": 4275.0, "nodelist": [ 1164227345, 11114349322 ], "source": 1164227345, "target": 11114349322, "edge_list": "[(1164227345, 11114349322)]" }, "geometry": { "type": "LineString", "coordinates": [ [ 2006837.0, 8247670.0 ], [ 2006847.0, 8247664.0 ], [ 2006852.0, 8247660.0 ] ] } },
{ "type": "Feature", "properties": { "gap": "(1245606542, 11114349322)", "B": 4250.1408425858945, "nodelist": [ 1245606542, 1164227345, 11114349322 ], "source": 1245606542, "target": 11114349322, "edge_list": "[(1245606542, 1164227345), (1164227345, 11114349322)]" }, "geometry": { "type": "LineString", "coordinates": [ [ 2006822.0, 8247680.0 ], [ 2006837.0, 8247670.0 ], [ 2006847.0, 8247664.0 ], [ 2006852.0, 8247660.0 ] ] } },
{ "type": "Feature", "properties": { "gap": "(1289481782, 11114349322)", "B": 4246.2112961176781, "nodelist": [ 1289481782, 1245606542, 1164227345, 11114349322 ], "source": 1289481782, "target": 11114349322, "edge_list": "[(1289481782, 1245606542), (1245606542, 1164227345), (1164227345, 11114349322)]" }, "geometry": { "type": "LineString", "coordinates": [ [ 2006816.0, 8247685.0 ], [ 2006822.0, 8247680.0 ], [ 2006837.0, 8247670.0 ], [ 2006847.0, 8247664.0 ], [ 2006852.0, 8247660.0 ] ] } },
{ "type": "Feature", "properties": { "gap": "(5192384730, 11114349322)", "B": 4245.6478288585249, "nodelist": [ 5192384730, 1289481782, 1245606542, 1164227345, 11114349322 ], "source": 5192384730, "target": 11114349322, "edge_list": "[(5192384730, 1289481782), (1289481782, 1245606542), (1245606542, 1164227345), (1164227345, 11114349322)]" }, "geometry": { "type": "LineString", "coordinates": [ [ 2006810.0, 8247688.0 ], [ 2006816.0, 8247685.0 ], [ 2006822.0, 8247680.0 ], [ 2006837.0, 8247670.0 ], [ 2006847.0, 8247664.0 ], [ 2006852.0, 8247660.0 ] ] } },
{ "type": "Feature", "properties": { "gap": "(1289481782, 5192384730)", "B": 4242.0, "nodelist": [ 1289481782, 5192384730 ], "source": 1289481782, "target": 5192384730, "edge_list": "[(1289481782, 5192384730)]" }, "geometry": { "type": "LineString", "coordinates": [ [ 2006816.0, 8247685.0 ], [ 2006810.0, 8247688.0 ] ] } },
{ "type": "Feature", "properties": { "gap": "(1166413626, 1166413756)", "B": 4236.5, "nodelist": [ 1166413626, 1166413756 ], "source": 1166413626, "target": 1166413756, "edge_list": "[(1166413626, 1166413756)]" }, "geometry": { "type": "LineString", "coordinates": [ [ 2006744.0, 8247798.0 ], [ 2006713.0, 8247792.0 ] ] } },
{ "type": "Feature", "properties": { "gap": "(1245606542, 5192384730)", "B": 4234.9001515979598, "nodelist": [ 1245606542, 1289481782, 5192384730 ], "source": 1245606542, "target": 5192384730, "edge_list": "[(1245606542, 1289481782), (1289481782, 5192384730)]" }, "geometry": { "type": "LineString", "coordinates": [ [ 2006822.0, 8247680.0 ], [ 2006816.0, 8247685.0 ], [ 2006810.0, 8247688.0 ] ] } },
{ "type": "Feature", "properties": { "gap": "(7197705832, 7197705833)", "B": 4231.5, "nodelist": [ 7197705832, 7197705833 ], "source": 7197705832, "target": 7197705833, "edge_list": "[(7197705832, 7197705833)]" }, "geometry": { "type": "LineString", "coordinates": [ [ 2006688.0, 8247766.0 ], [ 2006692.0, 8247773.0 ], [ 2006698.0, 8247779.0 ] ] } },
{ "type": "Feature", "properties": { "gap": "(1164227345, 5192384730)", "B": 4229.5220520986131, "nodelist": [ 1164227345, 1245606542, 1289481782, 5192384730 ], "source": 1164227345, "target": 5192384730, "edge_list": "[(1164227345, 1245606542), (1245606542, 1289481782), (1289481782, 5192384730)]" }, "geometry": { "type": "LineString", "coordinates": [ [ 2006837.0, 8247670.0 ], [ 2006822.0, 8247680.0 ], [ 2006816.0, 8247685.0 ], [ 2006810.0, 8247688.0 ] ] } },
{ "type": "Feature", "properties": { "gap": "(972636937, 2255787757)", "B": 4226.0, "nodelist": [ 972636937, 2255787757 ], "source": 972636937, "target": 2255787757, "edge_list": "[(972636937, 2255787757)]" }, "geometry": { "type": "LineString", "coordinates": [ [ 2006687.0, 8247763.0 ], [ 2006718.0, 8247747.0 ], [ 2006769.0, 8247714.0 ], [ 2006799.0, 8247695.0 ] ] } },
{ "type": "Feature", "properties": { "gap": "(1872294938, 5346592709)", "B": 4186.5, "nodelist": [ 1872294938, 5346592709 ], "source": 1872294938, "target": 5346592709, "edge_list": "[(1872294938, 5346592709)]" }, "geometry": { "type": "LineString", "coordinates": [ [ 2010242.0, 8256802.0 ], [ 2010293.0, 8256712.0 ] ] } },
{ "type": "Feature", "properties": { "gap": "(25286247, 5346592709)", "B": 4185.7567451745444, "nodelist": [ 25286247, 1872294938, 5346592709 ], "source": 25286247, "target": 5346592709, "edge_list": "[(25286247, 1872294938), (1872294938, 5346592709)]" }, "geometry": { "type": "LineString", "coordinates": [ [ 2010225.0, 8256832.0 ], [ 2010242.0, 8256802.0 ], [ 2010293.0, 8256712.0 ] ] } },
{ "type": "Feature", "properties": { "gap": "(25286247, 1872294938)", "B": 4183.5, "nodelist": [ 25286247, 1872294938 ], "source": 25286247, "target": 1872294938, "edge_list": "[(25286247, 1872294938)]" }, "geometry": { "type": "LineString", "coordinates": [ [ 2010225.0, 8256832.0 ], [ 2010242.0, 8256802.0 ] ] } },
{ "type": "Feature", "properties": { "gap": "(507417691, 7274234829)", "B": 4157.0, "nodelist": [ 507417691, 7274234829 ], "source": 507417691, "target": 7274234829, "edge_list": "[(7274234829, 507417691)]" }, "geometry": { "type": "LineString", "coordinates": [ [ 2012658.0, 8246233.0 ], [ 2012653.0, 8246249.0 ], [ 2012635.0, 8246306.0 ], [ 2012626.0, 8246337.0 ], [ 2012612.0, 8246379.0 ] ] } },
{ "type": "Feature", "properties": { "gap": "(967743708, 1322650651)", "B": 4079.5, "nodelist": [ 967743708, 1322650651 ], "source": 967743708, "target": 1322650651, "edge_list": "[(967743708, 1322650651)]" }, "geometry": { "type": "LineString", "coordinates": [ [ 2015004.0, 8248526.0 ], [ 2015026.0, 8248533.0 ], [ 2015046.0, 8248536.0 ] ] } },
{ "type": "Feature", "properties": { "gap": "(5062070598, 5062070613)", "B": 4024.5, "nodelist": [ 5062070598, 5062070613 ], "source": 5062070598, "target": 5062070613, "edge_list": "[(5062070598, 5062070613)]" }, "geometry": { "type": "LineString", "coordinates": [ [ 2006713.0, 8247105.0 ], [ 2006699.0, 8247116.0 ] ] } },
{ "type": "Feature", "properties": { "gap": "(1349035842, 1349035847)", "B": 4021.035851577049, "nodelist": [ 1349035842, 1432829825, 1349035847 ], "source": 1349035842, "target": 1349035847, "edge_list": "[(1349035842, 1432829825), (1432829825, 1349035847)]" }, "geometry": { "type": "LineString", "coordinates": [ [ 2015485.0, 8248423.0 ], [ 2015497.0, 8248416.0 ], [ 2015514.0, 8248405.0 ] ] } },
{ "type": "Feature", "properties": { "gap": "(1349035847, 1432829825)", "B": 3981.5, "nodelist": [ 1349035847, 1432829825 ], "source": 1349035847, "target": 1432829825, "edge_list": "[(1349035847, 1432829825)]" }, "geometry": { "type": "LineString", "coordinates": [ [ 2015514.0, 8248405.0 ], [ 2015497.0, 8248416.0 ] ] } },
{ "type": "Feature", "properties": { "gap": "(1077846763, 1706342795)", "B": 3980.5, "nodelist": [ 1077846763, 260013788, 1706342795 ], "source": 1077846763, "target": 1706342795, "edge_list": "[(1077846763, 260013788), (260013788, 1706342795)]" }, "geometry": { "type": "LineString", "coordinates": [ [ 2015695.0, 8248151.0 ], [ 2015690.0, 8248163.0 ], [ 2015687.0, 8248176.0 ], [ 2015687.0, 8248193.0 ] ] } },
{ "type": "Feature", "properties": { "gap": "(260013788, 1706342795)", "B": 3980.5, "nodelist": [ 260013788, 1706342795 ], "source": 260013788, "target": 1706342795, "edge_list": "[(260013788, 1706342795)]" }, "geometry": { "type": "LineString", "coordinates": [ [ 2015690.0, 8248163.0 ], [ 2015687.0, 8248176.0 ], [ 2015687.0, 8248193.0 ] ] } },
{ "type": "Feature", "properties": { "gap": "(260013788, 1077846763)", "B": 3980.5, "nodelist": [ 260013788, 1077846763 ], "source": 260013788, "target": 1077846763, "edge_list": "[(260013788, 1077846763)]" }, "geometry": { "type": "LineString", "coordinates": [ [ 2015690.0, 8248163.0 ], [ 2015695.0, 8248151.0 ] ] } },
{ "type": "Feature", "properties": { "gap": "(1349035854, 1706342795)", "B": 3969.5748554140337, "nodelist": [ 1349035854, 1077846763, 260013788, 1706342795 ], "source": 1349035854, "target": 1706342795, "edge_list": "[(1077846763, 1349035854), (1077846763, 260013788), (260013788, 1706342795)]" }, "geometry": { "type": "LineString", "coordinates": [ [ 2015641.0, 8248097.0 ], [ 2015667.0, 8248118.0 ], [ 2015684.0, 8248136.0 ], [ 2015695.0, 8248151.0 ], [ 2015690.0, 8248163.0 ], [ 2015687.0, 8248176.0 ], [ 2015687.0, 8248193.0 ] ] } },
{ "type": "Feature", "properties": { "gap": "(260013788, 1349035854)", "B": 3965.8491508945135, "nodelist": [ 260013788, 1077846763, 1349035854 ], "source": 260013788, "target": 1349035854, "edge_list": "[(260013788, 1077846763), (1077846763, 1349035854)]" }, "geometry": { "type": "LineString", "coordinates": [ [ 2015690.0, 8248163.0 ], [ 2015695.0, 8248151.0 ], [ 2015684.0, 8248136.0 ], [ 2015667.0, 8248118.0 ], [ 2015641.0, 8248097.0 ] ] } },
{ "type": "Feature", "properties": { "gap": "(1077846763, 1349035854)", "B": 3963.5, "nodelist": [ 1077846763, 1349035854 ], "source": 1077846763, "target": 1349035854, "edge_list": "[(1077846763, 1349035854)]" }, "geometry": { "type": "LineString", "coordinates": [ [ 2015695.0, 8248151.0 ], [ 2015684.0, 8248136.0 ], [ 2015667.0, 8248118.0 ], [ 2015641.0, 8248097.0 ] ] } },
{ "type": "Feature", "properties": { "gap": "(1166413750, 1166413756)", "B": 3852.6762871753003, "nodelist": [ 1166413750, 1166413626, 1166413756 ], "source": 1166413750, "target": 1166413756, "edge_list": "[(1166413750, 1166413626), (1166413626, 1166413756)]" }, "geometry": { "type": "LineString", "coordinates": [ [ 2006751.0, 8247797.0 ], [ 2006744.0, 8247798.0 ], [ 2006713.0, 8247792.0 ] ] } },
{ "type": "Feature", "properties": { "gap": "(9661287692, 9661287693)", "B": 3783.9999999999995, "nodelist": [ 9661287692, 9661287693 ], "source": 9661287692, "target": 9661287693, "edge_list": "[(9661287692, 9661287693)]" }, "geometry": { "type": "LineString", "coordinates": [ [ 2010211.0, 8256640.0 ], [ 2010214.0, 8256644.0 ] ] } },
{ "type": "Feature", "properties": { "gap": "(1166413756, 8791877083)", "B": 3731.5082864049177, "nodelist": [ 1166413756, 1166413626, 1166413750, 8791877083 ], "source": 1166413756, "target": 8791877083, "edge_list": "[(1166413756, 1166413626), (1166413626, 1166413750), (1166413750, 8791877083)]" }, "geometry": { "type": "LineString", "coordinates": [ [ 2006713.0, 8247792.0 ], [ 2006744.0, 8247798.0 ], [ 2006751.0, 8247797.0 ], [ 2006753.0, 8247799.0 ] ] } },
{ "type": "Feature", "properties": { "gap": "(1166413510, 1166413521)", "B": 3641.5, "nodelist": [ 1166413510, 1166413521 ], "source": 1166413510, "target": 1166413521, "edge_list": "[(1166413521, 1166413510)]" }, "geometry": { "type": "LineString", "coordinates": [ [ 2006872.0, 8248077.0 ], [ 2006884.0, 8248062.0 ], [ 2006896.0, 8248047.0 ] ] } },
{ "type": "Feature", "properties": { "gap": "(1985811205, 6775355741)", "B": 3639.0, "nodelist": [ 1985811205, 6775355741 ], "source": 1985811205, "target": 6775355741, "edge_list": "[(1985811205, 6775355741)]" }, "geometry": { "type": "LineString", "coordinates": [ [ 2006868.0, 8248074.0 ], [ 2006860.0, 8248084.0 ], [ 2006857.0, 8248074.0 ], [ 2006860.0, 8248069.0 ], [ 2006868.0, 8248059.0 ], [ 2006865.0, 8248057.0 ], [ 2006860.0, 8248065.0 ], [ 2006858.0, 8248064.0 ] ] } },
{ "type": "Feature", "properties": { "gap": "(1985811032, 1985811180)", "B": 3639.0, "nodelist": [ 1985811032, 251839117, 1985811180 ], "source": 1985811032, "target": 1985811180, "edge_list": "[(1985811032, 251839117), (251839117, 1985811180)]" }, "geometry": { "type": "LineString", "coordinates": [ [ 2006794.0, 8247958.0 ], [ 2006810.0, 8247985.0 ], [ 2006836.0, 8248034.0 ], [ 2006851.0, 8248048.0 ], [ 2006847.0, 8248059.0 ] ] } },
{ "type": "Feature", "properties": { "gap": "(251839117, 1985811032)", "B": 3639.0, "nodelist": [ 251839117, 1985811032 ], "source": 251839117, "target": 1985811032, "edge_list": "[(251839117, 1985811032)]" }, "geometry": { "type": "LineString", "coordinates": [ [ 2006851.0, 8248048.0 ], [ 2006836.0, 8248034.0 ], [ 2006810.0, 8247985.0 ], [ 2006794.0, 8247958.0 ] ] } },
{ "type": "Feature", "properties": { "gap": "(251839117, 1985811180)", "B": 3638.9999999999995, "nodelist": [ 251839117, 1985811180 ], "source": 251839117, "target": 1985811180, "edge_list": "[(251839117, 1985811180)]" }, "geometry": { "type": "LineString", "coordinates": [ [ 2006851.0, 8248048.0 ], [ 2006847.0, 8248059.0 ] ] } },
{ "type": "Feature", "properties": { "gap": "(507417691, 1625731573)", "B": 3556.3935019285414, "nodelist": [ 507417691, 7274234829, 507417687, 507417674, 1625731573 ], "source": 507417691, "target": 1625731573, "edge_list": "[(7274234829, 507417691), (507417687, 7274234829), (507417687, 507417674), (507417674, 1625731573)]" }, "geometry": { "type": "LineString", "coordinates": [ [ 2012612.0, 8246379.0 ], [ 2012626.0, 8246337.0 ], [ 2012635.0, 8246306.0 ], [ 2012653.0, 8246249.0 ], [ 2012658.0, 8246233.0 ], [ 2012669.0, 8246200.0 ], [ 2012677.0, 8246175.0 ], [ 2012669.0, 8246174.0 ], [ 2012662.0, 8246189.0 ], [ 2012653.0, 8246198.0 ] ] } },
{ "type": "Feature", "properties": { "gap": "(459958993, 459959000)", "B": 3554.0, "nodelist": [ 459958993, 459959000 ], "source": 459958993, "target": 459959000, "edge_list": "[(459958993, 459959000)]" }, "geometry": { "type": "LineString", "coordinates": [ [ 2012619.0, 8246381.0 ], [ 2012615.0, 8246391.0 ], [ 2012619.0, 8246393.0 ], [ 2012627.0, 8246386.0 ], [ 2012641.0, 8246380.0 ] ] } },
{ "type": "Feature", "properties": { "gap": "(616889299, 1301324729)", "B": 3446.5, "nodelist": [ 616889299, 1301324729 ], "source": 616889299, "target": 1301324729, "edge_list": "[(616889299, 1301324729)]" }, "geometry": { "type": "LineString", "coordinates": [ [ 2006384.0, 8247961.0 ], [ 2006397.0, 8247965.0 ] ] } },
{ "type": "Feature", "properties": { "gap": "(318858050, 12917104450)", "B": 3422.0, "nodelist": [ 318858050, 12917104450 ], "source": 318858050, "target": 12917104450, "edge_list": "[(318858050, 12917104450)]" }, "geometry": { "type": "LineString", "coordinates": [ [ 2007336.0, 8236510.0 ], [ 2007331.0, 8236520.0 ], [ 2007304.0, 8236569.0 ] ] } },
{ "type": "Feature", "properties": { "gap": "(12917104450, 12917104454)", "B": 3420.6630009467294, "nodelist": [ 12917104450, 318858050, 12917104454 ], "source": 12917104450, "target": 12917104454, "edge_list": "[(12917104450, 318858050), (318858050, 12917104454)]" }, "geometry": { "type": "LineString", "coordinates": [ [ 2007304.0, 8236569.0 ], [ 2007331.0, 8236520.0 ], [ 2007336.0, 8236510.0 ], [ 2007353.0, 8236519.0 ], [ 2007366.0, 8236526.0 ] ] } },
{ "type": "Feature", "properties": { "gap": "(318858050, 12917104454)", "B": 3418.0, "nodelist": [ 318858050, 12917104454 ], "source": 318858050, "target": 12917104454, "edge_list": "[(318858050, 12917104454)]" }, "geometry": { "type": "LineString", "coordinates": [ [ 2007336.0, 8236510.0 ], [ 2007353.0, 8236519.0 ], [ 2007366.0, 8236526.0 ] ] } },
{ "type": "Feature", "properties": { "gap": "(1322650651, 1349035890)", "B": 3388.5597332666289, "nodelist": [ 1322650651, 967743708, 1349035890 ], "source": 1322650651, "target": 1349035890, "edge_list": "[(1322650651, 967743708), (967743708, 1349035890)]" }, "geometry": { "type": "LineString", "coordinates": [ [ 2015046.0, 8248536.0 ], [ 2015026.0, 8248533.0 ], [ 2015004.0, 8248526.0 ], [ 2014985.0, 8248525.0 ], [ 2014923.0, 8248530.0 ] ] } },
{ "type": "Feature", "properties": { "gap": "(1453083498, 8606695182)", "B": 3373.837871644027, "nodelist": [ 1453083498, 282287498, 8606695182 ], "source": 1453083498, "target": 8606695182, "edge_list": "[(1453083498, 282287498), (282287498, 8606695182)]" }, "geometry": { "type": "LineString", "coordinates": [ [ 2007985.0, 8236892.0 ], [ 2007997.0, 8236897.0 ], [ 2007995.0, 8236901.0 ] ] } },
{ "type": "Feature", "properties": { "gap": "(282287498, 8606695182)", "B": 3372.0, "nodelist": [ 282287498, 8606695182 ], "source": 282287498, "target": 8606695182, "edge_list": "[(282287498, 8606695182)]" }, "geometry": { "type": "LineString", "coordinates": [ [ 2007997.0, 8236897.0 ], [ 2007995.0, 8236901.0 ] ] } },
{ "type": "Feature", "properties": { "gap": "(340184857, 1706342795)", "B": 3369.3550290269882, "nodelist": [ 340184857, 1349035854, 1077846763, 260013788, 1706342795 ], "source": 340184857, "target": 1706342795, "edge_list": "[(1349035854, 340184857), (1077846763, 1349035854), (1077846763, 260013788), (260013788, 1706342795)]" }, "geometry": { "type": "LineString", "coordinates": [ [ 2015623.0, 8248085.0 ], [ 2015641.0, 8248097.0 ], [ 2015667.0, 8248118.0 ], [ 2015684.0, 8248136.0 ], [ 2015695.0, 8248151.0 ], [ 2015690.0, 8248163.0 ], [ 2015687.0, 8248176.0 ], [ 2015687.0, 8248193.0 ] ] } },
{ "type": "Feature", "properties": { "gap": "(7658785380, 8606695182)", "B": 3369.259500057562, "nodelist": [ 7658785380, 1453083498, 282287498, 8606695182 ], "source": 7658785380, "target": 8606695182, "edge_list": "[(7658785380, 1453083498), (1453083498, 282287498), (282287498, 8606695182)]" }, "geometry": { "type": "LineString", "coordinates": [ [ 2007972.0, 8236885.0 ], [ 2007985.0, 8236892.0 ], [ 2007997.0, 8236897.0 ], [ 2007995.0, 8236901.0 ] ] } },
{ "type": "Feature", "properties": { "gap": "(290274629, 8898115073)", "B": 3347.0, "nodelist": [ 290274629, 8898115073 ], "source": 290274629, "target": 8898115073, "edge_list": "[(290274629, 8898115073)]" }, "geometry": { "type": "LineString", "coordinates": [ [ 2012666.0, 8246360.0 ], [ 2012685.0, 8246365.0 ] ] } },
{ "type": "Feature", "properties": { "gap": "(507417691, 7274234831)", "B": 3321.7827062101919, "nodelist": [ 507417691, 7274234829, 7274234831 ], "source": 507417691, "target": 7274234831, "edge_list": "[(7274234829, 507417691), (7274234829, 7274234831)]" }, "geometry": { "type": "LineString", "coordinates": [ [ 2012612.0, 8246379.0 ], [ 2012626.0, 8246337.0 ], [ 2012635.0, 8246306.0 ], [ 2012653.0, 8246249.0 ], [ 2012658.0, 8246233.0 ], [ 2012673.0, 8246237.0 ], [ 2012682.0, 8246240.0 ], [ 2012677.0, 8246255.0 ] ] } },
{ "type": "Feature", "properties": { "gap": "(1245606536, 2255787757)", "B": 3318.0632278797138, "nodelist": [ 1245606536, 972636937, 2255787757 ], "source": 1245606536, "target": 2255787757, "edge_list": "[(1245606536, 972636937), (972636937, 2255787757)]" }, "geometry": { "type": "LineString", "coordinates": [ [ 2006649.0, 8247778.0 ], [ 2006687.0, 8247763.0 ], [ 2006718.0, 8247747.0 ], [ 2006769.0, 8247714.0 ], [ 2006799.0, 8247695.0 ] ] } },
{ "type": "Feature", "properties": { "gap": "(5323842184, 5323842188)", "B": 3305.5, "nodelist": [ 5323842184, 5323842188 ], "source": 5323842184, "target": 5323842188, "edge_list": "[(5323842184, 5323842188)]" }, "geometry": { "type": "LineString", "coordinates": [ [ 2015338.0, 8247989.0 ], [ 2015347.0, 8248008.0 ] ] } },
{ "type": "Feature", "properties": { "gap": "(260010875, 1322650651)", "B": 3292.8282160224189, "nodelist": [ 260010875, 1349035890, 967743708, 1322650651 ], "source": 260010875, "target": 1322650651, "edge_list": "[(260010875, 1349035890), (1349035890, 967743708), (967743708, 1322650651)]" }, "geometry": { "type": "LineString", "coordinates": [ [ 2014881.0, 8248534.0 ], [ 2014923.0, 8248530.0 ], [ 2014985.0, 8248525.0 ], [ 2015004.0, 8248526.0 ], [ 2015026.0, 8248533.0 ], [ 2015046.0, 8248536.0 ] ] } },
{ "type": "Feature", "properties": { "gap": "(5779722243, 7274234829)", "B": 3284.9688196981106, "nodelist": [ 5779722243, 1625731569, 507417687, 7274234829 ], "source": 5779722243, "target": 7274234829, "edge_list": "[(5779722243, 1625731569), (1625731569, 507417687), (507417687, 7274234829)]" }, "geometry": { "type": "LineString", "coordinates": [ [ 2012737.0, 8246152.0 ], [ 2012731.0, 8246149.0 ], [ 2012725.0, 8246162.0 ], [ 2012719.0, 8246159.0 ], [ 2012730.0, 8246133.0 ], [ 2012719.0, 8246129.0 ], [ 2012715.0, 8246137.0 ], [ 2012707.0, 8246149.0 ], [ 2012696.0, 8246156.0 ], [ 2012683.0, 8246163.0 ], [ 2012677.0, 8246175.0 ], [ 2012669.0, 8246200.0 ], [ 2012658.0, 8246233.0 ] ] } },
{ "type": "Feature", "properties": { "gap": "(1706342795, 7105913115)", "B": 3275.5587399923697, "nodelist": [ 1706342795, 260013788, 1077846763, 7105913115 ], "source": 1706342795, "target": 7105913115, "edge_list": "[(1706342795, 260013788), (260013788, 1077846763), (1077846763, 7105913115)]" }, "geometry": { "type": "LineString", "coordinates": [ [ 2015687.0, 8248193.0 ], [ 2015687.0, 8248176.0 ], [ 2015690.0, 8248163.0 ], [ 2015695.0, 8248151.0 ], [ 2015698.0, 8248143.0 ] ] } },
{ "type": "Feature", "properties": { "gap": "(25286249, 5346592709)", "B": 3242.2086219328007, "nodelist": [ 25286249, 25286247, 1872294938, 5346592709 ], "source": 25286249, "target": 5346592709, "edge_list": "[(25286249, 25286247), (25286247, 1872294938), (1872294938, 5346592709)]" }, "geometry": { "type": "LineString", "coordinates": [ [ 2010205.0, 8256867.0 ], [ 2010225.0, 8256832.0 ], [ 2010242.0, 8256802.0 ], [ 2010293.0, 8256712.0 ] ] } },
{ "type": "Feature", "properties": { "gap": "(304597333, 3775336650)", "B": 3209.0, "nodelist": [ 304597333, 3775336650 ], "source": 304597333, "target": 3775336650, "edge_list": "[(304597333, 3775336650)]" }, "geometry": { "type": "LineString", "coordinates": [ [ 2013029.0, 8247008.0 ], [ 2013023.0, 8247007.0 ], [ 2013017.0, 8247008.0 ], [ 2013014.0, 8247012.0 ] ] } },
{ "type": "Feature", "properties": { "gap": "(3775336640, 12162468016)", "B": 3203.0, "nodelist": [ 3775336640, 12162468016 ], "source": 3775336640, "target": 12162468016, "edge_list": "[(3775336640, 12162468016)]" }, "geometry": { "type": "LineString", "coordinates": [ [ 2012978.0, 8246990.0 ], [ 2012983.0, 8246965.0 ] ] } },
{ "type": "Feature", "properties": { "gap": "(260013788, 340184857)", "B": 3201.1292763312781, "nodelist": [ 260013788, 1077846763, 1349035854, 340184857 ], "source": 260013788, "target": 340184857, "edge_list": "[(260013788, 1077846763), (1077846763, 1349035854), (1349035854, 340184857)]" }, "geometry": { "type": "LineString", "coordinates": [ [ 2015690.0, 8248163.0 ], [ 2015695.0, 8248151.0 ], [ 2015684.0, 8248136.0 ], [ 2015667.0, 8248118.0 ], [ 2015641.0, 8248097.0 ], [ 2015623.0, 8248085.0 ] ] } },
{ "type": "Feature", "properties": { "gap": "(318858052, 12917104454)", "B": 3198.4040713681693, "nodelist": [ 318858052, 12917104450, 318858050, 12917104454 ], "source": 318858052, "target": 12917104454, "edge_list": "[(318858052, 12917104450), (12917104450, 318858050), (318858050, 12917104454)]" }, "geometry": { "type": "LineString", "coordinates": [ [ 2007301.0, 8236575.0 ], [ 2007304.0, 8236569.0 ], [ 2007331.0, 8236520.0 ], [ 2007336.0, 8236510.0 ], [ 2007353.0, 8236519.0 ], [ 2007366.0, 8236526.0 ] ] } },
{ "type": "Feature", "properties": { "gap": "(392325054, 1363066776)", "B": 3176.9999999999995, "nodelist": [ 392325054, 1363066776 ], "source": 392325054, "target": 1363066776, "edge_list": "[(392325054, 1363066776)]" }, "geometry": { "type": "LineString", "coordinates": [ [ 2010971.0, 8253184.0 ], [ 2010966.0, 8253183.0 ], [ 2010947.0, 8253175.0 ], [ 2010935.0, 8253171.0 ], [ 2010921.0, 8253165.0 ] ] } },
{ "type": "Feature", "properties": { "gap": "(392325053, 8998765368)", "B": 3160.0, "nodelist": [ 392325053, 8998765368 ], "source": 392325053, "target": 8998765368, "edge_list": "[(392325053, 8998765368)]" }, "geometry": { "type": "LineString", "coordinates": [ [ 2010972.0, 8253205.0 ], [ 2010998.0, 8253219.0 ] ] } },
{ "type": "Feature", "properties": { "gap": "(392325050, 392325051)", "B": 3143.5, "nodelist": [ 392325050, 392325051 ], "source": 392325050, "target": 392325051, "edge_list": "[(392325050, 392325051)]" }, "geometry": { "type": "LineString", "coordinates": [ [ 2011055.0, 8253237.0 ], [ 2011020.0, 8253226.0 ], [ 2011013.0, 8253226.0 ], [ 2011010.0, 8253226.0 ] ] } },
{ "type": "Feature", "properties": { "gap": "(1625731569, 5779722243)", "B": 3116.5, "nodelist": [ 1625731569, 5779722243 ], "source": 1625731569, "target": 5779722243, "edge_list": "[(1625731569, 5779722243)]" }, "geometry": { "type": "LineString", "coordinates": [ [ 2012719.0, 8246129.0 ], [ 2012730.0, 8246133.0 ], [ 2012719.0, 8246159.0 ], [ 2012725.0, 8246162.0 ], [ 2012731.0, 8246149.0 ], [ 2012737.0, 8246152.0 ] ] } },
{ "type": "Feature", "properties": { "gap": "(5779722683, 5779722684)", "B": 3101.0, "nodelist": [ 5779722683, 5779722684 ], "source": 5779722683, "target": 5779722684, "edge_list": "[(5779722683, 5779722684)]" }, "geometry": { "type": "LineString", "coordinates": [ [ 2012770.0, 8246156.0 ], [ 2012778.0, 8246141.0 ] ] } },
{ "type": "Feature", "properties": { "gap": "(1349035852, 1706342795)", "B": 3098.5084373583195, "nodelist": [ 1349035852, 340184857, 1349035854, 1077846763, 260013788, 1706342795 ], "source": 1349035852, "target": 1706342795, "edge_list": "[(1349035852, 340184857), (1349035854, 340184857), (1077846763, 1349035854), (1077846763, 260013788), (260013788, 1706342795)]" }, "geometry": { "type": "LineString", "coordinates": [ [ 2015612.0, 8248092.0 ], [ 2015623.0, 8248085.0 ], [ 2015641.0, 8248097.0 ], [ 2015667.0, 8248118.0 ], [ 2015684.0, 8248136.0 ], [ 2015695.0, 8248151.0 ], [ 2015690.0, 8248163.0 ], [ 2015687.0, 8248176.0 ], [ 2015687.0, 8248193.0 ] ] } },
{ "type": "Feature", "properties": { "gap": "(5168254275, 6614925950)", "B": 3097.5, "nodelist": [ 5168254275, 6614925950 ], "source": 5168254275, "target": 6614925950, "edge_list": "[(5168254275, 6614925950)]" }, "geometry": { "type": "LineString", "coordinates": [ [ 2007273.0, 8245422.0 ], [ 2007246.0, 8245394.0 ] ] } },
{ "type": "Feature", "properties": { "gap": "(1277542334, 6614925950)", "B": 3096.2601453259904, "nodelist": [ 1277542334, 5168254275, 6614925950 ], "source": 1277542334, "target": 6614925950, "edge_list": "[(1277542334, 5168254275), (5168254275, 6614925950)]" }, "geometry": { "type": "LineString", "coordinates": [ [ 2007284.0, 8245432.0 ], [ 2007273.0, 8245422.0 ], [ 2007246.0, 8245394.0 ] ] } },
{ "type": "Feature", "properties": { "gap": "(4749285305, 5779722692)", "B": 3091.5, "nodelist": [ 4749285305, 5779722692 ], "source": 4749285305, "target": 5779722692, "edge_list": "[(4749285305, 5779722692)]" }, "geometry": { "type": "LineString", "coordinates": [ [ 2013011.0, 8245929.0 ], [ 2012982.0, 8245990.0 ] ] } },
{ "type": "Feature", "properties": { "gap": "(260010875, 1697909282)", "B": 3091.0, "nodelist": [ 260010875, 1697909282 ], "source": 260010875, "target": 1697909282, "edge_list": "[(260010875, 1697909282)]" }, "geometry": { "type": "LineString", "coordinates": [ [ 2014881.0, 8248534.0 ], [ 2014874.0, 8248534.0 ], [ 2014836.0, 8248540.0 ], [ 2014826.0, 8248542.0 ] ] } },
{ "type": "Feature", "properties": { "gap": "(1277542329, 6615953016)", "B": 3080.5, "nodelist": [ 1277542329, 6615953016 ], "source": 1277542329, "target": 6615953016, "edge_list": "[(1277542329, 6615953016)]" }, "geometry": { "type": "LineString", "coordinates": [ [ 2007403.0, 8245402.0 ], [ 2007423.0, 8245400.0 ] ] } },
{ "type": "Feature", "properties": { "gap": "(6614925950, 6615953016)", "B": 3080.0266309617846, "nodelist": [ 6614925950, 5168254275, 1277542334, 1277542329, 6615953016 ], "source": 6614925950, "target": 6615953016, "edge_list": "[(6614925950, 5168254275), (5168254275, 1277542334), (1277542334, 1277542329), (1277542329, 6615953016)]" }, "geometry": { "type": "LineString", "coordinates": [ [ 2007246.0, 8245394.0 ], [ 2007273.0, 8245422.0 ], [ 2007284.0, 8245432.0 ], [ 2007296.0, 8245423.0 ], [ 2007301.0, 8245418.0 ], [ 2007310.0, 8245415.0 ], [ 2007403.0, 8245402.0 ], [ 2007423.0, 8245400.0 ] ] } },
{ "type": "Feature", "properties": { "gap": "(1277542329, 6614925950)", "B": 3079.9753061506349, "nodelist": [ 1277542329, 1277542334, 5168254275, 6614925950 ], "source": 1277542329, "target": 6614925950, "edge_list": "[(1277542329, 1277542334), (1277542334, 5168254275), (5168254275, 6614925950)]" }, "geometry": { "type": "LineString", "coordinates": [ [ 2007403.0, 8245402.0 ], [ 2007310.0, 8245415.0 ], [ 2007301.0, 8245418.0 ], [ 2007296.0, 8245423.0 ], [ 2007284.0, 8245432.0 ], [ 2007273.0, 8245422.0 ], [ 2007246.0, 8245394.0 ] ] } },
{ "type": "Feature", "properties": { "gap": "(6614925950, 6615953008)", "B": 3079.8996406972992, "nodelist": [ 6614925950, 5168254275, 1277542334, 1277542329, 6615953016, 6615953008 ], "source": 6614925950, "target": 6615953008, "edge_list": "[(6614925950, 5168254275), (5168254275, 1277542334), (1277542334, 1277542329), (1277542329, 6615953016), (6615953016, 6615953008)]" }, "geometry": { "type": "LineString", "coordinates": [ [ 2007246.0, 8245394.0 ], [ 2007273.0, 8245422.0 ], [ 2007284.0, 8245432.0 ], [ 2007296.0, 8245423.0 ], [ 2007301.0, 8245418.0 ], [ 2007310.0, 8245415.0 ], [ 2007403.0, 8245402.0 ], [ 2007423.0, 8245400.0 ], [ 2007441.0, 8245398.0 ] ] } },
{ "type": "Feature", "properties": { "gap": "(1277542329, 6615953008)", "B": 3079.5375921504015, "nodelist": [ 1277542329, 6615953016, 6615953008 ], "source": 1277542329, "target": 6615953008, "edge_list": "[(1277542329, 6615953016), (6615953016, 6615953008)]" }, "geometry": { "type": "LineString", "coordinates": [ [ 2007403.0, 8245402.0 ], [ 2007423.0, 8245400.0 ], [ 2007441.0, 8245398.0 ] ] } },
{ "type": "Feature", "properties": { "gap": "(6615953008, 6615953016)", "B": 3078.5, "nodelist": [ 6615953008, 6615953016 ], "source": 6615953008, "target": 6615953016, "edge_list": "[(6615953008, 6615953016)]" }, "geometry": { "type": "LineString", "coordinates": [ [ 2007441.0, 8245398.0 ], [ 2007423.0, 8245400.0 ] ] } },
{ "type": "Feature", "properties": { "gap": "(5168254275, 6615953008)", "B": 3076.0439580945585, "nodelist": [ 5168254275, 1277542334, 1277542329, 6615953016, 6615953008 ], "source": 5168254275, "target": 6615953008, "edge_list": "[(5168254275, 1277542334), (1277542334, 1277542329), (1277542329, 6615953016), (6615953016, 6615953008)]" }, "geometry": { "type": "LineString", "coordinates": [ [ 2007273.0, 8245422.0 ], [ 2007284.0, 8245432.0 ], [ 2007296.0, 8245423.0 ], [ 2007301.0, 8245418.0 ], [ 2007310.0, 8245415.0 ], [ 2007403.0, 8245402.0 ], [ 2007423.0, 8245400.0 ], [ 2007441.0, 8245398.0 ] ] } },
{ "type": "Feature", "properties": { "gap": "(1277542329, 5168254275)", "B": 3075.1111560895415, "nodelist": [ 1277542329, 1277542334, 5168254275 ], "source": 1277542329, "target": 5168254275, "edge_list": "[(1277542329, 1277542334), (1277542334, 5168254275)]" }, "geometry": { "type": "LineString", "coordinates": [ [ 2007403.0, 8245402.0 ], [ 2007310.0, 8245415.0 ], [ 2007301.0, 8245418.0 ], [ 2007296.0, 8245423.0 ], [ 2007284.0, 8245432.0 ], [ 2007273.0, 8245422.0 ] ] } },
{ "type": "Feature", "properties": { "gap": "(1277542334, 6615953008)", "B": 3074.502906970496, "nodelist": [ 1277542334, 1277542329, 6615953016, 6615953008 ], "source": 1277542334, "target": 6615953008, "edge_list": "[(1277542334, 1277542329), (1277542329, 6615953016), (6615953016, 6615953008)]" }, "geometry": { "type": "LineString", "coordinates": [ [ 2007284.0, 8245432.0 ], [ 2007296.0, 8245423.0 ], [ 2007301.0, 8245418.0 ], [ 2007310.0, 8245415.0 ], [ 2007403.0, 8245402.0 ], [ 2007423.0, 8245400.0 ], [ 2007441.0, 8245398.0 ] ] } },
{ "type": "Feature", "properties": { "gap": "(1277542329, 1277542334)", "B": 3073.0, "nodelist": [ 1277542329, 1277542334 ], "source": 1277542329, "target": 1277542334, "edge_list": "[(1277542329, 1277542334)]" }, "geometry": { "type": "LineString", "coordinates": [ [ 2007403.0, 8245402.0 ], [ 2007310.0, 8245415.0 ], [ 2007301.0, 8245418.0 ], [ 2007296.0, 8245423.0 ], [ 2007284.0, 8245432.0 ] ] } },
{ "type": "Feature", "properties": { "gap": "(1432188811, 7077020289)", "B": 3055.5077526517748, "nodelist": [ 1432188811, 5482271, 7077020289 ], "source": 1432188811, "target": 7077020289, "edge_list": "[(1432188811, 5482271), (5482271, 7077020289)]" }, "geometry": { "type": "LineString", "coordinates": [ [ 2010160.0, 8253788.0 ], [ 2010143.0, 8253779.0 ], [ 2010146.0, 8253773.0 ] ] } },
{ "type": "Feature", "properties": { "gap": "(972636944, 2255787757)", "B": 3043.371762101418, "nodelist": [ 972636944, 1245606536, 972636937, 2255787757 ], "source": 972636944, "target": 2255787757, "edge_list": "[(972636944, 1245606536), (1245606536, 972636937), (972636937, 2255787757)]" }, "geometry": { "type": "LineString", "coordinates": [ [ 2006631.0, 8247783.0 ], [ 2006649.0, 8247778.0 ], [ 2006687.0, 8247763.0 ], [ 2006718.0, 8247747.0 ], [ 2006769.0, 8247714.0 ], [ 2006799.0, 8247695.0 ] ] } },
{ "type": "Feature", "properties": { "gap": "(5776895345, 5779722692)", "B": 3014.1574932238823, "nodelist": [ 5776895345, 4749285305, 5779722692 ], "source": 5776895345, "target": 5779722692, "edge_list": "[(5776895345, 4749285305), (4749285305, 5779722692)]" }, "geometry": { "type": "LineString", "coordinates": [ [ 2013057.0, 8245932.0 ], [ 2013035.0, 8245932.0 ], [ 2013011.0, 8245929.0 ], [ 2012982.0, 8245990.0 ] ] } },
{ "type": "Feature", "properties": { "gap": "(260010875, 967743708)", "B": 3011.1561159655198, "nodelist": [ 260010875, 1349035890, 967743708 ], "source": 260010875, "target": 967743708, "edge_list": "[(260010875, 1349035890), (1349035890, 967743708)]" }, "geometry": { "type": "LineString", "coordinates": [ [ 2014881.0, 8248534.0 ], [ 2014923.0, 8248530.0 ], [ 2014985.0, 8248525.0 ], [ 2015004.0, 8248526.0 ] ] } },
{ "type": "Feature", "properties": { "gap": "(260010875, 1349035890)", "B": 3010.5, "nodelist": [ 260010875, 1349035890 ], "source": 260010875, "target": 1349035890, "edge_list": "[(260010875, 1349035890)]" }, "geometry": { "type": "LineString", "coordinates": [ [ 2014881.0, 8248534.0 ], [ 2014923.0, 8248530.0 ] ] } },
{ "type": "Feature", "properties": { "gap": "(318858049, 12917104450)", "B": 3008.9548078710468, "nodelist": [ 318858049, 318858050, 12917104450 ], "source": 318858049, "target": 12917104450, "edge_list": "[(318858049, 318858050), (318858050, 12917104450)]" }, "geometry": { "type": "LineString", "coordinates": [ [ 2007340.0, 8236502.0 ], [ 2007336.0, 8236510.0 ], [ 2007331.0, 8236520.0 ], [ 2007304.0, 8236569.0 ] ] } },
{ "type": "Feature", "properties": { "gap": "(1697909276, 1709273764)", "B": 3000.5, "nodelist": [ 1697909276, 1709273764 ], "source": 1697909276, "target": 1709273764, "edge_list": "[(1697909276, 1709273764)]" }, "geometry": { "type": "LineString", "coordinates": [ [ 2014790.0, 8248519.0 ], [ 2014791.0, 8248510.0 ] ] } },
{ "type": "Feature", "properties": { "gap": "(5776895346, 5779722692)", "B": 2992.5591951674064, "nodelist": [ 5776895346, 5776895345, 4749285305, 5779722692 ], "source": 5776895346, "target": 5779722692, "edge_list": "[(5776895346, 5776895345), (5776895345, 4749285305), (4749285305, 5779722692)]" }, "geometry": { "type": "LineString", "coordinates": [ [ 2013083.0, 8245931.0 ], [ 2013057.0, 8245932.0 ], [ 2013035.0, 8245932.0 ], [ 2013011.0, 8245929.0 ], [ 2012982.0, 8245990.0 ] ] } },
{ "type": "Feature", "properties": { "gap": "(1164226955, 5249082518)", "B": 2985.5707578843235, "nodelist": [ 1164226955, 5249082520, 5249082518 ], "source": 1164226955, "target": 5249082518, "edge_list": "[(5249082520, 1164226955), (5249082518, 5249082520)]" }, "geometry": { "type": "LineString", "coordinates": [ [ 2006713.0, 8247309.0 ], [ 2006701.0, 8247321.0 ], [ 2006688.0, 8247339.0 ], [ 2006675.0, 8247358.0 ] ] } },
{ "type": "Feature", "properties": { "gap": "(4794163550, 5779722692)", "B": 2984.4277083985094, "nodelist": [ 4794163550, 5776895346, 5776895345, 4749285305, 5779722692 ], "source": 4794163550, "target": 5779722692, "edge_list": "[(4794163550, 5776895346), (5776895346, 5776895345), (5776895345, 4749285305), (4749285305, 5779722692)]" }, "geometry": { "type": "LineString", "coordinates": [ [ 2013096.0, 8245929.0 ], [ 2013083.0, 8245931.0 ], [ 2013057.0, 8245932.0 ], [ 2013035.0, 8245932.0 ], [ 2013011.0, 8245929.0 ], [ 2012982.0, 8245990.0 ] ] } },
{ "type": "Feature", "properties": { "gap": "(1531270599, 1709273740)", "B": 2963.0, "nodelist": [ 1531270599, 1709273740 ], "source": 1531270599, "target": 1709273740, "edge_list": "[(1531270599, 1709273740)]" }, "geometry": { "type": "LineString", "coordinates": [ [ 2014611.0, 8248484.0 ], [ 2014741.0, 8248452.0 ] ] } },
{ "type": "Feature", "properties": { "gap": "(471590302, 1531270599)", "B": 2949.0, "nodelist": [ 471590302, 1531270599 ], "source": 471590302, "target": 1531270599, "edge_list": "[(471590302, 1531270599)]" }, "geometry": { "type": "LineString", "coordinates": [ [ 2014448.0, 8248479.0 ], [ 2014474.0, 8248491.0 ], [ 2014492.0, 8248496.0 ], [ 2014507.0, 8248497.0 ], [ 2014529.0, 8248498.0 ], [ 2014553.0, 8248495.0 ], [ 2014594.0, 8248487.0 ], [ 2014611.0, 8248484.0 ] ] } },
{ "type": "Feature", "properties": { "gap": "(507417687, 5779722243)", "B": 2942.8901048968787, "nodelist": [ 507417687, 1625731569, 5779722243 ], "source": 507417687, "target": 5779722243, "edge_list": "[(507417687, 1625731569), (1625731569, 5779722243)]" }, "geometry": { "type": "LineString", "coordinates": [ [ 2012677.0, 8246175.0 ], [ 2012683.0, 8246163.0 ], [ 2012696.0, 8246156.0 ], [ 2012707.0, 8246149.0 ], [ 2012715.0, 8246137.0 ], [ 2012719.0, 8246129.0 ], [ 2012730.0, 8246133.0 ], [ 2012719.0, 8246159.0 ], [ 2012725.0, 8246162.0 ], [ 2012731.0, 8246149.0 ], [ 2012737.0, 8246152.0 ] ] } },
{ "type": "Feature", "properties": { "gap": "(1349035890, 1709273764)", "B": 2926.1721374788008, "nodelist": [ 1349035890, 260010875, 1697909282, 1697909276, 1709273764 ], "source": 1349035890, "target": 1709273764, "edge_list": "[(1349035890, 260010875), (260010875, 1697909282), (1697909282, 1697909276), (1697909276, 1709273764)]" }, "geometry": { "type": "LineString", "coordinates": [ [ 2014923.0, 8248530.0 ], [ 2014881.0, 8248534.0 ], [ 2014874.0, 8248534.0 ], [ 2014836.0, 8248540.0 ], [ 2014826.0, 8248542.0 ], [ 2014790.0, 8248519.0 ], [ 2014791.0, 8248510.0 ] ] } },
{ "type": "Feature", "properties": { "gap": "(282586560, 8606695183)", "B": 2916.5, "nodelist": [ 282586560, 8606695183 ], "source": 282586560, "target": 8606695183, "edge_list": "[(282586560, 8606695183)]" }, "geometry": { "type": "LineString", "coordinates": [ [ 2008061.0, 8236938.0 ], [ 2008060.0, 8236943.0 ] ] } },
{ "type": "Feature", "properties": { "gap": "(4794163550, 5776895346)", "B": 2900.0, "nodelist": [ 4794163550, 5776895346 ], "source": 4794163550, "target": 5776895346, "edge_list": "[(4794163550, 5776895346)]" }, "geometry": { "type": "LineString", "coordinates": [ [ 2013096.0, 8245929.0 ], [ 2013083.0, 8245931.0 ] ] } },
{ "type": "Feature", "properties": { "gap": "(4749285305, 4794163550)", "B": 2899.9623715516482, "nodelist": [ 4749285305, 5776895345, 5776895346, 4794163550 ], "source": 4749285305, "target": 4794163550, "edge_list": "[(4749285305, 5776895345), (5776895345, 5776895346), (5776895346, 4794163550)]" }, "geometry": { "type": "LineString", "coordinates": [ [ 2013011.0, 8245929.0 ], [ 2013035.0, 8245932.0 ], [ 2013057.0, 8245932.0 ], [ 2013083.0, 8245931.0 ], [ 2013096.0, 8245929.0 ] ] } },
{ "type": "Feature", "properties": { "gap": "(4794163550, 5776895345)", "B": 2899.3392886841693, "nodelist": [ 4794163550, 5776895346, 5776895345 ], "source": 4794163550, "target": 5776895345, "edge_list": "[(4794163550, 5776895346), (5776895346, 5776895345)]" }, "geometry": { "type": "LineString", "coordinates": [ [ 2013096.0, 8245929.0 ], [ 2013083.0, 8245931.0 ], [ 2013057.0, 8245932.0 ] ] } },
{ "type": "Feature", "properties": { "gap": "(260010875, 1709273764)", "B": 2892.9217842321073, "nodelist": [ 260010875, 1697909282, 1697909276, 1709273764 ], "source": 260010875, "target": 1709273764, "edge_list": "[(260010875, 1697909282), (1697909282, 1697909276), (1697909276, 1709273764)]" }, "geometry": { "type": "LineString", "coordinates": [ [ 2014881.0, 8248534.0 ], [ 2014874.0, 8248534.0 ], [ 2014836.0, 8248540.0 ], [ 2014826.0, 8248542.0 ], [ 2014790.0, 8248519.0 ], [ 2014791.0, 8248510.0 ] ] } },
{ "type": "Feature", "properties": { "gap": "(12149789101, 12149789102)", "B": 2892.0, "nodelist": [ 12149789101, 12149789102 ], "source": 12149789101, "target": 12149789102, "edge_list": "[(12149789101, 12149789102)]" }, "geometry": { "type": "LineString", "coordinates": [ [ 2006727.0, 8247913.0 ], [ 2006728.0, 8247917.0 ] ] } },
{ "type": "Feature", "properties": { "gap": "(12149789103, 12149789104)", "B": 2888.0, "nodelist": [ 12149789103, 12149789104 ], "source": 12149789103, "target": 12149789104, "edge_list": "[(12149789103, 12149789104)]" }, "geometry": { "type": "LineString", "coordinates": [ [ 2006726.0, 8247909.0 ], [ 2006725.0, 8247903.0 ] ] } }
]
}
