{
"type": "FeatureCollection",
"name": "Stockholm-city_boundary",
"crs": { "type": "name", "properties": { "name": "urn:ogc:def:crs:EPSG::3857" } },
"features": [
{ "type": "Feature", "properties": { "bbox_west": 17.7606914, "bbox_south": 59.2272524, "bbox_east": 18.2000781, "bbox_north": 59.4402839, "place_id": 167177242, "osm_type": "relation", "osm_id": 398021, "lat": 59.3336131, "lon": 18.0275091, "class": "boundary", "type": "administrative", "place_rank": 14, "importance": 0.62115369491655459, "addresstype": "municipality", "name": "Stockholm Municipality", "display_name": "Stockholm Municipality, Stockholm County, Sweden" }, "geometry": { "type": "Polygon", "coordinates": [ [ [ 2017667.0, 8232622.0 ], [ 2017664.0, 8232615.0 ], [ 2017644.0, 8232623.0 ], [ 2017637.0, 8232600.0 ], [ 2017599.0, 8232623.0 ], [ 2017580.0, 8232631.0 ], [ 2017589.0, 8232656.0 ], [ 2017520.0, 8232676.0 ], [ 2017514.0, 8232658.0 ], [ 2017438.0, 8232426.0 ], [ 2017360.0, 8232180.0 ], [ 2017322.0, 8232043.0 ], [ 2017364.0, 8231875.0 ], [ 2017423.0, 8231730.0 ], [ 2017449.0, 8231709.0 ], [ 2017529.0, 8231457.0 ], [ 2017564.0, 8231345.0 ], [ 2017537.0, 8231268.0 ], [ 2017528.0, 8231246.0 ], [ 2017502.0, 8231173.0 ], [ 2017192.0, 8231050.0 ], [ 2017109.0, 8231039.0 ], [ 2017121.0, 8230977.0 ], [ 2017100.0, 8230944.0 ], [ 2017058.0, 8230764.0 ], [ 2016794.0, 8230635.0 ], [ 2015861.0, 8230212.0 ], [ 2015788.0, 8230179.0 ], [ 2015776.0, 8229668.0 ], [ 2014629.0, 8230037.0 ], [ 2013581.0, 8230572.0 ], [ 2013480.0, 8230625.0 ], [ 2012963.0, 8230640.0 ], [ 2012812.0, 8230644.0 ], [ 2012333.0, 8230908.0 ], [ 2012216.0, 8230972.0 ], [ 2011960.0, 8231113.0 ], [ 2011747.0, 8231374.0 ], [ 2011621.0, 8231544.0 ], [ 2011144.0, 8232160.0 ], [ 2011021.0, 8232314.0 ], [ 2011016.0, 8232249.0 ], [ 2011026.0, 8232188.0 ], [ 2011030.0, 8232143.0 ], [ 2011012.0, 8232124.0 ], [ 2010986.0, 8232097.0 ], [ 2010942.0, 8232063.0 ], [ 2010824.0, 8232019.0 ], [ 2010761.0, 8231954.0 ], [ 2010564.0, 8232041.0 ], [ 2010572.0, 8232179.0 ], [ 2010601.0, 8232255.0 ], [ 2010650.0, 8232360.0 ], [ 2010664.0, 8232471.0 ], [ 2010677.0, 8232517.0 ], [ 2010679.0, 8232536.0 ], [ 2010683.0, 8232572.0 ], [ 2010778.0, 8232578.0 ], [ 2010627.0, 8232753.0 ], [ 2010473.0, 8232926.0 ], [ 2010375.0, 8233026.0 ], [ 2009565.0, 8233905.0 ], [ 2009317.0, 8233509.0 ], [ 2007885.0, 8234129.0 ], [ 2006883.0, 8234587.0 ], [ 2006613.0, 8234885.0 ], [ 2006551.0, 8234911.0 ], [ 2006484.0, 8234957.0 ], [ 2006367.0, 8235021.0 ], [ 2006237.0, 8235119.0 ], [ 2006077.0, 8235271.0 ], [ 2005836.0, 8235506.0 ], [ 2005769.0, 8235792.0 ], [ 2005610.0, 8235771.0 ], [ 2005473.0, 8235937.0 ], [ 2005465.0, 8235948.0 ], [ 2005270.0, 8235943.0 ], [ 2005035.0, 8235942.0 ], [ 2004848.0, 8236083.0 ], [ 2004802.0, 8236119.0 ], [ 2004656.0, 8236229.0 ], [ 2004343.0, 8236466.0 ], [ 2004300.0, 8236498.0 ], [ 2003694.0, 8236721.0 ], [ 2003586.0, 8236761.0 ], [ 2003458.0, 8236808.0 ], [ 2003050.0, 8236978.0 ], [ 2002445.0, 8237233.0 ], [ 2002403.0, 8237244.0 ], [ 2002347.0, 8237260.0 ], [ 2002336.0, 8237262.0 ], [ 2002208.0, 8237296.0 ], [ 2001780.0, 8237336.0 ], [ 2001719.0, 8237341.0 ], [ 2001560.0, 8237356.0 ], [ 2001542.0, 8237389.0 ], [ 2001558.0, 8237441.0 ], [ 2001437.0, 8237537.0 ], [ 2001418.0, 8237552.0 ], [ 2001338.0, 8237594.0 ], [ 2001241.0, 8237644.0 ], [ 2001066.0, 8237686.0 ], [ 2001009.0, 8237737.0 ], [ 2000879.0, 8237798.0 ], [ 2000582.0, 8238077.0 ], [ 2000506.0, 8238222.0 ], [ 2000232.0, 8238319.0 ], [ 2000154.0, 8238401.0 ], [ 2000072.0, 8238487.0 ], [ 1999948.0, 8238526.0 ], [ 1999680.0, 8238639.0 ], [ 1999606.0, 8238765.0 ], [ 1999545.0, 8238794.0 ], [ 1999474.0, 8238829.0 ], [ 1999414.0, 8238961.0 ], [ 1999312.0, 8239185.0 ], [ 1999181.0, 8239402.0 ], [ 1998951.0, 8239529.0 ], [ 1998886.0, 8239706.0 ], [ 1998772.0, 8239910.0 ], [ 1998786.0, 8240000.0 ], [ 1998920.0, 8240896.0 ], [ 1998950.0, 8241097.0 ], [ 1998899.0, 8241452.0 ], [ 1998875.0, 8241601.0 ], [ 1998868.0, 8241644.0 ], [ 1998515.0, 8241867.0 ], [ 1998234.0, 8242155.0 ], [ 1998183.0, 8242207.0 ], [ 1998157.0, 8242234.0 ], [ 1998115.0, 8242263.0 ], [ 1998171.0, 8242348.0 ], [ 1998182.0, 8242487.0 ], [ 1997994.0, 8242457.0 ], [ 1997982.0, 8242456.0 ], [ 1997970.0, 8242456.0 ], [ 1997958.0, 8242457.0 ], [ 1997952.0, 8242457.0 ], [ 1997946.0, 8242458.0 ], [ 1997935.0, 8242460.0 ], [ 1997929.0, 8242461.0 ], [ 1997917.0, 8242465.0 ], [ 1997906.0, 8242469.0 ], [ 1997901.0, 8242471.0 ], [ 1997890.0, 8242476.0 ], [ 1997885.0, 8242479.0 ], [ 1997880.0, 8242482.0 ], [ 1997870.0, 8242489.0 ], [ 1997865.0, 8242492.0 ], [ 1997856.0, 8242500.0 ], [ 1997852.0, 8242504.0 ], [ 1997843.0, 8242513.0 ], [ 1997835.0, 8242522.0 ], [ 1997832.0, 8242526.0 ], [ 1997825.0, 8242536.0 ], [ 1997822.0, 8242541.0 ], [ 1997816.0, 8242551.0 ], [ 1997813.0, 8242557.0 ], [ 1997812.0, 8242562.0 ], [ 1997810.0, 8242571.0 ], [ 1997809.0, 8242581.0 ], [ 1997809.0, 8242590.0 ], [ 1997809.0, 8242600.0 ], [ 1997811.0, 8242610.0 ], [ 1997813.0, 8242619.0 ], [ 1997816.0, 8242629.0 ], [ 1997820.0, 8242638.0 ], [ 1997824.0, 8242646.0 ], [ 1997829.0, 8242654.0 ], [ 1997832.0, 8242658.0 ], [ 1997835.0, 8242662.0 ], [ 1997841.0, 8242670.0 ], [ 1997848.0, 8242676.0 ], [ 1997856.0, 8242683.0 ], [ 1997864.0, 8242688.0 ], [ 1997868.0, 8242691.0 ], [ 1997872.0, 8242693.0 ], [ 1997999.0, 8242755.0 ], [ 1997959.0, 8242843.0 ], [ 1997550.0, 8242647.0 ], [ 1997316.0, 8242537.0 ], [ 1996654.0, 8242237.0 ], [ 1996482.0, 8242159.0 ], [ 1995600.0, 8241756.0 ], [ 1995498.0, 8241704.0 ], [ 1995373.0, 8241632.0 ], [ 1995242.0, 8241546.0 ], [ 1995156.0, 8241482.0 ], [ 1995141.0, 8241459.0 ], [ 1995126.0, 8241447.0 ], [ 1995105.0, 8241425.0 ], [ 1995086.0, 8241411.0 ], [ 1995008.0, 8241330.0 ], [ 1994941.0, 8241261.0 ], [ 1994922.0, 8241239.0 ], [ 1994769.0, 8241044.0 ], [ 1994756.0, 8241028.0 ], [ 1994320.0, 8240927.0 ], [ 1994257.0, 8240730.0 ], [ 1994216.0, 8240601.0 ], [ 1993957.0, 8239811.0 ], [ 1993924.0, 8239805.0 ], [ 1993917.0, 8239755.0 ], [ 1993909.0, 8239664.0 ], [ 1993905.0, 8239625.0 ], [ 1993910.0, 8239569.0 ], [ 1993909.0, 8239553.0 ], [ 1993917.0, 8239551.0 ], [ 1993908.0, 8239507.0 ], [ 1993899.0, 8239503.0 ], [ 1993887.0, 8239442.0 ], [ 1993887.0, 8239433.0 ], [ 1993888.0, 8239429.0 ], [ 1993865.0, 8239396.0 ], [ 1993849.0, 8239377.0 ], [ 1993802.0, 8239273.0 ], [ 1993567.0, 8238834.0 ], [ 1993535.0, 8238788.0 ], [ 1993495.0, 8238753.0 ], [ 1993445.0, 8238715.0 ], [ 1993398.0, 8238687.0 ], [ 1993321.0, 8238651.0 ], [ 1993237.0, 8238628.0 ], [ 1993139.0, 8238619.0 ], [ 1993089.0, 8238616.0 ], [ 1992971.0, 8238614.0 ], [ 1992883.0, 8238611.0 ], [ 1992800.0, 8238606.0 ], [ 1992789.0, 8238606.0 ], [ 1992782.0, 8238604.0 ], [ 1992777.0, 8238601.0 ], [ 1992770.0, 8238595.0 ], [ 1992729.0, 8238592.0 ], [ 1992687.0, 8238586.0 ], [ 1992631.0, 8238573.0 ], [ 1992577.0, 8238554.0 ], [ 1992525.0, 8238528.0 ], [ 1992477.0, 8238496.0 ], [ 1992432.0, 8238462.0 ], [ 1992407.0, 8238436.0 ], [ 1992375.0, 8238402.0 ], [ 1992309.0, 8238459.0 ], [ 1992279.0, 8238427.0 ], [ 1992092.0, 8238391.0 ], [ 1991936.0, 8238390.0 ], [ 1991798.0, 8238463.0 ], [ 1991784.0, 8238544.0 ], [ 1991783.0, 8238713.0 ], [ 1991769.0, 8238740.0 ], [ 1991259.0, 8238740.0 ], [ 1991209.0, 8238795.0 ], [ 1991209.0, 8239021.0 ], [ 1990574.0, 8239021.0 ], [ 1990159.0, 8238563.0 ], [ 1989870.0, 8238763.0 ], [ 1989518.0, 8239672.0 ], [ 1989380.0, 8239745.0 ], [ 1989191.0, 8239795.0 ], [ 1988992.0, 8239849.0 ], [ 1988555.0, 8239964.0 ], [ 1988867.0, 8240602.0 ], [ 1989054.0, 8241060.0 ], [ 1988756.0, 8242509.0 ], [ 1989981.0, 8242633.0 ], [ 1991086.0, 8242711.0 ], [ 1991508.0, 8243633.0 ], [ 1991864.0, 8244020.0 ], [ 1992268.0, 8244151.0 ], [ 1993184.0, 8244633.0 ], [ 1993666.0, 8245368.0 ], [ 1993907.0, 8245486.0 ], [ 1994103.0, 8245574.0 ], [ 1994189.0, 8245612.0 ], [ 1994242.0, 8245639.0 ], [ 1994873.0, 8245719.0 ], [ 1995422.0, 8245955.0 ], [ 1995756.0, 8246204.0 ], [ 1996330.0, 8246149.0 ], [ 1996753.0, 8246338.0 ], [ 1996865.0, 8246735.0 ], [ 1997904.0, 8246901.0 ], [ 1997937.0, 8246929.0 ], [ 1997988.0, 8246972.0 ], [ 1998152.0, 8247110.0 ], [ 1998523.0, 8247423.0 ], [ 1998722.0, 8247846.0 ], [ 1998125.0, 8248461.0 ], [ 1997705.0, 8248795.0 ], [ 1997211.0, 8249358.0 ], [ 1997040.0, 8249463.0 ], [ 1996391.0, 8249859.0 ], [ 1995415.0, 8250388.0 ], [ 1994811.0, 8250669.0 ], [ 1994481.0, 8250965.0 ], [ 1994086.0, 8251170.0 ], [ 1993560.0, 8251495.0 ], [ 1993378.0, 8251575.0 ], [ 1992809.0, 8252077.0 ], [ 1992183.0, 8252748.0 ], [ 1991667.0, 8253032.0 ], [ 1991094.0, 8252943.0 ], [ 1990691.0, 8253280.0 ], [ 1990197.0, 8253494.0 ], [ 1989792.0, 8253945.0 ], [ 1989294.0, 8254097.0 ], [ 1988613.0, 8254764.0 ], [ 1988427.0, 8254948.0 ], [ 1987144.0, 8256053.0 ], [ 1985872.0, 8256976.0 ], [ 1984811.0, 8256618.0 ], [ 1984485.0, 8257052.0 ], [ 1984452.0, 8257084.0 ], [ 1984428.0, 8257111.0 ], [ 1984408.0, 8257141.0 ], [ 1984369.0, 8257196.0 ], [ 1984359.0, 8257214.0 ], [ 1984320.0, 8257267.0 ], [ 1984311.0, 8257284.0 ], [ 1984306.0, 8257303.0 ], [ 1984298.0, 8257326.0 ], [ 1984293.0, 8257345.0 ], [ 1984286.0, 8257363.0 ], [ 1984276.0, 8257397.0 ], [ 1984273.0, 8257425.0 ], [ 1983291.0, 8258209.0 ], [ 1982834.0, 8258071.0 ], [ 1982451.0, 8257956.0 ], [ 1981074.0, 8257541.0 ], [ 1980706.0, 8258548.0 ], [ 1980146.0, 8259996.0 ], [ 1980082.0, 8260167.0 ], [ 1980154.0, 8260924.0 ], [ 1980156.0, 8260978.0 ], [ 1978509.0, 8263985.0 ], [ 1977280.0, 8264903.0 ], [ 1977111.0, 8265549.0 ], [ 1977937.0, 8266127.0 ], [ 1978046.0, 8266200.0 ], [ 1978278.0, 8266362.0 ], [ 1979202.0, 8267006.0 ], [ 1981341.0, 8265273.0 ], [ 1981759.0, 8265614.0 ], [ 1982564.0, 8266246.0 ], [ 1982543.0, 8266257.0 ], [ 1982741.0, 8266405.0 ], [ 1982903.0, 8266609.0 ], [ 1983000.0, 8266717.0 ], [ 1983085.0, 8266804.0 ], [ 1983154.0, 8266859.0 ], [ 1983206.0, 8266883.0 ], [ 1983246.0, 8266897.0 ], [ 1983255.0, 8266901.0 ], [ 1983328.0, 8267067.0 ], [ 1983359.0, 8267111.0 ], [ 1983397.0, 8267169.0 ], [ 1983411.0, 8267129.0 ], [ 1983476.0, 8266998.0 ], [ 1983531.0, 8266944.0 ], [ 1983564.0, 8266903.0 ], [ 1983589.0, 8266854.0 ], [ 1983598.0, 8266845.0 ], [ 1983688.0, 8266732.0 ], [ 1983694.0, 8266622.0 ], [ 1984111.0, 8266054.0 ], [ 1984521.0, 8265492.0 ], [ 1984450.0, 8264915.0 ], [ 1984306.0, 8263737.0 ], [ 1984267.0, 8263409.0 ], [ 1984260.0, 8263351.0 ], [ 1984519.0, 8263297.0 ], [ 1984670.0, 8263266.0 ], [ 1984919.0, 8263214.0 ], [ 1985911.0, 8263257.0 ], [ 1985963.0, 8263323.0 ], [ 1985967.0, 8263331.0 ], [ 1986056.0, 8263442.0 ], [ 1986124.0, 8263527.0 ], [ 1986294.0, 8263743.0 ], [ 1986677.0, 8264226.0 ], [ 1987235.0, 8264667.0 ], [ 1987318.0, 8264733.0 ], [ 1987490.0, 8264867.0 ], [ 1987633.0, 8264983.0 ], [ 1988320.0, 8265107.0 ], [ 1988499.0, 8265411.0 ], [ 1988633.0, 8265499.0 ], [ 1988669.0, 8265524.0 ], [ 1988666.0, 8265530.0 ], [ 1988993.0, 8265906.0 ], [ 1989106.0, 8266252.0 ], [ 1989210.0, 8266566.0 ], [ 1989518.0, 8266386.0 ], [ 1989880.0, 8266774.0 ], [ 1990113.0, 8267024.0 ], [ 1990004.0, 8267124.0 ], [ 1989901.0, 8267208.0 ], [ 1989820.0, 8267311.0 ], [ 1989742.0, 8267412.0 ], [ 1989596.0, 8267550.0 ], [ 1989529.0, 8267660.0 ], [ 1989492.0, 8267795.0 ], [ 1989818.0, 8268111.0 ], [ 1989942.0, 8268079.0 ], [ 1990069.0, 8268091.0 ], [ 1990799.0, 8268366.0 ], [ 1990970.0, 8268465.0 ], [ 1991285.0, 8268695.0 ], [ 1991380.0, 8268781.0 ], [ 1991645.0, 8269111.0 ], [ 1991858.0, 8269462.0 ], [ 1992086.0, 8269771.0 ], [ 1992175.0, 8269879.0 ], [ 1992191.0, 8269941.0 ], [ 1992199.0, 8269973.0 ], [ 1992277.0, 8270286.0 ], [ 1992283.0, 8270480.0 ], [ 1992327.0, 8270588.0 ], [ 1992439.0, 8270728.0 ], [ 1992496.0, 8270788.0 ], [ 1992455.0, 8270906.0 ], [ 1992413.0, 8270952.0 ], [ 1992255.0, 8271283.0 ], [ 1992089.0, 8271800.0 ], [ 1992073.0, 8271918.0 ], [ 1992011.0, 8272312.0 ], [ 1991871.0, 8272578.0 ], [ 1991718.0, 8272528.0 ], [ 1991720.0, 8272725.0 ], [ 1991638.0, 8272909.0 ], [ 1991933.0, 8273174.0 ], [ 1991551.0, 8273610.0 ], [ 1991571.0, 8273721.0 ], [ 1991333.0, 8273956.0 ], [ 1991415.0, 8274270.0 ], [ 1991610.0, 8274561.0 ], [ 1991691.0, 8275029.0 ], [ 1991912.0, 8275431.0 ], [ 1992479.0, 8276114.0 ], [ 1992746.0, 8276164.0 ], [ 1992935.0, 8276121.0 ], [ 1992983.0, 8276049.0 ], [ 1993077.0, 8275823.0 ], [ 1993108.0, 8275580.0 ], [ 1993330.0, 8275530.0 ], [ 1993436.0, 8275656.0 ], [ 1993795.0, 8275507.0 ], [ 1993965.0, 8275376.0 ], [ 1994013.0, 8275180.0 ], [ 1994095.0, 8275175.0 ], [ 1994426.0, 8275088.0 ], [ 1994575.0, 8274907.0 ], [ 1994823.0, 8274773.0 ], [ 1994672.0, 8274384.0 ], [ 1994370.0, 8273449.0 ], [ 1994299.0, 8273229.0 ], [ 1994774.0, 8272759.0 ], [ 1994840.0, 8272691.0 ], [ 1994832.0, 8272507.0 ], [ 1995094.0, 8272091.0 ], [ 1995354.0, 8271808.0 ], [ 1995309.0, 8271788.0 ], [ 1995549.0, 8271597.0 ], [ 1995798.0, 8271326.0 ], [ 1995923.0, 8271485.0 ], [ 1997151.0, 8270500.0 ], [ 1997641.0, 8270157.0 ], [ 1998506.0, 8269630.0 ], [ 2000307.0, 8268161.0 ], [ 2000633.0, 8267863.0 ], [ 2001063.0, 8267293.0 ], [ 2001096.0, 8267246.0 ], [ 2000807.0, 8267502.0 ], [ 2000709.0, 8267447.0 ], [ 2000571.0, 8267627.0 ], [ 2000498.0, 8267663.0 ], [ 2000393.0, 8267677.0 ], [ 2000311.0, 8267678.0 ], [ 2000277.0, 8267673.0 ], [ 2000209.0, 8267596.0 ], [ 2000023.0, 8267295.0 ], [ 1999888.0, 8267202.0 ], [ 1999815.0, 8267184.0 ], [ 1999739.0, 8267177.0 ], [ 1999631.0, 8267124.0 ], [ 1999390.0, 8267199.0 ], [ 1999276.0, 8267204.0 ], [ 1999216.0, 8267174.0 ], [ 1999158.0, 8267144.0 ], [ 1998901.0, 8267010.0 ], [ 1998873.0, 8266995.0 ], [ 1998781.0, 8266939.0 ], [ 1998728.0, 8266898.0 ], [ 1998680.0, 8266847.0 ], [ 1998559.0, 8266717.0 ], [ 1998560.0, 8266710.0 ], [ 1998545.0, 8266635.0 ], [ 1998531.0, 8266615.0 ], [ 1998507.0, 8266594.0 ], [ 1998464.0, 8266560.0 ], [ 1998435.0, 8266517.0 ], [ 1998375.0, 8266421.0 ], [ 1998326.0, 8266336.0 ], [ 1998264.0, 8266222.0 ], [ 1998186.0, 8266049.0 ], [ 1998108.0, 8265801.0 ], [ 1998078.0, 8265717.0 ], [ 1998033.0, 8265553.0 ], [ 1998005.0, 8265455.0 ], [ 1997979.0, 8265390.0 ], [ 1997943.0, 8265306.0 ], [ 1997900.0, 8265219.0 ], [ 1997846.0, 8265132.0 ], [ 1997800.0, 8265074.0 ], [ 1997761.0, 8265033.0 ], [ 1997732.0, 8265007.0 ], [ 1997710.0, 8264989.0 ], [ 1997673.0, 8264962.0 ], [ 1997642.0, 8264942.0 ], [ 1997580.0, 8264906.0 ], [ 1997419.0, 8264818.0 ], [ 1997371.0, 8264790.0 ], [ 1997322.0, 8264758.0 ], [ 1997271.0, 8264721.0 ], [ 1997219.0, 8264677.0 ], [ 1997173.0, 8264632.0 ], [ 1997130.0, 8264579.0 ], [ 1997096.0, 8264526.0 ], [ 1997073.0, 8264480.0 ], [ 1997047.0, 8264418.0 ], [ 1996970.0, 8264202.0 ], [ 1996925.0, 8264128.0 ], [ 1996843.0, 8263997.0 ], [ 1996775.0, 8263908.0 ], [ 1996747.0, 8263869.0 ], [ 1996736.0, 8263852.0 ], [ 1996719.0, 8263823.0 ], [ 1996708.0, 8263802.0 ], [ 1996699.0, 8263781.0 ], [ 1996690.0, 8263759.0 ], [ 1996688.0, 8263750.0 ], [ 1996667.0, 8263649.0 ], [ 1996661.0, 8263570.0 ], [ 1996674.0, 8263519.0 ], [ 1996675.0, 8263488.0 ], [ 1996667.0, 8263449.0 ], [ 1996662.0, 8263421.0 ], [ 1996607.0, 8263381.0 ], [ 1996542.0, 8263215.0 ], [ 1996475.0, 8263098.0 ], [ 1996402.0, 8263011.0 ], [ 1996323.0, 8262948.0 ], [ 1996102.0, 8262807.0 ], [ 1996065.0, 8262765.0 ], [ 1996006.0, 8262719.0 ], [ 1995957.0, 8262664.0 ], [ 1995902.0, 8262613.0 ], [ 1995875.0, 8262587.0 ], [ 1995864.0, 8262570.0 ], [ 1995807.0, 8262452.0 ], [ 1995737.0, 8262329.0 ], [ 1995726.0, 8262292.0 ], [ 1995717.0, 8262217.0 ], [ 1995722.0, 8262153.0 ], [ 1995729.0, 8262122.0 ], [ 1995750.0, 8262091.0 ], [ 1995814.0, 8262043.0 ], [ 1995845.0, 8262001.0 ], [ 1995830.0, 8261947.0 ], [ 1995795.0, 8261922.0 ], [ 1995761.0, 8261858.0 ], [ 1995764.0, 8261821.0 ], [ 1995699.0, 8261803.0 ], [ 1995708.0, 8261762.0 ], [ 1995747.0, 8261765.0 ], [ 1995845.0, 8261641.0 ], [ 1995978.0, 8261507.0 ], [ 1996035.0, 8261490.0 ], [ 1996125.0, 8261407.0 ], [ 1996321.0, 8261329.0 ], [ 1996539.0, 8261294.0 ], [ 1996907.0, 8261161.0 ], [ 1997316.0, 8260877.0 ], [ 1997406.0, 8260783.0 ], [ 1997535.0, 8260584.0 ], [ 1997594.0, 8260457.0 ], [ 1997604.0, 8260369.0 ], [ 1997609.0, 8260340.0 ], [ 1997860.0, 8260210.0 ], [ 1998003.0, 8260134.0 ], [ 1997997.0, 8260122.0 ], [ 1998012.0, 8260115.0 ], [ 1998047.0, 8260093.0 ], [ 1998179.0, 8260028.0 ], [ 1998186.0, 8260027.0 ], [ 1998335.0, 8259951.0 ], [ 1998301.0, 8259829.0 ], [ 1998403.0, 8259765.0 ], [ 1998490.0, 8259665.0 ], [ 1998524.0, 8259630.0 ], [ 1998560.0, 8259602.0 ], [ 1998623.0, 8259549.0 ], [ 1998687.0, 8259494.0 ], [ 1998962.0, 8259262.0 ], [ 1999074.0, 8259148.0 ], [ 1999095.0, 8259126.0 ], [ 1999187.0, 8259028.0 ], [ 1999192.0, 8259021.0 ], [ 1999296.0, 8258884.0 ], [ 1999328.0, 8258795.0 ], [ 1999342.0, 8258758.0 ], [ 1999379.0, 8258663.0 ], [ 1999377.0, 8258652.0 ], [ 1999384.0, 8258639.0 ], [ 1999437.0, 8258534.0 ], [ 1999502.0, 8258448.0 ], [ 1999587.0, 8258346.0 ], [ 1999667.0, 8258195.0 ], [ 1999722.0, 8258020.0 ], [ 1999813.0, 8257777.0 ], [ 1999943.0, 8257559.0 ], [ 2000021.0, 8257261.0 ], [ 2000442.0, 8256783.0 ], [ 2000817.0, 8256406.0 ], [ 2001045.0, 8256195.0 ], [ 2001265.0, 8256040.0 ], [ 2001325.0, 8255998.0 ], [ 2001686.0, 8255339.0 ], [ 2002334.0, 8255133.0 ], [ 2002963.0, 8254805.0 ], [ 2003555.0, 8254403.0 ], [ 2003764.0, 8254460.0 ], [ 2003890.0, 8254493.0 ], [ 2003973.0, 8254515.0 ], [ 2004289.0, 8254633.0 ], [ 2004609.0, 8254518.0 ], [ 2005141.0, 8254413.0 ], [ 2005217.0, 8254393.0 ], [ 2005393.0, 8254344.0 ], [ 2005414.0, 8254337.0 ], [ 2005547.0, 8254261.0 ], [ 2005663.0, 8254209.0 ], [ 2005733.0, 8254185.0 ], [ 2005796.0, 8254168.0 ], [ 2006069.0, 8254155.0 ], [ 2006361.0, 8254151.0 ], [ 2006508.0, 8254101.0 ], [ 2006591.0, 8254369.0 ], [ 2006578.0, 8254471.0 ], [ 2006575.0, 8254490.0 ], [ 2006589.0, 8254491.0 ], [ 2006610.0, 8254496.0 ], [ 2006603.0, 8254523.0 ], [ 2006594.0, 8254563.0 ], [ 2006589.0, 8254593.0 ], [ 2006584.0, 8254623.0 ], [ 2006581.0, 8254653.0 ], [ 2006578.0, 8254687.0 ], [ 2006577.0, 8254713.0 ], [ 2006577.0, 8254734.0 ], [ 2006577.0, 8254758.0 ], [ 2006578.0, 8254783.0 ], [ 2006579.0, 8254798.0 ], [ 2006581.0, 8254829.0 ], [ 2006583.0, 8254847.0 ], [ 2006589.0, 8254891.0 ], [ 2006609.0, 8254985.0 ], [ 2006647.0, 8255094.0 ], [ 2006622.0, 8255121.0 ], [ 2006599.0, 8255150.0 ], [ 2006589.0, 8255167.0 ], [ 2006573.0, 8255197.0 ], [ 2006586.0, 8255202.0 ], [ 2006601.0, 8255207.0 ], [ 2006615.0, 8255214.0 ], [ 2006629.0, 8255221.0 ], [ 2006643.0, 8255228.0 ], [ 2006657.0, 8255236.0 ], [ 2006670.0, 8255245.0 ], [ 2006682.0, 8255254.0 ], [ 2006701.0, 8255268.0 ], [ 2006713.0, 8255279.0 ], [ 2006724.0, 8255290.0 ], [ 2006735.0, 8255301.0 ], [ 2006751.0, 8255318.0 ], [ 2006770.0, 8255343.0 ], [ 2006804.0, 8255386.0 ], [ 2006832.0, 8255424.0 ], [ 2006865.0, 8255468.0 ], [ 2006978.0, 8255628.0 ], [ 2006996.0, 8255654.0 ], [ 2007015.0, 8255679.0 ], [ 2007025.0, 8255691.0 ], [ 2007078.0, 8255751.0 ], [ 2007156.0, 8255833.0 ], [ 2007205.0, 8255882.0 ], [ 2007169.0, 8255920.0 ], [ 2007158.0, 8255930.0 ], [ 2007125.0, 8255961.0 ], [ 2007122.0, 8255964.0 ], [ 2007121.0, 8255968.0 ], [ 2007121.0, 8255972.0 ], [ 2007122.0, 8255975.0 ], [ 2007123.0, 8255979.0 ], [ 2007126.0, 8255982.0 ], [ 2007129.0, 8255984.0 ], [ 2007327.0, 8256095.0 ], [ 2007330.0, 8256094.0 ], [ 2007334.0, 8256092.0 ], [ 2007354.0, 8256104.0 ], [ 2007384.0, 8256047.0 ], [ 2007535.0, 8256130.0 ], [ 2007507.0, 8256185.0 ], [ 2007714.0, 8256299.0 ], [ 2007690.0, 8256343.0 ], [ 2008282.0, 8256670.0 ], [ 2008307.0, 8256626.0 ], [ 2008263.0, 8256602.0 ], [ 2008292.0, 8256604.0 ], [ 2008303.0, 8256605.0 ], [ 2008349.0, 8256621.0 ], [ 2008412.0, 8256659.0 ], [ 2008522.0, 8256436.0 ], [ 2008570.0, 8256463.0 ], [ 2008720.0, 8256764.0 ], [ 2008754.0, 8256879.0 ], [ 2008739.0, 8257196.0 ], [ 2008745.0, 8257276.0 ], [ 2008752.0, 8257333.0 ], [ 2008755.0, 8257350.0 ], [ 2008759.0, 8257367.0 ], [ 2008765.0, 8257384.0 ], [ 2008772.0, 8257399.0 ], [ 2008781.0, 8257414.0 ], [ 2008791.0, 8257429.0 ], [ 2008802.0, 8257442.0 ], [ 2008814.0, 8257454.0 ], [ 2008828.0, 8257465.0 ], [ 2008926.0, 8257540.0 ], [ 2009144.0, 8257784.0 ], [ 2009158.0, 8257801.0 ], [ 2009170.0, 8257818.0 ], [ 2009180.0, 8257836.0 ], [ 2009182.0, 8257841.0 ], [ 2009189.0, 8257856.0 ], [ 2009196.0, 8257875.0 ], [ 2009202.0, 8257896.0 ], [ 2009206.0, 8257917.0 ], [ 2009208.0, 8257938.0 ], [ 2009209.0, 8257959.0 ], [ 2009208.0, 8257980.0 ], [ 2009205.0, 8257999.0 ], [ 2009201.0, 8258019.0 ], [ 2009195.0, 8258037.0 ], [ 2008602.0, 8259816.0 ], [ 2008071.0, 8260468.0 ], [ 2007885.0, 8260752.0 ], [ 2007860.0, 8260982.0 ], [ 2007802.0, 8261101.0 ], [ 2008544.0, 8261278.0 ], [ 2008594.0, 8261355.0 ], [ 2008530.0, 8261585.0 ], [ 2008536.0, 8261741.0 ], [ 2008623.0, 8261886.0 ], [ 2009157.0, 8262059.0 ], [ 2009892.0, 8261983.0 ], [ 2010290.0, 8261993.0 ], [ 2011667.0, 8261836.0 ], [ 2011715.0, 8261795.0 ], [ 2012060.0, 8261509.0 ], [ 2012285.0, 8261324.0 ], [ 2012432.0, 8261196.0 ], [ 2012756.0, 8261117.0 ], [ 2014380.0, 8260735.0 ], [ 2014847.0, 8260170.0 ], [ 2015163.0, 8259788.0 ], [ 2015661.0, 8259186.0 ], [ 2015992.0, 8258786.0 ], [ 2016012.0, 8258762.0 ], [ 2016130.0, 8258618.0 ], [ 2016281.0, 8258127.0 ], [ 2017796.0, 8255911.0 ], [ 2017938.0, 8255832.0 ], [ 2018647.0, 8255447.0 ], [ 2019128.0, 8255185.0 ], [ 2020672.0, 8253872.0 ], [ 2020877.0, 8253697.0 ], [ 2021102.0, 8253505.0 ], [ 2021624.0, 8253060.0 ], [ 2021602.0, 8251670.0 ], [ 2021995.0, 8251038.0 ], [ 2021597.0, 8250059.0 ], [ 2021247.0, 8249835.0 ], [ 2020365.0, 8249582.0 ], [ 2019834.0, 8249771.0 ], [ 2019177.0, 8249926.0 ], [ 2018596.0, 8249782.0 ], [ 2018159.0, 8249798.0 ], [ 2017869.0, 8249536.0 ], [ 2017596.0, 8249447.0 ], [ 2017148.0, 8249551.0 ], [ 2016718.0, 8249411.0 ], [ 2016551.0, 8249382.0 ], [ 2016273.0, 8249330.0 ], [ 2016023.0, 8249336.0 ], [ 2015921.0, 8249369.0 ], [ 2015839.0, 8248808.0 ], [ 2015810.0, 8248798.0 ], [ 2015785.0, 8248789.0 ], [ 2015756.0, 8248817.0 ], [ 2015719.0, 8248775.0 ], [ 2015722.0, 8248772.0 ], [ 2015484.0, 8248505.0 ], [ 2015507.0, 8248488.0 ], [ 2015524.0, 8248475.0 ], [ 2015523.0, 8248474.0 ], [ 2015746.0, 8248264.0 ], [ 2015727.0, 8248213.0 ], [ 2015740.0, 8248146.0 ], [ 2015849.0, 8248009.0 ], [ 2015865.0, 8248002.0 ], [ 2015890.0, 8247991.0 ], [ 2015928.0, 8247982.0 ], [ 2015939.0, 8247987.0 ], [ 2016006.0, 8247903.0 ], [ 2016096.0, 8247780.0 ], [ 2016233.0, 8247608.0 ], [ 2016332.0, 8247480.0 ], [ 2016324.0, 8247476.0 ], [ 2016340.0, 8247457.0 ], [ 2016293.0, 8247461.0 ], [ 2016284.0, 8247381.0 ], [ 2016328.0, 8246941.0 ], [ 2016327.0, 8246834.0 ], [ 2016357.0, 8246829.0 ], [ 2016369.0, 8246705.0 ], [ 2016369.0, 8246662.0 ], [ 2016374.0, 8246631.0 ], [ 2016376.0, 8246620.0 ], [ 2016385.0, 8246592.0 ], [ 2016389.0, 8246572.0 ], [ 2016395.0, 8246557.0 ], [ 2016401.0, 8246543.0 ], [ 2016410.0, 8246529.0 ], [ 2016419.0, 8246516.0 ], [ 2016430.0, 8246504.0 ], [ 2016442.0, 8246494.0 ], [ 2016454.0, 8246484.0 ], [ 2016462.0, 8246476.0 ], [ 2016468.0, 8246466.0 ], [ 2016471.0, 8246456.0 ], [ 2016472.0, 8246448.0 ], [ 2016471.0, 8246433.0 ], [ 2016466.0, 8246408.0 ], [ 2016462.0, 8246395.0 ], [ 2016456.0, 8246383.0 ], [ 2016449.0, 8246372.0 ], [ 2016425.0, 8246343.0 ], [ 2016401.0, 8246315.0 ], [ 2016377.0, 8246287.0 ], [ 2016352.0, 8246260.0 ], [ 2016326.0, 8246233.0 ], [ 2016300.0, 8246209.0 ], [ 2016233.0, 8246146.0 ], [ 2016216.0, 8246033.0 ], [ 2016145.0, 8245990.0 ], [ 2016064.0, 8245941.0 ], [ 2016104.0, 8245910.0 ], [ 2016195.0, 8245901.0 ], [ 2016350.0, 8245852.0 ], [ 2016597.0, 8245801.0 ], [ 2016706.0, 8245765.0 ], [ 2016821.0, 8245788.0 ], [ 2016959.0, 8245803.0 ], [ 2017152.0, 8245779.0 ], [ 2017490.0, 8245831.0 ], [ 2017704.0, 8245782.0 ], [ 2017867.0, 8245745.0 ], [ 2017964.0, 8245766.0 ], [ 2018024.0, 8245779.0 ], [ 2018238.0, 8245789.0 ], [ 2017308.0, 8244417.0 ], [ 2017169.0, 8244231.0 ], [ 2017036.0, 8244167.0 ], [ 2017290.0, 8243391.0 ], [ 2017477.0, 8242977.0 ], [ 2017626.0, 8242845.0 ], [ 2019209.0, 8241459.0 ], [ 2019664.0, 8241074.0 ], [ 2020679.0, 8239799.0 ], [ 2020658.0, 8239750.0 ], [ 2020602.0, 8239629.0 ], [ 2020571.0, 8239531.0 ], [ 2020570.0, 8239504.0 ], [ 2020542.0, 8239447.0 ], [ 2020537.0, 8239421.0 ], [ 2020512.0, 8239329.0 ], [ 2020479.0, 8239244.0 ], [ 2020486.0, 8239212.0 ], [ 2020484.0, 8239174.0 ], [ 2020478.0, 8239159.0 ], [ 2020480.0, 8239115.0 ], [ 2020499.0, 8239019.0 ], [ 2020450.0, 8238932.0 ], [ 2020413.0, 8238873.0 ], [ 2020422.0, 8238823.0 ], [ 2020425.0, 8238784.0 ], [ 2020439.0, 8238682.0 ], [ 2020420.0, 8238541.0 ], [ 2020418.0, 8238050.0 ], [ 2022713.0, 8237384.0 ], [ 2022629.0, 8236135.0 ], [ 2022727.0, 8235800.0 ], [ 2022715.0, 8235701.0 ], [ 2022758.0, 8235066.0 ], [ 2023207.0, 8234876.0 ], [ 2023215.0, 8234836.0 ], [ 2023318.0, 8234596.0 ], [ 2023341.0, 8234540.0 ], [ 2023428.0, 8234339.0 ], [ 2023866.0, 8233807.0 ], [ 2024188.0, 8233783.0 ], [ 2024486.0, 8233912.0 ], [ 2024917.0, 8233974.0 ], [ 2025638.0, 8234077.0 ], [ 2025834.0, 8234077.0 ], [ 2026023.0, 8234069.0 ], [ 2025874.0, 8233861.0 ], [ 2025642.0, 8233541.0 ], [ 2025629.0, 8233388.0 ], [ 2025599.0, 8233021.0 ], [ 2025590.0, 8232911.0 ], [ 2025578.0, 8232765.0 ], [ 2025560.0, 8232520.0 ], [ 2025431.0, 8230957.0 ], [ 2025409.0, 8230682.0 ], [ 2025395.0, 8230619.0 ], [ 2025382.0, 8230567.0 ], [ 2025324.0, 8230319.0 ], [ 2025315.0, 8230219.0 ], [ 2025155.0, 8230185.0 ], [ 2024998.0, 8230184.0 ], [ 2024647.0, 8230337.0 ], [ 2023476.0, 8230794.0 ], [ 2023391.0, 8230961.0 ], [ 2023311.0, 8231123.0 ], [ 2022941.0, 8231246.0 ], [ 2022616.0, 8231353.0 ], [ 2022319.0, 8231449.0 ], [ 2021844.0, 8231604.0 ], [ 2020093.0, 8232139.0 ], [ 2018631.0, 8232965.0 ], [ 2018148.0, 8232644.0 ], [ 2018073.0, 8232709.0 ], [ 2017971.0, 8232590.0 ], [ 2017983.0, 8232586.0 ], [ 2018010.0, 8232575.0 ], [ 2018030.0, 8232565.0 ], [ 2018011.0, 8232553.0 ], [ 2018003.0, 8232549.0 ], [ 2017994.0, 8232554.0 ], [ 2017957.0, 8232565.0 ], [ 2017934.0, 8232521.0 ], [ 2017928.0, 8232508.0 ], [ 2017881.0, 8232532.0 ], [ 2017875.0, 8232521.0 ], [ 2017828.0, 8232536.0 ], [ 2017778.0, 8232562.0 ], [ 2017761.0, 8232572.0 ], [ 2017766.0, 8232585.0 ], [ 2017710.0, 8232603.0 ], [ 2017703.0, 8232607.0 ], [ 2017667.0, 8232622.0 ] ] ] } }
]
}
