{
"type": "FeatureCollection",
"name": "Warsaw-geojson",
"crs": { "type": "name", "properties": { "name": "urn:ogc:def:crs:EPSG::3857" } },
"features": [
{ "type": "Feature", "properties": { "gap": "(7774364495, 7774364496)", "B": 7493.0, "nodelist": [ 7774364495, 7774364496 ], "source": 7774364495, "target": 7774364496, "edge_list": "[(7774364495, 7774364496)]" }, "geometry": { "type": "LineString", "coordinates": [ [ 2339465.0, 6842523.0 ], [ 2339470.0, 6842507.0 ] ] } },
{ "type": "Feature", "properties": { "gap": "(1118741725, 13665554510)", "B": 7445.0, "nodelist": [ 1118741725, 13665554510 ], "source": 1118741725, "target": 13665554510, "edge_list": "[(1118741725, 13665554510)]" }, "geometry": { "type": "LineString", "coordinates": [ [ 2335111.0, 6842844.0 ], [ 2335111.0, 6842848.0 ], [ 2335111.0, 6842851.0 ] ] } },
{ "type": "Feature", "properties": { "gap": "(1396537131, 7841234374)", "B": 7215.5, "nodelist": [ 1396537131, 7841234374 ], "source": 1396537131, "target": 7841234374, "edge_list": "[(1396537131, 7841234374)]" }, "geometry": { "type": "LineString", "coordinates": [ [ 2341766.0, 6828979.0 ], [ 2341771.0, 6828980.0 ], [ 2341792.0, 6828984.0 ], [ 2341798.0, 6828985.0 ] ] } },
{ "type": "Feature", "properties": { "gap": "(2864403545, 9503107840)", "B": 7114.0000000000009, "nodelist": [ 2864403545, 9503107840 ], "source": 2864403545, "target": 9503107840, "edge_list": "[(2864403545, 9503107840)]" }, "geometry": { "type": "LineString", "coordinates": [ [ 2340006.0, 6842231.0 ], [ 2340004.0, 6842235.0 ], [ 2340003.0, 6842239.0 ] ] } },
{ "type": "Feature", "properties": { "gap": "(11769396906, 11769396911)", "B": 6842.0000000000009, "nodelist": [ 11769396906, 11769396911 ], "source": 11769396906, "target": 11769396911, "edge_list": "[(11769396906, 11769396911)]" }, "geometry": { "type": "LineString", "coordinates": [ [ 2332190.0, 6841650.0 ], [ 2332197.0, 6841655.0 ] ] } },
{ "type": "Feature", "properties": { "gap": "(13750290689, 13750290690)", "B": 6824.0, "nodelist": [ 13750290689, 13750290690 ], "source": 13750290689, "target": 13750290690, "edge_list": "[(13750290689, 13750290690)]" }, "geometry": { "type": "LineString", "coordinates": [ [ 2339642.0, 6843799.0 ], [ 2339642.0, 6843798.0 ] ] } },
{ "type": "Feature", "properties": { "gap": "(10819748589, 13666443569)", "B": 6774.5, "nodelist": [ 10819748589, 13666443569 ], "source": 10819748589, "target": 13666443569, "edge_list": "[(10819748589, 13666443569)]" }, "geometry": { "type": "LineString", "coordinates": [ [ 2334909.0, 6840991.0 ], [ 2334903.0, 6840972.0 ], [ 2334907.0, 6840957.0 ], [ 2334904.0, 6840939.0 ], [ 2334870.0, 6840852.0 ], [ 2334862.0, 6840850.0 ], [ 2334854.0, 6840832.0 ], [ 2334845.0, 6840830.0 ] ] } },
{ "type": "Feature", "properties": { "gap": "(10948711316, 10948711340)", "B": 6697.0, "nodelist": [ 10948711316, 10948711340 ], "source": 10948711316, "target": 10948711340, "edge_list": "[(10948711316, 10948711340)]" }, "geometry": { "type": "LineString", "coordinates": [ [ 2340733.0, 6829229.0 ], [ 2340758.0, 6829229.0 ] ] } },
{ "type": "Feature", "properties": { "gap": "(778327241, 778328270)", "B": 6422.5, "nodelist": [ 778327241, 778328270 ], "source": 778327241, "target": 778328270, "edge_list": "[(778327241, 778328270)]" }, "geometry": { "type": "LineString", "coordinates": [ [ 2340219.0, 6843561.0 ], [ 2340222.0, 6843554.0 ] ] } },
{ "type": "Feature", "properties": { "gap": "(778327871, 778328270)", "B": 6395.8537094646008, "nodelist": [ 778327871, 778327241, 778328270 ], "source": 778327871, "target": 778328270, "edge_list": "[(778327871, 778327241), (778327241, 778328270)]" }, "geometry": { "type": "LineString", "coordinates": [ [ 2340215.0, 6843568.0 ], [ 2340219.0, 6843561.0 ], [ 2340222.0, 6843554.0 ] ] } },
{ "type": "Feature", "properties": { "gap": "(778328270, 9563405835)", "B": 6379.116146777551, "nodelist": [ 778328270, 778327241, 778327871, 9563405835 ], "source": 778328270, "target": 9563405835, "edge_list": "[(778328270, 778327241), (778327241, 778327871), (778327871, 9563405835)]" }, "geometry": { "type": "LineString", "coordinates": [ [ 2340222.0, 6843554.0 ], [ 2340219.0, 6843561.0 ], [ 2340215.0, 6843568.0 ], [ 2340198.0, 6843562.0 ] ] } },
{ "type": "Feature", "properties": { "gap": "(778327241, 778327871)", "B": 6372.0, "nodelist": [ 778327241, 778327871 ], "source": 778327241, "target": 778327871, "edge_list": "[(778327241, 778327871)]" }, "geometry": { "type": "LineString", "coordinates": [ [ 2340219.0, 6843561.0 ], [ 2340215.0, 6843568.0 ] ] } },
{ "type": "Feature", "properties": { "gap": "(778327241, 9563405835)", "B": 6367.1557413530227, "nodelist": [ 778327241, 778327871, 9563405835 ], "source": 778327241, "target": 9563405835, "edge_list": "[(778327241, 778327871), (778327871, 9563405835)]" }, "geometry": { "type": "LineString", "coordinates": [ [ 2340219.0, 6843561.0 ], [ 2340215.0, 6843568.0 ], [ 2340198.0, 6843562.0 ] ] } },
{ "type": "Feature", "properties": { "gap": "(10948711340, 10948711341)", "B": 6270.6435234515056, "nodelist": [ 10948711340, 10948711316, 10948711341 ], "source": 10948711340, "target": 10948711341, "edge_list": "[(10948711340, 10948711316), (10948711316, 10948711341)]" }, "geometry": { "type": "LineString", "coordinates": [ [ 2340758.0, 6829229.0 ], [ 2340733.0, 6829229.0 ], [ 2340731.0, 6829229.0 ] ] } },
{ "type": "Feature", "properties": { "gap": "(4737816383, 5242812497)", "B": 6242.5, "nodelist": [ 4737816383, 5242812497 ], "source": 4737816383, "target": 5242812497, "edge_list": "[(4737816383, 5242812497)]" }, "geometry": { "type": "LineString", "coordinates": [ [ 2332027.0, 6841131.0 ], [ 2332036.0, 6841113.0 ] ] } },
{ "type": "Feature", "properties": { "gap": "(1858260277, 9053503660)", "B": 6242.0000000000009, "nodelist": [ 1858260277, 9053503660 ], "source": 1858260277, "target": 9053503660, "edge_list": "[(1858260277, 9053503660)]" }, "geometry": { "type": "LineString", "coordinates": [ [ 2343294.0, 6828911.0 ], [ 2343292.0, 6828913.0 ] ] } },
{ "type": "Feature", "properties": { "gap": "(5242812497, 5733999543)", "B": 6240.0156070768662, "nodelist": [ 5242812497, 4737816383, 5733999543 ], "source": 5242812497, "target": 5733999543, "edge_list": "[(5242812497, 4737816383), (4737816383, 5733999543)]" }, "geometry": { "type": "LineString", "coordinates": [ [ 2332036.0, 6841113.0 ], [ 2332027.0, 6841131.0 ], [ 2332034.0, 6841135.0 ], [ 2332030.0, 6841144.0 ] ] } },
{ "type": "Feature", "properties": { "gap": "(4737816383, 5733999543)", "B": 6237.5, "nodelist": [ 4737816383, 5733999543 ], "source": 4737816383, "target": 5733999543, "edge_list": "[(4737816383, 5733999543)]" }, "geometry": { "type": "LineString", "coordinates": [ [ 2332027.0, 6841131.0 ], [ 2332034.0, 6841135.0 ], [ 2332030.0, 6841144.0 ] ] } },
{ "type": "Feature", "properties": { "gap": "(1582907373, 9551890108)", "B": 5980.0, "nodelist": [ 1582907373, 9551890108 ], "source": 1582907373, "target": 9551890108, "edge_list": "[(1582907373, 9551890108)]" }, "geometry": { "type": "LineString", "coordinates": [ [ 2340026.0, 6837323.0 ], [ 2340020.0, 6837333.0 ] ] } },
{ "type": "Feature", "properties": { "gap": "(209094185, 3911319889)", "B": 5919.0, "nodelist": [ 209094185, 3911319889 ], "source": 209094185, "target": 3911319889, "edge_list": "[(209094185, 3911319889)]" }, "geometry": { "type": "LineString", "coordinates": [ [ 2348134.0, 6845786.0 ], [ 2348138.0, 6845784.0 ] ] } },
{ "type": "Feature", "properties": { "gap": "(345519297, 9563405835)", "B": 5872.5436933482597, "nodelist": [ 345519297, 778328270, 778327241, 778327871, 9563405835 ], "source": 345519297, "target": 9563405835, "edge_list": "[(345519297, 778328270), (778328270, 778327241), (778327241, 778327871), (778327871, 9563405835)]" }, "geometry": { "type": "LineString", "coordinates": [ [ 2340223.0, 6843552.0 ], [ 2340222.0, 6843554.0 ], [ 2340219.0, 6843561.0 ], [ 2340215.0, 6843568.0 ], [ 2340198.0, 6843562.0 ] ] } },
{ "type": "Feature", "properties": { "gap": "(11071155655, 11071155656)", "B": 5809.0, "nodelist": [ 11071155655, 11071155656 ], "source": 11071155655, "target": 11071155656, "edge_list": "[(11071155655, 11071155656)]" }, "geometry": { "type": "LineString", "coordinates": [ [ 2335618.0, 6835875.0 ], [ 2335622.0, 6835874.0 ] ] } },
{ "type": "Feature", "properties": { "gap": "(10948711314, 10948711316)", "B": 5794.5110434533999, "nodelist": [ 10948711314, 10948711340, 10948711316 ], "source": 10948711314, "target": 10948711316, "edge_list": "[(10948711314, 10948711340), (10948711340, 10948711316)]" }, "geometry": { "type": "LineString", "coordinates": [ [ 2340762.0, 6829229.0 ], [ 2340758.0, 6829229.0 ], [ 2340733.0, 6829229.0 ] ] } },
{ "type": "Feature", "properties": { "gap": "(9387924839, 13280472354)", "B": 5769.0, "nodelist": [ 9387924839, 13280472354 ], "source": 9387924839, "target": 13280472354, "edge_list": "[(9387924839, 13280472354)]" }, "geometry": { "type": "LineString", "coordinates": [ [ 2341026.0, 6839178.0 ], [ 2341028.0, 6839178.0 ] ] } },
{ "type": "Feature", "properties": { "gap": "(9693453761, 9693453763)", "B": 5738.5, "nodelist": [ 9693453761, 9693453763 ], "source": 9693453761, "target": 9693453763, "edge_list": "[(9693453761, 9693453763)]" }, "geometry": { "type": "LineString", "coordinates": [ [ 2339131.0, 6831237.0 ], [ 2339122.0, 6831240.0 ] ] } },
{ "type": "Feature", "properties": { "gap": "(1458098693, 8185739090)", "B": 5737.0, "nodelist": [ 1458098693, 8185739090 ], "source": 1458098693, "target": 8185739090, "edge_list": "[(1458098693, 8185739090)]" }, "geometry": { "type": "LineString", "coordinates": [ [ 2325862.0, 6835829.0 ], [ 2325869.0, 6835841.0 ] ] } },
{ "type": "Feature", "properties": { "gap": "(1458098692, 8185739090)", "B": 5732.0097497627921, "nodelist": [ 1458098692, 1458098693, 8185739090 ], "source": 1458098692, "target": 8185739090, "edge_list": "[(1458098692, 1458098693), (1458098693, 8185739090)]" }, "geometry": { "type": "LineString", "coordinates": [ [ 2325892.0, 6835814.0 ], [ 2325862.0, 6835829.0 ], [ 2325869.0, 6835841.0 ] ] } },
{ "type": "Feature", "properties": { "gap": "(8185739113, 9501792809)", "B": 5703.5, "nodelist": [ 8185739113, 9501792809 ], "source": 8185739113, "target": 9501792809, "edge_list": "[(8185739113, 9501792809)]" }, "geometry": { "type": "LineString", "coordinates": [ [ 2325605.0, 6835965.0 ], [ 2325603.0, 6835962.0 ], [ 2325592.0, 6835941.0 ] ] } },
{ "type": "Feature", "properties": { "gap": "(2731461600, 2751768412)", "B": 5692.0, "nodelist": [ 2731461600, 2751768412 ], "source": 2731461600, "target": 2751768412, "edge_list": "[(2731461600, 2751768412)]" }, "geometry": { "type": "LineString", "coordinates": [ [ 2327193.0, 6841374.0 ], [ 2327191.0, 6841374.0 ], [ 2327156.0, 6841383.0 ] ] } },
{ "type": "Feature", "properties": { "gap": "(5419374286, 9952789944)", "B": 5687.0, "nodelist": [ 5419374286, 9952789944 ], "source": 5419374286, "target": 9952789944, "edge_list": "[(5419374286, 9952789944)]" }, "geometry": { "type": "LineString", "coordinates": [ [ 2349937.0, 6844753.0 ], [ 2349940.0, 6844752.0 ], [ 2349944.0, 6844750.0 ] ] } },
{ "type": "Feature", "properties": { "gap": "(9421222380, 10990237166)", "B": 5653.091196557385, "nodelist": [ 9421222380, 10990237165, 10990237166 ], "source": 9421222380, "target": 10990237166, "edge_list": "[(9421222380, 10990237165), (10990237165, 10990237166)]" }, "geometry": { "type": "LineString", "coordinates": [ [ 2338692.0, 6846467.0 ], [ 2338691.0, 6846477.0 ], [ 2338689.0, 6846482.0 ], [ 2338717.0, 6846484.0 ], [ 2338723.0, 6846484.0 ], [ 2338731.0, 6846483.0 ], [ 2338746.0, 6846480.0 ], [ 2338748.0, 6846463.0 ] ] } },
{ "type": "Feature", "properties": { "gap": "(320279324, 9518161408)", "B": 5590.0, "nodelist": [ 320279324, 9518161408 ], "source": 320279324, "target": 9518161408, "edge_list": "[(320279324, 9518161408)]" }, "geometry": { "type": "LineString", "coordinates": [ [ 2326018.0, 6836239.0 ], [ 2326014.0, 6836232.0 ] ] } },
{ "type": "Feature", "properties": { "gap": "(9868432266, 9868432268)", "B": 5514.9999999999991, "nodelist": [ 9868432266, 9868432268 ], "source": 9868432266, "target": 9868432268, "edge_list": "[(9868432266, 9868432268)]" }, "geometry": { "type": "LineString", "coordinates": [ [ 2328964.0, 6843780.0 ], [ 2328963.0, 6843785.0 ] ] } },
{ "type": "Feature", "properties": { "gap": "(9434472086, 13415989429)", "B": 5512.247375292498, "nodelist": [ 9434472086, 8840475717, 13415989429 ], "source": 9434472086, "target": 13415989429, "edge_list": "[(9434472086, 8840475717), (13415989429, 8840475717)]" }, "geometry": { "type": "LineString", "coordinates": [ [ 2337078.0, 6832929.0 ], [ 2337087.0, 6832926.0 ], [ 2337087.0, 6832929.0 ] ] } },
{ "type": "Feature", "properties": { "gap": "(8840475717, 13415989429)", "B": 5511.5, "nodelist": [ 8840475717, 13415989429 ], "source": 8840475717, "target": 13415989429, "edge_list": "[(13415989429, 8840475717)]" }, "geometry": { "type": "LineString", "coordinates": [ [ 2337087.0, 6832929.0 ], [ 2337087.0, 6832926.0 ] ] } },
{ "type": "Feature", "properties": { "gap": "(9434472164, 13415989429)", "B": 5507.8866269107284, "nodelist": [ 9434472164, 9434472086, 8840475717, 13415989429 ], "source": 9434472164, "target": 13415989429, "edge_list": "[(9434472164, 9434472086), (9434472086, 8840475717), (13415989429, 8840475717)]" }, "geometry": { "type": "LineString", "coordinates": [ [ 2337057.0, 6832937.0 ], [ 2337061.0, 6832935.0 ], [ 2337078.0, 6832929.0 ], [ 2337087.0, 6832926.0 ], [ 2337087.0, 6832929.0 ] ] } },
{ "type": "Feature", "properties": { "gap": "(13415989303, 13415989429)", "B": 5503.8543713972458, "nodelist": [ 13415989303, 9434472164, 9434472086, 8840475717, 13415989429 ], "source": 13415989303, "target": 13415989429, "edge_list": "[(13415989303, 9434472164), (9434472164, 9434472086), (9434472086, 8840475717), (13415989429, 8840475717)]" }, "geometry": { "type": "LineString", "coordinates": [ [ 2337076.0, 6833005.0 ], [ 2337077.0, 6833003.0 ], [ 2337077.0, 6833001.0 ], [ 2337076.0, 6832997.0 ], [ 2337057.0, 6832937.0 ], [ 2337061.0, 6832935.0 ], [ 2337078.0, 6832929.0 ], [ 2337087.0, 6832926.0 ], [ 2337087.0, 6832929.0 ] ] } },
{ "type": "Feature", "properties": { "gap": "(10948711314, 10948711341)", "B": 5472.6180428852213, "nodelist": [ 10948711314, 10948711340, 10948711316, 10948711341 ], "source": 10948711314, "target": 10948711341, "edge_list": "[(10948711314, 10948711340), (10948711340, 10948711316), (10948711316, 10948711341)]" }, "geometry": { "type": "LineString", "coordinates": [ [ 2340762.0, 6829229.0 ], [ 2340758.0, 6829229.0 ], [ 2340733.0, 6829229.0 ], [ 2340731.0, 6829229.0 ] ] } },
{ "type": "Feature", "properties": { "gap": "(5422772524, 11929230141)", "B": 5439.5, "nodelist": [ 5422772524, 11929230141 ], "source": 5422772524, "target": 11929230141, "edge_list": "[(11929230141, 5422772524)]" }, "geometry": { "type": "LineString", "coordinates": [ [ 2350924.0, 6844398.0 ], [ 2350929.0, 6844397.0 ] ] } },
{ "type": "Feature", "properties": { "gap": "(345519297, 778327871)", "B": 5385.177587227804, "nodelist": [ 345519297, 778328270, 778327241, 778327871 ], "source": 345519297, "target": 778327871, "edge_list": "[(345519297, 778328270), (778328270, 778327241), (778327241, 778327871)]" }, "geometry": { "type": "LineString", "coordinates": [ [ 2340223.0, 6843552.0 ], [ 2340222.0, 6843554.0 ], [ 2340219.0, 6843561.0 ], [ 2340215.0, 6843568.0 ] ] } },
{ "type": "Feature", "properties": { "gap": "(8418839727, 12923741912)", "B": 5381.0, "nodelist": [ 8418839727, 12923741912 ], "source": 8418839727, "target": 12923741912, "edge_list": "[(8418839727, 12923741912)]" }, "geometry": { "type": "LineString", "coordinates": [ [ 2341681.0, 6831564.0 ], [ 2341681.0, 6831555.0 ] ] } },
{ "type": "Feature", "properties": { "gap": "(11771742009, 11771742010)", "B": 5316.0, "nodelist": [ 11771742009, 11771742010 ], "source": 11771742009, "target": 11771742010, "edge_list": "[(11771742009, 11771742010)]" }, "geometry": { "type": "LineString", "coordinates": [ [ 2340352.0, 6844577.0 ], [ 2340351.0, 6844576.0 ] ] } },
{ "type": "Feature", "properties": { "gap": "(12845157702, 12845157703)", "B": 5274.0, "nodelist": [ 12845157702, 12845157703 ], "source": 12845157702, "target": 12845157703, "edge_list": "[(12845157702, 12845157703)]" }, "geometry": { "type": "LineString", "coordinates": [ [ 2347833.0, 6845743.0 ], [ 2347833.0, 6845738.0 ] ] } },
{ "type": "Feature", "properties": { "gap": "(33125274, 7450111176)", "B": 5195.5, "nodelist": [ 33125274, 7450111176 ], "source": 33125274, "target": 7450111176, "edge_list": "[(33125274, 7450111176)]" }, "geometry": { "type": "LineString", "coordinates": [ [ 2343134.0, 6824709.0 ], [ 2343125.0, 6824712.0 ] ] } },
{ "type": "Feature", "properties": { "gap": "(1935821319, 6058660025)", "B": 5124.0, "nodelist": [ 1935821319, 6058660025 ], "source": 1935821319, "target": 6058660025, "edge_list": "[(1935821319, 6058660025)]" }, "geometry": { "type": "LineString", "coordinates": [ [ 2341976.0, 6832089.0 ], [ 2341972.0, 6832080.0 ] ] } },
{ "type": "Feature", "properties": { "gap": "(1935821319, 6058660030)", "B": 5118.4041422314731, "nodelist": [ 1935821319, 6058660025, 6058660030 ], "source": 1935821319, "target": 6058660030, "edge_list": "[(1935821319, 6058660025), (6058660025, 6058660030)]" }, "geometry": { "type": "LineString", "coordinates": [ [ 2341976.0, 6832089.0 ], [ 2341972.0, 6832080.0 ], [ 2341969.0, 6832071.0 ], [ 2341961.0, 6832043.0 ] ] } },
{ "type": "Feature", "properties": { "gap": "(13415989301, 13415989429)", "B": 5118.3136479939158, "nodelist": [ 13415989301, 13415989303, 9434472164, 9434472086, 8840475717, 13415989429 ], "source": 13415989301, "target": 13415989429, "edge_list": "[(13415989301, 13415989303), (13415989303, 9434472164), (9434472164, 9434472086), (9434472086, 8840475717), (13415989429, 8840475717)]" }, "geometry": { "type": "LineString", "coordinates": [ [ 2337090.0, 6833001.0 ], [ 2337081.0, 6833004.0 ], [ 2337076.0, 6833005.0 ], [ 2337077.0, 6833003.0 ], [ 2337077.0, 6833001.0 ], [ 2337076.0, 6832997.0 ], [ 2337057.0, 6832937.0 ], [ 2337061.0, 6832935.0 ], [ 2337078.0, 6832929.0 ], [ 2337087.0, 6832926.0 ], [ 2337087.0, 6832929.0 ] ] } },
{ "type": "Feature", "properties": { "gap": "(1935821319, 8677393221)", "B": 5115.7148561058448, "nodelist": [ 1935821319, 6058660025, 6058660030, 8677393221 ], "source": 1935821319, "target": 8677393221, "edge_list": "[(1935821319, 6058660025), (6058660025, 6058660030), (6058660030, 8677393221)]" }, "geometry": { "type": "LineString", "coordinates": [ [ 2341976.0, 6832089.0 ], [ 2341972.0, 6832080.0 ], [ 2341969.0, 6832071.0 ], [ 2341961.0, 6832043.0 ], [ 2341937.0, 6831990.0 ] ] } },
{ "type": "Feature", "properties": { "gap": "(13415989303, 13415989410)", "B": 5095.2631943837287, "nodelist": [ 13415989303, 9434472164, 9434472086, 8840475717, 1609443298, 13415989410 ], "source": 13415989303, "target": 13415989410, "edge_list": "[(13415989303, 9434472164), (9434472164, 9434472086), (9434472086, 8840475717), (8840475717, 1609443298), (1609443298, 13415989410)]" }, "geometry": { "type": "LineString", "coordinates": [ [ 2337076.0, 6833005.0 ], [ 2337077.0, 6833003.0 ], [ 2337077.0, 6833001.0 ], [ 2337076.0, 6832997.0 ], [ 2337057.0, 6832937.0 ], [ 2337061.0, 6832935.0 ], [ 2337078.0, 6832929.0 ], [ 2337087.0, 6832926.0 ], [ 2337086.0, 6832923.0 ], [ 2337087.0, 6832921.0 ], [ 2337089.0, 6832918.0 ], [ 2337083.0, 6832916.0 ] ] } },
{ "type": "Feature", "properties": { "gap": "(10268483366, 10268483367)", "B": 5076.5, "nodelist": [ 10268483366, 10268483367 ], "source": 10268483366, "target": 10268483367, "edge_list": "[(10268483366, 10268483367)]" }, "geometry": { "type": "LineString", "coordinates": [ [ 2341805.0, 6847665.0 ], [ 2341810.0, 6847665.0 ] ] } },
{ "type": "Feature", "properties": { "gap": "(5733999543, 12393682174)", "B": 5044.3501061414527, "nodelist": [ 5733999543, 4737816383, 5242812497, 12393682174 ], "source": 5733999543, "target": 12393682174, "edge_list": "[(5733999543, 4737816383), (4737816383, 5242812497), (5242812497, 12393682174)]" }, "geometry": { "type": "LineString", "coordinates": [ [ 2332030.0, 6841144.0 ], [ 2332034.0, 6841135.0 ], [ 2332027.0, 6841131.0 ], [ 2332036.0, 6841113.0 ], [ 2332040.0, 6841105.0 ] ] } },
{ "type": "Feature", "properties": { "gap": "(777760885, 12978082158)", "B": 5035.5, "nodelist": [ 777760885, 12978082158 ], "source": 777760885, "target": 12978082158, "edge_list": "[(777760885, 12978082158)]" }, "geometry": { "type": "LineString", "coordinates": [ [ 2341051.0, 6830232.0 ], [ 2341053.0, 6830221.0 ] ] } },
{ "type": "Feature", "properties": { "gap": "(10057228014, 10057228096)", "B": 4957.0, "nodelist": [ 10057228014, 10057228096 ], "source": 10057228014, "target": 10057228096, "edge_list": "[(10057228014, 10057228096)]" }, "geometry": { "type": "LineString", "coordinates": [ [ 2348033.0, 6845932.0 ], [ 2347998.0, 6845861.0 ] ] } },
{ "type": "Feature", "properties": { "gap": "(11990640757, 11990641065)", "B": 4905.5, "nodelist": [ 11990640757, 11990641065 ], "source": 11990640757, "target": 11990641065, "edge_list": "[(11990640757, 11990641065)]" }, "geometry": { "type": "LineString", "coordinates": [ [ 2348353.0, 6846041.0 ], [ 2348351.0, 6846038.0 ], [ 2348350.0, 6846036.0 ], [ 2348347.0, 6846031.0 ], [ 2348345.0, 6846029.0 ], [ 2348338.0, 6846024.0 ] ] } },
{ "type": "Feature", "properties": { "gap": "(8976148683, 11990641065)", "B": 4895.9219975311707, "nodelist": [ 8976148683, 11990640757, 11990641065 ], "source": 8976148683, "target": 11990641065, "edge_list": "[(8976148683, 11990640757), (11990640757, 11990641065)]" }, "geometry": { "type": "LineString", "coordinates": [ [ 2348372.0, 6846078.0 ], [ 2348360.0, 6846054.0 ], [ 2348358.0, 6846051.0 ], [ 2348356.0, 6846047.0 ], [ 2348355.0, 6846044.0 ], [ 2348353.0, 6846041.0 ], [ 2348351.0, 6846038.0 ], [ 2348350.0, 6846036.0 ], [ 2348347.0, 6846031.0 ], [ 2348345.0, 6846029.0 ], [ 2348338.0, 6846024.0 ] ] } },
{ "type": "Feature", "properties": { "gap": "(11990641065, 11990641073)", "B": 4892.1339957517785, "nodelist": [ 11990641065, 11990640757, 8976148683, 11990641073 ], "source": 11990641065, "target": 11990641073, "edge_list": "[(11990641065, 11990640757), (11990640757, 8976148683), (8976148683, 11990641073)]" }, "geometry": { "type": "LineString", "coordinates": [ [ 2348338.0, 6846024.0 ], [ 2348345.0, 6846029.0 ], [ 2348347.0, 6846031.0 ], [ 2348350.0, 6846036.0 ], [ 2348351.0, 6846038.0 ], [ 2348353.0, 6846041.0 ], [ 2348355.0, 6846044.0 ], [ 2348356.0, 6846047.0 ], [ 2348358.0, 6846051.0 ], [ 2348360.0, 6846054.0 ], [ 2348372.0, 6846078.0 ], [ 2348384.0, 6846104.0 ] ] } },
{ "type": "Feature", "properties": { "gap": "(8976148683, 11990640757)", "B": 4890.5, "nodelist": [ 8976148683, 11990640757 ], "source": 8976148683, "target": 11990640757, "edge_list": "[(8976148683, 11990640757)]" }, "geometry": { "type": "LineString", "coordinates": [ [ 2348372.0, 6846078.0 ], [ 2348360.0, 6846054.0 ], [ 2348358.0, 6846051.0 ], [ 2348356.0, 6846047.0 ], [ 2348355.0, 6846044.0 ], [ 2348353.0, 6846041.0 ] ] } },
{ "type": "Feature", "properties": { "gap": "(11990640757, 11990641073)", "B": 4887.6491522306233, "nodelist": [ 11990640757, 8976148683, 11990641073 ], "source": 11990640757, "target": 11990641073, "edge_list": "[(11990640757, 8976148683), (8976148683, 11990641073)]" }, "geometry": { "type": "LineString", "coordinates": [ [ 2348353.0, 6846041.0 ], [ 2348355.0, 6846044.0 ], [ 2348356.0, 6846047.0 ], [ 2348358.0, 6846051.0 ], [ 2348360.0, 6846054.0 ], [ 2348372.0, 6846078.0 ], [ 2348384.0, 6846104.0 ] ] } },
{ "type": "Feature", "properties": { "gap": "(1008710328, 11990641065)", "B": 4884.1979395785829, "nodelist": [ 1008710328, 11990641073, 8976148683, 11990640757, 11990641065 ], "source": 1008710328, "target": 11990641065, "edge_list": "[(1008710328, 11990641073), (11990641073, 8976148683), (8976148683, 11990640757), (11990640757, 11990641065)]" }, "geometry": { "type": "LineString", "coordinates": [ [ 2348400.0, 6846137.0 ], [ 2348384.0, 6846104.0 ], [ 2348372.0, 6846078.0 ], [ 2348360.0, 6846054.0 ], [ 2348358.0, 6846051.0 ], [ 2348356.0, 6846047.0 ], [ 2348355.0, 6846044.0 ], [ 2348353.0, 6846041.0 ], [ 2348351.0, 6846038.0 ], [ 2348350.0, 6846036.0 ], [ 2348347.0, 6846031.0 ], [ 2348345.0, 6846029.0 ], [ 2348338.0, 6846024.0 ] ] } },
{ "type": "Feature", "properties": { "gap": "(1008710328, 11990640757)", "B": 4879.510153115988, "nodelist": [ 1008710328, 11990641073, 8976148683, 11990640757 ], "source": 1008710328, "target": 11990640757, "edge_list": "[(1008710328, 11990641073), (11990641073, 8976148683), (8976148683, 11990640757)]" }, "geometry": { "type": "LineString", "coordinates": [ [ 2348400.0, 6846137.0 ], [ 2348384.0, 6846104.0 ], [ 2348372.0, 6846078.0 ], [ 2348360.0, 6846054.0 ], [ 2348358.0, 6846051.0 ], [ 2348356.0, 6846047.0 ], [ 2348355.0, 6846044.0 ], [ 2348353.0, 6846041.0 ] ] } },
{ "type": "Feature", "properties": { "gap": "(1008702443, 11990641065)", "B": 4875.6947974039513, "nodelist": [ 1008702443, 1008710328, 11990641073, 8976148683, 11990640757, 11990641065 ], "source": 1008702443, "target": 11990641065, "edge_list": "[(1008702443, 1008710328), (1008710328, 11990641073), (11990641073, 8976148683), (8976148683, 11990640757), (11990640757, 11990641065)]" }, "geometry": { "type": "LineString", "coordinates": [ [ 2348373.0, 6846153.0 ], [ 2348400.0, 6846137.0 ], [ 2348384.0, 6846104.0 ], [ 2348372.0, 6846078.0 ], [ 2348360.0, 6846054.0 ], [ 2348358.0, 6846051.0 ], [ 2348356.0, 6846047.0 ], [ 2348355.0, 6846044.0 ], [ 2348353.0, 6846041.0 ], [ 2348351.0, 6846038.0 ], [ 2348350.0, 6846036.0 ], [ 2348347.0, 6846031.0 ], [ 2348345.0, 6846029.0 ], [ 2348338.0, 6846024.0 ] ] } },
{ "type": "Feature", "properties": { "gap": "(1008702443, 11990640757)", "B": 4870.6290246446188, "nodelist": [ 1008702443, 1008710328, 11990641073, 8976148683, 11990640757 ], "source": 1008702443, "target": 11990640757, "edge_list": "[(1008702443, 1008710328), (1008710328, 11990641073), (11990641073, 8976148683), (8976148683, 11990640757)]" }, "geometry": { "type": "LineString", "coordinates": [ [ 2348373.0, 6846153.0 ], [ 2348400.0, 6846137.0 ], [ 2348384.0, 6846104.0 ], [ 2348372.0, 6846078.0 ], [ 2348360.0, 6846054.0 ], [ 2348358.0, 6846051.0 ], [ 2348356.0, 6846047.0 ], [ 2348355.0, 6846044.0 ], [ 2348353.0, 6846041.0 ] ] } },
{ "type": "Feature", "properties": { "gap": "(253924951, 2404087222)", "B": 4820.0, "nodelist": [ 253924951, 2404087222 ], "source": 253924951, "target": 2404087222, "edge_list": "[(253924951, 2404087222)]" }, "geometry": { "type": "LineString", "coordinates": [ [ 2342100.0, 6827323.0 ], [ 2342122.0, 6827365.0 ] ] } },
{ "type": "Feature", "properties": { "gap": "(413497646, 4173972949)", "B": 4784.0, "nodelist": [ 413497646, 4173972949 ], "source": 413497646, "target": 4173972949, "edge_list": "[(413497646, 4173972949)]" }, "geometry": { "type": "LineString", "coordinates": [ [ 2326341.0, 6840847.0 ], [ 2326341.0, 6840867.0 ], [ 2326341.0, 6840873.0 ] ] } },
{ "type": "Feature", "properties": { "gap": "(413497646, 4173972954)", "B": 4781.9816953463187, "nodelist": [ 413497646, 4173972949, 4173972954 ], "source": 413497646, "target": 4173972954, "edge_list": "[(413497646, 4173972949), (4173972949, 4173972954)]" }, "geometry": { "type": "LineString", "coordinates": [ [ 2326341.0, 6840847.0 ], [ 2326341.0, 6840867.0 ], [ 2326341.0, 6840873.0 ], [ 2326328.0, 6840872.0 ] ] } },
{ "type": "Feature", "properties": { "gap": "(11990641065, 13687410806)", "B": 4765.3831523017598, "nodelist": [ 11990641065, 11990640757, 8976148683, 11990641073, 1008710328, 1008702443, 13687410806 ], "source": 11990641065, "target": 13687410806, "edge_list": "[(11990641065, 11990640757), (11990640757, 8976148683), (8976148683, 11990641073), (11990641073, 1008710328), (1008710328, 1008702443), (1008702443, 13687410806)]" }, "geometry": { "type": "LineString", "coordinates": [ [ 2348338.0, 6846024.0 ], [ 2348345.0, 6846029.0 ], [ 2348347.0, 6846031.0 ], [ 2348350.0, 6846036.0 ], [ 2348351.0, 6846038.0 ], [ 2348353.0, 6846041.0 ], [ 2348355.0, 6846044.0 ], [ 2348356.0, 6846047.0 ], [ 2348358.0, 6846051.0 ], [ 2348360.0, 6846054.0 ], [ 2348372.0, 6846078.0 ], [ 2348384.0, 6846104.0 ], [ 2348400.0, 6846137.0 ], [ 2348373.0, 6846153.0 ], [ 2348332.0, 6846176.0 ] ] } },
{ "type": "Feature", "properties": { "gap": "(13415989301, 13415989410)", "B": 4758.2208931248069, "nodelist": [ 13415989301, 13415989303, 9434472164, 9434472086, 8840475717, 1609443298, 13415989410 ], "source": 13415989301, "target": 13415989410, "edge_list": "[(13415989301, 13415989303), (13415989303, 9434472164), (9434472164, 9434472086), (9434472086, 8840475717), (8840475717, 1609443298), (1609443298, 13415989410)]" }, "geometry": { "type": "LineString", "coordinates": [ [ 2337090.0, 6833001.0 ], [ 2337081.0, 6833004.0 ], [ 2337076.0, 6833005.0 ], [ 2337077.0, 6833003.0 ], [ 2337077.0, 6833001.0 ], [ 2337076.0, 6832997.0 ], [ 2337057.0, 6832937.0 ], [ 2337061.0, 6832935.0 ], [ 2337078.0, 6832929.0 ], [ 2337087.0, 6832926.0 ], [ 2337086.0, 6832923.0 ], [ 2337087.0, 6832921.0 ], [ 2337089.0, 6832918.0 ], [ 2337083.0, 6832916.0 ] ] } },
{ "type": "Feature", "properties": { "gap": "(11990640757, 13687410806)", "B": 4747.6016236739715, "nodelist": [ 11990640757, 8976148683, 11990641073, 1008710328, 1008702443, 13687410806 ], "source": 11990640757, "target": 13687410806, "edge_list": "[(11990640757, 8976148683), (8976148683, 11990641073), (11990641073, 1008710328), (1008710328, 1008702443), (1008702443, 13687410806)]" }, "geometry": { "type": "LineString", "coordinates": [ [ 2348353.0, 6846041.0 ], [ 2348355.0, 6846044.0 ], [ 2348356.0, 6846047.0 ], [ 2348358.0, 6846051.0 ], [ 2348360.0, 6846054.0 ], [ 2348372.0, 6846078.0 ], [ 2348384.0, 6846104.0 ], [ 2348400.0, 6846137.0 ], [ 2348373.0, 6846153.0 ], [ 2348332.0, 6846176.0 ] ] } },
{ "type": "Feature", "properties": { "gap": "(8976148683, 13687410806)", "B": 4706.3101897547949, "nodelist": [ 8976148683, 11990641073, 1008710328, 1008702443, 13687410806 ], "source": 8976148683, "target": 13687410806, "edge_list": "[(8976148683, 11990641073), (11990641073, 1008710328), (1008710328, 1008702443), (1008702443, 13687410806)]" }, "geometry": { "type": "LineString", "coordinates": [ [ 2348372.0, 6846078.0 ], [ 2348384.0, 6846104.0 ], [ 2348400.0, 6846137.0 ], [ 2348373.0, 6846153.0 ], [ 2348332.0, 6846176.0 ] ] } },
{ "type": "Feature", "properties": { "gap": "(8840475718, 13415989303)", "B": 4701.9184040565315, "nodelist": [ 8840475718, 1609443298, 8840475717, 9434472086, 9434472164, 13415989303 ], "source": 8840475718, "target": 13415989303, "edge_list": "[(8840475718, 1609443298), (1609443298, 8840475717), (8840475717, 9434472086), (9434472086, 9434472164), (9434472164, 13415989303)]" }, "geometry": { "type": "LineString", "coordinates": [ [ 2337112.0, 6832911.0 ], [ 2337089.0, 6832918.0 ], [ 2337087.0, 6832921.0 ], [ 2337086.0, 6832923.0 ], [ 2337087.0, 6832926.0 ], [ 2337078.0, 6832929.0 ], [ 2337061.0, 6832935.0 ], [ 2337057.0, 6832937.0 ], [ 2337055.0, 6832933.0 ], [ 2337054.0, 6832932.0 ], [ 2337052.0, 6832931.0 ], [ 2337048.0, 6832930.0 ], [ 2337017.0, 6832941.0 ], [ 2337014.0, 6832943.0 ], [ 2337014.0, 6832946.0 ], [ 2337039.0, 6833015.0 ], [ 2337041.0, 6833016.0 ], [ 2337044.0, 6833016.0 ], [ 2337075.0, 6833006.0 ], [ 2337076.0, 6833005.0 ] ] } },
{ "type": "Feature", "properties": { "gap": "(7846431993, 7846431996)", "B": 4695.5, "nodelist": [ 7846431993, 7846431996 ], "source": 7846431993, "target": 7846431996, "edge_list": "[(7846431993, 7846431996)]" }, "geometry": { "type": "LineString", "coordinates": [ [ 2329958.0, 6841296.0 ], [ 2329971.0, 6841295.0 ] ] } },
{ "type": "Feature", "properties": { "gap": "(2404087222, 13207378816)", "B": 4665.4404656526285, "nodelist": [ 2404087222, 253924951, 13207378816 ], "source": 2404087222, "target": 13207378816, "edge_list": "[(2404087222, 253924951), (253924951, 13207378816)]" }, "geometry": { "type": "LineString", "coordinates": [ [ 2342122.0, 6827365.0 ], [ 2342100.0, 6827323.0 ], [ 2342112.0, 6827315.0 ] ] } },
{ "type": "Feature", "properties": { "gap": "(11990641073, 13687410806)", "B": 4662.4163019651278, "nodelist": [ 11990641073, 1008710328, 1008702443, 13687410806 ], "source": 11990641073, "target": 13687410806, "edge_list": "[(11990641073, 1008710328), (1008710328, 1008702443), (1008702443, 13687410806)]" }, "geometry": { "type": "LineString", "coordinates": [ [ 2348384.0, 6846104.0 ], [ 2348400.0, 6846137.0 ], [ 2348373.0, 6846153.0 ], [ 2348332.0, 6846176.0 ] ] } },
{ "type": "Feature", "properties": { "gap": "(8823380815, 8823380816)", "B": 4630.0, "nodelist": [ 8823380815, 8823380816 ], "source": 8823380815, "target": 8823380816, "edge_list": "[(8823380815, 8823380816)]" }, "geometry": { "type": "LineString", "coordinates": [ [ 2334169.0, 6850712.0 ], [ 2334187.0, 6850718.0 ] ] } },
{ "type": "Feature", "properties": { "gap": "(345519297, 778327241)", "B": 4608.5267167761494, "nodelist": [ 345519297, 778328270, 778327241 ], "source": 345519297, "target": 778327241, "edge_list": "[(345519297, 778328270), (778328270, 778327241)]" }, "geometry": { "type": "LineString", "coordinates": [ [ 2340223.0, 6843552.0 ], [ 2340222.0, 6843554.0 ], [ 2340219.0, 6843561.0 ] ] } },
{ "type": "Feature", "properties": { "gap": "(13387145075, 13387194201)", "B": 4603.5, "nodelist": [ 13387145075, 13387194201 ], "source": 13387145075, "target": 13387194201, "edge_list": "[(13387145075, 13387194201)]" }, "geometry": { "type": "LineString", "coordinates": [ [ 2339664.0, 6852372.0 ], [ 2339656.0, 6852369.0 ] ] } },
{ "type": "Feature", "properties": { "gap": "(1008710328, 13687410806)", "B": 4567.9076969688422, "nodelist": [ 1008710328, 1008702443, 13687410806 ], "source": 1008710328, "target": 13687410806, "edge_list": "[(1008710328, 1008702443), (1008702443, 13687410806)]" }, "geometry": { "type": "LineString", "coordinates": [ [ 2348400.0, 6846137.0 ], [ 2348373.0, 6846153.0 ], [ 2348332.0, 6846176.0 ] ] } },
{ "type": "Feature", "properties": { "gap": "(10990237166, 10990237180)", "B": 4551.8951537445773, "nodelist": [ 10990237166, 10990237165, 282141303, 10990237180 ], "source": 10990237166, "target": 10990237180, "edge_list": "[(10990237166, 10990237165), (10990237165, 282141303), (282141303, 10990237180)]" }, "geometry": { "type": "LineString", "coordinates": [ [ 2338748.0, 6846463.0 ], [ 2338746.0, 6846480.0 ], [ 2338731.0, 6846483.0 ], [ 2338723.0, 6846484.0 ], [ 2338717.0, 6846484.0 ], [ 2338689.0, 6846482.0 ], [ 2338683.0, 6846486.0 ], [ 2338695.0, 6846494.0 ], [ 2338713.0, 6846500.0 ] ] } },
{ "type": "Feature", "properties": { "gap": "(11386222254, 11945257955)", "B": 4479.0, "nodelist": [ 11386222254, 11945257955 ], "source": 11386222254, "target": 11945257955, "edge_list": "[(11386222254, 11945257955)]" }, "geometry": { "type": "LineString", "coordinates": [ [ 2345158.0, 6845883.0 ], [ 2345159.0, 6845879.0 ] ] } },
{ "type": "Feature", "properties": { "gap": "(9859077139, 9859077141)", "B": 4454.5, "nodelist": [ 9859077139, 9859077141 ], "source": 9859077139, "target": 9859077141, "edge_list": "[(9859077139, 9859077141)]" }, "geometry": { "type": "LineString", "coordinates": [ [ 2326910.0, 6839715.0 ], [ 2326915.0, 6839668.0 ], [ 2326915.0, 6839665.0 ] ] } },
{ "type": "Feature", "properties": { "gap": "(9859077134, 9859077141)", "B": 4451.84804176738, "nodelist": [ 9859077134, 9859077139, 9859077141 ], "source": 9859077134, "target": 9859077141, "edge_list": "[(9859077134, 9859077139), (9859077139, 9859077141)]" }, "geometry": { "type": "LineString", "coordinates": [ [ 2326854.0, 6839707.0 ], [ 2326910.0, 6839715.0 ], [ 2326915.0, 6839668.0 ], [ 2326915.0, 6839665.0 ] ] } },
{ "type": "Feature", "properties": { "gap": "(1396537131, 7841234373)", "B": 4438.7458936355206, "nodelist": [ 1396537131, 7841234374, 7841234373 ], "source": 1396537131, "target": 7841234373, "edge_list": "[(1396537131, 7841234374), (7841234374, 7841234373)]" }, "geometry": { "type": "LineString", "coordinates": [ [ 2341766.0, 6828979.0 ], [ 2341771.0, 6828980.0 ], [ 2341792.0, 6828984.0 ], [ 2341798.0, 6828985.0 ], [ 2341818.0, 6828989.0 ] ] } },
{ "type": "Feature", "properties": { "gap": "(8840475718, 13415989301)", "B": 4413.437967014369, "nodelist": [ 8840475718, 1609443298, 8840475717, 9434472086, 9434472164, 13415989303, 13415989301 ], "source": 8840475718, "target": 13415989301, "edge_list": "[(8840475718, 1609443298), (1609443298, 8840475717), (8840475717, 9434472086), (9434472086, 9434472164), (9434472164, 13415989303), (13415989303, 13415989301)]" }, "geometry": { "type": "LineString", "coordinates": [ [ 2337112.0, 6832911.0 ], [ 2337089.0, 6832918.0 ], [ 2337087.0, 6832921.0 ], [ 2337086.0, 6832923.0 ], [ 2337087.0, 6832926.0 ], [ 2337078.0, 6832929.0 ], [ 2337061.0, 6832935.0 ], [ 2337057.0, 6832937.0 ], [ 2337055.0, 6832933.0 ], [ 2337054.0, 6832932.0 ], [ 2337052.0, 6832931.0 ], [ 2337048.0, 6832930.0 ], [ 2337017.0, 6832941.0 ], [ 2337014.0, 6832943.0 ], [ 2337014.0, 6832946.0 ], [ 2337039.0, 6833015.0 ], [ 2337041.0, 6833016.0 ], [ 2337044.0, 6833016.0 ], [ 2337075.0, 6833006.0 ], [ 2337076.0, 6833005.0 ], [ 2337081.0, 6833004.0 ], [ 2337090.0, 6833001.0 ] ] } },
{ "type": "Feature", "properties": { "gap": "(1008702443, 13687410806)", "B": 4385.0, "nodelist": [ 1008702443, 13687410806 ], "source": 1008702443, "target": 13687410806, "edge_list": "[(1008702443, 13687410806)]" }, "geometry": { "type": "LineString", "coordinates": [ [ 2348373.0, 6846153.0 ], [ 2348332.0, 6846176.0 ] ] } },
{ "type": "Feature", "properties": { "gap": "(286697634, 8976148682)", "B": 4361.0, "nodelist": [ 286697634, 8976148682 ], "source": 286697634, "target": 8976148682, "edge_list": "[(286697634, 8976148682)]" }, "geometry": { "type": "LineString", "coordinates": [ [ 2348290.0, 6846201.0 ], [ 2348284.0, 6846193.0 ], [ 2348279.0, 6846182.0 ], [ 2348275.0, 6846174.0 ] ] } },
{ "type": "Feature", "properties": { "gap": "(32229012, 8671753294)", "B": 4333.0, "nodelist": [ 32229012, 8671753294 ], "source": 32229012, "target": 8671753294, "edge_list": "[(32229012, 8671753294)]" }, "geometry": { "type": "LineString", "coordinates": [ [ 2342160.0, 6826728.0 ], [ 2342153.0, 6826725.0 ] ] } },
{ "type": "Feature", "properties": { "gap": "(1285976382, 1420508468)", "B": 4332.5, "nodelist": [ 1285976382, 1420508468 ], "source": 1285976382, "target": 1420508468, "edge_list": "[(1420508468, 1285976382)]" }, "geometry": { "type": "LineString", "coordinates": [ [ 2345082.0, 6823881.0 ], [ 2345088.0, 6823881.0 ] ] } },
{ "type": "Feature", "properties": { "gap": "(12070257604, 12070257605)", "B": 4327.5, "nodelist": [ 12070257604, 12070257605 ], "source": 12070257604, "target": 12070257605, "edge_list": "[(12070257604, 12070257605)]" }, "geometry": { "type": "LineString", "coordinates": [ [ 2332590.0, 6835615.0 ], [ 2332585.0, 6835614.0 ] ] } },
{ "type": "Feature", "properties": { "gap": "(1480571104, 3820179428)", "B": 4282.0, "nodelist": [ 1480571104, 3820179428 ], "source": 1480571104, "target": 3820179428, "edge_list": "[(1480571104, 3820179428)]" }, "geometry": { "type": "LineString", "coordinates": [ [ 2338167.0, 6841769.0 ], [ 2338160.0, 6841768.0 ] ] } },
{ "type": "Feature", "properties": { "gap": "(2868223896, 3820179425)", "B": 4270.0, "nodelist": [ 2868223896, 3820179425 ], "source": 2868223896, "target": 3820179425, "edge_list": "[(2868223896, 3820179425)]" }, "geometry": { "type": "LineString", "coordinates": [ [ 2338155.0, 6841767.0 ], [ 2338149.0, 6841766.0 ], [ 2338145.0, 6841766.0 ], [ 2338140.0, 6841766.0 ], [ 2338138.0, 6841766.0 ] ] } },
{ "type": "Feature", "properties": { "gap": "(3906990747, 7779399333)", "B": 4229.5, "nodelist": [ 3906990747, 7779399333 ], "source": 3906990747, "target": 7779399333, "edge_list": "[(3906990747, 7779399333)]" }, "geometry": { "type": "LineString", "coordinates": [ [ 2346503.0, 6842738.0 ], [ 2346506.0, 6842723.0 ] ] } },
{ "type": "Feature", "properties": { "gap": "(11659978302, 11659978304)", "B": 4211.5, "nodelist": [ 11659978302, 11659978304 ], "source": 11659978302, "target": 11659978304, "edge_list": "[(11659978302, 11659978304)]" }, "geometry": { "type": "LineString", "coordinates": [ [ 2344851.0, 6830503.0 ], [ 2344856.0, 6830504.0 ] ] } },
{ "type": "Feature", "properties": { "gap": "(11659978304, 11659978307)", "B": 4209.9899251531833, "nodelist": [ 11659978304, 11659978302, 11659978307 ], "source": 11659978304, "target": 11659978307, "edge_list": "[(11659978304, 11659978302), (11659978302, 11659978307)]" }, "geometry": { "type": "LineString", "coordinates": [ [ 2344856.0, 6830504.0 ], [ 2344851.0, 6830503.0 ], [ 2344842.0, 6830503.0 ] ] } },
{ "type": "Feature", "properties": { "gap": "(253924951, 13207378816)", "B": 4166.0, "nodelist": [ 253924951, 13207378816 ], "source": 253924951, "target": 13207378816, "edge_list": "[(253924951, 13207378816)]" }, "geometry": { "type": "LineString", "coordinates": [ [ 2342100.0, 6827323.0 ], [ 2342112.0, 6827315.0 ] ] } },
{ "type": "Feature", "properties": { "gap": "(10057228015, 10057228096)", "B": 4160.8765531189001, "nodelist": [ 10057228015, 10057228014, 10057228096 ], "source": 10057228015, "target": 10057228096, "edge_list": "[(10057228015, 10057228014), (10057228014, 10057228096)]" }, "geometry": { "type": "LineString", "coordinates": [ [ 2348039.0, 6845946.0 ], [ 2348033.0, 6845932.0 ], [ 2347998.0, 6845861.0 ] ] } },
{ "type": "Feature", "properties": { "gap": "(262833427, 3390536495)", "B": 4141.5, "nodelist": [ 262833427, 3390536495 ], "source": 262833427, "target": 3390536495, "edge_list": "[(262833427, 3390536495)]" }, "geometry": { "type": "LineString", "coordinates": [ [ 2340530.0, 6842365.0 ], [ 2340537.0, 6842348.0 ] ] } },
{ "type": "Feature", "properties": { "gap": "(1801660306, 3390536495)", "B": 4136.6878480456071, "nodelist": [ 1801660306, 262833427, 3390536495 ], "source": 1801660306, "target": 3390536495, "edge_list": "[(1801660306, 262833427), (262833427, 3390536495)]" }, "geometry": { "type": "LineString", "coordinates": [ [ 2340520.0, 6842391.0 ], [ 2340530.0, 6842365.0 ], [ 2340537.0, 6842348.0 ] ] } },
{ "type": "Feature", "properties": { "gap": "(11990640853, 11990641065)", "B": 4127.5305893700315, "nodelist": [ 11990640853, 1008702443, 1008710328, 11990641073, 8976148683, 11990640757, 11990641065 ], "source": 11990640853, "target": 11990641065, "edge_list": "[(11990640853, 1008702443), (1008702443, 1008710328), (1008710328, 11990641073), (11990641073, 8976148683), (8976148683, 11990640757), (11990640757, 11990641065)]" }, "geometry": { "type": "LineString", "coordinates": [ [ 2348389.0, 6846185.0 ], [ 2348382.0, 6846171.0 ], [ 2348380.0, 6846168.0 ], [ 2348379.0, 6846166.0 ], [ 2348375.0, 6846157.0 ], [ 2348373.0, 6846153.0 ], [ 2348400.0, 6846137.0 ], [ 2348384.0, 6846104.0 ], [ 2348372.0, 6846078.0 ], [ 2348360.0, 6846054.0 ], [ 2348358.0, 6846051.0 ], [ 2348356.0, 6846047.0 ], [ 2348355.0, 6846044.0 ], [ 2348353.0, 6846041.0 ], [ 2348351.0, 6846038.0 ], [ 2348350.0, 6846036.0 ], [ 2348347.0, 6846031.0 ], [ 2348345.0, 6846029.0 ], [ 2348338.0, 6846024.0 ] ] } },
{ "type": "Feature", "properties": { "gap": "(1651449755, 1651449756)", "B": 4094.5, "nodelist": [ 1651449755, 1651449756 ], "source": 1651449755, "target": 1651449756, "edge_list": "[(1651449755, 1651449756)]" }, "geometry": { "type": "LineString", "coordinates": [ [ 2337208.0, 6844792.0 ], [ 2337202.0, 6844805.0 ] ] } },
{ "type": "Feature", "properties": { "gap": "(2405986075, 2405986077)", "B": 4078.0, "nodelist": [ 2405986075, 2405986077 ], "source": 2405986075, "target": 2405986077, "edge_list": "[(2405986075, 2405986077)]" }, "geometry": { "type": "LineString", "coordinates": [ [ 2346358.0, 6842757.0 ], [ 2346368.0, 6842763.0 ] ] } }
]
}
