{
"type": "FeatureCollection",
"name": "aalborg_dk",
"crs": { "type": "name", "properties": { "name": "urn:ogc:def:crs:OGC:1.3:CRS84" } },
"features": [
{ "type": "Feature", "properties": { "id": "12337669-a143-6b98-e053-d480220a5a3f", "skrivemaade": "Aalborg", "skrivemaade_officiel": "Aalborg", "skrivemaade_uofficiel": null, "visningstekst": "Aalborg (By i Aalborg Kommune)", "stednavn_type": "bebyggelse", "stednavn_subtype": "by", "kommunekode": "0851", "bbox": "POLYGON ((551811.0263 6316283.03, 551811.0263 6325629.87, 563014.6913 6325629.87, 563014.6913 6316283.03, 551811.0263 6316283.03))" }, "geometry": { "type": "Polygon", "coordinates": [ [ [ 9.863095905035822, 57.022081650230234 ], [ 9.864513398999039, 57.020249910811216 ], [ 9.864711421657631, 57.015169548755452 ], [ 9.867435938806738, 57.015001615171442 ], [ 9.866185869211725, 57.01705305356078 ], [ 9.872078270468331, 57.016506976265681 ], [ 9.871726519429087, 57.015846758867006 ], [ 9.869836169787449, 57.01606789257513 ], [ 9.870297231912977, 57.014353254399957 ], [ 9.871852635949853, 57.014253296728803 ], [ 9.872307217303996, 57.016193830073824 ], [ 9.875672006855151, 57.016688084460199 ], [ 9.878440989121295, 57.011761054815317 ], [ 9.865506934580749, 57.010434197487356 ], [ 9.866243405868492, 57.009289766826669 ], [ 9.864902079584997, 57.009155927133911 ], [ 9.868117621511086, 57.006547747501479 ], [ 9.865681967184658, 57.005974999729091 ], [ 9.863552379514243, 57.005853332310544 ], [ 9.860109090401023, 57.006695199882323 ], [ 9.85953818158357, 57.005521692294749 ], [ 9.857862745292353, 57.005679442385173 ], [ 9.858042362989773, 57.006858963916578 ], [ 9.85337384317468, 57.007572571590153 ], [ 9.853414552889028, 57.006049885154901 ], [ 9.855317971899071, 57.00594561870524 ], [ 9.855618386841266, 57.00544774508873 ], [ 9.855796163830794, 57.003050885915968 ], [ 9.857977223944843, 57.003750355492834 ], [ 9.858074330126588, 57.002754903426577 ], [ 9.859099241443744, 57.002743292062419 ], [ 9.859165603207598, 57.003672400154514 ], [ 9.861111034115599, 57.003233286247159 ], [ 9.861292041351467, 57.002381355804722 ], [ 9.862467590707217, 57.003295189673544 ], [ 9.863275572225117, 57.002972848089144 ], [ 9.862816391301159, 57.001364841345364 ], [ 9.864653092175018, 57.001426195465079 ], [ 9.864278408028008, 57.000077514178109 ], [ 9.862535322602536, 57.00005351169203 ], [ 9.862076676637223, 56.996593376210768 ], [ 9.862812513196703, 56.995044421524966 ], [ 9.864345145491335, 56.994825959529692 ], [ 9.863951647881624, 56.994011589512631 ], [ 9.866322331486339, 56.993310539220722 ], [ 9.864094762973144, 56.99152906492813 ], [ 9.868161882994823, 56.991771964534998 ], [ 9.870314645447184, 56.992990865182151 ], [ 9.866876045192425, 56.993523936518024 ], [ 9.870354202315726, 56.996300534695479 ], [ 9.872223887162319, 56.995291023885763 ], [ 9.87414559866659, 56.997087787468921 ], [ 9.876991121363083, 56.996664235449977 ], [ 9.878734458531801, 56.99758507885177 ], [ 9.880659827375359, 56.997490332789816 ], [ 9.883489263396072, 56.99634102444648 ], [ 9.885004543868437, 56.997467685146731 ], [ 9.882657908587817, 56.998450924991452 ], [ 9.886666914498431, 57.000386836871023 ], [ 9.890878836688083, 57.000862277549132 ], [ 9.888313767514628, 57.002830197971505 ], [ 9.893471528695679, 57.005704013669984 ], [ 9.895332007917391, 57.00464660943647 ], [ 9.898035019383412, 57.005434903348309 ], [ 9.898449572986827, 57.006266985015223 ], [ 9.899316070368453, 57.005759639734876 ], [ 9.90043432510925, 57.006344182390762 ], [ 9.903009448451245, 57.005045422454636 ], [ 9.901000417711053, 57.003443599616809 ], [ 9.895304957939031, 57.002649945023876 ], [ 9.896004834260408, 57.001349184985315 ], [ 9.897581713927597, 57.001604800695787 ], [ 9.898518009140721, 57.000568434707773 ], [ 9.902743133504746, 57.001588527538892 ], [ 9.903289122277473, 57.002970810628497 ], [ 9.909526017242513, 57.004420578851139 ], [ 9.911123320006078, 57.007421997755628 ], [ 9.907765207417814, 57.009438400658773 ], [ 9.90909878608333, 57.010732652068739 ], [ 9.9153668208945, 57.008299498219493 ], [ 9.913629464001627, 57.007176619048252 ], [ 9.914961925527127, 57.006542503549674 ], [ 9.914043946248576, 57.004989866131837 ], [ 9.915637412042871, 57.004494974666564 ], [ 9.916516938636484, 57.005385675514546 ], [ 9.919308556382456, 57.004659067654536 ], [ 9.918789514883912, 57.004041188786537 ], [ 9.922588589821311, 57.003707613349626 ], [ 9.921467167605908, 57.002906059391449 ], [ 9.925075990184411, 56.999980228042141 ], [ 9.923808950568084, 56.996721039182169 ], [ 9.924825173427065, 56.993983935059646 ], [ 9.92188206738621, 56.993586634591317 ], [ 9.921642795415066, 56.990685046580204 ], [ 9.92679469527083, 56.991134473088266 ], [ 9.926943585150838, 56.990191849443271 ], [ 9.930448121281426, 56.989801184726765 ], [ 9.928909655158261, 56.988737948734219 ], [ 9.930916120155862, 56.988077810338659 ], [ 9.930907684443968, 56.989032152109004 ], [ 9.933602097814253, 56.988906609650705 ], [ 9.93350796256802, 56.990064000246889 ], [ 9.935565488526688, 56.988920427216932 ], [ 9.935967381837719, 56.986592454808424 ], [ 9.93719217526605, 56.986668636712977 ], [ 9.936555047715107, 56.988847174216588 ], [ 9.9391089010582, 56.988552496908291 ], [ 9.939535486101667, 56.990728362876958 ], [ 9.938857714600038, 56.991218295234169 ], [ 9.94031815910607, 56.991286410205518 ], [ 9.940168472419993, 56.991663237175423 ], [ 9.934488298735451, 56.994987274600788 ], [ 9.928797071171449, 56.996799209521249 ], [ 9.929140080152779, 56.997781845286518 ], [ 9.92757707394712, 56.997715817114241 ], [ 9.926516051139627, 56.999474201431632 ], [ 9.927299211836075, 57.000575136978654 ], [ 9.922960561243254, 57.002639194339828 ], [ 9.925589928185286, 57.004481526205709 ], [ 9.92946493074286, 57.002347153551035 ], [ 9.930731624468612, 57.003527400417319 ], [ 9.931640497317407, 57.003141334753899 ], [ 9.932654661059576, 57.004075483190768 ], [ 9.933552701990342, 57.003842302537095 ], [ 9.932790267400133, 57.003158736144506 ], [ 9.936366170371162, 57.003190434896183 ], [ 9.936590638824669, 57.002243012888066 ], [ 9.94029171800714, 57.001343787600106 ], [ 9.940825822754899, 57.002137944283959 ], [ 9.942814928459418, 57.001845283820209 ], [ 9.942262617104696, 57.001038818878918 ], [ 9.943078475390552, 57.000907077911258 ], [ 9.94429540953214, 57.001667651213417 ], [ 9.955360978101089, 57.00275466095367 ], [ 9.955466997959251, 57.001264305715864 ], [ 9.958058070517367, 57.002319885711685 ], [ 9.957811506362987, 57.002680952670254 ], [ 9.960439783121592, 57.0032953544912 ], [ 9.960772174033046, 57.002854115214625 ], [ 9.965462275006143, 57.004128885805166 ], [ 9.965388217768805, 57.004721233047825 ], [ 9.966507779707458, 57.004955252063567 ], [ 9.964991888510262, 57.005769487246255 ], [ 9.967330556698522, 57.006365134793477 ], [ 9.96482719301558, 57.008572595481596 ], [ 9.958073567134704, 57.010557726264651 ], [ 9.959249646609653, 57.012112203343406 ], [ 9.964229289932387, 57.01030940550821 ], [ 9.972194747248707, 57.009682212705911 ], [ 9.97198498366591, 57.007152312365562 ], [ 9.974715961586156, 57.007630253412664 ], [ 9.976930142533741, 57.009331581818664 ], [ 9.978159097292043, 57.009446691792441 ], [ 9.978220741827233, 57.008324822669508 ], [ 9.976988798270954, 57.007541694022201 ], [ 9.98032257206261, 57.006381580410086 ], [ 9.981959825811575, 57.006623265646887 ], [ 9.9821515659723, 57.007932259685603 ], [ 9.984357723394782, 57.006631116159276 ], [ 9.987607527050683, 57.00658474927112 ], [ 9.987569243918706, 57.007367396888064 ], [ 9.988506624461222, 57.007395880844598 ], [ 9.992634100889747, 57.006317574197865 ], [ 9.993425835749241, 57.006397461403715 ], [ 9.993881376244577, 57.0076360176839 ], [ 9.999276838522579, 57.007910820727886 ], [ 10.000411487714418, 57.008591097202448 ], [ 10.000525060124682, 57.009778703349177 ], [ 10.001484961530288, 57.009830454001964 ], [ 10.001548130589537, 57.01096497952112 ], [ 10.002976336206443, 57.011012972497888 ], [ 10.002909999909239, 57.015832930461414 ], [ 10.000796875644058, 57.01584389624972 ], [ 10.000822598178029, 57.011529384327694 ], [ 9.994463967626755, 57.01164221457244 ], [ 9.994799929401438, 57.01965868324001 ], [ 10.003855623302615, 57.020514278361915 ], [ 10.00211001779887, 57.022965355088836 ], [ 10.003870971858237, 57.022092377894396 ], [ 10.004950617372112, 57.02296127652729 ], [ 10.005759075535938, 57.022838533243686 ], [ 10.005707579844985, 57.020675144678499 ], [ 10.016515216815963, 57.022187299149529 ], [ 10.020004826062911, 57.026185205794 ], [ 10.021616653712172, 57.02673770099215 ], [ 10.038452922411617, 57.040790617224971 ], [ 10.037351847473511, 57.041180065792794 ], [ 10.038512846914891, 57.042156912080642 ], [ 10.036780062286294, 57.042686488306138 ], [ 10.037943546556754, 57.043751269251892 ], [ 10.031425121341151, 57.045987332800735 ], [ 10.03279813603112, 57.047246989403803 ], [ 10.029575511783571, 57.04767204890949 ], [ 10.017211344054513, 57.04694485419332 ], [ 10.014573225343062, 57.048063526408527 ], [ 10.01173179779458, 57.048338149246575 ], [ 10.012057262610222, 57.049516555427715 ], [ 10.011377639061271, 57.049614669179149 ], [ 10.009653483177107, 57.049303177429685 ], [ 10.010518536750606, 57.045532180074019 ], [ 10.00955984462178, 57.045432730474424 ], [ 10.00893442015119, 57.043514926652826 ], [ 10.007374561853153, 57.04346531211057 ], [ 10.008691173034162, 57.042889443621014 ], [ 10.00703131890797, 57.041104563259111 ], [ 9.991682730356088, 57.041365467353977 ], [ 9.981273707145615, 57.042430561782417 ], [ 9.977751505680018, 57.043014032934813 ], [ 9.978355416326437, 57.043867825493351 ], [ 9.97625945887115, 57.044265187356963 ], [ 9.975671167274109, 57.045891644301122 ], [ 9.974271639512354, 57.046037297478158 ], [ 9.974237932145551, 57.045020485515579 ], [ 9.972939321631047, 57.04515419801794 ], [ 9.971566950227508, 57.048788884474433 ], [ 9.973680447011558, 57.047752528077801 ], [ 9.972473451536477, 57.048809521097034 ], [ 9.974568353309731, 57.048108843571391 ], [ 9.971410259086898, 57.050199680385703 ], [ 9.975454856101607, 57.055817894134051 ], [ 9.976653384832392, 57.057127039625293 ], [ 9.977371387505725, 57.057025132621263 ], [ 9.97745490006556, 57.058088808332229 ], [ 9.982864868917964, 57.059082632493933 ], [ 9.980271521624985, 57.061796843744553 ], [ 9.983262334350478, 57.062909158299213 ], [ 9.985504581062949, 57.061648164885035 ], [ 9.986298479268434, 57.063075127994267 ], [ 9.985000830609394, 57.063366980616344 ], [ 9.98559033634691, 57.064535557533894 ], [ 9.986761581078623, 57.064363550269434 ], [ 9.988078251955473, 57.065184098952841 ], [ 9.985531642774324, 57.06584911142167 ], [ 9.984116079021026, 57.064711640981514 ], [ 9.982115999796408, 57.065103580847186 ], [ 9.986827056786341, 57.068427906624912 ], [ 9.984888997973149, 57.069256200031255 ], [ 9.985530509228001, 57.069801062749463 ], [ 9.982599478176962, 57.070206885257669 ], [ 9.978796833829806, 57.067679821973151 ], [ 9.974635288268127, 57.068578937507212 ], [ 9.969226948420635, 57.061409403344548 ], [ 9.968567744794653, 57.061582320630961 ], [ 9.965357827637984, 57.058919103706913 ], [ 9.958434975391608, 57.054862379495731 ], [ 9.959053343126548, 57.052916401002477 ], [ 9.957595583876271, 57.052516088519795 ], [ 9.956623833484578, 57.054602841352981 ], [ 9.945646394004196, 57.050048596608832 ], [ 9.945735948121621, 57.048707790671855 ], [ 9.945212721234595, 57.050049982902003 ], [ 9.942409576265351, 57.04942704526146 ], [ 9.942309736720038, 57.047541623586866 ], [ 9.939358832989154, 57.047644372264081 ], [ 9.93904409457477, 57.04844504236241 ], [ 9.941521983475443, 57.048778971895992 ], [ 9.941289522792403, 57.04932487438748 ], [ 9.931176929408267, 57.04881622903153 ], [ 9.923002789110578, 57.050879681959223 ], [ 9.915128707184254, 57.054287268538289 ], [ 9.913658561582158, 57.053304831107432 ], [ 9.915006630451728, 57.054471790647717 ], [ 9.906747169954631, 57.057701170235809 ], [ 9.906478139264088, 57.057493523442986 ], [ 9.904284045365408, 57.058094318022889 ], [ 9.902199405832468, 57.058241409398924 ], [ 9.904209803352913, 57.058051732211545 ], [ 9.904084640766605, 57.057074112326525 ], [ 9.900289948658553, 57.057275185457797 ], [ 9.901006259448879, 57.058463183275066 ], [ 9.901919564807351, 57.058437026341579 ], [ 9.899190469866125, 57.058567682833939 ], [ 9.898142378946966, 57.057573410755545 ], [ 9.89736201100345, 57.057751043277499 ], [ 9.898415669556822, 57.057297174221119 ], [ 9.893647633814235, 57.057785588341616 ], [ 9.893730132558549, 57.059682028675759 ], [ 9.88948101206535, 57.059227677546559 ], [ 9.889888189393906, 57.057900746992196 ], [ 9.888420888528906, 57.057698782018278 ], [ 9.887337653964403, 57.057637193069084 ], [ 9.886606748179627, 57.058702371128952 ], [ 9.882456262835332, 57.05842173030473 ], [ 9.881362298238781, 57.057907739131224 ], [ 9.881225781953361, 57.05887527049795 ], [ 9.879284306625919, 57.058367129452932 ], [ 9.879032244242701, 57.056373408278247 ], [ 9.87554930664899, 57.055413079381005 ], [ 9.874177782784754, 57.055588946604416 ], [ 9.871829840090182, 57.053933595591019 ], [ 9.869975652094995, 57.054857355804444 ], [ 9.868041903349194, 57.054057013528748 ], [ 9.868007592686229, 57.053448506836588 ], [ 9.871977774922616, 57.051804654522542 ], [ 9.869046138845075, 57.050417977008649 ], [ 9.869808096483515, 57.049136354946974 ], [ 9.868848647627813, 57.048666959399256 ], [ 9.864320616794394, 57.050834009376096 ], [ 9.861798476358761, 57.049468415078643 ], [ 9.863674014247581, 57.048430532063712 ], [ 9.861703030036685, 57.047418331238255 ], [ 9.862085513797165, 57.046973246655085 ], [ 9.863119226127711, 57.047096752567079 ], [ 9.865803971483231, 57.045381537530119 ], [ 9.860727622357988, 57.042005177969912 ], [ 9.861129968565971, 57.039157858245254 ], [ 9.861966871836927, 57.038855005845591 ], [ 9.858414541159144, 57.039153858385909 ], [ 9.853783879972996, 57.038628809838187 ], [ 9.853896417171164, 57.037842376244583 ], [ 9.85515259518607, 57.037839879935092 ], [ 9.85616038874997, 57.034900716800486 ], [ 9.858875531543452, 57.034953436258732 ], [ 9.859713687133258, 57.03655809095725 ], [ 9.86461186750109, 57.036331269323178 ], [ 9.862329695422808, 57.034506122694715 ], [ 9.85430799203686, 57.034435681348576 ], [ 9.854475381819453, 57.033709632899125 ], [ 9.861823576573782, 57.033847136175829 ], [ 9.861143238055805, 57.033191952760546 ], [ 9.866519150449214, 57.031683494926988 ], [ 9.862360484414918, 57.031979649809024 ], [ 9.862755817589616, 57.023925589244143 ], [ 9.866170857898817, 57.022850179436809 ], [ 9.864385010983865, 57.022590262510384 ], [ 9.864704793635541, 57.021815534153625 ], [ 9.863095905035822, 57.022081650230234 ] ] ] } }
]
}
