{
"type": "FeatureCollection",
"name": "aarhus_dk",
"crs": { "type": "name", "properties": { "name": "urn:ogc:def:crs:OGC:1.3:CRS84" } },
"features": [
{ "type": "Feature", "properties": { "id": "12337669-a188-6b98-e053-d480220a5a3f", "skrivemaade": "Aarhus", "skrivemaade_officiel": "Aarhus", "skrivemaade_uofficiel": null, "visningstekst": "Aarhus (By i Aarhus Kommune)", "stednavn_type": "bebyggelse", "stednavn_subtype": "by", "kommunekode": "0751", "bbox": "POLYGON ((564978.1805 6215437.202, 564978.1805 6234040.122, 582992.4316 6234040.122, 582992.4316 6215437.202, 564978.1805 6215437.202))" }, "geometry": { "type": "Polygon", "coordinates": [ [ [ 10.25479445096796, 56.150621093486052 ], [ 10.227274837161488, 56.139288337650171 ], [ 10.221887833694714, 56.13985282401876 ], [ 10.216489927446565, 56.138752077662737 ], [ 10.213680184421513, 56.139168691581524 ], [ 10.208086033660587, 56.136699230267368 ], [ 10.212836361262349, 56.131484483821254 ], [ 10.213476408106937, 56.12836256084033 ], [ 10.217433396731982, 56.124878848357554 ], [ 10.216191770715609, 56.124399120888363 ], [ 10.213547011795258, 56.126256919333215 ], [ 10.208470262017979, 56.124381179916007 ], [ 10.207375472528653, 56.118257559720348 ], [ 10.219829789280631, 56.115807220011291 ], [ 10.225699266581548, 56.112063420749692 ], [ 10.227516723461349, 56.112302269147271 ], [ 10.22603314313027, 56.111573359281813 ], [ 10.228032398184043, 56.110668958499296 ], [ 10.226960058351422, 56.110101663936732 ], [ 10.228867888135655, 56.107249727820857 ], [ 10.224717954287792, 56.103926665659159 ], [ 10.221601228998628, 56.103599370662337 ], [ 10.221615859665592, 56.103548637213045 ], [ 10.224312092779128, 56.103682239045511 ], [ 10.223236806674709, 56.102137043739297 ], [ 10.225265252787588, 56.101107046247726 ], [ 10.222358138019874, 56.09928500868623 ], [ 10.222878198947729, 56.09813330069732 ], [ 10.220641262533476, 56.098175380842221 ], [ 10.216446093532715, 56.095882238427897 ], [ 10.211727053116318, 56.097380794028119 ], [ 10.208583229253691, 56.096994044030083 ], [ 10.20905079664333, 56.098725565223837 ], [ 10.205863816830828, 56.098380324672256 ], [ 10.205682860807784, 56.096756784053674 ], [ 10.203211753745611, 56.096937416217209 ], [ 10.203212018887314, 56.097853219911073 ], [ 10.199558170231329, 56.096975477309243 ], [ 10.19875554707264, 56.102284380216176 ], [ 10.20272251033257, 56.102617811294458 ], [ 10.201104590677767, 56.105266410142413 ], [ 10.199733909493133, 56.104668447410468 ], [ 10.189723438755825, 56.108107723295419 ], [ 10.187638661863453, 56.107956794164963 ], [ 10.184847333614798, 56.105209327281926 ], [ 10.184191005222878, 56.105675771438335 ], [ 10.18227389005278, 56.102911324516022 ], [ 10.181867931882067, 56.103599097796675 ], [ 10.176963790332806, 56.102894296488387 ], [ 10.17403535944889, 56.101299118033552 ], [ 10.165293050022862, 56.101980894367969 ], [ 10.16499680757045, 56.100907765984331 ], [ 10.162744355098258, 56.102292723001106 ], [ 10.159694110136931, 56.101592321833181 ], [ 10.160961627747167, 56.102857699912434 ], [ 10.163332630250579, 56.102649748332603 ], [ 10.162216837036564, 56.105259126495895 ], [ 10.164715679879297, 56.106197033756835 ], [ 10.160771868493214, 56.105746700570499 ], [ 10.159398528874808, 56.106708648484457 ], [ 10.158036610444013, 56.105750544007499 ], [ 10.159307061838303, 56.105168855188474 ], [ 10.157793949688649, 56.102197138888961 ], [ 10.151869669744459, 56.103167204565921 ], [ 10.150801862800984, 56.101784438264595 ], [ 10.148314489584886, 56.101821856723689 ], [ 10.145777372871146, 56.103269021966042 ], [ 10.140821652359843, 56.101730905812985 ], [ 10.138670842871612, 56.104993968891051 ], [ 10.133095333065853, 56.106869385985583 ], [ 10.119515547040695, 56.108225760368022 ], [ 10.119085132809563, 56.107252135748503 ], [ 10.125027513458033, 56.103338091346004 ], [ 10.118675925753406, 56.102723678288569 ], [ 10.116426621739178, 56.103539244001922 ], [ 10.116411405787597, 56.101985800278662 ], [ 10.114631317680253, 56.101718927347179 ], [ 10.112641087940055, 56.099287983727521 ], [ 10.116262381759993, 56.098002732204101 ], [ 10.122161136215388, 56.098878457116875 ], [ 10.121715659321069, 56.09994530145832 ], [ 10.123905978319691, 56.09914670742279 ], [ 10.131841222628939, 56.099946720358744 ], [ 10.133873592502482, 56.099032045890723 ], [ 10.133674959461608, 56.100270809182568 ], [ 10.140102413992054, 56.099927065996901 ], [ 10.138283513015688, 56.095061769483692 ], [ 10.151373885515302, 56.092099732462685 ], [ 10.153991276745458, 56.089890744167207 ], [ 10.153152348862061, 56.085632445477934 ], [ 10.150784556205087, 56.084459465830356 ], [ 10.148867739742405, 56.080805431588864 ], [ 10.142918112445171, 56.081590547362005 ], [ 10.14354249102924, 56.083622904697606 ], [ 10.140596676846389, 56.083544934462196 ], [ 10.139949442449783, 56.08245854493758 ], [ 10.136068304140641, 56.083548048947172 ], [ 10.127214934584998, 56.082104631923798 ], [ 10.126049587573968, 56.078942133839618 ], [ 10.1254421690998, 56.079882881594074 ], [ 10.124414957766449, 56.07922185017533 ], [ 10.124108126965147, 56.080070526608132 ], [ 10.121884539118367, 56.080066577632934 ], [ 10.114419186201898, 56.08286011239813 ], [ 10.113432071596636, 56.084565922927872 ], [ 10.111684211566349, 56.083916299984779 ], [ 10.110570454562774, 56.086409006636345 ], [ 10.111000457896065, 56.087691224262187 ], [ 10.112807981241565, 56.088057996607432 ], [ 10.111765401409231, 56.089574968731277 ], [ 10.108664693091889, 56.089920035129559 ], [ 10.110024334308603, 56.090051226375671 ], [ 10.109027416259304, 56.092631459592546 ], [ 10.106006940366012, 56.091831531145537 ], [ 10.103935581405146, 56.089679274725633 ], [ 10.098651950298192, 56.090891811641519 ], [ 10.098482906735031, 56.091762836003689 ], [ 10.103655165034077, 56.091827684288809 ], [ 10.106901509211124, 56.093437480033245 ], [ 10.106640152080947, 56.095169429646539 ], [ 10.104845398879004, 56.095522096202622 ], [ 10.109595098718792, 56.096319465957883 ], [ 10.110555726880509, 56.099088858249438 ], [ 10.107082535193516, 56.098928833131332 ], [ 10.105747988351485, 56.100827910868247 ], [ 10.104077579242048, 56.100861006803605 ], [ 10.103350901527842, 56.09812919245951 ], [ 10.102003052110904, 56.097750182082429 ], [ 10.101304463036463, 56.100872020632316 ], [ 10.102942601625896, 56.101222748367967 ], [ 10.10169977177774, 56.10233482576426 ], [ 10.098208640091418, 56.100853316051634 ], [ 10.091269084605401, 56.099627222780185 ], [ 10.091051058386833, 56.100490221323703 ], [ 10.086793696485529, 56.099140593992018 ], [ 10.086307787996796, 56.100599067667666 ], [ 10.080791804348518, 56.10023036333488 ], [ 10.080031218097892, 56.102337713831986 ], [ 10.078976647444259, 56.100766849938694 ], [ 10.080153896482987, 56.100731820912557 ], [ 10.079942270784114, 56.099250179468896 ], [ 10.077364754021609, 56.098949367967961 ], [ 10.075872392732943, 56.099800689212508 ], [ 10.070223452988895, 56.099178922789655 ], [ 10.073506260510841, 56.09700282966319 ], [ 10.070749986650979, 56.09613361068282 ], [ 10.065251086182339, 56.099161084877352 ], [ 10.063756557936843, 56.102072830630185 ], [ 10.060578390146464, 56.103102034627575 ], [ 10.062031777039236, 56.10531360460287 ], [ 10.060746777417545, 56.105565365168076 ], [ 10.060262450264622, 56.108189081574992 ], [ 10.068010823456023, 56.108757445929804 ], [ 10.07007200377025, 56.110943268454456 ], [ 10.067976394562471, 56.111520745710507 ], [ 10.070166065085823, 56.111058635282795 ], [ 10.070836300334861, 56.111984249206166 ], [ 10.069572829017966, 56.113116661757481 ], [ 10.072329803572817, 56.11258616105291 ], [ 10.072412114130207, 56.114169477815956 ], [ 10.074012556482314, 56.114478326644068 ], [ 10.073942226631628, 56.112958073727427 ], [ 10.084001088258381, 56.113522273935644 ], [ 10.086224419282917, 56.11541078849892 ], [ 10.085123972913831, 56.115769003882214 ], [ 10.087396920183256, 56.116131163658643 ], [ 10.087278301145615, 56.117280181506629 ], [ 10.088268515750901, 56.116554336920231 ], [ 10.090774490789602, 56.118157870284215 ], [ 10.092340152562247, 56.117954711866844 ], [ 10.09361741793666, 56.113907531091662 ], [ 10.096356358567581, 56.1133629964487 ], [ 10.099844665435681, 56.115615713065793 ], [ 10.105390582997011, 56.11403904663954 ], [ 10.107059414933214, 56.11442413006143 ], [ 10.107474214272166, 56.113142956506664 ], [ 10.109595334116998, 56.113033167004794 ], [ 10.112273516883226, 56.107771745526321 ], [ 10.114245415184582, 56.111239956894075 ], [ 10.116742679810855, 56.110690317753814 ], [ 10.1179136950059, 56.109086967054282 ], [ 10.11940541214917, 56.109771803722431 ], [ 10.118847003971137, 56.111359467207159 ], [ 10.122087519959736, 56.111949525717968 ], [ 10.120909639231764, 56.112655611372084 ], [ 10.122261458586676, 56.113291869290329 ], [ 10.123007408448274, 56.112297084550548 ], [ 10.124006643528633, 56.112692513157455 ], [ 10.120114010053166, 56.118205839456522 ], [ 10.117853785154436, 56.118197740850619 ], [ 10.116922264724332, 56.119788049689831 ], [ 10.120892499680181, 56.119943296930948 ], [ 10.121692600985945, 56.122575338881113 ], [ 10.120412425754449, 56.122370704530795 ], [ 10.120179152976291, 56.123321194541361 ], [ 10.124483771783396, 56.123757245524729 ], [ 10.125255833705447, 56.125777575152888 ], [ 10.133325286564812, 56.127217134861304 ], [ 10.130795634282594, 56.128336356869639 ], [ 10.128262831974148, 56.128462846310903 ], [ 10.128365335920698, 56.12713386650892 ], [ 10.124043406145288, 56.126249116120398 ], [ 10.12263911530361, 56.126878373616712 ], [ 10.116688976716537, 56.125732569770214 ], [ 10.112934641681987, 56.126500107161689 ], [ 10.110758779132013, 56.125573168007691 ], [ 10.105483606930404, 56.12682938056863 ], [ 10.105210917700809, 56.125903719312809 ], [ 10.098463119178243, 56.12745754232791 ], [ 10.099410824900733, 56.129351048889191 ], [ 10.096333832508485, 56.129661701407386 ], [ 10.098862301259519, 56.130398413548761 ], [ 10.100504695569064, 56.129683113695528 ], [ 10.098832498221679, 56.131051555298079 ], [ 10.100729824118647, 56.1311039431437 ], [ 10.101215097719622, 56.133677164373402 ], [ 10.103414852986599, 56.132744804435163 ], [ 10.106530494610764, 56.13310654498494 ], [ 10.106723439140541, 56.133835418319109 ], [ 10.111053828711984, 56.13341341578095 ], [ 10.112173237684296, 56.134583664911325 ], [ 10.11266184396583, 56.133500122266142 ], [ 10.114302547347915, 56.133609601910187 ], [ 10.113876489261008, 56.13740599658572 ], [ 10.112890292992969, 56.138523320171899 ], [ 10.109532286820725, 56.138474807711162 ], [ 10.111394552852444, 56.141052509653683 ], [ 10.107701566934789, 56.141994002103111 ], [ 10.107599368378539, 56.143628100157215 ], [ 10.115036482546, 56.143184456787544 ], [ 10.117550400125188, 56.141424063259812 ], [ 10.1200800769337, 56.140855385961522 ], [ 10.121022055935134, 56.141514008676488 ], [ 10.124950430366773, 56.139717888353175 ], [ 10.12400314472292, 56.13914838882858 ], [ 10.126201663298716, 56.138379795463571 ], [ 10.121596392469051, 56.138262285027508 ], [ 10.121484162093637, 56.137535936984882 ], [ 10.124786609858232, 56.136345183177802 ], [ 10.123261353834994, 56.135961724535861 ], [ 10.123924682321258, 56.135427800080976 ], [ 10.126207044350657, 56.135586006488317 ], [ 10.130099011126111, 56.134019984151031 ], [ 10.132213795361439, 56.12815444217533 ], [ 10.141554121974121, 56.132658514262246 ], [ 10.13962100105392, 56.132918426952855 ], [ 10.141541052008739, 56.133314391301937 ], [ 10.136962922369458, 56.133879826959863 ], [ 10.141323881891905, 56.134293921828665 ], [ 10.139745196215003, 56.13841662794561 ], [ 10.14445359031577, 56.140122747466087 ], [ 10.144543064320709, 56.141238266944526 ], [ 10.141045204481104, 56.141704793196773 ], [ 10.131086655837295, 56.147052179439996 ], [ 10.124764680392175, 56.147790345253966 ], [ 10.121807957098262, 56.146554506560975 ], [ 10.108239832833045, 56.150431107721253 ], [ 10.101012381011419, 56.151035549735404 ], [ 10.099031879354024, 56.150009799467519 ], [ 10.097666396929219, 56.150751725486522 ], [ 10.082486715086413, 56.147796911358242 ], [ 10.08125123374057, 56.147885899874723 ], [ 10.081103727847585, 56.150177012465576 ], [ 10.077869293350574, 56.150971623699157 ], [ 10.077775431375551, 56.149999242498865 ], [ 10.077207664376074, 56.15081592622812 ], [ 10.076048564566266, 56.150139724954713 ], [ 10.074457299553465, 56.15140765155607 ], [ 10.074180326212895, 56.15066014523984 ], [ 10.069504001894833, 56.150041629326822 ], [ 10.069902154782961, 56.148201673510101 ], [ 10.068431463524423, 56.148180521952234 ], [ 10.068233368673178, 56.149302345151931 ], [ 10.066375442953744, 56.148256057193151 ], [ 10.066179565462805, 56.149338051822781 ], [ 10.064602588976765, 56.149252718648739 ], [ 10.060767783874878, 56.147423578816976 ], [ 10.064652367187552, 56.149737318825032 ], [ 10.064702911300564, 56.152537922899313 ], [ 10.046020858542088, 56.153307861767452 ], [ 10.051396393984495, 56.156742706376576 ], [ 10.059394593675059, 56.157213059632731 ], [ 10.059730171119696, 56.160659630146007 ], [ 10.054591994822182, 56.159161275726106 ], [ 10.04885323230798, 56.159167787160492 ], [ 10.049037070548774, 56.160643316496191 ], [ 10.047875328522696, 56.160767636307689 ], [ 10.050679925466245, 56.164276399176508 ], [ 10.056532216925834, 56.164793485940315 ], [ 10.056423361707145, 56.166424312229417 ], [ 10.059022562323493, 56.166425845456345 ], [ 10.060254691352039, 56.163097716752077 ], [ 10.068039264209578, 56.163294146471486 ], [ 10.0688435519785, 56.164040162205971 ], [ 10.078456496436271, 56.161530424568397 ], [ 10.077795297203165, 56.160739773439211 ], [ 10.074740142883886, 56.161522565670204 ], [ 10.077046030919455, 56.159297589388011 ], [ 10.071117241445911, 56.157383125770387 ], [ 10.076426274257511, 56.152370366814907 ], [ 10.08526816023468, 56.153735633005134 ], [ 10.083034431720858, 56.156293763109645 ], [ 10.084243543410507, 56.157248274673471 ], [ 10.08728196849116, 56.154333697482102 ], [ 10.089219311585323, 56.155407817265157 ], [ 10.092560401691665, 56.154877573026681 ], [ 10.090893967759193, 56.155839264081692 ], [ 10.094066082806386, 56.156783072994457 ], [ 10.098467177079799, 56.156498377134966 ], [ 10.098463863371418, 56.157234215247129 ], [ 10.093803199447384, 56.157207868699523 ], [ 10.091842168871505, 56.159417382814034 ], [ 10.09046592034837, 56.157283835060248 ], [ 10.087781994228983, 56.157671930047265 ], [ 10.087104252040206, 56.159704802811092 ], [ 10.088290011461091, 56.159996903745558 ], [ 10.08630942270327, 56.161066148718525 ], [ 10.089212495419584, 56.162620669102182 ], [ 10.101925464947334, 56.161137543068122 ], [ 10.10113146829813, 56.163636342696769 ], [ 10.096259834204526, 56.163355364832491 ], [ 10.094759083921717, 56.16538362532021 ], [ 10.100322645465406, 56.168644510441517 ], [ 10.101886177901587, 56.168623216073236 ], [ 10.101311166547736, 56.169904256710886 ], [ 10.109888787759081, 56.168726477033545 ], [ 10.109383288209647, 56.174280175574708 ], [ 10.100792210409644, 56.172672853401416 ], [ 10.094464324215078, 56.172872354049602 ], [ 10.096635007095262, 56.177588377118752 ], [ 10.095552695507781, 56.177878583948292 ], [ 10.091832953965277, 56.176454433379867 ], [ 10.092823630426425, 56.173579815942773 ], [ 10.091141516732362, 56.173255120358355 ], [ 10.090345915089829, 56.174593851608257 ], [ 10.085810430396846, 56.174027442150255 ], [ 10.087444826898848, 56.177312133080328 ], [ 10.086594368683327, 56.178532774182749 ], [ 10.090329242310908, 56.176767543943789 ], [ 10.093008526583901, 56.179781187785665 ], [ 10.090442130579669, 56.181653024086607 ], [ 10.085716547615247, 56.181983849147578 ], [ 10.08594104398688, 56.185244165489138 ], [ 10.088554287975157, 56.187498507551759 ], [ 10.086751254404982, 56.188387234040881 ], [ 10.086128959315086, 56.187504097732315 ], [ 10.084646454478602, 56.187770299347882 ], [ 10.083756730707531, 56.188876329303 ], [ 10.085407223721164, 56.18951290864041 ], [ 10.082369221108094, 56.190347135241758 ], [ 10.081499113463138, 56.189759384131406 ], [ 10.082222585361743, 56.190822481792821 ], [ 10.080592318713817, 56.190852373494899 ], [ 10.082044243730966, 56.191848902812971 ], [ 10.082358085166327, 56.190964700807484 ], [ 10.084446375827175, 56.193335679630295 ], [ 10.085669779150869, 56.19299015249667 ], [ 10.086283693887419, 56.193768546627489 ], [ 10.090379710595345, 56.192747261457903 ], [ 10.094002520732344, 56.19393393752749 ], [ 10.095354837849289, 56.193098196257694 ], [ 10.102926100474166, 56.195391603906756 ], [ 10.104555941074958, 56.193854318949889 ], [ 10.111415542211649, 56.19491566036556 ], [ 10.114689507316125, 56.193352040600111 ], [ 10.117095114879557, 56.196053779505313 ], [ 10.119236974091274, 56.195138487412699 ], [ 10.117913800748676, 56.194716735263277 ], [ 10.117473329931169, 56.195353731432597 ], [ 10.11633064562961, 56.193515953826299 ], [ 10.122175184727309, 56.194272990227276 ], [ 10.134854148572657, 56.191675224079404 ], [ 10.132795372924635, 56.18815614607098 ], [ 10.129947928584752, 56.188564994892872 ], [ 10.129671826616969, 56.187723345673582 ], [ 10.138318772812287, 56.18601113603345 ], [ 10.137479836823292, 56.183343829117888 ], [ 10.13466377775511, 56.182161086654723 ], [ 10.13337144340729, 56.183804048785383 ], [ 10.126878461332042, 56.182987200279591 ], [ 10.126712931284047, 56.180397939244692 ], [ 10.127161331225496, 56.181032324281098 ], [ 10.128247609271892, 56.180020101236352 ], [ 10.12950553271018, 56.181036628520168 ], [ 10.131388857904623, 56.180943841808649 ], [ 10.128980097387265, 56.179832270955565 ], [ 10.130968755633821, 56.179296807887837 ], [ 10.142753153694843, 56.181230367304686 ], [ 10.140049009460473, 56.177160165260091 ], [ 10.143685791288879, 56.176267663777715 ], [ 10.143851914580191, 56.176935446744686 ], [ 10.1455668776628, 56.175827305990957 ], [ 10.147124001088214, 56.179206281522283 ], [ 10.149148838311213, 56.178532355025645 ], [ 10.154729988844167, 56.181124657016184 ], [ 10.156984041552317, 56.178790478419671 ], [ 10.160183569599278, 56.178272408610418 ], [ 10.16216549432998, 56.183422006533377 ], [ 10.169337901278281, 56.18323729963938 ], [ 10.172193931540498, 56.185946005881512 ], [ 10.168888131511743, 56.185612384196851 ], [ 10.167466518093073, 56.186388957506296 ], [ 10.168255335831541, 56.18709472236759 ], [ 10.162962288873794, 56.191528685868967 ], [ 10.163564342220633, 56.194634430740315 ], [ 10.165869125432611, 56.19473538801909 ], [ 10.17135973640546, 56.198104418724114 ], [ 10.170613512205588, 56.199147767138776 ], [ 10.17216232065002, 56.201087683516612 ], [ 10.174458134506899, 56.200169521766455 ], [ 10.174916195315641, 56.201217716989305 ], [ 10.175867990971494, 56.200257838978978 ], [ 10.180821731959313, 56.201054995273999 ], [ 10.176074314209496, 56.203749927692634 ], [ 10.176355252386896, 56.206588036492732 ], [ 10.173084990581959, 56.205945594597239 ], [ 10.172267362883362, 56.207037433188006 ], [ 10.176296000878743, 56.206664148967832 ], [ 10.174120897453788, 56.209717066037825 ], [ 10.175195746056838, 56.210158282401416 ], [ 10.1907568452547, 56.211646046906267 ], [ 10.192951578401201, 56.207285050150787 ], [ 10.193113224727879, 56.20113128620288 ], [ 10.197313098640761, 56.200217316534633 ], [ 10.199060778432569, 56.200747234243458 ], [ 10.198312266761405, 56.199870056521604 ], [ 10.202663376716997, 56.198358075646411 ], [ 10.205858083905555, 56.201198072975842 ], [ 10.210574672874555, 56.1975590857257 ], [ 10.210736452746939, 56.198187110147153 ], [ 10.208778963094243, 56.199807280587954 ], [ 10.20999020860075, 56.200199508539825 ], [ 10.204910905393879, 56.20456982272546 ], [ 10.206179129752332, 56.207127914234754 ], [ 10.205024877105041, 56.208897787426437 ], [ 10.206073705594109, 56.210815560720455 ], [ 10.212143527587335, 56.210445779023658 ], [ 10.214037568507003, 56.212784612913907 ], [ 10.2216726984771, 56.211281924683036 ], [ 10.225890586449557, 56.208134650999504 ], [ 10.237361516946272, 56.2121614500631 ], [ 10.248664949955721, 56.208595376870022 ], [ 10.255319782681781, 56.203908673853171 ], [ 10.254431324488719, 56.206740922415477 ], [ 10.259903370566773, 56.208345723545193 ], [ 10.264672825892937, 56.206867098851475 ], [ 10.270312008341946, 56.208534607908199 ], [ 10.269102859700787, 56.210380238125254 ], [ 10.267305989323948, 56.210093336083325 ], [ 10.266811991993881, 56.208881135474208 ], [ 10.264999809390396, 56.20901280975508 ], [ 10.26462861356821, 56.210558782118085 ], [ 10.262521946869034, 56.21112742913737 ], [ 10.264720584874622, 56.215717476228527 ], [ 10.262539898938678, 56.215995390000991 ], [ 10.260573925757935, 56.21459645832131 ], [ 10.257887761565101, 56.216356156031033 ], [ 10.2620855269494, 56.217493320162696 ], [ 10.261320790999489, 56.219834283475258 ], [ 10.267533798265147, 56.220217084194893 ], [ 10.268721147308884, 56.219023054181569 ], [ 10.270472839707361, 56.219291352516301 ], [ 10.269180355118394, 56.216244080832958 ], [ 10.273758524012178, 56.215805164749909 ], [ 10.275103650472003, 56.214856456692644 ], [ 10.274209978288461, 56.213650289500166 ], [ 10.269881641123449, 56.215009737619773 ], [ 10.267515867000331, 56.214475017152836 ], [ 10.269522120823407, 56.214114162183279 ], [ 10.272487196998648, 56.211565874373306 ], [ 10.269722424456761, 56.210954341090385 ], [ 10.271650554936773, 56.208565959695889 ], [ 10.276430128160184, 56.211252356380371 ], [ 10.28642414075291, 56.221911814691303 ], [ 10.285248681240402, 56.222348687683365 ], [ 10.286806588843726, 56.222360974868103 ], [ 10.288404354702266, 56.224099299091158 ], [ 10.291360087154002, 56.229473248173313 ], [ 10.281052202350077, 56.229827233645899 ], [ 10.282342021215488, 56.23120465525551 ], [ 10.280635141435086, 56.231978545108213 ], [ 10.282719451180864, 56.234412322386042 ], [ 10.280955984922818, 56.23617835357107 ], [ 10.281942741687102, 56.236975387335782 ], [ 10.287123303340849, 56.232299300993155 ], [ 10.28872229033626, 56.233508543738722 ], [ 10.292088423641855, 56.232703740376088 ], [ 10.292329081152134, 56.231595744551115 ], [ 10.295162187357015, 56.230586700485837 ], [ 10.30011903247674, 56.235198986323006 ], [ 10.299912781345366, 56.236784303656421 ], [ 10.301837899128605, 56.236333530215639 ], [ 10.304488382886563, 56.238157383825033 ], [ 10.309673881275693, 56.236703474359267 ], [ 10.310254402517458, 56.237337005567035 ], [ 10.312186299996878, 56.236075635375578 ], [ 10.312177120329974, 56.234075380766946 ], [ 10.313966500645588, 56.23444914675742 ], [ 10.313753976541799, 56.235498753701791 ], [ 10.314996830787091, 56.233796275893638 ], [ 10.312966178424075, 56.233565619683787 ], [ 10.314155102995501, 56.230029599132585 ], [ 10.320009817250909, 56.231308987948857 ], [ 10.316613463863655, 56.234283619305373 ], [ 10.325946828682735, 56.235991115278445 ], [ 10.324002793840249, 56.238253099277884 ], [ 10.321994026014075, 56.238441348912694 ], [ 10.324313831934953, 56.244133211708899 ], [ 10.338365585166533, 56.242631955377988 ], [ 10.338915830286377, 56.236166663106985 ], [ 10.328502048530961, 56.230992283523761 ], [ 10.30749864075352, 56.227259719102371 ], [ 10.300594296437641, 56.229694424577673 ], [ 10.299653337878793, 56.228493157690075 ], [ 10.306557808931244, 56.226270470985227 ], [ 10.303029658195145, 56.224994990916805 ], [ 10.297661404595432, 56.219279762486131 ], [ 10.288633178972225, 56.212578235042614 ], [ 10.289440248760366, 56.210942100418514 ], [ 10.286416196843467, 56.20900810083959 ], [ 10.287304842662262, 56.207396083579724 ], [ 10.284277897529947, 56.206689331629576 ], [ 10.281250200439011, 56.200721834106496 ], [ 10.259346096810715, 56.19531347567051 ], [ 10.245571840990136, 56.188830335268527 ], [ 10.238297794433413, 56.183986459982542 ], [ 10.222765041798127, 56.169948963253091 ], [ 10.224596835184128, 56.16928261762429 ], [ 10.223056119487401, 56.169352413398926 ], [ 10.222759981945837, 56.167118948330923 ], [ 10.22155778589349, 56.1674040831751 ], [ 10.218174591085017, 56.163420156152817 ], [ 10.224429934411503, 56.166477477420067 ], [ 10.223633209719448, 56.167357767106864 ], [ 10.225798570631856, 56.169608829925821 ], [ 10.2325146649089, 56.16557926746426 ], [ 10.228795179479578, 56.162199659649218 ], [ 10.224147970862067, 56.164382519941121 ], [ 10.221558286426086, 56.162858786121348 ], [ 10.224595576136197, 56.161455958045458 ], [ 10.222531055984662, 56.160313902385646 ], [ 10.218596403983108, 56.161386850922803 ], [ 10.216452678966931, 56.160241610037183 ], [ 10.219345474864873, 56.157873598528475 ], [ 10.216928837135077, 56.158909837466553 ], [ 10.21655989277177, 56.157858484346932 ], [ 10.214251422073547, 56.158192982031935 ], [ 10.213398377764307, 56.154385210620731 ], [ 10.215068494424129, 56.154330470467315 ], [ 10.215621247775653, 56.153306531645185 ], [ 10.213466286615484, 56.152591976728438 ], [ 10.214718988104766, 56.152047818126462 ], [ 10.22010119159439, 56.156938884894657 ], [ 10.222062740970872, 56.156635023952518 ], [ 10.221655774815806, 56.155454669026319 ], [ 10.222792854614591, 56.156517101111838 ], [ 10.221805266732847, 56.155234124930374 ], [ 10.218207844940531, 56.152403356275101 ], [ 10.220575801516008, 56.152723237316799 ], [ 10.215680701501963, 56.150762600743619 ], [ 10.213811999516645, 56.148861580114975 ], [ 10.216364134320239, 56.14819159669883 ], [ 10.213857524116223, 56.145475129667567 ], [ 10.221169188188746, 56.151387881356918 ], [ 10.226387646059008, 56.157979093358307 ], [ 10.227990451061521, 56.157669532467565 ], [ 10.225947012381452, 56.155362037560415 ], [ 10.2278955459028, 56.155623640194413 ], [ 10.228171319109544, 56.154926696424653 ], [ 10.224313178518504, 56.150409844727385 ], [ 10.22716550541422, 56.149644410184074 ], [ 10.224590272935933, 56.149622701662182 ], [ 10.221892516248364, 56.147046755300124 ], [ 10.223210501385644, 56.146398350836598 ], [ 10.21809370641402, 56.142236491808042 ], [ 10.219330431240746, 56.141642572230495 ], [ 10.231897995818171, 56.14653578849429 ], [ 10.232896755142725, 56.144632011779819 ], [ 10.238960469158087, 56.147262607322048 ], [ 10.239208273299605, 56.148610499437069 ], [ 10.249117748450157, 56.15473958713536 ], [ 10.250370371574569, 56.153746606880745 ], [ 10.247854733479295, 56.15206918611495 ], [ 10.251258195840071, 56.149683168197214 ], [ 10.25393931378548, 56.151435721523129 ], [ 10.25479445096796, 56.150621093486052 ] ] ] } }
]
}
