{
"type": "FeatureCollection",
"name": "almere_nl",
"crs": { "type": "name", "properties": { "name": "urn:ogc:def:crs:OGC:1.3:CRS84" } },
"features": [
{ "type": "Feature", "properties": { "bbox_west": 5.0604281, "bbox_south": 52.3023922, "bbox_east": 5.3792111, "bbox_north": 52.5836652, "place_id": 155570678, "osm_type": "relation", "osm_id": 272917, "lat": 52.4417513, "lon": 5.2092943, "class": "boundary", "type": "administrative", "place_rank": 16, "importance": 0.55639220380069399, "addresstype": "administrative", "name": "Almere", "display_name": "Almere, Flevoland, Netherlands" }, "geometry": { "type": "Polygon", "coordinates": [ [ [ 5.0604281, 52.5789361 ], [ 5.0716622, 52.5591946 ], [ 5.0800725, 52.5444026 ], [ 5.0818661, 52.5412467 ], [ 5.086965, 52.5322724 ], [ 5.0895136, 52.5277852 ], [ 5.0920618, 52.5232979 ], [ 5.0925242, 52.5224834 ], [ 5.0946094, 52.5188105 ], [ 5.0971565, 52.5143231 ], [ 5.0975377, 52.5136514 ], [ 5.0997031, 52.5098356 ], [ 5.1007216, 52.5080406 ], [ 5.1039698, 52.5053522 ], [ 5.1070924, 52.5027673 ], [ 5.1073847, 52.5025253 ], [ 5.1093825, 52.5008713 ], [ 5.1129878, 52.4978861 ], [ 5.1147862, 52.4963968 ], [ 5.1202047, 52.4919088 ], [ 5.1510239, 52.46636 ], [ 5.1543824, 52.4614236 ], [ 5.1658727, 52.444526 ], [ 5.1809113, 52.422389 ], [ 5.1821382, 52.4205819 ], [ 5.1854901, 52.4156445 ], [ 5.1373311, 52.4155528 ], [ 5.0791622, 52.3886541 ], [ 5.0792889, 52.3704077 ], [ 5.0951196, 52.358577 ], [ 5.1162047, 52.3426356 ], [ 5.1346086, 52.3287089 ], [ 5.1369302, 52.3269595 ], [ 5.1378657, 52.3262545 ], [ 5.1383436, 52.3258869 ], [ 5.1383738, 52.3258637 ], [ 5.1384103, 52.3258356 ], [ 5.138441, 52.325812 ], [ 5.1388249, 52.3255167 ], [ 5.1406172, 52.3241381 ], [ 5.1423045, 52.3228401 ], [ 5.1439794, 52.3215515 ], [ 5.1461445, 52.3196695 ], [ 5.1488792, 52.3187292 ], [ 5.1511322, 52.3186467 ], [ 5.1666144, 52.3202367 ], [ 5.1906572, 52.3227016 ], [ 5.2051881, 52.3241889 ], [ 5.2129262, 52.3250772 ], [ 5.2204057, 52.3260537 ], [ 5.2235361, 52.3258739 ], [ 5.2245902, 52.3257615 ], [ 5.2293211, 52.3252562 ], [ 5.237281, 52.3239544 ], [ 5.2380753, 52.3238244 ], [ 5.27904, 52.3171148 ], [ 5.281141, 52.3167703 ], [ 5.2873974, 52.3150563 ], [ 5.2972274, 52.3111861 ], [ 5.3010804, 52.3096687 ], [ 5.3040214, 52.308299 ], [ 5.305391, 52.307661 ], [ 5.3054553, 52.3076312 ], [ 5.3072599, 52.3067904 ], [ 5.3133989, 52.303381 ], [ 5.3139043, 52.3031003 ], [ 5.3151792, 52.3023922 ], [ 5.317035, 52.3034839 ], [ 5.3171947, 52.3035779 ], [ 5.3177776, 52.3039208 ], [ 5.3179102, 52.3039988 ], [ 5.3181675, 52.3041501 ], [ 5.3202222, 52.3053587 ], [ 5.32308, 52.3072607 ], [ 5.3275507, 52.3102786 ], [ 5.3326933, 52.3137292 ], [ 5.3327263, 52.3137514 ], [ 5.3329529, 52.313903 ], [ 5.332954, 52.3139038 ], [ 5.3329888, 52.3139271 ], [ 5.3329896, 52.3139276 ], [ 5.3330589, 52.313974 ], [ 5.3332885, 52.3141285 ], [ 5.3333935, 52.314199 ], [ 5.3335049, 52.3142737 ], [ 5.3354804, 52.3135034 ], [ 5.3363518, 52.3131841 ], [ 5.3371819, 52.3128538 ], [ 5.3372175, 52.3128368 ], [ 5.3372694, 52.3128119 ], [ 5.3415099, 52.3111585 ], [ 5.3424043, 52.3108229 ], [ 5.343272, 52.3104857 ], [ 5.3441766, 52.310172 ], [ 5.3449235, 52.309939 ], [ 5.3460946, 52.3097033 ], [ 5.3469552, 52.3095226 ], [ 5.3470516, 52.3095079 ], [ 5.3474097, 52.3094611 ], [ 5.3475477, 52.3094602 ], [ 5.3481479, 52.3093824 ], [ 5.3485252, 52.3091727 ], [ 5.3486172, 52.3091652 ], [ 5.3489627, 52.3093022 ], [ 5.3497037, 52.3092495 ], [ 5.3504971, 52.3092317 ], [ 5.3515011, 52.3092354 ], [ 5.3520115, 52.3092508 ], [ 5.3527801, 52.3092963 ], [ 5.3533733, 52.3093478 ], [ 5.3540063, 52.3094073 ], [ 5.354552, 52.3095031 ], [ 5.3545529, 52.3095033 ], [ 5.3552031, 52.3096122 ], [ 5.3615092, 52.3107847 ], [ 5.3792111, 52.3139948 ], [ 5.3789934, 52.314446 ], [ 5.3789498, 52.3144482 ], [ 5.3789023, 52.3144604 ], [ 5.3788522, 52.3144877 ], [ 5.3787971, 52.3145268 ], [ 5.3785499, 52.3147025 ], [ 5.3764989, 52.3165015 ], [ 5.376389, 52.316598 ], [ 5.3763755, 52.3166081 ], [ 5.3761976, 52.3167424 ], [ 5.3760754, 52.3168487 ], [ 5.3674469, 52.3243513 ], [ 5.367357, 52.3244295 ], [ 5.3631306, 52.3281032 ], [ 5.3589038, 52.3317767 ], [ 5.3546685, 52.3354566 ], [ 5.354256, 52.3358149 ], [ 5.3508164, 52.3388029 ], [ 5.3507992, 52.3388178 ], [ 5.3504635, 52.3391094 ], [ 5.3504459, 52.3391247 ], [ 5.3419903, 52.3464676 ], [ 5.3406133, 52.3476632 ], [ 5.3396633, 52.348488 ], [ 5.3384963, 52.3495011 ], [ 5.3380449, 52.3498929 ], [ 5.3377679, 52.3501333 ], [ 5.3377191, 52.3501757 ], [ 5.3376607, 52.3502263 ], [ 5.3373786, 52.3504706 ], [ 5.3373065, 52.3505332 ], [ 5.3371835, 52.35064 ], [ 5.3354886, 52.3521118 ], [ 5.3348675, 52.3526511 ], [ 5.333363, 52.3539574 ], [ 5.329118, 52.3576427 ], [ 5.3290701, 52.3576843 ], [ 5.3247245, 52.3614561 ], [ 5.3204103, 52.3651999 ], [ 5.3166851, 52.368432 ], [ 5.3117446, 52.3727701 ], [ 5.3081944, 52.3758868 ], [ 5.3079747, 52.37608 ], [ 5.3079621, 52.376091 ], [ 5.3079495, 52.3761021 ], [ 5.3067108, 52.377189 ], [ 5.3066746, 52.3772207 ], [ 5.3064535, 52.3774149 ], [ 5.3062102, 52.3776285 ], [ 5.306128, 52.3777006 ], [ 5.3058854, 52.3779136 ], [ 5.3057583, 52.378025 ], [ 5.3044377, 52.3791842 ], [ 5.3012763, 52.3819585 ], [ 5.3012631, 52.3819701 ], [ 5.3012446, 52.3819864 ], [ 5.3015574, 52.3821248 ], [ 5.3023216, 52.3824437 ], [ 5.3030853, 52.3827508 ], [ 5.3038274, 52.383027 ], [ 5.3047783, 52.3833612 ], [ 5.3055658, 52.3836367 ], [ 5.3063462, 52.383909 ], [ 5.3077532, 52.3844001 ], [ 5.3089724, 52.3848292 ], [ 5.3104964, 52.3853653 ], [ 5.3129991, 52.3862387 ], [ 5.3130114, 52.386243 ], [ 5.3130396, 52.3862528 ], [ 5.3130683, 52.386225 ], [ 5.3133985, 52.3858424 ], [ 5.3135171, 52.3857414 ], [ 5.3139334, 52.3858923 ], [ 5.3139356, 52.3858931 ], [ 5.3139714, 52.3859061 ], [ 5.3148102, 52.3862099 ], [ 5.3149107, 52.3862463 ], [ 5.315571, 52.3864855 ], [ 5.3194379, 52.3878861 ], [ 5.3195848, 52.3879393 ], [ 5.3197093, 52.3879844 ], [ 5.3205445, 52.3882869 ], [ 5.3326041, 52.3926534 ], [ 5.3329341, 52.3927728 ], [ 5.3328944, 52.3928061 ], [ 5.3326761, 52.3929895 ], [ 5.3324176, 52.3932065 ], [ 5.3323699, 52.3932463 ], [ 5.3345886, 52.3940768 ], [ 5.3361236, 52.3946489 ], [ 5.3375122, 52.3951662 ], [ 5.3386105, 52.395581 ], [ 5.3393533, 52.3958128 ], [ 5.3401078, 52.3959408 ], [ 5.3410176, 52.3959766 ], [ 5.3410798, 52.3959808 ], [ 5.3422933, 52.3959759 ], [ 5.3434356, 52.3958941 ], [ 5.3438994, 52.3958611 ], [ 5.3443725, 52.3958839 ], [ 5.3448295, 52.3960158 ], [ 5.3459133, 52.3964539 ], [ 5.3459651, 52.3964154 ], [ 5.3463714, 52.3961136 ], [ 5.347257, 52.3965147 ], [ 5.3473684, 52.3965651 ], [ 5.3477173, 52.3967231 ], [ 5.3479241, 52.3968372 ], [ 5.3481684, 52.3970283 ], [ 5.3483211, 52.3973296 ], [ 5.3489195, 52.3983826 ], [ 5.3494227, 52.3991573 ], [ 5.3495279, 52.3993012 ], [ 5.3496481, 52.3994437 ], [ 5.3497821, 52.3995834 ], [ 5.3500149, 52.399774 ], [ 5.3504968, 52.400103 ], [ 5.3507355, 52.4001936 ], [ 5.3494772, 52.4014529 ], [ 5.3488936, 52.4012252 ], [ 5.3484537, 52.4011352 ], [ 5.3480547, 52.4010671 ], [ 5.347657, 52.4010309 ], [ 5.3473508, 52.4010233 ], [ 5.3469881, 52.4010272 ], [ 5.3456874, 52.4011329 ], [ 5.3448642, 52.401256 ], [ 5.3442808, 52.4013187 ], [ 5.344157, 52.4012924 ], [ 5.3436733, 52.4012271 ], [ 5.3433362, 52.401143 ], [ 5.3433203, 52.4011373 ], [ 5.3432848, 52.4011641 ], [ 5.3430796, 52.4013188 ], [ 5.3426072, 52.4016629 ], [ 5.3421222, 52.4020005 ], [ 5.341625, 52.4023313 ], [ 5.3411158, 52.4026552 ], [ 5.3409189, 52.402775 ], [ 5.3409163, 52.4027765 ], [ 5.3405948, 52.4029721 ], [ 5.3405626, 52.4029908 ], [ 5.3400624, 52.4032817 ], [ 5.3398874, 52.403379 ], [ 5.3398847, 52.4033805 ], [ 5.3398845, 52.4033807 ], [ 5.3397138, 52.4034755 ], [ 5.3395187, 52.403584 ], [ 5.3389642, 52.4038787 ], [ 5.3383989, 52.4041658 ], [ 5.3378233, 52.404445 ], [ 5.3372375, 52.4047163 ], [ 5.336642, 52.4049795 ], [ 5.336037, 52.4052345 ], [ 5.3354228, 52.4054811 ], [ 5.3347997, 52.4057192 ], [ 5.3341681, 52.4059488 ], [ 5.3337621, 52.4060903 ], [ 5.3331182, 52.4063068 ], [ 5.3324692, 52.4065174 ], [ 5.3318167, 52.406724 ], [ 5.3311623, 52.4069284 ], [ 5.3297571, 52.407365 ], [ 5.3264767, 52.4083768 ], [ 5.3231893, 52.4093801 ], [ 5.3199273, 52.4103652 ], [ 5.319895, 52.410375 ], [ 5.3192942, 52.4105547 ], [ 5.3190181, 52.4106371 ], [ 5.3189267, 52.4106644 ], [ 5.3188104, 52.4106991 ], [ 5.3187714, 52.4107108 ], [ 5.3187674, 52.410712 ], [ 5.3187528, 52.4107163 ], [ 5.3187119, 52.4107286 ], [ 5.3186994, 52.4107323 ], [ 5.3184566, 52.4108048 ], [ 5.3181793, 52.4108876 ], [ 5.3175947, 52.4110623 ], [ 5.3165937, 52.4113614 ], [ 5.3132857, 52.4123393 ], [ 5.3099709, 52.4133087 ], [ 5.3066494, 52.4142695 ], [ 5.2992474, 52.4163988 ], [ 5.2991681, 52.4164217 ], [ 5.2988384, 52.4165165 ], [ 5.2822436, 52.4212876 ], [ 5.281617, 52.4214677 ], [ 5.281348, 52.421545 ], [ 5.2809828, 52.4216501 ], [ 5.2792938, 52.4221354 ], [ 5.2789964, 52.4222219 ], [ 5.2783375, 52.4224212 ], [ 5.2776858, 52.4226289 ], [ 5.2770413, 52.422845 ], [ 5.2764044, 52.4230693 ], [ 5.2757754, 52.4233018 ], [ 5.2751567, 52.4235429 ], [ 5.2745422, 52.4237909 ], [ 5.2739386, 52.4240473 ], [ 5.2733439, 52.4243114 ], [ 5.2727584, 52.4245831 ], [ 5.2721825, 52.4248624 ], [ 5.2716163, 52.4251489 ], [ 5.2711257, 52.4254082 ], [ 5.2705143, 52.4257437 ], [ 5.2699789, 52.4260516 ], [ 5.2694542, 52.4263664 ], [ 5.2689406, 52.4266878 ], [ 5.2684381, 52.4270158 ], [ 5.2679471, 52.4273503 ], [ 5.2674677, 52.4276909 ], [ 5.266947, 52.4280789 ], [ 5.2665448, 52.4283905 ], [ 5.2661017, 52.428749 ], [ 5.265671, 52.4291132 ], [ 5.2634473, 52.4310359 ], [ 5.2632991, 52.431164 ], [ 5.2616081, 52.432626 ], [ 5.2590735, 52.4348171 ], [ 5.2590551, 52.434833 ], [ 5.2590548, 52.4348332 ], [ 5.2586792, 52.435158 ], [ 5.2584359, 52.4353684 ], [ 5.2583086, 52.4354784 ], [ 5.2542628, 52.4389765 ], [ 5.2455454, 52.4460247 ], [ 5.1885603, 52.4920277 ], [ 5.1551657, 52.5189292 ], [ 5.1049973, 52.5592633 ], [ 5.0745882, 52.5836652 ], [ 5.0604281, 52.5789361 ] ] ] } }
]
}
