{
"type": "FeatureCollection",
"name": "alphen-aan-den_nl",
"crs": { "type": "name", "properties": { "name": "urn:ogc:def:crs:OGC:1.3:CRS84" } },
"features": [
{ "type": "Feature", "properties": { }, "geometry": { "type": "Polygon", "coordinates": [ [ [ 4.6179183, 52.1468226 ], [ 4.618221, 52.1459411 ], [ 4.6182757, 52.1458261 ], [ 4.6183739, 52.1455584 ], [ 4.6184359, 52.1454167 ], [ 4.6186371, 52.1448507 ], [ 4.6186571, 52.1447922 ], [ 4.6187997, 52.144494 ], [ 4.6190248, 52.1437063 ], [ 4.6190342, 52.1436838 ], [ 4.6190352, 52.1436813 ], [ 4.6191704, 52.1434445 ], [ 4.6192134, 52.1433365 ], [ 4.6192305, 52.1432714 ], [ 4.6192408, 52.1432616 ], [ 4.6192709, 52.1431922 ], [ 4.6192796, 52.1430905 ], [ 4.6193046, 52.1428919 ], [ 4.6193102, 52.1428801 ], [ 4.6193186, 52.1428664 ], [ 4.6193269, 52.1428491 ], [ 4.6193486, 52.1428153 ], [ 4.6193921, 52.1427526 ], [ 4.6193986, 52.1427428 ], [ 4.6194061, 52.1427313 ], [ 4.6194136, 52.1427191 ], [ 4.6194175, 52.142709 ], [ 4.6194194, 52.1426993 ], [ 4.6194257, 52.1426515 ], [ 4.6194409, 52.1425357 ], [ 4.6194555, 52.1424372 ], [ 4.6194566, 52.1424188 ], [ 4.6194542, 52.1424053 ], [ 4.6194481, 52.1423893 ], [ 4.6194453, 52.1423597 ], [ 4.6194446, 52.1422916 ], [ 4.6194442, 52.1422592 ], [ 4.6194442, 52.142259 ], [ 4.6194513, 52.1422427 ], [ 4.6194564, 52.1422217 ], [ 4.6194582, 52.1422055 ], [ 4.6194572, 52.142164 ], [ 4.6194546, 52.1421445 ], [ 4.619454, 52.1421314 ], [ 4.6194565, 52.1421164 ], [ 4.6194605, 52.1421061 ], [ 4.6194742, 52.1420867 ], [ 4.6194974, 52.1420596 ], [ 4.6195092, 52.1420593 ], [ 4.6196413, 52.1420562 ], [ 4.619661, 52.1420698 ], [ 4.6197895, 52.1420721 ], [ 4.6198097, 52.1420726 ], [ 4.6198237, 52.1420755 ], [ 4.6198365, 52.1420788 ], [ 4.6198483, 52.1420823 ], [ 4.6198995, 52.1420973 ], [ 4.6199122, 52.1420991 ], [ 4.6199302, 52.1421005 ], [ 4.619971, 52.1421 ], [ 4.6200408, 52.1420992 ], [ 4.6201301, 52.1420975 ], [ 4.620205, 52.1420931 ], [ 4.620233, 52.1420894 ], [ 4.6202621, 52.1420814 ], [ 4.6202872, 52.1420716 ], [ 4.6203763, 52.1420372 ], [ 4.6204205, 52.1420259 ], [ 4.6204514, 52.1420201 ], [ 4.6204767, 52.1420174 ], [ 4.6206168, 52.1420156 ], [ 4.6207293, 52.142013 ], [ 4.6207329, 52.1420129 ], [ 4.6207977, 52.142009 ], [ 4.6208842, 52.141995 ], [ 4.6209492, 52.1419829 ], [ 4.6210426, 52.1419738 ], [ 4.6212998, 52.1419416 ], [ 4.621302, 52.1419413 ], [ 4.6216348, 52.141887 ], [ 4.6217273, 52.1418676 ], [ 4.6217439, 52.1418641 ], [ 4.6217891, 52.1418538 ], [ 4.6218079, 52.1418423 ], [ 4.621817, 52.1418282 ], [ 4.6218206, 52.1418123 ], [ 4.6218588, 52.1418055 ], [ 4.6218802, 52.1418017 ], [ 4.621911, 52.1418223 ], [ 4.6219475, 52.14181 ], [ 4.6219691, 52.1418028 ], [ 4.6222911, 52.141683 ], [ 4.6223025, 52.1416726 ], [ 4.6223304, 52.1416639 ], [ 4.6226194, 52.1415416 ], [ 4.6226503, 52.141529 ], [ 4.6226728, 52.1415187 ], [ 4.6228308, 52.141455 ], [ 4.6229009, 52.1414269 ], [ 4.6229128, 52.1414209 ], [ 4.6229248, 52.1414147 ], [ 4.622937, 52.1414079 ], [ 4.623282, 52.1412156 ], [ 4.6233206, 52.1411941 ], [ 4.6233041, 52.1411362 ], [ 4.6233055, 52.1411299 ], [ 4.6233124, 52.1411255 ], [ 4.6233789, 52.1410969 ], [ 4.6233743, 52.1410917 ], [ 4.6234045, 52.1410812 ], [ 4.6234532, 52.1410689 ], [ 4.623584, 52.1409896 ], [ 4.6236259, 52.1409715 ], [ 4.6236739, 52.1409554 ], [ 4.624001, 52.1408647 ], [ 4.6240161, 52.1408614 ], [ 4.6240403, 52.1408563 ], [ 4.6240763, 52.1408424 ], [ 4.6240783, 52.1408413 ], [ 4.624131, 52.1408135 ], [ 4.6246871, 52.1405339 ], [ 4.6247275, 52.1405151 ], [ 4.6248163, 52.1404791 ], [ 4.6248537, 52.1404623 ], [ 4.6248882, 52.1404389 ], [ 4.624909, 52.1404135 ], [ 4.624912, 52.1404056 ], [ 4.6249266, 52.1403569 ], [ 4.6249329, 52.1403408 ], [ 4.6249443, 52.1403314 ], [ 4.625004, 52.1402837 ], [ 4.6251309, 52.1402005 ], [ 4.6252139, 52.1401515 ], [ 4.6253199, 52.1400943 ], [ 4.6253791, 52.1400669 ], [ 4.6254293, 52.140048 ], [ 4.6255735, 52.1399975 ], [ 4.6256142, 52.1399769 ], [ 4.6256255, 52.1399713 ], [ 4.6256398, 52.1399673 ], [ 4.6257065, 52.1399528 ], [ 4.6259755, 52.1398451 ], [ 4.6260983, 52.1398066 ], [ 4.6261413, 52.1397883 ], [ 4.6261737, 52.1397733 ], [ 4.6262307, 52.1397381 ], [ 4.6262357, 52.1397329 ], [ 4.6262519, 52.1397256 ], [ 4.6262935, 52.1397079 ], [ 4.6263341, 52.1396907 ], [ 4.6263884, 52.1396622 ], [ 4.6265526, 52.1395909 ], [ 4.6265767, 52.1395733 ], [ 4.6265898, 52.1395668 ], [ 4.6266347, 52.1395459 ], [ 4.6266511, 52.1395399 ], [ 4.6266719, 52.139534 ], [ 4.626694, 52.139527 ], [ 4.6268472, 52.1394875 ], [ 4.6268922, 52.1394733 ], [ 4.6269021, 52.1394695 ], [ 4.6269294, 52.1394592 ], [ 4.6269943, 52.1394271 ], [ 4.6270317, 52.1394077 ], [ 4.6270813, 52.139382 ], [ 4.6270871, 52.1393756 ], [ 4.6271009, 52.1393639 ], [ 4.6271081, 52.1393578 ], [ 4.6271344, 52.1393383 ], [ 4.627157, 52.1393242 ], [ 4.6271935, 52.1393047 ], [ 4.6272582, 52.139271 ], [ 4.6273228, 52.1392456 ], [ 4.627327, 52.1392434 ], [ 4.6273387, 52.139237 ], [ 4.6274608, 52.1391669 ], [ 4.6275346, 52.1391411 ], [ 4.6276054, 52.1391333 ], [ 4.6276126, 52.1391325 ], [ 4.6276868, 52.1391244 ], [ 4.6277256, 52.1391149 ], [ 4.6277545, 52.1391052 ], [ 4.6277846, 52.1390935 ], [ 4.6278876, 52.1390531 ], [ 4.6278994, 52.1390478 ], [ 4.6280474, 52.1389786 ], [ 4.6280517, 52.1389766 ], [ 4.6280983, 52.1389523 ], [ 4.6281006, 52.1389511 ], [ 4.6281382, 52.1389285 ], [ 4.6281881, 52.138901 ], [ 4.628217, 52.138885 ], [ 4.6284648, 52.1387477 ], [ 4.6286956, 52.1386208 ], [ 4.628483, 52.138526 ], [ 4.6284309, 52.1384997 ], [ 4.6283207, 52.138439 ], [ 4.6281877, 52.1383619 ], [ 4.6280309, 52.138279 ], [ 4.6276309, 52.1380584 ], [ 4.6275814, 52.1380311 ], [ 4.627494, 52.1379842 ], [ 4.6274291, 52.137944 ], [ 4.6270953, 52.1377236 ], [ 4.6268066, 52.1375311 ], [ 4.6265712, 52.1373763 ], [ 4.626328, 52.137217 ], [ 4.6258538, 52.1368832 ], [ 4.6257977, 52.1368423 ], [ 4.625706, 52.1367732 ], [ 4.6253893, 52.1365291 ], [ 4.62535, 52.1364983 ], [ 4.625076, 52.1362674 ], [ 4.6247911, 52.1360301 ], [ 4.6245884, 52.1358483 ], [ 4.6243827, 52.1356571 ], [ 4.6241179, 52.1354139 ], [ 4.6240331, 52.135333 ], [ 4.6237328, 52.1350534 ], [ 4.6235736, 52.1349031 ], [ 4.6234034, 52.1347448 ], [ 4.6233814, 52.1347237 ], [ 4.6232426, 52.1345907 ], [ 4.6230211, 52.1343739 ], [ 4.6227215, 52.1340763 ], [ 4.622324, 52.1336307 ], [ 4.6221972, 52.1334836 ], [ 4.6220268, 52.1332944 ], [ 4.6219775, 52.1332427 ], [ 4.6219238, 52.1331886 ], [ 4.6222124, 52.1329856 ], [ 4.6222538, 52.1329568 ], [ 4.6222705, 52.1329451 ], [ 4.6224302, 52.1328336 ], [ 4.6224434, 52.1328162 ], [ 4.6224474, 52.1328113 ], [ 4.6224842, 52.1327667 ], [ 4.6225127, 52.1327321 ], [ 4.6226609, 52.1324814 ], [ 4.6227438, 52.1323048 ], [ 4.6228951, 52.1320217 ], [ 4.6230281, 52.1317742 ], [ 4.6230769, 52.1316848 ], [ 4.6231564, 52.1315394 ], [ 4.6232557, 52.1313537 ], [ 4.6233856, 52.1311098 ], [ 4.6235079, 52.1308786 ], [ 4.623635, 52.1306274 ], [ 4.6237725, 52.1303744 ], [ 4.6238488, 52.1302326 ], [ 4.6239298, 52.1300822 ], [ 4.6241239, 52.1297191 ], [ 4.6242539, 52.1294669 ], [ 4.6243945, 52.1292067 ], [ 4.624529, 52.1289518 ], [ 4.6246468, 52.128727 ], [ 4.6247048, 52.1286196 ], [ 4.6247278, 52.1285759 ], [ 4.6247548, 52.1285193 ], [ 4.6247799, 52.1284666 ], [ 4.6248345, 52.12836 ], [ 4.6248457, 52.1283383 ], [ 4.6248701, 52.1282919 ], [ 4.6249605, 52.1281126 ], [ 4.6250128, 52.1280111 ], [ 4.6251273, 52.1277978 ], [ 4.6252363, 52.1275882 ], [ 4.6253039, 52.1274583 ], [ 4.6253511, 52.1273688 ], [ 4.6254841, 52.1270899 ], [ 4.6255825, 52.1268802 ], [ 4.6256623, 52.126727 ], [ 4.6256947, 52.1266648 ], [ 4.6258006, 52.1264504 ], [ 4.6259588, 52.126149 ], [ 4.6261435, 52.1257849 ], [ 4.6261596, 52.1257534 ], [ 4.6262418, 52.1255934 ], [ 4.626388, 52.1253016 ], [ 4.6265823, 52.1249193 ], [ 4.6266854, 52.1247111 ], [ 4.6267371, 52.1246115 ], [ 4.6267418, 52.1246025 ], [ 4.6268701, 52.1243561 ], [ 4.6269914, 52.12414 ], [ 4.6271127, 52.1239331 ], [ 4.6271978, 52.1237822 ], [ 4.6273197, 52.1235735 ], [ 4.6274589, 52.1233303 ], [ 4.6275693, 52.1231293 ], [ 4.627667, 52.122958 ], [ 4.6277327, 52.1228385 ], [ 4.627746, 52.1228142 ], [ 4.6277774, 52.1227571 ], [ 4.6278821, 52.1225738 ], [ 4.6278945, 52.1225527 ], [ 4.6279425, 52.1224712 ], [ 4.6280264, 52.1223147 ], [ 4.6282161, 52.1219897 ], [ 4.628395, 52.1216706 ], [ 4.6284628, 52.1215543 ], [ 4.6285151, 52.121458 ], [ 4.6285276, 52.1214361 ], [ 4.6286188, 52.1212751 ], [ 4.628656, 52.1212095 ], [ 4.6287354, 52.1210579 ], [ 4.6287802, 52.1209754 ], [ 4.6288953, 52.1207674 ], [ 4.6290574, 52.1204756 ], [ 4.6292273, 52.1201721 ], [ 4.629345, 52.1199661 ], [ 4.629417, 52.1198403 ], [ 4.6294628, 52.1197602 ], [ 4.6296777, 52.1193617 ], [ 4.629907, 52.1189358 ], [ 4.6301569, 52.1184742 ], [ 4.6303711, 52.1180626 ], [ 4.6303987, 52.1180108 ], [ 4.6306075, 52.1176193 ], [ 4.6307764, 52.1172998 ], [ 4.6310274, 52.1168245 ], [ 4.6311895, 52.1165179 ], [ 4.6313544, 52.1162044 ], [ 4.6319306, 52.1151169 ], [ 4.6321142, 52.1147655 ], [ 4.632287, 52.1144402 ], [ 4.6324926, 52.1140495 ], [ 4.632684, 52.1136863 ], [ 4.6328525, 52.1133566 ], [ 4.6330232, 52.1130217 ], [ 4.6332109, 52.1126746 ], [ 4.6333908, 52.1123319 ], [ 4.6335865, 52.1119582 ], [ 4.6337343, 52.111679 ], [ 4.6337168, 52.1116736 ], [ 4.6337395, 52.111633 ], [ 4.6337742, 52.111571 ], [ 4.6338234, 52.1114715 ], [ 4.6339009, 52.1113218 ], [ 4.6339546, 52.1112159 ], [ 4.634044, 52.1110461 ], [ 4.6341215, 52.1108982 ], [ 4.6341916, 52.1107549 ], [ 4.6342721, 52.1105988 ], [ 4.6343555, 52.1104418 ], [ 4.6344435, 52.1102812 ], [ 4.6345255, 52.1101141 ], [ 4.6346254, 52.1099169 ], [ 4.6347341, 52.1097134 ], [ 4.6348117, 52.1095618 ], [ 4.6349115, 52.1093683 ], [ 4.6350069, 52.109194 ], [ 4.6350993, 52.1090169 ], [ 4.6352051, 52.1088124 ], [ 4.6353139, 52.1086079 ], [ 4.6354302, 52.1083843 ], [ 4.6355271, 52.108199 ], [ 4.6356045, 52.1080566 ], [ 4.635694, 52.107885 ], [ 4.635773, 52.1077343 ], [ 4.6358847, 52.1075344 ], [ 4.6359756, 52.1073683 ], [ 4.6360754, 52.1071793 ], [ 4.6361663, 52.1070114 ], [ 4.6363601, 52.1066435 ], [ 4.6364435, 52.1064892 ], [ 4.6365493, 52.106293 ], [ 4.6366417, 52.1061168 ], [ 4.6367505, 52.1059004 ], [ 4.6368742, 52.1056622 ], [ 4.6369755, 52.1054632 ], [ 4.6370769, 52.1052724 ], [ 4.6371603, 52.1051126 ], [ 4.6372468, 52.1049419 ], [ 4.637354, 52.1047512 ], [ 4.6374285, 52.1046133 ], [ 4.6374971, 52.1044773 ], [ 4.6375597, 52.1043605 ], [ 4.6376282, 52.1042317 ], [ 4.6376982, 52.1041085 ], [ 4.637734, 52.1040373 ], [ 4.637746, 52.1039834 ], [ 4.6378441, 52.1037944 ], [ 4.6378985, 52.1036938 ], [ 4.6379111, 52.1036705 ], [ 4.6379866, 52.1035239 ], [ 4.6380472, 52.103409 ], [ 4.6381177, 52.1032742 ], [ 4.6381651, 52.1031865 ], [ 4.6383109, 52.1029087 ], [ 4.6383864, 52.1027631 ], [ 4.6384652, 52.102612 ], [ 4.6385484, 52.1024591 ], [ 4.6386302, 52.1023063 ], [ 4.6387222, 52.1021262 ], [ 4.6387908, 52.1020005 ], [ 4.6388742, 52.1018449 ], [ 4.6389315, 52.1017363 ], [ 4.6389937, 52.1016196 ], [ 4.6390661, 52.1014766 ], [ 4.6391656, 52.1012958 ], [ 4.6392457, 52.1011447 ], [ 4.6393162, 52.1010099 ], [ 4.6393897, 52.1008742 ], [ 4.6394604, 52.1007349 ], [ 4.6395371, 52.1005947 ], [ 4.6396061, 52.1004608 ], [ 4.639685, 52.1003051 ], [ 4.639765, 52.1001595 ], [ 4.6398466, 52.1000094 ], [ 4.6399235, 52.0998646 ], [ 4.6399924, 52.0997316 ], [ 4.6401005, 52.0995272 ], [ 4.6401332, 52.0994666 ], [ 4.6401891, 52.0993571 ], [ 4.6402378, 52.0992712 ], [ 4.6403121, 52.0991242 ], [ 4.6402442, 52.0991099 ], [ 4.6403286, 52.0989524 ], [ 4.6403733, 52.098872 ], [ 4.6404575, 52.0987238 ], [ 4.6405239, 52.0985969 ], [ 4.6406318, 52.0984044 ], [ 4.6407244, 52.0982372 ], [ 4.6407309, 52.0982255 ], [ 4.6408206, 52.0980582 ], [ 4.6408992, 52.0979175 ], [ 4.6410596, 52.0976184 ], [ 4.6411336, 52.0974827 ], [ 4.6413702, 52.0975128 ], [ 4.6417309, 52.0975587 ], [ 4.6419675, 52.0975887 ], [ 4.6422532, 52.0976248 ], [ 4.6426368, 52.0976734 ], [ 4.6429109, 52.0977027 ], [ 4.6429481, 52.0977067 ], [ 4.6431714, 52.0977323 ], [ 4.6432751, 52.0977433 ], [ 4.6434991, 52.097767 ], [ 4.6437842, 52.0977998 ], [ 4.6438885, 52.0978118 ], [ 4.6441915, 52.0978521 ], [ 4.6442887, 52.0978647 ], [ 4.6444803, 52.0978896 ], [ 4.6447529, 52.0979163 ], [ 4.6450283, 52.0979429 ], [ 4.6452897, 52.0979681 ], [ 4.6457491, 52.0980161 ], [ 4.6460979, 52.098052 ], [ 4.6463574, 52.098077 ], [ 4.6465392, 52.0980953 ], [ 4.6468768, 52.0981292 ], [ 4.646901, 52.0981323 ], [ 4.6469066, 52.0981331 ], [ 4.6476201, 52.0982257 ], [ 4.6477287, 52.0982398 ], [ 4.6482179, 52.0982994 ], [ 4.6484077, 52.0983164 ], [ 4.648595, 52.0983438 ], [ 4.6489726, 52.0983872 ], [ 4.6491306, 52.0984058 ], [ 4.6492896, 52.0984245 ], [ 4.6495562, 52.098451 ], [ 4.6496696, 52.0984598 ], [ 4.6497103, 52.098463 ], [ 4.6501262, 52.0985086 ], [ 4.6501861, 52.0985152 ], [ 4.6504217, 52.0985384 ], [ 4.6506488, 52.0985658 ], [ 4.650998, 52.0985979 ], [ 4.6512689, 52.0986253 ], [ 4.6513102, 52.0986294 ], [ 4.6517154, 52.0986677 ], [ 4.6518767, 52.0986841 ], [ 4.6519181, 52.0986902 ], [ 4.6520964, 52.0987166 ], [ 4.6524493, 52.0987658 ], [ 4.652734, 52.0988082 ], [ 4.6529067, 52.0988325 ], [ 4.6529587, 52.0988403 ], [ 4.6530639, 52.0988559 ], [ 4.6531076, 52.0988624 ], [ 4.6533093, 52.0988923 ], [ 4.6537705, 52.0989609 ], [ 4.6537883, 52.0989635 ], [ 4.6540362, 52.0990003 ], [ 4.6540875, 52.0990079 ], [ 4.6541095, 52.0990295 ], [ 4.6542138, 52.0991319 ], [ 4.6542282, 52.099146 ], [ 4.6554531, 52.0989897 ], [ 4.6555424, 52.0989795 ], [ 4.6556067, 52.0989748 ], [ 4.6556473, 52.0989719 ], [ 4.6558015, 52.0989511 ], [ 4.6559276, 52.0989391 ], [ 4.6560934, 52.0989188 ], [ 4.6562318, 52.0989028 ], [ 4.6564806, 52.0988755 ], [ 4.6566272, 52.0988584 ], [ 4.6568291, 52.098836 ], [ 4.6569835, 52.0988178 ], [ 4.6571908, 52.0987951 ], [ 4.6573307, 52.0987836 ], [ 4.6574502, 52.0987728 ], [ 4.6574878, 52.0987697 ], [ 4.6575184, 52.0987672 ], [ 4.6576324, 52.0987557 ], [ 4.657753, 52.0987448 ], [ 4.657894, 52.0987315 ], [ 4.6580435, 52.0987189 ], [ 4.6581914, 52.0987037 ], [ 4.6583243, 52.0986914 ], [ 4.6584705, 52.0986781 ], [ 4.6586104, 52.098664 ], [ 4.6587729, 52.0986492 ], [ 4.6589222, 52.0986347 ], [ 4.6593297, 52.0985999 ], [ 4.6595601, 52.0985768 ], [ 4.6597373, 52.0985606 ], [ 4.6599789, 52.0985398 ], [ 4.6601831, 52.0985209 ], [ 4.660344, 52.0985066 ], [ 4.6605371, 52.0984897 ], [ 4.6607416, 52.0984709 ], [ 4.6609344, 52.0984543 ], [ 4.661322, 52.098419 ], [ 4.6614915, 52.0984031 ], [ 4.661654, 52.0983882 ], [ 4.6617244, 52.0983842 ], [ 4.6618402, 52.098379 ], [ 4.661965, 52.0983726 ], [ 4.6620614, 52.0983698 ], [ 4.6621518, 52.0983579 ], [ 4.6622238, 52.0983398 ], [ 4.6623287, 52.0983295 ], [ 4.6623314, 52.0983292 ], [ 4.66235, 52.0984155 ], [ 4.6624372, 52.0984091 ], [ 4.6625849, 52.0983993 ], [ 4.6628567, 52.0983803 ], [ 4.6629982, 52.0983681 ], [ 4.6630045, 52.0983674 ], [ 4.6630139, 52.0983664 ], [ 4.6632631, 52.0983409 ], [ 4.663464, 52.0983202 ], [ 4.6635198, 52.0983145 ], [ 4.6635467, 52.098474 ], [ 4.6635468, 52.0984749 ], [ 4.6636396, 52.0990244 ], [ 4.6636442, 52.0990516 ], [ 4.6636819, 52.0991703 ], [ 4.6637444, 52.0993665 ], [ 4.6638014, 52.0995457 ], [ 4.6639852, 52.0995215 ], [ 4.6647746, 52.0994178 ], [ 4.6648379, 52.0994095 ], [ 4.6651563, 52.0993676 ], [ 4.6652498, 52.0993506 ], [ 4.665431, 52.0993229 ], [ 4.66562, 52.099294 ], [ 4.6657424, 52.0992752 ], [ 4.6658084, 52.0992672 ], [ 4.6658835, 52.0992601 ], [ 4.6659653, 52.0992561 ], [ 4.6661634, 52.0992448 ], [ 4.6663321, 52.0992191 ], [ 4.6664543, 52.0991902 ], [ 4.6665123, 52.0991738 ], [ 4.6665186, 52.0991728 ], [ 4.666575, 52.0991643 ], [ 4.6666078, 52.0991607 ], [ 4.6666871, 52.0991519 ], [ 4.6669111, 52.0991254 ], [ 4.6669282, 52.0991213 ], [ 4.6669362, 52.0991194 ], [ 4.667024, 52.0991039 ], [ 4.6672289, 52.0990719 ], [ 4.6673939, 52.0990474 ], [ 4.6674939, 52.0990325 ], [ 4.6679356, 52.0989783 ], [ 4.6681327, 52.0989507 ], [ 4.6682634, 52.0989293 ], [ 4.6684393, 52.0989 ], [ 4.6686033, 52.0988701 ], [ 4.6687397, 52.0988482 ], [ 4.6688226, 52.0988367 ], [ 4.6690112, 52.0988227 ], [ 4.6691407, 52.0988087 ], [ 4.6693216, 52.098799 ], [ 4.6695211, 52.0987693 ], [ 4.6697091, 52.0987408 ], [ 4.6699015, 52.0987063 ], [ 4.6702106, 52.0986536 ], [ 4.6704147, 52.0986308 ], [ 4.6705525, 52.0986142 ], [ 4.6707929, 52.0985825 ], [ 4.6709124, 52.098564 ], [ 4.6711233, 52.0985206 ], [ 4.6712902, 52.0984903 ], [ 4.6715219, 52.0984595 ], [ 4.6717763, 52.0984247 ], [ 4.6719912, 52.0983972 ], [ 4.6720885, 52.0983891 ], [ 4.6721678, 52.0983824 ], [ 4.6723712, 52.0983688 ], [ 4.6725272, 52.0983541 ], [ 4.6727094, 52.0983261 ], [ 4.672908, 52.0982929 ], [ 4.6730947, 52.098259 ], [ 4.6732753, 52.0982365 ], [ 4.6734428, 52.0982208 ], [ 4.6735941, 52.0981993 ], [ 4.6737836, 52.0981651 ], [ 4.6739683, 52.098135 ], [ 4.6740996, 52.0981281 ], [ 4.6742751, 52.0981207 ], [ 4.6744264, 52.0980993 ], [ 4.6746885, 52.0980601 ], [ 4.6748303, 52.0980358 ], [ 4.6750161, 52.0979983 ], [ 4.6751934, 52.0979744 ], [ 4.6753538, 52.0979539 ], [ 4.675553, 52.0979351 ], [ 4.675789, 52.0979093 ], [ 4.6760922, 52.0978572 ], [ 4.6762176, 52.0978381 ], [ 4.6764628, 52.0978023 ], [ 4.6767086, 52.0977683 ], [ 4.6769592, 52.0977302 ], [ 4.6771831, 52.0977037 ], [ 4.6773602, 52.0976907 ], [ 4.6774728, 52.0976801 ], [ 4.6776274, 52.0976601 ], [ 4.6778303, 52.097632 ], [ 4.6781144, 52.097598 ], [ 4.678302, 52.0975676 ], [ 4.6784954, 52.0975494 ], [ 4.6786934, 52.0975254 ], [ 4.6788951, 52.0975046 ], [ 4.6790893, 52.0974772 ], [ 4.6792766, 52.0974578 ], [ 4.6794518, 52.0974377 ], [ 4.6796474, 52.0974157 ], [ 4.6798535, 52.097389 ], [ 4.6800795, 52.0973587 ], [ 4.6803376, 52.0973271 ], [ 4.6806642, 52.0972855 ], [ 4.6809615, 52.0972448 ], [ 4.6811583, 52.0972281 ], [ 4.6813929, 52.097197 ], [ 4.6816551, 52.0971578 ], [ 4.6818917, 52.0971228 ], [ 4.682126, 52.0971025 ], [ 4.6823926, 52.0970811 ], [ 4.6826508, 52.0970496 ], [ 4.6828318, 52.0970289 ], [ 4.6830933, 52.0969988 ], [ 4.6833366, 52.0969669 ], [ 4.6836276, 52.096925 ], [ 4.6839084, 52.0968894 ], [ 4.6842107, 52.0968574 ], [ 4.6845127, 52.0968235 ], [ 4.6850276, 52.0967644 ], [ 4.6850414, 52.0967629 ], [ 4.6851912, 52.0967375 ], [ 4.6852047, 52.0967353 ], [ 4.6852112, 52.0967342 ], [ 4.6853701, 52.0967182 ], [ 4.6855723, 52.0966977 ], [ 4.6857157, 52.0966803 ], [ 4.6858988, 52.0966571 ], [ 4.686138, 52.0966237 ], [ 4.6862998, 52.0966073 ], [ 4.6864176, 52.0965937 ], [ 4.6865395, 52.0965832 ], [ 4.6867106, 52.0965598 ], [ 4.6867117, 52.0965597 ], [ 4.6869605, 52.0965231 ], [ 4.6870791, 52.0965038 ], [ 4.6873169, 52.0964744 ], [ 4.6878094, 52.096413 ], [ 4.6880358, 52.0963852 ], [ 4.6882387, 52.0963665 ], [ 4.6884868, 52.0963485 ], [ 4.6886025, 52.096337 ], [ 4.6886055, 52.0963366 ], [ 4.6886798, 52.0963275 ], [ 4.6888431, 52.0963071 ], [ 4.68898, 52.0962888 ], [ 4.6891114, 52.0962714 ], [ 4.6892811, 52.0962446 ], [ 4.6893741, 52.096229 ], [ 4.6894757, 52.0962122 ], [ 4.6895956, 52.0961964 ], [ 4.6898178, 52.0961656 ], [ 4.6900109, 52.0961372 ], [ 4.6902245, 52.096115 ], [ 4.6904594, 52.096086 ], [ 4.6907816, 52.0960423 ], [ 4.6911046, 52.0960003 ], [ 4.691663, 52.0959385 ], [ 4.692076, 52.0958888 ], [ 4.6924613, 52.095845 ], [ 4.6927571, 52.0958107 ], [ 4.6929167, 52.0957965 ], [ 4.69308, 52.0957762 ], [ 4.6933518, 52.0957417 ], [ 4.6936059, 52.095708 ], [ 4.6937706, 52.0956838 ], [ 4.6937736, 52.0956834 ], [ 4.6939395, 52.0956626 ], [ 4.69408, 52.0956456 ], [ 4.6941943, 52.0956307 ], [ 4.6942808, 52.0956216 ], [ 4.6943724, 52.09561 ], [ 4.6943752, 52.0956098 ], [ 4.6946028, 52.0955927 ], [ 4.6947099, 52.0955825 ], [ 4.6948178, 52.0955666 ], [ 4.6949293, 52.0955521 ], [ 4.6951033, 52.0955209 ], [ 4.6952595, 52.0954979 ], [ 4.6954078, 52.0954779 ], [ 4.6956463, 52.0954498 ], [ 4.6956604, 52.0954482 ], [ 4.6959448, 52.095423 ], [ 4.6962176, 52.0953754 ], [ 4.6965765, 52.0953281 ], [ 4.6965774, 52.095328 ], [ 4.6966896, 52.0953152 ], [ 4.6968052, 52.0953037 ], [ 4.6968796, 52.095302 ], [ 4.6969625, 52.095299 ], [ 4.6970389, 52.0953026 ], [ 4.6970456, 52.095303 ], [ 4.6970665, 52.0953041 ], [ 4.6971352, 52.0953032 ], [ 4.6972273, 52.0953008 ], [ 4.6975179, 52.0951988 ], [ 4.6976316, 52.0951669 ], [ 4.697648, 52.0951919 ], [ 4.6976704, 52.0952116 ], [ 4.6978625, 52.095154 ], [ 4.698032, 52.0951196 ], [ 4.6981951, 52.0951042 ], [ 4.6984612, 52.0950728 ], [ 4.6988314, 52.0950563 ], [ 4.6988602, 52.0950549 ], [ 4.6990569, 52.0950448 ], [ 4.6992905, 52.0950313 ], [ 4.6996662, 52.0950037 ], [ 4.6998277, 52.0950003 ], [ 4.6999823, 52.0950007 ], [ 4.7000182, 52.0949966 ], [ 4.7002229, 52.0949737 ], [ 4.7004051, 52.0949827 ], [ 4.7005628, 52.0949686 ], [ 4.7006858, 52.0949593 ], [ 4.7007893, 52.0949491 ], [ 4.7009703, 52.0949273 ], [ 4.7011714, 52.0949218 ], [ 4.7013307, 52.0949184 ], [ 4.7013764, 52.0949174 ], [ 4.7017466, 52.0949008 ], [ 4.7020562, 52.0948878 ], [ 4.702401, 52.0948756 ], [ 4.7024816, 52.0948783 ], [ 4.7025523, 52.0948807 ], [ 4.7027182, 52.0948743 ], [ 4.703141, 52.0948563 ], [ 4.70376, 52.0948205 ], [ 4.7042593, 52.0948087 ], [ 4.7045216, 52.094786 ], [ 4.7046235, 52.0947781 ], [ 4.7046431, 52.0947748 ], [ 4.7047936, 52.0947493 ], [ 4.7048769, 52.0947131 ], [ 4.7049658, 52.0946457 ], [ 4.7050706, 52.0946586 ], [ 4.7050822, 52.0946964 ], [ 4.705063, 52.0947339 ], [ 4.70504, 52.0947714 ], [ 4.7050366, 52.0947771 ], [ 4.7049911, 52.0948512 ], [ 4.7047318, 52.0952409 ], [ 4.7060088, 52.095525 ], [ 4.7066308, 52.0956526 ], [ 4.7074116, 52.0958299 ], [ 4.7095778, 52.0963068 ], [ 4.7102063, 52.096445 ], [ 4.7102367, 52.0964517 ], [ 4.7120053, 52.0968405 ], [ 4.7136276, 52.0971974 ], [ 4.7142897, 52.0973421 ], [ 4.7142909, 52.0973424 ], [ 4.7143423, 52.0973548 ], [ 4.7143476, 52.0973561 ], [ 4.7145274, 52.0973996 ], [ 4.7145291, 52.0973999 ], [ 4.7158824, 52.0976931 ], [ 4.719976, 52.0985796 ], [ 4.7200959, 52.098604 ], [ 4.7222531, 52.0990945 ], [ 4.7225579, 52.0991625 ], [ 4.7225777, 52.0991669 ], [ 4.7235192, 52.0993767 ], [ 4.7240986, 52.0995059 ], [ 4.7241046, 52.0995072 ], [ 4.7243092, 52.0995523 ], [ 4.724344, 52.0995598 ], [ 4.7245175, 52.0995994 ], [ 4.7236478, 52.1003581 ], [ 4.7230662, 52.1008237 ], [ 4.7224307, 52.1012948 ], [ 4.7217534, 52.1017562 ], [ 4.7210737, 52.1021553 ], [ 4.7202467, 52.1026022 ], [ 4.7195411, 52.1021077 ], [ 4.7158963, 52.1026802 ], [ 4.7125346, 52.1044946 ], [ 4.7129262, 52.105136 ], [ 4.7066177, 52.1065877 ], [ 4.7082998, 52.1084319 ], [ 4.7099964, 52.1100728 ], [ 4.7119578, 52.1103868 ], [ 4.7125222, 52.1101723 ], [ 4.7131009, 52.1099953 ], [ 4.7139535, 52.109785 ], [ 4.7146041, 52.1096257 ], [ 4.7153562, 52.1094436 ], [ 4.7161721, 52.1092573 ], [ 4.7170811, 52.1090616 ], [ 4.7178832, 52.1088887 ], [ 4.7184862, 52.1087613 ], [ 4.7190611, 52.1086012 ], [ 4.7195054, 52.1084542 ], [ 4.7199992, 52.108286 ], [ 4.7207226, 52.107996 ], [ 4.7210929, 52.1087454 ], [ 4.7221214, 52.1085576 ], [ 4.7230396, 52.1097013 ], [ 4.7238179, 52.1106526 ], [ 4.7233434, 52.110799 ], [ 4.7225761, 52.1098472 ], [ 4.7200682, 52.1105926 ], [ 4.7107061, 52.1143404 ], [ 4.7119658, 52.1165857 ], [ 4.7115538, 52.1167455 ], [ 4.7094562, 52.1153573 ], [ 4.7050923, 52.1160657 ], [ 4.7047849, 52.1161803 ], [ 4.703381, 52.1166444 ], [ 4.7030207, 52.1167466 ], [ 4.7020779, 52.1170725 ], [ 4.700742, 52.1175144 ], [ 4.7005238, 52.1172643 ], [ 4.6997959, 52.1174867 ], [ 4.6996742, 52.117346 ], [ 4.6989648, 52.1175685 ], [ 4.6989234, 52.1175803 ], [ 4.6982114, 52.117782 ], [ 4.698215, 52.1177862 ], [ 4.6979774, 52.1178594 ], [ 4.6975685, 52.1179919 ], [ 4.6975971, 52.1180254 ], [ 4.6972802, 52.1181221 ], [ 4.6946973, 52.1189403 ], [ 4.6942775, 52.1190783 ], [ 4.6942686, 52.1190812 ], [ 4.6937562, 52.1192496 ], [ 4.6933752, 52.1193748 ], [ 4.6928386, 52.1195511 ], [ 4.692509, 52.1197218 ], [ 4.6924442, 52.1197419 ], [ 4.6924194, 52.1197125 ], [ 4.6907339, 52.1194112 ], [ 4.6834187, 52.1193689 ], [ 4.6780531, 52.1200285 ], [ 4.676582, 52.1202629 ], [ 4.6757477, 52.1205648 ], [ 4.6765077, 52.1213293 ], [ 4.6779512, 52.1227605 ], [ 4.6791852, 52.1239882 ], [ 4.6805224, 52.1252312 ], [ 4.681702, 52.1263094 ], [ 4.6826537, 52.1272228 ], [ 4.6837942, 52.1283151 ], [ 4.6847298, 52.1292717 ], [ 4.6860239, 52.1305852 ], [ 4.6871067, 52.1317404 ], [ 4.6878733, 52.1325399 ], [ 4.68858, 52.1332622 ], [ 4.6892949, 52.1339722 ], [ 4.6905002, 52.1349772 ], [ 4.6916527, 52.1358174 ], [ 4.6929976, 52.1367696 ], [ 4.6945821, 52.137861 ], [ 4.6958726, 52.1387496 ], [ 4.6985275, 52.1405467 ], [ 4.7009496, 52.1421578 ], [ 4.7025692, 52.1432407 ], [ 4.7031176, 52.1436146 ], [ 4.7034908, 52.143945 ], [ 4.70377, 52.1442707 ], [ 4.7038006, 52.1446201 ], [ 4.7041091, 52.1452337 ], [ 4.7041712, 52.1453914 ], [ 4.7042022, 52.145454 ], [ 4.7042126, 52.1455138 ], [ 4.7041962, 52.1456204 ], [ 4.7041413, 52.1461703 ], [ 4.7041363, 52.1463761 ], [ 4.7041028, 52.1466599 ], [ 4.7040961, 52.1467919 ], [ 4.7041012, 52.146887 ], [ 4.7041089, 52.1469591 ], [ 4.7041251, 52.147007 ], [ 4.704139, 52.1471543 ], [ 4.7041378, 52.1472221 ], [ 4.7040752, 52.1474676 ], [ 4.7040469, 52.1475315 ], [ 4.7040665, 52.1476115 ], [ 4.7040926, 52.1477032 ], [ 4.7041044, 52.1478192 ], [ 4.7041223, 52.1478832 ], [ 4.7041304, 52.1479473 ], [ 4.704165, 52.1480975 ], [ 4.7041981, 52.1481938 ], [ 4.7042162, 52.1482413 ], [ 4.7042356, 52.148279 ], [ 4.7042955, 52.1483723 ], [ 4.704339, 52.1484573 ], [ 4.7043824, 52.1485315 ], [ 4.7044702, 52.1486615 ], [ 4.7044967, 52.1487035 ], [ 4.704554, 52.1487938 ], [ 4.7045835, 52.1488712 ], [ 4.7046694, 52.1490515 ], [ 4.7047464, 52.1492116 ], [ 4.7047764, 52.1492578 ], [ 4.704856, 52.1493717 ], [ 4.7049312, 52.1495181 ], [ 4.7050314, 52.149706 ], [ 4.7051108, 52.1498941 ], [ 4.7051661, 52.1499885 ], [ 4.7052611, 52.1502101 ], [ 4.7054014, 52.150498 ], [ 4.70546, 52.1506021 ], [ 4.7055524, 52.1508175 ], [ 4.705553, 52.1508187 ], [ 4.7056811, 52.1511234 ], [ 4.7057354, 52.1512643 ], [ 4.7057736, 52.151357 ], [ 4.7058131, 52.1514505 ], [ 4.7058364, 52.1515113 ], [ 4.7058675, 52.1515718 ], [ 4.7058983, 52.1516324 ], [ 4.705927, 52.1516781 ], [ 4.7059293, 52.151682 ], [ 4.7057608, 52.1517345 ], [ 4.7057592, 52.1517285 ], [ 4.7055033, 52.1518428 ], [ 4.7054408, 52.1519701 ], [ 4.7054163, 52.1519771 ], [ 4.7053713, 52.1520135 ], [ 4.7054836, 52.1520663 ], [ 4.7055534, 52.1520893 ], [ 4.7055559, 52.1520901 ], [ 4.7056042, 52.1521229 ], [ 4.7056727, 52.1521566 ], [ 4.7055888, 52.1522879 ], [ 4.7048655, 52.1528855 ], [ 4.7043154, 52.153322 ], [ 4.7020912, 52.1551248 ], [ 4.7010452, 52.1559678 ], [ 4.7006567, 52.1562728 ], [ 4.7003273, 52.1565725 ], [ 4.6999476, 52.1568076 ], [ 4.6998815, 52.1568493 ], [ 4.6997685, 52.1569157 ], [ 4.6997419, 52.1569534 ], [ 4.6997319, 52.1569729 ], [ 4.699731, 52.1569995 ], [ 4.6997572, 52.1570164 ], [ 4.699743, 52.1570566 ], [ 4.6997178, 52.1571012 ], [ 4.6996887, 52.1571384 ], [ 4.6996387, 52.1571812 ], [ 4.6995256, 52.1572616 ], [ 4.6992117, 52.1575061 ], [ 4.6990332, 52.1576599 ], [ 4.6989316, 52.1577475 ], [ 4.6985636, 52.158044 ], [ 4.6983475, 52.1582254 ], [ 4.6982436, 52.1583388 ], [ 4.6982299, 52.1583595 ], [ 4.6982142, 52.1583897 ], [ 4.6982026, 52.1584271 ], [ 4.698207, 52.1585009 ], [ 4.6982177, 52.158528 ], [ 4.6981734, 52.1585307 ], [ 4.6976143, 52.1585646 ], [ 4.6974582, 52.1586528 ], [ 4.6966105, 52.1591318 ], [ 4.6963356, 52.1592841 ], [ 4.6952787, 52.159884 ], [ 4.6950458, 52.1600129 ], [ 4.6950438, 52.160014 ], [ 4.6949987, 52.1600389 ], [ 4.6948615, 52.1599784 ], [ 4.6948274, 52.1599634 ], [ 4.694775, 52.1599402 ], [ 4.6945486, 52.1601095 ], [ 4.6941876, 52.1603749 ], [ 4.6940932, 52.1604412 ], [ 4.6937806, 52.1606611 ], [ 4.6930349, 52.1610829 ], [ 4.6912866, 52.1620693 ], [ 4.6912233, 52.162105 ], [ 4.6912175, 52.1621082 ], [ 4.6906083, 52.1624477 ], [ 4.6905585, 52.1624754 ], [ 4.6899779, 52.162799 ], [ 4.6899234, 52.1628294 ], [ 4.6893377, 52.1631557 ], [ 4.6877799, 52.1640237 ], [ 4.6877461, 52.1640426 ], [ 4.6863085, 52.1648493 ], [ 4.685901, 52.165078 ], [ 4.685634, 52.1652267 ], [ 4.6845726, 52.1658183 ], [ 4.6844958, 52.1658294 ], [ 4.6844298, 52.1658397 ], [ 4.6843927, 52.1658512 ], [ 4.6843514, 52.1658686 ], [ 4.6843503, 52.1658692 ], [ 4.6842556, 52.1659185 ], [ 4.6842318, 52.1659309 ], [ 4.6830353, 52.1665538 ], [ 4.6824673, 52.1668495 ], [ 4.6812654, 52.1674751 ], [ 4.6812094, 52.1675042 ], [ 4.6809324, 52.1665412 ], [ 4.6798423, 52.1627497 ], [ 4.6798411, 52.1627454 ], [ 4.67979, 52.1627443 ], [ 4.6791997, 52.1627315 ], [ 4.6791839, 52.1627312 ], [ 4.678554, 52.1627175 ], [ 4.6779078, 52.1627035 ], [ 4.6773452, 52.1626913 ], [ 4.6772692, 52.1626897 ], [ 4.6766342, 52.1626759 ], [ 4.6761279, 52.1626649 ], [ 4.6753658, 52.1626484 ], [ 4.674191, 52.1626229 ], [ 4.6736901, 52.162612 ], [ 4.6730789, 52.1625987 ], [ 4.6730157, 52.1625974 ], [ 4.6724755, 52.1625856 ], [ 4.6718626, 52.1625723 ], [ 4.6718345, 52.1625717 ], [ 4.6712418, 52.1625588 ], [ 4.6710605, 52.1625549 ], [ 4.6706318, 52.1625456 ], [ 4.6706272, 52.1625455 ], [ 4.670034, 52.1625326 ], [ 4.6694277, 52.1625194 ], [ 4.6688102, 52.1625059 ], [ 4.6682021, 52.1624927 ], [ 4.6666257, 52.1624584 ], [ 4.6663388, 52.1624522 ], [ 4.6657404, 52.1624424 ], [ 4.6657199, 52.1624421 ], [ 4.6647033, 52.1624192 ], [ 4.6605695, 52.1623288 ], [ 4.6603133, 52.1623232 ], [ 4.6564502, 52.1622385 ], [ 4.6551027, 52.162209 ], [ 4.6550445, 52.1622077 ], [ 4.6491463, 52.1620849 ], [ 4.6444771, 52.1619854 ], [ 4.6442906, 52.1619825 ], [ 4.6441465, 52.1619802 ], [ 4.643814, 52.161975 ], [ 4.6431523, 52.1619647 ], [ 4.6426656, 52.1619542 ], [ 4.6426487, 52.1619539 ], [ 4.6426067, 52.161953 ], [ 4.6425458, 52.161947 ], [ 4.6425098, 52.1619435 ], [ 4.6419087, 52.161885 ], [ 4.6418919, 52.1618834 ], [ 4.6418567, 52.1618781 ], [ 4.6418408, 52.1618757 ], [ 4.6417704, 52.161865 ], [ 4.6414188, 52.161804 ], [ 4.6411975, 52.1617655 ], [ 4.6411872, 52.1617639 ], [ 4.6411843, 52.1617634 ], [ 4.6411035, 52.1617535 ], [ 4.6406951, 52.1617037 ], [ 4.6403242, 52.1616585 ], [ 4.6402733, 52.1616578 ], [ 4.640261, 52.1616576 ], [ 4.6402469, 52.161656 ], [ 4.6401907, 52.1616495 ], [ 4.6401795, 52.1616482 ], [ 4.6401713, 52.1616473 ], [ 4.6401313, 52.1616427 ], [ 4.6400386, 52.161632 ], [ 4.6398719, 52.1616098 ], [ 4.6378454, 52.1613405 ], [ 4.6375313, 52.1612987 ], [ 4.6374875, 52.1612929 ], [ 4.6372095, 52.1612516 ], [ 4.6367017, 52.1611762 ], [ 4.6362196, 52.1611046 ], [ 4.635857, 52.1610508 ], [ 4.6355203, 52.1610008 ], [ 4.6350499, 52.1609309 ], [ 4.634982, 52.1609208 ], [ 4.6349329, 52.1609135 ], [ 4.6343789, 52.1608312 ], [ 4.6339553, 52.1607683 ], [ 4.6335398, 52.1607066 ], [ 4.6327475, 52.1605988 ], [ 4.6319287, 52.1604924 ], [ 4.6314479, 52.1604299 ], [ 4.6309725, 52.1603681 ], [ 4.6305737, 52.1603163 ], [ 4.6301738, 52.1602643 ], [ 4.62974, 52.1602079 ], [ 4.6293047, 52.1601513 ], [ 4.6286768, 52.1600664 ], [ 4.6285415, 52.1600481 ], [ 4.6282325, 52.1600063 ], [ 4.6277559, 52.1599419 ], [ 4.627325, 52.1598837 ], [ 4.6272596, 52.1598748 ], [ 4.6271585, 52.1598611 ], [ 4.6268547, 52.1598179 ], [ 4.6263849, 52.1597511 ], [ 4.6258875, 52.1596804 ], [ 4.6258563, 52.1596759 ], [ 4.6254197, 52.1596138 ], [ 4.6247291, 52.1595156 ], [ 4.6240518, 52.1594192 ], [ 4.623502, 52.159341 ], [ 4.6235017, 52.159341 ], [ 4.6227458, 52.1592334 ], [ 4.6227202, 52.1592298 ], [ 4.6221294, 52.1591463 ], [ 4.6216046, 52.1590721 ], [ 4.621134, 52.1590055 ], [ 4.6207831, 52.1589558 ], [ 4.6207812, 52.1589555 ], [ 4.6190326, 52.1587078 ], [ 4.6190934, 52.1585704 ], [ 4.6193106, 52.1583068 ], [ 4.6194156, 52.1581914 ], [ 4.6195323, 52.1580804 ], [ 4.6196223, 52.1580164 ], [ 4.6197429, 52.1579455 ], [ 4.6200788, 52.157763 ], [ 4.620116, 52.1577314 ], [ 4.6201429, 52.1576904 ], [ 4.6202341, 52.1574752 ], [ 4.6202457, 52.1572156 ], [ 4.6202228, 52.1571945 ], [ 4.6202198, 52.1571739 ], [ 4.6202051, 52.1570717 ], [ 4.6202, 52.156844 ], [ 4.620193, 52.1566668 ], [ 4.620091, 52.1556115 ], [ 4.6200814, 52.1553691 ], [ 4.6201386, 52.155229 ], [ 4.6201315, 52.155162 ], [ 4.620104, 52.1550986 ], [ 4.6200582, 52.1550627 ], [ 4.620038, 52.1549962 ], [ 4.6200583, 52.1549561 ], [ 4.620031, 52.1548167 ], [ 4.6200126, 52.1548015 ], [ 4.6199909, 52.154505 ], [ 4.6197296, 52.1534627 ], [ 4.6196036, 52.1530013 ], [ 4.6195222, 52.1526753 ], [ 4.6192168, 52.1514513 ], [ 4.6192022, 52.1513726 ], [ 4.6191343, 52.1511901 ], [ 4.6190699, 52.1508455 ], [ 4.6190298, 52.1508328 ], [ 4.6190107, 52.1507878 ], [ 4.6190516, 52.1507785 ], [ 4.6190152, 52.1506117 ], [ 4.6190428, 52.1504377 ], [ 4.6190461, 52.1503775 ], [ 4.6190374, 52.1503151 ], [ 4.6190151, 52.1502709 ], [ 4.6189566, 52.1501978 ], [ 4.6188969, 52.1501413 ], [ 4.6187856, 52.1497318 ], [ 4.6187196, 52.1495848 ], [ 4.6184868, 52.1486569 ], [ 4.6184122, 52.1483142 ], [ 4.6183731, 52.1481736 ], [ 4.6181467, 52.1473605 ], [ 4.6181401, 52.147335 ], [ 4.6179333, 52.1468983 ], [ 4.6179183, 52.1468226 ] ] ] } }
]
}
