{
"type": "FeatureCollection",
"name": "arnhem_nl",
"crs": { "type": "name", "properties": { "name": "urn:ogc:def:crs:OGC:1.3:CRS84" } },
"features": [
{ "type": "Feature", "properties": { "bbox_west": 5.8029606, "bbox_south": 51.9334642, "bbox_east": 5.9903401, "bbox_north": 52.0778905, "place_id": 152513373, "osm_type": "relation", "osm_id": 418700, "lat": 51.984257, "lon": 5.9108573, "class": "boundary", "type": "administrative", "place_rank": 14, "importance": 0.64267397325813036, "addresstype": "city", "name": "Arnhem", "display_name": "Arnhem, Gelderland, Netherlands" }, "geometry": { "type": "Polygon", "coordinates": [ [ [ 5.8029606, 52.0040541 ], [ 5.8058156, 52.0033862 ], [ 5.8063217, 52.0032678 ], [ 5.8070043, 52.0031081 ], [ 5.8095276, 52.0027252 ], [ 5.8099118, 52.0026669 ], [ 5.8126252, 52.0022501 ], [ 5.8127847, 52.0022247 ], [ 5.812804, 52.0022211 ], [ 5.8130062, 52.0021849 ], [ 5.8132282, 52.0021426 ], [ 5.8134781, 52.0021037 ], [ 5.8135019, 52.0020988 ], [ 5.8140476, 52.0020156 ], [ 5.8151672, 52.0018119 ], [ 5.8153812, 52.0017729 ], [ 5.8163669, 52.0015925 ], [ 5.8165891, 52.0015518 ], [ 5.8172477, 52.0014312 ], [ 5.8188267, 52.0011243 ], [ 5.8200275, 52.0008711 ], [ 5.8203392, 52.0008054 ], [ 5.8203737, 52.0007981 ], [ 5.8221903, 52.0004132 ], [ 5.8238898, 52.0000505 ], [ 5.8240642, 52.0000118 ], [ 5.8250459, 51.9997944 ], [ 5.8250545, 51.9997925 ], [ 5.825181, 51.9997645 ], [ 5.8262759, 51.9995557 ], [ 5.8269253, 51.9994854 ], [ 5.8276253, 51.9994096 ], [ 5.8293959, 51.9992093 ], [ 5.8303079, 51.9991059 ], [ 5.8314035, 51.9989817 ], [ 5.83171, 51.9989492 ], [ 5.8317752, 51.9989413 ], [ 5.8335259, 51.9987472 ], [ 5.8338075, 51.9987174 ], [ 5.8342028, 51.9986922 ], [ 5.8343494, 51.9986783 ], [ 5.834392, 51.9986753 ], [ 5.8354652, 51.9986105 ], [ 5.8362948, 51.9985592 ], [ 5.8371162, 51.9986 ], [ 5.8373102, 51.9986062 ], [ 5.8386125, 51.9986372 ], [ 5.8387896, 51.9986428 ], [ 5.8390583, 51.9986506 ], [ 5.8391772, 51.9986552 ], [ 5.8402904, 51.9986927 ], [ 5.8405378, 51.9986952 ], [ 5.8407559, 51.998684 ], [ 5.8426402, 51.998587 ], [ 5.8440007, 51.9985185 ], [ 5.8440376, 51.998517 ], [ 5.84414, 51.9985124 ], [ 5.8441895, 51.9985099 ], [ 5.8450527, 51.9984661 ], [ 5.8462625, 51.9984046 ], [ 5.846263, 51.9984046 ], [ 5.8466692, 51.9983718 ], [ 5.8467673, 51.9983685 ], [ 5.8471221, 51.9983567 ], [ 5.8473074, 51.998331 ], [ 5.8473974, 51.9983184 ], [ 5.8481259, 51.9982223 ], [ 5.849045, 51.9981142 ], [ 5.8496729, 51.9980397 ], [ 5.8506972, 51.9976725 ], [ 5.851266, 51.9974751 ], [ 5.851841, 51.9972754 ], [ 5.8520525, 51.997199 ], [ 5.8520618, 51.9971958 ], [ 5.8521396, 51.9971689 ], [ 5.8522715, 51.9971232 ], [ 5.8523465, 51.9970981 ], [ 5.8524167, 51.9970746 ], [ 5.8524566, 51.9970636 ], [ 5.852465, 51.9970614 ], [ 5.8527746, 51.9969797 ], [ 5.8533291, 51.9968412 ], [ 5.853377, 51.9968293 ], [ 5.8534362, 51.9968145 ], [ 5.8544811, 51.9965477 ], [ 5.8546792, 51.9964966 ], [ 5.8558144, 51.996204 ], [ 5.8559243, 51.9961757 ], [ 5.8561868, 51.996108 ], [ 5.856195, 51.9961059 ], [ 5.856213, 51.9961013 ], [ 5.8563416, 51.9960983 ], [ 5.8564282, 51.9960963 ], [ 5.8564365, 51.9960961 ], [ 5.8565505, 51.9960934 ], [ 5.8565793, 51.9960928 ], [ 5.8591793, 51.9960324 ], [ 5.8592154, 51.9960315 ], [ 5.8604934, 51.9960018 ], [ 5.8609195, 51.9959919 ], [ 5.8633588, 51.9958979 ], [ 5.8633851, 51.9958969 ], [ 5.8637396, 51.99589 ], [ 5.8637341, 51.9958598 ], [ 5.8637327, 51.9958384 ], [ 5.8636724, 51.9956152 ], [ 5.8636725, 51.9956152 ], [ 5.8636727, 51.9956152 ], [ 5.8636671, 51.9955932 ], [ 5.8636119, 51.995378 ], [ 5.8635333, 51.9950654 ], [ 5.863454, 51.9947466 ], [ 5.8633821, 51.9944647 ], [ 5.8633285, 51.9942609 ], [ 5.8632288, 51.9938713 ], [ 5.8631821, 51.9936813 ], [ 5.8631506, 51.9935531 ], [ 5.8630426, 51.9931858 ], [ 5.8630125, 51.9930182 ], [ 5.8629494, 51.99278 ], [ 5.8628912, 51.9925518 ], [ 5.8628592, 51.9924254 ], [ 5.8628342, 51.9923268 ], [ 5.8627892, 51.9921542 ], [ 5.8627099, 51.9918429 ], [ 5.8626304, 51.991527 ], [ 5.8625916, 51.991358 ], [ 5.8625601, 51.991221 ], [ 5.8628902, 51.9912004 ], [ 5.8629267, 51.9911981 ], [ 5.862931, 51.9911979 ], [ 5.8645535, 51.9910944 ], [ 5.8645882, 51.9910914 ], [ 5.8647025, 51.9910815 ], [ 5.8647002, 51.9910529 ], [ 5.8644264, 51.990089 ], [ 5.864375, 51.989902 ], [ 5.86437, 51.9898865 ], [ 5.8643539, 51.9898248 ], [ 5.8643001, 51.989619 ], [ 5.864278, 51.9895346 ], [ 5.8642327, 51.9893534 ], [ 5.8641868, 51.9891786 ], [ 5.8640942, 51.9888131 ], [ 5.8640738, 51.9887358 ], [ 5.8640577, 51.988675 ], [ 5.8640525, 51.9886552 ], [ 5.864052, 51.9886536 ], [ 5.8639552, 51.9882656 ], [ 5.8638712, 51.9879271 ], [ 5.8638332, 51.987774 ], [ 5.8638217, 51.9877345 ], [ 5.8638137, 51.9877075 ], [ 5.8638107, 51.9876974 ], [ 5.8637889, 51.9876245 ], [ 5.8637392, 51.9874577 ], [ 5.8637152, 51.9873774 ], [ 5.8637122, 51.9873673 ], [ 5.8637029, 51.987336 ], [ 5.8637008, 51.9873293 ], [ 5.8636856, 51.9872922 ], [ 5.8633268, 51.9859209 ], [ 5.8632918, 51.9857853 ], [ 5.8632512, 51.985653 ], [ 5.863249, 51.9856532 ], [ 5.8631922, 51.985443 ], [ 5.8631919, 51.9854418 ], [ 5.8631892, 51.9854325 ], [ 5.8631539, 51.9852905 ], [ 5.8638162, 51.9851659 ], [ 5.8641442, 51.9850302 ], [ 5.8641983, 51.9850076 ], [ 5.8645973, 51.9848414 ], [ 5.8648246, 51.9847467 ], [ 5.8650185, 51.9846639 ], [ 5.8650549, 51.9846483 ], [ 5.8650727, 51.9846407 ], [ 5.865083, 51.9846363 ], [ 5.8653748, 51.9845116 ], [ 5.8654523, 51.9844785 ], [ 5.8654864, 51.9844639 ], [ 5.8655056, 51.9844557 ], [ 5.8655035, 51.9844509 ], [ 5.8655096, 51.9844364 ], [ 5.8655222, 51.9844205 ], [ 5.865545, 51.9844052 ], [ 5.8655585, 51.9843929 ], [ 5.8655876, 51.9843793 ], [ 5.8660791, 51.9841715 ], [ 5.8661269, 51.9841513 ], [ 5.8661282, 51.9841465 ], [ 5.8661756, 51.9841473 ], [ 5.8661784, 51.9841547 ], [ 5.8662371, 51.9841123 ], [ 5.8662186, 51.9840065 ], [ 5.866296, 51.9837552 ], [ 5.8663254, 51.9836814 ], [ 5.8663326, 51.9836523 ], [ 5.8663689, 51.9835788 ], [ 5.8663933, 51.9835439 ], [ 5.8664092, 51.9835152 ], [ 5.8664352, 51.9834731 ], [ 5.8664775, 51.9834224 ], [ 5.8665255, 51.983365 ], [ 5.8666066, 51.9831847 ], [ 5.8666376, 51.9829961 ], [ 5.8667108, 51.9825506 ], [ 5.8667134, 51.9825164 ], [ 5.8667316, 51.9823155 ], [ 5.8667803, 51.9822414 ], [ 5.8668628, 51.9820936 ], [ 5.8669572, 51.9819192 ], [ 5.8670138, 51.9817958 ], [ 5.867045, 51.9816619 ], [ 5.8670555, 51.9815771 ], [ 5.8670639, 51.9815064 ], [ 5.8670748, 51.9814368 ], [ 5.8670885, 51.9813735 ], [ 5.8670975, 51.9813336 ], [ 5.8671314, 51.9811827 ], [ 5.8671463, 51.9810989 ], [ 5.8672001, 51.9808587 ], [ 5.8672012, 51.9806935 ], [ 5.8672237, 51.9805734 ], [ 5.8672273, 51.9805641 ], [ 5.8672291, 51.9805599 ], [ 5.8672774, 51.9804609 ], [ 5.8673189, 51.9803761 ], [ 5.8673671, 51.9803122 ], [ 5.8673698, 51.98029 ], [ 5.867358, 51.9802692 ], [ 5.8673365, 51.9802391 ], [ 5.8673285, 51.980227 ], [ 5.8673244, 51.9802113 ], [ 5.8673135, 51.9801678 ], [ 5.8673025, 51.9801506 ], [ 5.8672839, 51.9801356 ], [ 5.8672388, 51.9801327 ], [ 5.8671533, 51.9801273 ], [ 5.8670722, 51.9801138 ], [ 5.8667783, 51.9801124 ], [ 5.8667359, 51.9801169 ], [ 5.8666874, 51.9801147 ], [ 5.8666701, 51.9801093 ], [ 5.8666373, 51.9800946 ], [ 5.8665676, 51.9800585 ], [ 5.8664391, 51.980038 ], [ 5.8664287, 51.9800363 ], [ 5.8661329, 51.9799601 ], [ 5.8658578, 51.9798675 ], [ 5.8658873, 51.9798126 ], [ 5.8658969, 51.9797752 ], [ 5.8658823, 51.9797608 ], [ 5.8658764, 51.9797549 ], [ 5.8658009, 51.9797092 ], [ 5.865802, 51.9796539 ], [ 5.8657965, 51.9796101 ], [ 5.8657883, 51.9795799 ], [ 5.8657801, 51.9795528 ], [ 5.8657599, 51.9795038 ], [ 5.8657524, 51.9794807 ], [ 5.865733, 51.9794643 ], [ 5.865698, 51.9793894 ], [ 5.8656061, 51.9791635 ], [ 5.8655384, 51.9789372 ], [ 5.8655373, 51.978932 ], [ 5.8654749, 51.9786507 ], [ 5.864874, 51.9783893 ], [ 5.864144, 51.9780476 ], [ 5.8638072, 51.9779765 ], [ 5.8637369, 51.9779647 ], [ 5.8637971, 51.977867 ], [ 5.8639215, 51.9776406 ], [ 5.8641286, 51.977288 ], [ 5.8643447, 51.9769155 ], [ 5.8646324, 51.9764178 ], [ 5.8646507, 51.9763858 ], [ 5.8647167, 51.9762714 ], [ 5.8647374, 51.9762655 ], [ 5.8648298, 51.9762387 ], [ 5.8648749, 51.9762256 ], [ 5.864905, 51.9762169 ], [ 5.8649986, 51.9761898 ], [ 5.8650191, 51.9761682 ], [ 5.8650371, 51.9761492 ], [ 5.8651031, 51.9760797 ], [ 5.8651561, 51.9760442 ], [ 5.8653235, 51.9759607 ], [ 5.8654824, 51.9758682 ], [ 5.8655391, 51.9758392 ], [ 5.8656021, 51.9758109 ], [ 5.8658999, 51.9756857 ], [ 5.8662742, 51.9755482 ], [ 5.8665972, 51.9754256 ], [ 5.8667622, 51.9753472 ], [ 5.866867, 51.9753025 ], [ 5.866965, 51.9753224 ], [ 5.8671848, 51.9753888 ], [ 5.8674879, 51.9754832 ], [ 5.8675463, 51.9755014 ], [ 5.868223, 51.9757102 ], [ 5.8686299, 51.9758375 ], [ 5.8686594, 51.9758467 ], [ 5.8691401, 51.9759953 ], [ 5.8691869, 51.9759914 ], [ 5.869254, 51.9759524 ], [ 5.8692762, 51.9759395 ], [ 5.8695012, 51.975757 ], [ 5.8695248, 51.9757459 ], [ 5.8702818, 51.9753871 ], [ 5.8708603, 51.975113 ], [ 5.8701107, 51.9744192 ], [ 5.8700591, 51.9743714 ], [ 5.8692725, 51.9736512 ], [ 5.8687273, 51.9731773 ], [ 5.8681948, 51.9727451 ], [ 5.8677756, 51.9724142 ], [ 5.8674525, 51.9721816 ], [ 5.8671362, 51.971954 ], [ 5.8666896, 51.9716662 ], [ 5.8661301, 51.9713417 ], [ 5.8656289, 51.9710653 ], [ 5.865321, 51.9709153 ], [ 5.8649897, 51.9707807 ], [ 5.8646519, 51.9706581 ], [ 5.8641823, 51.9705039 ], [ 5.8634781, 51.9702802 ], [ 5.863042, 51.9701467 ], [ 5.862811, 51.9700855 ], [ 5.8622642, 51.969957 ], [ 5.8620648, 51.9699101 ], [ 5.8614117, 51.9697923 ], [ 5.8610044, 51.9697256 ], [ 5.8604354, 51.9696545 ], [ 5.8594677, 51.969555 ], [ 5.8591209, 51.9695363 ], [ 5.8585857, 51.9695133 ], [ 5.8580304, 51.9695064 ], [ 5.8575937, 51.9695115 ], [ 5.8572854, 51.9695227 ], [ 5.8570689, 51.9695305 ], [ 5.8564373, 51.9695645 ], [ 5.8558608, 51.969622 ], [ 5.8553717, 51.9696742 ], [ 5.8546944, 51.9697644 ], [ 5.8541585, 51.9698622 ], [ 5.8536207, 51.9699896 ], [ 5.8536131, 51.9699916 ], [ 5.8529501, 51.9701634 ], [ 5.8528786, 51.9701834 ], [ 5.8501012, 51.9709581 ], [ 5.8493341, 51.971172 ], [ 5.8483518, 51.97145 ], [ 5.8471125, 51.9717831 ], [ 5.8456964, 51.9721522 ], [ 5.844872, 51.9723321 ], [ 5.8440319, 51.9725039 ], [ 5.842421, 51.9728079 ], [ 5.8416983, 51.9729219 ], [ 5.8403199, 51.9731159 ], [ 5.8398528, 51.9731742 ], [ 5.8390561, 51.9732791 ], [ 5.8383579, 51.9733454 ], [ 5.8371134, 51.9734635 ], [ 5.8367408, 51.9734938 ], [ 5.8359039, 51.9735448 ], [ 5.8353427, 51.9735587 ], [ 5.835438, 51.9727703 ], [ 5.8354727, 51.9725308 ], [ 5.8354757, 51.9723855 ], [ 5.8356608, 51.972155 ], [ 5.8360078, 51.9716984 ], [ 5.836196, 51.9714311 ], [ 5.8361557, 51.9714294 ], [ 5.8361593, 51.9713836 ], [ 5.8361612, 51.9713592 ], [ 5.8361955, 51.9709231 ], [ 5.8361961, 51.970916 ], [ 5.8361983, 51.9708873 ], [ 5.8353818, 51.9708488 ], [ 5.8353723, 51.9707442 ], [ 5.8353682, 51.9707 ], [ 5.8353584, 51.9705921 ], [ 5.8353541, 51.9705455 ], [ 5.8352521, 51.9694271 ], [ 5.8351769, 51.9688603 ], [ 5.8352783, 51.9687269 ], [ 5.8353588, 51.9686571 ], [ 5.8354437, 51.9686115 ], [ 5.8355298, 51.9685711 ], [ 5.8357176, 51.9685142 ], [ 5.8357821, 51.9684755 ], [ 5.835815, 51.9684466 ], [ 5.8358462, 51.9683966 ], [ 5.8358622, 51.9681114 ], [ 5.8358165, 51.9681089 ], [ 5.835844, 51.9679103 ], [ 5.8358448, 51.9679041 ], [ 5.8358643, 51.9677632 ], [ 5.8358752, 51.9676652 ], [ 5.8358973, 51.9674665 ], [ 5.8359245, 51.9672158 ], [ 5.8359313, 51.9669843 ], [ 5.8359695, 51.9666159 ], [ 5.8359788, 51.9663305 ], [ 5.8359535, 51.9661641 ], [ 5.8359004, 51.9660047 ], [ 5.8358394, 51.9658164 ], [ 5.8356956, 51.9656151 ], [ 5.8356036, 51.965474 ], [ 5.8355688, 51.9654028 ], [ 5.8354423, 51.9647994 ], [ 5.8352955, 51.964418 ], [ 5.8351813, 51.9641686 ], [ 5.8351425, 51.9640895 ], [ 5.8351099, 51.9640257 ], [ 5.8350756, 51.9639614 ], [ 5.8348146, 51.9635801 ], [ 5.8346708, 51.9633578 ], [ 5.8346007, 51.9632469 ], [ 5.8344206, 51.9630338 ], [ 5.834228, 51.9628687 ], [ 5.8342238, 51.9628652 ], [ 5.8340066, 51.9627147 ], [ 5.833351, 51.9623904 ], [ 5.8329394, 51.9621765 ], [ 5.8327611, 51.962083 ], [ 5.8327136, 51.962058 ], [ 5.8326548, 51.9620272 ], [ 5.8323717, 51.9618903 ], [ 5.8319495, 51.9617277 ], [ 5.8312264, 51.9614905 ], [ 5.8310649, 51.9614451 ], [ 5.830561, 51.9612732 ], [ 5.8297778, 51.9610223 ], [ 5.8298056, 51.9609982 ], [ 5.8293395, 51.9608481 ], [ 5.8293712, 51.960766 ], [ 5.829375, 51.9607561 ], [ 5.8295504, 51.9603015 ], [ 5.8301975, 51.9586238 ], [ 5.8309379, 51.9586929 ], [ 5.8310177, 51.9586974 ], [ 5.8310909, 51.9586923 ], [ 5.831191, 51.9586769 ], [ 5.831271, 51.9586655 ], [ 5.8312955, 51.9586574 ], [ 5.8313382, 51.9586167 ], [ 5.8313446, 51.9585357 ], [ 5.8313384, 51.9583064 ], [ 5.831318, 51.9580308 ], [ 5.831296, 51.9576429 ], [ 5.8312864, 51.9573712 ], [ 5.8313153, 51.9569013 ], [ 5.8313442, 51.9564742 ], [ 5.8313455, 51.9563628 ], [ 5.8313308, 51.9560409 ], [ 5.8313042, 51.9556839 ], [ 5.8312824, 51.9555475 ], [ 5.8312569, 51.9554673 ], [ 5.8312107, 51.9553687 ], [ 5.8311361, 51.9551938 ], [ 5.8310424, 51.9549991 ], [ 5.8308811, 51.9546854 ], [ 5.8307006, 51.9543883 ], [ 5.8305071, 51.9541223 ], [ 5.8304294, 51.9540305 ], [ 5.8303574, 51.9539515 ], [ 5.830299, 51.9539055 ], [ 5.8301668, 51.9538481 ], [ 5.8300809, 51.9538534 ], [ 5.8300806, 51.9538347 ], [ 5.8300728, 51.9537451 ], [ 5.8300972, 51.953725 ], [ 5.8301048, 51.9537101 ], [ 5.8301071, 51.9536868 ], [ 5.8300766, 51.9536314 ], [ 5.8299921, 51.9535315 ], [ 5.8299123, 51.9534316 ], [ 5.8305071, 51.9532665 ], [ 5.8304651, 51.9531832 ], [ 5.8297633, 51.951832 ], [ 5.8297578, 51.9518221 ], [ 5.8294454, 51.9512584 ], [ 5.8292268, 51.9508847 ], [ 5.8287707, 51.9500401 ], [ 5.8287684, 51.9499989 ], [ 5.8287593, 51.9499003 ], [ 5.8287224, 51.949304 ], [ 5.828718, 51.9492335 ], [ 5.8287108, 51.9489888 ], [ 5.8287082, 51.9489008 ], [ 5.8286991, 51.9486423 ], [ 5.8286968, 51.9485893 ], [ 5.8286922, 51.9485043 ], [ 5.8286341, 51.9484838 ], [ 5.8286357, 51.9484632 ], [ 5.8286461, 51.9483311 ], [ 5.8286493, 51.948297 ], [ 5.8286551, 51.9482593 ], [ 5.8286652, 51.9482239 ], [ 5.8286907, 51.9481244 ], [ 5.8287209, 51.9480675 ], [ 5.8287468, 51.9480188 ], [ 5.8287597, 51.9479517 ], [ 5.8287705, 51.9479133 ], [ 5.8287912, 51.9478445 ], [ 5.8288045, 51.9478093 ], [ 5.8289649, 51.9474741 ], [ 5.8289835, 51.9474377 ], [ 5.8290181, 51.9473702 ], [ 5.8290349, 51.9473196 ], [ 5.8290619, 51.9472447 ], [ 5.8290838, 51.9471761 ], [ 5.8291136, 51.9470986 ], [ 5.8291486, 51.9469511 ], [ 5.8292063, 51.9467227 ], [ 5.8292309, 51.9466249 ], [ 5.8293644, 51.9466381 ], [ 5.8294181, 51.9464353 ], [ 5.8294339, 51.9463715 ], [ 5.8294461, 51.9463258 ], [ 5.8294838, 51.9461766 ], [ 5.8295214, 51.9460267 ], [ 5.8296566, 51.9455102 ], [ 5.8297243, 51.945442 ], [ 5.8299277, 51.9452369 ], [ 5.8299315, 51.9452368 ], [ 5.8299347, 51.9452368 ], [ 5.830558, 51.9452413 ], [ 5.8308936, 51.9452438 ], [ 5.8309914, 51.9452381 ], [ 5.8310319, 51.9452322 ], [ 5.831086, 51.9452136 ], [ 5.8311106, 51.9452013 ], [ 5.8311325, 51.9451963 ], [ 5.8311528, 51.9451937 ], [ 5.8313196, 51.9451853 ], [ 5.8314392, 51.945182 ], [ 5.8315495, 51.9451812 ], [ 5.8318733, 51.9451835 ], [ 5.8319086, 51.9451845 ], [ 5.8322868, 51.9451843 ], [ 5.8324884, 51.9451843 ], [ 5.832489, 51.9451707 ], [ 5.8328786, 51.9451692 ], [ 5.8335972, 51.9451756 ], [ 5.8341535, 51.9451718 ], [ 5.8345622, 51.9451677 ], [ 5.8347349, 51.9451597 ], [ 5.8356738, 51.945166 ], [ 5.8359669, 51.9451845 ], [ 5.8360721, 51.945183 ], [ 5.8371722, 51.9451778 ], [ 5.8372344, 51.9451775 ], [ 5.8373043, 51.9451775 ], [ 5.8373068, 51.9443402 ], [ 5.8373074, 51.9441593 ], [ 5.8374028, 51.9441566 ], [ 5.8382522, 51.9441321 ], [ 5.8385952, 51.9441223 ], [ 5.8386415, 51.9441207 ], [ 5.838652, 51.9441481 ], [ 5.838671, 51.9441708 ], [ 5.8387157, 51.9441991 ], [ 5.8387622, 51.9442275 ], [ 5.8388292, 51.9442658 ], [ 5.8388996, 51.9443051 ], [ 5.8389528, 51.9442974 ], [ 5.838959, 51.9442967 ], [ 5.8394664, 51.9442434 ], [ 5.8405159, 51.944139 ], [ 5.8420484, 51.9439871 ], [ 5.8422399, 51.943963 ], [ 5.8422437, 51.9439711 ], [ 5.8430228, 51.9438812 ], [ 5.8440088, 51.9437604 ], [ 5.8455081, 51.9435516 ], [ 5.8459962, 51.9434804 ], [ 5.8478113, 51.9432291 ], [ 5.8496798, 51.9429442 ], [ 5.8497815, 51.9431842 ], [ 5.8500913, 51.9438606 ], [ 5.8503808, 51.9444823 ], [ 5.8503943, 51.9445103 ], [ 5.8523727, 51.9441585 ], [ 5.8526895, 51.9441022 ], [ 5.8529545, 51.944055 ], [ 5.8532673, 51.9440077 ], [ 5.8535591, 51.943958 ], [ 5.853937, 51.9439039 ], [ 5.8546942, 51.9437797 ], [ 5.855325, 51.9436676 ], [ 5.8555579, 51.9436246 ], [ 5.8558703, 51.9435739 ], [ 5.8564663, 51.9434586 ], [ 5.8575786, 51.9432668 ], [ 5.8591268, 51.9430026 ], [ 5.859241, 51.9429728 ], [ 5.8600479, 51.9428326 ], [ 5.8603543, 51.9427804 ], [ 5.8608103, 51.9426989 ], [ 5.861332, 51.9425997 ], [ 5.8613621, 51.942594 ], [ 5.8613921, 51.9425865 ], [ 5.8616311, 51.9425639 ], [ 5.8616963, 51.942549 ], [ 5.8617539, 51.9425359 ], [ 5.8617969, 51.9425261 ], [ 5.8619348, 51.9425041 ], [ 5.8619758, 51.9425104 ], [ 5.8620116, 51.9425335 ], [ 5.8620228, 51.9425511 ], [ 5.8620815, 51.9426429 ], [ 5.8622373, 51.942887 ], [ 5.8622433, 51.9428896 ], [ 5.863238, 51.9427642 ], [ 5.8642529, 51.9426361 ], [ 5.8652431, 51.9425134 ], [ 5.8661539, 51.9424006 ], [ 5.8667842, 51.9423323 ], [ 5.8672787, 51.9422796 ], [ 5.8677834, 51.9422416 ], [ 5.8681138, 51.9422162 ], [ 5.8685004, 51.9421845 ], [ 5.8687811, 51.9421333 ], [ 5.8691305, 51.9420714 ], [ 5.869727, 51.9419637 ], [ 5.869712, 51.9419325 ], [ 5.8704519, 51.9417923 ], [ 5.8712361, 51.9416431 ], [ 5.8718931, 51.941522 ], [ 5.8720974, 51.9414742 ], [ 5.8724193, 51.9413908 ], [ 5.8726321, 51.9413361 ], [ 5.8732828, 51.9411668 ], [ 5.8734672, 51.9411197 ], [ 5.873754, 51.9410338 ], [ 5.8740572, 51.9409645 ], [ 5.8744442, 51.9408537 ], [ 5.8746055, 51.9408159 ], [ 5.8746338, 51.9408093 ], [ 5.8747405, 51.9407769 ], [ 5.8747556, 51.940786 ], [ 5.8749717, 51.9407027 ], [ 5.8751968, 51.94062 ], [ 5.8758129, 51.94038 ], [ 5.8760759, 51.9402675 ], [ 5.87619, 51.9401991 ], [ 5.8762658, 51.9401445 ], [ 5.8762997, 51.9401139 ], [ 5.8772042, 51.9391692 ], [ 5.8774723, 51.9389935 ], [ 5.8775187, 51.9389655 ], [ 5.8778615, 51.9388335 ], [ 5.8781509, 51.938799 ], [ 5.8781636, 51.9387975 ], [ 5.878593, 51.9387463 ], [ 5.8786107, 51.9387442 ], [ 5.8787231, 51.9387396 ], [ 5.8788247, 51.9387354 ], [ 5.8792133, 51.9386952 ], [ 5.8794854, 51.9386481 ], [ 5.8795413, 51.9386318 ], [ 5.8796696, 51.9385944 ], [ 5.8797701, 51.9385651 ], [ 5.8813964, 51.938247 ], [ 5.8818518, 51.938082 ], [ 5.8823396, 51.9378928 ], [ 5.8826379, 51.9378199 ], [ 5.882831, 51.9377672 ], [ 5.88357, 51.9376655 ], [ 5.8837525, 51.9376313 ], [ 5.8837704, 51.9376292 ], [ 5.8839036, 51.9376136 ], [ 5.8843556, 51.937551 ], [ 5.8844898, 51.9375267 ], [ 5.8846408, 51.9374908 ], [ 5.8848223, 51.9374399 ], [ 5.8848939, 51.9374152 ], [ 5.8850228, 51.9373708 ], [ 5.8853381, 51.9372183 ], [ 5.8853652, 51.9372052 ], [ 5.8856521, 51.9370663 ], [ 5.8862627, 51.9367709 ], [ 5.886923, 51.9364223 ], [ 5.8870352, 51.9364746 ], [ 5.887145, 51.936426 ], [ 5.8877809, 51.9361675 ], [ 5.8879731, 51.9360957 ], [ 5.8881223, 51.9361004 ], [ 5.888253, 51.9361195 ], [ 5.8897287, 51.9359927 ], [ 5.8905415, 51.935932 ], [ 5.8905513, 51.9359311 ], [ 5.8924117, 51.9357612 ], [ 5.8925233, 51.9357502 ], [ 5.8926736, 51.9357321 ], [ 5.8928267, 51.9357028 ], [ 5.8930282, 51.9356525 ], [ 5.8931905, 51.9356081 ], [ 5.8944235, 51.9352641 ], [ 5.8949319, 51.9351286 ], [ 5.8955891, 51.934967 ], [ 5.8962567, 51.9348028 ], [ 5.8968291, 51.9346527 ], [ 5.8970514, 51.9345944 ], [ 5.8974481, 51.9344863 ], [ 5.8975073, 51.9344701 ], [ 5.8979185, 51.934358 ], [ 5.8980277, 51.93447 ], [ 5.8980354, 51.9344779 ], [ 5.8981575, 51.9346092 ], [ 5.8989903, 51.9343712 ], [ 5.8998052, 51.934116 ], [ 5.8998918, 51.9340864 ], [ 5.9006567, 51.9338421 ], [ 5.9007864, 51.9338007 ], [ 5.9008082, 51.9337752 ], [ 5.9008486, 51.9337419 ], [ 5.9015471, 51.9335451 ], [ 5.9018637, 51.9334642 ], [ 5.9018786, 51.9334781 ], [ 5.902261, 51.9338351 ], [ 5.9024272, 51.9339903 ], [ 5.9033688, 51.9350262 ], [ 5.9046849, 51.9364975 ], [ 5.9047054, 51.9365196 ], [ 5.9057757, 51.9376696 ], [ 5.9058468, 51.9377459 ], [ 5.9060839, 51.9380045 ], [ 5.9063555, 51.9383113 ], [ 5.9069716, 51.9390072 ], [ 5.9070069, 51.939047 ], [ 5.9092971, 51.9415839 ], [ 5.9093275, 51.9416176 ], [ 5.9096999, 51.9420319 ], [ 5.909742, 51.9420787 ], [ 5.9098651, 51.9422103 ], [ 5.9098742, 51.94222 ], [ 5.9099093, 51.9422575 ], [ 5.9099163, 51.9422651 ], [ 5.9104051, 51.9427875 ], [ 5.9104119, 51.9427948 ], [ 5.9107735, 51.9431742 ], [ 5.9118731, 51.9443281 ], [ 5.9124634, 51.9449652 ], [ 5.912469, 51.9449711 ], [ 5.9125248, 51.9450314 ], [ 5.9127671, 51.9452929 ], [ 5.9119111, 51.9455846 ], [ 5.910965, 51.9459069 ], [ 5.9109942, 51.9459589 ], [ 5.9111354, 51.9461856 ], [ 5.9112341, 51.9463287 ], [ 5.911337, 51.9464734 ], [ 5.9114012, 51.9465788 ], [ 5.9114662, 51.9466752 ], [ 5.9115474, 51.9468105 ], [ 5.9115829, 51.9468702 ], [ 5.9116218, 51.9469521 ], [ 5.9116225, 51.9469541 ], [ 5.911651, 51.9470383 ], [ 5.9116579, 51.947079 ], [ 5.9116513, 51.9471034 ], [ 5.9116248, 51.9471197 ], [ 5.9115935, 51.947137 ], [ 5.9115597, 51.9471425 ], [ 5.9115275, 51.9471457 ], [ 5.9115124, 51.9471555 ], [ 5.9113666, 51.947273 ], [ 5.9113712, 51.9472774 ], [ 5.9113963, 51.947302 ], [ 5.9114099, 51.9473137 ], [ 5.9115792, 51.9474629 ], [ 5.9117567, 51.9476087 ], [ 5.9119343, 51.9477542 ], [ 5.9120419, 51.9477906 ], [ 5.9120177, 51.9478218 ], [ 5.9122358, 51.9479117 ], [ 5.9122636, 51.9478874 ], [ 5.9122885, 51.9479037 ], [ 5.9131253, 51.9482137 ], [ 5.9136149, 51.9484093 ], [ 5.9137897, 51.9484869 ], [ 5.9139574, 51.9485648 ], [ 5.9141733, 51.9486894 ], [ 5.9142053, 51.9487211 ], [ 5.9142281, 51.9487437 ], [ 5.9143016, 51.9488165 ], [ 5.9143875, 51.9489546 ], [ 5.9144254, 51.9490543 ], [ 5.9147809, 51.9495781 ], [ 5.9149025, 51.9497436 ], [ 5.9149715, 51.9498212 ], [ 5.9149756, 51.9498255 ], [ 5.9150548, 51.9498969 ], [ 5.9150607, 51.949901 ], [ 5.9151659, 51.9499641 ], [ 5.9151728, 51.9499675 ], [ 5.9151819, 51.9499713 ], [ 5.9154263, 51.9500556 ], [ 5.9161864, 51.9503162 ], [ 5.9163045, 51.950367 ], [ 5.9164267, 51.9504204 ], [ 5.916552, 51.9504553 ], [ 5.9166953, 51.9504948 ], [ 5.916764, 51.9505031 ], [ 5.9169, 51.9505206 ], [ 5.9193579, 51.9506664 ], [ 5.9205331, 51.9507504 ], [ 5.9220071, 51.9508391 ], [ 5.92432, 51.9509879 ], [ 5.9248975, 51.9510323 ], [ 5.925412, 51.9510688 ], [ 5.9257591, 51.9510934 ], [ 5.9262772, 51.9511352 ], [ 5.9264856, 51.9511453 ], [ 5.9266403, 51.9511445 ], [ 5.9268363, 51.9511216 ], [ 5.9283014, 51.9508203 ], [ 5.9290443, 51.9506676 ], [ 5.9294463, 51.9505926 ], [ 5.9294946, 51.9506907 ], [ 5.9295221, 51.9507454 ], [ 5.9295222, 51.950746 ], [ 5.9295374, 51.9509415 ], [ 5.929565, 51.9512408 ], [ 5.929565, 51.9512463 ], [ 5.9295679, 51.9512506 ], [ 5.9297478, 51.9514624 ], [ 5.9299164, 51.9516605 ], [ 5.9299193, 51.9516644 ], [ 5.9299219, 51.9516694 ], [ 5.9299283, 51.9516874 ], [ 5.9300384, 51.9519951 ], [ 5.9300391, 51.9519978 ], [ 5.9301708, 51.9522717 ], [ 5.9302106, 51.9523123 ], [ 5.9303126, 51.9524213 ], [ 5.930328, 51.9524346 ], [ 5.9303861, 51.9525056 ], [ 5.9305208, 51.9526672 ], [ 5.9305672, 51.9527222 ], [ 5.9306713, 51.9528383 ], [ 5.9307174, 51.9528692 ], [ 5.9308724, 51.9528876 ], [ 5.9310371, 51.9531274 ], [ 5.9312334, 51.9534205 ], [ 5.9311506, 51.9534844 ], [ 5.931098, 51.9535245 ], [ 5.9310666, 51.9535507 ], [ 5.9310455, 51.9535678 ], [ 5.9310166, 51.9535954 ], [ 5.9309929, 51.9536209 ], [ 5.9309729, 51.9536442 ], [ 5.9309639, 51.9536549 ], [ 5.9309566, 51.9536647 ], [ 5.930951, 51.9536734 ], [ 5.930944, 51.9536848 ], [ 5.9309145, 51.9537724 ], [ 5.9309153, 51.9537788 ], [ 5.9309073, 51.9538676 ], [ 5.9309084, 51.9538715 ], [ 5.930938, 51.9539695 ], [ 5.9309412, 51.953977 ], [ 5.931019, 51.954162 ], [ 5.9310576, 51.954233 ], [ 5.9310602, 51.9542385 ], [ 5.9310653, 51.954246 ], [ 5.9311646, 51.9543936 ], [ 5.9312344, 51.9544989 ], [ 5.9312444, 51.9545136 ], [ 5.9312977, 51.9545928 ], [ 5.9314107, 51.9547468 ], [ 5.9314441, 51.9547841 ], [ 5.9314618, 51.9548171 ], [ 5.9314648, 51.9548417 ], [ 5.931454, 51.9548531 ], [ 5.9314398, 51.9548618 ], [ 5.9314272, 51.954867 ], [ 5.931412, 51.9548697 ], [ 5.9313814, 51.9548745 ], [ 5.9313225, 51.9548785 ], [ 5.9313047, 51.9548813 ], [ 5.9312725, 51.9548905 ], [ 5.9312396, 51.9549085 ], [ 5.9312147, 51.9549295 ], [ 5.9312091, 51.9549424 ], [ 5.9312084, 51.9549695 ], [ 5.9312328, 51.955007 ], [ 5.9312465, 51.9550286 ], [ 5.9312728, 51.9550549 ], [ 5.9313074, 51.9550815 ], [ 5.9313328, 51.9550951 ], [ 5.9313567, 51.9551057 ], [ 5.9313953, 51.9551253 ], [ 5.9314253, 51.9551393 ], [ 5.9314413, 51.9551484 ], [ 5.9314643, 51.9551653 ], [ 5.9314876, 51.9551862 ], [ 5.9315044, 51.9552057 ], [ 5.931534, 51.9552431 ], [ 5.9315441, 51.95526 ], [ 5.9315514, 51.9552721 ], [ 5.9315513, 51.9552896 ], [ 5.9315455, 51.9553169 ], [ 5.9315393, 51.9553485 ], [ 5.9315116, 51.9554236 ], [ 5.931452, 51.9555586 ], [ 5.9314492, 51.9555745 ], [ 5.9314571, 51.9555867 ], [ 5.9314668, 51.9555968 ], [ 5.9314945, 51.9556263 ], [ 5.9315149, 51.9556433 ], [ 5.9315232, 51.9556502 ], [ 5.9315506, 51.955665 ], [ 5.9316326, 51.9556887 ], [ 5.9316536, 51.9556938 ], [ 5.9316602, 51.9556968 ], [ 5.9316623, 51.9556995 ], [ 5.9316689, 51.95573 ], [ 5.9317081, 51.9558792 ], [ 5.931729, 51.9559589 ], [ 5.9317833, 51.956173 ], [ 5.9317915, 51.9562052 ], [ 5.9317952, 51.956231 ], [ 5.9317985, 51.9562612 ], [ 5.9317957, 51.9562772 ], [ 5.9317914, 51.9562892 ], [ 5.9317903, 51.9562923 ], [ 5.9317843, 51.9563081 ], [ 5.9316582, 51.9566184 ], [ 5.9315693, 51.9568711 ], [ 5.9315661, 51.956909 ], [ 5.9315682, 51.9569209 ], [ 5.931581, 51.9569763 ], [ 5.931618, 51.957076 ], [ 5.931635, 51.9571269 ], [ 5.9316458, 51.9571455 ], [ 5.9316489, 51.9571508 ], [ 5.9316665, 51.9571739 ], [ 5.9316767, 51.9571819 ], [ 5.931704, 51.9572043 ], [ 5.9317533, 51.9572384 ], [ 5.931779, 51.9572569 ], [ 5.9317893, 51.9572654 ], [ 5.9317967, 51.9572715 ], [ 5.9318074, 51.9572951 ], [ 5.9318051, 51.9573091 ], [ 5.9317914, 51.957325 ], [ 5.9317521, 51.9573623 ], [ 5.9316483, 51.9574538 ], [ 5.931632, 51.9574725 ], [ 5.9316203, 51.957486 ], [ 5.9316136, 51.9575013 ], [ 5.9316194, 51.9575397 ], [ 5.9316225, 51.9577638 ], [ 5.9316726, 51.9580077 ], [ 5.9316795, 51.9580803 ], [ 5.9316851, 51.9581705 ], [ 5.9316892, 51.9583165 ], [ 5.9316944, 51.9584211 ], [ 5.9317013, 51.9585212 ], [ 5.9317116, 51.9585783 ], [ 5.9317236, 51.9586118 ], [ 5.9317341, 51.9586338 ], [ 5.9317394, 51.9586552 ], [ 5.9317585, 51.9588692 ], [ 5.9317901, 51.9591988 ], [ 5.9318274, 51.959246 ], [ 5.9318261, 51.9593491 ], [ 5.9318307, 51.9594831 ], [ 5.9319824, 51.9595493 ], [ 5.9320217, 51.9595665 ], [ 5.932101, 51.9596062 ], [ 5.9321645, 51.9596399 ], [ 5.932231, 51.9596816 ], [ 5.932283, 51.9597081 ], [ 5.9323345, 51.9597266 ], [ 5.9323913, 51.9597391 ], [ 5.9324565, 51.9597509 ], [ 5.9326282, 51.959769 ], [ 5.9327428, 51.9597792 ], [ 5.9328005, 51.9597872 ], [ 5.9328052, 51.9597879 ], [ 5.9329255, 51.9597974 ], [ 5.9331548, 51.9598147 ], [ 5.9333408, 51.9598287 ], [ 5.9335876, 51.9598926 ], [ 5.9337482, 51.9599343 ], [ 5.9341564, 51.9600401 ], [ 5.9346748, 51.9601765 ], [ 5.9349292, 51.9602424 ], [ 5.9355972, 51.9604157 ], [ 5.9360497, 51.9597501 ], [ 5.9361382, 51.9596224 ], [ 5.9365742, 51.9590826 ], [ 5.9367879, 51.958858 ], [ 5.9373299, 51.9583059 ], [ 5.937617, 51.9580253 ], [ 5.9377819, 51.9578677 ], [ 5.9380281, 51.9576669 ], [ 5.9381603, 51.9575587 ], [ 5.9389136, 51.9570006 ], [ 5.9392145, 51.9567813 ], [ 5.9397227, 51.9564315 ], [ 5.940022, 51.9562377 ], [ 5.9401825, 51.9561338 ], [ 5.9403277, 51.9560398 ], [ 5.9404467, 51.9559697 ], [ 5.9406122, 51.9558722 ], [ 5.9414328, 51.9553951 ], [ 5.9418769, 51.955135 ], [ 5.942323, 51.9548836 ], [ 5.9430609, 51.9544787 ], [ 5.9435047, 51.9542504 ], [ 5.9442624, 51.9538805 ], [ 5.9451101, 51.9534632 ], [ 5.9462469, 51.9529649 ], [ 5.9464205, 51.9528887 ], [ 5.9473569, 51.9525172 ], [ 5.9486757, 51.9519894 ], [ 5.9496395, 51.9515947 ], [ 5.9499435, 51.9514702 ], [ 5.9506073, 51.9511859 ], [ 5.951432, 51.9508224 ], [ 5.9515452, 51.9507725 ], [ 5.9517162, 51.9506955 ], [ 5.9519488, 51.9505878 ], [ 5.9524, 51.9503669 ], [ 5.9526236, 51.950261 ], [ 5.9532118, 51.9499479 ], [ 5.9538653, 51.9495846 ], [ 5.9543266, 51.9493078 ], [ 5.9544813, 51.9492119 ], [ 5.9547233, 51.9490618 ], [ 5.9552255, 51.9487535 ], [ 5.9552193, 51.9487579 ], [ 5.95514, 51.9488146 ], [ 5.955024, 51.948913 ], [ 5.9549214, 51.9489996 ], [ 5.9548267, 51.9490816 ], [ 5.954746, 51.9491457 ], [ 5.9541815, 51.9496476 ], [ 5.9538065, 51.9500229 ], [ 5.9534232, 51.9504407 ], [ 5.9526981, 51.9511578 ], [ 5.9518041, 51.9520198 ], [ 5.9513297, 51.9524635 ], [ 5.9508881, 51.9529914 ], [ 5.9504764, 51.9536096 ], [ 5.9501096, 51.9542289 ], [ 5.9497407, 51.955096 ], [ 5.949531, 51.9556653 ], [ 5.9494053, 51.9561501 ], [ 5.9493056, 51.9566411 ], [ 5.9492728, 51.9569983 ], [ 5.9492494, 51.9574515 ], [ 5.9492656, 51.9580187 ], [ 5.9493232, 51.9585847 ], [ 5.9493923, 51.9590037 ], [ 5.949432, 51.9591855 ], [ 5.9494924, 51.9594618 ], [ 5.9496563, 51.9600765 ], [ 5.9498381, 51.9606289 ], [ 5.9501091, 51.9612869 ], [ 5.9504883, 51.9620504 ], [ 5.9509733, 51.962832 ], [ 5.951243, 51.963224 ], [ 5.9517526, 51.9638598 ], [ 5.9524289, 51.9645699 ], [ 5.9529554, 51.9650534 ], [ 5.9536478, 51.9655918 ], [ 5.9539168, 51.9658192 ], [ 5.9540438, 51.9659266 ], [ 5.9543543, 51.9661715 ], [ 5.9547668, 51.9664889 ], [ 5.9550991, 51.9667537 ], [ 5.9554575, 51.967018 ], [ 5.9558877, 51.9673195 ], [ 5.9563616, 51.967651 ], [ 5.9568635, 51.9679857 ], [ 5.9573146, 51.9682687 ], [ 5.9577403, 51.9685206 ], [ 5.9581282, 51.9687492 ], [ 5.9584623, 51.9689387 ], [ 5.958943, 51.9692021 ], [ 5.9593081, 51.9693773 ], [ 5.9598141, 51.9696178 ], [ 5.9598366, 51.9696285 ], [ 5.9604321, 51.9699032 ], [ 5.9607946, 51.9700548 ], [ 5.9615198, 51.9703659 ], [ 5.9620419, 51.9705853 ], [ 5.9623853, 51.9707161 ], [ 5.9636289, 51.9711433 ], [ 5.9646338, 51.9714241 ], [ 5.9651717, 51.9715376 ], [ 5.9656291, 51.9716254 ], [ 5.9662767, 51.9717305 ], [ 5.966968, 51.9718436 ], [ 5.9684127, 51.9720828 ], [ 5.9696036, 51.9722337 ], [ 5.9706358, 51.9722956 ], [ 5.9713128, 51.9723407 ], [ 5.9717252, 51.9723747 ], [ 5.9722895, 51.972434 ], [ 5.9728625, 51.972495 ], [ 5.9732339, 51.9725328 ], [ 5.973773, 51.9726001 ], [ 5.9738685, 51.972612 ], [ 5.9742857, 51.9726652 ], [ 5.9748603, 51.9727541 ], [ 5.9755146, 51.9728456 ], [ 5.9761769, 51.972936 ], [ 5.9764385, 51.9729879 ], [ 5.9769937, 51.973103 ], [ 5.9774975, 51.9731958 ], [ 5.9779671, 51.9732721 ], [ 5.9783457, 51.9733316 ], [ 5.9788551, 51.9734055 ], [ 5.9791713, 51.973451 ], [ 5.9796097, 51.9735017 ], [ 5.9800069, 51.9735506 ], [ 5.9804291, 51.9735919 ], [ 5.9807807, 51.9736303 ], [ 5.9811125, 51.9736669 ], [ 5.9814588, 51.9736982 ], [ 5.9818421, 51.9737314 ], [ 5.9821869, 51.9737608 ], [ 5.9825752, 51.9737954 ], [ 5.9829475, 51.9738258 ], [ 5.9834136, 51.9738568 ], [ 5.9839362, 51.9738918 ], [ 5.9843884, 51.9739171 ], [ 5.984767, 51.9739325 ], [ 5.9852491, 51.9739485 ], [ 5.9856145, 51.9739596 ], [ 5.9859388, 51.9739674 ], [ 5.9863361, 51.9739744 ], [ 5.986503, 51.9739788 ], [ 5.9877684, 51.9740709 ], [ 5.9885237, 51.9741425 ], [ 5.9893637, 51.9742457 ], [ 5.9901631, 51.9743693 ], [ 5.9903401, 51.9744061 ], [ 5.9898919, 51.9747617 ], [ 5.9898513, 51.9747939 ], [ 5.9897046, 51.9749103 ], [ 5.9896618, 51.9749442 ], [ 5.9874025, 51.9767366 ], [ 5.9870683, 51.9769926 ], [ 5.9868012, 51.9772042 ], [ 5.9867598, 51.9772427 ], [ 5.9867592, 51.9772451 ], [ 5.986738, 51.9773313 ], [ 5.9867355, 51.9773411 ], [ 5.9866898, 51.9775269 ], [ 5.9864857, 51.9776817 ], [ 5.9862674, 51.977847 ], [ 5.9860188, 51.9780403 ], [ 5.9858776, 51.9781419 ], [ 5.9860127, 51.9781508 ], [ 5.9859677, 51.9781836 ], [ 5.9856771, 51.978382 ], [ 5.9849904, 51.9788843 ], [ 5.9850086, 51.9788976 ], [ 5.9849274, 51.978956 ], [ 5.9849243, 51.9789581 ], [ 5.9848735, 51.9789947 ], [ 5.9844559, 51.9792528 ], [ 5.9839997, 51.9795509 ], [ 5.9839766, 51.979566 ], [ 5.9839434, 51.9795877 ], [ 5.983549, 51.9798369 ], [ 5.9835464, 51.9798385 ], [ 5.9832959, 51.9799904 ], [ 5.982619, 51.9803994 ], [ 5.9821802, 51.9806621 ], [ 5.9815309, 51.981004 ], [ 5.9810741, 51.9812428 ], [ 5.9806088, 51.9814752 ], [ 5.9801352, 51.9817011 ], [ 5.9796001, 51.9819578 ], [ 5.97952, 51.9819534 ], [ 5.9795134, 51.9819918 ], [ 5.9787444, 51.982311 ], [ 5.9784005, 51.9824476 ], [ 5.9773149, 51.9828635 ], [ 5.9771453, 51.9829193 ], [ 5.9769266, 51.9829911 ], [ 5.9762813, 51.9832165 ], [ 5.9755114, 51.9834509 ], [ 5.9755118, 51.9835887 ], [ 5.9754918, 51.9835847 ], [ 5.9752383, 51.983578 ], [ 5.9750316, 51.9835743 ], [ 5.9750283, 51.9837205 ], [ 5.9748001, 51.9837249 ], [ 5.9746091, 51.9837264 ], [ 5.974258, 51.9838215 ], [ 5.9737294, 51.9839662 ], [ 5.9736539, 51.983987 ], [ 5.9735091, 51.9840269 ], [ 5.97347, 51.9840377 ], [ 5.9732606, 51.984095 ], [ 5.9730271, 51.9841632 ], [ 5.9727089, 51.9842596 ], [ 5.9723579, 51.9843659 ], [ 5.9720232, 51.9844662 ], [ 5.9717232, 51.9845572 ], [ 5.9712458, 51.9846957 ], [ 5.9712421, 51.9846978 ], [ 5.9712389, 51.9846996 ], [ 5.9710984, 51.9847795 ], [ 5.970877, 51.9849091 ], [ 5.9706318, 51.9849404 ], [ 5.9704025, 51.9849657 ], [ 5.9699999, 51.9850228 ], [ 5.9699619, 51.9850296 ], [ 5.969873, 51.9850455 ], [ 5.9697732, 51.9850717 ], [ 5.9694933, 51.9851374 ], [ 5.9694504, 51.9851475 ], [ 5.9692652, 51.9851891 ], [ 5.9690062, 51.9852588 ], [ 5.9687237, 51.9853376 ], [ 5.9683569, 51.9854375 ], [ 5.9681036, 51.985505 ], [ 5.967993, 51.9855374 ], [ 5.967632, 51.9856464 ], [ 5.9672334, 51.9857684 ], [ 5.9668957, 51.9858762 ], [ 5.9664575, 51.9860229 ], [ 5.966074, 51.9861607 ], [ 5.965683, 51.9862973 ], [ 5.9656446, 51.9863107 ], [ 5.9651779, 51.9864873 ], [ 5.9648207, 51.9866307 ], [ 5.9645205, 51.9867474 ], [ 5.9642997, 51.9868458 ], [ 5.9639233, 51.9870128 ], [ 5.9636195, 51.9871483 ], [ 5.9634792, 51.9872075 ], [ 5.9634767, 51.9872085 ], [ 5.9633366, 51.9872702 ], [ 5.9632776, 51.987296 ], [ 5.9631148, 51.9873673 ], [ 5.9630613, 51.987391 ], [ 5.9630328, 51.9874053 ], [ 5.9628791, 51.9874842 ], [ 5.9627036, 51.9875755 ], [ 5.9625731, 51.9876366 ], [ 5.962479, 51.9876827 ], [ 5.9623239, 51.9877604 ], [ 5.9621639, 51.98784 ], [ 5.9620069, 51.9879219 ], [ 5.961878, 51.9879909 ], [ 5.9617508, 51.9880584 ], [ 5.9615845, 51.9881529 ], [ 5.9614791, 51.9882148 ], [ 5.961354, 51.9882787 ], [ 5.9613534, 51.9882791 ], [ 5.9613275, 51.9882923 ], [ 5.9610981, 51.98841 ], [ 5.9610977, 51.9884102 ], [ 5.961048, 51.9884358 ], [ 5.9609472, 51.9884867 ], [ 5.9608832, 51.9885207 ], [ 5.9608677, 51.9885299 ], [ 5.9608533, 51.9885386 ], [ 5.9608189, 51.9885586 ], [ 5.9608161, 51.9885604 ], [ 5.9605086, 51.9887563 ], [ 5.9601132, 51.9890105 ], [ 5.9600288, 51.9890596 ], [ 5.9599035, 51.9891396 ], [ 5.9597701, 51.9892279 ], [ 5.959674, 51.9892821 ], [ 5.9595672, 51.9893598 ], [ 5.9594503, 51.9894497 ], [ 5.9593601, 51.9895266 ], [ 5.9592877, 51.9895754 ], [ 5.9591966, 51.989637 ], [ 5.9590823, 51.9897263 ], [ 5.9589693, 51.9898151 ], [ 5.9588721, 51.9898902 ], [ 5.9587166, 51.9900088 ], [ 5.9582504, 51.9903693 ], [ 5.9580854, 51.9904978 ], [ 5.957975, 51.9905973 ], [ 5.9577445, 51.9908079 ], [ 5.9575669, 51.9909681 ], [ 5.9573925, 51.9911263 ], [ 5.9571807, 51.9913256 ], [ 5.9569629, 51.9915305 ], [ 5.956749, 51.9917309 ], [ 5.9565794, 51.9918916 ], [ 5.9564595, 51.9920096 ], [ 5.9563818, 51.9920861 ], [ 5.9561703, 51.992299 ], [ 5.9560006, 51.9924719 ], [ 5.9557971, 51.992678 ], [ 5.9557246, 51.9927611 ], [ 5.955438, 51.9930831 ], [ 5.9551933, 51.9933641 ], [ 5.9552609, 51.9933855 ], [ 5.9552561, 51.9933908 ], [ 5.9554977, 51.993455 ], [ 5.9554529, 51.9935094 ], [ 5.9553367, 51.9936507 ], [ 5.9553213, 51.9936694 ], [ 5.9552331, 51.9937771 ], [ 5.9550481, 51.9940023 ], [ 5.9549549, 51.9941157 ], [ 5.9544718, 51.994679 ], [ 5.9544385, 51.994725 ], [ 5.9539687, 51.9945712 ], [ 5.9538485, 51.9947165 ], [ 5.9536134, 51.9950016 ], [ 5.9534059, 51.9954798 ], [ 5.9532416, 51.9957946 ], [ 5.9531577, 51.9959498 ], [ 5.9531266, 51.9960026 ], [ 5.9528489, 51.9965212 ], [ 5.9525886, 51.9970074 ], [ 5.9525882, 51.9970081 ], [ 5.9525538, 51.9971153 ], [ 5.9523387, 51.9975716 ], [ 5.9522615, 51.9977632 ], [ 5.9521911, 51.9979504 ], [ 5.9519347, 51.9984607 ], [ 5.9517997, 51.9988254 ], [ 5.9517565, 51.9989485 ], [ 5.9515875, 51.9993994 ], [ 5.9515464, 51.9995332 ], [ 5.9515264, 51.9996378 ], [ 5.9515238, 51.9996478 ], [ 5.9515029, 51.999729 ], [ 5.9514896, 51.9997804 ], [ 5.9514229, 51.9999736 ], [ 5.9513641, 52.0001161 ], [ 5.9513267, 52.0002052 ], [ 5.9513027, 52.0002954 ], [ 5.9512911, 52.0003277 ], [ 5.951185, 52.0006484 ], [ 5.9510661, 52.0010239 ], [ 5.9510516, 52.0010697 ], [ 5.950942, 52.0014334 ], [ 5.9509327, 52.0014642 ], [ 5.9507662, 52.0016825 ], [ 5.950541, 52.0019977 ], [ 5.9503347, 52.002282 ], [ 5.950314, 52.002325 ], [ 5.9502202, 52.0025868 ], [ 5.9500249, 52.0031479 ], [ 5.9499765, 52.0033062 ], [ 5.9499554, 52.0034096 ], [ 5.9499414, 52.0034778 ], [ 5.9498939, 52.0037619 ], [ 5.9498546, 52.0039828 ], [ 5.949846, 52.0040313 ], [ 5.9498278, 52.0040917 ], [ 5.9497468, 52.0042503 ], [ 5.9497429, 52.0042572 ], [ 5.9495946, 52.0045233 ], [ 5.9495558, 52.0045616 ], [ 5.9492886, 52.0048259 ], [ 5.9489724, 52.0051513 ], [ 5.9487665, 52.0053659 ], [ 5.9487504, 52.0053967 ], [ 5.9486809, 52.0055295 ], [ 5.9485398, 52.0057989 ], [ 5.9482686, 52.0062804 ], [ 5.9481258, 52.0065868 ], [ 5.9476892, 52.0068825 ], [ 5.9473489, 52.0071132 ], [ 5.9471909, 52.0072364 ], [ 5.946603, 52.0077556 ], [ 5.946209, 52.0080188 ], [ 5.9460234, 52.0081691 ], [ 5.9454388, 52.0086468 ], [ 5.9450162, 52.0089852 ], [ 5.9447706, 52.0091748 ], [ 5.944518, 52.0093457 ], [ 5.9441006, 52.0096306 ], [ 5.9435849, 52.0099872 ], [ 5.9434707, 52.0100484 ], [ 5.9433104, 52.0101343 ], [ 5.9440065, 52.0102443 ], [ 5.9445524, 52.0103315 ], [ 5.9449117, 52.010351 ], [ 5.9456436, 52.010391 ], [ 5.9458096, 52.0104004 ], [ 5.9460313, 52.0104129 ], [ 5.9460318, 52.0104156 ], [ 5.9460633, 52.0105845 ], [ 5.9460672, 52.0106053 ], [ 5.9459366, 52.0106135 ], [ 5.9456249, 52.0106356 ], [ 5.9452627, 52.0106617 ], [ 5.9448724, 52.0106874 ], [ 5.9444607, 52.0107151 ], [ 5.9440571, 52.0107427 ], [ 5.9436524, 52.0107709 ], [ 5.9432483, 52.0107987 ], [ 5.9428886, 52.0108225 ], [ 5.9423963, 52.0108309 ], [ 5.9421313, 52.0110403 ], [ 5.9419075, 52.0111772 ], [ 5.9417077, 52.011299 ], [ 5.9415467, 52.0113975 ], [ 5.9414022, 52.011486 ], [ 5.9410661, 52.0133899 ], [ 5.9410343, 52.0135839 ], [ 5.9410046, 52.0137685 ], [ 5.9409745, 52.0139388 ], [ 5.9409315, 52.0141562 ], [ 5.9408979, 52.0143345 ], [ 5.9408519, 52.014553 ], [ 5.9408519, 52.0145549 ], [ 5.9408501, 52.0145662 ], [ 5.9408247, 52.0147164 ], [ 5.9407984, 52.014867 ], [ 5.9407486, 52.0151252 ], [ 5.940741, 52.0151735 ], [ 5.9407125, 52.0153595 ], [ 5.9406998, 52.0154888 ], [ 5.9406766, 52.0156837 ], [ 5.9406458, 52.0158575 ], [ 5.9406319, 52.0159565 ], [ 5.9406106, 52.0160753 ], [ 5.9404645, 52.0169547 ], [ 5.940453, 52.0170434 ], [ 5.9404476, 52.0170844 ], [ 5.9404448, 52.0171061 ], [ 5.9404184, 52.0172621 ], [ 5.9403878, 52.0174233 ], [ 5.9403733, 52.017581 ], [ 5.9403315, 52.0178558 ], [ 5.9403107, 52.0180312 ], [ 5.9402883, 52.0181933 ], [ 5.9401927, 52.0187146 ], [ 5.9401653, 52.0190523 ], [ 5.940013, 52.0209287 ], [ 5.9399976, 52.0211179 ], [ 5.9398124, 52.0231439 ], [ 5.9397562, 52.0237976 ], [ 5.9396503, 52.0250285 ], [ 5.9396132, 52.025459 ], [ 5.939445, 52.0273119 ], [ 5.9394009, 52.0277981 ], [ 5.9393803, 52.0280443 ], [ 5.9390972, 52.0314218 ], [ 5.9385067, 52.0355478 ], [ 5.9382923, 52.0370377 ], [ 5.9380717, 52.0385714 ], [ 5.938134, 52.0386107 ], [ 5.9381353, 52.0386115 ], [ 5.9381335, 52.0386277 ], [ 5.938129, 52.038666 ], [ 5.9381274, 52.0386833 ], [ 5.9371101, 52.0484263 ], [ 5.9370989, 52.048533 ], [ 5.9373917, 52.0492288 ], [ 5.937449, 52.0493605 ], [ 5.9375503, 52.0496344 ], [ 5.9376673, 52.0499281 ], [ 5.9377621, 52.0501663 ], [ 5.9380846, 52.0509455 ], [ 5.9384967, 52.0519529 ], [ 5.9386963, 52.0524619 ], [ 5.9387583, 52.0526198 ], [ 5.9389913, 52.0532402 ], [ 5.9392883, 52.0539681 ], [ 5.9396315, 52.054836 ], [ 5.9397048, 52.0550076 ], [ 5.940057, 52.0558312 ], [ 5.9405019, 52.0568717 ], [ 5.9405814, 52.0570819 ], [ 5.940911, 52.0579544 ], [ 5.940938, 52.057993 ], [ 5.9410917, 52.058213 ], [ 5.9411763, 52.0583356 ], [ 5.9412864, 52.0584689 ], [ 5.9416338, 52.0590477 ], [ 5.942128, 52.0599769 ], [ 5.9421758, 52.0600668 ], [ 5.9424859, 52.0605722 ], [ 5.9428266, 52.0611579 ], [ 5.9430282, 52.0615505 ], [ 5.9430498, 52.0615924 ], [ 5.943089, 52.0616688 ], [ 5.9432012, 52.0621147 ], [ 5.9432301, 52.0622299 ], [ 5.9432489, 52.0623045 ], [ 5.9432871, 52.0624556 ], [ 5.9451865, 52.0640879 ], [ 5.9466939, 52.0653809 ], [ 5.9486981, 52.067096 ], [ 5.9509466, 52.0690462 ], [ 5.9531734, 52.0709642 ], [ 5.9541527, 52.0718265 ], [ 5.9547206, 52.0723266 ], [ 5.9554176, 52.0729093 ], [ 5.955931, 52.0733386 ], [ 5.9535888, 52.0745239 ], [ 5.9519135, 52.0753216 ], [ 5.950522, 52.0759527 ], [ 5.9476506, 52.0772359 ], [ 5.947231, 52.0774136 ], [ 5.9461028, 52.0778905 ], [ 5.9460687, 52.0777347 ], [ 5.9460678, 52.077731 ], [ 5.9458848, 52.0777736 ], [ 5.9458014, 52.0777836 ], [ 5.94554, 52.0778149 ], [ 5.9450591, 52.0778317 ], [ 5.942188, 52.0765904 ], [ 5.9409635, 52.0760517 ], [ 5.9397062, 52.0754858 ], [ 5.9394058, 52.0753492 ], [ 5.938281, 52.0748426 ], [ 5.9372231, 52.0743752 ], [ 5.9369088, 52.0742318 ], [ 5.9365309, 52.0740654 ], [ 5.9358204, 52.0737472 ], [ 5.9344132, 52.0731219 ], [ 5.9340465, 52.0729577 ], [ 5.9333687, 52.0726544 ], [ 5.9329651, 52.0724756 ], [ 5.9327297, 52.0723716 ], [ 5.9315068, 52.0718283 ], [ 5.9304034, 52.0713366 ], [ 5.9299758, 52.0711465 ], [ 5.9297612, 52.071051 ], [ 5.9293516, 52.0708688 ], [ 5.9290266, 52.0707255 ], [ 5.9289141, 52.0706764 ], [ 5.9285476, 52.070514 ], [ 5.9280102, 52.0702659 ], [ 5.9278066, 52.0701746 ], [ 5.9263588, 52.0695245 ], [ 5.925383, 52.0690877 ], [ 5.9251696, 52.0689929 ], [ 5.9250005, 52.0689174 ], [ 5.9248506, 52.0688505 ], [ 5.9246906, 52.0687791 ], [ 5.9244819, 52.0686859 ], [ 5.9243159, 52.0686118 ], [ 5.9241893, 52.0685553 ], [ 5.9241502, 52.0685379 ], [ 5.924123, 52.0685258 ], [ 5.9241127, 52.0685211 ], [ 5.923983, 52.068463 ], [ 5.923593, 52.0682884 ], [ 5.9235822, 52.0682836 ], [ 5.9235741, 52.0682798 ], [ 5.9231214, 52.0680773 ], [ 5.9221355, 52.0676331 ], [ 5.9221314, 52.0676313 ], [ 5.9216984, 52.0674398 ], [ 5.921161, 52.0671998 ], [ 5.9206856, 52.0669905 ], [ 5.9203377, 52.0668344 ], [ 5.920145, 52.0667459 ], [ 5.9200479, 52.0667013 ], [ 5.9186962, 52.0661011 ], [ 5.9181454, 52.0658557 ], [ 5.9176144, 52.0656168 ], [ 5.9173356, 52.0654932 ], [ 5.9171905, 52.0654289 ], [ 5.9167089, 52.0652099 ], [ 5.916263, 52.0650112 ], [ 5.9158106, 52.0648128 ], [ 5.9154503, 52.0646446 ], [ 5.9150354, 52.0644605 ], [ 5.9147042, 52.0643113 ], [ 5.914315, 52.0641379 ], [ 5.9141263, 52.0640539 ], [ 5.9136776, 52.0638452 ], [ 5.9132578, 52.0636574 ], [ 5.9128041, 52.0634595 ], [ 5.9119687, 52.0630819 ], [ 5.9112462, 52.0627578 ], [ 5.9107235, 52.0625246 ], [ 5.9102016, 52.0623004 ], [ 5.9099482, 52.0621824 ], [ 5.9097919, 52.0621133 ], [ 5.9097521, 52.0620992 ], [ 5.9097434, 52.0620961 ], [ 5.9097069, 52.0620863 ], [ 5.9096753, 52.0620811 ], [ 5.9096391, 52.0620799 ], [ 5.9095765, 52.0620831 ], [ 5.9093422, 52.0621087 ], [ 5.9087426, 52.0621741 ], [ 5.9083833, 52.0622167 ], [ 5.9080488, 52.0622546 ], [ 5.9073332, 52.0623337 ], [ 5.9070596, 52.0623598 ], [ 5.9067911, 52.06239 ], [ 5.906549, 52.0624189 ], [ 5.9065133, 52.0624229 ], [ 5.9056486, 52.0625213 ], [ 5.9052536, 52.0625673 ], [ 5.9039806, 52.0627068 ], [ 5.9035272, 52.0627601 ], [ 5.9031068, 52.0628074 ], [ 5.9027606, 52.0628436 ], [ 5.9027376, 52.0628464 ], [ 5.9024516, 52.0628805 ], [ 5.9015021, 52.0629843 ], [ 5.9014433, 52.0629908 ], [ 5.8998477, 52.0631685 ], [ 5.8990026, 52.0632634 ], [ 5.8981245, 52.063362 ], [ 5.8984493, 52.0618157 ], [ 5.8982048, 52.0616068 ], [ 5.8981762, 52.0615816 ], [ 5.8980275, 52.0614508 ], [ 5.8980663, 52.0610102 ], [ 5.8980665, 52.0610085 ], [ 5.8980976, 52.060741 ], [ 5.8983461, 52.0587279 ], [ 5.8986897, 52.0558757 ], [ 5.8992962, 52.0508335 ], [ 5.8994014, 52.0499582 ], [ 5.8842328, 52.0494796 ], [ 5.8820632, 52.0494108 ], [ 5.8616832, 52.0517817 ], [ 5.860708, 52.0518951 ], [ 5.859668, 52.0520174 ], [ 5.8593464, 52.0520031 ], [ 5.8589661, 52.0519886 ], [ 5.8585639, 52.0519731 ], [ 5.8582014, 52.0519591 ], [ 5.8576394, 52.0519375 ], [ 5.8570693, 52.0519184 ], [ 5.8533256, 52.0517427 ], [ 5.8500453, 52.0516017 ], [ 5.8500275, 52.0515944 ], [ 5.849987, 52.0515778 ], [ 5.8441567, 52.0491917 ], [ 5.8379181, 52.0466318 ], [ 5.833459, 52.0428248 ], [ 5.8330015, 52.0424373 ], [ 5.8321437, 52.0417091 ], [ 5.8319305, 52.041522 ], [ 5.8314728, 52.0411348 ], [ 5.8310155, 52.0407408 ], [ 5.8306482, 52.0404279 ], [ 5.8289674, 52.0389863 ], [ 5.8287047, 52.0387647 ], [ 5.8276667, 52.0378744 ], [ 5.8265851, 52.0369419 ], [ 5.8265269, 52.036909 ], [ 5.8264777, 52.0368915 ], [ 5.8264033, 52.0368672 ], [ 5.8263281, 52.036843 ], [ 5.8262647, 52.0368067 ], [ 5.8262036, 52.0367744 ], [ 5.8261536, 52.036732 ], [ 5.8260911, 52.0366641 ], [ 5.8260357, 52.0365934 ], [ 5.8259774, 52.0364906 ], [ 5.8259378, 52.0364142 ], [ 5.8259109, 52.0363581 ], [ 5.8248148, 52.035379 ], [ 5.8247673, 52.0353371 ], [ 5.8244425, 52.0350506 ], [ 5.8243067, 52.0349338 ], [ 5.8242774, 52.0349086 ], [ 5.8241033, 52.0347589 ], [ 5.823802, 52.0344998 ], [ 5.8234321, 52.03417 ], [ 5.8228046, 52.0336069 ], [ 5.8219436, 52.032876 ], [ 5.821512, 52.0324982 ], [ 5.8214581, 52.032451 ], [ 5.8210315, 52.0320808 ], [ 5.820385, 52.0314073 ], [ 5.8188484, 52.0298009 ], [ 5.8186919, 52.0296373 ], [ 5.8186507, 52.0295942 ], [ 5.8185985, 52.0295397 ], [ 5.8184621, 52.0293971 ], [ 5.8143216, 52.0250725 ], [ 5.8141045, 52.0248412 ], [ 5.8133737, 52.0240706 ], [ 5.8129287, 52.0236014 ], [ 5.8127563, 52.0234196 ], [ 5.8115665, 52.0221647 ], [ 5.8107464, 52.0212999 ], [ 5.8100215, 52.0205359 ], [ 5.8096923, 52.0201884 ], [ 5.809261, 52.0197332 ], [ 5.8091301, 52.0195951 ], [ 5.8083383, 52.0187599 ], [ 5.8083018, 52.0185714 ], [ 5.8081741, 52.0179112 ], [ 5.8081608, 52.0178242 ], [ 5.8073917, 52.0127863 ], [ 5.8073851, 52.0127428 ], [ 5.807226, 52.0117005 ], [ 5.8066208, 52.0106159 ], [ 5.8054543, 52.0085134 ], [ 5.8041188, 52.0061306 ], [ 5.803054, 52.0042215 ], [ 5.8030081, 52.0041392 ], [ 5.8029894, 52.0041056 ], [ 5.8029834, 52.0040949 ], [ 5.8029606, 52.0040541 ] ] ] } }
]
}
