{
"type": "FeatureCollection",
"name": "baranovichi_by",
"crs": { "type": "name", "properties": { "name": "urn:ogc:def:crs:OGC:1.3:CRS84" } },
"features": [
{ "type": "Feature", "properties": { "bbox_west": 25.9025001, "bbox_south": 53.0797962, "bbox_east": 26.1057498, "bbox_north": 53.1737544, "place_id": 171641803, "osm_type": "relation", "osm_id": 3629362, "lat": 53.1322925, "lon": 26.0184156, "class": "boundary", "type": "administrative", "place_rank": 12, "importance": 0.55239174895993071, "addresstype": "city", "name": "Baranavichy", "display_name": "Baranavichy, Brest Region, Belarus" }, "geometry": { "type": "Polygon", "coordinates": [ [ [ 25.9025001, 53.1157047 ], [ 25.9047532, 53.1157691 ], [ 25.9063625, 53.1159623 ], [ 25.9074783, 53.1162328 ], [ 25.912591, 53.1141715 ], [ 25.9132075, 53.1122273 ], [ 25.9114909, 53.1109393 ], [ 25.910933, 53.1095095 ], [ 25.9116361, 53.1080369 ], [ 25.9033584, 53.1070106 ], [ 25.9036675, 53.1028099 ], [ 25.9038197, 53.0985627 ], [ 25.913986, 53.0910433 ], [ 25.9226372, 53.0957115 ], [ 25.9231505, 53.0953367 ], [ 25.9256422, 53.0965978 ], [ 25.9288501, 53.0934056 ], [ 25.9323263, 53.0951322 ], [ 25.934515, 53.0942818 ], [ 25.9379053, 53.0963434 ], [ 25.9449219, 53.0930061 ], [ 25.9470677, 53.09155 ], [ 25.9512949, 53.0908284 ], [ 25.9561443, 53.0909186 ], [ 25.9627104, 53.0865241 ], [ 25.9638262, 53.087104 ], [ 25.9673023, 53.0849647 ], [ 25.9702205, 53.0851193 ], [ 25.9738718, 53.082915 ], [ 25.9747497, 53.0838185 ], [ 25.9795132, 53.0862513 ], [ 25.9802842, 53.0866788 ], [ 25.9832024, 53.0860601 ], [ 25.9837389, 53.0874907 ], [ 25.9868213, 53.0870464 ], [ 25.9869222, 53.0889923 ], [ 25.9883311, 53.0929928 ], [ 25.9918543, 53.096798 ], [ 25.991956, 53.0969079 ], [ 25.9924367, 53.0970815 ], [ 25.9933933, 53.0974271 ], [ 25.9934515, 53.0974481 ], [ 25.9966874, 53.098617 ], [ 26.0017044, 53.1002037 ], [ 26.0018658, 53.1002604 ], [ 26.0063248, 53.1018263 ], [ 26.0066666, 53.1019463 ], [ 26.0088192, 53.1024134 ], [ 26.0149907, 53.1042922 ], [ 26.020811, 53.0985847 ], [ 26.0233497, 53.0961115 ], [ 26.0203886, 53.092684 ], [ 26.0219764, 53.086653 ], [ 26.0238647, 53.0825288 ], [ 26.0286283, 53.0797962 ], [ 26.03784, 53.0856653 ], [ 26.03799, 53.085774 ], [ 26.0472557, 53.0906164 ], [ 26.0532561, 53.0921014 ], [ 26.0656275, 53.0965949 ], [ 26.0687358, 53.1061805 ], [ 26.0620689, 53.112214 ], [ 26.0706206, 53.1158607 ], [ 26.0708116, 53.1159268 ], [ 26.0711843, 53.1160559 ], [ 26.0720723, 53.116296 ], [ 26.0722947, 53.1163366 ], [ 26.0728328, 53.1166373 ], [ 26.0739994, 53.1169395 ], [ 26.0746619, 53.1169203 ], [ 26.0787523, 53.1180746 ], [ 26.0815067, 53.1192957 ], [ 26.0829788, 53.1199483 ], [ 26.0830954, 53.1205346 ], [ 26.0845706, 53.1215338 ], [ 26.085846, 53.122336 ], [ 26.0883846, 53.1232072 ], [ 26.0893989, 53.1243575 ], [ 26.0896275, 53.1246167 ], [ 26.0896059, 53.12464 ], [ 26.0892383, 53.1250379 ], [ 26.0896386, 53.1254493 ], [ 26.0949399, 53.1287217 ], [ 26.0989202, 53.1311834 ], [ 26.0985647, 53.1314407 ], [ 26.0989502, 53.1317238 ], [ 26.0985632, 53.131994 ], [ 26.0974348, 53.132749 ], [ 26.0942727, 53.1346519 ], [ 26.100349, 53.1351917 ], [ 26.1025414, 53.1360146 ], [ 26.1042025, 53.1381068 ], [ 26.1048835, 53.1413348 ], [ 26.1057498, 53.1417076 ], [ 26.096871, 53.1469957 ], [ 26.0938061, 53.149887 ], [ 26.0865006, 53.1476215 ], [ 26.0841062, 53.1503502 ], [ 26.0787633, 53.148837 ], [ 26.0762307, 53.1515691 ], [ 26.0758819, 53.1519249 ], [ 26.0746394, 53.1530394 ], [ 26.0767471, 53.1537701 ], [ 26.0775891, 53.1544313 ], [ 26.0787004, 53.155338 ], [ 26.0813315, 53.1575912 ], [ 26.0835307, 53.1594496 ], [ 26.0843007, 53.1598675 ], [ 26.084524, 53.1607882 ], [ 26.0856687, 53.1641094 ], [ 26.085379, 53.1642032 ], [ 26.0834905, 53.1647479 ], [ 26.0818491, 53.1652149 ], [ 26.0791197, 53.1659051 ], [ 26.0779347, 53.1661651 ], [ 26.0723634, 53.1677312 ], [ 26.0672736, 53.1689775 ], [ 26.0694906, 53.171156 ], [ 26.0636656, 53.1721474 ], [ 26.0607094, 53.1727186 ], [ 26.0568928, 53.1734249 ], [ 26.0555043, 53.1730598 ], [ 26.0524795, 53.1725683 ], [ 26.049572, 53.1711483 ], [ 26.0477362, 53.1702517 ], [ 26.0474147, 53.1701096 ], [ 26.0432141, 53.1682527 ], [ 26.0392915, 53.1710867 ], [ 26.0390145, 53.1712868 ], [ 26.0386635, 53.1712257 ], [ 26.0324228, 53.1688087 ], [ 26.027185, 53.1669424 ], [ 26.0282646, 53.1698487 ], [ 26.0279532, 53.170466 ], [ 26.0252035, 53.1704707 ], [ 26.0216375, 53.1704767 ], [ 26.0180273, 53.1704211 ], [ 26.0115798, 53.1710864 ], [ 26.0069279, 53.1737544 ], [ 26.0030686, 53.1722154 ], [ 25.993918, 53.1682513 ], [ 25.9857309, 53.1637392 ], [ 25.9826741, 53.1612428 ], [ 25.9803797, 53.1590223 ], [ 25.9754844, 53.1540589 ], [ 25.9715966, 53.1511179 ], [ 25.9618895, 53.1466382 ], [ 25.9621432, 53.1460628 ], [ 25.9442376, 53.1415471 ], [ 25.9459592, 53.1372152 ], [ 25.9452997, 53.1370665 ], [ 25.9458446, 53.1344395 ], [ 25.940845, 53.1366923 ], [ 25.9384417, 53.1369111 ], [ 25.9361028, 53.1359328 ], [ 25.9362745, 53.1348772 ], [ 25.9354591, 53.1338473 ], [ 25.9311032, 53.1333839 ], [ 25.9294833, 53.1339203 ], [ 25.9287725, 53.1347574 ], [ 25.9216833, 53.1335899 ], [ 25.9190707, 53.1335748 ], [ 25.916874, 53.1323745 ], [ 25.9199237, 53.1306288 ], [ 25.9099892, 53.12674 ], [ 25.9065227, 53.1241725 ], [ 25.904143, 53.1221921 ], [ 25.9036813, 53.1217686 ], [ 25.9033631, 53.1211231 ], [ 25.9025105, 53.1186576 ], [ 25.9025001, 53.1157047 ] ] ] } }
]
}
