{
"type": "FeatureCollection",
"name": "basel_ch",
"crs": { "type": "name", "properties": { "name": "urn:ogc:def:crs:OGC:1.3:CRS84" } },
"features": [
{ "type": "Feature", "properties": { "bbox_west": 7.5546595, "bbox_south": 47.5192971, "bbox_east": 7.6341484, "bbox_north": 47.5898969, "place_id": 93318483, "osm_type": "relation", "osm_id": 1683619, "lat": 47.5581077, "lon": 7.5878261, "class": "boundary", "type": "administrative", "place_rank": 16, "importance": 0.72190621349930884, "addresstype": "city", "name": "Basel", "display_name": "Basel, Basel-City, Switzerland" }, "geometry": { "type": "Polygon", "coordinates": [ [ [ 7.5546595, 47.5643666 ], [ 7.556297, 47.5634898 ], [ 7.5579342, 47.5626254 ], [ 7.5587268, 47.561964 ], [ 7.5598767, 47.5605372 ], [ 7.5615911, 47.5591851 ], [ 7.5645679, 47.5572226 ], [ 7.5645785, 47.5571084 ], [ 7.5645847, 47.5570412 ], [ 7.5630591, 47.5549344 ], [ 7.5613257, 47.5518623 ], [ 7.5612499, 47.551728 ], [ 7.5587589, 47.5523584 ], [ 7.5558883, 47.5443407 ], [ 7.556546, 47.544337 ], [ 7.5570486, 47.5443675 ], [ 7.5575452, 47.5444047 ], [ 7.5594224, 47.5446929 ], [ 7.5600998, 47.5448043 ], [ 7.5608579, 47.5449423 ], [ 7.5610736, 47.5449904 ], [ 7.5612845, 47.545049 ], [ 7.5614972, 47.5450976 ], [ 7.5617134, 47.5451378 ], [ 7.5619328, 47.5451694 ], [ 7.5622724, 47.5452068 ], [ 7.5630212, 47.5453107 ], [ 7.5635183, 47.5454184 ], [ 7.5642366, 47.5455886 ], [ 7.564523, 47.545663 ], [ 7.5646849, 47.5456943 ], [ 7.5647916, 47.5456913 ], [ 7.5675924, 47.5452599 ], [ 7.5711221, 47.5447413 ], [ 7.5752918, 47.5440274 ], [ 7.5757024, 47.5439571 ], [ 7.5777302, 47.5438213 ], [ 7.5778786, 47.5438114 ], [ 7.5781005, 47.5437966 ], [ 7.5782816, 47.5437661 ], [ 7.5784751, 47.5437334 ], [ 7.5786353, 47.5437935 ], [ 7.5791554, 47.5438374 ], [ 7.580074, 47.5438389 ], [ 7.5805387, 47.543793 ], [ 7.5809715, 47.5436927 ], [ 7.5814467, 47.5438253 ], [ 7.5814796, 47.5438287 ], [ 7.5872696, 47.5419057 ], [ 7.5868443, 47.5412447 ], [ 7.586523, 47.5405128 ], [ 7.5857276, 47.5391344 ], [ 7.5855112, 47.5386492 ], [ 7.585489, 47.5385894 ], [ 7.5854708, 47.5384943 ], [ 7.5854729, 47.5383984 ], [ 7.5854951, 47.5383037 ], [ 7.5855371, 47.5382121 ], [ 7.5855881, 47.5381376 ], [ 7.5856522, 47.5380678 ], [ 7.585715, 47.5380141 ], [ 7.585852, 47.5379135 ], [ 7.5858987, 47.5378704 ], [ 7.5859463, 47.5378089 ], [ 7.585976, 47.537748 ], [ 7.585992, 47.5376794 ], [ 7.5859905, 47.53761 ], [ 7.5859794, 47.5375624 ], [ 7.5859518, 47.5375011 ], [ 7.585926, 47.5374087 ], [ 7.5856353, 47.5369109 ], [ 7.5850724, 47.5359977 ], [ 7.584525, 47.5351819 ], [ 7.5841821, 47.5346472 ], [ 7.5836817, 47.5337942 ], [ 7.5834715, 47.5334647 ], [ 7.5830064, 47.5329477 ], [ 7.582695, 47.5324731 ], [ 7.5827872, 47.5319839 ], [ 7.5831795, 47.5314872 ], [ 7.5838576, 47.5309186 ], [ 7.5846792, 47.5312277 ], [ 7.5856831, 47.5313229 ], [ 7.5859049, 47.5299585 ], [ 7.5858669, 47.5292755 ], [ 7.588466, 47.5290556 ], [ 7.588387, 47.5285066 ], [ 7.588485, 47.5282758 ], [ 7.5889124, 47.5280286 ], [ 7.5894826, 47.5279231 ], [ 7.5898333, 47.5270746 ], [ 7.5899235, 47.5266745 ], [ 7.5899641, 47.5257376 ], [ 7.5896412, 47.5251572 ], [ 7.5896095, 47.5244274 ], [ 7.5893954, 47.5237135 ], [ 7.5893183, 47.5229554 ], [ 7.5894367, 47.5222932 ], [ 7.5896678, 47.5218266 ], [ 7.5899931, 47.5205282 ], [ 7.5900421, 47.5204157 ], [ 7.5902188, 47.5199291 ], [ 7.5902549, 47.5197945 ], [ 7.5907456, 47.5196552 ], [ 7.5927878, 47.5194695 ], [ 7.5947883, 47.5192971 ], [ 7.601768, 47.5253475 ], [ 7.6047028, 47.5292911 ], [ 7.6046151, 47.5297979 ], [ 7.6054729, 47.5297839 ], [ 7.6055404, 47.5297828 ], [ 7.605482, 47.5303019 ], [ 7.6055784, 47.5304247 ], [ 7.6056805, 47.5305547 ], [ 7.6056425, 47.530742 ], [ 7.6060331, 47.5307783 ], [ 7.6060088, 47.5309725 ], [ 7.6091826, 47.5350166 ], [ 7.6102214, 47.5356318 ], [ 7.6104849, 47.5352145 ], [ 7.611379, 47.5354467 ], [ 7.6110278, 47.5359604 ], [ 7.6118152, 47.5364265 ], [ 7.6118411, 47.5365771 ], [ 7.6123623, 47.5367419 ], [ 7.6127143, 47.5370225 ], [ 7.6128464, 47.5373008 ], [ 7.6130129, 47.5384451 ], [ 7.6131744, 47.5387477 ], [ 7.6134307, 47.5390187 ], [ 7.6137808, 47.539251 ], [ 7.6141998, 47.5394231 ], [ 7.6165067, 47.5399666 ], [ 7.6169975, 47.5401189 ], [ 7.6170999, 47.5401679 ], [ 7.6175901, 47.5404022 ], [ 7.6181485, 47.5408004 ], [ 7.6190301, 47.5404729 ], [ 7.6197653, 47.5402824 ], [ 7.6198479, 47.5402683 ], [ 7.6223107, 47.5397776 ], [ 7.622497, 47.5424311 ], [ 7.6229623, 47.5492907 ], [ 7.6228545, 47.5500403 ], [ 7.6226655, 47.5505183 ], [ 7.6223987, 47.550975 ], [ 7.6220535, 47.551407 ], [ 7.6216349, 47.5518082 ], [ 7.6207617, 47.5524006 ], [ 7.6185071, 47.5535681 ], [ 7.6180597, 47.5539379 ], [ 7.617741, 47.5543666 ], [ 7.6176167, 47.5546487 ], [ 7.6175802, 47.5549522 ], [ 7.6177985, 47.5562634 ], [ 7.6178338, 47.5570769 ], [ 7.6177898, 47.5576066 ], [ 7.6177686, 47.5578613 ], [ 7.6176173, 47.5586485 ], [ 7.6192664, 47.5591127 ], [ 7.6243822, 47.5607532 ], [ 7.6273612, 47.5615165 ], [ 7.6287755, 47.5616815 ], [ 7.6302053, 47.5617061 ], [ 7.6315166, 47.5616482 ], [ 7.6326022, 47.5615119 ], [ 7.6329095, 47.5623145 ], [ 7.6329244, 47.5623535 ], [ 7.6330475, 47.562675 ], [ 7.6341484, 47.5655498 ], [ 7.6313486, 47.5679518 ], [ 7.6309579, 47.5677456 ], [ 7.6304321, 47.567476 ], [ 7.6299383, 47.5672287 ], [ 7.6293478, 47.5669454 ], [ 7.6282522, 47.566434 ], [ 7.628134, 47.5665481 ], [ 7.6279608, 47.5667154 ], [ 7.6255032, 47.5690879 ], [ 7.6257342, 47.5691975 ], [ 7.6249745, 47.5699309 ], [ 7.6240031, 47.5689942 ], [ 7.6239663, 47.5689637 ], [ 7.6239232, 47.5689371 ], [ 7.6238749, 47.5689151 ], [ 7.6238223, 47.568898 ], [ 7.6237666, 47.5688863 ], [ 7.623709, 47.5688802 ], [ 7.6236508, 47.56888 ], [ 7.6235867, 47.5688863 ], [ 7.6235311, 47.5688981 ], [ 7.6234785, 47.5689152 ], [ 7.6234353, 47.5689345 ], [ 7.6233962, 47.5689575 ], [ 7.6233619, 47.5689838 ], [ 7.6226915, 47.5696303 ], [ 7.6219704, 47.5707122 ], [ 7.6208016, 47.5734142 ], [ 7.6233894, 47.5753656 ], [ 7.6270232, 47.577351 ], [ 7.6245533, 47.5794211 ], [ 7.62395, 47.5791597 ], [ 7.6223873, 47.5783561 ], [ 7.6191343, 47.5768697 ], [ 7.6167075, 47.5776795 ], [ 7.6149736, 47.5779929 ], [ 7.613204, 47.5781561 ], [ 7.6111634, 47.5781693 ], [ 7.6094106, 47.5781807 ], [ 7.604882, 47.5778737 ], [ 7.6048883, 47.5779017 ], [ 7.6052433, 47.5794848 ], [ 7.6053326, 47.5798829 ], [ 7.604762, 47.5804041 ], [ 7.6047115, 47.5811768 ], [ 7.6046639, 47.581201 ], [ 7.6045977, 47.581234 ], [ 7.6045335, 47.5812704 ], [ 7.6045173, 47.5812792 ], [ 7.6044627, 47.581294 ], [ 7.6044358, 47.5812958 ], [ 7.6043491, 47.581305 ], [ 7.604305, 47.5813093 ], [ 7.6041536, 47.581324 ], [ 7.6040542, 47.5813337 ], [ 7.6045798, 47.5828096 ], [ 7.6048159, 47.5849295 ], [ 7.6040857, 47.5852408 ], [ 7.6025062, 47.5859143 ], [ 7.602132, 47.5860822 ], [ 7.6020111, 47.5861254 ], [ 7.5984622, 47.5876386 ], [ 7.5939634, 47.5887732 ], [ 7.5933657, 47.5889235 ], [ 7.5932822, 47.5889445 ], [ 7.5931946, 47.5889673 ], [ 7.5931649, 47.5889746 ], [ 7.5931023, 47.5889909 ], [ 7.5906744, 47.5895315 ], [ 7.5904086, 47.5895907 ], [ 7.5890388, 47.5898969 ], [ 7.5882481, 47.5885161 ], [ 7.5873169, 47.5871798 ], [ 7.586964, 47.5865465 ], [ 7.5857191, 47.5840853 ], [ 7.5846578, 47.58087 ], [ 7.5843906, 47.5785769 ], [ 7.5844813, 47.5769671 ], [ 7.5846527, 47.5755281 ], [ 7.5831562, 47.5758243 ], [ 7.5829006, 47.5758791 ], [ 7.5826314, 47.5759322 ], [ 7.5816725, 47.5761215 ], [ 7.5807565, 47.5763026 ], [ 7.5804968, 47.5763503 ], [ 7.5801178, 47.5764281 ], [ 7.5799137, 47.5764675 ], [ 7.57886, 47.576671 ], [ 7.5779979, 47.5765961 ], [ 7.5774728, 47.5765511 ], [ 7.5764021, 47.5764578 ], [ 7.5758229, 47.5763 ], [ 7.5752465, 47.5761489 ], [ 7.5748939, 47.5762391 ], [ 7.5746997, 47.5762887 ], [ 7.5746142, 47.5763119 ], [ 7.5730069, 47.5767415 ], [ 7.5726981, 47.5768243 ], [ 7.5723193, 47.5769249 ], [ 7.5718904, 47.5770393 ], [ 7.5716407, 47.5771059 ], [ 7.5716149, 47.5771131 ], [ 7.5706707, 47.577226 ], [ 7.5695748, 47.5773563 ], [ 7.5690782, 47.5774153 ], [ 7.5681645, 47.5775053 ], [ 7.5676878, 47.5775518 ], [ 7.56745, 47.5775755 ], [ 7.5667337, 47.5776459 ], [ 7.5664893, 47.5776703 ], [ 7.5663532, 47.5774805 ], [ 7.5656022, 47.5764477 ], [ 7.5654404, 47.5762224 ], [ 7.5647454, 47.5759143 ], [ 7.5647263, 47.5759059 ], [ 7.5624086, 47.5748773 ], [ 7.5621947, 47.5747839 ], [ 7.5607335, 47.5741454 ], [ 7.5595289, 47.5736187 ], [ 7.557025, 47.5725235 ], [ 7.556895, 47.5724666 ], [ 7.5564645, 47.5713891 ], [ 7.5586849, 47.5698445 ], [ 7.5593357, 47.569392 ], [ 7.5593224, 47.5693654 ], [ 7.5587395, 47.5681978 ], [ 7.5587036, 47.5681261 ], [ 7.558267, 47.5672496 ], [ 7.5577011, 47.5659524 ], [ 7.557352, 47.5651522 ], [ 7.5573303, 47.5651011 ], [ 7.5573002, 47.5650334 ], [ 7.5546595, 47.5643666 ] ] ] } }
]
}
