{
"type": "FeatureCollection",
"name": "belfast_gb",
"crs": { "type": "name", "properties": { "name": "urn:ogc:def:crs:OGC:1.3:CRS84" } },
"features": [
{ "type": "Feature", "properties": { }, "geometry": { "type": "Polygon", "coordinates": [ [ [ -6.0601801, 54.556266 ], [ -6.0600255, 54.555722 ], [ -6.059897, 54.5553831 ], [ -6.0598329, 54.5552595 ], [ -6.0597508, 54.555162 ], [ -6.0596417, 54.5550734 ], [ -6.059479, 54.5549846 ], [ -6.0575872, 54.554154 ], [ -6.0572221, 54.554013 ], [ -6.0560685, 54.5535955 ], [ -6.0535521, 54.5527469 ], [ -6.0522858, 54.5524114 ], [ -6.0516097, 54.5522477 ], [ -6.0488765, 54.551586 ], [ -6.0477938, 54.5513424 ], [ -6.0476215, 54.551284 ], [ -6.0474587, 54.5512035 ], [ -6.0473235, 54.5511163 ], [ -6.0471867, 54.5510059 ], [ -6.0456883, 54.5494209 ], [ -6.0456063, 54.5493374 ], [ -6.0455509, 54.5492809 ], [ -6.0454304, 54.5491896 ], [ -6.0430836, 54.5478724 ], [ -6.0422137, 54.5473596 ], [ -6.0417372, 54.5470868 ], [ -6.0414529, 54.546924 ], [ -6.0413296, 54.5468472 ], [ -6.0412253, 54.5467769 ], [ -6.0410425, 54.5468075 ], [ -6.0400283, 54.5471734 ], [ -6.0393338, 54.5474472 ], [ -6.0389975, 54.5475935 ], [ -6.0386983, 54.5477126 ], [ -6.038498, 54.547803 ], [ -6.0383422, 54.5478732 ], [ -6.03804, 54.5480077 ], [ -6.0375853, 54.5482389 ], [ -6.0373475, 54.5484012 ], [ -6.0372216, 54.5484174 ], [ -6.0369768, 54.5482633 ], [ -6.0367251, 54.5481456 ], [ -6.0365432, 54.5480483 ], [ -6.0364453, 54.5479387 ], [ -6.0349415, 54.5471801 ], [ -6.0345848, 54.5473748 ], [ -6.034354, 54.5474884 ], [ -6.0341092, 54.5476304 ], [ -6.0339554, 54.5475817 ], [ -6.0338435, 54.5475736 ], [ -6.0335847, 54.5476223 ], [ -6.0333958, 54.5476182 ], [ -6.0333049, 54.5475736 ], [ -6.0333084, 54.547314 ], [ -6.0332944, 54.547243 ], [ -6.0329202, 54.5472227 ], [ -6.0327279, 54.5471882 ], [ -6.0323179, 54.547111 ], [ -6.0319884, 54.5472322 ], [ -6.0317891, 54.5473032 ], [ -6.0315583, 54.5473863 ], [ -6.0314324, 54.5474472 ], [ -6.0313135, 54.5474898 ], [ -6.0310477, 54.5475364 ], [ -6.0308274, 54.5475709 ], [ -6.030642, 54.5475932 ], [ -6.0303614, 54.5476326 ], [ -6.030183, 54.5475961 ], [ -6.0300467, 54.5475697 ], [ -6.0298963, 54.5475616 ], [ -6.0295256, 54.5474865 ], [ -6.0293123, 54.5474541 ], [ -6.0291304, 54.5474155 ], [ -6.0289975, 54.5473892 ], [ -6.0286778, 54.5473261 ], [ -6.0285957, 54.5473089 ], [ -6.0283726, 54.5473025 ], [ -6.0282749, 54.5469008 ], [ -6.0279601, 54.5463635 ], [ -6.0275783, 54.5459348 ], [ -6.0271912, 54.5456651 ], [ -6.0267238, 54.5458703 ], [ -6.0259617, 54.5460669 ], [ -6.0251007, 54.5462778 ], [ -6.0246694, 54.5463775 ], [ -6.0231142, 54.5467568 ], [ -6.0225966, 54.5468911 ], [ -6.0221156, 54.5470339 ], [ -6.0213731, 54.5472834 ], [ -6.0209735, 54.5474343 ], [ -6.020557, 54.5476108 ], [ -6.0199848, 54.5478873 ], [ -6.0195793, 54.5481064 ], [ -6.0191458, 54.5483651 ], [ -6.0186306, 54.5487197 ], [ -6.018252, 54.5490139 ], [ -6.0178701, 54.5493561 ], [ -6.0176063, 54.5496199 ], [ -6.0172545, 54.5500135 ], [ -6.0167983, 54.5505732 ], [ -6.0165696, 54.5508778 ], [ -6.0149366, 54.5500169 ], [ -6.0139684, 54.5494415 ], [ -6.0130698, 54.5488901 ], [ -6.0129859, 54.5488386 ], [ -6.012968, 54.5488276 ], [ -6.0128668, 54.5487655 ], [ -6.0119088, 54.5482139 ], [ -6.0118533, 54.5481819 ], [ -6.0114158, 54.5479452 ], [ -6.0111394, 54.5478091 ], [ -6.0110635, 54.547764 ], [ -6.0109665, 54.5477269 ], [ -6.0108818, 54.5477048 ], [ -6.0107659, 54.5477083 ], [ -6.0106711, 54.5477274 ], [ -6.010603, 54.5477692 ], [ -6.0105355, 54.5477993 ], [ -6.0104419, 54.5477952 ], [ -6.0103148, 54.5477661 ], [ -6.0103934, 54.5476214 ], [ -6.0104367, 54.5475434 ], [ -6.010103, 54.5474868 ], [ -6.0096016, 54.5473033 ], [ -6.0093288, 54.5472658 ], [ -6.0090517, 54.5473262 ], [ -6.0083751, 54.5474935 ], [ -6.0075037, 54.5475308 ], [ -6.007055, 54.5474011 ], [ -6.0068971, 54.547089 ], [ -6.0067082, 54.5469138 ], [ -6.0065048, 54.546711 ], [ -6.0062083, 54.5465868 ], [ -6.0059733, 54.5465441 ], [ -6.00537, 54.5465157 ], [ -6.0045696, 54.5461405 ], [ -6.0041834, 54.5458418 ], [ -6.003147, 54.5453341 ], [ -6.0021492, 54.544861 ], [ -6.0017814, 54.5448445 ], [ -6.0014728, 54.5450621 ], [ -6.0014457, 54.5452053 ], [ -6.0013009, 54.5452918 ], [ -6.0009595, 54.5453549 ], [ -6.0005135, 54.5453639 ], [ -5.9999777, 54.5438145 ], [ -5.999468, 54.5425212 ], [ -5.9993809, 54.5422216 ], [ -5.9996985, 54.5406273 ], [ -5.99957, 54.5406316 ], [ -5.9993098, 54.5406939 ], [ -5.999115, 54.5407135 ], [ -5.998978, 54.5407708 ], [ -5.998765, 54.5407708 ], [ -5.9986119, 54.5408116 ], [ -5.9984817, 54.5408306 ], [ -5.9983207, 54.5408452 ], [ -5.9983396, 54.5408797 ], [ -5.9982302, 54.5411384 ], [ -5.9981208, 54.5416364 ], [ -5.9980535, 54.5420685 ], [ -5.9979286, 54.5423185 ], [ -5.9975653, 54.5423175 ], [ -5.9970814, 54.5422345 ], [ -5.9965932, 54.5422467 ], [ -5.9956641, 54.542628 ], [ -5.9954485, 54.5426876 ], [ -5.9949941, 54.5428131 ], [ -5.9945741, 54.5428945 ], [ -5.9943504, 54.5429379 ], [ -5.9937902, 54.5429253 ], [ -5.993252, 54.5429132 ], [ -5.992768, 54.5428814 ], [ -5.9916973, 54.5425522 ], [ -5.990621, 54.5422505 ], [ -5.9904174, 54.5421819 ], [ -5.990283, 54.5421366 ], [ -5.9898855, 54.5420026 ], [ -5.9893934, 54.5417505 ], [ -5.9891244, 54.5415307 ], [ -5.9888068, 54.5411075 ], [ -5.9886952, 54.5406195 ], [ -5.9883862, 54.5402262 ], [ -5.9879183, 54.5398654 ], [ -5.9876666, 54.5395183 ], [ -5.9875317, 54.5390345 ], [ -5.9871544, 54.5384506 ], [ -5.9871333, 54.538287 ], [ -5.9873648, 54.5377816 ], [ -5.9874651, 54.5374019 ], [ -5.9873986, 54.5373487 ], [ -5.9871586, 54.5371566 ], [ -5.9867536, 54.5369425 ], [ -5.9858379, 54.5366383 ], [ -5.9855766, 54.5366091 ], [ -5.9853195, 54.5366091 ], [ -5.9847346, 54.5367223 ], [ -5.9843142, 54.5366905 ], [ -5.9839787, 54.536598 ], [ -5.9838648, 54.5365105 ], [ -5.9838695, 54.5364098 ], [ -5.983963, 54.5363445 ], [ -5.9841769, 54.5362914 ], [ -5.984463, 54.5361813 ], [ -5.9846501, 54.5360105 ], [ -5.9848157, 54.5358043 ], [ -5.9848277, 54.5356524 ], [ -5.9847276, 54.5355032 ], [ -5.9844155, 54.5352602 ], [ -5.9840287, 54.5350443 ], [ -5.9838087, 54.5350148 ], [ -5.9835647, 54.5349869 ], [ -5.9832857, 54.5351023 ], [ -5.9829077, 54.5351094 ], [ -5.9824823, 54.5351578 ], [ -5.9820855, 54.5352896 ], [ -5.9818443, 54.5355645 ], [ -5.9817208, 54.5356474 ], [ -5.9815412, 54.5357005 ], [ -5.9812289, 54.5357374 ], [ -5.9801003, 54.5358681 ], [ -5.9798339, 54.5358128 ], [ -5.9793912, 54.5355005 ], [ -5.9791702, 54.535393 ], [ -5.9786018, 54.53537 ], [ -5.9781129, 54.5353492 ], [ -5.9778322, 54.5351564 ], [ -5.97716, 54.5343815 ], [ -5.9771033, 54.5341523 ], [ -5.9772662, 54.5337326 ], [ -5.9774179, 54.5332878 ], [ -5.9775025, 54.5331857 ], [ -5.9779023, 54.5327032 ], [ -5.9779749, 54.5326155 ], [ -5.9778221, 54.5322528 ], [ -5.9776329, 54.5320862 ], [ -5.9775034, 54.5320177 ], [ -5.9773553, 54.5319393 ], [ -5.976977, 54.5316754 ], [ -5.976649, 54.5313563 ], [ -5.9762799, 54.5307088 ], [ -5.9760291, 54.5306104 ], [ -5.9759054, 54.5305618 ], [ -5.9754351, 54.5306254 ], [ -5.975244, 54.5307591 ], [ -5.9751593, 54.5310335 ], [ -5.9753996, 54.5314998 ], [ -5.9751587, 54.531636 ], [ -5.9747235, 54.5316485 ], [ -5.9742248, 54.531589 ], [ -5.973613, 54.5314639 ], [ -5.9732536, 54.5313155 ], [ -5.9732486, 54.5310679 ], [ -5.9732158, 54.530908 ], [ -5.9730751, 54.5307994 ], [ -5.9728913, 54.5307395 ], [ -5.9727754, 54.5307866 ], [ -5.9727579, 54.5308115 ], [ -5.9727239, 54.5308601 ], [ -5.9725777, 54.5312525 ], [ -5.9724626, 54.5315391 ], [ -5.9720661, 54.5321371 ], [ -5.9720399, 54.5324022 ], [ -5.9720399, 54.5326113 ], [ -5.9718758, 54.5327285 ], [ -5.9701501, 54.533127 ], [ -5.9698811, 54.5330888 ], [ -5.9697972, 54.5330119 ], [ -5.9697228, 54.5328712 ], [ -5.9698209, 54.5327528 ], [ -5.97026, 54.5325295 ], [ -5.9702616, 54.5323103 ], [ -5.9701174, 54.5322096 ], [ -5.9699358, 54.5321925 ], [ -5.969725, 54.5322146 ], [ -5.96934, 54.5323148 ], [ -5.9686666, 54.5329091 ], [ -5.9680005, 54.5333772 ], [ -5.9679372, 54.5335974 ], [ -5.9683798, 54.5340074 ], [ -5.9682736, 54.534153 ], [ -5.9679095, 54.5342403 ], [ -5.967464, 54.5342516 ], [ -5.9670448, 54.5347791 ], [ -5.9665318, 54.5356046 ], [ -5.9662045, 54.5359821 ], [ -5.9659447, 54.5361469 ], [ -5.9655473, 54.5362318 ], [ -5.9649629, 54.5363063 ], [ -5.9643028, 54.5363009 ], [ -5.9632766, 54.5363444 ], [ -5.9631117, 54.5363652 ], [ -5.9628683, 54.5364332 ], [ -5.9616969, 54.5369633 ], [ -5.961099, 54.5372799 ], [ -5.9603208, 54.5376411 ], [ -5.9601491, 54.5378502 ], [ -5.9599865, 54.5380782 ], [ -5.9599865, 54.5383381 ], [ -5.9597536, 54.5385824 ], [ -5.9595419, 54.5386029 ], [ -5.9593773, 54.5386188 ], [ -5.9588128, 54.5384732 ], [ -5.9584097, 54.5382393 ], [ -5.9576302, 54.537704 ], [ -5.9573346, 54.5372933 ], [ -5.9575137, 54.5371062 ], [ -5.9578542, 54.5367216 ], [ -5.9574152, 54.5357807 ], [ -5.9566537, 54.5357287 ], [ -5.9563849, 54.535396 ], [ -5.9551395, 54.5355624 ], [ -5.9546951, 54.5356393 ], [ -5.9545878, 54.5356579 ], [ -5.9536971, 54.5358119 ], [ -5.953469, 54.5358937 ], [ -5.9533194, 54.5359473 ], [ -5.9532043, 54.5359886 ], [ -5.9515374, 54.5367419 ], [ -5.951406, 54.5368012 ], [ -5.9512602, 54.5368671 ], [ -5.949764, 54.5375324 ], [ -5.9496878, 54.5374233 ], [ -5.9496023, 54.5372767 ], [ -5.9495893, 54.5372543 ], [ -5.9494235, 54.5372751 ], [ -5.9491189, 54.5373427 ], [ -5.9488591, 54.5373843 ], [ -5.9486038, 54.5374545 ], [ -5.9482947, 54.5375558 ], [ -5.9480438, 54.5376442 ], [ -5.9476496, 54.5377611 ], [ -5.9474346, 54.5378157 ], [ -5.9468567, 54.5379613 ], [ -5.9464849, 54.5380808 ], [ -5.9458347, 54.5382595 ], [ -5.9454978, 54.5383538 ], [ -5.9453583, 54.5383435 ], [ -5.94538, 54.5385413 ], [ -5.9453963, 54.5387793 ], [ -5.9453833, 54.5390344 ], [ -5.9454028, 54.5391667 ], [ -5.9454615, 54.5392744 ], [ -5.9455592, 54.5394236 ], [ -5.9456113, 54.5395256 ], [ -5.9456308, 54.5396466 ], [ -5.9456145, 54.5397543 ], [ -5.9455689, 54.5398582 ], [ -5.9453247, 54.5403003 ], [ -5.9451814, 54.540544 ], [ -5.9450974, 54.5406584 ], [ -5.9450511, 54.5407216 ], [ -5.9448915, 54.5408841 ], [ -5.9446994, 54.541056 ], [ -5.9445528, 54.5411731 ], [ -5.9443542, 54.5412959 ], [ -5.9441197, 54.5414017 ], [ -5.9437875, 54.5415245 ], [ -5.9436017, 54.5415895 ], [ -5.9433609, 54.5416738 ], [ -5.9429961, 54.5418155 ], [ -5.9427421, 54.5419345 ], [ -5.9425239, 54.542046 ], [ -5.9423643, 54.5421499 ], [ -5.9422373, 54.5422576 ], [ -5.9421763, 54.5423224 ], [ -5.9421591, 54.5423407 ], [ -5.9421005, 54.5424182 ], [ -5.9420093, 54.5425636 ], [ -5.9417493, 54.5430546 ], [ -5.9416755, 54.5431941 ], [ -5.9414622, 54.543563 ], [ -5.9411673, 54.543455 ], [ -5.9409506, 54.5433719 ], [ -5.940557, 54.5432426 ], [ -5.9404688, 54.5432136 ], [ -5.940028, 54.5430152 ], [ -5.9395374, 54.5427944 ], [ -5.9387198, 54.5424876 ], [ -5.9382611, 54.5423155 ], [ -5.9375609, 54.5420573 ], [ -5.9370074, 54.5418532 ], [ -5.9367332, 54.5417725 ], [ -5.9366734, 54.5417549 ], [ -5.9359666, 54.5415468 ], [ -5.9353965, 54.5414056 ], [ -5.9349406, 54.5411827 ], [ -5.9343544, 54.5408569 ], [ -5.9343218, 54.5408388 ], [ -5.934034, 54.5406771 ], [ -5.9338454, 54.5405712 ], [ -5.9334729, 54.540362 ], [ -5.9331658, 54.5401895 ], [ -5.9331448, 54.5402162 ], [ -5.9331093, 54.5403068 ], [ -5.9330223, 54.5408631 ], [ -5.9329392, 54.5413987 ], [ -5.9329267, 54.5414696 ], [ -5.932876, 54.5417577 ], [ -5.9327672, 54.5421729 ], [ -5.9326466, 54.5425514 ], [ -5.9324805, 54.5429311 ], [ -5.9323402, 54.5431811 ], [ -5.9321469, 54.5434848 ], [ -5.9320297, 54.5436444 ], [ -5.9318894, 54.5437981 ], [ -5.9318008, 54.5438783 ], [ -5.9317272, 54.5439449 ], [ -5.9314532, 54.5441533 ], [ -5.9312578, 54.5442894 ], [ -5.930893, 54.5445161 ], [ -5.9306769, 54.5446429 ], [ -5.9304907, 54.5447476 ], [ -5.9302609, 54.5448752 ], [ -5.9300193, 54.5449852 ], [ -5.9296308, 54.5451157 ], [ -5.9295825, 54.5451305 ], [ -5.9294866, 54.5451598 ], [ -5.9295225, 54.5451853 ], [ -5.9295666, 54.5452146 ], [ -5.9296958, 54.5453103 ], [ -5.9298919, 54.5454187 ], [ -5.9303874, 54.5456437 ], [ -5.9307637, 54.5458063 ], [ -5.930905, 54.5458632 ], [ -5.9315033, 54.5460653 ], [ -5.9315504, 54.5460815 ], [ -5.9317093, 54.5461321 ], [ -5.9316284, 54.5462036 ], [ -5.9315528, 54.5462707 ], [ -5.9314718, 54.5463315 ], [ -5.9314486, 54.54635 ], [ -5.9312173, 54.5465099 ], [ -5.9308882, 54.5467198 ], [ -5.9302808, 54.5470587 ], [ -5.929843, 54.5472681 ], [ -5.9294392, 54.5474381 ], [ -5.9287097, 54.547729 ], [ -5.9281137, 54.5479689 ], [ -5.9277978, 54.5481087 ], [ -5.9274624, 54.5482768 ], [ -5.9265961, 54.5487623 ], [ -5.9257559, 54.5492383 ], [ -5.9255852, 54.5493421 ], [ -5.9242795, 54.5501357 ], [ -5.9240183, 54.5503116 ], [ -5.9239662, 54.5503467 ], [ -5.9227356, 54.5511754 ], [ -5.9226135, 54.5512546 ], [ -5.9224145, 54.5513898 ], [ -5.9223686, 54.5514218 ], [ -5.9208627, 54.5524272 ], [ -5.9199674, 54.5530258 ], [ -5.919803, 54.5531394 ], [ -5.919571, 54.5532998 ], [ -5.9192065, 54.5535707 ], [ -5.9188242, 54.5538766 ], [ -5.9184473, 54.5541957 ], [ -5.9178987, 54.554715 ], [ -5.9176386, 54.5549859 ], [ -5.9173802, 54.5552784 ], [ -5.9171343, 54.5555924 ], [ -5.916768, 54.5560634 ], [ -5.9165202, 54.5563816 ], [ -5.916276, 54.5566802 ], [ -5.9161097, 54.5568731 ], [ -5.9157398, 54.5572661 ], [ -5.915416, 54.5575771 ], [ -5.9150621, 54.5578941 ], [ -5.9146356, 54.5582379 ], [ -5.9141879, 54.5585683 ], [ -5.9138003, 54.558831 ], [ -5.9134199, 54.5590711 ], [ -5.9130677, 54.5592753 ], [ -5.9128292, 54.5594136 ], [ -5.9126023, 54.5595452 ], [ -5.9122856, 54.5597268 ], [ -5.9115671, 54.5601383 ], [ -5.9100573, 54.5610043 ], [ -5.9098418, 54.5611311 ], [ -5.9096643, 54.5612353 ], [ -5.9096927, 54.5613974 ], [ -5.9097193, 54.5614691 ], [ -5.9097288, 54.5615415 ], [ -5.909746, 54.5616997 ], [ -5.9098028, 54.5620662 ], [ -5.9098118, 54.5621048 ], [ -5.9098559, 54.5622478 ], [ -5.9098886, 54.5623433 ], [ -5.9098918, 54.5623728 ], [ -5.9098636, 54.5624226 ], [ -5.9098852, 54.5624733 ], [ -5.909951, 54.5626321 ], [ -5.9101218, 54.5629673 ], [ -5.9102553, 54.5630947 ], [ -5.9103555, 54.5632562 ], [ -5.9105412, 54.5635245 ], [ -5.9106846, 54.5637127 ], [ -5.9106992, 54.563801 ], [ -5.9112735, 54.564457 ], [ -5.9116298, 54.5647649 ], [ -5.9119196, 54.565015 ], [ -5.9119522, 54.5650474 ], [ -5.9119791, 54.5650765 ], [ -5.9121752, 54.565275 ], [ -5.9123752, 54.5654773 ], [ -5.9127424, 54.5659153 ], [ -5.9127967, 54.5659566 ], [ -5.9122971, 54.5660299 ], [ -5.9123635, 54.5664176 ], [ -5.9123125, 54.5664361 ], [ -5.9121578, 54.566446 ], [ -5.9121356, 54.5666799 ], [ -5.9114357, 54.5667115 ], [ -5.9092439, 54.5668208 ], [ -5.9087268, 54.5667999 ], [ -5.9090422, 54.5662568 ], [ -5.9086162, 54.5661408 ], [ -5.9084971, 54.5661317 ], [ -5.9084935, 54.5660955 ], [ -5.9076824, 54.5657795 ], [ -5.9076471, 54.5658162 ], [ -5.9075351, 54.5658285 ], [ -5.9074364, 54.5657942 ], [ -5.9073891, 54.5658336 ], [ -5.9072719, 54.5658613 ], [ -5.9069419, 54.5662309 ], [ -5.9064212, 54.5659882 ], [ -5.9059223, 54.5659187 ], [ -5.9052525, 54.565601 ], [ -5.9044107, 54.5651524 ], [ -5.9045541, 54.5650617 ], [ -5.9050454, 54.5647404 ], [ -5.9053674, 54.5645339 ], [ -5.9061017, 54.5641646 ], [ -5.9061745, 54.5641284 ], [ -5.9062155, 54.5641094 ], [ -5.9062474, 54.5640932 ], [ -5.9062728, 54.5640811 ], [ -5.9063019, 54.5640665 ], [ -5.906202, 54.5640007 ], [ -5.9061493, 54.5639625 ], [ -5.9060744, 54.563924 ], [ -5.9059809, 54.5638884 ], [ -5.9059105, 54.5638561 ], [ -5.9058344, 54.5638212 ], [ -5.9057212, 54.563785 ], [ -5.9053056, 54.5636617 ], [ -5.9047936, 54.5635205 ], [ -5.9046357, 54.5634785 ], [ -5.9044687, 54.5634266 ], [ -5.9041544, 54.5633157 ], [ -5.9039823, 54.5632515 ], [ -5.9037791, 54.5631563 ], [ -5.9036231, 54.5630433 ], [ -5.9034249, 54.5628957 ], [ -5.9033017, 54.5628072 ], [ -5.9032321, 54.5627684 ], [ -5.9031571, 54.5627436 ], [ -5.9030849, 54.5627343 ], [ -5.9030126, 54.5627374 ], [ -5.902943, 54.5627529 ], [ -5.902785, 54.5627917 ], [ -5.9026164, 54.5628228 ], [ -5.9024852, 54.5628398 ], [ -5.9023513, 54.5628461 ], [ -5.9022496, 54.5628429 ], [ -5.9021104, 54.5628321 ], [ -5.9017142, 54.5627902 ], [ -5.9014393, 54.562772 ], [ -5.9012028, 54.5627715 ], [ -5.9010476, 54.562776 ], [ -5.900857, 54.5627861 ], [ -5.9005377, 54.5627989 ], [ -5.9002134, 54.5627981 ], [ -5.8999168, 54.5627849 ], [ -5.8994843, 54.5627398 ], [ -5.8993496, 54.562735 ], [ -5.8992035, 54.5627298 ], [ -5.8989886, 54.5627177 ], [ -5.8988135, 54.5626735 ], [ -5.8986956, 54.5626438 ], [ -5.8985231, 54.5625782 ], [ -5.89841, 54.5625352 ], [ -5.8982254, 54.5624363 ], [ -5.8980416, 54.5623297 ], [ -5.8977372, 54.562073 ], [ -5.8973842, 54.56176 ], [ -5.8970882, 54.5615747 ], [ -5.8969592, 54.5615204 ], [ -5.8968474, 54.5614906 ], [ -5.8967159, 54.5614723 ], [ -5.8965687, 54.5614801 ], [ -5.8963533, 54.5615076 ], [ -5.8957897, 54.5615825 ], [ -5.8951923, 54.5616563 ], [ -5.8948944, 54.5616987 ], [ -5.8946429, 54.5617464 ], [ -5.894212, 54.5618504 ], [ -5.893859, 54.5619374 ], [ -5.8935752, 54.5620099 ], [ -5.893339, 54.562098 ], [ -5.8931999, 54.5621366 ], [ -5.8929844, 54.5621985 ], [ -5.8928208, 54.5622372 ], [ -5.8926429, 54.5622592 ], [ -5.8923129, 54.5623067 ], [ -5.8919721, 54.5623651 ], [ -5.891734, 54.5624047 ], [ -5.891554, 54.5624214 ], [ -5.8912946, 54.5624108 ], [ -5.8909688, 54.562392 ], [ -5.8905962, 54.5623852 ], [ -5.8901738, 54.5623738 ], [ -5.8899869, 54.5623625 ], [ -5.8898664, 54.5623408 ], [ -5.8897688, 54.5623167 ], [ -5.8896938, 54.5622857 ], [ -5.8896162, 54.5622461 ], [ -5.8895412, 54.562191 ], [ -5.8894852, 54.5621344 ], [ -5.8894057, 54.5620422 ], [ -5.8893201, 54.5619255 ], [ -5.8892519, 54.5618303 ], [ -5.8892207, 54.5617945 ], [ -5.8891827, 54.5617528 ], [ -5.8891126, 54.5617988 ], [ -5.8889879, 54.5618737 ], [ -5.888788, 54.5619878 ], [ -5.8886271, 54.5620718 ], [ -5.8884399, 54.5621588 ], [ -5.8882969, 54.5622224 ], [ -5.8881419, 54.5622861 ], [ -5.8879341, 54.5623641 ], [ -5.887695, 54.5624476 ], [ -5.8874158, 54.5625353 ], [ -5.8871289, 54.5626131 ], [ -5.88611, 54.562884 ], [ -5.8858968, 54.5629398 ], [ -5.8853526, 54.5630863 ], [ -5.8848792, 54.5632181 ], [ -5.8844175, 54.5633504 ], [ -5.8837387, 54.5635397 ], [ -5.8832415, 54.563671 ], [ -5.8827981, 54.5637849 ], [ -5.8825728, 54.5638427 ], [ -5.8823208, 54.5639161 ], [ -5.882077, 54.56399 ], [ -5.8817874, 54.5640869 ], [ -5.8813624, 54.5642405 ], [ -5.880932, 54.5643917 ], [ -5.8806703, 54.5644761 ], [ -5.8804175, 54.564547 ], [ -5.8801462, 54.5646128 ], [ -5.8798709, 54.5646708 ], [ -5.879611, 54.5647206 ], [ -5.8788486, 54.5648639 ], [ -5.878476, 54.5649364 ], [ -5.8778268, 54.565069 ], [ -5.8770573, 54.5652242 ], [ -5.8768565, 54.5652644 ], [ -5.8764807, 54.5653395 ], [ -5.8759752, 54.5654407 ], [ -5.8755121, 54.5655339 ], [ -5.8750468, 54.5656228 ], [ -5.8745252, 54.5657239 ], [ -5.8741902, 54.565766 ], [ -5.8740001, 54.5657934 ], [ -5.8738991, 54.5658125 ], [ -5.8738401, 54.5658298 ], [ -5.8737758, 54.5658533 ], [ -5.8736515, 54.5658976 ], [ -5.8734296, 54.565982 ], [ -5.8732105, 54.5660619 ], [ -5.8730577, 54.5661089 ], [ -5.8728699, 54.5661596 ], [ -5.8724747, 54.5662532 ], [ -5.8717991, 54.5664142 ], [ -5.8710939, 54.5665832 ], [ -5.8703718, 54.5667593 ], [ -5.869693, 54.5669333 ], [ -5.8693678, 54.5670122 ], [ -5.8687613, 54.5671608 ], [ -5.8682286, 54.5672881 ], [ -5.8679598, 54.5673465 ], [ -5.8677688, 54.5673741 ], [ -5.867537, 54.5673975 ], [ -5.8674409, 54.5673991 ], [ -5.8673238, 54.5673973 ], [ -5.8672206, 54.5673961 ], [ -5.8671431, 54.5673996 ], [ -5.8670651, 54.5674052 ], [ -5.866974, 54.5675216 ], [ -5.8668724, 54.5675656 ], [ -5.8667799, 54.56759 ], [ -5.8666453, 54.5675948 ], [ -5.8665488, 54.5675909 ], [ -5.8664379, 54.5675801 ], [ -5.8664181, 54.5675779 ], [ -5.8661476, 54.5675665 ], [ -5.8659722, 54.567548 ], [ -5.8657015, 54.567517 ], [ -5.8656535, 54.5675094 ], [ -5.8654557, 54.5674802 ], [ -5.8653604, 54.5674683 ], [ -5.8650346, 54.5673959 ], [ -5.8647266, 54.5673057 ], [ -5.8642196, 54.5671351 ], [ -5.8639718, 54.5670701 ], [ -5.8637288, 54.5670266 ], [ -5.8635066, 54.5669955 ], [ -5.8633325, 54.566991 ], [ -5.8630951, 54.5669984 ], [ -5.8628391, 54.5670183 ], [ -5.8627401, 54.5670311 ], [ -5.8626693, 54.567044 ], [ -5.8625327, 54.567067 ], [ -5.8622269, 54.5671186 ], [ -5.8619326, 54.5671743 ], [ -5.8616702, 54.5672111 ], [ -5.8615367, 54.5672284 ], [ -5.8612705, 54.5672514 ], [ -5.860954, 54.5672941 ], [ -5.860909, 54.5672984 ], [ -5.8606698, 54.5673509 ], [ -5.8603149, 54.5674335 ], [ -5.8598789, 54.5675528 ], [ -5.8598543, 54.5675609 ], [ -5.8595534, 54.5676655 ], [ -5.8595285, 54.5676752 ], [ -5.8591699, 54.5678044 ], [ -5.8589041, 54.5678717 ], [ -5.8586424, 54.5679207 ], [ -5.8580221, 54.5680029 ], [ -5.8576449, 54.5680654 ], [ -5.8573477, 54.5681265 ], [ -5.8571123, 54.5681934 ], [ -5.8569038, 54.5682531 ], [ -5.8569081, 54.5682778 ], [ -5.8569398, 54.5685289 ], [ -5.8569673, 54.5687414 ], [ -5.8570053, 54.5689145 ], [ -5.857008, 54.5689929 ], [ -5.8569949, 54.5691118 ], [ -5.8569757, 54.5691454 ], [ -5.856879, 54.569315 ], [ -5.8566788, 54.569621 ], [ -5.8565499, 54.5698069 ], [ -5.8564574, 54.569895 ], [ -5.8563251, 54.5699855 ], [ -5.8561433, 54.5700856 ], [ -5.8556549, 54.5703181 ], [ -5.8555375, 54.570378 ], [ -5.8553589, 54.5704898 ], [ -5.8552112, 54.5705996 ], [ -5.8550834, 54.5707133 ], [ -5.8546231, 54.5711897 ], [ -5.8544756, 54.5713667 ], [ -5.8543942, 54.571492 ], [ -5.8543019, 54.5716637 ], [ -5.8542325, 54.5718544 ], [ -5.8541991, 54.5720328 ], [ -5.8541932, 54.5721733 ], [ -5.8541836, 54.5723825 ], [ -5.8542033, 54.5725729 ], [ -5.8542298, 54.5726847 ], [ -5.8542855, 54.5727797 ], [ -5.8543635, 54.5729183 ], [ -5.8543777, 54.5729762 ], [ -5.8543239, 54.573039 ], [ -5.854217, 54.5730973 ], [ -5.8539828, 54.5732045 ], [ -5.853724, 54.5733086 ], [ -5.8535238, 54.5733757 ], [ -5.8533988, 54.5733941 ], [ -5.8532664, 54.5733954 ], [ -5.8530832, 54.5733857 ], [ -5.8529562, 54.5733913 ], [ -5.8527837, 54.573415 ], [ -5.8525124, 54.5734572 ], [ -5.8520898, 54.5735217 ], [ -5.8516309, 54.5735553 ], [ -5.8513709, 54.573557 ], [ -5.8512134, 54.5735351 ], [ -5.8510624, 54.5735248 ], [ -5.8507302, 54.5735454 ], [ -5.8501734, 54.5735902 ], [ -5.8497544, 54.5736379 ], [ -5.8495593, 54.5736779 ], [ -5.848616, 54.5739092 ], [ -5.8484252, 54.5739762 ], [ -5.8482335, 54.5740704 ], [ -5.8472497, 54.5745877 ], [ -5.8449378, 54.5757526 ], [ -5.8435129, 54.5765085 ], [ -5.843485, 54.5765241 ], [ -5.8424412, 54.5770631 ], [ -5.8423926, 54.5770922 ], [ -5.8418281, 54.5774262 ], [ -5.8416119, 54.5775753 ], [ -5.8413751, 54.5778108 ], [ -5.8412876, 54.5779418 ], [ -5.8411678, 54.5781268 ], [ -5.8403336, 54.5786009 ], [ -5.840284, 54.5784378 ], [ -5.8402267, 54.5784011 ], [ -5.8382947, 54.577843 ], [ -5.8371682, 54.5778554 ], [ -5.8372518, 54.5775895 ], [ -5.8373718, 54.5772367 ], [ -5.8365335, 54.5773173 ], [ -5.8354726, 54.5774577 ], [ -5.8339463, 54.5776796 ], [ -5.8338448, 54.5776626 ], [ -5.8337646, 54.5776304 ], [ -5.8333622, 54.5773907 ], [ -5.8333424, 54.5773109 ], [ -5.8333388, 54.5772831 ], [ -5.833081, 54.577309 ], [ -5.832206, 54.5780428 ], [ -5.832025, 54.5781615 ], [ -5.831391, 54.5783843 ], [ -5.8313767, 54.578482 ], [ -5.8313395, 54.5785581 ], [ -5.8312651, 54.5786762 ], [ -5.8311691, 54.5787852 ], [ -5.8310378, 54.5788976 ], [ -5.8307537, 54.5790611 ], [ -5.8304911, 54.5791701 ], [ -5.8301796, 54.5792996 ], [ -5.8296691, 54.5794972 ], [ -5.8296134, 54.5795188 ], [ -5.8293332, 54.5796391 ], [ -5.8291431, 54.5797254 ], [ -5.8289041, 54.5798265 ], [ -5.8287654, 54.579872 ], [ -5.8286141, 54.5799048 ], [ -5.8281086, 54.579998 ], [ -5.8272464, 54.5801647 ], [ -5.8269299, 54.5802206 ], [ -5.8266248, 54.5802871 ], [ -5.8260164, 54.58043 ], [ -5.8259807, 54.5804384 ], [ -5.8254876, 54.5805939 ], [ -5.8249522, 54.5807519 ], [ -5.8244232, 54.5809473 ], [ -5.8239059, 54.5811482 ], [ -5.8229699, 54.581584 ], [ -5.8228332, 54.5816641 ], [ -5.8234555, 54.5825254 ], [ -5.8236543, 54.583167 ], [ -5.8237169, 54.5836493 ], [ -5.8237627, 54.5838809 ], [ -5.8238929, 54.5841217 ], [ -5.8246849, 54.5841695 ], [ -5.8246458, 54.5843537 ], [ -5.8247573, 54.5843627 ], [ -5.8246468, 54.5845136 ], [ -5.8244799, 54.5847216 ], [ -5.8243874, 54.5849999 ], [ -5.8244004, 54.5853114 ], [ -5.8245878, 54.5858068 ], [ -5.8247517, 54.5861942 ], [ -5.8249256, 54.58654 ], [ -5.8251109, 54.5868977 ], [ -5.8251633, 54.5869578 ], [ -5.8255752, 54.5871368 ], [ -5.8256383, 54.5871863 ], [ -5.8257969, 54.5874748 ], [ -5.8262393, 54.5883048 ], [ -5.8261096, 54.5883028 ], [ -5.8259909, 54.588301 ], [ -5.8258022, 54.5882994 ], [ -5.8257047, 54.5882985 ], [ -5.8252357, 54.5882922 ], [ -5.825321, 54.588447 ], [ -5.8251022, 54.5884939 ], [ -5.8247067, 54.5885825 ], [ -5.8244879, 54.5886675 ], [ -5.8241313, 54.5890947 ], [ -5.8239515, 54.5892631 ], [ -5.8235769, 54.5895761 ], [ -5.823414, 54.5903004 ], [ -5.8176432, 54.5898661 ], [ -5.8175253, 54.5898555 ], [ -5.8165876, 54.5897715 ], [ -5.8168435, 54.5899175 ], [ -5.8171349, 54.5900062 ], [ -5.8176416, 54.5902723 ], [ -5.8175772, 54.5906733 ], [ -5.8175209, 54.5908193 ], [ -5.8175048, 54.590981 ], [ -5.8175424, 54.591183 ], [ -5.8174565, 54.5915404 ], [ -5.8173036, 54.591791 ], [ -5.8172298, 54.5921023 ], [ -5.8172031, 54.5922316 ], [ -5.8172272, 54.5923396 ], [ -5.8173036, 54.5925354 ], [ -5.8173573, 54.5926729 ], [ -5.8174337, 54.5928423 ], [ -5.817541, 54.5929596 ], [ -5.8178159, 54.5931213 ], [ -5.818347, 54.5933466 ], [ -5.8186099, 54.5934305 ], [ -5.8190551, 54.5935797 ], [ -5.819554, 54.5939876 ], [ -5.8196023, 54.5940933 ], [ -5.8196375, 54.5942283 ], [ -5.8196405, 54.5942461 ], [ -5.8196507, 54.5943075 ], [ -5.8193746, 54.5943302 ], [ -5.8191623, 54.5943514 ], [ -5.818998, 54.5943678 ], [ -5.8187706, 54.5943908 ], [ -5.8183106, 54.5944374 ], [ -5.8181984, 54.594458 ], [ -5.8179949, 54.5944712 ], [ -5.8178035, 54.5944884 ], [ -5.8174955, 54.5945415 ], [ -5.8172907, 54.5945827 ], [ -5.8171396, 54.5946142 ], [ -5.8168679, 54.5946717 ], [ -5.8166791, 54.594699 ], [ -5.8166149, 54.5947129 ], [ -5.8165519, 54.5947245 ], [ -5.81648, 54.5947367 ], [ -5.8162156, 54.5947811 ], [ -5.8160375, 54.594808 ], [ -5.8160998, 54.5949531 ], [ -5.8165599, 54.5957544 ], [ -5.81682, 54.5962875 ], [ -5.8163036, 54.5967283 ], [ -5.8138296, 54.5971552 ], [ -5.814014, 54.5980231 ], [ -5.8129199, 54.5982872 ], [ -5.8131133, 54.5990219 ], [ -5.813273, 54.5990083 ], [ -5.8133563, 54.599001 ], [ -5.8142891, 54.5989193 ], [ -5.8152527, 54.5988382 ], [ -5.8155894, 54.5988077 ], [ -5.815681, 54.5988104 ], [ -5.8158051, 54.5988297 ], [ -5.8158699, 54.5988404 ], [ -5.8158246, 54.5988739 ], [ -5.8156607, 54.5989672 ], [ -5.8155128, 54.5990588 ], [ -5.8154293, 54.5991292 ], [ -5.8152809, 54.5991833 ], [ -5.8151722, 54.5992351 ], [ -5.815084, 54.5993138 ], [ -5.8149776, 54.5994786 ], [ -5.8148798, 54.5995993 ], [ -5.8147687, 54.5997942 ], [ -5.8147157, 54.5999575 ], [ -5.8146585, 54.6000108 ], [ -5.8145143, 54.6000285 ], [ -5.8143375, 54.6000009 ], [ -5.814144, 54.6000166 ], [ -5.8140002, 54.600058 ], [ -5.8138853, 54.6001791 ], [ -5.8137271, 54.6003222 ], [ -5.8132791, 54.6005492 ], [ -5.8126955, 54.6008574 ], [ -5.8124576, 54.6010598 ], [ -5.8122921, 54.6012999 ], [ -5.8121633, 54.6015634 ], [ -5.8120346, 54.6018667 ], [ -5.8117513, 54.6022893 ], [ -5.8114595, 54.6026423 ], [ -5.8111591, 54.6027567 ], [ -5.8111505, 54.6030599 ], [ -5.8109102, 54.6033334 ], [ -5.8109531, 54.6035621 ], [ -5.8107042, 54.604094 ], [ -5.8105754, 54.6047652 ], [ -5.810687, 54.6050635 ], [ -5.8107299, 54.605312 ], [ -5.8107214, 54.6055805 ], [ -5.8107236, 54.6056098 ], [ -5.8107385, 54.6058092 ], [ -5.8107699, 54.6058841 ], [ -5.8108072, 54.6059732 ], [ -5.8110996, 54.6061428 ], [ -5.811283, 54.6063124 ], [ -5.8113253, 54.6065811 ], [ -5.8112794, 54.6067686 ], [ -5.8111631, 54.6069755 ], [ -5.8110389, 54.607211 ], [ -5.8108415, 54.6074298 ], [ -5.8107069, 54.6075176 ], [ -5.8105689, 54.6075726 ], [ -5.8102235, 54.6076883 ], [ -5.8097952, 54.6078482 ], [ -5.8095123, 54.6079931 ], [ -5.8094714, 54.6080781 ], [ -5.8092954, 54.6082221 ], [ -5.8089791, 54.6083165 ], [ -5.8087902, 54.6083968 ], [ -5.8085377, 54.6084848 ], [ -5.8083631, 54.6085788 ], [ -5.8080434, 54.6088565 ], [ -5.8078596, 54.6089862 ], [ -5.8076911, 54.6092273 ], [ -5.8076801, 54.6093785 ], [ -5.8076879, 54.6094394 ], [ -5.807708, 54.6095975 ], [ -5.8076801, 54.6098679 ], [ -5.8076049, 54.610059 ], [ -5.8075111, 54.6102813 ], [ -5.8074138, 54.6104747 ], [ -5.8073559, 54.6106424 ], [ -5.807376, 54.6107488 ], [ -5.8074324, 54.6108311 ], [ -5.8075296, 54.6109038 ], [ -5.8076272, 54.611052 ], [ -5.8077664, 54.6111943 ], [ -5.8079842, 54.6113252 ], [ -5.8081895, 54.6115307 ], [ -5.8083397, 54.611676 ], [ -5.8084056, 54.6118291 ], [ -5.8084674, 54.6120034 ], [ -5.8085137, 54.6120872 ], [ -5.8086931, 54.6124761 ], [ -5.8087468, 54.6127829 ], [ -5.8087397, 54.61298 ], [ -5.8087684, 54.6131466 ], [ -5.8089479, 54.6135958 ], [ -5.8090405, 54.6137667 ], [ -5.8091505, 54.6139075 ], [ -5.8091956, 54.6140051 ], [ -5.8093762, 54.6142394 ], [ -5.8095152, 54.6143936 ], [ -5.8096272, 54.6145245 ], [ -5.8094985, 54.6146365 ], [ -5.8093769, 54.6147337 ], [ -5.8091302, 54.6149218 ], [ -5.8088763, 54.6151019 ], [ -5.8088279, 54.615139 ], [ -5.8091418, 54.615516 ], [ -5.8103023, 54.615214 ], [ -5.8105272, 54.6151451 ], [ -5.8105927, 54.6151416 ], [ -5.8106441, 54.6151514 ], [ -5.8106922, 54.6151879 ], [ -5.8119369, 54.6146123 ], [ -5.8120628, 54.6145498 ], [ -5.8125081, 54.6143333 ], [ -5.8127673, 54.6142236 ], [ -5.8130203, 54.6141284 ], [ -5.8133399, 54.6140266 ], [ -5.8136837, 54.6139315 ], [ -5.8137471, 54.613914 ], [ -5.8145517, 54.613728 ], [ -5.8156796, 54.6134829 ], [ -5.8166142, 54.613277 ], [ -5.8169681, 54.6132185 ], [ -5.8174171, 54.6131709 ], [ -5.8178614, 54.6131357 ], [ -5.8181303, 54.6131144 ], [ -5.8189516, 54.6130552 ], [ -5.8197874, 54.6130035 ], [ -5.8206294, 54.6129539 ], [ -5.821133, 54.6129254 ], [ -5.8217043, 54.6128716 ], [ -5.8221344, 54.6128197 ], [ -5.8223118, 54.6127954 ], [ -5.8225191, 54.612767 ], [ -5.8229256, 54.6126944 ], [ -5.8233714, 54.612601 ], [ -5.8252185, 54.6121526 ], [ -5.8275498, 54.6115831 ], [ -5.8286143, 54.6113228 ], [ -5.8290722, 54.6111948 ], [ -5.8294237, 54.6110908 ], [ -5.829858, 54.610941 ], [ -5.8298765, 54.6109346 ], [ -5.830278, 54.610775 ], [ -5.8307108, 54.610572 ], [ -5.8310913, 54.6103828 ], [ -5.8309535, 54.6105664 ], [ -5.8307129, 54.6107136 ], [ -5.8307156, 54.6107966 ], [ -5.8307047, 54.6109375 ], [ -5.8307129, 54.6110674 ], [ -5.8307047, 54.6112647 ], [ -5.8306939, 54.6113649 ], [ -5.8306696, 54.6114714 ], [ -5.8306642, 54.6116123 ], [ -5.8306236, 54.611783 ], [ -5.8305696, 54.6120257 ], [ -5.8305506, 54.6121337 ], [ -5.8305209, 54.6122653 ], [ -5.8304614, 54.6124312 ], [ -5.8304398, 54.6125314 ], [ -5.8304236, 54.6125878 ], [ -5.830356, 54.6127663 ], [ -5.8302694, 54.6128853 ], [ -5.8301721, 54.6131264 ], [ -5.8300937, 54.6133096 ], [ -5.8300477, 54.6133957 ], [ -5.8299801, 54.6135257 ], [ -5.829945, 54.6136181 ], [ -5.8298909, 54.6137136 ], [ -5.8298233, 54.6138294 ], [ -5.829726, 54.613975 ], [ -5.8297044, 54.6140424 ], [ -5.8297044, 54.6141723 ], [ -5.8297341, 54.6142866 ], [ -5.8296989, 54.6143774 ], [ -5.82958, 54.6145637 ], [ -5.8295502, 54.6146264 ], [ -5.8295746, 54.6147266 ], [ -5.8296016, 54.6149098 ], [ -5.8295611, 54.6149927 ], [ -5.8294935, 54.6150914 ], [ -5.829388, 54.615262 ], [ -5.8292609, 54.6153935 ], [ -5.8291474, 54.6155501 ], [ -5.8290203, 54.6157333 ], [ -5.8289554, 54.6158413 ], [ -5.8289608, 54.6159462 ], [ -5.8289608, 54.6160683 ], [ -5.8290041, 54.6161858 ], [ -5.8290825, 54.6163141 ], [ -5.8291798, 54.6164989 ], [ -5.8292258, 54.6166492 ], [ -5.829293, 54.6167741 ], [ -5.8296286, 54.6166836 ], [ -5.829914, 54.6166521 ], [ -5.830693, 54.616548 ], [ -5.8315433, 54.6165117 ], [ -5.83186, 54.6165018 ], [ -5.8325989, 54.6164241 ], [ -5.8335234, 54.6163448 ], [ -5.8340484, 54.6163415 ], [ -5.8366621, 54.616434 ], [ -5.8373013, 54.6164472 ], [ -5.8373991, 54.6165987 ], [ -5.8375434, 54.6170576 ], [ -5.8375977, 54.6174561 ], [ -5.8376761, 54.6175079 ], [ -5.8377993, 54.617522 ], [ -5.838354, 54.6174966 ], [ -5.8390844, 54.617463 ], [ -5.8405199, 54.617353 ], [ -5.8413167, 54.617293 ], [ -5.8419149, 54.6172589 ], [ -5.8425954, 54.6172332 ], [ -5.8427119, 54.617249 ], [ -5.842688, 54.617439 ], [ -5.8427026, 54.6176374 ], [ -5.8427488, 54.6178628 ], [ -5.8428375, 54.6179651 ], [ -5.8428445, 54.6180498 ], [ -5.8435411, 54.6184963 ], [ -5.843693, 54.6185406 ], [ -5.8442745, 54.618612 ], [ -5.8447862, 54.6186684 ], [ -5.8452389, 54.6187239 ], [ -5.8455397, 54.6187388 ], [ -5.845999, 54.6188063 ], [ -5.8461415, 54.6188737 ], [ -5.8462914, 54.6189976 ], [ -5.8465317, 54.6191695 ], [ -5.8466626, 54.6192938 ], [ -5.8468026, 54.6193495 ], [ -5.8470165, 54.6193686 ], [ -5.8473533, 54.6193546 ], [ -5.8475592, 54.6193719 ], [ -5.8477451, 54.6194334 ], [ -5.8472208, 54.6198739 ], [ -5.8467321, 54.6202495 ], [ -5.8464469, 54.6204099 ], [ -5.8461518, 54.6205753 ], [ -5.8458991, 54.6207161 ], [ -5.8457161, 54.6208276 ], [ -5.8458315, 54.6208771 ], [ -5.8458722, 54.6209286 ], [ -5.8459923, 54.6209874 ], [ -5.8465666, 54.6213716 ], [ -5.8468826, 54.6213317 ], [ -5.847585, 54.6212587 ], [ -5.850824, 54.6208189 ], [ -5.8522576, 54.6211989 ], [ -5.8564822, 54.6229517 ], [ -5.8586879, 54.623501 ], [ -5.8578425, 54.6242315 ], [ -5.8571597, 54.6249901 ], [ -5.8569886, 54.6251459 ], [ -5.8535712, 54.6283598 ], [ -5.8537672, 54.6304038 ], [ -5.8537848, 54.6305236 ], [ -5.8536958, 54.6305281 ], [ -5.8536537, 54.630583 ], [ -5.8536979, 54.6307967 ], [ -5.8536126, 54.6309378 ], [ -5.8535023, 54.6311747 ], [ -5.8536863, 54.6324405 ], [ -5.8537555, 54.6326184 ], [ -5.8537911, 54.6328586 ], [ -5.8538462, 54.6329126 ], [ -5.8539149, 54.6329255 ], [ -5.854038, 54.6328772 ], [ -5.8541494, 54.6328687 ], [ -5.8543104, 54.6328993 ], [ -5.8543402, 54.6329994 ], [ -5.8544843, 54.6330507 ], [ -5.854599, 54.633142 ], [ -5.8546615, 54.6331311 ], [ -5.8547402, 54.6332346 ], [ -5.8548149, 54.6332204 ], [ -5.8548502, 54.6332859 ], [ -5.8549136, 54.6333739 ], [ -5.854932, 54.6334442 ], [ -5.854926, 54.6334922 ], [ -5.8549244, 54.633505 ], [ -5.8549032, 54.6335564 ], [ -5.8549571, 54.6336602 ], [ -5.8550286, 54.6337354 ], [ -5.8550592, 54.6338241 ], [ -5.8550642, 54.6339228 ], [ -5.8551583, 54.6339887 ], [ -5.8553566, 54.6340283 ], [ -5.8799411, 54.6401458 ], [ -5.9129972, 54.6481271 ], [ -5.9135888, 54.6482456 ], [ -5.9143278, 54.6473457 ], [ -5.9148539, 54.6466658 ], [ -5.9152343, 54.646172 ], [ -5.9155808, 54.6456785 ], [ -5.9160959, 54.6462333 ], [ -5.9164419, 54.6465261 ], [ -5.9165925, 54.6466226 ], [ -5.9172349, 54.6469852 ], [ -5.9184498, 54.6475929 ], [ -5.9199238, 54.6483216 ], [ -5.9215887, 54.6491236 ], [ -5.9225746, 54.6496061 ], [ -5.9236282, 54.6501381 ], [ -5.9242534, 54.650464 ], [ -5.9251579, 54.6509399 ], [ -5.9261969, 54.6514725 ], [ -5.9271006, 54.6520314 ], [ -5.9282282, 54.6528929 ], [ -5.9303578, 54.6544992 ], [ -5.931126, 54.6551032 ], [ -5.9318165, 54.6557299 ], [ -5.9336338, 54.6574854 ], [ -5.9351101, 54.6589196 ], [ -5.9360066, 54.6597877 ], [ -5.9366297, 54.6603105 ], [ -5.9370543, 54.6606016 ], [ -5.9374072, 54.6608245 ], [ -5.9382918, 54.6612512 ], [ -5.938982, 54.6615085 ], [ -5.9397518, 54.6617482 ], [ -5.9410691, 54.6620475 ], [ -5.9437465, 54.6625825 ], [ -5.9444269, 54.6627545 ], [ -5.9452747, 54.6630144 ], [ -5.9467219, 54.6635041 ], [ -5.9487268, 54.6642303 ], [ -5.9499951, 54.6647157 ], [ -5.9506727, 54.6649674 ], [ -5.9514413, 54.6632799 ], [ -5.9524289, 54.6615791 ], [ -5.9529047, 54.6609624 ], [ -5.9533107, 54.6605956 ], [ -5.9535954, 54.6603384 ], [ -5.954055, 54.6599397 ], [ -5.9539628, 54.6597923 ], [ -5.9539409, 54.6597128 ], [ -5.9541137, 54.6590994 ], [ -5.9536644, 54.6590611 ], [ -5.9540708, 54.6580434 ], [ -5.9523699, 54.6574336 ], [ -5.9513847, 54.6571212 ], [ -5.9503175, 54.6563868 ], [ -5.9493003, 54.6557439 ], [ -5.947617, 54.654696 ], [ -5.9487546, 54.6522826 ], [ -5.9503599, 54.6519773 ], [ -5.9514593, 54.6517228 ], [ -5.9524928, 54.651443 ], [ -5.9531085, 54.6511885 ], [ -5.9547357, 54.650616 ], [ -5.9566488, 54.6497891 ], [ -5.9584519, 54.6492293 ], [ -5.9595074, 54.649013 ], [ -5.961481, 54.6483125 ], [ -5.96268, 54.6476331 ], [ -5.9633754, 54.6472064 ], [ -5.9640919, 54.6467309 ], [ -5.9644923, 54.6464992 ], [ -5.9650191, 54.6463834 ], [ -5.9659358, 54.6461883 ], [ -5.9666944, 54.646042 ], [ -5.9672739, 54.6459139 ], [ -5.9684961, 54.6457066 ], [ -5.9694128, 54.6455847 ], [ -5.9700555, 54.645475 ], [ -5.9703523, 54.6454008 ], [ -5.9707174, 54.6453232 ], [ -5.9712017, 54.6452542 ], [ -5.9715444, 54.6459784 ], [ -5.9716671, 54.6462507 ], [ -5.9717679, 54.6464569 ], [ -5.9719691, 54.646694 ], [ -5.9726321, 54.6472846 ], [ -5.9729302, 54.6475002 ], [ -5.9730941, 54.6477157 ], [ -5.9732431, 54.6478493 ], [ -5.9734591, 54.6480175 ], [ -5.9738465, 54.6482028 ], [ -5.9743681, 54.6484356 ], [ -5.9747853, 54.6486339 ], [ -5.9751653, 54.6487977 ], [ -5.9755154, 54.6488969 ], [ -5.9758209, 54.6489874 ], [ -5.9761785, 54.649065 ], [ -5.9767224, 54.649177 ], [ -5.9775047, 54.6492891 ], [ -5.9780709, 54.649384 ], [ -5.9781678, 54.6494745 ], [ -5.9783764, 54.6496728 ], [ -5.9786371, 54.6498107 ], [ -5.9788383, 54.6498797 ], [ -5.9789351, 54.6500047 ], [ -5.9789947, 54.6501512 ], [ -5.9791959, 54.6502762 ], [ -5.9793524, 54.6503711 ], [ -5.9793077, 54.6505737 ], [ -5.9791661, 54.6506642 ], [ -5.979099, 54.6508237 ], [ -5.9790022, 54.6508926 ], [ -5.9789873, 54.6510478 ], [ -5.9790767, 54.6512159 ], [ -5.979181, 54.6513409 ], [ -5.9793747, 54.6514961 ], [ -5.9795237, 54.6516383 ], [ -5.9795908, 54.6517763 ], [ -5.9797249, 54.6519918 ], [ -5.9799484, 54.6520909 ], [ -5.9801868, 54.6521944 ], [ -5.9804401, 54.6522375 ], [ -5.9805742, 54.6522332 ], [ -5.9808126, 54.6523668 ], [ -5.9810808, 54.6523711 ], [ -5.9812075, 54.652384 ], [ -5.981364, 54.6524745 ], [ -5.9816471, 54.652522 ], [ -5.981811, 54.6526039 ], [ -5.9820866, 54.6526814 ], [ -5.9823698, 54.6528237 ], [ -5.9824815, 54.6529875 ], [ -5.9827125, 54.6531987 ], [ -5.9828764, 54.653453 ], [ -5.9830328, 54.6534831 ], [ -5.9834426, 54.653828 ], [ -5.983763, 54.6541469 ], [ -5.98383, 54.6543624 ], [ -5.9839269, 54.6544788 ], [ -5.9839269, 54.6546857 ], [ -5.9839045, 54.6548839 ], [ -5.9838077, 54.6550434 ], [ -5.9837555, 54.6552201 ], [ -5.983979, 54.6552891 ], [ -5.9838151, 54.6554227 ], [ -5.9837406, 54.6555908 ], [ -5.9838151, 54.6557416 ], [ -5.9840163, 54.6558537 ], [ -5.983912, 54.6559054 ], [ -5.9838077, 54.6559313 ], [ -5.9838896, 54.6560692 ], [ -5.9840163, 54.6561942 ], [ -5.9839194, 54.6563795 ], [ -5.9838896, 54.6565002 ], [ -5.9840461, 54.6566424 ], [ -5.9839418, 54.656707 ], [ -5.9838375, 54.6566812 ], [ -5.9837928, 54.6567975 ], [ -5.9838971, 54.6568708 ], [ -5.984061, 54.6569139 ], [ -5.9844335, 54.6571122 ], [ -5.9847613, 54.657332 ], [ -5.9848135, 54.6575518 ], [ -5.9847464, 54.6576767 ], [ -5.9849923, 54.6577974 ], [ -5.9850742, 54.6579051 ], [ -5.9850444, 54.6581077 ], [ -5.9849848, 54.6582154 ], [ -5.9852307, 54.6582887 ], [ -5.985253, 54.6584137 ], [ -5.9852456, 54.6585688 ], [ -5.9853797, 54.6586981 ], [ -5.9853052, 54.6588231 ], [ -5.985402, 54.6589653 ], [ -5.9855213, 54.6590946 ], [ -5.9857299, 54.6591248 ], [ -5.9859459, 54.6591722 ], [ -5.9860428, 54.6592885 ], [ -5.986112, 54.6593606 ], [ -5.9864325, 54.6594247 ], [ -5.9862615, 54.6593179 ], [ -5.9863112, 54.6590546 ], [ -5.986338, 54.6589305 ], [ -5.9863112, 54.6588436 ], [ -5.9863581, 54.65875 ], [ -5.9863796, 54.6586569 ], [ -5.9861985, 54.6586015 ], [ -5.9860215, 54.6585953 ], [ -5.9860201, 54.6585111 ], [ -5.9861006, 54.6584025 ], [ -5.9861628, 54.6583721 ], [ -5.9862085, 54.6582976 ], [ -5.9862287, 54.6582064 ], [ -5.9862236, 54.6580827 ], [ -5.9861371, 54.6580837 ], [ -5.9861559, 54.6579878 ], [ -5.9862468, 54.6579313 ], [ -5.9863152, 54.6577764 ], [ -5.9863581, 54.6577105 ], [ -5.986344, 54.6576166 ], [ -5.9864122, 54.6575655 ], [ -5.986372, 54.657518 ], [ -5.986279, 54.6574751 ], [ -5.9863219, 54.6573751 ], [ -5.9864576, 54.6573217 ], [ -5.9866092, 54.6573465 ], [ -5.9866797, 54.657278 ], [ -5.9866639, 54.6572171 ], [ -5.9865459, 54.6571333 ], [ -5.9864506, 54.6570314 ], [ -5.9864278, 54.6568478 ], [ -5.9864721, 54.6567459 ], [ -5.9866746, 54.6566089 ], [ -5.9867886, 54.6563642 ], [ -5.9867175, 54.656221 ], [ -5.9864922, 54.6561434 ], [ -5.986621, 54.6560131 ], [ -5.9868736, 54.6558835 ], [ -5.987207, 54.6557125 ], [ -5.9873988, 54.6555507 ], [ -5.9874632, 54.6554483 ], [ -5.9876563, 54.6553676 ], [ -5.9876684, 54.6552408 ], [ -5.9879621, 54.6551969 ], [ -5.9883, 54.6552373 ], [ -5.9885951, 54.6552466 ], [ -5.9888311, 54.6551845 ], [ -5.9891691, 54.6548711 ], [ -5.9894212, 54.6547407 ], [ -5.9894599, 54.6545405 ], [ -5.989739, 54.6543719 ], [ -5.9900595, 54.6543094 ], [ -5.9905799, 54.6542442 ], [ -5.9908139, 54.65415 ], [ -5.9910491, 54.6539618 ], [ -5.9910627, 54.6538594 ], [ -5.9910198, 54.653639 ], [ -5.9911485, 54.6535149 ], [ -5.9910909, 54.6533167 ], [ -5.9912558, 54.653189 ], [ -5.9914275, 54.6531177 ], [ -5.9914927, 54.6530755 ], [ -5.991475, 54.6529938 ], [ -5.9914119, 54.6528916 ], [ -5.9914363, 54.6528184 ], [ -5.9919116, 54.6525173 ], [ -5.9920731, 54.6524375 ], [ -5.9922214, 54.6521742 ], [ -5.9922606, 54.6521318 ], [ -5.9921643, 54.652043 ], [ -5.992039, 54.6519632 ], [ -5.9920822, 54.6518159 ], [ -5.9923264, 54.651585 ], [ -5.9923984, 54.65151 ], [ -5.9921678, 54.6513052 ], [ -5.9921691, 54.6511629 ], [ -5.9929892, 54.650676 ], [ -5.9932404, 54.6505608 ], [ -5.9935029, 54.6504995 ], [ -5.9936133, 54.6503188 ], [ -5.993735, 54.6502191 ], [ -5.9937855, 54.6501666 ], [ -5.993942, 54.6500819 ], [ -5.9941085, 54.6500118 ], [ -5.9942751, 54.6499446 ], [ -5.9944315, 54.6498833 ], [ -5.9944971, 54.649787 ], [ -5.9946738, 54.6497023 ], [ -5.9947848, 54.6496468 ], [ -5.9949968, 54.649641 ], [ -5.995229, 54.6496176 ], [ -5.9953753, 54.649565 ], [ -5.995446, 54.6494453 ], [ -5.9955116, 54.6493811 ], [ -5.9955166, 54.6493168 ], [ -5.9956125, 54.6492818 ], [ -5.9955772, 54.6491737 ], [ -5.9956176, 54.6491153 ], [ -5.995774, 54.6490657 ], [ -5.9957942, 54.6489664 ], [ -5.9958447, 54.6488321 ], [ -5.9959658, 54.6487766 ], [ -5.996097, 54.6486919 ], [ -5.9961526, 54.6484934 ], [ -5.9966825, 54.6481225 ], [ -5.9967986, 54.6480641 ], [ -5.9969651, 54.6480203 ], [ -5.9971721, 54.6479998 ], [ -5.9973588, 54.6479239 ], [ -5.9975153, 54.6479531 ], [ -5.9976566, 54.6479473 ], [ -5.9978837, 54.6478422 ], [ -5.9979745, 54.6477691 ], [ -5.9980654, 54.6476961 ], [ -5.9982723, 54.6476523 ], [ -5.9983127, 54.6475209 ], [ -5.9983329, 54.64741 ], [ -5.9984439, 54.647337 ], [ -5.9985701, 54.6472756 ], [ -5.9987135, 54.6472314 ], [ -5.9987921, 54.6471942 ], [ -5.9987778, 54.6470744 ], [ -5.9987207, 54.6469918 ], [ -5.9986136, 54.6469216 ], [ -5.9984566, 54.6468432 ], [ -5.9983352, 54.6467854 ], [ -5.998271, 54.6466408 ], [ -5.9981497, 54.6465293 ], [ -5.9981711, 54.6463889 ], [ -5.9981996, 54.6462567 ], [ -5.9981568, 54.6461576 ], [ -5.9981925, 54.646075 ], [ -5.9983352, 54.6459428 ], [ -5.9986207, 54.6458685 ], [ -5.9989776, 54.6457281 ], [ -5.9992203, 54.6455629 ], [ -5.9994059, 54.6454555 ], [ -5.9995272, 54.6453068 ], [ -5.9997485, 54.6451086 ], [ -5.9998341, 54.6449227 ], [ -5.9999269, 54.6448029 ], [ -6.0000911, 54.6446708 ], [ -6.0002553, 54.644551 ], [ -6.0005907, 54.6443362 ], [ -6.0007792, 54.644239 ], [ -6.0008657, 54.6441944 ], [ -6.000919, 54.6441669 ], [ -6.001226, 54.6440637 ], [ -6.0012902, 54.6439604 ], [ -6.00154, 54.64382 ], [ -6.0019825, 54.6435969 ], [ -6.0020828, 54.6435454 ], [ -6.0028747, 54.6431385 ], [ -6.0029253, 54.6431085 ], [ -6.004388, 54.6422423 ], [ -6.0053158, 54.6416929 ], [ -6.0082728, 54.6400031 ], [ -6.0087275, 54.6397433 ], [ -6.009803, 54.6391301 ], [ -6.0120893, 54.6378266 ], [ -6.0149372, 54.6361164 ], [ -6.0151663, 54.635918 ], [ -6.0159151, 54.6352695 ], [ -6.0168525, 54.6343676 ], [ -6.0188449, 54.6325156 ], [ -6.0190556, 54.6323198 ], [ -6.0199115, 54.631572 ], [ -6.0201762, 54.6313407 ], [ -6.0213707, 54.6303378 ], [ -6.0221151, 54.6296567 ], [ -6.0222936, 54.6295852 ], [ -6.0235343, 54.6287418 ], [ -6.0229411, 54.6286098 ], [ -6.0228456, 54.6283407 ], [ -6.0226743, 54.6278577 ], [ -6.0225291, 54.6271934 ], [ -6.0224459, 54.6268743 ], [ -6.0221676, 54.6263206 ], [ -6.0218102, 54.6254791 ], [ -6.0218254, 54.6242705 ], [ -6.0218823, 54.6213825 ], [ -6.0218629, 54.6190496 ], [ -6.0218515, 54.6161188 ], [ -6.0218538, 54.6142361 ], [ -6.0216125, 54.6131035 ], [ -6.0211413, 54.6116787 ], [ -6.0224849, 54.6117548 ], [ -6.0252879, 54.6119454 ], [ -6.0271774, 54.6120365 ], [ -6.027981, 54.6120861 ], [ -6.0298312, 54.6121916 ], [ -6.0316813, 54.6123074 ], [ -6.0327957, 54.6124005 ], [ -6.034953, 54.6125308 ], [ -6.036196, 54.6126218 ], [ -6.038314, 54.6127583 ], [ -6.0396284, 54.6128411 ], [ -6.0410344, 54.6129375 ], [ -6.0411451, 54.6128706 ], [ -6.0414484, 54.6126874 ], [ -6.0417487, 54.6124195 ], [ -6.042048, 54.6122596 ], [ -6.0420909, 54.612142 ], [ -6.0421479, 54.6119765 ], [ -6.0423085, 54.6117801 ], [ -6.0423554, 54.6115797 ], [ -6.0424049, 54.6113812 ], [ -6.0424798, 54.6112242 ], [ -6.042462, 54.611094 ], [ -6.0424737, 54.610966 ], [ -6.0425333, 54.6107405 ], [ -6.0425333, 54.6106124 ], [ -6.0425655, 54.610445 ], [ -6.0426391, 54.610253 ], [ -6.0426467, 54.6100284 ], [ -6.0426991, 54.6098381 ], [ -6.0441831, 54.6081735 ], [ -6.0443479, 54.6080611 ], [ -6.0444337, 54.6079895 ], [ -6.0446079, 54.607817 ], [ -6.0447164, 54.6077147 ], [ -6.0448047, 54.6076387 ], [ -6.0448829, 54.6075525 ], [ -6.044946, 54.6074721 ], [ -6.0450312, 54.6073308 ], [ -6.045081, 54.6071631 ], [ -6.0452461, 54.6069358 ], [ -6.0455139, 54.6065769 ], [ -6.0456239, 54.606447 ], [ -6.0456595, 54.6063784 ], [ -6.0456647, 54.6062895 ], [ -6.0456279, 54.6062351 ], [ -6.0455855, 54.6061722 ], [ -6.0455459, 54.6060763 ], [ -6.0455084, 54.605934 ], [ -6.0454983, 54.6058812 ], [ -6.0453122, 54.6056018 ], [ -6.0451974, 54.6055211 ], [ -6.0450526, 54.6054533 ], [ -6.0449661, 54.6054446 ], [ -6.0449456, 54.6051013 ], [ -6.0449494, 54.6048778 ], [ -6.0449507, 54.6047988 ], [ -6.0449305, 54.6047516 ], [ -6.0449176, 54.6046707 ], [ -6.0448924, 54.604473 ], [ -6.0448291, 54.6039772 ], [ -6.0447473, 54.6036257 ], [ -6.0447095, 54.6034824 ], [ -6.0446562, 54.6032911 ], [ -6.04464, 54.603233 ], [ -6.0445099, 54.6027565 ], [ -6.0444265, 54.6023074 ], [ -6.0443708, 54.6020135 ], [ -6.0443505, 54.6017966 ], [ -6.0443384, 54.6013762 ], [ -6.0443272, 54.6011942 ], [ -6.0443171, 54.6011272 ], [ -6.0442851, 54.6010603 ], [ -6.0441867, 54.6009206 ], [ -6.0434861, 54.6000931 ], [ -6.0432474, 54.5998157 ], [ -6.0431977, 54.5997712 ], [ -6.0430784, 54.599638 ], [ -6.0428704, 54.5994274 ], [ -6.0425332, 54.5990614 ], [ -6.0422301, 54.598732 ], [ -6.0419026, 54.5983602 ], [ -6.0417004, 54.5980735 ], [ -6.0412907, 54.5975149 ], [ -6.0408603, 54.5969508 ], [ -6.0404644, 54.596381 ], [ -6.0403014, 54.5961106 ], [ -6.0401228, 54.5957585 ], [ -6.0400392, 54.5955694 ], [ -6.0400253, 54.5954243 ], [ -6.0400193, 54.5952236 ], [ -6.0400424, 54.5950188 ], [ -6.0400243, 54.5946517 ], [ -6.040028, 54.5944763 ], [ -6.0400221, 54.5943649 ], [ -6.0400059, 54.5943015 ], [ -6.0399779, 54.5942609 ], [ -6.0399462, 54.5942393 ], [ -6.0399366, 54.5941997 ], [ -6.0399221, 54.5940005 ], [ -6.0398897, 54.5935974 ], [ -6.0398847, 54.5934992 ], [ -6.0395084, 54.5934506 ], [ -6.0394101, 54.5935266 ], [ -6.0394752, 54.593341 ], [ -6.0395361, 54.5932176 ], [ -6.0396375, 54.5930471 ], [ -6.0397524, 54.5929277 ], [ -6.0398843, 54.5928317 ], [ -6.0400533, 54.5926906 ], [ -6.0401345, 54.5925809 ], [ -6.0400229, 54.5924771 ], [ -6.0399519, 54.5924321 ], [ -6.039935, 54.5923518 ], [ -6.039935, 54.5922479 ], [ -6.040006, 54.5921715 ], [ -6.0404895, 54.5920207 ], [ -6.0407025, 54.5919326 ], [ -6.0407599, 54.591864 ], [ -6.0408208, 54.5917974 ], [ -6.0407566, 54.5917386 ], [ -6.0405808, 54.5916877 ], [ -6.0405098, 54.5916387 ], [ -6.0405841, 54.591578 ], [ -6.0406551, 54.5915388 ], [ -6.040743, 54.5913978 ], [ -6.0408343, 54.5912998 ], [ -6.0409087, 54.5911804 ], [ -6.0408783, 54.5910824 ], [ -6.0408749, 54.5910041 ], [ -6.0408512, 54.5909414 ], [ -6.0408715, 54.5908415 ], [ -6.040885, 54.5907357 ], [ -6.0407971, 54.5906279 ], [ -6.0407701, 54.5905417 ], [ -6.0408715, 54.5905045 ], [ -6.0409696, 54.5905241 ], [ -6.0410811, 54.5905457 ], [ -6.04124, 54.5905417 ], [ -6.041497, 54.5905751 ], [ -6.0416052, 54.5905672 ], [ -6.0415883, 54.5904791 ], [ -6.0415477, 54.5904183 ], [ -6.0414395, 54.590385 ], [ -6.0413888, 54.5903204 ], [ -6.0413516, 54.590244 ], [ -6.0413685, 54.5901323 ], [ -6.0414361, 54.590099 ], [ -6.041568, 54.5901539 ], [ -6.0416457, 54.5901931 ], [ -6.0416626, 54.5902244 ], [ -6.0416728, 54.590242 ], [ -6.0418587, 54.5902577 ], [ -6.04219, 54.5902009 ], [ -6.0421461, 54.5900932 ], [ -6.0421292, 54.5900285 ], [ -6.0422002, 54.5899286 ], [ -6.0422746, 54.5898346 ], [ -6.0425193, 54.5898193 ], [ -6.0429809, 54.5899546 ], [ -6.043472, 54.589865 ], [ -6.0439604, 54.5897213 ], [ -6.0443696, 54.5894933 ], [ -6.0451999, 54.5886415 ], [ -6.0454246, 54.5883059 ], [ -6.0455347, 54.5879114 ], [ -6.0455593, 54.587815 ], [ -6.0456548, 54.5876043 ], [ -6.0456117, 54.587324 ], [ -6.0453683, 54.5870615 ], [ -6.0449739, 54.5868259 ], [ -6.0444809, 54.5865009 ], [ -6.0442283, 54.586317 ], [ -6.0440804, 54.5861206 ], [ -6.0439492, 54.586066 ], [ -6.0439794, 54.5859076 ], [ -6.0439075, 54.5858858 ], [ -6.0436395, 54.5858048 ], [ -6.0435655, 54.585719 ], [ -6.0434989, 54.5854359 ], [ -6.0433509, 54.5851271 ], [ -6.0432251, 54.5847154 ], [ -6.0431437, 54.5846211 ], [ -6.0430993, 54.584501 ], [ -6.0436691, 54.5842865 ], [ -6.0436691, 54.5840893 ], [ -6.043795, 54.5835274 ], [ -6.0438986, 54.5830556 ], [ -6.0441872, 54.5821249 ], [ -6.0441946, 54.5816446 ], [ -6.044122, 54.5814636 ], [ -6.0436254, 54.5810864 ], [ -6.043528, 54.5809397 ], [ -6.0434598, 54.5805672 ], [ -6.0434988, 54.5804487 ], [ -6.0434209, 54.5801834 ], [ -6.043304, 54.5797488 ], [ -6.042895, 54.5791506 ], [ -6.0425827, 54.5786666 ], [ -6.0424074, 54.5784295 ], [ -6.0423879, 54.5779215 ], [ -6.0419984, 54.5769056 ], [ -6.0420374, 54.576375 ], [ -6.0422127, 54.5757541 ], [ -6.0421542, 54.5752687 ], [ -6.0418816, 54.57493 ], [ -6.0416673, 54.5743204 ], [ -6.0416868, 54.5739704 ], [ -6.041531, 54.5730898 ], [ -6.0413362, 54.5721754 ], [ -6.0411025, 54.5709278 ], [ -6.0410246, 54.5706512 ], [ -6.0408201, 54.5703238 ], [ -6.0406156, 54.5699794 ], [ -6.040265, 54.5697762 ], [ -6.0405377, 54.569652 ], [ -6.0409467, 54.5695391 ], [ -6.0412291, 54.5694996 ], [ -6.0415213, 54.5694883 ], [ -6.0417355, 54.5696633 ], [ -6.0418502, 54.5698438 ], [ -6.0418718, 54.5698778 ], [ -6.0421737, 54.5699173 ], [ -6.0423143, 54.5699153 ], [ -6.042573, 54.5699117 ], [ -6.0428846, 54.570081 ], [ -6.0438732, 54.569849 ], [ -6.0440387, 54.5697305 ], [ -6.0442237, 54.569595 ], [ -6.0443406, 54.5692619 ], [ -6.0443601, 54.5690022 ], [ -6.0443893, 54.5686466 ], [ -6.0444769, 54.5684208 ], [ -6.0445743, 54.5681046 ], [ -6.0446814, 54.567924 ], [ -6.0447788, 54.5674836 ], [ -6.0443945, 54.5673707 ], [ -6.0432446, 54.5669395 ], [ -6.0426799, 54.567199 ], [ -6.0424871, 54.5670673 ], [ -6.0423701, 54.5670274 ], [ -6.0420533, 54.5667679 ], [ -6.0418398, 54.5665403 ], [ -6.0417641, 54.5662729 ], [ -6.0417228, 54.5660213 ], [ -6.0417297, 54.5658098 ], [ -6.0414887, 54.5650353 ], [ -6.0413234, 54.5650273 ], [ -6.0411926, 54.5647159 ], [ -6.0410339, 54.5644012 ], [ -6.0409803, 54.5642474 ], [ -6.0409803, 54.5641373 ], [ -6.0410582, 54.5639961 ], [ -6.0414551, 54.5636489 ], [ -6.0415549, 54.5635247 ], [ -6.0417326, 54.5633849 ], [ -6.0419231, 54.5632438 ], [ -6.0419785, 54.5632028 ], [ -6.0423485, 54.5630165 ], [ -6.04248, 54.5629219 ], [ -6.0427137, 54.562809 ], [ -6.043018, 54.5627102 ], [ -6.0431568, 54.5627031 ], [ -6.0434051, 54.5626707 ], [ -6.0436851, 54.5626326 ], [ -6.0438604, 54.5626114 ], [ -6.0440941, 54.5625549 ], [ -6.0443473, 54.5624787 ], [ -6.0445372, 54.5623785 ], [ -6.0451739, 54.5627787 ], [ -6.046333, 54.5624759 ], [ -6.0459154, 54.5621366 ], [ -6.0468776, 54.5617941 ], [ -6.0473349, 54.562258 ], [ -6.0481043, 54.562066 ], [ -6.0479971, 54.5616482 ], [ -6.0490488, 54.5613771 ], [ -6.0497987, 54.561507 ], [ -6.0498474, 54.5617159 ], [ -6.0502652, 54.5616744 ], [ -6.0506715, 54.5616344 ], [ -6.0509607, 54.5616624 ], [ -6.0514943, 54.5617143 ], [ -6.0515563, 54.561868 ], [ -6.0518455, 54.5617782 ], [ -6.0520039, 54.5617782 ], [ -6.0522576, 54.561809 ], [ -6.0522966, 54.5618588 ], [ -6.0526362, 54.5622052 ], [ -6.0534736, 54.5619511 ], [ -6.0532594, 54.5617365 ], [ -6.0527871, 54.5612284 ], [ -6.0539654, 54.5609319 ], [ -6.0556698, 54.5597387 ], [ -6.0558794, 54.5596422 ], [ -6.0562849, 54.5594514 ], [ -6.0564036, 54.5593582 ], [ -6.0567152, 54.5592249 ], [ -6.0567746, 54.5590835 ], [ -6.0569872, 54.5587136 ], [ -6.0570713, 54.5585702 ], [ -6.057373, 54.5584928 ], [ -6.0577736, 54.5583924 ], [ -6.0580555, 54.5582433 ], [ -6.0582484, 54.5581056 ], [ -6.0583918, 54.5579938 ], [ -6.0588325, 54.557675 ], [ -6.0593361, 54.5573667 ], [ -6.0596159, 54.5569287 ], [ -6.0600355, 54.5564339 ], [ -6.0601801, 54.556266 ] ] ] } }
]
}
