{
"type": "FeatureCollection",
"name": "berdyansk_ua",
"crs": { "type": "name", "properties": { "name": "urn:ogc:def:crs:OGC:1.3:CRS84" } },
"features": [
{ "type": "Feature", "properties": { }, "geometry": { "type": "Polygon", "coordinates": [ [ [ 36.7121438, 46.7845576 ], [ 36.7123969, 46.7836829 ], [ 36.7125252, 46.7836802 ], [ 36.7130685, 46.7817854 ], [ 36.7130867, 46.7812398 ], [ 36.7129897, 46.7807218 ], [ 36.7130247, 46.7802693 ], [ 36.7140461, 46.7801616 ], [ 36.7160373, 46.7799045 ], [ 36.7181276, 46.7796215 ], [ 36.7213627, 46.7787602 ], [ 36.725474, 46.7776268 ], [ 36.7297199, 46.77584 ], [ 36.7311208, 46.7733915 ], [ 36.7380947, 46.770776 ], [ 36.7436711, 46.7685242 ], [ 36.748415, 46.7693335 ], [ 36.7502417, 46.768697 ], [ 36.7523746, 46.7678178 ], [ 36.7554651, 46.7659275 ], [ 36.7589434, 46.7648377 ], [ 36.7621084, 46.7631401 ], [ 36.7683858, 46.7594695 ], [ 36.7715947, 46.7579901 ], [ 36.771307, 46.7577217 ], [ 36.7730949, 46.7563582 ], [ 36.7713669, 46.7544233 ], [ 36.7713328, 46.7536498 ], [ 36.7735112, 46.752558 ], [ 36.7725956, 46.7497554 ], [ 36.7762085, 46.7461067 ], [ 36.778355, 46.7518013 ], [ 36.786713, 46.7485418 ], [ 36.7951489, 46.7433494 ], [ 36.8036314, 46.7369671 ], [ 36.8112653, 46.7301216 ], [ 36.8185549, 46.7210376 ], [ 36.8221083, 46.7133697 ], [ 36.8277823, 46.7077949 ], [ 36.8055179, 46.7064773 ], [ 36.8023445, 46.7036791 ], [ 36.8011259, 46.6996094 ], [ 36.8006297, 46.6969221 ], [ 36.799783, 46.6943471 ], [ 36.8003557, 46.6887646 ], [ 36.7678959, 46.674866 ], [ 36.7630429, 46.6709628 ], [ 36.7583805, 46.6666466 ], [ 36.7570213, 46.6549331 ], [ 36.7558983, 46.6494224 ], [ 36.755872, 46.6492932 ], [ 36.7546242, 46.6426993 ], [ 36.7454966, 46.6361407 ], [ 36.74296, 46.6306637 ], [ 36.7538772, 46.6273559 ], [ 36.7677146, 46.6302928 ], [ 36.7831079, 46.6391611 ], [ 36.8125547, 46.6664818 ], [ 36.8250371, 46.6793826 ], [ 36.8342223, 46.6918388 ], [ 36.8413124, 46.7083486 ], [ 36.8480409, 46.7236135 ], [ 36.8605304, 46.747364 ], [ 36.8727239, 46.7683466 ], [ 36.8754182, 46.7773461 ], [ 36.8778548, 46.782342 ], [ 36.8805855, 46.7875945 ], [ 36.8769919, 46.7876408 ], [ 36.8680497, 46.7904234 ], [ 36.8678396, 46.7921952 ], [ 36.8673664, 46.7937307 ], [ 36.8666211, 46.7941068 ], [ 36.8620416, 46.7945237 ], [ 36.8610269, 46.7945603 ], [ 36.858849, 46.7941628 ], [ 36.8563711, 46.7933 ], [ 36.8543285, 46.7923545 ], [ 36.8529613, 46.7915135 ], [ 36.8525341, 46.7913819 ], [ 36.852175, 46.7915211 ], [ 36.8504431, 46.7912471 ], [ 36.8480415, 46.7914849 ], [ 36.8467172, 46.7919094 ], [ 36.8464756, 46.79223 ], [ 36.8451867, 46.7930361 ], [ 36.8443862, 46.7937497 ], [ 36.843938, 46.793957 ], [ 36.8430916, 46.7943001 ], [ 36.8427593, 46.7952101 ], [ 36.8419437, 46.7962235 ], [ 36.8414007, 46.799055 ], [ 36.8419437, 46.8008145 ], [ 36.8430312, 46.8025929 ], [ 36.8436958, 46.8031926 ], [ 36.8464147, 46.8075349 ], [ 36.8470189, 46.8089616 ], [ 36.8466261, 46.8099334 ], [ 36.84582, 46.8109562 ], [ 36.7252154, 46.813652 ], [ 36.7122552, 46.7848124 ], [ 36.7121438, 46.7845576 ] ] ] } }
]
}
