{
"type": "FeatureCollection",
"name": "bila-tserkva_ua",
"crs": { "type": "name", "properties": { "name": "urn:ogc:def:crs:OGC:1.3:CRS84" } },
"features": [
{ "type": "Feature", "properties": { "bbox_west": 30.020939, "bbox_south": 49.7568671, "bbox_east": 30.2224658, "bbox_north": 49.8543319, "place_id": 191226604, "osm_type": "relation", "osm_id": 2069683, "lat": 49.7969703, "lon": 30.1158069, "class": "boundary", "type": "administrative", "place_rank": 18, "importance": 0.57830740321666718, "addresstype": "city", "name": "Bila Tserkva", "display_name": "Bila Tserkva, Bila Tserkva Urban Hromada, Bila Tserkva Raion, Kyiv Oblast, Ukraine" }, "geometry": { "type": "Polygon", "coordinates": [ [ [ 30.020939, 49.7776526 ], [ 30.0226944, 49.7778287 ], [ 30.0253463, 49.7783739 ], [ 30.0268616, 49.7791412 ], [ 30.0290475, 49.7800437 ], [ 30.0307517, 49.7811544 ], [ 30.0324519, 49.7824964 ], [ 30.033307, 49.7830248 ], [ 30.0363249, 49.7840431 ], [ 30.0387245, 49.7848979 ], [ 30.0398461, 49.785262 ], [ 30.0407485, 49.7852349 ], [ 30.0416269, 49.7848637 ], [ 30.0428411, 49.784564 ], [ 30.0449718, 49.784604 ], [ 30.0465647, 49.7851249 ], [ 30.0479714, 49.7855256 ], [ 30.0484678, 49.7861533 ], [ 30.0492332, 49.7881166 ], [ 30.0504492, 49.7904939 ], [ 30.0512605, 49.7927508 ], [ 30.0516687, 49.7940862 ], [ 30.0525864, 49.7944233 ], [ 30.0544048, 49.7953414 ], [ 30.055253, 49.796156 ], [ 30.0557288, 49.7971307 ], [ 30.0559414, 49.797842 ], [ 30.0558564, 49.799189 ], [ 30.0562445, 49.7992013 ], [ 30.0566213, 49.7990108 ], [ 30.0566726, 49.7985734 ], [ 30.0582947, 49.7981493 ], [ 30.0593316, 49.7978643 ], [ 30.0609945, 49.7975367 ], [ 30.0624937, 49.7972414 ], [ 30.0631096, 49.7972348 ], [ 30.0661177, 49.7977981 ], [ 30.0696549, 49.7985179 ], [ 30.0702148, 49.7981782 ], [ 30.0737498, 49.796696 ], [ 30.0760763, 49.7952722 ], [ 30.0724871, 49.7913031 ], [ 30.0756609, 49.7902497 ], [ 30.0808281, 49.7885687 ], [ 30.0813687, 49.7879581 ], [ 30.0822626, 49.7870422 ], [ 30.0833421, 49.787351 ], [ 30.0836813, 49.7874313 ], [ 30.086923, 49.7883089 ], [ 30.0889276, 49.788832 ], [ 30.0908314, 49.7893028 ], [ 30.0909795, 49.7891888 ], [ 30.0909531, 49.7888285 ], [ 30.0902217, 49.787762 ], [ 30.090186, 49.7877292 ], [ 30.0886282, 49.7857177 ], [ 30.0883643, 49.7851212 ], [ 30.0882878, 49.7849679 ], [ 30.0885899, 49.7847946 ], [ 30.0923273, 49.7826499 ], [ 30.0936111, 49.7809042 ], [ 30.0939584, 49.7806891 ], [ 30.0971811, 49.7802538 ], [ 30.0974863, 49.7800139 ], [ 30.0975725, 49.7796155 ], [ 30.0978379, 49.7793928 ], [ 30.099553, 49.7791993 ], [ 30.1002377, 49.7791247 ], [ 30.0998072, 49.7774716 ], [ 30.1003789, 49.7774495 ], [ 30.1007515, 49.7781423 ], [ 30.1010439, 49.778197 ], [ 30.1021758, 49.7789408 ], [ 30.1025127, 49.7799533 ], [ 30.1043242, 49.7797735 ], [ 30.1046608, 49.7805959 ], [ 30.104855, 49.7810704 ], [ 30.1112875, 49.7799851 ], [ 30.1116429, 49.7798438 ], [ 30.1170778, 49.7779061 ], [ 30.1178635, 49.7774841 ], [ 30.1170384, 49.777025 ], [ 30.1176536, 49.7762304 ], [ 30.115945, 49.7756787 ], [ 30.1168106, 49.7742804 ], [ 30.11827, 49.7747011 ], [ 30.1204884, 49.7714153 ], [ 30.121745, 49.7694298 ], [ 30.1211533, 49.7692589 ], [ 30.1215764, 49.7686753 ], [ 30.1221699, 49.7688485 ], [ 30.1223004, 49.7686744 ], [ 30.1211925, 49.7683268 ], [ 30.1216336, 49.7677208 ], [ 30.1218549, 49.7670413 ], [ 30.1222831, 49.766743 ], [ 30.1224871, 49.7665535 ], [ 30.1226234, 49.7663732 ], [ 30.1228361, 49.7659287 ], [ 30.1226447, 49.7657167 ], [ 30.1223124, 49.7654931 ], [ 30.1211116, 49.7650407 ], [ 30.120859, 49.7648522 ], [ 30.1203864, 49.764462 ], [ 30.1192736, 49.7629763 ], [ 30.1199582, 49.7625027 ], [ 30.1204933, 49.7625263 ], [ 30.1225255, 49.7619981 ], [ 30.1228291, 49.7618263 ], [ 30.1231807, 49.7613729 ], [ 30.1233693, 49.7613084 ], [ 30.1250309, 49.761811 ], [ 30.1261784, 49.7599507 ], [ 30.1267285, 49.7594687 ], [ 30.1288048, 49.7588148 ], [ 30.1302362, 49.7568671 ], [ 30.1334289, 49.7576969 ], [ 30.1319496, 49.7596933 ], [ 30.1322376, 49.7597995 ], [ 30.1323306, 49.7600527 ], [ 30.1303435, 49.7629031 ], [ 30.1304761, 49.7629558 ], [ 30.1307996, 49.7630096 ], [ 30.1320005, 49.7624399 ], [ 30.1345471, 49.7643783 ], [ 30.1370913, 49.7661822 ], [ 30.1401794, 49.768491 ], [ 30.143425, 49.7706431 ], [ 30.1419806, 49.7715803 ], [ 30.1425708, 49.7719887 ], [ 30.1430134, 49.7718979 ], [ 30.1438681, 49.7725396 ], [ 30.1422536, 49.7741352 ], [ 30.1414599, 49.7747802 ], [ 30.1413042, 49.7749334 ], [ 30.141268, 49.7750666 ], [ 30.141496, 49.7754724 ], [ 30.1422674, 49.7757746 ], [ 30.1436928, 49.7757847 ], [ 30.1446735, 49.775898 ], [ 30.1462735, 49.7761047 ], [ 30.1470683, 49.7763511 ], [ 30.1474854, 49.7767776 ], [ 30.147549, 49.7773045 ], [ 30.1479524, 49.7775345 ], [ 30.1481362, 49.7775314 ], [ 30.1498849, 49.7775023 ], [ 30.15074, 49.7775646 ], [ 30.1509506, 49.7780327 ], [ 30.1515554, 49.777911 ], [ 30.152256, 49.778306 ], [ 30.1529534, 49.777821 ], [ 30.1547987, 49.7773291 ], [ 30.1549596, 49.7769688 ], [ 30.1554424, 49.7768302 ], [ 30.1554854, 49.7775716 ], [ 30.1562817, 49.7771117 ], [ 30.156372, 49.7771178 ], [ 30.1574261, 49.7771889 ], [ 30.1580705, 49.7772324 ], [ 30.1583826, 49.7747168 ], [ 30.1600853, 49.7748565 ], [ 30.1620715, 49.7751553 ], [ 30.1658682, 49.7752318 ], [ 30.1659486, 49.7753965 ], [ 30.166936, 49.7763385 ], [ 30.1746469, 49.7750041 ], [ 30.1792818, 49.7755861 ], [ 30.1840564, 49.7741361 ], [ 30.185671, 49.7755348 ], [ 30.1865323, 49.7758909 ], [ 30.1870473, 49.7770272 ], [ 30.1879915, 49.77772 ], [ 30.1904033, 49.7775759 ], [ 30.1933688, 49.7763279 ], [ 30.1968763, 49.776315 ], [ 30.1970273, 49.7773432 ], [ 30.1972401, 49.7774748 ], [ 30.1973048, 49.7785927 ], [ 30.1973021, 49.7790051 ], [ 30.1947388, 49.7791844 ], [ 30.1928717, 49.7793547 ], [ 30.1932244, 49.7829475 ], [ 30.1935962, 49.782904 ], [ 30.1963268, 49.7826929 ], [ 30.1984265, 49.7825995 ], [ 30.1990121, 49.7825755 ], [ 30.1993501, 49.7826309 ], [ 30.1995545, 49.78266 ], [ 30.2001089, 49.7826437 ], [ 30.201979, 49.782592 ], [ 30.202462, 49.7825649 ], [ 30.2041197, 49.7826012 ], [ 30.2046069, 49.7826435 ], [ 30.2090094, 49.7833364 ], [ 30.2094132, 49.7833706 ], [ 30.2094511, 49.7834667 ], [ 30.2094806, 49.783621 ], [ 30.2173192, 49.7834114 ], [ 30.2174045, 49.784715 ], [ 30.2218649, 49.784624 ], [ 30.2224658, 49.7907265 ], [ 30.2172194, 49.7909204 ], [ 30.217462, 49.7948173 ], [ 30.217462, 49.7962008 ], [ 30.2173517, 49.796328 ], [ 30.2164928, 49.7964856 ], [ 30.2160988, 49.7968163 ], [ 30.2148151, 49.7980488 ], [ 30.2148095, 49.7986386 ], [ 30.2172219, 49.7985265 ], [ 30.2173084, 49.7985288 ], [ 30.2172799, 49.798586 ], [ 30.217963, 49.802576 ], [ 30.2166294, 49.8026592 ], [ 30.2156102, 49.8004917 ], [ 30.2145587, 49.8016551 ], [ 30.2148699, 49.8022298 ], [ 30.2163612, 49.8025968 ], [ 30.2162325, 49.8030326 ], [ 30.213325, 49.8036005 ], [ 30.2130997, 49.8041129 ], [ 30.2130322, 49.8048042 ], [ 30.211606, 49.8062897 ], [ 30.2096565, 49.807168 ], [ 30.2087465, 49.8070418 ], [ 30.2088016, 49.8069969 ], [ 30.2088031, 49.8069519 ], [ 30.2087965, 49.8068845 ], [ 30.2086725, 49.8067927 ], [ 30.2085137, 49.806708 ], [ 30.2084621, 49.8066395 ], [ 30.2083678, 49.8064859 ], [ 30.2082683, 49.8062837 ], [ 30.2082088, 49.806061 ], [ 30.2082674, 49.8057345 ], [ 30.2084811, 49.8055458 ], [ 30.2086388, 49.8053581 ], [ 30.2088127, 49.8052049 ], [ 30.208868, 49.805102 ], [ 30.2089019, 49.8049992 ], [ 30.2089496, 49.8048205 ], [ 30.2089652, 49.8046522 ], [ 30.2089325, 49.8043039 ], [ 30.2088569, 49.803966 ], [ 30.2087926, 49.8036321 ], [ 30.2086639, 49.8032982 ], [ 30.2086146, 49.8032521 ], [ 30.2085203, 49.8032152 ], [ 30.2081014, 49.8030796 ], [ 30.20778, 49.802985 ], [ 30.207626, 49.8029523 ], [ 30.2074451, 49.8029301 ], [ 30.2071214, 49.80294 ], [ 30.2068191, 49.8029378 ], [ 30.206588, 49.8028394 ], [ 30.2063516, 49.8027427 ], [ 30.2061809, 49.8027083 ], [ 30.2060103, 49.8027086 ], [ 30.2055939, 49.8027471 ], [ 30.2053084, 49.8027426 ], [ 30.205225, 49.8027551 ], [ 30.2050605, 49.8027797 ], [ 30.2048061, 49.8028884 ], [ 30.2042349, 49.8031862 ], [ 30.2038094, 49.8032819 ], [ 30.2033624, 49.8033015 ], [ 30.2027452, 49.8032683 ], [ 30.2022787, 49.8031834 ], [ 30.2017801, 49.8031747 ], [ 30.2013552, 49.8033395 ], [ 30.2004486, 49.8035906 ], [ 30.200112, 49.8037456 ], [ 30.1998343, 49.8038971 ], [ 30.1996572, 49.8041932 ], [ 30.1995338, 49.8044963 ], [ 30.1991689, 49.8050885 ], [ 30.1988386, 49.8054996 ], [ 30.198444, 49.8058969 ], [ 30.1979022, 49.8061429 ], [ 30.197296, 49.8063334 ], [ 30.1959036, 49.8066596 ], [ 30.1952747, 49.8067986 ], [ 30.1949857, 49.8069246 ], [ 30.1945136, 49.8071241 ], [ 30.1941027, 49.8075063 ], [ 30.1937059, 49.8079012 ], [ 30.193366, 49.8083161 ], [ 30.1926629, 49.8080308 ], [ 30.1918673, 49.8088484 ], [ 30.1832122, 49.816862 ], [ 30.1786948, 49.8133797 ], [ 30.1780024, 49.8132733 ], [ 30.175936, 49.8143585 ], [ 30.1751666, 49.813784 ], [ 30.1747709, 49.8138124 ], [ 30.1705349, 49.8104684 ], [ 30.16628, 49.8126474 ], [ 30.1624813, 49.8152267 ], [ 30.1576755, 49.8157596 ], [ 30.1574489, 49.8158905 ], [ 30.1524063, 49.8164859 ], [ 30.1527282, 49.817455 ], [ 30.1467438, 49.8184927 ], [ 30.1472516, 49.8196706 ], [ 30.1521935, 49.8311313 ], [ 30.1523848, 49.8315749 ], [ 30.1538225, 49.8312842 ], [ 30.1542087, 49.8308967 ], [ 30.1570822, 49.8304419 ], [ 30.1577174, 49.8314224 ], [ 30.1593482, 49.834585 ], [ 30.1561295, 49.8352908 ], [ 30.1576316, 49.8382594 ], [ 30.1553669, 49.8387565 ], [ 30.1543664, 49.8388967 ], [ 30.1529942, 49.8358288 ], [ 30.1519328, 49.8332779 ], [ 30.1320912, 49.8367426 ], [ 30.1318298, 49.8367871 ], [ 30.130485, 49.833764 ], [ 30.1179171, 49.8360099 ], [ 30.1153553, 49.8393232 ], [ 30.1153065, 49.8393343 ], [ 30.1151294, 49.8393744 ], [ 30.115016, 49.8394001 ], [ 30.1117928, 49.8318029 ], [ 30.1100832, 49.8280602 ], [ 30.1071041, 49.8285798 ], [ 30.1057562, 49.8288123 ], [ 30.0953561, 49.8306536 ], [ 30.0951323, 49.8300712 ], [ 30.0938486, 49.8302768 ], [ 30.0933712, 49.8289654 ], [ 30.0946533, 49.8288305 ], [ 30.0930117, 49.8244874 ], [ 30.092522, 49.8237459 ], [ 30.0829734, 49.8343828 ], [ 30.0823479, 49.8351769 ], [ 30.0815897, 49.8361357 ], [ 30.0804956, 49.8383233 ], [ 30.0780312, 49.84551 ], [ 30.0762543, 49.8501452 ], [ 30.0756696, 49.8500634 ], [ 30.0753992, 49.8501868 ], [ 30.0739018, 49.8502694 ], [ 30.0740691, 49.8516201 ], [ 30.07052, 49.8508184 ], [ 30.0593737, 49.8543319 ], [ 30.0591643, 49.8498608 ], [ 30.0589765, 49.8470963 ], [ 30.0531997, 49.8450122 ], [ 30.0558651, 49.8417835 ], [ 30.0607793, 49.8414595 ], [ 30.0612478, 49.8375911 ], [ 30.0614098, 49.8363213 ], [ 30.0612737, 49.8362585 ], [ 30.0605245, 49.8359128 ], [ 30.0596071, 49.8354895 ], [ 30.0594408, 49.8353341 ], [ 30.0590828, 49.8349995 ], [ 30.0589712, 49.8349266 ], [ 30.0586709, 49.8347304 ], [ 30.0586549, 49.8346871 ], [ 30.0585318, 49.8343543 ], [ 30.0580371, 49.8339869 ], [ 30.058422, 49.8337269 ], [ 30.0584861, 49.833452 ], [ 30.0586795, 49.8326231 ], [ 30.0593662, 49.8309033 ], [ 30.054506, 49.830014 ], [ 30.0543612, 49.8304431 ], [ 30.0526338, 49.8301178 ], [ 30.0524353, 49.8305781 ], [ 30.0519418, 49.8305884 ], [ 30.0514705, 49.8313845 ], [ 30.0510776, 49.831295 ], [ 30.0520501, 49.8289365 ], [ 30.0541708, 49.8285571 ], [ 30.0545199, 49.8282744 ], [ 30.0494935, 49.827282 ], [ 30.0506437, 49.8235458 ], [ 30.0513969, 49.8207633 ], [ 30.0549072, 49.8214742 ], [ 30.0551712, 49.8208708 ], [ 30.0554624, 49.8202044 ], [ 30.0555048, 49.8201075 ], [ 30.0557426, 49.8195928 ], [ 30.0561529, 49.8186816 ], [ 30.0568292, 49.8171121 ], [ 30.0568644, 49.8170117 ], [ 30.0543404, 49.8168094 ], [ 30.0514417, 49.8165759 ], [ 30.028976, 49.8136316 ], [ 30.0290513, 49.8129248 ], [ 30.0289847, 49.8124618 ], [ 30.0288351, 49.8114214 ], [ 30.0294515, 49.8113302 ], [ 30.0299752, 49.8112752 ], [ 30.0317075, 49.8111071 ], [ 30.0325581, 49.8083521 ], [ 30.0319225, 49.8076331 ], [ 30.0320982, 49.8075602 ], [ 30.0314943, 49.806802 ], [ 30.0312899, 49.806777 ], [ 30.0266879, 49.8072172 ], [ 30.021291, 49.7849353 ], [ 30.0239666, 49.7846761 ], [ 30.0239097, 49.7843912 ], [ 30.0236067, 49.7828638 ], [ 30.0230879, 49.7802487 ], [ 30.0214323, 49.7803568 ], [ 30.0211218, 49.7787444 ], [ 30.0209626, 49.7779733 ], [ 30.020939, 49.7776526 ] ] ] } }
]
}
