{
"type": "FeatureCollection",
"name": "bobruisk_by",
"crs": { "type": "name", "properties": { "name": "urn:ogc:def:crs:OGC:1.3:CRS84" } },
"features": [
{ "type": "Feature", "properties": { }, "geometry": { "type": "Polygon", "coordinates": [ [ [ 29.1364865, 53.1444761 ], [ 29.1417526, 53.143016 ], [ 29.1403134, 53.1375013 ], [ 29.1405758, 53.1369133 ], [ 29.1431482, 53.1350528 ], [ 29.1485867, 53.1353134 ], [ 29.1575266, 53.1359493 ], [ 29.1641782, 53.1358709 ], [ 29.1660747, 53.1357009 ], [ 29.1661341, 53.1350402 ], [ 29.1661652, 53.1336699 ], [ 29.166169, 53.1335026 ], [ 29.1663491, 53.1255562 ], [ 29.1663729, 53.124934 ], [ 29.166526, 53.1232407 ], [ 29.1653261, 53.1230807 ], [ 29.1630194, 53.1227313 ], [ 29.164205, 53.1197421 ], [ 29.1665554, 53.1200834 ], [ 29.1676068, 53.1213196 ], [ 29.1680145, 53.121384 ], [ 29.1685724, 53.1176623 ], [ 29.1710268, 53.1176171 ], [ 29.1735766, 53.1177218 ], [ 29.1753202, 53.1179183 ], [ 29.1750312, 53.1199546 ], [ 29.1768122, 53.1196584 ], [ 29.1826904, 53.1198424 ], [ 29.1827774, 53.1204439 ], [ 29.1840108, 53.1208204 ], [ 29.1862062, 53.1212175 ], [ 29.1902232, 53.115151 ], [ 29.1916094, 53.1097213 ], [ 29.1890537, 53.109717 ], [ 29.1887932, 53.1080636 ], [ 29.1827828, 53.1076836 ], [ 29.1833031, 53.1033287 ], [ 29.1829638, 53.1031387 ], [ 29.178856, 53.1027273 ], [ 29.1743928, 53.1007884 ], [ 29.1744625, 53.0972195 ], [ 29.1851485, 53.097896 ], [ 29.1880131, 53.0979153 ], [ 29.1907489, 53.0966397 ], [ 29.1936403, 53.0950114 ], [ 29.1938942, 53.0949601 ], [ 29.1961563, 53.094707 ], [ 29.1971487, 53.0944557 ], [ 29.2126143, 53.0977929 ], [ 29.2127538, 53.0968394 ], [ 29.2143738, 53.0960406 ], [ 29.2151463, 53.0960986 ], [ 29.2184722, 53.0942882 ], [ 29.2236594, 53.0931508 ], [ 29.221487, 53.0906608 ], [ 29.222002, 53.0897846 ], [ 29.2251011, 53.089016 ], [ 29.2254138, 53.0885088 ], [ 29.2260361, 53.0880062 ], [ 29.2321944, 53.0889727 ], [ 29.2355203, 53.0888696 ], [ 29.238163, 53.0884431 ], [ 29.2370009, 53.0868978 ], [ 29.2385673, 53.0862921 ], [ 29.2372856, 53.0845882 ], [ 29.2326564, 53.0742048 ], [ 29.2403269, 53.0731833 ], [ 29.2401724, 53.0714071 ], [ 29.2402753, 53.0706917 ], [ 29.2410051, 53.0702854 ], [ 29.2418206, 53.0705173 ], [ 29.2425799, 53.0715912 ], [ 29.2432451, 53.0744467 ], [ 29.2449188, 53.0772698 ], [ 29.2459143, 53.0770921 ], [ 29.2468784, 53.0790346 ], [ 29.2495678, 53.0822682 ], [ 29.2529318, 53.0820464 ], [ 29.2517265, 53.0850048 ], [ 29.2513191, 53.0873422 ], [ 29.2511628, 53.0882388 ], [ 29.2502363, 53.0903282 ], [ 29.2495356, 53.0916785 ], [ 29.2453073, 53.0992164 ], [ 29.2450031, 53.1008948 ], [ 29.2462518, 53.1018893 ], [ 29.2497278, 53.1037168 ], [ 29.2510986, 53.105439 ], [ 29.2510003, 53.1069903 ], [ 29.2509164, 53.1080981 ], [ 29.2510863, 53.1114381 ], [ 29.2507571, 53.1132891 ], [ 29.2511236, 53.114176 ], [ 29.2518407, 53.1149021 ], [ 29.2522484, 53.1156596 ], [ 29.2568464, 53.118308 ], [ 29.2617342, 53.1203287 ], [ 29.2641663, 53.120019 ], [ 29.2721221, 53.1183718 ], [ 29.2805141, 53.1184275 ], [ 29.2809503, 53.1199878 ], [ 29.2831256, 53.1223807 ], [ 29.2821049, 53.1235859 ], [ 29.2828912, 53.1240856 ], [ 29.2842227, 53.123565 ], [ 29.2874852, 53.1276084 ], [ 29.3036303, 53.1225669 ], [ 29.3042956, 53.1233466 ], [ 29.3033319, 53.1251515 ], [ 29.3030616, 53.1258658 ], [ 29.3030364, 53.12642 ], [ 29.30449, 53.12739 ], [ 29.3055267, 53.1276984 ], [ 29.3058554, 53.1287738 ], [ 29.3078207, 53.1297147 ], [ 29.3136089, 53.1322553 ], [ 29.3149262, 53.1339383 ], [ 29.3162271, 53.1345236 ], [ 29.3197247, 53.1323871 ], [ 29.3200591, 53.1325665 ], [ 29.3218259, 53.1329669 ], [ 29.3205499, 53.1334206 ], [ 29.3203782, 53.1337888 ], [ 29.3203055, 53.1341245 ], [ 29.3198265, 53.1354572 ], [ 29.3198092, 53.137802 ], [ 29.3215832, 53.1378989 ], [ 29.3215029, 53.1389054 ], [ 29.3190743, 53.1387516 ], [ 29.3188344, 53.1400573 ], [ 29.3143392, 53.1398118 ], [ 29.3140453, 53.1413903 ], [ 29.3124656, 53.1430225 ], [ 29.3050607, 53.1422266 ], [ 29.304021, 53.1433831 ], [ 29.3024998, 53.1429694 ], [ 29.3008977, 53.1449192 ], [ 29.3007495, 53.1449822 ], [ 29.3031474, 53.1467425 ], [ 29.3069877, 53.1495556 ], [ 29.3119952, 53.1531864 ], [ 29.3146228, 53.1550646 ], [ 29.3156209, 53.1558306 ], [ 29.3157208, 53.1560858 ], [ 29.3156951, 53.156255 ], [ 29.3157299, 53.1564441 ], [ 29.3157078, 53.1566902 ], [ 29.3156416, 53.156819 ], [ 29.3155069, 53.1569515 ], [ 29.3157018, 53.1570263 ], [ 29.314583, 53.1581907 ], [ 29.3134512, 53.1592595 ], [ 29.312698, 53.1598969 ], [ 29.3121466, 53.1602727 ], [ 29.3118244, 53.1604698 ], [ 29.3114146, 53.1606868 ], [ 29.3110196, 53.1608837 ], [ 29.3105841, 53.1610621 ], [ 29.3095873, 53.1614442 ], [ 29.308686, 53.1617294 ], [ 29.3072012, 53.162134 ], [ 29.3060705, 53.1624307 ], [ 29.3044427, 53.1627895 ], [ 29.303173, 53.1630391 ], [ 29.3012857, 53.1633721 ], [ 29.2990767, 53.1637702 ], [ 29.2970762, 53.1641262 ], [ 29.2962858, 53.1642624 ], [ 29.2950747, 53.164479 ], [ 29.2945515, 53.1645672 ], [ 29.2937389, 53.1647063 ], [ 29.2931358, 53.1648147 ], [ 29.2925254, 53.1649239 ], [ 29.2904324, 53.1653105 ], [ 29.2878711, 53.165736 ], [ 29.281312, 53.1668857 ], [ 29.2782521, 53.1674003 ], [ 29.2760096, 53.1677912 ], [ 29.2742454, 53.1680316 ], [ 29.2727757, 53.1681685 ], [ 29.2701911, 53.1683462 ], [ 29.2684603, 53.1683905 ], [ 29.2672858, 53.1683765 ], [ 29.2662095, 53.1683571 ], [ 29.2651036, 53.1683072 ], [ 29.2636956, 53.1682176 ], [ 29.2625907, 53.1681281 ], [ 29.2613305, 53.167995 ], [ 29.2597909, 53.1678016 ], [ 29.2577424, 53.1674591 ], [ 29.2558434, 53.1670784 ], [ 29.2533093, 53.1664485 ], [ 29.2519854, 53.166041 ], [ 29.2508394, 53.1656894 ], [ 29.2496528, 53.1652877 ], [ 29.2480494, 53.1646404 ], [ 29.2460779, 53.1637846 ], [ 29.2438983, 53.1627593 ], [ 29.2427143, 53.162331 ], [ 29.2388763, 53.1640327 ], [ 29.2377313, 53.1646595 ], [ 29.237273, 53.1654406 ], [ 29.2372896, 53.1667364 ], [ 29.2374779, 53.1682894 ], [ 29.2382766, 53.170195 ], [ 29.238376, 53.1715533 ], [ 29.2382812, 53.1726704 ], [ 29.2382355, 53.1732091 ], [ 29.2374427, 53.1745575 ], [ 29.236999, 53.175752 ], [ 29.2375296, 53.1767193 ], [ 29.2385632, 53.1772808 ], [ 29.2401995, 53.1775707 ], [ 29.2432604, 53.1774304 ], [ 29.2457777, 53.1773819 ], [ 29.2482815, 53.1774368 ], [ 29.2490737, 53.1778413 ], [ 29.2497157, 53.1785544 ], [ 29.2499301, 53.1797736 ], [ 29.2503607, 53.1809924 ], [ 29.2511139, 53.1822482 ], [ 29.2522489, 53.1838588 ], [ 29.25456, 53.1856304 ], [ 29.2551803, 53.1866119 ], [ 29.2558078, 53.1879519 ], [ 29.2561161, 53.1887259 ], [ 29.2557563, 53.1894552 ], [ 29.2541928, 53.1899489 ], [ 29.2520013, 53.1901978 ], [ 29.249043, 53.189897 ], [ 29.246911, 53.1894293 ], [ 29.2457065, 53.1891651 ], [ 29.2433452, 53.1890981 ], [ 29.2422316, 53.1891871 ], [ 29.2410751, 53.1894562 ], [ 29.2389572, 53.1903518 ], [ 29.23808, 53.1914157 ], [ 29.2373959, 53.1927496 ], [ 29.2369961, 53.1941809 ], [ 29.2369746, 53.1950851 ], [ 29.2378289, 53.1968843 ], [ 29.2385115, 53.1985417 ], [ 29.2386226, 53.1999406 ], [ 29.2383372, 53.2010524 ], [ 29.2382472, 53.2014107 ], [ 29.2370322, 53.2027103 ], [ 29.2349222, 53.2042944 ], [ 29.2320915, 53.2055505 ], [ 29.2309159, 53.2061453 ], [ 29.2297404, 53.2071 ], [ 29.2282901, 53.208679 ], [ 29.2264347, 53.2105965 ], [ 29.2250364, 53.2110322 ], [ 29.2226263, 53.2129278 ], [ 29.2163376, 53.2174484 ], [ 29.2148199, 53.2183508 ], [ 29.2135708, 53.2180074 ], [ 29.2136103, 53.2175099 ], [ 29.2120024, 53.2167579 ], [ 29.2122045, 53.2164608 ], [ 29.2127624, 53.215665 ], [ 29.2156015, 53.213238 ], [ 29.2180753, 53.2109288 ], [ 29.2238553, 53.207822 ], [ 29.2201352, 53.206688 ], [ 29.2177963, 53.2093354 ], [ 29.2100715, 53.2066366 ], [ 29.2124104, 53.204079 ], [ 29.2092991, 53.203912 ], [ 29.2112839, 53.2014956 ], [ 29.2099857, 53.2011357 ], [ 29.2108226, 53.2004609 ], [ 29.2095888, 53.2002103 ], [ 29.2069602, 53.2001332 ], [ 29.2055011, 53.1998182 ], [ 29.2041707, 53.2011614 ], [ 29.2032158, 53.2008337 ], [ 29.2029905, 53.20111 ], [ 29.2020571, 53.2008208 ], [ 29.2015743, 53.2018298 ], [ 29.2067885, 53.2036549 ], [ 29.2062836, 53.2040062 ], [ 29.2060159, 53.2039285 ], [ 29.2040795, 53.2062542 ], [ 29.203586, 53.2068229 ], [ 29.2028081, 53.2078494 ], [ 29.2038059, 53.2091297 ], [ 29.2046213, 53.2095281 ], [ 29.2051256, 53.2116035 ], [ 29.2042705, 53.2122944 ], [ 29.2023138, 53.2112624 ], [ 29.1816011, 53.2035303 ], [ 29.17678, 53.2049452 ], [ 29.1742694, 53.2055077 ], [ 29.1719731, 53.2054935 ], [ 29.1696667, 53.2049273 ], [ 29.1675988, 53.2040128 ], [ 29.1584389, 53.1967697 ], [ 29.1395065, 53.174252 ], [ 29.138242, 53.1723966 ], [ 29.1528343, 53.1727581 ], [ 29.1509485, 53.1698785 ], [ 29.144163, 53.1681192 ], [ 29.1443413, 53.1667805 ], [ 29.1440935, 53.1621425 ], [ 29.1449942, 53.161394 ], [ 29.1427596, 53.1606725 ], [ 29.1425228, 53.1595544 ], [ 29.1424307, 53.1580645 ], [ 29.1412461, 53.1573929 ], [ 29.1401431, 53.1571771 ], [ 29.1405477, 53.1565564 ], [ 29.1401978, 53.1506571 ], [ 29.1399264, 53.1505924 ], [ 29.1401946, 53.1496466 ], [ 29.1410422, 53.149608 ], [ 29.1414392, 53.1484498 ], [ 29.1396904, 53.1483597 ], [ 29.1364865, 53.1444761 ] ] ] } }
]
}
