{
"type": "FeatureCollection",
"name": "borisov_by",
"crs": { "type": "name", "properties": { "name": "urn:ogc:def:crs:OGC:1.3:CRS84" } },
"features": [
{ "type": "Feature", "properties": { }, "geometry": { "type": "Polygon", "coordinates": [ [ [ 28.4491535, 54.243821 ], [ 28.4545109, 54.2382996 ], [ 28.461902, 54.2324095 ], [ 28.4614629, 54.23149 ], [ 28.4676575, 54.2163579 ], [ 28.4672873, 54.2065179 ], [ 28.4689665, 54.1975584 ], [ 28.4676775, 54.1952458 ], [ 28.4634517, 54.193122 ], [ 28.4700019, 54.1914837 ], [ 28.4730773, 54.1900855 ], [ 28.4735561, 54.1887471 ], [ 28.4658301, 54.1853974 ], [ 28.4633894, 54.1843077 ], [ 28.4516805, 54.1790797 ], [ 28.4626891, 54.1746495 ], [ 28.4698777, 54.1708969 ], [ 28.4713147, 54.1690522 ], [ 28.4718385, 54.1683798 ], [ 28.4727992, 54.1671465 ], [ 28.4738845, 54.1637441 ], [ 28.4739511, 54.1636973 ], [ 28.473958, 54.1635905 ], [ 28.4739612, 54.1634937 ], [ 28.4740071, 54.1633951 ], [ 28.4741427, 54.1632496 ], [ 28.4743652, 54.1630565 ], [ 28.4745205, 54.1629793 ], [ 28.4746987, 54.1629065 ], [ 28.4748379, 54.1628865 ], [ 28.4749585, 54.162919 ], [ 28.4750652, 54.1630113 ], [ 28.4754783, 54.1634263 ], [ 28.4757334, 54.1637365 ], [ 28.4758133, 54.1638605 ], [ 28.4758521, 54.1639998 ], [ 28.4759057, 54.1649149 ], [ 28.4760081, 54.1649928 ], [ 28.4767944, 54.1651644 ], [ 28.4774429, 54.1651211 ], [ 28.4789859, 54.1652586 ], [ 28.4793125, 54.165396 ], [ 28.4803214, 54.1656504 ], [ 28.4810295, 54.1657286 ], [ 28.4829674, 54.1661332 ], [ 28.48558, 54.16672 ], [ 28.4872353, 54.1672376 ], [ 28.4873581, 54.1675177 ], [ 28.4873927, 54.1675562 ], [ 28.4888564, 54.1683068 ], [ 28.48918, 54.16869 ], [ 28.4903097, 54.1688923 ], [ 28.4906531, 54.1694744 ], [ 28.4907431, 54.169717 ], [ 28.4902931, 54.1701151 ], [ 28.4902723, 54.1702419 ], [ 28.4911545, 54.1700553 ], [ 28.491865, 54.1693965 ], [ 28.4925421, 54.1694137 ], [ 28.4930991, 54.1696621 ], [ 28.4931487, 54.1698373 ], [ 28.4916429, 54.1701576 ], [ 28.4904118, 54.1705482 ], [ 28.4904311, 54.1707439 ], [ 28.4912477, 54.1708382 ], [ 28.4918378, 54.1710071 ], [ 28.4919333, 54.1713568 ], [ 28.4920571, 54.1714578 ], [ 28.4921348, 54.1718008 ], [ 28.491661, 54.1723371 ], [ 28.4909154, 54.1726573 ], [ 28.4900495, 54.1729049 ], [ 28.4898575, 54.1731204 ], [ 28.4897956, 54.1732304 ], [ 28.4898921, 54.1732778 ], [ 28.4904688, 54.1733149 ], [ 28.4912154, 54.1734018 ], [ 28.4914356, 54.1733007 ], [ 28.4914607, 54.1731175 ], [ 28.4916274, 54.1730255 ], [ 28.4920485, 54.173152 ], [ 28.4922944, 54.1732608 ], [ 28.4924696, 54.173411 ], [ 28.4924289, 54.1735203 ], [ 28.4922608, 54.1736296 ], [ 28.4912887, 54.1737207 ], [ 28.4905708, 54.1738275 ], [ 28.4903181, 54.173914 ], [ 28.4901644, 54.1740337 ], [ 28.4899519, 54.174296 ], [ 28.4900084, 54.1745418 ], [ 28.4905686, 54.1748973 ], [ 28.4909613, 54.1750242 ], [ 28.4916108, 54.1751733 ], [ 28.4925877, 54.1758247 ], [ 28.4933696, 54.1762948 ], [ 28.4945419, 54.1758586 ], [ 28.4952679, 54.1760606 ], [ 28.49545, 54.17659 ], [ 28.4959106, 54.1769244 ], [ 28.4955251, 54.1772972 ], [ 28.4957077, 54.1774705 ], [ 28.496708, 54.1774955 ], [ 28.4968627, 54.1777045 ], [ 28.4972674, 54.1777184 ], [ 28.4976735, 54.1780208 ], [ 28.4982671, 54.1781294 ], [ 28.4991693, 54.1773903 ], [ 28.4995889, 54.1777408 ], [ 28.4988715, 54.1788333 ], [ 28.4989009, 54.1791867 ], [ 28.4993652, 54.1793325 ], [ 28.5005256, 54.1793238 ], [ 28.5005951, 54.1785808 ], [ 28.5010285, 54.1784294 ], [ 28.5015768, 54.178747 ], [ 28.5019836, 54.1790538 ], [ 28.5015442, 54.1792391 ], [ 28.5013749, 54.1796729 ], [ 28.5012984, 54.1801552 ], [ 28.5018497, 54.1803773 ], [ 28.5026084, 54.180473 ], [ 28.5032183, 54.1810564 ], [ 28.5040366, 54.181126 ], [ 28.5035589, 54.1816264 ], [ 28.5045424, 54.1819879 ], [ 28.5053606, 54.1823884 ], [ 28.505792, 54.1821621 ], [ 28.5052416, 54.1817355 ], [ 28.50506, 54.18122 ], [ 28.5050366, 54.1808278 ], [ 28.5050366, 54.1803874 ], [ 28.50549, 54.18011 ], [ 28.5058484, 54.1808152 ], [ 28.5060301, 54.181187 ], [ 28.5060301, 54.181422 ], [ 28.506283, 54.1815178 ], [ 28.5064133, 54.1813742 ], [ 28.5072893, 54.1813386 ], [ 28.508089, 54.1807457 ], [ 28.5082782, 54.1801829 ], [ 28.508681, 54.1801784 ], [ 28.5091969, 54.1804983 ], [ 28.5099654, 54.1809852 ], [ 28.51017, 54.1808508 ], [ 28.5101032, 54.1801283 ], [ 28.5103883, 54.179863 ], [ 28.5115968, 54.1797938 ], [ 28.5126371, 54.1798206 ], [ 28.5133739, 54.1800958 ], [ 28.5137764, 54.1803802 ], [ 28.5140544, 54.1808636 ], [ 28.5146587, 54.1814825 ], [ 28.5148716, 54.1823768 ], [ 28.51553, 54.18268 ], [ 28.51524, 54.1830657 ], [ 28.5153437, 54.1833434 ], [ 28.5161684, 54.183581 ], [ 28.5165254, 54.1836507 ], [ 28.5168825, 54.183985 ], [ 28.5171919, 54.1841591 ], [ 28.5173706, 54.1844441 ], [ 28.5186899, 54.1843832 ], [ 28.5190027, 54.1847736 ], [ 28.5193868, 54.1849575 ], [ 28.5196112, 54.18512 ], [ 28.5198984, 54.18533 ], [ 28.5203028, 54.1853575 ], [ 28.5210627, 54.1851434 ], [ 28.5213532, 54.185332 ], [ 28.5213136, 54.1857625 ], [ 28.5217026, 54.1858306 ], [ 28.5217567, 54.1856828 ], [ 28.5227892, 54.1855048 ], [ 28.5238363, 54.1854561 ], [ 28.52437, 54.18526 ], [ 28.5251112, 54.1851427 ], [ 28.5252016, 54.1855033 ], [ 28.52437, 54.1862 ], [ 28.5240505, 54.1863461 ], [ 28.5237317, 54.1865993 ], [ 28.5240268, 54.1869491 ], [ 28.5246018, 54.1868296 ], [ 28.5252903, 54.1868207 ], [ 28.5257443, 54.1868915 ], [ 28.5262512, 54.1868296 ], [ 28.5265866, 54.1866011 ], [ 28.5266045, 54.186102 ], [ 28.5266486, 54.1857611 ], [ 28.5274996, 54.1854792 ], [ 28.5278552, 54.1856342 ], [ 28.5279233, 54.1858202 ], [ 28.5274671, 54.1860394 ], [ 28.5273936, 54.1866171 ], [ 28.5276206, 54.1869889 ], [ 28.5282486, 54.1871306 ], [ 28.5289293, 54.1870636 ], [ 28.5293684, 54.1867145 ], [ 28.5297991, 54.1862546 ], [ 28.5314749, 54.1864612 ], [ 28.5329925, 54.1873564 ], [ 28.5335978, 54.1874981 ], [ 28.5341652, 54.1875335 ], [ 28.5343846, 54.1872988 ], [ 28.5344029, 54.1869396 ], [ 28.5348688, 54.186679 ], [ 28.5353116, 54.1867545 ], [ 28.5355347, 54.18729 ], [ 28.5362988, 54.1880293 ], [ 28.5371538, 54.1883348 ], [ 28.5378181, 54.1881384 ], [ 28.5372692, 54.1900794 ], [ 28.5421144, 54.1927093 ], [ 28.5368117, 54.1950921 ], [ 28.5369316, 54.1952584 ], [ 28.5351045, 54.1957554 ], [ 28.535671, 54.1965747 ], [ 28.5423112, 54.1959484 ], [ 28.5473654, 54.1958897 ], [ 28.5489098, 54.1949114 ], [ 28.5477379, 54.1940497 ], [ 28.5514669, 54.1919727 ], [ 28.5527293, 54.1925473 ], [ 28.5609133, 54.1879058 ], [ 28.5614544, 54.188168 ], [ 28.5619037, 54.1883333 ], [ 28.5624146, 54.188438 ], [ 28.5627365, 54.1884694 ], [ 28.5631442, 54.1884913 ], [ 28.56345, 54.1885384 ], [ 28.5636727, 54.1886286 ], [ 28.5637879, 54.1886859 ], [ 28.5638205, 54.1887847 ], [ 28.5637987, 54.1888774 ], [ 28.5637611, 54.1889527 ], [ 28.5635734, 54.189116 ], [ 28.563568, 54.1892258 ], [ 28.5636834, 54.1893 ], [ 28.5638419, 54.1893012 ], [ 28.5639435, 54.1892572 ], [ 28.5641313, 54.1892007 ], [ 28.5643673, 54.1891411 ], [ 28.5645947, 54.1891206 ], [ 28.5649091, 54.1890312 ], [ 28.565011, 54.1889559 ], [ 28.5651022, 54.1888806 ], [ 28.565239, 54.1888673 ], [ 28.5653275, 54.1889151 ], [ 28.5653651, 54.1890532 ], [ 28.5654338, 54.1891458 ], [ 28.5655045, 54.1892384 ], [ 28.5656655, 54.1893294 ], [ 28.5658747, 54.1894361 ], [ 28.5660799, 54.1894664 ], [ 28.5663199, 54.1894738 ], [ 28.5665345, 54.1894298 ], [ 28.5666389, 54.1894987 ], [ 28.5666472, 54.1895962 ], [ 28.5664177, 54.1898603 ], [ 28.5664165, 54.1899603 ], [ 28.5664219, 54.1901235 ], [ 28.5664165, 54.1902867 ], [ 28.566533, 54.1903574 ], [ 28.5666794, 54.1903683 ], [ 28.566787, 54.1902731 ], [ 28.5669368, 54.1902302 ], [ 28.5670763, 54.1901109 ], [ 28.5672153, 54.1901161 ], [ 28.5673821, 54.1901392 ], [ 28.5675752, 54.1901455 ], [ 28.5677952, 54.1902145 ], [ 28.5680473, 54.1902804 ], [ 28.5681653, 54.1903777 ], [ 28.5680994, 54.1904582 ], [ 28.5681172, 54.1912589 ], [ 28.5680155, 54.1916598 ], [ 28.5681231, 54.1917873 ], [ 28.5683338, 54.1917347 ], [ 28.5684861, 54.1916149 ], [ 28.5685741, 54.1913928 ], [ 28.5690239, 54.1909637 ], [ 28.5692176, 54.190899 ], [ 28.5693642, 54.1909363 ], [ 28.5702091, 54.1914371 ], [ 28.5704812, 54.191634 ], [ 28.5705448, 54.1917803 ], [ 28.5707156, 54.1918939 ], [ 28.57095, 54.1918407 ], [ 28.5711064, 54.1917502 ], [ 28.5712373, 54.1915841 ], [ 28.5712853, 54.191478 ], [ 28.5713882, 54.1912306 ], [ 28.5713285, 54.1910844 ], [ 28.5711839, 54.1909921 ], [ 28.5709851, 54.1908264 ], [ 28.5709548, 54.1906979 ], [ 28.5709461, 54.1905839 ], [ 28.5709977, 54.1904374 ], [ 28.5710889, 54.1903495 ], [ 28.5711024, 54.1902024 ], [ 28.571046, 54.189885 ], [ 28.5710245, 54.1897437 ], [ 28.571047, 54.1896068 ], [ 28.5711747, 54.1894644 ], [ 28.5713108, 54.1893743 ], [ 28.5715479, 54.1893679 ], [ 28.5717595, 54.1893702 ], [ 28.5719088, 54.1894408 ], [ 28.5718346, 54.1895931 ], [ 28.5718367, 54.189789 ], [ 28.5718889, 54.1899547 ], [ 28.5721384, 54.1900475 ], [ 28.5723499, 54.1900501 ], [ 28.5727012, 54.1899294 ], [ 28.5729019, 54.1898964 ], [ 28.5733136, 54.190044 ], [ 28.5737329, 54.1901078 ], [ 28.5741924, 54.1902989 ], [ 28.5755447, 54.1905195 ], [ 28.5758031, 54.1905516 ], [ 28.5759236, 54.1905323 ], [ 28.5758847, 54.1904311 ], [ 28.5756304, 54.1902498 ], [ 28.575359, 54.1901455 ], [ 28.5752034, 54.1900622 ], [ 28.5752367, 54.1899229 ], [ 28.5753965, 54.189863 ], [ 28.5756486, 54.1897533 ], [ 28.5758579, 54.1896652 ], [ 28.5760556, 54.1896324 ], [ 28.5762441, 54.1896684 ], [ 28.576279, 54.1898069 ], [ 28.5761797, 54.1898661 ], [ 28.5760478, 54.1899675 ], [ 28.5762133, 54.1901013 ], [ 28.5765606, 54.1901706 ], [ 28.5767645, 54.1902239 ], [ 28.5773586, 54.1903829 ], [ 28.5775101, 54.1904688 ], [ 28.5775852, 54.1905409 ], [ 28.5776818, 54.1905723 ], [ 28.5777461, 54.1906288 ], [ 28.5777624, 54.1906875 ], [ 28.5777944, 54.1907701 ], [ 28.5777461, 54.1908893 ], [ 28.5776742, 54.1910029 ], [ 28.5771394, 54.1911327 ], [ 28.5768181, 54.1912409 ], [ 28.5766357, 54.1913695 ], [ 28.5765299, 54.19152 ], [ 28.5765951, 54.1916535 ], [ 28.5767315, 54.1917743 ], [ 28.5768863, 54.1918227 ], [ 28.5772308, 54.192224 ], [ 28.5772518, 54.1923074 ], [ 28.5772112, 54.1924219 ], [ 28.5773251, 54.1925701 ], [ 28.5774822, 54.1926733 ], [ 28.5778688, 54.1927591 ], [ 28.5779951, 54.1927498 ], [ 28.5781604, 54.1926684 ], [ 28.5783938, 54.1927561 ], [ 28.5786138, 54.1928656 ], [ 28.5787561, 54.1930664 ], [ 28.5787694, 54.193234 ], [ 28.5786071, 54.1933573 ], [ 28.5785521, 54.1934721 ], [ 28.5783446, 54.1936543 ], [ 28.5783737, 54.193756 ], [ 28.5785204, 54.1939334 ], [ 28.578725, 54.1939692 ], [ 28.5788303, 54.193994 ], [ 28.5787674, 54.1941904 ], [ 28.577836, 54.1949317 ], [ 28.5768042, 54.1950967 ], [ 28.5759745, 54.1950478 ], [ 28.5755669, 54.1951954 ], [ 28.5754663, 54.1953816 ], [ 28.5754432, 54.1955035 ], [ 28.5754801, 54.1956219 ], [ 28.5756869, 54.1956885 ], [ 28.5759183, 54.19564 ], [ 28.5760906, 54.1955564 ], [ 28.5763602, 54.1954954 ], [ 28.5769562, 54.1954307 ], [ 28.5777019, 54.1952173 ], [ 28.577922, 54.1951899 ], [ 28.5780989, 54.1951985 ], [ 28.5784958, 54.1954464 ], [ 28.5788982, 54.1958826 ], [ 28.5792699, 54.1960128 ], [ 28.5796339, 54.196083 ], [ 28.5800643, 54.19609 ], [ 28.5808208, 54.1960614 ], [ 28.5813162, 54.1960647 ], [ 28.5815254, 54.1960474 ], [ 28.5817078, 54.1959721 ], [ 28.5819492, 54.1959156 ], [ 28.5821235, 54.1959203 ], [ 28.5821798, 54.1959564 ], [ 28.5821342, 54.1960239 ], [ 28.5819197, 54.1960992 ], [ 28.5817383, 54.1963166 ], [ 28.580979, 54.1963118 ], [ 28.57898, 54.1965102 ], [ 28.5751593, 54.1971768 ], [ 28.5741653, 54.1977663 ], [ 28.5739117, 54.1981506 ], [ 28.5737328, 54.1986279 ], [ 28.5736505, 54.199248 ], [ 28.5734232, 54.1995412 ], [ 28.5731212, 54.1997525 ], [ 28.5719972, 54.2001743 ], [ 28.57012, 54.20036 ], [ 28.5697056, 54.2005432 ], [ 28.5687013, 54.201463 ], [ 28.5675257, 54.202258 ], [ 28.5672698, 54.2026512 ], [ 28.5671074, 54.2030117 ], [ 28.5670841, 54.2034591 ], [ 28.5674717, 54.203994 ], [ 28.567853, 54.2043984 ], [ 28.5681222, 54.2047153 ], [ 28.5681334, 54.2051255 ], [ 28.5680209, 54.2055651 ], [ 28.5676189, 54.2062888 ], [ 28.5672081, 54.2072484 ], [ 28.5664487, 54.208177 ], [ 28.5659769, 54.2086286 ], [ 28.5654486, 54.2090882 ], [ 28.5647823, 54.2095039 ], [ 28.5634252, 54.2099226 ], [ 28.5625724, 54.2100573 ], [ 28.5600823, 54.209908 ], [ 28.5578799, 54.2102162 ], [ 28.5544753, 54.2102197 ], [ 28.5530852, 54.2100049 ], [ 28.5522817, 54.2100564 ], [ 28.5515902, 54.2101953 ], [ 28.5511345, 54.2103361 ], [ 28.5507909, 54.2104769 ], [ 28.5507364, 54.210708 ], [ 28.5508593, 54.2109009 ], [ 28.5512852, 54.2114107 ], [ 28.5513831, 54.2117202 ], [ 28.551406, 54.2121547 ], [ 28.5513169, 54.2125072 ], [ 28.5506555, 54.2128503 ], [ 28.5502837, 54.2131224 ], [ 28.5499909, 54.2134969 ], [ 28.5495768, 54.2138878 ], [ 28.5468854, 54.2160504 ], [ 28.54609, 54.21658 ], [ 28.5454951, 54.2168492 ], [ 28.5446948, 54.2170855 ], [ 28.5436992, 54.2171507 ], [ 28.5426755, 54.2173469 ], [ 28.5421267, 54.2177056 ], [ 28.5419695, 54.2181074 ], [ 28.5419958, 54.2184045 ], [ 28.5422836, 54.2188109 ], [ 28.5429663, 54.2193255 ], [ 28.5436677, 54.2196545 ], [ 28.5447351, 54.2199652 ], [ 28.5453168, 54.2202432 ], [ 28.5456277, 54.2205676 ], [ 28.5458265, 54.2210068 ], [ 28.5458608, 54.221489 ], [ 28.5455869, 54.221933 ], [ 28.5433652, 54.2240302 ], [ 28.5429676, 54.2241701 ], [ 28.54257, 54.22431 ], [ 28.5415426, 54.2243473 ], [ 28.5407207, 54.2241881 ], [ 28.5394534, 54.2236848 ], [ 28.5390185, 54.2234936 ], [ 28.5386396, 54.2234444 ], [ 28.5383267, 54.2235658 ], [ 28.5381912, 54.2237474 ], [ 28.5382327, 54.2242287 ], [ 28.5383062, 54.2247557 ], [ 28.5382676, 54.2253536 ], [ 28.5377401, 54.2259874 ], [ 28.53725, 54.22637 ], [ 28.5364964, 54.2266944 ], [ 28.5351411, 54.2271435 ], [ 28.5340232, 54.2274695 ], [ 28.5374899, 54.232444 ], [ 28.5462485, 54.2309248 ], [ 28.5477794, 54.2306593 ], [ 28.5488483, 54.2320824 ], [ 28.5570446, 54.229774 ], [ 28.5584573, 54.2293318 ], [ 28.5611955, 54.230738 ], [ 28.5599524, 54.2316371 ], [ 28.5601241, 54.2322642 ], [ 28.5588312, 54.2333836 ], [ 28.5623854, 54.2353159 ], [ 28.5649041, 54.2347652 ], [ 28.567307, 54.2357132 ], [ 28.5718836, 54.2363244 ], [ 28.5711533, 54.2377169 ], [ 28.5701624, 54.2379745 ], [ 28.5622543, 54.2400797 ], [ 28.5627343, 54.2407424 ], [ 28.562236, 54.2408587 ], [ 28.5622901, 54.242325 ], [ 28.5621359, 54.242554 ], [ 28.5604167, 54.2421324 ], [ 28.559629, 54.2420024 ], [ 28.5589163, 54.2420166 ], [ 28.5573959, 54.2420575 ], [ 28.5559452, 54.2419919 ], [ 28.5550648, 54.2424983 ], [ 28.5557131, 54.2427878 ], [ 28.5546204, 54.2431815 ], [ 28.5552864, 54.2438729 ], [ 28.5515251, 54.2452629 ], [ 28.5530377, 54.2457848 ], [ 28.5520533, 54.2468498 ], [ 28.551167, 54.2466054 ], [ 28.5485127, 54.2458736 ], [ 28.5480401, 54.246043 ], [ 28.5466253, 54.2471013 ], [ 28.5422555, 54.2457424 ], [ 28.5415654, 54.2463888 ], [ 28.5431368, 54.2469233 ], [ 28.5426484, 54.247421 ], [ 28.5432996, 54.247836 ], [ 28.5419689, 54.2492359 ], [ 28.5379003, 54.2479203 ], [ 28.5379831, 54.2476128 ], [ 28.5360313, 54.2469559 ], [ 28.5373048, 54.2449606 ], [ 28.5316298, 54.2466022 ], [ 28.529132, 54.2477278 ], [ 28.5227922, 54.248032 ], [ 28.5231836, 54.2487023 ], [ 28.5238123, 54.249295 ], [ 28.5244038, 54.2497025 ], [ 28.5249227, 54.249951 ], [ 28.5254559, 54.2502762 ], [ 28.5259519, 54.2505606 ], [ 28.5261995, 54.2506374 ], [ 28.5263497, 54.250722 ], [ 28.526544, 54.2508751 ], [ 28.5265818, 54.2509841 ], [ 28.5265642, 54.2511576 ], [ 28.5265911, 54.2512987 ], [ 28.5265857, 54.251399 ], [ 28.5264838, 54.2515807 ], [ 28.5264063, 54.2517206 ], [ 28.5262621, 54.2520579 ], [ 28.526355, 54.2521511 ], [ 28.5265225, 54.2522438 ], [ 28.5266715, 54.2522922 ], [ 28.5268841, 54.2523142 ], [ 28.5270309, 54.2522984 ], [ 28.5272707, 54.2522441 ], [ 28.5274494, 54.2521605 ], [ 28.5275584, 54.2520929 ], [ 28.5277444, 54.2518879 ], [ 28.5278951, 54.251814 ], [ 28.5280556, 54.2517844 ], [ 28.5282147, 54.2518082 ], [ 28.5282785, 54.2519157 ], [ 28.5282701, 54.2520477 ], [ 28.5282918, 54.2522917 ], [ 28.5281789, 54.2524645 ], [ 28.5281489, 54.2526289 ], [ 28.5282457, 54.2528769 ], [ 28.5284096, 54.2529566 ], [ 28.5285875, 54.2530209 ], [ 28.5288066, 54.2530412 ], [ 28.528994, 54.2530228 ], [ 28.5292895, 54.2528872 ], [ 28.5293537, 54.2527591 ], [ 28.5294825, 54.2526557 ], [ 28.529579, 54.2525147 ], [ 28.5297548, 54.2524711 ], [ 28.5299617, 54.2524889 ], [ 28.5303072, 54.2525931 ], [ 28.530668, 54.252709 ], [ 28.5309345, 54.2528175 ], [ 28.531065, 54.2529377 ], [ 28.5311322, 54.2530632 ], [ 28.5310372, 54.2533113 ], [ 28.5309472, 54.2536196 ], [ 28.5311294, 54.2538842 ], [ 28.5312199, 54.2540175 ], [ 28.5312205, 54.2543261 ], [ 28.5311668, 54.2545922 ], [ 28.5307357, 54.2548534 ], [ 28.5306274, 54.2551818 ], [ 28.5307968, 54.2552787 ], [ 28.5308397, 54.2553884 ], [ 28.5310354, 54.2554372 ], [ 28.5313117, 54.2554762 ], [ 28.531619, 54.2555057 ], [ 28.5318053, 54.2554605 ], [ 28.5319977, 54.255384 ], [ 28.5322324, 54.25521 ], [ 28.5326153, 54.2549591 ], [ 28.5331486, 54.2546433 ], [ 28.5333182, 54.254432 ], [ 28.5333341, 54.2543668 ], [ 28.5334178, 54.2542818 ], [ 28.5335243, 54.2542674 ], [ 28.5336989, 54.2542916 ], [ 28.5338769, 54.2543951 ], [ 28.5342027, 54.2545478 ], [ 28.5344546, 54.2547884 ], [ 28.5347249, 54.2548988 ], [ 28.5347772, 54.2550531 ], [ 28.5346799, 54.2552052 ], [ 28.5344624, 54.2552869 ], [ 28.5342622, 54.2553477 ], [ 28.5341271, 54.2554152 ], [ 28.5340905, 54.2555294 ], [ 28.5342101, 54.2556202 ], [ 28.5344231, 54.2556705 ], [ 28.5347032, 54.2556922 ], [ 28.5348898, 54.2557519 ], [ 28.5352192, 54.2558186 ], [ 28.5353404, 54.255918 ], [ 28.5353324, 54.2560283 ], [ 28.5352707, 54.2561123 ], [ 28.5352278, 54.2562596 ], [ 28.5352617, 54.2564398 ], [ 28.5353512, 54.2565542 ], [ 28.5352864, 54.2566514 ], [ 28.5353608, 54.2567654 ], [ 28.5355443, 54.2568832 ], [ 28.5357735, 54.2569269 ], [ 28.5360163, 54.2569114 ], [ 28.5361881, 54.256875 ], [ 28.5363857, 54.2566919 ], [ 28.5366101, 54.2564655 ], [ 28.5367995, 54.2564163 ], [ 28.5369904, 54.2564422 ], [ 28.5371253, 54.256514 ], [ 28.5373782, 54.2567493 ], [ 28.5374218, 54.2568895 ], [ 28.5374862, 54.2570681 ], [ 28.5376124, 54.2572128 ], [ 28.5377608, 54.257274 ], [ 28.5381186, 54.2575301 ], [ 28.538286, 54.257759 ], [ 28.5382967, 54.257853 ], [ 28.5379856, 54.2582791 ], [ 28.5378032, 54.2583105 ], [ 28.537269, 54.2582626 ], [ 28.5365568, 54.2580381 ], [ 28.5360637, 54.2580232 ], [ 28.5356443, 54.2581077 ], [ 28.53519, 54.2582777 ], [ 28.5349307, 54.2584822 ], [ 28.5348956, 54.258605 ], [ 28.5349357, 54.2587638 ], [ 28.535078, 54.2588682 ], [ 28.5352819, 54.2589685 ], [ 28.5355501, 54.2589748 ], [ 28.5357325, 54.2589246 ], [ 28.535872, 54.2588306 ], [ 28.5360011, 54.2587762 ], [ 28.5361831, 54.2586928 ], [ 28.5364735, 54.2586737 ], [ 28.5368912, 54.2587366 ], [ 28.5372532, 54.2588362 ], [ 28.537492, 54.2589121 ], [ 28.5378246, 54.2589434 ], [ 28.5382967, 54.2590688 ], [ 28.5385542, 54.2591001 ], [ 28.5391014, 54.2591314 ], [ 28.5392837, 54.2591753 ], [ 28.5393803, 54.2592442 ], [ 28.5394339, 54.2593383 ], [ 28.5394018, 54.2594135 ], [ 28.5392408, 54.25952 ], [ 28.5386937, 54.2599148 ], [ 28.5385005, 54.2601028 ], [ 28.5382967, 54.2602219 ], [ 28.5380499, 54.2602532 ], [ 28.5378246, 54.2602532 ], [ 28.5376422, 54.2601968 ], [ 28.5374384, 54.2601279 ], [ 28.5372453, 54.2601467 ], [ 28.5370951, 54.2602156 ], [ 28.5370414, 54.2602971 ], [ 28.5369234, 54.2603785 ], [ 28.536859, 54.2606041 ], [ 28.5369341, 54.2608673 ], [ 28.5370951, 54.2610303 ], [ 28.5372345, 54.2610679 ], [ 28.5375135, 54.2610491 ], [ 28.5377388, 54.2610679 ], [ 28.5379748, 54.2611368 ], [ 28.5381572, 54.261118 ], [ 28.5384576, 54.2609864 ], [ 28.5386722, 54.2608109 ], [ 28.5386668, 54.2607138 ], [ 28.5385689, 54.2605509 ], [ 28.5385703, 54.2604067 ], [ 28.5386668, 54.2603065 ], [ 28.5388707, 54.2602814 ], [ 28.5390316, 54.2603253 ], [ 28.5392462, 54.2604255 ], [ 28.5397397, 54.260601 ], [ 28.5399758, 54.2606386 ], [ 28.5401796, 54.2606073 ], [ 28.5403942, 54.2605258 ], [ 28.5405336, 54.260507 ], [ 28.5406731, 54.2605007 ], [ 28.5408019, 54.2605634 ], [ 28.5408019, 54.2606449 ], [ 28.5407053, 54.2607639 ], [ 28.5404478, 54.2608705 ], [ 28.5401796, 54.2610585 ], [ 28.5399921, 54.2612682 ], [ 28.5399006, 54.2613279 ], [ 28.5397504, 54.261353 ], [ 28.5395573, 54.2613655 ], [ 28.5393319, 54.2613529 ], [ 28.5391604, 54.2614219 ], [ 28.5390531, 54.2615097 ], [ 28.539153, 54.2616077 ], [ 28.5397987, 54.2619452 ], [ 28.5400133, 54.2619891 ], [ 28.5403352, 54.2619483 ], [ 28.5404854, 54.261964 ], [ 28.5405927, 54.2620329 ], [ 28.5405658, 54.2621865 ], [ 28.5401152, 54.2626376 ], [ 28.53965, 54.26285 ], [ 28.5392462, 54.2630262 ], [ 28.5393052, 54.2633771 ], [ 28.5397504, 54.2634836 ], [ 28.5403405, 54.2638408 ], [ 28.5406195, 54.2638721 ], [ 28.5410808, 54.2638345 ], [ 28.5411988, 54.2638658 ], [ 28.5412418, 54.2640225 ], [ 28.5409413, 54.2643922 ], [ 28.5406409, 54.2646366 ], [ 28.5404049, 54.264718 ], [ 28.5400079, 54.2646491 ], [ 28.5397502, 54.2647102 ], [ 28.5396968, 54.2648371 ], [ 28.539847, 54.2649875 ], [ 28.5398685, 54.2651128 ], [ 28.5401045, 54.2652256 ], [ 28.5404264, 54.2651629 ], [ 28.5409092, 54.2646867 ], [ 28.5412525, 54.2646052 ], [ 28.5414349, 54.2646616 ], [ 28.5418855, 54.2656329 ], [ 28.5417138, 54.2662093 ], [ 28.541864, 54.2664036 ], [ 28.5420518, 54.2665258 ], [ 28.5428457, 54.2664568 ], [ 28.5434251, 54.2665571 ], [ 28.5438096, 54.2665091 ], [ 28.5439347, 54.2665665 ], [ 28.5439561, 54.2666605 ], [ 28.5428736, 54.2680136 ], [ 28.5429594, 54.268139 ], [ 28.5431203, 54.2681891 ], [ 28.543292, 54.2681202 ], [ 28.5434851, 54.2678194 ], [ 28.5437748, 54.2677881 ], [ 28.543925, 54.2678758 ], [ 28.5440752, 54.2682079 ], [ 28.5442898, 54.2684272 ], [ 28.5445366, 54.2685086 ], [ 28.5446546, 54.268659 ], [ 28.5446224, 54.2688282 ], [ 28.5444507, 54.2688783 ], [ 28.5439143, 54.2688657 ], [ 28.5433026, 54.2689156 ], [ 28.5425732, 54.2690537 ], [ 28.542144, 54.2693043 ], [ 28.5421373, 54.2694877 ], [ 28.5417256, 54.2698181 ], [ 28.5410282, 54.2700624 ], [ 28.540524, 54.2704446 ], [ 28.5405991, 54.2706263 ], [ 28.54051, 54.27074 ], [ 28.5398159, 54.27114 ], [ 28.5397729, 54.2712027 ], [ 28.5398802, 54.2712779 ], [ 28.5403952, 54.2712904 ], [ 28.5406849, 54.2711463 ], [ 28.5408887, 54.2711025 ], [ 28.5410497, 54.2711839 ], [ 28.5411462, 54.2713969 ], [ 28.5410604, 54.27166 ], [ 28.5408351, 54.2718041 ], [ 28.5405454, 54.2718543 ], [ 28.5398588, 54.2717227 ], [ 28.5396335, 54.271729 ], [ 28.539215, 54.2715598 ], [ 28.5390327, 54.2715661 ], [ 28.5389576, 54.2716663 ], [ 28.5389897, 54.2719106 ], [ 28.5385928, 54.2721049 ], [ 28.5380241, 54.2725559 ], [ 28.5378739, 54.272888 ], [ 28.5376701, 54.2731511 ], [ 28.5377667, 54.2733202 ], [ 28.5376486, 54.2734643 ], [ 28.5374341, 54.2735395 ], [ 28.5367903, 54.2735646 ], [ 28.5364256, 54.273621 ], [ 28.5358784, 54.273552 ], [ 28.5355029, 54.2734142 ], [ 28.5352073, 54.2733456 ], [ 28.5349183, 54.2733653 ], [ 28.5293744, 54.2736856 ], [ 28.5298634, 54.2756367 ], [ 28.5285456, 54.2757209 ], [ 28.5288072, 54.2791387 ], [ 28.5256782, 54.2791764 ], [ 28.5256064, 54.2812903 ], [ 28.5261797, 54.2819109 ], [ 28.5271875, 54.282046 ], [ 28.5274626, 54.2823251 ], [ 28.526817, 54.2827233 ], [ 28.5261462, 54.2828053 ], [ 28.5261488, 54.2830104 ], [ 28.5043752, 54.2834432 ], [ 28.5021928, 54.2801936 ], [ 28.5009507, 54.279672 ], [ 28.4952129, 54.2798823 ], [ 28.4960864, 54.2774715 ], [ 28.4951208, 54.2774758 ], [ 28.4955766, 54.2756502 ], [ 28.4953604, 54.2756562 ], [ 28.4912305, 54.2757815 ], [ 28.4912253, 54.2757506 ], [ 28.4911887, 54.2752413 ], [ 28.4899851, 54.2753473 ], [ 28.4899665, 54.2757547 ], [ 28.4897056, 54.2760327 ], [ 28.4886789, 54.2766579 ], [ 28.4872379, 54.2773633 ], [ 28.4862867, 54.2771742 ], [ 28.4856547, 54.275644 ], [ 28.4839327, 54.2749899 ], [ 28.4829201, 54.2748185 ], [ 28.4833625, 54.2738737 ], [ 28.4915287, 54.2729382 ], [ 28.4973854, 54.272355 ], [ 28.4988849, 54.2719058 ], [ 28.4991784, 54.2713764 ], [ 28.498179, 54.2706439 ], [ 28.4997621, 54.2666071 ], [ 28.5012495, 54.2646691 ], [ 28.501741, 54.2637995 ], [ 28.5017228, 54.2621626 ], [ 28.5022259, 54.2621505 ], [ 28.5027891, 54.2621348 ], [ 28.5026765, 54.2641244 ], [ 28.5025504, 54.2646648 ], [ 28.5047525, 54.264704 ], [ 28.5092398, 54.2645645 ], [ 28.5090896, 54.2629871 ], [ 28.5091513, 54.2628273 ], [ 28.5088885, 54.2612951 ], [ 28.5084218, 54.2613186 ], [ 28.508403, 54.2612826 ], [ 28.5075608, 54.2613186 ], [ 28.5075608, 54.2613922 ], [ 28.5061741, 54.2614737 ], [ 28.5061741, 54.2614173 ], [ 28.5057181, 54.2614173 ], [ 28.5057208, 54.261476 ], [ 28.50328, 54.261527 ], [ 28.5032961, 54.2619782 ], [ 28.5021937, 54.2619782 ], [ 28.501383, 54.2619777 ], [ 28.5013349, 54.2638948 ], [ 28.5010015, 54.264506 ], [ 28.5006641, 54.264929 ], [ 28.5002047, 54.2654347 ], [ 28.4995345, 54.2662195 ], [ 28.4990836, 54.2669589 ], [ 28.4982277, 54.269031 ], [ 28.49551, 54.2683132 ], [ 28.4960894, 54.2670835 ], [ 28.496973, 54.2660597 ], [ 28.4958773, 54.2658428 ], [ 28.4952506, 54.2649704 ], [ 28.4949108, 54.2646081 ], [ 28.4952859, 54.2643278 ], [ 28.4936543, 54.2641463 ], [ 28.4924704, 54.2633651 ], [ 28.4914255, 54.2634127 ], [ 28.4914706, 54.2625509 ], [ 28.4898271, 54.2627231 ], [ 28.4892435, 54.2630969 ], [ 28.4882153, 54.265168 ], [ 28.4877856, 54.2661248 ], [ 28.4884381, 54.2662209 ], [ 28.4883383, 54.2665186 ], [ 28.4881436, 54.2666337 ], [ 28.4853382, 54.2703198 ], [ 28.4846753, 54.2703909 ], [ 28.4837686, 54.2710008 ], [ 28.4819481, 54.2731722 ], [ 28.4800699, 54.2732524 ], [ 28.4787141, 54.2737259 ], [ 28.4777584, 54.273735 ], [ 28.4787082, 54.2722812 ], [ 28.4802381, 54.2715883 ], [ 28.4780273, 54.2688969 ], [ 28.4788179, 54.2685687 ], [ 28.4798016, 54.2680274 ], [ 28.4805131, 54.2677864 ], [ 28.481154, 54.2677429 ], [ 28.4817627, 54.2678559 ], [ 28.4829307, 54.2682149 ], [ 28.4837297, 54.2682364 ], [ 28.4842175, 54.2681514 ], [ 28.4846342, 54.2679633 ], [ 28.4852678, 54.2675034 ], [ 28.485558, 54.2671186 ], [ 28.4857763, 54.2662281 ], [ 28.4856731, 54.2647336 ], [ 28.4857564, 54.2635274 ], [ 28.4858586, 54.2627928 ], [ 28.4860145, 54.2620017 ], [ 28.4862448, 54.2614793 ], [ 28.486797, 54.2608691 ], [ 28.4878122, 54.2600635 ], [ 28.4882451, 54.2595362 ], [ 28.4883876, 54.2589464 ], [ 28.4882721, 54.2578973 ], [ 28.4879964, 54.2573066 ], [ 28.4875604, 54.2567447 ], [ 28.4868551, 54.2558851 ], [ 28.4868379, 54.255408 ], [ 28.4870918, 54.254931 ], [ 28.4874845, 54.2540554 ], [ 28.4880462, 54.2529727 ], [ 28.4886497, 54.2517801 ], [ 28.4806523, 54.2442017 ], [ 28.4750933, 54.2484933 ], [ 28.4735564, 54.2514113 ], [ 28.473199, 54.2513058 ], [ 28.4731264, 54.2513991 ], [ 28.472711, 54.2513105 ], [ 28.4720616, 54.2510933 ], [ 28.470964, 54.2507216 ], [ 28.4707988, 54.250563 ], [ 28.4704638, 54.2503285 ], [ 28.4688077, 54.2496874 ], [ 28.4491535, 54.243821 ] ] ] } }
]
}
