{
"type": "FeatureCollection",
"name": "breda_nl",
"crs": { "type": "name", "properties": { "name": "urn:ogc:def:crs:OGC:1.3:CRS84" } },
"features": [
{ "type": "Feature", "properties": { }, "geometry": { "type": "Polygon", "coordinates": [ [ [ 4.6860063, 51.5877118 ], [ 4.68603, 51.5876451 ], [ 4.6860311, 51.5876423 ], [ 4.6862202, 51.5870998 ], [ 4.6863284, 51.5868105 ], [ 4.6863534, 51.5867436 ], [ 4.6865098, 51.5862719 ], [ 4.6865898, 51.5860452 ], [ 4.686615, 51.585974 ], [ 4.6866292, 51.5859338 ], [ 4.6867448, 51.5856247 ], [ 4.6866007, 51.5856071 ], [ 4.6864416, 51.585586 ], [ 4.6863432, 51.5854276 ], [ 4.6863599, 51.5853483 ], [ 4.6863846, 51.5852312 ], [ 4.6864123, 51.5850997 ], [ 4.6865237, 51.5846015 ], [ 4.686734, 51.5838422 ], [ 4.6868431, 51.5834845 ], [ 4.6870256, 51.5832464 ], [ 4.6875037, 51.5826795 ], [ 4.6875518, 51.5826245 ], [ 4.6879405, 51.5821699 ], [ 4.6882849, 51.5817679 ], [ 4.6886154, 51.5813754 ], [ 4.6888513, 51.581106 ], [ 4.6889345, 51.5808354 ], [ 4.6890269, 51.5806201 ], [ 4.6893367, 51.5795496 ], [ 4.6896616, 51.5783711 ], [ 4.6896977, 51.5782442 ], [ 4.6898123, 51.5778424 ], [ 4.6899555, 51.5773401 ], [ 4.6901138, 51.5767949 ], [ 4.6904282, 51.5757119 ], [ 4.6906264, 51.5750127 ], [ 4.6907009, 51.5747498 ], [ 4.6907525, 51.5745161 ], [ 4.6907967, 51.5743438 ], [ 4.6908129, 51.574281 ], [ 4.6908489, 51.5741408 ], [ 4.6908619, 51.5741127 ], [ 4.6909039, 51.5740924 ], [ 4.6909425, 51.5740775 ], [ 4.6909769, 51.574068 ], [ 4.6910317, 51.5740624 ], [ 4.6910678, 51.5740596 ], [ 4.6911147, 51.5740559 ], [ 4.6911737, 51.574052 ], [ 4.691218, 51.5740435 ], [ 4.6912534, 51.574037 ], [ 4.6912748, 51.5740167 ], [ 4.6912816, 51.5740022 ], [ 4.6912824, 51.5740005 ], [ 4.6912861, 51.5739925 ], [ 4.691353, 51.5739836 ], [ 4.6913431, 51.5739567 ], [ 4.6913315, 51.5739255 ], [ 4.6913261, 51.5739011 ], [ 4.6913338, 51.5738798 ], [ 4.6913523, 51.5738416 ], [ 4.6914021, 51.5737643 ], [ 4.6914876, 51.5736376 ], [ 4.6916016, 51.5732856 ], [ 4.6916268, 51.5732029 ], [ 4.6918779, 51.5723473 ], [ 4.691946, 51.5721402 ], [ 4.6919864, 51.5720339 ], [ 4.6920436, 51.571905 ], [ 4.6920625, 51.5718625 ], [ 4.6920584, 51.5718618 ], [ 4.6924085, 51.5704682 ], [ 4.6924326, 51.570363 ], [ 4.692468, 51.5702647 ], [ 4.6925377, 51.5701316 ], [ 4.6925893, 51.5700721 ], [ 4.6926863, 51.5700024 ], [ 4.6928402, 51.5698979 ], [ 4.6929488, 51.5698036 ], [ 4.6930807, 51.5696603 ], [ 4.693133, 51.5695622 ], [ 4.6932033, 51.5693869 ], [ 4.6932685, 51.5691834 ], [ 4.6933804, 51.5688748 ], [ 4.6934274, 51.568745 ], [ 4.6936627, 51.5681102 ], [ 4.6937159, 51.5679524 ], [ 4.6937061, 51.5678574 ], [ 4.6936902, 51.567787 ], [ 4.6936417, 51.5676427 ], [ 4.6934552, 51.5673006 ], [ 4.6932474, 51.5668741 ], [ 4.6931982, 51.5667684 ], [ 4.6931561, 51.5665748 ], [ 4.693147, 51.5664271 ], [ 4.6931414, 51.5660545 ], [ 4.693131, 51.5656327 ], [ 4.6931243, 51.5653304 ], [ 4.6931056, 51.5650772 ], [ 4.6930625, 51.5649504 ], [ 4.6929921, 51.5647602 ], [ 4.6930004, 51.564581 ], [ 4.693015, 51.5643667 ], [ 4.6930644, 51.5640858 ], [ 4.6931068, 51.5638927 ], [ 4.6932199, 51.5633557 ], [ 4.6932805, 51.5633645 ], [ 4.6932931, 51.5633045 ], [ 4.6933013, 51.5632653 ], [ 4.6932743, 51.5632438 ], [ 4.6931331, 51.5631314 ], [ 4.6931338, 51.563128 ], [ 4.6931445, 51.5630916 ], [ 4.693195, 51.5629147 ], [ 4.6932886, 51.5625873 ], [ 4.6932896, 51.5625837 ], [ 4.6933208, 51.5624746 ], [ 4.6933564, 51.5623498 ], [ 4.6934334, 51.5622669 ], [ 4.6934351, 51.562261 ], [ 4.6934466, 51.5622206 ], [ 4.6935189, 51.5619685 ], [ 4.6935372, 51.5619103 ], [ 4.6939136, 51.5607137 ], [ 4.6941377, 51.5600015 ], [ 4.6941725, 51.5598909 ], [ 4.6941688, 51.5598906 ], [ 4.6940587, 51.5598815 ], [ 4.6940608, 51.5598746 ], [ 4.6940859, 51.5597957 ], [ 4.6941265, 51.5596151 ], [ 4.6941619, 51.5593599 ], [ 4.6942288, 51.5591088 ], [ 4.6942953, 51.5588812 ], [ 4.6943426, 51.5586732 ], [ 4.6943897, 51.5584809 ], [ 4.6944171, 51.5583357 ], [ 4.694453, 51.558045 ], [ 4.6944945, 51.5578095 ], [ 4.6945162, 51.5576249 ], [ 4.6945245, 51.5574953 ], [ 4.6945594, 51.5572715 ], [ 4.6945947, 51.557028 ], [ 4.694616, 51.556867 ], [ 4.6946244, 51.5567334 ], [ 4.694611, 51.5565879 ], [ 4.6946341, 51.5557945 ], [ 4.6945902, 51.5553986 ], [ 4.6945778, 51.5549282 ], [ 4.6945712, 51.5546818 ], [ 4.69457, 51.5546356 ], [ 4.6945606, 51.5542783 ], [ 4.6945265, 51.55299 ], [ 4.6945175, 51.5526516 ], [ 4.6945149, 51.5525509 ], [ 4.6945097, 51.5523541 ], [ 4.6945095, 51.5523488 ], [ 4.694508, 51.5522895 ], [ 4.6945058, 51.5522074 ], [ 4.69449, 51.5516126 ], [ 4.69449, 51.551611 ], [ 4.6944887, 51.5515622 ], [ 4.6944846, 51.5514067 ], [ 4.6944713, 51.5509035 ], [ 4.6944653, 51.5506785 ], [ 4.6944445, 51.5498918 ], [ 4.6944443, 51.5498817 ], [ 4.6944358, 51.5495599 ], [ 4.6944355, 51.5495486 ], [ 4.6944255, 51.5491728 ], [ 4.6944253, 51.5491634 ], [ 4.694422, 51.5490408 ], [ 4.6944129, 51.5486964 ], [ 4.6944121, 51.5486641 ], [ 4.6944112, 51.5486302 ], [ 4.6943897, 51.5478172 ], [ 4.694385, 51.54764 ], [ 4.6943839, 51.5475993 ], [ 4.6943787, 51.547401 ], [ 4.6943778, 51.5473683 ], [ 4.694357, 51.5465803 ], [ 4.6943524, 51.5464084 ], [ 4.6942895, 51.5462854 ], [ 4.6942856, 51.5462581 ], [ 4.6942332, 51.545974 ], [ 4.6942328, 51.5459656 ], [ 4.694216, 51.5455838 ], [ 4.6942157, 51.5455775 ], [ 4.6942065, 51.5453543 ], [ 4.6942061, 51.545346 ], [ 4.6942026, 51.5452583 ], [ 4.6942021, 51.5452447 ], [ 4.6942007, 51.5452101 ], [ 4.6941994, 51.5451755 ], [ 4.6941868, 51.5448484 ], [ 4.6942097, 51.5448602 ], [ 4.6947942, 51.5451599 ], [ 4.6951455, 51.5453366 ], [ 4.6952255, 51.545377 ], [ 4.6954785, 51.5455046 ], [ 4.6955111, 51.5455211 ], [ 4.695599, 51.5455654 ], [ 4.6967386, 51.5461426 ], [ 4.6968226, 51.5461848 ], [ 4.6969773, 51.5462625 ], [ 4.6972382, 51.5463935 ], [ 4.6986649, 51.5471102 ], [ 4.6989696, 51.5472651 ], [ 4.6998099, 51.5476922 ], [ 4.7001677, 51.5478731 ], [ 4.70021, 51.5478944 ], [ 4.7002717, 51.5479256 ], [ 4.7007825, 51.5481838 ], [ 4.7007995, 51.5481924 ], [ 4.7008875, 51.5482366 ], [ 4.7015263, 51.5485574 ], [ 4.7026134, 51.5491057 ], [ 4.7034997, 51.5495505 ], [ 4.7035255, 51.5495634 ], [ 4.7039969, 51.5497985 ], [ 4.704011, 51.5497913 ], [ 4.7040957, 51.5497476 ], [ 4.7041953, 51.5496962 ], [ 4.704924, 51.5493251 ], [ 4.7056624, 51.5489459 ], [ 4.705711, 51.5489209 ], [ 4.7065787, 51.5484827 ], [ 4.7068422, 51.5483516 ], [ 4.7071375, 51.5482048 ], [ 4.7077337, 51.5479084 ], [ 4.7078677, 51.5478403 ], [ 4.7079479, 51.5477996 ], [ 4.7079555, 51.5477958 ], [ 4.7080207, 51.5477627 ], [ 4.708065, 51.5477401 ], [ 4.7083382, 51.5476014 ], [ 4.7084937, 51.5475224 ], [ 4.7090285, 51.5472484 ], [ 4.7092983, 51.5471124 ], [ 4.7093205, 51.5471013 ], [ 4.7099291, 51.5467947 ], [ 4.7104957, 51.5465029 ], [ 4.7105666, 51.5464664 ], [ 4.7111121, 51.5461855 ], [ 4.711194, 51.5461434 ], [ 4.7116003, 51.5459348 ], [ 4.7122235, 51.5456151 ], [ 4.7122479, 51.5456025 ], [ 4.7122633, 51.5455946 ], [ 4.7124125, 51.5455173 ], [ 4.7128074, 51.5453129 ], [ 4.7129448, 51.5452417 ], [ 4.7129573, 51.5452352 ], [ 4.7129654, 51.545231 ], [ 4.712992, 51.5452172 ], [ 4.7130225, 51.5452013 ], [ 4.7130974, 51.545162 ], [ 4.71381, 51.5447651 ], [ 4.7142874, 51.5445007 ], [ 4.7143128, 51.5444867 ], [ 4.7144261, 51.544424 ], [ 4.7146441, 51.5443041 ], [ 4.7150748, 51.5440674 ], [ 4.7153889, 51.5438934 ], [ 4.7154782, 51.5438435 ], [ 4.7156033, 51.5437728 ], [ 4.7162606, 51.5433989 ], [ 4.7163186, 51.5433656 ], [ 4.7166317, 51.5431884 ], [ 4.7166365, 51.5431857 ], [ 4.7166368, 51.5431855 ], [ 4.7167451, 51.5431239 ], [ 4.7167605, 51.5431161 ], [ 4.7182053, 51.5423837 ], [ 4.7188505, 51.5420566 ], [ 4.7191405, 51.5419096 ], [ 4.7198765, 51.5415364 ], [ 4.7201558, 51.5413948 ], [ 4.7202627, 51.5413414 ], [ 4.7204502, 51.5412477 ], [ 4.7205623, 51.5411917 ], [ 4.7215442, 51.5406502 ], [ 4.7226653, 51.5400318 ], [ 4.7229306, 51.5398864 ], [ 4.7241483, 51.5392193 ], [ 4.7242334, 51.5391726 ], [ 4.7242521, 51.5391623 ], [ 4.7266282, 51.5378596 ], [ 4.7279575, 51.53713 ], [ 4.7280629, 51.5370721 ], [ 4.7281752, 51.5370105 ], [ 4.7284173, 51.5368775 ], [ 4.7276221, 51.5366479 ], [ 4.7256078, 51.5360651 ], [ 4.7254779, 51.5360274 ], [ 4.7242003, 51.5356562 ], [ 4.7238358, 51.5355503 ], [ 4.7231601, 51.5353534 ], [ 4.72249, 51.5351582 ], [ 4.7225639, 51.5350944 ], [ 4.722579, 51.5350813 ], [ 4.7233203, 51.5344406 ], [ 4.7233525, 51.5344129 ], [ 4.7237988, 51.5340269 ], [ 4.7239565, 51.5338903 ], [ 4.7242295, 51.5336542 ], [ 4.7244697, 51.5334463 ], [ 4.7245703, 51.5333592 ], [ 4.7248674, 51.5331019 ], [ 4.7249519, 51.5330288 ], [ 4.7250787, 51.532919 ], [ 4.7251005, 51.5329002 ], [ 4.7251884, 51.5329663 ], [ 4.7252495, 51.5330021 ], [ 4.7253292, 51.5330419 ], [ 4.7254546, 51.5330833 ], [ 4.7255143, 51.5331056 ], [ 4.7255583, 51.533122 ], [ 4.7255817, 51.5331312 ], [ 4.7256795, 51.5331696 ], [ 4.725773, 51.5332144 ], [ 4.7259732, 51.5333153 ], [ 4.7261466, 51.5334025 ], [ 4.7262677, 51.5334787 ], [ 4.726464, 51.5336168 ], [ 4.7264672, 51.5336181 ], [ 4.7265227, 51.5336411 ], [ 4.7265873, 51.5336495 ], [ 4.7266316, 51.5336359 ], [ 4.7266566, 51.5336282 ], [ 4.7266913, 51.5335983 ], [ 4.7267421, 51.5335605 ], [ 4.7268001, 51.5335499 ], [ 4.7270106, 51.5335532 ], [ 4.7272628, 51.5335748 ], [ 4.727497, 51.5335927 ], [ 4.7276375, 51.5335988 ], [ 4.7278576, 51.5336079 ], [ 4.7280945, 51.5336336 ], [ 4.728175, 51.533661 ], [ 4.728239, 51.5336951 ], [ 4.728331, 51.5337562 ], [ 4.7284907, 51.5338701 ], [ 4.7285442, 51.5339084 ], [ 4.7286905, 51.5340142 ], [ 4.728825, 51.5341121 ], [ 4.728997, 51.534259 ], [ 4.7290319, 51.5343119 ], [ 4.7290339, 51.5343375 ], [ 4.7290362, 51.5343628 ], [ 4.7289772, 51.5344261 ], [ 4.7288921, 51.5344728 ], [ 4.7287713, 51.5345414 ], [ 4.7287315, 51.5346222 ], [ 4.7287465, 51.5346881 ], [ 4.7287886, 51.5347565 ], [ 4.7288645, 51.5348417 ], [ 4.7289145, 51.534873 ], [ 4.7289846, 51.5348807 ], [ 4.72905, 51.5348528 ], [ 4.7291503, 51.5348066 ], [ 4.7292231, 51.5347509 ], [ 4.7292854, 51.5346918 ], [ 4.7293233, 51.5346722 ], [ 4.7293521, 51.5346616 ], [ 4.7293908, 51.5346602 ], [ 4.7294237, 51.5346656 ], [ 4.7294523, 51.5346754 ], [ 4.7294767, 51.534687 ], [ 4.7294992, 51.5347053 ], [ 4.7295204, 51.5347271 ], [ 4.7295763, 51.5347974 ], [ 4.7296238, 51.5348651 ], [ 4.7296884, 51.5349775 ], [ 4.7297311, 51.5350365 ], [ 4.7297939, 51.5350942 ], [ 4.729863, 51.535143 ], [ 4.7299085, 51.5351607 ], [ 4.7299686, 51.535172 ], [ 4.7300134, 51.5351934 ], [ 4.7300309, 51.5352228 ], [ 4.7300573, 51.535278 ], [ 4.7301018, 51.5354139 ], [ 4.7301182, 51.5355113 ], [ 4.7301184, 51.5356433 ], [ 4.7300926, 51.5357435 ], [ 4.7300522, 51.5358888 ], [ 4.7300371, 51.5360145 ], [ 4.7300441, 51.5360733 ], [ 4.7300841, 51.5361795 ], [ 4.7301179, 51.536284 ], [ 4.730147, 51.5364056 ], [ 4.7301993, 51.536417 ], [ 4.7304245, 51.5364412 ], [ 4.7307107, 51.5364505 ], [ 4.7309045, 51.5364139 ], [ 4.730993, 51.5363492 ], [ 4.731046, 51.5363123 ], [ 4.7311468, 51.5362613 ], [ 4.7311747, 51.5362513 ], [ 4.7312085, 51.536241 ], [ 4.7312458, 51.5362397 ], [ 4.7313216, 51.5362516 ], [ 4.7316712, 51.5363034 ], [ 4.7319668, 51.5363397 ], [ 4.7319727, 51.5363405 ], [ 4.7319786, 51.5363412 ], [ 4.7319846, 51.5363417 ], [ 4.7319906, 51.5363421 ], [ 4.7319966, 51.5363424 ], [ 4.7320026, 51.5363425 ], [ 4.7320086, 51.5363425 ], [ 4.7320146, 51.5363423 ], [ 4.7320206, 51.536342 ], [ 4.7320266, 51.5363416 ], [ 4.7320325, 51.536341 ], [ 4.7320384, 51.5363403 ], [ 4.7320443, 51.5363395 ], [ 4.7320501, 51.5363385 ], [ 4.7320559, 51.5363374 ], [ 4.7320615, 51.5363362 ], [ 4.7320671, 51.5363348 ], [ 4.7320727, 51.5363333 ], [ 4.7320781, 51.5363317 ], [ 4.7320834, 51.53633 ], [ 4.7320886, 51.5363281 ], [ 4.7320938, 51.5363261 ], [ 4.7320987, 51.536324 ], [ 4.7321036, 51.5363218 ], [ 4.7321083, 51.5363195 ], [ 4.7321129, 51.5363171 ], [ 4.7322944, 51.5362386 ], [ 4.7325728, 51.5361143 ], [ 4.7328879, 51.5359761 ], [ 4.7331038, 51.535822 ], [ 4.7331386, 51.5358083 ], [ 4.7331493, 51.5357684 ], [ 4.7331751, 51.5357008 ], [ 4.733184, 51.5356166 ], [ 4.7331875, 51.5355499 ], [ 4.7331885, 51.5355305 ], [ 4.7331894, 51.5355236 ], [ 4.7332046, 51.5354068 ], [ 4.7333504, 51.5352448 ], [ 4.7333537, 51.5352421 ], [ 4.7333571, 51.5352394 ], [ 4.7333608, 51.5352369 ], [ 4.7333646, 51.5352344 ], [ 4.7333685, 51.5352321 ], [ 4.7333726, 51.5352298 ], [ 4.7333768, 51.5352276 ], [ 4.7333812, 51.5352256 ], [ 4.7333857, 51.5352236 ], [ 4.7333903, 51.5352218 ], [ 4.733395, 51.5352201 ], [ 4.7333998, 51.5352185 ], [ 4.7334048, 51.535217 ], [ 4.7337241, 51.5350957 ], [ 4.7340173, 51.5349857 ], [ 4.7341547, 51.5349313 ], [ 4.7342669, 51.53488 ], [ 4.7343722, 51.5348248 ], [ 4.7344518, 51.5347717 ], [ 4.7345211, 51.5347209 ], [ 4.7345906, 51.5346655 ], [ 4.7346554, 51.534613 ], [ 4.7347443, 51.5345258 ], [ 4.7349016, 51.5343634 ], [ 4.7350232, 51.5342538 ], [ 4.7351383, 51.5341542 ], [ 4.7352214, 51.5340695 ], [ 4.7353437, 51.5339477 ], [ 4.7355385, 51.533784 ], [ 4.7357148, 51.5336602 ], [ 4.7358337, 51.5335834 ], [ 4.7360372, 51.5334562 ], [ 4.7363983, 51.5332557 ], [ 4.7364813, 51.5332173 ], [ 4.7366243, 51.533168 ], [ 4.7369311, 51.5330623 ], [ 4.7375256, 51.5328569 ], [ 4.7376999, 51.532777 ], [ 4.7379709, 51.5326325 ], [ 4.7380789, 51.5325736 ], [ 4.7383488, 51.532454 ], [ 4.7384469, 51.5324104 ], [ 4.7385621, 51.5323789 ], [ 4.7386608, 51.5323463 ], [ 4.7386687, 51.5323437 ], [ 4.7386956, 51.5323287 ], [ 4.7387516, 51.5322997 ], [ 4.7387988, 51.532267 ], [ 4.7388353, 51.5322356 ], [ 4.7388647, 51.5321664 ], [ 4.7389186, 51.5321141 ], [ 4.7389712, 51.5320749 ], [ 4.739045, 51.5320304 ], [ 4.7390241, 51.5320124 ], [ 4.7386699, 51.531707 ], [ 4.7385312, 51.5315873 ], [ 4.7382176, 51.531502 ], [ 4.7380506, 51.5313325 ], [ 4.7381079, 51.5311862 ], [ 4.7382632, 51.5311027 ], [ 4.7384818, 51.5312194 ], [ 4.7386751, 51.5313459 ], [ 4.7386827, 51.5313508 ], [ 4.7389249, 51.531511 ], [ 4.7391225, 51.5316601 ], [ 4.7392297, 51.5317331 ], [ 4.7392582, 51.5317526 ], [ 4.7395137, 51.5319264 ], [ 4.7397326, 51.5321098 ], [ 4.7400691, 51.5323617 ], [ 4.740583, 51.532623 ], [ 4.7409328, 51.5327454 ], [ 4.741464, 51.532858 ], [ 4.741467, 51.5328489 ], [ 4.7415165, 51.5326984 ], [ 4.7416723, 51.5322425 ], [ 4.7417629, 51.5319645 ], [ 4.7418061, 51.5317623 ], [ 4.7418329, 51.5315668 ], [ 4.7418359, 51.5313552 ], [ 4.7418092, 51.5311428 ], [ 4.7418017, 51.5310963 ], [ 4.7417816, 51.5309725 ], [ 4.7417368, 51.5308089 ], [ 4.7416665, 51.5306695 ], [ 4.7416119, 51.5305826 ], [ 4.7416257, 51.53058 ], [ 4.741538, 51.5304467 ], [ 4.7411999, 51.5300673 ], [ 4.7408278, 51.5296823 ], [ 4.7406481, 51.5294797 ], [ 4.7404831, 51.5292667 ], [ 4.740372, 51.529084 ], [ 4.7403471, 51.5290429 ], [ 4.7402413, 51.5288126 ], [ 4.740163, 51.5285778 ], [ 4.7401163, 51.5283393 ], [ 4.7401016, 51.5280989 ], [ 4.7401188, 51.5278582 ], [ 4.7401719, 51.5276192 ], [ 4.7402569, 51.5273837 ], [ 4.740373, 51.5271531 ], [ 4.7405195, 51.5269293 ], [ 4.7406955, 51.5267138 ], [ 4.7408999, 51.5265079 ], [ 4.741134, 51.5263146 ], [ 4.741393, 51.5261341 ], [ 4.7416729, 51.525966 ], [ 4.7419746, 51.5258129 ], [ 4.7422957, 51.5256759 ], [ 4.7426344, 51.525556 ], [ 4.7427824, 51.5255123 ], [ 4.7429868, 51.5254519 ], [ 4.7431636, 51.5254105 ], [ 4.7432349, 51.5253938 ], [ 4.7433165, 51.5247362 ], [ 4.7433211, 51.524699 ], [ 4.7433169, 51.52467 ], [ 4.7433628, 51.5242838 ], [ 4.7432044, 51.5242717 ], [ 4.7432127, 51.5242156 ], [ 4.7432296, 51.5241003 ], [ 4.7432389, 51.5240373 ], [ 4.7433273, 51.5240421 ], [ 4.7433261, 51.5239807 ], [ 4.7433852, 51.5234636 ], [ 4.7434473, 51.5229277 ], [ 4.743507, 51.5224003 ], [ 4.7435757, 51.5218765 ], [ 4.7436426, 51.5213592 ], [ 4.7436718, 51.5211352 ], [ 4.7436889, 51.5209911 ], [ 4.7437156, 51.520766 ], [ 4.7437523, 51.5204327 ], [ 4.7437911, 51.5200566 ], [ 4.7438371, 51.5195647 ], [ 4.7438493, 51.5194209 ], [ 4.743862, 51.5193305 ], [ 4.7438685, 51.519285 ], [ 4.743767, 51.5192826 ], [ 4.7436493, 51.5192811 ], [ 4.7435081, 51.5192792 ], [ 4.7433658, 51.5192759 ], [ 4.7432237, 51.5192698 ], [ 4.7431975, 51.5192682 ], [ 4.743082, 51.519261 ], [ 4.7430241, 51.5192563 ], [ 4.7429408, 51.5192495 ], [ 4.7428002, 51.5192352 ], [ 4.7426605, 51.5192183 ], [ 4.7425216, 51.5191987 ], [ 4.7423837, 51.5191764 ], [ 4.7422471, 51.5191514 ], [ 4.7421117, 51.5191238 ], [ 4.7419778, 51.5190937 ], [ 4.7418454, 51.5190609 ], [ 4.7417147, 51.5190257 ], [ 4.7415858, 51.5189879 ], [ 4.7414588, 51.5189476 ], [ 4.741334, 51.518905 ], [ 4.741318, 51.5188991 ], [ 4.7412112, 51.5188599 ], [ 4.7410896, 51.5188126 ], [ 4.741012, 51.5187821 ], [ 4.7410009, 51.5187778 ], [ 4.7409676, 51.5187648 ], [ 4.7408456, 51.5187169 ], [ 4.7407236, 51.5186691 ], [ 4.7406072, 51.5186235 ], [ 4.7405345, 51.5185979 ], [ 4.7404648, 51.518578 ], [ 4.7403928, 51.5185619 ], [ 4.7403189, 51.5185496 ], [ 4.7402436, 51.5185412 ], [ 4.7401675, 51.5185367 ], [ 4.7401033, 51.518536 ], [ 4.7400406, 51.5185381 ], [ 4.7400226, 51.5185384 ], [ 4.7399862, 51.5185354 ], [ 4.7399525, 51.5185276 ], [ 4.7399224, 51.5185154 ], [ 4.7398974, 51.5184994 ], [ 4.7398786, 51.5184803 ], [ 4.7398669, 51.5184586 ], [ 4.7398639, 51.5184467 ], [ 4.7398632, 51.5184336 ], [ 4.7398638, 51.5184235 ], [ 4.7398653, 51.518417 ], [ 4.7398696, 51.5184102 ], [ 4.739875, 51.5184055 ], [ 4.739883, 51.5184011 ], [ 4.7398915, 51.5183983 ], [ 4.7398987, 51.518397 ], [ 4.7399054, 51.5183965 ], [ 4.739916, 51.518397 ], [ 4.739936, 51.5183992 ], [ 4.7399494, 51.5184007 ], [ 4.7399961, 51.5182443 ], [ 4.7401576, 51.5182597 ], [ 4.7402798, 51.5182771 ], [ 4.7403495, 51.5182883 ], [ 4.7404189, 51.5183003 ], [ 4.740557, 51.5183258 ], [ 4.7406043, 51.5183348 ], [ 4.740692, 51.5183571 ], [ 4.7408244, 51.5183924 ], [ 4.7408903, 51.5184115 ], [ 4.7409541, 51.5184316 ], [ 4.7410184, 51.5184519 ], [ 4.7410821, 51.5184728 ], [ 4.7411458, 51.5184938 ], [ 4.7412794, 51.518537 ], [ 4.7414052, 51.5185758 ], [ 4.7416677, 51.5186324 ], [ 4.7417933, 51.5186622 ], [ 4.7419187, 51.5186915 ], [ 4.7420064, 51.5187099 ], [ 4.7420458, 51.5187176 ], [ 4.7421748, 51.5187396 ], [ 4.7423045, 51.518759 ], [ 4.7424347, 51.5187761 ], [ 4.7425654, 51.5187911 ], [ 4.7426966, 51.5188033 ], [ 4.7428533, 51.5188129 ], [ 4.7429967, 51.5188212 ], [ 4.7430687, 51.5188232 ], [ 4.7432128, 51.5188158 ], [ 4.7433563, 51.5188085 ], [ 4.7434919, 51.5188056 ], [ 4.7436104, 51.5188031 ], [ 4.7438492, 51.5187979 ], [ 4.743903, 51.5187821 ], [ 4.7439838, 51.5187613 ], [ 4.7439898, 51.5186895 ], [ 4.7439991, 51.5185763 ], [ 4.7440028, 51.5185062 ], [ 4.7440375, 51.5178338 ], [ 4.74404, 51.517733 ], [ 4.7440598, 51.5169457 ], [ 4.7439754, 51.5169684 ], [ 4.7439759, 51.5169197 ], [ 4.7439685, 51.5168471 ], [ 4.7439541, 51.516706 ], [ 4.7439565, 51.5165715 ], [ 4.7439584, 51.5164299 ], [ 4.7439601, 51.5162322 ], [ 4.7439592, 51.5158588 ], [ 4.7439588, 51.5156999 ], [ 4.7439486, 51.5153806 ], [ 4.7439432, 51.5152557 ], [ 4.7439422, 51.5152308 ], [ 4.7439366, 51.5151004 ], [ 4.743906, 51.5145435 ], [ 4.7439025, 51.5144913 ], [ 4.7438928, 51.5143459 ], [ 4.7438602, 51.5139149 ], [ 4.7438366, 51.513641 ], [ 4.743822, 51.5134799 ], [ 4.7438114, 51.5133676 ], [ 4.7437937, 51.5131895 ], [ 4.7437817, 51.5130746 ], [ 4.7437715, 51.5129771 ], [ 4.743769, 51.5129546 ], [ 4.7437577, 51.5128515 ], [ 4.7437351, 51.5126543 ], [ 4.7437197, 51.5125265 ], [ 4.743705, 51.5124068 ], [ 4.7437023, 51.5123854 ], [ 4.7436879, 51.5122723 ], [ 4.7436643, 51.5120935 ], [ 4.7435853, 51.5115405 ], [ 4.7435556, 51.51135 ], [ 4.7435359, 51.5112239 ], [ 4.7434839, 51.5109097 ], [ 4.7434377, 51.5106448 ], [ 4.7434105, 51.5104962 ], [ 4.7433788, 51.5103233 ], [ 4.7433168, 51.510002 ], [ 4.7432368, 51.5096097 ], [ 4.7431757, 51.5093246 ], [ 4.7431363, 51.5091465 ], [ 4.7431041, 51.5090041 ], [ 4.743029, 51.5086889 ], [ 4.7429712, 51.5084464 ], [ 4.7429493, 51.5083546 ], [ 4.7428431, 51.5079379 ], [ 4.7427967, 51.5077634 ], [ 4.7427719, 51.5076705 ], [ 4.742692, 51.5073813 ], [ 4.7425716, 51.5069708 ], [ 4.7424523, 51.5065638 ], [ 4.7424022, 51.5064056 ], [ 4.7423477, 51.5062331 ], [ 4.7423136, 51.5061253 ], [ 4.7422646, 51.5059702 ], [ 4.7422433, 51.5059164 ], [ 4.7422017, 51.5058115 ], [ 4.7421772, 51.5057111 ], [ 4.7421578, 51.5056314 ], [ 4.7411524, 51.505672 ], [ 4.7402009, 51.5057104 ], [ 4.7393991, 51.5057428 ], [ 4.7390399, 51.5057573 ], [ 4.7381469, 51.5057933 ], [ 4.7381205, 51.505522 ], [ 4.7389618, 51.5054423 ], [ 4.7390445, 51.5054345 ], [ 4.7393856, 51.5054021 ], [ 4.7403544, 51.5053103 ], [ 4.7404641, 51.5052999 ], [ 4.74068, 51.505279 ], [ 4.7409012, 51.5052592 ], [ 4.7411269, 51.50524 ], [ 4.7413441, 51.5052199 ], [ 4.741559, 51.5051986 ], [ 4.74154, 51.5051459 ], [ 4.7415364, 51.5051359 ], [ 4.7415004, 51.5050358 ], [ 4.7413877, 51.5047224 ], [ 4.7412394, 51.5043229 ], [ 4.7412252, 51.5042846 ], [ 4.7411895, 51.5041911 ], [ 4.7410585, 51.5038474 ], [ 4.7408887, 51.5034106 ], [ 4.7408112, 51.5032141 ], [ 4.7406405, 51.5027826 ], [ 4.7406261, 51.5027465 ], [ 4.7406437, 51.502716 ], [ 4.7406104, 51.5027072 ], [ 4.7397155, 51.5004637 ], [ 4.7397137, 51.5004586 ], [ 4.7396285, 51.5002456 ], [ 4.7395415, 51.5000275 ], [ 4.7394545, 51.4998094 ], [ 4.7393675, 51.4995914 ], [ 4.7392805, 51.4993733 ], [ 4.7391936, 51.4991553 ], [ 4.739136, 51.4990111 ], [ 4.7391066, 51.4989372 ], [ 4.73902, 51.4987192 ], [ 4.7389433, 51.4985284 ], [ 4.7389112, 51.498448 ], [ 4.7388295, 51.498243 ], [ 4.7385404, 51.4975183 ], [ 4.7385108, 51.4974441 ], [ 4.7385072, 51.4974352 ], [ 4.7384552, 51.4973047 ], [ 4.7384224, 51.4972225 ], [ 4.7382811, 51.4968686 ], [ 4.7382397, 51.4967648 ], [ 4.7381906, 51.4966417 ], [ 4.7381072, 51.4964325 ], [ 4.7380712, 51.4963423 ], [ 4.7379516, 51.4960425 ], [ 4.7378247, 51.4957244 ], [ 4.7376742, 51.4953472 ], [ 4.7376, 51.495161 ], [ 4.7375523, 51.4950415 ], [ 4.7375404, 51.4950434 ], [ 4.7374678, 51.4951242 ], [ 4.7374658, 51.4951168 ], [ 4.7374636, 51.4951093 ], [ 4.7374612, 51.4951019 ], [ 4.7374586, 51.4950945 ], [ 4.7374558, 51.4950872 ], [ 4.7372209, 51.4944979 ], [ 4.737039, 51.4940415 ], [ 4.7369051, 51.4937056 ], [ 4.7363882, 51.4924087 ], [ 4.7363746, 51.4924049 ], [ 4.736361, 51.492401 ], [ 4.7363475, 51.492397 ], [ 4.7363341, 51.4923928 ], [ 4.7363208, 51.4923885 ], [ 4.7363076, 51.4923842 ], [ 4.7362945, 51.4923796 ], [ 4.7362815, 51.492375 ], [ 4.7362686, 51.4923703 ], [ 4.7362558, 51.4923655 ], [ 4.7362432, 51.4923605 ], [ 4.7362301, 51.4923552 ], [ 4.7362171, 51.4923498 ], [ 4.7362043, 51.4923443 ], [ 4.7361916, 51.4923387 ], [ 4.736179, 51.4923329 ], [ 4.7361653, 51.4923264 ], [ 4.7361517, 51.4923198 ], [ 4.7361382, 51.4923131 ], [ 4.7361249, 51.4923063 ], [ 4.7361117, 51.4922994 ], [ 4.7360986, 51.4922924 ], [ 4.7360857, 51.4922853 ], [ 4.736073, 51.492278 ], [ 4.7360604, 51.4922707 ], [ 4.736048, 51.4922632 ], [ 4.7360357, 51.4922557 ], [ 4.7360236, 51.4922481 ], [ 4.7360116, 51.4922403 ], [ 4.7359998, 51.4922325 ], [ 4.7359882, 51.4922246 ], [ 4.7359767, 51.4922165 ], [ 4.7359654, 51.4922084 ], [ 4.7359543, 51.4922002 ], [ 4.7359433, 51.4921919 ], [ 4.7359325, 51.4921836 ], [ 4.7359219, 51.4921751 ], [ 4.7359115, 51.4921665 ], [ 4.7359012, 51.4921579 ], [ 4.7358912, 51.4921492 ], [ 4.7358813, 51.4921404 ], [ 4.7358716, 51.4921315 ], [ 4.7358621, 51.4921225 ], [ 4.7358527, 51.4921135 ], [ 4.7358436, 51.4921044 ], [ 4.7358346, 51.4920952 ], [ 4.7358259, 51.4920859 ], [ 4.7358173, 51.4920766 ], [ 4.7358089, 51.4920672 ], [ 4.7358008, 51.4920577 ], [ 4.7357928, 51.4920482 ], [ 4.735785, 51.4920386 ], [ 4.7357774, 51.4920289 ], [ 4.7357699, 51.492019 ], [ 4.7357627, 51.4920092 ], [ 4.7357556, 51.4919992 ], [ 4.7357488, 51.4919892 ], [ 4.7357422, 51.4919792 ], [ 4.7357358, 51.4919691 ], [ 4.7357296, 51.4919589 ], [ 4.7357236, 51.4919487 ], [ 4.7357179, 51.4919385 ], [ 4.7357123, 51.4919282 ], [ 4.735707, 51.4919178 ], [ 4.7357019, 51.4919074 ], [ 4.735697, 51.491897 ], [ 4.7356924, 51.4918865 ], [ 4.7356879, 51.491876 ], [ 4.7356837, 51.4918655 ], [ 4.7356797, 51.4918549 ], [ 4.7356759, 51.4918443 ], [ 4.7356724, 51.4918337 ], [ 4.735669, 51.491823 ], [ 4.7356659, 51.4918123 ], [ 4.7356631, 51.4918016 ], [ 4.7356604, 51.4917909 ], [ 4.735658, 51.4917801 ], [ 4.7356558, 51.4917693 ], [ 4.7356538, 51.4917585 ], [ 4.7356521, 51.4917477 ], [ 4.7355264, 51.490914 ], [ 4.735462, 51.4904871 ], [ 4.7354565, 51.490462 ], [ 4.7353871, 51.4901442 ], [ 4.7353831, 51.4901259 ], [ 4.7353575, 51.4900083 ], [ 4.7353496, 51.4899722 ], [ 4.7350821, 51.4890156 ], [ 4.7349984, 51.4887486 ], [ 4.7348365, 51.4882136 ], [ 4.7348107, 51.4881282 ], [ 4.7346383, 51.4875061 ], [ 4.7345944, 51.487339 ], [ 4.7345203, 51.4870571 ], [ 4.7345113, 51.4870273 ], [ 4.7344163, 51.4867129 ], [ 4.7343877, 51.4866254 ], [ 4.7343177, 51.4864212 ], [ 4.7342311, 51.4861897 ], [ 4.7341603, 51.4860167 ], [ 4.7340406, 51.48574 ], [ 4.734012, 51.4856151 ], [ 4.7340006, 51.4855651 ], [ 4.7339967, 51.4855482 ], [ 4.7342971, 51.4856412 ], [ 4.7345305, 51.4857134 ], [ 4.734653, 51.4857504 ], [ 4.7347256, 51.4857871 ], [ 4.7347478, 51.4857982 ], [ 4.7348852, 51.4858311 ], [ 4.7350344, 51.4858791 ], [ 4.7358307, 51.4861352 ], [ 4.7358566, 51.486143 ], [ 4.7361427, 51.4862288 ], [ 4.7366466, 51.4863799 ], [ 4.7366668, 51.486386 ], [ 4.7373745, 51.4866022 ], [ 4.7378286, 51.4867444 ], [ 4.7381709, 51.4868414 ], [ 4.7385355, 51.4869719 ], [ 4.7392458, 51.487187 ], [ 4.7393042, 51.4872048 ], [ 4.7410652, 51.4877406 ], [ 4.7413698, 51.4878475 ], [ 4.7415974, 51.4879101 ], [ 4.7426949, 51.4882573 ], [ 4.7427522, 51.4882754 ], [ 4.7431254, 51.4884109 ], [ 4.7435243, 51.4885353 ], [ 4.7435866, 51.4885543 ], [ 4.7439411, 51.4886559 ], [ 4.7440718, 51.488691 ], [ 4.7442362, 51.4887544 ], [ 4.7446302, 51.4888516 ], [ 4.7449857, 51.4889649 ], [ 4.7450452, 51.4890008 ], [ 4.7456623, 51.4891842 ], [ 4.7461746, 51.4893534 ], [ 4.7463801, 51.4894129 ], [ 4.7464644, 51.4894431 ], [ 4.7465615, 51.4895046 ], [ 4.7466034, 51.4896453 ], [ 4.7466879, 51.4898455 ], [ 4.7467492, 51.4900626 ], [ 4.7467847, 51.490309 ], [ 4.746823, 51.4906444 ], [ 4.7468298, 51.4907041 ], [ 4.7469123, 51.4907615 ], [ 4.7473657, 51.4912348 ], [ 4.7476242, 51.4914469 ], [ 4.7478139, 51.4916268 ], [ 4.7479208, 51.4917245 ], [ 4.7479833, 51.4918111 ], [ 4.7480698, 51.4919309 ], [ 4.7482039, 51.492143 ], [ 4.7485929, 51.4927333 ], [ 4.7487146, 51.4929056 ], [ 4.7488024, 51.4930297 ], [ 4.749188, 51.4935711 ], [ 4.7496026, 51.494142 ], [ 4.7496559, 51.4942537 ], [ 4.7496991, 51.4943639 ], [ 4.7497435, 51.4945565 ], [ 4.7498189, 51.4948125 ], [ 4.749928, 51.4951344 ], [ 4.7499911, 51.4953249 ], [ 4.7500033, 51.4954314 ], [ 4.7499792, 51.4954848 ], [ 4.7499151, 51.4955563 ], [ 4.7496567, 51.4959104 ], [ 4.7495365, 51.4960612 ], [ 4.7491007, 51.4964894 ], [ 4.748945, 51.4966503 ], [ 4.7489446, 51.4966845 ], [ 4.7496626, 51.4972844 ], [ 4.7496805, 51.4972993 ], [ 4.7501361, 51.4976753 ], [ 4.7503124, 51.4978309 ], [ 4.7503634, 51.4978401 ], [ 4.7509583, 51.4983596 ], [ 4.7509653, 51.4983657 ], [ 4.7510067, 51.4984016 ], [ 4.7510377, 51.4984289 ], [ 4.7511697, 51.4985452 ], [ 4.751225, 51.4985961 ], [ 4.7513142, 51.4986664 ], [ 4.7514093, 51.4987459 ], [ 4.7514862, 51.4988084 ], [ 4.752375, 51.4995305 ], [ 4.7526535, 51.4997604 ], [ 4.7526996, 51.4998075 ], [ 4.7552601, 51.5005418 ], [ 4.755378, 51.5003639 ], [ 4.7555092, 51.500353 ], [ 4.7555877, 51.5003464 ], [ 4.7560257, 51.5003101 ], [ 4.7564395, 51.5002681 ], [ 4.7565086, 51.500261 ], [ 4.758279, 51.5001425 ], [ 4.7582844, 51.5001424 ], [ 4.7582898, 51.5001425 ], [ 4.7582952, 51.5001427 ], [ 4.7583006, 51.5001431 ], [ 4.7583059, 51.5001436 ], [ 4.7583112, 51.5001442 ], [ 4.7583165, 51.500145 ], [ 4.7583217, 51.5001458 ], [ 4.7583269, 51.5001469 ], [ 4.7583319, 51.500148 ], [ 4.7583369, 51.5001493 ], [ 4.7583419, 51.5001507 ], [ 4.7583467, 51.5001523 ], [ 4.7583514, 51.5001539 ], [ 4.758356, 51.5001557 ], [ 4.7583604, 51.5001576 ], [ 4.7583648, 51.5001596 ], [ 4.758369, 51.5001617 ], [ 4.7583731, 51.500164 ], [ 4.758377, 51.5001663 ], [ 4.7583807, 51.5001687 ], [ 4.7583843, 51.5001712 ], [ 4.7583878, 51.5001738 ], [ 4.758391, 51.5001765 ], [ 4.7583941, 51.5001793 ], [ 4.758397, 51.5001821 ], [ 4.7583997, 51.5001851 ], [ 4.7584022, 51.5001881 ], [ 4.7584045, 51.5001911 ], [ 4.7584066, 51.5001942 ], [ 4.7584086, 51.5001974 ], [ 4.7584103, 51.5002006 ], [ 4.7584117, 51.5002038 ], [ 4.758413, 51.5002071 ], [ 4.7585849, 51.5006431 ], [ 4.7586366, 51.5007224 ], [ 4.7586887, 51.5008022 ], [ 4.7587955, 51.5009531 ], [ 4.7590617, 51.5013229 ], [ 4.7590937, 51.5013673 ], [ 4.7593702, 51.5016993 ], [ 4.7597681, 51.5021766 ], [ 4.7599435, 51.5023581 ], [ 4.7600234, 51.5023728 ], [ 4.7599277, 51.5024463 ], [ 4.7598735, 51.5024879 ], [ 4.7594596, 51.5028062 ], [ 4.7589008, 51.5032336 ], [ 4.7585968, 51.5034693 ], [ 4.7581664, 51.5038001 ], [ 4.7582128, 51.5038611 ], [ 4.7580884, 51.5039108 ], [ 4.7580047, 51.5039369 ], [ 4.7572685, 51.5041491 ], [ 4.7569391, 51.5042374 ], [ 4.7566774, 51.5043489 ], [ 4.755425, 51.505013 ], [ 4.7551338, 51.5052058 ], [ 4.7550664, 51.505245 ], [ 4.7549401, 51.505291 ], [ 4.7547584, 51.5053541 ], [ 4.7545424, 51.5054278 ], [ 4.7536746, 51.5057116 ], [ 4.7535198, 51.5057642 ], [ 4.7534721, 51.5057958 ], [ 4.7534455, 51.5058239 ], [ 4.7533971, 51.5058724 ], [ 4.7533081, 51.506011 ], [ 4.753303, 51.5060189 ], [ 4.7532484, 51.5060982 ], [ 4.7531807, 51.5061861 ], [ 4.7530894, 51.5062919 ], [ 4.7524211, 51.5070668 ], [ 4.7518295, 51.5078779 ], [ 4.7509477, 51.5091067 ], [ 4.7505978, 51.5100641 ], [ 4.7503223, 51.5103212 ], [ 4.7499382, 51.5112889 ], [ 4.7498968, 51.5114086 ], [ 4.7498743, 51.5115455 ], [ 4.7497496, 51.5118357 ], [ 4.7497123, 51.5118999 ], [ 4.749481, 51.5122875 ], [ 4.7493676, 51.5124158 ], [ 4.74925, 51.5125185 ], [ 4.7490199, 51.512672 ], [ 4.7489228, 51.5127389 ], [ 4.7488997, 51.5127552 ], [ 4.7488725, 51.5127847 ], [ 4.7488656, 51.5127924 ], [ 4.7488588, 51.5128002 ], [ 4.7488522, 51.5128081 ], [ 4.7488458, 51.512816 ], [ 4.7488396, 51.512824 ], [ 4.7488335, 51.512832 ], [ 4.7488287, 51.5128578 ], [ 4.7488163, 51.5128952 ], [ 4.7487884, 51.5129998 ], [ 4.7487838, 51.5130118 ], [ 4.7486968, 51.5132116 ], [ 4.7486005, 51.5133776 ], [ 4.7485412, 51.5134496 ], [ 4.7483792, 51.5135953 ], [ 4.7482472, 51.5137443 ], [ 4.7482145, 51.513809 ], [ 4.7481619, 51.5138464 ], [ 4.748018, 51.5140326 ], [ 4.7479186, 51.5141611 ], [ 4.7476568, 51.5144914 ], [ 4.7475592, 51.5146477 ], [ 4.7474957, 51.5147466 ], [ 4.7474256, 51.5148478 ], [ 4.7472547, 51.5150525 ], [ 4.7472267, 51.5150861 ], [ 4.7471017, 51.5152481 ], [ 4.7470811, 51.5152749 ], [ 4.7470294, 51.5153618 ], [ 4.7469952, 51.5154786 ], [ 4.7471308, 51.5155424 ], [ 4.7472026, 51.515568 ], [ 4.7473045, 51.5159587 ], [ 4.7473346, 51.516074 ], [ 4.7473494, 51.5161308 ], [ 4.7474235, 51.5164148 ], [ 4.7474684, 51.5165869 ], [ 4.747544, 51.5169118 ], [ 4.7475612, 51.5169674 ], [ 4.7475839, 51.5170354 ], [ 4.747595, 51.5170619 ], [ 4.7475989, 51.5170713 ], [ 4.747609, 51.5170839 ], [ 4.7476413, 51.5171242 ], [ 4.7478618, 51.5173382 ], [ 4.7481004, 51.5175724 ], [ 4.7484856, 51.517937 ], [ 4.7485752, 51.5181031 ], [ 4.7486137, 51.5182145 ], [ 4.7486154, 51.518432 ], [ 4.7486576, 51.5185072 ], [ 4.7489094, 51.5189614 ], [ 4.7489343, 51.5189616 ], [ 4.7500004, 51.518969 ], [ 4.7503696, 51.5189958 ], [ 4.7505339, 51.5190119 ], [ 4.7509559, 51.5189962 ], [ 4.7517359, 51.5189741 ], [ 4.7530149, 51.518938 ], [ 4.7530809, 51.5189379 ], [ 4.7535921, 51.5189376 ], [ 4.7538531, 51.5189382 ], [ 4.7550479, 51.5189405 ], [ 4.7550564, 51.5189405 ], [ 4.7560299, 51.5189406 ], [ 4.75668, 51.5189407 ], [ 4.7569878, 51.5189407 ], [ 4.7576276, 51.5189753 ], [ 4.7582734, 51.5190181 ], [ 4.7584239, 51.5190379 ], [ 4.7588531, 51.5191051 ], [ 4.7593276, 51.5191794 ], [ 4.7601852, 51.5193082 ], [ 4.7600952, 51.519435 ], [ 4.7604483, 51.5195988 ], [ 4.7608209, 51.5197952 ], [ 4.7608767, 51.519834 ], [ 4.760988, 51.5199504 ], [ 4.7611795, 51.5201289 ], [ 4.761295, 51.5202453 ], [ 4.7613515, 51.5203069 ], [ 4.7616647, 51.5207138 ], [ 4.7616798, 51.5207334 ], [ 4.7623078, 51.5214897 ], [ 4.762753, 51.5220257 ], [ 4.7627474, 51.5220271 ], [ 4.763052, 51.5224255 ], [ 4.7633894, 51.5228541 ], [ 4.7634547, 51.5229391 ], [ 4.7636809, 51.5232332 ], [ 4.7637054, 51.5232656 ], [ 4.7639223, 51.5235525 ], [ 4.763935, 51.5235693 ], [ 4.7640368, 51.5236873 ], [ 4.7641099, 51.523761 ], [ 4.7641725, 51.5238267 ], [ 4.7642543, 51.5238979 ], [ 4.7643575, 51.5239771 ], [ 4.7644697, 51.5240458 ], [ 4.7645291, 51.5240794 ], [ 4.7646396, 51.5241347 ], [ 4.7647482, 51.524186 ], [ 4.7647615, 51.5241926 ], [ 4.7647749, 51.524199 ], [ 4.7647885, 51.5242054 ], [ 4.7648022, 51.5242116 ], [ 4.7648161, 51.5242177 ], [ 4.76483, 51.5242238 ], [ 4.7648441, 51.5242297 ], [ 4.7648583, 51.5242355 ], [ 4.7648726, 51.5242412 ], [ 4.764887, 51.5242467 ], [ 4.7649016, 51.5242522 ], [ 4.7650404, 51.5243036 ], [ 4.7651239, 51.5243343 ], [ 4.7652283, 51.5243727 ], [ 4.7656129, 51.5245082 ], [ 4.7657135, 51.5245408 ], [ 4.7660065, 51.5246357 ], [ 4.7663336, 51.5247456 ], [ 4.7667506, 51.5248852 ], [ 4.76699, 51.5249679 ], [ 4.7672351, 51.5250497 ], [ 4.767315, 51.5250764 ], [ 4.7673275, 51.5250791 ], [ 4.7673401, 51.5250818 ], [ 4.7673528, 51.5250843 ], [ 4.7673656, 51.5250866 ], [ 4.7673784, 51.5250889 ], [ 4.7673913, 51.525091 ], [ 4.7674042, 51.5250929 ], [ 4.7674172, 51.5250947 ], [ 4.7674303, 51.5250964 ], [ 4.7674433, 51.525098 ], [ 4.7674565, 51.5250994 ], [ 4.7674696, 51.5251007 ], [ 4.7674828, 51.5251018 ], [ 4.767496, 51.5251028 ], [ 4.7675093, 51.5251036 ], [ 4.7675225, 51.5251044 ], [ 4.7675358, 51.5251049 ], [ 4.7675491, 51.5251054 ], [ 4.7675624, 51.5251057 ], [ 4.7675757, 51.5251058 ], [ 4.767584, 51.525106 ], [ 4.7679433, 51.5251132 ], [ 4.7686329, 51.525129 ], [ 4.7688287, 51.525038 ], [ 4.768917, 51.5248691 ], [ 4.7690009, 51.5246989 ], [ 4.7690477, 51.5246004 ], [ 4.7690695, 51.5245358 ], [ 4.76908, 51.5245045 ], [ 4.7690961, 51.5244567 ], [ 4.769104, 51.5244154 ], [ 4.7691145, 51.5243661 ], [ 4.7691188, 51.5243555 ], [ 4.7691737, 51.5242224 ], [ 4.769353, 51.5241087 ], [ 4.7694367, 51.5240664 ], [ 4.7695733, 51.5239978 ], [ 4.7697506, 51.5239388 ], [ 4.7698985, 51.5238556 ], [ 4.7700094, 51.52366 ], [ 4.7700193, 51.5236418 ], [ 4.7702732, 51.5237116 ], [ 4.7701641, 51.5238913 ], [ 4.7701204, 51.52392 ], [ 4.770089, 51.5240152 ], [ 4.7700635, 51.5241371 ], [ 4.7702555, 51.5243616 ], [ 4.7702856, 51.5243967 ], [ 4.7702194, 51.5245605 ], [ 4.7700537, 51.5246523 ], [ 4.7698969, 51.5247223 ], [ 4.7696214, 51.5248903 ], [ 4.7695945, 51.5249162 ], [ 4.7695339, 51.5250573 ], [ 4.7695069, 51.5251202 ], [ 4.7694692, 51.5253135 ], [ 4.7693136, 51.5253818 ], [ 4.7693294, 51.5254394 ], [ 4.7693799, 51.5256188 ], [ 4.7694643, 51.5258542 ], [ 4.7695405, 51.5260377 ], [ 4.7696246, 51.5262457 ], [ 4.7698312, 51.5267693 ], [ 4.7700605, 51.5273573 ], [ 4.7701019, 51.5273667 ], [ 4.7702427, 51.5273981 ], [ 4.7703249, 51.5274165 ], [ 4.7709974, 51.5275666 ], [ 4.7716825, 51.5277276 ], [ 4.7723689, 51.5278874 ], [ 4.7729373, 51.5280305 ], [ 4.7730484, 51.5280585 ], [ 4.773723, 51.5282365 ], [ 4.7743887, 51.5284243 ], [ 4.774733, 51.5283969 ], [ 4.7747237, 51.5284091 ], [ 4.7746787, 51.5284679 ], [ 4.7746678, 51.5284821 ], [ 4.7746569, 51.5284968 ], [ 4.7744588, 51.5285498 ], [ 4.7743869, 51.528573 ], [ 4.774431, 51.5285875 ], [ 4.7749484, 51.528746 ], [ 4.7755959, 51.5289492 ], [ 4.7761231, 51.5291134 ], [ 4.7762432, 51.5291508 ], [ 4.7768879, 51.5293536 ], [ 4.7774297, 51.5295248 ], [ 4.7775311, 51.5295568 ], [ 4.7775454, 51.5295614 ], [ 4.7776942, 51.5293672 ], [ 4.7778486, 51.5293895 ], [ 4.7779787, 51.5294082 ], [ 4.7781051, 51.5294492 ], [ 4.7774459, 51.5302742 ], [ 4.7774067, 51.530325 ], [ 4.777372, 51.530377 ], [ 4.7773417, 51.5304301 ], [ 4.7773161, 51.5304842 ], [ 4.7772951, 51.530539 ], [ 4.7772789, 51.5305944 ], [ 4.7772675, 51.5306503 ], [ 4.7772609, 51.5307065 ], [ 4.7772592, 51.5307629 ], [ 4.7772622, 51.5308192 ], [ 4.7772702, 51.5308754 ], [ 4.7772829, 51.5309312 ], [ 4.7773004, 51.5309865 ], [ 4.7773226, 51.5310411 ], [ 4.7773495, 51.5310949 ], [ 4.777381, 51.5311477 ], [ 4.7775541, 51.5314584 ], [ 4.7779637, 51.5326331 ], [ 4.7779873, 51.5326999 ], [ 4.7780163, 51.5327659 ], [ 4.7780506, 51.5328309 ], [ 4.7780903, 51.5328947 ], [ 4.7781351, 51.5329571 ], [ 4.7781849, 51.533018 ], [ 4.7782397, 51.5330773 ], [ 4.7782993, 51.5331348 ], [ 4.7783635, 51.5331903 ], [ 4.7784321, 51.5332436 ], [ 4.7785051, 51.5332947 ], [ 4.7785821, 51.5333435 ], [ 4.778663, 51.5333897 ], [ 4.7787476, 51.5334332 ], [ 4.7788356, 51.533474 ], [ 4.7789269, 51.533512 ], [ 4.7790002, 51.533549 ], [ 4.779073, 51.5335863 ], [ 4.7791456, 51.5336239 ], [ 4.7792177, 51.5336617 ], [ 4.7792894, 51.5336999 ], [ 4.7793608, 51.5337383 ], [ 4.7794318, 51.533777 ], [ 4.7795024, 51.5338159 ], [ 4.7795726, 51.5338552 ], [ 4.7796425, 51.5338947 ], [ 4.7797119, 51.5339345 ], [ 4.7797809, 51.5339745 ], [ 4.7798496, 51.5340148 ], [ 4.7799178, 51.5340554 ], [ 4.7799856, 51.5340962 ], [ 4.7800531, 51.5341373 ], [ 4.7801513, 51.5342011 ], [ 4.7802485, 51.5342655 ], [ 4.7803446, 51.5343305 ], [ 4.7804396, 51.5343961 ], [ 4.7805335, 51.5344623 ], [ 4.7806263, 51.5345291 ], [ 4.7807181, 51.5345966 ], [ 4.7808087, 51.5346646 ], [ 4.7808981, 51.5347332 ], [ 4.7809865, 51.5348023 ], [ 4.7810737, 51.534872 ], [ 4.7811597, 51.5349423 ], [ 4.7812446, 51.5350131 ], [ 4.7813283, 51.5350845 ], [ 4.7814108, 51.5351564 ], [ 4.7814921, 51.5352289 ], [ 4.7815852, 51.5352994 ], [ 4.7816696, 51.535374 ], [ 4.7817447, 51.5354524 ], [ 4.7818103, 51.5355341 ], [ 4.7818658, 51.5356186 ], [ 4.7819111, 51.5357055 ], [ 4.7819458, 51.5357943 ], [ 4.7819697, 51.5358844 ], [ 4.7819828, 51.5359754 ], [ 4.7819848, 51.5360667 ], [ 4.781976, 51.5361579 ], [ 4.7819562, 51.5362484 ], [ 4.7819255, 51.5363377 ], [ 4.7818843, 51.5364253 ], [ 4.7818326, 51.5365108 ], [ 4.7817708, 51.5365936 ], [ 4.781106, 51.537265 ], [ 4.7810178, 51.5373556 ], [ 4.780941, 51.5374502 ], [ 4.780876, 51.5375482 ], [ 4.780823, 51.537649 ], [ 4.7807826, 51.537752 ], [ 4.7807548, 51.5378566 ], [ 4.7807399, 51.5379622 ], [ 4.7807379, 51.5380682 ], [ 4.7807488, 51.538174 ], [ 4.7807727, 51.538279 ], [ 4.7808092, 51.5383826 ], [ 4.7808583, 51.5384841 ], [ 4.7809197, 51.538583 ], [ 4.7809929, 51.5386787 ], [ 4.7810777, 51.5387706 ], [ 4.7811734, 51.5388582 ], [ 4.7812147, 51.5389148 ], [ 4.7812533, 51.5389721 ], [ 4.7812892, 51.53903 ], [ 4.7813223, 51.5390886 ], [ 4.7813527, 51.5391478 ], [ 4.7813803, 51.5392075 ], [ 4.781405, 51.5392677 ], [ 4.7814269, 51.5393283 ], [ 4.7814459, 51.5393893 ], [ 4.781462, 51.5394506 ], [ 4.7814752, 51.5395122 ], [ 4.7814855, 51.539574 ], [ 4.7814928, 51.539636 ], [ 4.7814973, 51.5396981 ], [ 4.7814988, 51.5397602 ], [ 4.7814974, 51.5398223 ], [ 4.7814759, 51.5399012 ], [ 4.7814534, 51.5399801 ], [ 4.78143, 51.5400588 ], [ 4.7814056, 51.5401374 ], [ 4.7813802, 51.5402159 ], [ 4.7813539, 51.5402942 ], [ 4.7813266, 51.5403724 ], [ 4.7812983, 51.5404505 ], [ 4.781269, 51.5405285 ], [ 4.7812388, 51.5406063 ], [ 4.7812077, 51.540684 ], [ 4.7811755, 51.5407615 ], [ 4.7811425, 51.5408388 ], [ 4.7811084, 51.540916 ], [ 4.7810734, 51.5409931 ], [ 4.7810375, 51.5410699 ], [ 4.7802234, 51.5422853 ], [ 4.7801612, 51.5423904 ], [ 4.7801107, 51.5424981 ], [ 4.7800721, 51.5426076 ], [ 4.7800456, 51.5427185 ], [ 4.7800314, 51.5428303 ], [ 4.7800295, 51.5429424 ], [ 4.78004, 51.5430543 ], [ 4.7800627, 51.5431656 ], [ 4.7800976, 51.5432756 ], [ 4.7801445, 51.5433838 ], [ 4.7802032, 51.5434898 ], [ 4.7802734, 51.543593 ], [ 4.7803548, 51.543693 ], [ 4.780447, 51.5437893 ], [ 4.7805495, 51.5438814 ], [ 4.7806619, 51.5439689 ], [ 4.7807449, 51.5440402 ], [ 4.7808363, 51.5441073 ], [ 4.7809358, 51.5441699 ], [ 4.7810426, 51.5442275 ], [ 4.7811563, 51.5442798 ], [ 4.781276, 51.5443265 ], [ 4.7814011, 51.5443674 ], [ 4.7815309, 51.5444021 ], [ 4.7816646, 51.5444306 ], [ 4.7818013, 51.5444525 ], [ 4.7819404, 51.5444679 ], [ 4.782081, 51.5444766 ], [ 4.7822222, 51.5444785 ], [ 4.7823632, 51.5444736 ], [ 4.7825032, 51.544462 ], [ 4.7826414, 51.5444438 ], [ 4.7827296, 51.5444222 ], [ 4.7828195, 51.5444035 ], [ 4.7829108, 51.5443878 ], [ 4.7830034, 51.5443751 ], [ 4.7830968, 51.5443655 ], [ 4.783191, 51.544359 ], [ 4.7832856, 51.5443555 ], [ 4.7833803, 51.5443552 ], [ 4.7834749, 51.5443579 ], [ 4.7835692, 51.5443638 ], [ 4.7836629, 51.5443727 ], [ 4.7837556, 51.5443847 ], [ 4.7838473, 51.5443997 ], [ 4.7839375, 51.5444177 ], [ 4.7840261, 51.5444386 ], [ 4.7841128, 51.5444625 ], [ 4.7842305, 51.544509 ], [ 4.7843477, 51.544556 ], [ 4.7844643, 51.5446036 ], [ 4.7845804, 51.5446517 ], [ 4.7846959, 51.5447003 ], [ 4.7848109, 51.5447494 ], [ 4.7849252, 51.5447991 ], [ 4.7850391, 51.5448492 ], [ 4.7851523, 51.5448998 ], [ 4.785265, 51.544951 ], [ 4.7853771, 51.5450026 ], [ 4.7854885, 51.5450548 ], [ 4.7855994, 51.5451074 ], [ 4.7857097, 51.5451605 ], [ 4.7858194, 51.5452142 ], [ 4.7859284, 51.5452683 ], [ 4.7861814, 51.5454302 ], [ 4.7864198, 51.5456006 ], [ 4.7866429, 51.5457788 ], [ 4.78685, 51.5459644 ], [ 4.7870406, 51.5461567 ], [ 4.7872141, 51.5463552 ], [ 4.78737, 51.5465593 ], [ 4.7875077, 51.5467685 ], [ 4.7876269, 51.546982 ], [ 4.7877272, 51.5471993 ], [ 4.7878083, 51.5474196 ], [ 4.78787, 51.5476424 ], [ 4.7879121, 51.5478669 ], [ 4.7879345, 51.5480926 ], [ 4.7879371, 51.5483187 ], [ 4.7879198, 51.5485445 ], [ 4.7873308, 51.5501786 ], [ 4.787288, 51.5502854 ], [ 4.7872588, 51.5503938 ], [ 4.7872431, 51.5505034 ], [ 4.7872413, 51.5506134 ], [ 4.7872532, 51.5507231 ], [ 4.7872788, 51.550832 ], [ 4.7873179, 51.5509392 ], [ 4.7873704, 51.5510442 ], [ 4.7874358, 51.5511464 ], [ 4.7875139, 51.551245 ], [ 4.787604, 51.5513396 ], [ 4.7877057, 51.5514295 ], [ 4.7878183, 51.5515142 ], [ 4.7879412, 51.5515931 ], [ 4.7880736, 51.5516658 ], [ 4.7882147, 51.5517318 ], [ 4.7890948, 51.5522341 ], [ 4.7891473, 51.5522669 ], [ 4.7891969, 51.5523014 ], [ 4.7892436, 51.5523375 ], [ 4.789287, 51.5523751 ], [ 4.7893272, 51.5524141 ], [ 4.789364, 51.5524544 ], [ 4.7893973, 51.5524958 ], [ 4.7894269, 51.5525383 ], [ 4.7894529, 51.5525817 ], [ 4.7894752, 51.552626 ], [ 4.7894936, 51.5526708 ], [ 4.7895082, 51.5527163 ], [ 4.7895188, 51.5527622 ], [ 4.7895255, 51.5528083 ], [ 4.7895282, 51.5528546 ], [ 4.789527, 51.552901 ], [ 4.7897467, 51.5531689 ], [ 4.7900588, 51.5538805 ], [ 4.7921118, 51.5533178 ], [ 4.7928161, 51.5539615 ], [ 4.7925852, 51.5540091 ], [ 4.7930777, 51.5544856 ], [ 4.793149, 51.5547022 ], [ 4.7933051, 51.5547112 ], [ 4.7934315, 51.5548331 ], [ 4.793673, 51.5548767 ], [ 4.7937315, 51.5549132 ], [ 4.7938451, 51.5549065 ], [ 4.7939625, 51.5548725 ], [ 4.7940905, 51.5548932 ], [ 4.7937553, 51.5554102 ], [ 4.794059, 51.5555657 ], [ 4.7944205, 51.5557507 ], [ 4.7952615, 51.556105 ], [ 4.7976115, 51.5573525 ], [ 4.7982897, 51.5571869 ], [ 4.7984581, 51.5572031 ], [ 4.7986672, 51.5571236 ], [ 4.7990266, 51.5569484 ], [ 4.7992145, 51.5566842 ], [ 4.7996617, 51.5565936 ], [ 4.8002199, 51.5571368 ], [ 4.8006477, 51.5573059 ], [ 4.8009678, 51.5573885 ], [ 4.801607, 51.5574028 ], [ 4.8053757, 51.5573478 ], [ 4.80475, 51.5582043 ], [ 4.8047129, 51.5583274 ], [ 4.8047344, 51.5584641 ], [ 4.8047706, 51.5585896 ], [ 4.8049277, 51.5586923 ], [ 4.8066762, 51.559312 ], [ 4.8074002, 51.5596206 ], [ 4.8077401, 51.559817 ], [ 4.8079043, 51.5600155 ], [ 4.8077869, 51.56108 ], [ 4.8078842, 51.561536 ], [ 4.8076707, 51.5621631 ], [ 4.8079293, 51.5630841 ], [ 4.8095402, 51.5645287 ], [ 4.8103121, 51.5646407 ], [ 4.811405, 51.5648726 ], [ 4.8115504, 51.5649327 ], [ 4.8119328, 51.5655368 ], [ 4.8118655, 51.5656804 ], [ 4.8119158, 51.5656849 ], [ 4.8118289, 51.5659583 ], [ 4.8115614, 51.5668001 ], [ 4.8123419, 51.5672286 ], [ 4.8116517, 51.5675873 ], [ 4.8132641, 51.5688846 ], [ 4.8128616, 51.5691035 ], [ 4.8160426, 51.5714926 ], [ 4.8162426, 51.5722176 ], [ 4.8163557, 51.5731007 ], [ 4.8163594, 51.5731298 ], [ 4.8163956, 51.5734097 ], [ 4.8164448, 51.5737915 ], [ 4.816264, 51.5739709 ], [ 4.816481, 51.5740789 ], [ 4.816517, 51.5743613 ], [ 4.8074851, 51.5789132 ], [ 4.8079608, 51.5796828 ], [ 4.8101708, 51.5800832 ], [ 4.8185348, 51.5814635 ], [ 4.8181697, 51.5799725 ], [ 4.8180881, 51.5788618 ], [ 4.8201332, 51.5794682 ], [ 4.8203741, 51.5795151 ], [ 4.8207068, 51.5795489 ], [ 4.8233096, 51.579645 ], [ 4.8235644, 51.5796557 ], [ 4.8236523, 51.5796584 ], [ 4.8238006, 51.579663 ], [ 4.823901, 51.5796638 ], [ 4.8248612, 51.5793359 ], [ 4.8249597, 51.5792343 ], [ 4.825282, 51.5791249 ], [ 4.8254587, 51.5790879 ], [ 4.8259369, 51.5789877 ], [ 4.826554, 51.578857 ], [ 4.8265402, 51.5788348 ], [ 4.8282219, 51.5786059 ], [ 4.8282141, 51.5785859 ], [ 4.8281404, 51.5783974 ], [ 4.82799, 51.5779878 ], [ 4.8279695, 51.5777817 ], [ 4.8281463, 51.5778309 ], [ 4.8282782, 51.5778678 ], [ 4.8292472, 51.5781389 ], [ 4.8317106, 51.5780295 ], [ 4.831827, 51.578051 ], [ 4.8321258, 51.5781251 ], [ 4.8322206, 51.5781424 ], [ 4.8322553, 51.5781487 ], [ 4.8324187, 51.5781805 ], [ 4.8324565, 51.5781872 ], [ 4.8324945, 51.5781934 ], [ 4.8325328, 51.578199 ], [ 4.8325712, 51.578204 ], [ 4.8326098, 51.5782085 ], [ 4.8327209, 51.5782201 ], [ 4.8328166, 51.5782314 ], [ 4.832873, 51.5782367 ], [ 4.833128, 51.5782583 ], [ 4.8332204, 51.5782663 ], [ 4.8333811, 51.5782831 ], [ 4.8336244, 51.5782949 ], [ 4.8337718, 51.5783039 ], [ 4.833794, 51.5783057 ], [ 4.8338163, 51.5783068 ], [ 4.8338386, 51.5783072 ], [ 4.833861, 51.5783069 ], [ 4.8338833, 51.5783058 ], [ 4.8340225, 51.578304 ], [ 4.8341222, 51.5783036 ], [ 4.8343287, 51.5782848 ], [ 4.834632, 51.5782481 ], [ 4.8347563, 51.5782259 ], [ 4.8347718, 51.5785539 ], [ 4.8361315, 51.5785289 ], [ 4.8365308, 51.5785216 ], [ 4.8365035, 51.5780952 ], [ 4.8365418, 51.5780942 ], [ 4.8367392, 51.5780892 ], [ 4.8385903, 51.5780417 ], [ 4.838626, 51.5785414 ], [ 4.8386327, 51.5786353 ], [ 4.8386431, 51.5788018 ], [ 4.8386764, 51.5792812 ], [ 4.838708, 51.5796924 ], [ 4.8387441, 51.5801361 ], [ 4.8387607, 51.5803787 ], [ 4.8387776, 51.5806095 ], [ 4.8387842, 51.5806998 ], [ 4.8388112, 51.5810946 ], [ 4.8388433, 51.581442 ], [ 4.8389877, 51.5814361 ], [ 4.839273, 51.5814293 ], [ 4.839553, 51.5814267 ], [ 4.8398946, 51.581418 ], [ 4.8402329, 51.5814102 ], [ 4.8403185, 51.5814095 ], [ 4.8403555, 51.5814103 ], [ 4.8404066, 51.5814125 ], [ 4.8404876, 51.5814109 ], [ 4.8413963, 51.5815155 ], [ 4.8416624, 51.5815483 ], [ 4.8420905, 51.5816044 ], [ 4.8421303, 51.5816256 ], [ 4.8422751, 51.5816847 ], [ 4.8425448, 51.5818021 ], [ 4.8428575, 51.5819369 ], [ 4.8430812, 51.5820328 ], [ 4.8432356, 51.5820936 ], [ 4.8432834, 51.5821124 ], [ 4.8433836, 51.5821565 ], [ 4.8435004, 51.582201 ], [ 4.8435969, 51.5822431 ], [ 4.8437734, 51.5823201 ], [ 4.8441235, 51.5824698 ], [ 4.8443433, 51.5825645 ], [ 4.8444156, 51.5825986 ], [ 4.8444686, 51.5826259 ], [ 4.8445297, 51.5826637 ], [ 4.8447478, 51.5828033 ], [ 4.844946, 51.5829376 ], [ 4.8451477, 51.5830652 ], [ 4.8453883, 51.5832278 ], [ 4.8455869, 51.5833593 ], [ 4.8457301, 51.5834503 ], [ 4.8456045, 51.5835248 ], [ 4.845533, 51.5835672 ], [ 4.8451183, 51.5838133 ], [ 4.8450979, 51.5839047 ], [ 4.8450765, 51.5840264 ], [ 4.8448174, 51.5842961 ], [ 4.844723, 51.5843723 ], [ 4.8446741, 51.5844118 ], [ 4.8446268, 51.5844499 ], [ 4.8445228, 51.584595 ], [ 4.8444142, 51.5847515 ], [ 4.8443533, 51.5848446 ], [ 4.8441677, 51.5851077 ], [ 4.8440202, 51.5853256 ], [ 4.8439806, 51.5853671 ], [ 4.8439209, 51.5854154 ], [ 4.8438359, 51.5854592 ], [ 4.8437056, 51.5855046 ], [ 4.8435263, 51.5855622 ], [ 4.8432396, 51.5856525 ], [ 4.8430558, 51.5857044 ], [ 4.8428864, 51.5857548 ], [ 4.8426219, 51.5858293 ], [ 4.8424871, 51.5869746 ], [ 4.8424095, 51.5876417 ], [ 4.8424066, 51.5876668 ], [ 4.8423163, 51.5884427 ], [ 4.8423019, 51.5885657 ], [ 4.8420247, 51.5909318 ], [ 4.8419848, 51.5912723 ], [ 4.841953, 51.5915437 ], [ 4.8426296, 51.5914719 ], [ 4.8425956, 51.5915637 ], [ 4.8425588, 51.5916632 ], [ 4.8424745, 51.5918908 ], [ 4.842387, 51.592136 ], [ 4.842261, 51.5924888 ], [ 4.8422532, 51.5925334 ], [ 4.8421965, 51.5928515 ], [ 4.8420888, 51.5934556 ], [ 4.8419672, 51.5941586 ], [ 4.8419405, 51.5944504 ], [ 4.8419058, 51.5946201 ], [ 4.8418966, 51.5946217 ], [ 4.8417471, 51.5946483 ], [ 4.8420206, 51.5960269 ], [ 4.8418103, 51.5961022 ], [ 4.8417143, 51.5961365 ], [ 4.841559, 51.5961921 ], [ 4.8408328, 51.5964531 ], [ 4.8407427, 51.5964855 ], [ 4.8398286, 51.5966184 ], [ 4.8396314, 51.5966471 ], [ 4.8394829, 51.5966686 ], [ 4.8393414, 51.596689 ], [ 4.8393015, 51.5966947 ], [ 4.8382601, 51.5968451 ], [ 4.8374273, 51.5969655 ], [ 4.8374079, 51.5969683 ], [ 4.8373942, 51.5969703 ], [ 4.8360512, 51.5971685 ], [ 4.8360471, 51.5971579 ], [ 4.8354704, 51.59724 ], [ 4.8349834, 51.5973093 ], [ 4.8347227, 51.5973464 ], [ 4.8346289, 51.5973598 ], [ 4.8346269, 51.5973519 ], [ 4.8346044, 51.5973543 ], [ 4.8340727, 51.5974117 ], [ 4.8336204, 51.5974496 ], [ 4.8323519, 51.5975771 ], [ 4.8309924, 51.5976584 ], [ 4.829621, 51.5976969 ], [ 4.8283409, 51.5977162 ], [ 4.8249146, 51.5975453 ], [ 4.8227012, 51.5974259 ], [ 4.8225644, 51.5974185 ], [ 4.8218225, 51.5973785 ], [ 4.8196433, 51.5972788 ], [ 4.8191602, 51.597251 ], [ 4.818019, 51.5971854 ], [ 4.8141489, 51.5969627 ], [ 4.812388, 51.5968904 ], [ 4.8117555, 51.5980874 ], [ 4.8119504, 51.5983448 ], [ 4.8111173, 51.5986339 ], [ 4.8122367, 51.6001126 ], [ 4.8110062, 51.6002323 ], [ 4.8109798, 51.6004818 ], [ 4.810964, 51.6006317 ], [ 4.8098527, 51.6007691 ], [ 4.8097468, 51.6007891 ], [ 4.809736, 51.6009058 ], [ 4.809734, 51.6009276 ], [ 4.8093505, 51.6009698 ], [ 4.809081, 51.6009961 ], [ 4.8089148, 51.6010346 ], [ 4.8087913, 51.6010801 ], [ 4.8086992, 51.6011353 ], [ 4.80868, 51.6011463 ], [ 4.8086556, 51.6011584 ], [ 4.8086219, 51.6011891 ], [ 4.8085927, 51.6012167 ], [ 4.8085168, 51.6013578 ], [ 4.8084969, 51.6014998 ], [ 4.8084935, 51.6015469 ], [ 4.8084711, 51.6018556 ], [ 4.8084318, 51.6021746 ], [ 4.8084316, 51.6022329 ], [ 4.8084196, 51.6022695 ], [ 4.8083944, 51.602302 ], [ 4.8083538, 51.6023318 ], [ 4.8082974, 51.6023547 ], [ 4.8081189, 51.6023881 ], [ 4.8076521, 51.6024795 ], [ 4.807236, 51.602554 ], [ 4.8071843, 51.6025723 ], [ 4.8071454, 51.6025997 ], [ 4.8071214, 51.6026295 ], [ 4.8071077, 51.6026616 ], [ 4.8071067, 51.6026983 ], [ 4.8072893, 51.6031239 ], [ 4.8071624, 51.6033306 ], [ 4.8067261, 51.6039684 ], [ 4.8065572, 51.6042008 ], [ 4.8064753, 51.6043204 ], [ 4.8064584, 51.6043903 ], [ 4.8064791, 51.6047283 ], [ 4.8065865, 51.6060447 ], [ 4.8070318, 51.6115013 ], [ 4.8032305, 51.6122185 ], [ 4.8032115, 51.6122221 ], [ 4.7928791, 51.6144545 ], [ 4.7900711, 51.6150499 ], [ 4.7872128, 51.6156771 ], [ 4.7841891, 51.6163127 ], [ 4.7820125, 51.6167548 ], [ 4.7814155, 51.616908 ], [ 4.780881, 51.6170661 ], [ 4.7790949, 51.6177549 ], [ 4.7780388, 51.6181465 ], [ 4.777678, 51.6182803 ], [ 4.7759839, 51.6189178 ], [ 4.7755197, 51.6190979 ], [ 4.7754624, 51.6191208 ], [ 4.7755483, 51.6193446 ], [ 4.7755959, 51.6194684 ], [ 4.7756434, 51.6195922 ], [ 4.7756649, 51.6196373 ], [ 4.7756865, 51.6196823 ], [ 4.7757135, 51.6197336 ], [ 4.7757405, 51.6197849 ], [ 4.7757563, 51.619809 ], [ 4.775772, 51.6198332 ], [ 4.7758225, 51.6198858 ], [ 4.775873, 51.6199384 ], [ 4.7759581, 51.6200304 ], [ 4.7760433, 51.6201223 ], [ 4.7760592, 51.6201385 ], [ 4.7761205, 51.6202004 ], [ 4.7761818, 51.6202624 ], [ 4.7762364, 51.6203345 ], [ 4.776291, 51.6204065 ], [ 4.7763862, 51.6205208 ], [ 4.7764814, 51.620635 ], [ 4.7764696, 51.6206703 ], [ 4.7764578, 51.6207055 ], [ 4.7764499, 51.6207255 ], [ 4.776442, 51.6207454 ], [ 4.776429, 51.6207725 ], [ 4.7764161, 51.6207996 ], [ 4.7764092, 51.6208103 ], [ 4.7764024, 51.620821 ], [ 4.7763958, 51.6208313 ], [ 4.7763892, 51.6208416 ], [ 4.7763742, 51.6208597 ], [ 4.7763592, 51.6208779 ], [ 4.7763474, 51.62089 ], [ 4.7763356, 51.6209021 ], [ 4.7763141, 51.6209219 ], [ 4.7762926, 51.6209416 ], [ 4.7762775, 51.6209608 ], [ 4.7762624, 51.62098 ], [ 4.7762542, 51.6210131 ], [ 4.7762205, 51.6210377 ], [ 4.7761787, 51.6210672 ], [ 4.7762456, 51.6210822 ], [ 4.7763125, 51.6210972 ], [ 4.7763783, 51.6211214 ], [ 4.7764442, 51.6211455 ], [ 4.7764773, 51.6211701 ], [ 4.7765104, 51.6211946 ], [ 4.7764925, 51.6212734 ], [ 4.7766499, 51.621326 ], [ 4.7767726, 51.621372 ], [ 4.7768107, 51.6213847 ], [ 4.7768488, 51.6213974 ], [ 4.7768752, 51.6214062 ], [ 4.7769015, 51.6214151 ], [ 4.7765376, 51.6227324 ], [ 4.7764397, 51.6230754 ], [ 4.77952, 51.6239162 ], [ 4.7789316, 51.6247221 ], [ 4.7806512, 51.6257198 ], [ 4.7805008, 51.6261684 ], [ 4.7828042, 51.6267197 ], [ 4.7813336, 51.6286896 ], [ 4.7817573, 51.6294109 ], [ 4.7831991, 51.6295981 ], [ 4.7844908, 51.6303767 ], [ 4.7846146, 51.6317627 ], [ 4.7889403, 51.6323242 ], [ 4.7889127, 51.6344177 ], [ 4.7889066, 51.6344163 ], [ 4.7887457, 51.6343796 ], [ 4.7882723, 51.6342666 ], [ 4.7881617, 51.634247 ], [ 4.788248, 51.6344822 ], [ 4.7882435, 51.6347416 ], [ 4.7882688, 51.6347762 ], [ 4.7882907, 51.6348037 ], [ 4.7883339, 51.6348476 ], [ 4.7883795, 51.6348786 ], [ 4.7884801, 51.6349476 ], [ 4.7886513, 51.6350707 ], [ 4.7887246, 51.6351205 ], [ 4.7888883, 51.635261 ], [ 4.7891644, 51.6354741 ], [ 4.7891767, 51.6354884 ], [ 4.7893289, 51.6356648 ], [ 4.7890246, 51.6362937 ], [ 4.78791, 51.6367146 ], [ 4.787614, 51.6369589 ], [ 4.787541, 51.6370191 ], [ 4.787506, 51.637048 ], [ 4.7834367, 51.6353386 ], [ 4.7789096, 51.6334369 ], [ 4.7776492, 51.6329034 ], [ 4.7764961, 51.6324152 ], [ 4.7764282, 51.6323864 ], [ 4.7764076, 51.6323777 ], [ 4.7763539, 51.6323109 ], [ 4.7762297, 51.6322586 ], [ 4.775502, 51.6319518 ], [ 4.7751137, 51.6318415 ], [ 4.7724805, 51.6307467 ], [ 4.7695822, 51.6295099 ], [ 4.7695464, 51.6294833 ], [ 4.7695039, 51.6294438 ], [ 4.76947, 51.6294067 ], [ 4.7694496, 51.6293846 ], [ 4.7694195, 51.6293683 ], [ 4.7693904, 51.6293545 ], [ 4.7694034, 51.6293398 ], [ 4.7693787, 51.6293243 ], [ 4.7693555, 51.6293411 ], [ 4.7693219, 51.6293242 ], [ 4.7692979, 51.6293172 ], [ 4.769261, 51.6293096 ], [ 4.7691752, 51.6292896 ], [ 4.7681683, 51.6288664 ], [ 4.7680787, 51.6288922 ], [ 4.7679996, 51.6288626 ], [ 4.7678039, 51.6290457 ], [ 4.7678604, 51.6290693 ], [ 4.7678685, 51.6291354 ], [ 4.7678393, 51.6291925 ], [ 4.7677262, 51.6294138 ], [ 4.7674644, 51.62905 ], [ 4.7674273, 51.6290453 ], [ 4.7671953, 51.6290159 ], [ 4.7671134, 51.6290054 ], [ 4.766987, 51.6290558 ], [ 4.766777, 51.6291396 ], [ 4.7666284, 51.6291489 ], [ 4.7664536, 51.6292531 ], [ 4.7661615, 51.6292102 ], [ 4.7656863, 51.6291404 ], [ 4.7656253, 51.6293018 ], [ 4.7655459, 51.629669 ], [ 4.7654777, 51.6300363 ], [ 4.7654167, 51.6303299 ], [ 4.7653514, 51.6305974 ], [ 4.7652163, 51.6311335 ], [ 4.7650805, 51.6316647 ], [ 4.7649746, 51.6320778 ], [ 4.7649434, 51.6321991 ], [ 4.7648896, 51.6324078 ], [ 4.7647681, 51.632649 ], [ 4.7642304, 51.6335432 ], [ 4.7640867, 51.633714 ], [ 4.7633802, 51.634438 ], [ 4.7630281, 51.6347247 ], [ 4.7626522, 51.6350338 ], [ 4.7620811, 51.6354555 ], [ 4.7612726, 51.6360012 ], [ 4.760668, 51.6363361 ], [ 4.759988, 51.6366428 ], [ 4.759927, 51.6366667 ], [ 4.7595221, 51.6368259 ], [ 4.7590416, 51.6370131 ], [ 4.7587594, 51.6371209 ], [ 4.7586044, 51.6371778 ], [ 4.7583795, 51.637258 ], [ 4.75829, 51.6372894 ], [ 4.7580278, 51.6373753 ], [ 4.757746, 51.6374646 ], [ 4.7576189, 51.6375051 ], [ 4.7573538, 51.6375796 ], [ 4.7570169, 51.637675 ], [ 4.7566195, 51.6377871 ], [ 4.7564216, 51.6378405 ], [ 4.756313, 51.6378592 ], [ 4.7561674, 51.6378897 ], [ 4.7559087, 51.6379419 ], [ 4.7557674, 51.6379697 ], [ 4.7555661, 51.6380076 ], [ 4.755393, 51.6380399 ], [ 4.7552206, 51.6380642 ], [ 4.7549188, 51.6381076 ], [ 4.7546126, 51.6381484 ], [ 4.7542644, 51.6381938 ], [ 4.7539324, 51.6382347 ], [ 4.7532196, 51.6383229 ], [ 4.7528147, 51.6383724 ], [ 4.752571, 51.6384026 ], [ 4.7521893, 51.6384503 ], [ 4.7517724, 51.638501 ], [ 4.7515878, 51.638524 ], [ 4.7514576, 51.6385403 ], [ 4.7510871, 51.6385901 ], [ 4.7508984, 51.6386166 ], [ 4.7507227, 51.6386425 ], [ 4.7505452, 51.6386711 ], [ 4.7503858, 51.638699 ], [ 4.7501596, 51.6387397 ], [ 4.7499376, 51.6387799 ], [ 4.7497852, 51.6388115 ], [ 4.7494983, 51.6388735 ], [ 4.7492885, 51.63892 ], [ 4.7490291, 51.6389796 ], [ 4.7488442, 51.6390227 ], [ 4.7486859, 51.6390629 ], [ 4.748418, 51.6391318 ], [ 4.7482272, 51.6391813 ], [ 4.7479075, 51.6392794 ], [ 4.7477459, 51.6393293 ], [ 4.7475074, 51.6394064 ], [ 4.7472664, 51.6394852 ], [ 4.7471212, 51.6395328 ], [ 4.7470639, 51.639553 ], [ 4.746889, 51.6396233 ], [ 4.7465715, 51.6397519 ], [ 4.7462745, 51.6398728 ], [ 4.7460066, 51.6399834 ], [ 4.7458598, 51.6400449 ], [ 4.7457046, 51.6401113 ], [ 4.7455665, 51.6401749 ], [ 4.7453252, 51.6402863 ], [ 4.7451241, 51.6403808 ], [ 4.7441079, 51.6408665 ], [ 4.74369, 51.641073 ], [ 4.743451, 51.641191 ], [ 4.7430081, 51.6414094 ], [ 4.742657, 51.6415636 ], [ 4.7423395, 51.641698 ], [ 4.7418977, 51.6418732 ], [ 4.7414339, 51.6420423 ], [ 4.7411256, 51.6421498 ], [ 4.7407441, 51.6422719 ], [ 4.7405622, 51.6423282 ], [ 4.7403414, 51.6423955 ], [ 4.7401196, 51.6424611 ], [ 4.7400501, 51.6424792 ], [ 4.7400013, 51.6424911 ], [ 4.739558, 51.6425992 ], [ 4.7392588, 51.6426653 ], [ 4.7390798, 51.6427092 ], [ 4.7388093, 51.6427647 ], [ 4.7385287, 51.6428151 ], [ 4.7380812, 51.6428919 ], [ 4.7376281, 51.6429658 ], [ 4.7372983, 51.6430142 ], [ 4.7370769, 51.6430431 ], [ 4.736911, 51.6430648 ], [ 4.7364982, 51.6430994 ], [ 4.7361151, 51.6431263 ], [ 4.7356126, 51.6431539 ], [ 4.7351065, 51.6431775 ], [ 4.7346111, 51.6431869 ], [ 4.7341561, 51.6431938 ], [ 4.733928, 51.643198 ], [ 4.7335907, 51.6431847 ], [ 4.7334083, 51.6431795 ], [ 4.7332198, 51.6431675 ], [ 4.7328939, 51.6431463 ], [ 4.7325462, 51.6431226 ], [ 4.7322671, 51.6431006 ], [ 4.7320304, 51.6430757 ], [ 4.7318402, 51.6430563 ], [ 4.7313889, 51.6429939 ], [ 4.7298577, 51.6427331 ], [ 4.7292089, 51.6426226 ], [ 4.7284994, 51.6424948 ], [ 4.7278101, 51.6423745 ], [ 4.7270539, 51.6422412 ], [ 4.7262301, 51.6420956 ], [ 4.725121, 51.6418993 ], [ 4.723947, 51.6416936 ], [ 4.7231413, 51.641551 ], [ 4.7228518, 51.6414997 ], [ 4.7219155, 51.6413346 ], [ 4.7214958, 51.6412679 ], [ 4.7207519, 51.6411402 ], [ 4.7195935, 51.640938 ], [ 4.7193197, 51.6408902 ], [ 4.7176628, 51.6405991 ], [ 4.7149036, 51.6400976 ], [ 4.713082, 51.6397657 ], [ 4.7117494, 51.6395377 ], [ 4.7094277, 51.639134 ], [ 4.7082564, 51.638924 ], [ 4.7082437, 51.6389217 ], [ 4.7074349, 51.6387769 ], [ 4.7053268, 51.6384163 ], [ 4.7045763, 51.6382863 ], [ 4.7043336, 51.6382461 ], [ 4.7036948, 51.6381583 ], [ 4.70319, 51.6381187 ], [ 4.7027186, 51.6380957 ], [ 4.7021023, 51.638074 ], [ 4.7017105, 51.638068 ], [ 4.7011402, 51.6380645 ], [ 4.700457, 51.6380669 ], [ 4.7001395, 51.638069 ], [ 4.6994658, 51.6380734 ], [ 4.6994541, 51.6380735 ], [ 4.6992387, 51.6380736 ], [ 4.6991223, 51.6380737 ], [ 4.6991089, 51.6380736 ], [ 4.6990597, 51.6380732 ], [ 4.6989013, 51.638072 ], [ 4.6989686, 51.6379765 ], [ 4.6989207, 51.637976 ], [ 4.6987458, 51.6379744 ], [ 4.698738, 51.6379747 ], [ 4.7006791, 51.6352375 ], [ 4.702205, 51.6330197 ], [ 4.7038913, 51.6305807 ], [ 4.7056438, 51.6281238 ], [ 4.7061025, 51.6274536 ], [ 4.7074233, 51.6255342 ], [ 4.7094902, 51.6225504 ], [ 4.7115903, 51.6195461 ], [ 4.7136419, 51.6165621 ], [ 4.7149473, 51.61469 ], [ 4.7150392, 51.6145576 ], [ 4.7163652, 51.6126482 ], [ 4.7177017, 51.610708 ], [ 4.7177718, 51.6106063 ], [ 4.7179515, 51.6103496 ], [ 4.718044, 51.6102175 ], [ 4.71861, 51.6094317 ], [ 4.7195706, 51.6079886 ], [ 4.7204026, 51.6068604 ], [ 4.7210707, 51.6059258 ], [ 4.7216645, 51.6050641 ], [ 4.7223924, 51.6040429 ], [ 4.7227247, 51.6035619 ], [ 4.7233337, 51.6028486 ], [ 4.723351, 51.6028283 ], [ 4.7234988, 51.6026552 ], [ 4.7238551, 51.6022917 ], [ 4.7238555, 51.6022913 ], [ 4.7240782, 51.6020837 ], [ 4.7245202, 51.6016352 ], [ 4.7249021, 51.6013263 ], [ 4.7252813, 51.6009846 ], [ 4.725599, 51.600732 ], [ 4.7259845, 51.6004135 ], [ 4.7268062, 51.5998225 ], [ 4.7271503, 51.5995816 ], [ 4.7275535, 51.5993179 ], [ 4.7280097, 51.5990303 ], [ 4.728141, 51.5990668 ], [ 4.7284159, 51.5989181 ], [ 4.7288242, 51.5986744 ], [ 4.7294612, 51.5983211 ], [ 4.7300882, 51.5979678 ], [ 4.7304528, 51.597794 ], [ 4.7307742, 51.5976395 ], [ 4.7315819, 51.5972659 ], [ 4.7319644, 51.597082 ], [ 4.7325405, 51.5968391 ], [ 4.7332885, 51.5965494 ], [ 4.7336305, 51.5964149 ], [ 4.7339754, 51.5962834 ], [ 4.7343232, 51.5961547 ], [ 4.7346737, 51.5960291 ], [ 4.735027, 51.5959065 ], [ 4.735383, 51.5957869 ], [ 4.7357415, 51.5956703 ], [ 4.7361026, 51.5955568 ], [ 4.7364661, 51.5954464 ], [ 4.736832, 51.5953391 ], [ 4.7372003, 51.5952349 ], [ 4.7375708, 51.5951339 ], [ 4.7379435, 51.595036 ], [ 4.7383183, 51.5949413 ], [ 4.7386951, 51.5948499 ], [ 4.7390739, 51.5947616 ], [ 4.7430092, 51.5938944 ], [ 4.7424019, 51.5934372 ], [ 4.7445644, 51.5931266 ], [ 4.7447933, 51.5930972 ], [ 4.7450224, 51.5930684 ], [ 4.7452517, 51.5930404 ], [ 4.7454812, 51.5930131 ], [ 4.745711, 51.5929864 ], [ 4.7459409, 51.5929604 ], [ 4.746171, 51.5929351 ], [ 4.7464013, 51.5929104 ], [ 4.7466319, 51.5928865 ], [ 4.7468626, 51.5928632 ], [ 4.7470934, 51.5928407 ], [ 4.7473245, 51.5928188 ], [ 4.7475557, 51.5927976 ], [ 4.747787, 51.592777 ], [ 4.7480185, 51.5927572 ], [ 4.7482502, 51.5927381 ], [ 4.7473459, 51.5927958 ], [ 4.7465192, 51.5928357 ], [ 4.745529, 51.592848 ], [ 4.7425578, 51.5927526 ], [ 4.7419886, 51.5927264 ], [ 4.741693, 51.5927095 ], [ 4.7414141, 51.5926936 ], [ 4.7405219, 51.5926303 ], [ 4.7378024, 51.5924221 ], [ 4.7370916, 51.5923677 ], [ 4.7372115, 51.5925272 ], [ 4.7371767, 51.5925247 ], [ 4.7362194, 51.5924547 ], [ 4.7361871, 51.5924457 ], [ 4.7354312, 51.5923782 ], [ 4.7347049, 51.5923273 ], [ 4.7342503, 51.5922955 ], [ 4.7340269, 51.5922902 ], [ 4.7336036, 51.5922531 ], [ 4.7325092, 51.5921765 ], [ 4.7324841, 51.5921692 ], [ 4.7313583, 51.5920945 ], [ 4.7313006, 51.5921003 ], [ 4.7309863, 51.5920779 ], [ 4.7308537, 51.5920684 ], [ 4.7304307, 51.5920401 ], [ 4.7297497, 51.5919887 ], [ 4.72842, 51.5918884 ], [ 4.7282352, 51.5918744 ], [ 4.7281501, 51.5918643 ], [ 4.7280391, 51.5918511 ], [ 4.7280396, 51.5918484 ], [ 4.7278959, 51.5918375 ], [ 4.726143, 51.5917045 ], [ 4.7247371, 51.5916089 ], [ 4.724151, 51.5915574 ], [ 4.7240333, 51.5915506 ], [ 4.7236477, 51.5915226 ], [ 4.7198673, 51.5912986 ], [ 4.7087163, 51.5904832 ], [ 4.70706, 51.5903853 ], [ 4.704402, 51.5901751 ], [ 4.7035872, 51.5901225 ], [ 4.7030792, 51.5900897 ], [ 4.7016337, 51.5899963 ], [ 4.6973149, 51.5896668 ], [ 4.6942425, 51.5894454 ], [ 4.6913644, 51.5889527 ], [ 4.6892893, 51.5885116 ], [ 4.6860063, 51.5877118 ] ] ] } }
]
}
