{
"type": "FeatureCollection",
"name": "brescia_it",
"crs": { "type": "name", "properties": { "name": "urn:ogc:def:crs:OGC:1.3:CRS84" } },
"features": [
{ "type": "Feature", "properties": { "bbox_west": 10.1470684, "bbox_south": 45.4807171, "bbox_east": 10.3002186, "bbox_north": 45.5899752, "place_id": 74932802, "osm_type": "relation", "osm_id": 45144, "lat": 45.5398022, "lon": 10.2200214, "class": "boundary", "type": "administrative", "place_rank": 16, "importance": 0.68055191524145242, "addresstype": "city", "name": "Brescia", "display_name": "Brescia, Lombardy, 25121-25136, Italy" }, "geometry": { "type": "Polygon", "coordinates": [ [ [ 10.1470684, 45.5405034 ], [ 10.1472051, 45.5405106 ], [ 10.1473474, 45.5405378 ], [ 10.1474619, 45.5405709 ], [ 10.1476053, 45.5406368 ], [ 10.1476715, 45.5407219 ], [ 10.1481669, 45.5405793 ], [ 10.1482713, 45.5405234 ], [ 10.1519764, 45.5395849 ], [ 10.1537379, 45.5393163 ], [ 10.1540015, 45.5398609 ], [ 10.1557056, 45.5395636 ], [ 10.1553293, 45.5391235 ], [ 10.1560009, 45.5388356 ], [ 10.1559743, 45.5387472 ], [ 10.1565757, 45.5385992 ], [ 10.1572176, 45.5384116 ], [ 10.1578112, 45.5382333 ], [ 10.1581219, 45.5381132 ], [ 10.158368, 45.538023 ], [ 10.1597124, 45.53753 ], [ 10.1595078, 45.5372519 ], [ 10.1605991, 45.5367864 ], [ 10.1615207, 45.5363704 ], [ 10.1628077, 45.5358151 ], [ 10.1633024, 45.536313 ], [ 10.1636029, 45.5365564 ], [ 10.164072, 45.5369104 ], [ 10.1641263, 45.5369371 ], [ 10.1650954, 45.5365667 ], [ 10.1651848, 45.5365645 ], [ 10.1665873, 45.5380746 ], [ 10.1666308, 45.538101 ], [ 10.1667274, 45.5381185 ], [ 10.166854, 45.5381255 ], [ 10.1670023, 45.5381068 ], [ 10.1674705, 45.5379353 ], [ 10.1683633, 45.5376414 ], [ 10.1692497, 45.5382869 ], [ 10.1697658, 45.5386376 ], [ 10.1705523, 45.539227 ], [ 10.1711073, 45.5396451 ], [ 10.1728767, 45.5409298 ], [ 10.1731735, 45.5411312 ], [ 10.1736094, 45.5415495 ], [ 10.1744919, 45.5423857 ], [ 10.1745773, 45.5424669 ], [ 10.1756266, 45.5438107 ], [ 10.1764201, 45.544619 ], [ 10.1776292, 45.5458102 ], [ 10.1777648, 45.5460034 ], [ 10.1778632, 45.5460129 ], [ 10.1785438, 45.546072 ], [ 10.1789969, 45.5460898 ], [ 10.1794945, 45.5460963 ], [ 10.179917, 45.5460596 ], [ 10.1802401, 45.5460206 ], [ 10.180595, 45.5459556 ], [ 10.1810906, 45.5458166 ], [ 10.1814186, 45.5457094 ], [ 10.1819978, 45.5454408 ], [ 10.1783872, 45.5415626 ], [ 10.1777076, 45.5408507 ], [ 10.1757392, 45.5386705 ], [ 10.1748552, 45.5377833 ], [ 10.1742194, 45.5370931 ], [ 10.1737789, 45.5367349 ], [ 10.1735707, 45.5365656 ], [ 10.1731234, 45.5360224 ], [ 10.1727135, 45.535394 ], [ 10.1720248, 45.5346607 ], [ 10.1709126, 45.5335902 ], [ 10.1698639, 45.5324387 ], [ 10.1693089, 45.5318714 ], [ 10.1687599, 45.5311253 ], [ 10.1679924, 45.5303514 ], [ 10.1673257, 45.5297362 ], [ 10.1665746, 45.5289699 ], [ 10.1656032, 45.5280858 ], [ 10.1650571, 45.5274748 ], [ 10.1649057, 45.5272334 ], [ 10.1648056, 45.5271106 ], [ 10.1647059, 45.5268504 ], [ 10.1644583, 45.5263533 ], [ 10.1643392, 45.5261001 ], [ 10.164089, 45.5256374 ], [ 10.1638223, 45.5253238 ], [ 10.1633281, 45.5250217 ], [ 10.1628338, 45.5248776 ], [ 10.1622717, 45.524757 ], [ 10.1613426, 45.5246698 ], [ 10.1606123, 45.5246014 ], [ 10.1602304, 45.5245432 ], [ 10.1582535, 45.524292 ], [ 10.157587, 45.5241611 ], [ 10.1567499, 45.5239561 ], [ 10.1562551, 45.5237822 ], [ 10.1558285, 45.5236029 ], [ 10.155378, 45.5233736 ], [ 10.1550346, 45.5231227 ], [ 10.1548272, 45.5230032 ], [ 10.154653, 45.5227574 ], [ 10.154493, 45.5222435 ], [ 10.1544273, 45.5218889 ], [ 10.1544136, 45.5215339 ], [ 10.1544348, 45.5212931 ], [ 10.1544686, 45.5210362 ], [ 10.1545601, 45.5207305 ], [ 10.1546073, 45.5204918 ], [ 10.1546381, 45.520244 ], [ 10.1546749, 45.5199687 ], [ 10.1546892, 45.5197142 ], [ 10.1546947, 45.5193407 ], [ 10.1545289, 45.5188634 ], [ 10.1543433, 45.5183703 ], [ 10.1541576, 45.5178749 ], [ 10.1536493, 45.5167044 ], [ 10.1533284, 45.5159582 ], [ 10.1530276, 45.5152371 ], [ 10.1527613, 45.5146164 ], [ 10.1526878, 45.514356 ], [ 10.1526523, 45.5142119 ], [ 10.1525812, 45.5137497 ], [ 10.1525079, 45.5131799 ], [ 10.1525257, 45.512854 ], [ 10.1525293, 45.5127879 ], [ 10.1525929, 45.5122305 ], [ 10.1526187, 45.5115681 ], [ 10.1526433, 45.5111761 ], [ 10.1526548, 45.5104565 ], [ 10.1526534, 45.509902 ], [ 10.1525813, 45.5093917 ], [ 10.1525041, 45.5089457 ], [ 10.1522646, 45.5075395 ], [ 10.1526147, 45.5075359 ], [ 10.15266, 45.5072429 ], [ 10.1527311, 45.5069677 ], [ 10.1530893, 45.50664 ], [ 10.1534575, 45.5064158 ], [ 10.1537927, 45.5061379 ], [ 10.1542443, 45.5060028 ], [ 10.1550946, 45.5057962 ], [ 10.1555206, 45.5056613 ], [ 10.1559009, 45.5055585 ], [ 10.1561502, 45.5053849 ], [ 10.1562609, 45.5051633 ], [ 10.1563036, 45.5049063 ], [ 10.1562781, 45.5046771 ], [ 10.155412, 45.5039478 ], [ 10.1541599, 45.5032043 ], [ 10.1537056, 45.5028939 ], [ 10.1535346, 45.5026706 ], [ 10.1535755, 45.5024002 ], [ 10.1536002, 45.5012613 ], [ 10.1540112, 45.5012481 ], [ 10.1543799, 45.5012084 ], [ 10.1547392, 45.5010967 ], [ 10.1550902, 45.5011247 ], [ 10.1554671, 45.5010894 ], [ 10.1555987, 45.501034 ], [ 10.1558931, 45.5009546 ], [ 10.1564152, 45.5008998 ], [ 10.1579475, 45.5008032 ], [ 10.1568058, 45.4991946 ], [ 10.1589872, 45.4985289 ], [ 10.1586389, 45.4981634 ], [ 10.1600955, 45.4978065 ], [ 10.1611897, 45.4975704 ], [ 10.1623071, 45.49737 ], [ 10.1623349, 45.4972437 ], [ 10.1631883, 45.4971225 ], [ 10.1636649, 45.4969601 ], [ 10.1634516, 45.4967778 ], [ 10.1649065, 45.4963444 ], [ 10.1655252, 45.4962435 ], [ 10.1654853, 45.4961719 ], [ 10.1665479, 45.4960351 ], [ 10.1667492, 45.4964066 ], [ 10.1679603, 45.4961781 ], [ 10.1690812, 45.4959956 ], [ 10.1705862, 45.4957417 ], [ 10.1706701, 45.4960874 ], [ 10.1708271, 45.4964818 ], [ 10.1714978, 45.4963444 ], [ 10.1720104, 45.4962221 ], [ 10.1721711, 45.4964905 ], [ 10.1729518, 45.4962575 ], [ 10.173489, 45.4960134 ], [ 10.1736616, 45.4959261 ], [ 10.1737193, 45.495777 ], [ 10.1735585, 45.4955851 ], [ 10.1731596, 45.4950177 ], [ 10.1740583, 45.4946934 ], [ 10.1743775, 45.4953472 ], [ 10.1754972, 45.4951106 ], [ 10.1749854, 45.4941933 ], [ 10.1750153, 45.494094 ], [ 10.1752223, 45.4939703 ], [ 10.1754191, 45.4938918 ], [ 10.1756272, 45.4936691 ], [ 10.1761747, 45.4932269 ], [ 10.1763376, 45.4934458 ], [ 10.176476, 45.4936379 ], [ 10.1765647, 45.4937601 ], [ 10.17657, 45.4938484 ], [ 10.1771482, 45.4937299 ], [ 10.1772166, 45.4937112 ], [ 10.177228, 45.4936436 ], [ 10.1771055, 45.4932173 ], [ 10.1770633, 45.4931098 ], [ 10.1769644, 45.4930478 ], [ 10.1767296, 45.4929107 ], [ 10.1764143, 45.4926709 ], [ 10.176053, 45.492067 ], [ 10.1759105, 45.4913709 ], [ 10.1774866, 45.4910847 ], [ 10.1783239, 45.490887 ], [ 10.179221, 45.4914853 ], [ 10.1804181, 45.4923505 ], [ 10.1809826, 45.4928802 ], [ 10.1814029, 45.4933934 ], [ 10.1816125, 45.4935488 ], [ 10.1824398, 45.4940938 ], [ 10.1841105, 45.4935859 ], [ 10.1832294, 45.4922269 ], [ 10.1867334, 45.4911959 ], [ 10.1872571, 45.4919105 ], [ 10.189588, 45.4923723 ], [ 10.1891702, 45.4912155 ], [ 10.1924885, 45.4905643 ], [ 10.193419, 45.4926563 ], [ 10.193694, 45.4925004 ], [ 10.1952655, 45.4920744 ], [ 10.1956728, 45.4919712 ], [ 10.1954696, 45.4915142 ], [ 10.1942379, 45.4880347 ], [ 10.1962763, 45.4873068 ], [ 10.1948599, 45.4843198 ], [ 10.1943324, 45.4832722 ], [ 10.1967767, 45.4832151 ], [ 10.197723, 45.4831871 ], [ 10.1984549, 45.4830804 ], [ 10.1991885, 45.4829062 ], [ 10.1997536, 45.4827787 ], [ 10.2004428, 45.4842027 ], [ 10.1989524, 45.4842903 ], [ 10.1997871, 45.4860143 ], [ 10.2003996, 45.4859313 ], [ 10.2009529, 45.485849 ], [ 10.201662, 45.4857245 ], [ 10.2021995, 45.4856513 ], [ 10.202324, 45.4855645 ], [ 10.2027683, 45.4853978 ], [ 10.2033979, 45.4852202 ], [ 10.2037326, 45.4850861 ], [ 10.2043463, 45.4848366 ], [ 10.2047452, 45.4849404 ], [ 10.2051144, 45.485076 ], [ 10.2052571, 45.485169 ], [ 10.2054843, 45.4853242 ], [ 10.2057616, 45.4854247 ], [ 10.2059168, 45.4854276 ], [ 10.2059994, 45.4860748 ], [ 10.206103, 45.4862807 ], [ 10.2060743, 45.4864341 ], [ 10.2061136, 45.4865551 ], [ 10.2060735, 45.4866231 ], [ 10.2061761, 45.486784 ], [ 10.2061127, 45.4869602 ], [ 10.2062057, 45.4871978 ], [ 10.206294, 45.4878854 ], [ 10.2082877, 45.4877653 ], [ 10.2083928, 45.4883402 ], [ 10.2088415, 45.4895731 ], [ 10.2088875, 45.4897066 ], [ 10.2082033, 45.4899294 ], [ 10.2086942, 45.4907296 ], [ 10.208848, 45.490902 ], [ 10.2090442, 45.4910671 ], [ 10.2091733, 45.4912798 ], [ 10.2094836, 45.4916946 ], [ 10.2097831, 45.4916357 ], [ 10.2100661, 45.4923775 ], [ 10.2106028, 45.4938345 ], [ 10.2112371, 45.4953624 ], [ 10.2116816, 45.4965413 ], [ 10.2119018, 45.4969665 ], [ 10.212085, 45.4972256 ], [ 10.2121826, 45.4974496 ], [ 10.2122867, 45.4979751 ], [ 10.2125722, 45.4986786 ], [ 10.2126352, 45.498858 ], [ 10.2129148, 45.4992871 ], [ 10.2131851, 45.4995812 ], [ 10.2137161, 45.5000211 ], [ 10.2138469, 45.5002222 ], [ 10.2141369, 45.5010608 ], [ 10.2143179, 45.5015944 ], [ 10.2142674, 45.5019955 ], [ 10.2142398, 45.5024233 ], [ 10.214298, 45.5026747 ], [ 10.2144449, 45.5033302 ], [ 10.2144689, 45.50333 ], [ 10.2155483, 45.50316 ], [ 10.2156027, 45.5031514 ], [ 10.2154151, 45.5026898 ], [ 10.2185764, 45.5023006 ], [ 10.2191021, 45.5044192 ], [ 10.2204046, 45.5041982 ], [ 10.2225093, 45.5038562 ], [ 10.2219998, 45.5028625 ], [ 10.2216186, 45.5018855 ], [ 10.2214109, 45.5013072 ], [ 10.2229764, 45.5009709 ], [ 10.2248943, 45.5005812 ], [ 10.2250901, 45.5009752 ], [ 10.2253078, 45.5012789 ], [ 10.2255936, 45.5017664 ], [ 10.2260414, 45.5016085 ], [ 10.2263984, 45.5014697 ], [ 10.227116, 45.5012864 ], [ 10.2284338, 45.5008177 ], [ 10.2300439, 45.5002558 ], [ 10.2306193, 45.5011092 ], [ 10.2315094, 45.5008386 ], [ 10.2327913, 45.5004872 ], [ 10.2336325, 45.5003251 ], [ 10.2347847, 45.5002631 ], [ 10.234588, 45.4999727 ], [ 10.2343943, 45.4996733 ], [ 10.2340171, 45.4989618 ], [ 10.2348455, 45.4987998 ], [ 10.2356153, 45.5004161 ], [ 10.2389152, 45.4998718 ], [ 10.2393574, 45.5015727 ], [ 10.2412535, 45.5014351 ], [ 10.2420106, 45.5015213 ], [ 10.2425576, 45.5015109 ], [ 10.2433274, 45.5003594 ], [ 10.2438662, 45.4991789 ], [ 10.2440414, 45.4984884 ], [ 10.2443754, 45.4984712 ], [ 10.2448918, 45.4976555 ], [ 10.2458858, 45.4957949 ], [ 10.2492578, 45.4901324 ], [ 10.251188, 45.4875774 ], [ 10.2514924, 45.4869485 ], [ 10.2519585, 45.4858948 ], [ 10.2525, 45.4850652 ], [ 10.2540959, 45.4825274 ], [ 10.2546549, 45.4822017 ], [ 10.2552723, 45.4808313 ], [ 10.2554281, 45.4807171 ], [ 10.2573575, 45.482397 ], [ 10.2583751, 45.483219 ], [ 10.2596519, 45.4842862 ], [ 10.2599092, 45.4845033 ], [ 10.2607087, 45.4851945 ], [ 10.2609064, 45.4853582 ], [ 10.2631427, 45.4872288 ], [ 10.2643404, 45.4881966 ], [ 10.2644239, 45.4882641 ], [ 10.2652288, 45.4889145 ], [ 10.2653998, 45.4890527 ], [ 10.2656748, 45.4892677 ], [ 10.2661792, 45.4896528 ], [ 10.266796, 45.4899312 ], [ 10.267373, 45.4902089 ], [ 10.2676549, 45.4903885 ], [ 10.2680173, 45.4905344 ], [ 10.2683128, 45.4907474 ], [ 10.2687186, 45.4910558 ], [ 10.2692201, 45.4914939 ], [ 10.2694716, 45.4917354 ], [ 10.2694994, 45.4917681 ], [ 10.2698709, 45.4921506 ], [ 10.2702938, 45.4926108 ], [ 10.2706289, 45.4929763 ], [ 10.2710593, 45.4934167 ], [ 10.2714857, 45.4937834 ], [ 10.2715233, 45.4937535 ], [ 10.2721542, 45.4931868 ], [ 10.272438, 45.4929579 ], [ 10.2727962, 45.4925873 ], [ 10.2731189, 45.4923608 ], [ 10.2733907, 45.49217 ], [ 10.2743907, 45.4913576 ], [ 10.2746633, 45.4911344 ], [ 10.2748362, 45.4910001 ], [ 10.2749477, 45.4910848 ], [ 10.2757497, 45.4916181 ], [ 10.2758634, 45.4916897 ], [ 10.2761503, 45.4918705 ], [ 10.2765551, 45.4921255 ], [ 10.2766239, 45.4921891 ], [ 10.2767096, 45.4921823 ], [ 10.2768307, 45.4921616 ], [ 10.2784741, 45.4917486 ], [ 10.2793451, 45.4915203 ], [ 10.2794539, 45.4914932 ], [ 10.2795689, 45.491489 ], [ 10.2796583, 45.4915182 ], [ 10.2797077, 45.4915488 ], [ 10.280139, 45.4918156 ], [ 10.280336, 45.4918957 ], [ 10.2808636, 45.4921564 ], [ 10.2811024, 45.4922744 ], [ 10.2813088, 45.4924083 ], [ 10.2813903, 45.4924669 ], [ 10.2815329, 45.4927036 ], [ 10.2818335, 45.4931671 ], [ 10.2819645, 45.4933088 ], [ 10.2821061, 45.4933721 ], [ 10.282243, 45.4934023 ], [ 10.2825257, 45.4934045 ], [ 10.2828122, 45.4934283 ], [ 10.2830879, 45.4934724 ], [ 10.2837029, 45.4936368 ], [ 10.2840983, 45.4937257 ], [ 10.2842854, 45.4937621 ], [ 10.2845667, 45.4934906 ], [ 10.2852317, 45.4939544 ], [ 10.2857907, 45.4944071 ], [ 10.2867018, 45.4950719 ], [ 10.2881763, 45.4959599 ], [ 10.289723, 45.4971396 ], [ 10.2901835, 45.4970578 ], [ 10.2909108, 45.4970271 ], [ 10.2916619, 45.4969241 ], [ 10.2924134, 45.4975322 ], [ 10.2927713, 45.4977891 ], [ 10.2930921, 45.4980375 ], [ 10.2935476, 45.4985049 ], [ 10.2945144, 45.4995021 ], [ 10.2953126, 45.5001906 ], [ 10.2931025, 45.5022634 ], [ 10.2931403, 45.5024475 ], [ 10.2933166, 45.5032286 ], [ 10.293431, 45.5041004 ], [ 10.2940186, 45.5059846 ], [ 10.2945164, 45.5078317 ], [ 10.2946322, 45.5082815 ], [ 10.295105, 45.5099432 ], [ 10.295118, 45.5099816 ], [ 10.2954185, 45.510867 ], [ 10.2960928, 45.5130188 ], [ 10.2965364, 45.5139387 ], [ 10.2971771, 45.5156785 ], [ 10.2988524, 45.5152685 ], [ 10.2991556, 45.5159514 ], [ 10.2992538, 45.5162251 ], [ 10.299358, 45.5166017 ], [ 10.2995467, 45.5170965 ], [ 10.299629, 45.5172604 ], [ 10.2998312, 45.5174044 ], [ 10.3000222, 45.5181144 ], [ 10.3001231, 45.5184889 ], [ 10.3002186, 45.5190283 ], [ 10.3001932, 45.5193011 ], [ 10.2998157, 45.5194205 ], [ 10.2995498, 45.5194536 ], [ 10.2992708, 45.5194846 ], [ 10.2994994, 45.5207577 ], [ 10.2988277, 45.5208234 ], [ 10.2988183, 45.5209632 ], [ 10.2988816, 45.5211457 ], [ 10.2989846, 45.5213506 ], [ 10.2989147, 45.521663 ], [ 10.298874, 45.5220965 ], [ 10.2988455, 45.5223739 ], [ 10.2988846, 45.5225018 ], [ 10.2984205, 45.5225442 ], [ 10.2974181, 45.5226554 ], [ 10.2968151, 45.5227362 ], [ 10.2960858, 45.5229653 ], [ 10.2962051, 45.5231745 ], [ 10.2964835, 45.5232466 ], [ 10.2968161, 45.5232745 ], [ 10.2971452, 45.5232933 ], [ 10.2973206, 45.5239051 ], [ 10.2954116, 45.5243092 ], [ 10.2955964, 45.5250331 ], [ 10.2952083, 45.5249967 ], [ 10.294693, 45.5250032 ], [ 10.2945741, 45.5250047 ], [ 10.2941549, 45.5250259 ], [ 10.2938144, 45.5250692 ], [ 10.2935576, 45.5250747 ], [ 10.2933718, 45.5250633 ], [ 10.293085, 45.5250463 ], [ 10.2936717, 45.5263331 ], [ 10.2941541, 45.5273648 ], [ 10.2945049, 45.5280889 ], [ 10.2948107, 45.5287082 ], [ 10.2951604, 45.529391 ], [ 10.2952534, 45.529715 ], [ 10.2953529, 45.5300345 ], [ 10.2954638, 45.5306676 ], [ 10.2954483, 45.5309404 ], [ 10.2939584, 45.5315868 ], [ 10.2938307, 45.5316777 ], [ 10.2937012, 45.5319543 ], [ 10.2935934, 45.5320632 ], [ 10.2934398, 45.5321614 ], [ 10.2931939, 45.5322172 ], [ 10.2930157, 45.5323706 ], [ 10.2929265, 45.5325687 ], [ 10.2928098, 45.5325863 ], [ 10.2926683, 45.5326499 ], [ 10.2925753, 45.5327037 ], [ 10.2925208, 45.5328601 ], [ 10.2923671, 45.5329537 ], [ 10.292186, 45.5329972 ], [ 10.2919665, 45.533064 ], [ 10.2916237, 45.53327 ], [ 10.2914471, 45.5333638 ], [ 10.2913107, 45.5333746 ], [ 10.2911359, 45.5334089 ], [ 10.2910365, 45.5334651 ], [ 10.2909938, 45.5335756 ], [ 10.2909444, 45.5336747 ], [ 10.2907411, 45.5337414 ], [ 10.2906314, 45.5337794 ], [ 10.2905194, 45.5338519 ], [ 10.2904665, 45.5339442 ], [ 10.290387, 45.5340161 ], [ 10.2901872, 45.5342133 ], [ 10.290034, 45.5343298 ], [ 10.2899614, 45.5344154 ], [ 10.2898728, 45.5345128 ], [ 10.2897697, 45.534553 ], [ 10.2895974, 45.5345575 ], [ 10.2894888, 45.5346367 ], [ 10.2894071, 45.5347477 ], [ 10.2892954, 45.5348315 ], [ 10.2891771, 45.5349155 ], [ 10.2891178, 45.5350125 ], [ 10.2891503, 45.5351358 ], [ 10.2891519, 45.5351976 ], [ 10.2890025, 45.5352086 ], [ 10.288913, 45.5352692 ], [ 10.2888218, 45.5355155 ], [ 10.2886828, 45.5356776 ], [ 10.2885718, 45.5357889 ], [ 10.2884334, 45.5358479 ], [ 10.2881774, 45.5360161 ], [ 10.2879775, 45.5360873 ], [ 10.2877365, 45.5362025 ], [ 10.2875749, 45.5362481 ], [ 10.2872148, 45.5362892 ], [ 10.2868121, 45.5363194 ], [ 10.2865721, 45.5363544 ], [ 10.2861877, 45.5364624 ], [ 10.2858557, 45.5365856 ], [ 10.2855513, 45.5366443 ], [ 10.2852371, 45.5366986 ], [ 10.285009, 45.5366878 ], [ 10.2847893, 45.5366218 ], [ 10.2842752, 45.5380049 ], [ 10.2840628, 45.5383511 ], [ 10.2838677, 45.5387339 ], [ 10.2837638, 45.5389917 ], [ 10.2837155, 45.5391366 ], [ 10.2836899, 45.539279 ], [ 10.2837542, 45.5393767 ], [ 10.2838485, 45.5394969 ], [ 10.283887, 45.5397278 ], [ 10.2839468, 45.5399011 ], [ 10.2840716, 45.5400714 ], [ 10.2843645, 45.5403198 ], [ 10.2845628, 45.5404364 ], [ 10.2848339, 45.5407263 ], [ 10.2851153, 45.5411625 ], [ 10.2853383, 45.5414782 ], [ 10.2854164, 45.5417269 ], [ 10.2855155, 45.5420372 ], [ 10.2855175, 45.5423648 ], [ 10.2855244, 45.5427564 ], [ 10.285508, 45.5431254 ], [ 10.2853285, 45.543359 ], [ 10.285127, 45.5436204 ], [ 10.2848726, 45.5438503 ], [ 10.2846966, 45.544093 ], [ 10.2845344, 45.544363 ], [ 10.2845219, 45.5445098 ], [ 10.2845269, 45.5452016 ], [ 10.2845828, 45.5454781 ], [ 10.2846057, 45.545858 ], [ 10.2846486, 45.5461323 ], [ 10.2846946, 45.5465235 ], [ 10.2847135, 45.5467501 ], [ 10.2848009, 45.5471087 ], [ 10.2848823, 45.5473619 ], [ 10.2849852, 45.5476881 ], [ 10.2850547, 45.5479828 ], [ 10.2850838, 45.5482275 ], [ 10.2853715, 45.5485286 ], [ 10.2855495, 45.5487395 ], [ 10.2857839, 45.5491145 ], [ 10.2862125, 45.5495788 ], [ 10.2865912, 45.5499955 ], [ 10.2868366, 45.5504209 ], [ 10.2872539, 45.5511014 ], [ 10.2873436, 45.5514298 ], [ 10.2874764, 45.5517168 ], [ 10.2876417, 45.5521197 ], [ 10.2878077, 45.5523813 ], [ 10.2880874, 45.5526301 ], [ 10.2883876, 45.5529221 ], [ 10.2887299, 45.5531998 ], [ 10.2889462, 45.5535205 ], [ 10.2889823, 45.5537995 ], [ 10.2890572, 45.5541996 ], [ 10.2891043, 45.5545267 ], [ 10.2891137, 45.5547786 ], [ 10.2891554, 45.5548858 ], [ 10.2892908, 45.5550973 ], [ 10.2895683, 45.5553896 ], [ 10.2898017, 45.5556115 ], [ 10.2900406, 45.5557897 ], [ 10.2904279, 45.556044 ], [ 10.2907393, 45.556258 ], [ 10.2911342, 45.5564207 ], [ 10.2914796, 45.5566938 ], [ 10.2884542, 45.5583215 ], [ 10.2866775, 45.559314 ], [ 10.2838039, 45.5597183 ], [ 10.2831371, 45.5600262 ], [ 10.2826591, 45.5601967 ], [ 10.2811335, 45.5609591 ], [ 10.2810854, 45.5609885 ], [ 10.2795978, 45.5617054 ], [ 10.2788894, 45.5620481 ], [ 10.2778296, 45.5623514 ], [ 10.2771418, 45.5625434 ], [ 10.2766292, 45.5625176 ], [ 10.2758805, 45.5625215 ], [ 10.2752178, 45.5625587 ], [ 10.2749004, 45.5625811 ], [ 10.2746397, 45.5626074 ], [ 10.2743263, 45.5626606 ], [ 10.2740936, 45.5627473 ], [ 10.2739771, 45.5627963 ], [ 10.273808, 45.5628791 ], [ 10.2732431, 45.5632315 ], [ 10.2730928, 45.5632643 ], [ 10.2729852, 45.563261 ], [ 10.2728602, 45.563268 ], [ 10.2723948, 45.5633706 ], [ 10.2720556, 45.5634643 ], [ 10.2719567, 45.5635167 ], [ 10.2719281, 45.5635752 ], [ 10.2719429, 45.56362 ], [ 10.2712034, 45.5637568 ], [ 10.2707638, 45.5637665 ], [ 10.2706201, 45.5638872 ], [ 10.2695452, 45.5644335 ], [ 10.268736, 45.5647864 ], [ 10.2684623, 45.5649202 ], [ 10.2675601, 45.5658814 ], [ 10.2663166, 45.5667343 ], [ 10.2658833, 45.5671424 ], [ 10.2654614, 45.5674841 ], [ 10.2648202, 45.5679175 ], [ 10.2644997, 45.5681366 ], [ 10.2641738, 45.5685436 ], [ 10.2638656, 45.569003 ], [ 10.2636526, 45.5692232 ], [ 10.2634949, 45.5693051 ], [ 10.2632484, 45.5693539 ], [ 10.2624188, 45.5694045 ], [ 10.2614166, 45.5695948 ], [ 10.2600107, 45.5700691 ], [ 10.2584714, 45.5705563 ], [ 10.2601217, 45.5737611 ], [ 10.2614195, 45.5763902 ], [ 10.2610523, 45.5765685 ], [ 10.2605689, 45.5766588 ], [ 10.2596689, 45.5767676 ], [ 10.2589295, 45.5769158 ], [ 10.2580373, 45.5772147 ], [ 10.2577155, 45.5773856 ], [ 10.2574179, 45.5776136 ], [ 10.2557424, 45.5792295 ], [ 10.2557872, 45.5800696 ], [ 10.2559059, 45.5802147 ], [ 10.2557032, 45.5805767 ], [ 10.2556366, 45.5809206 ], [ 10.2552901, 45.5810332 ], [ 10.255053, 45.5812032 ], [ 10.2546902, 45.5812944 ], [ 10.2545126, 45.5813629 ], [ 10.2541675, 45.5816531 ], [ 10.2538308, 45.5818815 ], [ 10.2533062, 45.5825725 ], [ 10.2532073, 45.5826607 ], [ 10.2530216, 45.5826606 ], [ 10.2528736, 45.5827424 ], [ 10.2527617, 45.582833 ], [ 10.2525936, 45.58289 ], [ 10.252388, 45.5828785 ], [ 10.2522368, 45.5829627 ], [ 10.2521165, 45.582971 ], [ 10.2519454, 45.5829042 ], [ 10.25166, 45.5828249 ], [ 10.2513726, 45.5827984 ], [ 10.2512325, 45.5829375 ], [ 10.2509429, 45.5831354 ], [ 10.250877, 45.5832004 ], [ 10.2506768, 45.583276 ], [ 10.2503364, 45.5833509 ], [ 10.2499319, 45.5833349 ], [ 10.249724, 45.5833624 ], [ 10.2494071, 45.5834691 ], [ 10.2490694, 45.583521 ], [ 10.2487599, 45.5835245 ], [ 10.2484664, 45.5835164 ], [ 10.2479034, 45.5836877 ], [ 10.2475534, 45.5837673 ], [ 10.2472539, 45.5837845 ], [ 10.2466946, 45.5838343 ], [ 10.2461134, 45.5839256 ], [ 10.2458097, 45.5840368 ], [ 10.2454796, 45.5841344 ], [ 10.2451617, 45.5841976 ], [ 10.2448329, 45.5842128 ], [ 10.2445283, 45.5841498 ], [ 10.2444027, 45.5840733 ], [ 10.2442628, 45.5839465 ], [ 10.2440354, 45.5838391 ], [ 10.2438432, 45.5837015 ], [ 10.2437036, 45.5834488 ], [ 10.2435708, 45.5832075 ], [ 10.2433323, 45.5829054 ], [ 10.2431226, 45.5827221 ], [ 10.2430619, 45.5826358 ], [ 10.2427607, 45.5824353 ], [ 10.2424132, 45.5823499 ], [ 10.2421663, 45.5823824 ], [ 10.2419714, 45.5825473 ], [ 10.2418284, 45.5827001 ], [ 10.2411441, 45.584398 ], [ 10.2410906, 45.5845825 ], [ 10.2360421, 45.5849829 ], [ 10.2358282, 45.5850334 ], [ 10.234719, 45.5852613 ], [ 10.2354342, 45.5866896 ], [ 10.2357352, 45.5874562 ], [ 10.2332835, 45.5879786 ], [ 10.2335906, 45.5888411 ], [ 10.2331168, 45.5889438 ], [ 10.2303684, 45.5895393 ], [ 10.2301397, 45.5896188 ], [ 10.2299816, 45.5896738 ], [ 10.2287605, 45.5899752 ], [ 10.2283012, 45.5890554 ], [ 10.2281383, 45.5882626 ], [ 10.2280491, 45.5875536 ], [ 10.2279465, 45.5869593 ], [ 10.2279987, 45.5864339 ], [ 10.2278372, 45.5864544 ], [ 10.2268975, 45.5865736 ], [ 10.2265229, 45.5865782 ], [ 10.2259776, 45.5866628 ], [ 10.2253746, 45.5866541 ], [ 10.2253672, 45.5859556 ], [ 10.224969, 45.5860113 ], [ 10.2236065, 45.5859314 ], [ 10.2223097, 45.5859107 ], [ 10.2220943, 45.585895 ], [ 10.2214128, 45.5858736 ], [ 10.2214314, 45.5849268 ], [ 10.2213842, 45.584046 ], [ 10.2212964, 45.5835224 ], [ 10.2211662, 45.582862 ], [ 10.2211171, 45.5823197 ], [ 10.2210685, 45.5819309 ], [ 10.2209574, 45.5816975 ], [ 10.2206803, 45.5811155 ], [ 10.2201825, 45.5800771 ], [ 10.2192932, 45.5786219 ], [ 10.2186076, 45.5773613 ], [ 10.2179896, 45.5764686 ], [ 10.2177404, 45.5761371 ], [ 10.2174443, 45.5756208 ], [ 10.2166488, 45.5742607 ], [ 10.2159603, 45.5734123 ], [ 10.2154577, 45.5727084 ], [ 10.215062, 45.5722435 ], [ 10.2147224, 45.5718101 ], [ 10.2142132, 45.5709665 ], [ 10.2140334, 45.5705404 ], [ 10.2136814, 45.5705822 ], [ 10.213517, 45.5706017 ], [ 10.2133124, 45.570627 ], [ 10.2131229, 45.5706065 ], [ 10.2125892, 45.5704915 ], [ 10.2121281, 45.5702864 ], [ 10.2111386, 45.569699 ], [ 10.2109417, 45.5697421 ], [ 10.2107316, 45.569788 ], [ 10.2107124, 45.5704979 ], [ 10.2107182, 45.5705529 ], [ 10.2108106, 45.5709488 ], [ 10.2108129, 45.5710575 ], [ 10.2108643, 45.5711225 ], [ 10.2109701, 45.5712924 ], [ 10.2115088, 45.5717414 ], [ 10.2119873, 45.5719948 ], [ 10.2122554, 45.5721702 ], [ 10.2124056, 45.5723173 ], [ 10.2123498, 45.5723413 ], [ 10.2120671, 45.5724634 ], [ 10.2116916, 45.5725596 ], [ 10.2115197, 45.5725915 ], [ 10.2111216, 45.5725643 ], [ 10.2107555, 45.5725114 ], [ 10.2105993, 45.5725201 ], [ 10.2103813, 45.5725297 ], [ 10.2093741, 45.5728463 ], [ 10.2089773, 45.5729462 ], [ 10.2087036, 45.5730692 ], [ 10.2084581, 45.5732861 ], [ 10.2082453, 45.5734607 ], [ 10.2080843, 45.5735555 ], [ 10.2077656, 45.5737435 ], [ 10.2077403, 45.5737584 ], [ 10.2075954, 45.5738441 ], [ 10.2073317, 45.5742528 ], [ 10.2065325, 45.5744468 ], [ 10.2063754, 45.574372 ], [ 10.2058973, 45.5741922 ], [ 10.2040247, 45.5736166 ], [ 10.2035911, 45.5734127 ], [ 10.2022678, 45.5731481 ], [ 10.2018867, 45.5731184 ], [ 10.2011841, 45.5730261 ], [ 10.2009647, 45.5729784 ], [ 10.2006685, 45.5728973 ], [ 10.2002405, 45.5727993 ], [ 10.1999348, 45.5727365 ], [ 10.1998542, 45.5727192 ], [ 10.1996317, 45.5726807 ], [ 10.1988992, 45.5726986 ], [ 10.1982343, 45.5726837 ], [ 10.1979082, 45.5726671 ], [ 10.1973859, 45.5726206 ], [ 10.1969222, 45.5725736 ], [ 10.196401, 45.5725752 ], [ 10.1963005, 45.5725848 ], [ 10.1961112, 45.5726036 ], [ 10.1957673, 45.5726356 ], [ 10.1954161, 45.5728001 ], [ 10.1950509, 45.5729191 ], [ 10.1947885, 45.5729796 ], [ 10.1946395, 45.5730134 ], [ 10.1944028, 45.5729499 ], [ 10.1934948, 45.5728233 ], [ 10.1931296, 45.5728117 ], [ 10.1928837, 45.5727413 ], [ 10.1925303, 45.5726768 ], [ 10.1920483, 45.5725474 ], [ 10.1917068, 45.5724347 ], [ 10.1914654, 45.5724171 ], [ 10.1905593, 45.5725333 ], [ 10.1898266, 45.5726796 ], [ 10.1895192, 45.5727634 ], [ 10.1893179, 45.572736 ], [ 10.1890387, 45.5726828 ], [ 10.1884824, 45.5725317 ], [ 10.1882329, 45.5724363 ], [ 10.1879093, 45.5723374 ], [ 10.1874289, 45.5722215 ], [ 10.187145, 45.5721643 ], [ 10.1868647, 45.5720821 ], [ 10.1860931, 45.5720106 ], [ 10.184529, 45.5718366 ], [ 10.1838781, 45.5717728 ], [ 10.1832729, 45.5714256 ], [ 10.182832, 45.5707313 ], [ 10.1824281, 45.5704612 ], [ 10.1800774, 45.5701204 ], [ 10.1808363, 45.5675437 ], [ 10.1811658, 45.566692 ], [ 10.1813741, 45.5662726 ], [ 10.1813426, 45.566267 ], [ 10.1809588, 45.5662042 ], [ 10.1807053, 45.5662278 ], [ 10.1803096, 45.5662967 ], [ 10.1799449, 45.566301 ], [ 10.179371, 45.5662736 ], [ 10.1782526, 45.5662226 ], [ 10.1780234, 45.5657604 ], [ 10.1776731, 45.5650017 ], [ 10.1775385, 45.5648178 ], [ 10.177263, 45.5643846 ], [ 10.1769223, 45.5640869 ], [ 10.176634, 45.5638685 ], [ 10.1757272, 45.5631657 ], [ 10.1755934, 45.5629603 ], [ 10.1753192, 45.5623402 ], [ 10.1749476, 45.5615692 ], [ 10.1747992, 45.5610981 ], [ 10.1746497, 45.5605715 ], [ 10.1739627, 45.5598222 ], [ 10.1736313, 45.5594992 ], [ 10.1733384, 45.5595073 ], [ 10.171743, 45.5595239 ], [ 10.171344, 45.5590924 ], [ 10.1711758, 45.5589522 ], [ 10.1709997, 45.5588042 ], [ 10.1707006, 45.5585489 ], [ 10.1706042, 45.5584676 ], [ 10.1703661, 45.5581772 ], [ 10.1701198, 45.5580862 ], [ 10.1700173, 45.558021 ], [ 10.1699264, 45.5578811 ], [ 10.1696527, 45.5570377 ], [ 10.1695006, 45.5568827 ], [ 10.1681201, 45.5569806 ], [ 10.1670855, 45.5566889 ], [ 10.1663905, 45.5564016 ], [ 10.1647747, 45.5554668 ], [ 10.1615474, 45.5534479 ], [ 10.1614313, 45.5533753 ], [ 10.1610496, 45.5537582 ], [ 10.1608882, 45.5538792 ], [ 10.1603717, 45.5540553 ], [ 10.1597803, 45.5541999 ], [ 10.1586289, 45.5532667 ], [ 10.1577293, 45.5524889 ], [ 10.1572007, 45.5518801 ], [ 10.1570533, 45.5516754 ], [ 10.1568517, 45.5515238 ], [ 10.1563179, 45.5510479 ], [ 10.1561954, 45.5509436 ], [ 10.1552983, 45.549976 ], [ 10.1548889, 45.5496576 ], [ 10.1544803, 45.54933 ], [ 10.1540047, 45.5490173 ], [ 10.1531669, 45.5484581 ], [ 10.1525973, 45.5479952 ], [ 10.1521071, 45.5475784 ], [ 10.151848, 45.5472586 ], [ 10.1516071, 45.5469943 ], [ 10.1514846, 45.546732 ], [ 10.1514154, 45.5464581 ], [ 10.1512408, 45.5462225 ], [ 10.151038, 45.5459943 ], [ 10.1508241, 45.5457861 ], [ 10.1505453, 45.545671 ], [ 10.1504175, 45.5455899 ], [ 10.1503417, 45.5454939 ], [ 10.1503138, 45.5452827 ], [ 10.1501651, 45.5450305 ], [ 10.1499865, 45.5447576 ], [ 10.1499211, 45.5445535 ], [ 10.1498583, 45.5443889 ], [ 10.1498026, 45.5442462 ], [ 10.1495889, 45.5439297 ], [ 10.1494657, 45.5437643 ], [ 10.1492128, 45.5433328 ], [ 10.149002, 45.5429218 ], [ 10.1486975, 45.5422711 ], [ 10.1485119, 45.5419926 ], [ 10.1483246, 45.5417921 ], [ 10.1478798, 45.541348 ], [ 10.1477006, 45.5411983 ], [ 10.1473936, 45.5408311 ], [ 10.1470684, 45.5405034 ] ] ] } }
]
}
