{
"type": "FeatureCollection",
"name": "bytom_pl",
"crs": { "type": "name", "properties": { "name": "urn:ogc:def:crs:OGC:1.3:CRS84" } },
"features": [
{ "type": "Feature", "properties": { "bbox_west": 18.7885838, "bbox_south": 50.3167077, "bbox_east": 18.964097, "bbox_north": 50.4137092, "place_id": 183610887, "osm_type": "relation", "osm_id": 2425989, "lat": 50.3652854, "lon": 18.8722567, "class": "boundary", "type": "administrative", "place_rank": 16, "importance": 0.59683348719932094, "addresstype": "administrative", "name": "Bytom", "display_name": "Bytom, Metropolis GZM, Silesian Voivodeship, Poland" }, "geometry": { "type": "Polygon", "coordinates": [ [ [ 18.7885838, 50.3925613 ], [ 18.7886197, 50.3924962 ], [ 18.7903013, 50.3916581 ], [ 18.7906682, 50.3914752 ], [ 18.7906835, 50.3914676 ], [ 18.7916221, 50.3909998 ], [ 18.7901138, 50.3902844 ], [ 18.7903169, 50.3901148 ], [ 18.7904471, 50.3900576 ], [ 18.7905202, 50.3899411 ], [ 18.7905656, 50.3899147 ], [ 18.7908293, 50.3898743 ], [ 18.7908974, 50.3897604 ], [ 18.7909881, 50.389732 ], [ 18.7911778, 50.3895815 ], [ 18.7911447, 50.3895118 ], [ 18.791189, 50.3894894 ], [ 18.7912371, 50.3895179 ], [ 18.7914859, 50.3893649 ], [ 18.7916012, 50.3892827 ], [ 18.7916878, 50.3891022 ], [ 18.7918167, 50.3890255 ], [ 18.792027, 50.3889194 ], [ 18.7922724, 50.3888476 ], [ 18.7925034, 50.3887716 ], [ 18.7926952, 50.3885693 ], [ 18.7931977, 50.3882557 ], [ 18.792202, 50.3871462 ], [ 18.7924556, 50.3870594 ], [ 18.7923792, 50.3869686 ], [ 18.793557, 50.3865669 ], [ 18.7941832, 50.3863458 ], [ 18.7960084, 50.3856335 ], [ 18.797243, 50.3852232 ], [ 18.7984698, 50.3847829 ], [ 18.7991265, 50.384505 ], [ 18.7999883, 50.3842202 ], [ 18.8002687, 50.383894 ], [ 18.8001165, 50.3837309 ], [ 18.8003429, 50.3836103 ], [ 18.800236, 50.3834905 ], [ 18.8005026, 50.3829974 ], [ 18.8007897, 50.3830754 ], [ 18.8009458, 50.3830059 ], [ 18.8008798, 50.3829596 ], [ 18.8008833, 50.3829098 ], [ 18.8008986, 50.3828953 ], [ 18.8009427, 50.3829086 ], [ 18.8009819, 50.3828949 ], [ 18.8010021, 50.382826 ], [ 18.8010791, 50.3827796 ], [ 18.8011582, 50.3827404 ], [ 18.8010963, 50.3825969 ], [ 18.8011156, 50.3825634 ], [ 18.8011534, 50.3825424 ], [ 18.8009378, 50.3823883 ], [ 18.8010965, 50.382303 ], [ 18.801049, 50.3822629 ], [ 18.8011632, 50.382135 ], [ 18.8012821, 50.3820776 ], [ 18.8010965, 50.3819901 ], [ 18.8008887, 50.3820619 ], [ 18.8007281, 50.3819663 ], [ 18.8004822, 50.3815082 ], [ 18.8001508, 50.3807514 ], [ 18.7997238, 50.3801365 ], [ 18.7998863, 50.3800094 ], [ 18.799854, 50.37966 ], [ 18.7996228, 50.3796577 ], [ 18.7994873, 50.3794103 ], [ 18.7991405, 50.3793488 ], [ 18.7989951, 50.3789682 ], [ 18.7988243, 50.3786857 ], [ 18.7988755, 50.3785659 ], [ 18.798743, 50.3784366 ], [ 18.7984982, 50.3783093 ], [ 18.7984063, 50.3780007 ], [ 18.7982352, 50.3778088 ], [ 18.7983474, 50.377631 ], [ 18.7983128, 50.3775619 ], [ 18.7983101, 50.3774799 ], [ 18.7983078, 50.3774123 ], [ 18.7983009, 50.3772074 ], [ 18.7982969, 50.3770852 ], [ 18.798313, 50.3770771 ], [ 18.7984207, 50.377023 ], [ 18.7985141, 50.3768687 ], [ 18.7985689, 50.3768082 ], [ 18.7986313, 50.3767391 ], [ 18.7992569, 50.3760476 ], [ 18.799438, 50.3758254 ], [ 18.8000144, 50.3754121 ], [ 18.8002102, 50.3746714 ], [ 18.8002057, 50.3744234 ], [ 18.8001793, 50.3741801 ], [ 18.8002437, 50.3739253 ], [ 18.8005674, 50.3738997 ], [ 18.8006219, 50.3738956 ], [ 18.8014611, 50.373833 ], [ 18.802621, 50.3737181 ], [ 18.8027827, 50.3739526 ], [ 18.8029372, 50.3741104 ], [ 18.80324, 50.3744602 ], [ 18.8039085, 50.3751519 ], [ 18.8038862, 50.3752998 ], [ 18.8038505, 50.375536 ], [ 18.804037, 50.3757997 ], [ 18.8039456, 50.3759303 ], [ 18.8037283, 50.3760875 ], [ 18.8033672, 50.3764509 ], [ 18.802597, 50.3770187 ], [ 18.8022115, 50.3771395 ], [ 18.8019128, 50.3773003 ], [ 18.8014998, 50.3774143 ], [ 18.8013626, 50.3775473 ], [ 18.8014088, 50.3777862 ], [ 18.8016549, 50.3780339 ], [ 18.8018879, 50.3784586 ], [ 18.8019077, 50.378506 ], [ 18.8021506, 50.3787937 ], [ 18.8018174, 50.3794338 ], [ 18.8017947, 50.3801439 ], [ 18.8017421, 50.3802938 ], [ 18.8017322, 50.3806899 ], [ 18.8017977, 50.3809999 ], [ 18.802004, 50.3814578 ], [ 18.8022488, 50.3817362 ], [ 18.8022251, 50.381872 ], [ 18.8021947, 50.3819969 ], [ 18.8020177, 50.3821045 ], [ 18.8017249, 50.3821949 ], [ 18.8018312, 50.3822768 ], [ 18.801933, 50.3823431 ], [ 18.8021964, 50.3823946 ], [ 18.8028061, 50.3823797 ], [ 18.803195, 50.3823292 ], [ 18.8032404, 50.3822702 ], [ 18.8032696, 50.3822153 ], [ 18.8033304, 50.3821874 ], [ 18.8034314, 50.3821911 ], [ 18.8036002, 50.382216 ], [ 18.8038608, 50.3822846 ], [ 18.8040929, 50.3823153 ], [ 18.8041972, 50.3823243 ], [ 18.8043531, 50.3823126 ], [ 18.8044171, 50.3823213 ], [ 18.8045095, 50.3823489 ], [ 18.8046541, 50.3824123 ], [ 18.8047229, 50.3824543 ], [ 18.8047668, 50.3824964 ], [ 18.8047917, 50.3825424 ], [ 18.8048062, 50.3825937 ], [ 18.8048021, 50.382617 ], [ 18.8049066, 50.3826814 ], [ 18.8050473, 50.3826728 ], [ 18.8055017, 50.3826663 ], [ 18.80571, 50.3826733 ], [ 18.806071, 50.3826051 ], [ 18.8063319, 50.3825715 ], [ 18.8070506, 50.3825476 ], [ 18.8072025, 50.3825514 ], [ 18.8078698, 50.3826 ], [ 18.8080989, 50.3825993 ], [ 18.8083242, 50.3825778 ], [ 18.8095281, 50.3824025 ], [ 18.8102215, 50.3822187 ], [ 18.8102717, 50.3822032 ], [ 18.8113117, 50.3817757 ], [ 18.8114626, 50.3817538 ], [ 18.8116489, 50.3817415 ], [ 18.8123678, 50.3817825 ], [ 18.8127638, 50.3818028 ], [ 18.8128065, 50.3818008 ], [ 18.8128414, 50.381842 ], [ 18.8131565, 50.3817377 ], [ 18.8136169, 50.3816824 ], [ 18.8140672, 50.3816016 ], [ 18.8144853, 50.3813936 ], [ 18.8146189, 50.3812943 ], [ 18.8144841, 50.3802725 ], [ 18.8144144, 50.3799652 ], [ 18.8143068, 50.3794001 ], [ 18.8142321, 50.3787982 ], [ 18.814119, 50.3780846 ], [ 18.8140737, 50.377747 ], [ 18.8139863, 50.3773048 ], [ 18.813964, 50.3771587 ], [ 18.8140463, 50.3769482 ], [ 18.814198, 50.3766696 ], [ 18.8141519, 50.3765083 ], [ 18.8141758, 50.3764402 ], [ 18.8141756, 50.3762783 ], [ 18.8144462, 50.3757337 ], [ 18.8151486, 50.3740246 ], [ 18.8154381, 50.3735957 ], [ 18.8162899, 50.3729563 ], [ 18.8180074, 50.3716341 ], [ 18.8182892, 50.3714403 ], [ 18.8191312, 50.3707154 ], [ 18.820796, 50.3693771 ], [ 18.8210524, 50.3691733 ], [ 18.8210855, 50.3691586 ], [ 18.8190841, 50.3687949 ], [ 18.8162325, 50.3687029 ], [ 18.8152714, 50.3688634 ], [ 18.8151559, 50.3697861 ], [ 18.814111, 50.3696658 ], [ 18.8133531, 50.3693959 ], [ 18.8130279, 50.3687522 ], [ 18.8130236, 50.3687189 ], [ 18.8130355, 50.3684548 ], [ 18.814066, 50.3685406 ], [ 18.8147858, 50.3684262 ], [ 18.8153898, 50.3684499 ], [ 18.8159044, 50.3683521 ], [ 18.8159969, 50.3680178 ], [ 18.8162853, 50.3676634 ], [ 18.8163554, 50.3675094 ], [ 18.8161854, 50.3672467 ], [ 18.8162946, 50.3671459 ], [ 18.8165367, 50.3667372 ], [ 18.816692, 50.3666815 ], [ 18.8169413, 50.3664832 ], [ 18.8170542, 50.3661731 ], [ 18.8173811, 50.366051 ], [ 18.8178127, 50.3655631 ], [ 18.818262, 50.3651553 ], [ 18.8183766, 50.3650592 ], [ 18.8183855, 50.3650163 ], [ 18.8184555, 50.3649935 ], [ 18.8186112, 50.3648494 ], [ 18.8183711, 50.3647383 ], [ 18.8183203, 50.3647398 ], [ 18.818236, 50.364702 ], [ 18.818122, 50.3645202 ], [ 18.8181677, 50.3644304 ], [ 18.8181085, 50.3643738 ], [ 18.8182028, 50.3641453 ], [ 18.8180673, 50.3639072 ], [ 18.8180669, 50.3637415 ], [ 18.8179741, 50.3634917 ], [ 18.8178482, 50.3633938 ], [ 18.8177346, 50.3632441 ], [ 18.8177043, 50.3631716 ], [ 18.8177318, 50.362735 ], [ 18.8178127, 50.3625603 ], [ 18.8181989, 50.3620603 ], [ 18.8173719, 50.3616763 ], [ 18.816824, 50.3610585 ], [ 18.8168474, 50.3609002 ], [ 18.8169051, 50.3606977 ], [ 18.8170829, 50.3602783 ], [ 18.8170092, 50.3595997 ], [ 18.8168542, 50.3592464 ], [ 18.8173401, 50.3590642 ], [ 18.8176549, 50.3590719 ], [ 18.8181106, 50.359182 ], [ 18.818724, 50.3591779 ], [ 18.8188652, 50.3591485 ], [ 18.8193162, 50.3589355 ], [ 18.8196387, 50.3588857 ], [ 18.8200126, 50.3588908 ], [ 18.8202267, 50.3589068 ], [ 18.8203788, 50.3588255 ], [ 18.8204372, 50.3585763 ], [ 18.8206498, 50.3583324 ], [ 18.8207538, 50.3578724 ], [ 18.8182872, 50.3556516 ], [ 18.8158973, 50.3534207 ], [ 18.8158439, 50.353347 ], [ 18.8158236, 50.353173 ], [ 18.8160289, 50.3525394 ], [ 18.8165074, 50.3512227 ], [ 18.81676, 50.350676 ], [ 18.818847, 50.3509828 ], [ 18.8207866, 50.3513017 ], [ 18.8218656, 50.351464 ], [ 18.8233913, 50.3513648 ], [ 18.8248455, 50.3511232 ], [ 18.8255012, 50.3509834 ], [ 18.8261058, 50.350827 ], [ 18.8265762, 50.3506664 ], [ 18.8272267, 50.3504642 ], [ 18.8277317, 50.3501877 ], [ 18.8285166, 50.3498858 ], [ 18.8288742, 50.3497767 ], [ 18.8297941, 50.3495323 ], [ 18.8302741, 50.3494535 ], [ 18.8306856, 50.3494116 ], [ 18.8316229, 50.3493503 ], [ 18.831929, 50.3493131 ], [ 18.8321048, 50.3492624 ], [ 18.8311395, 50.3479396 ], [ 18.8313104, 50.3478396 ], [ 18.8326445, 50.3474805 ], [ 18.832795, 50.3473715 ], [ 18.8337611, 50.3472188 ], [ 18.8338893, 50.3472926 ], [ 18.8348723, 50.3472371 ], [ 18.8348516, 50.3439628 ], [ 18.8445488, 50.3439783 ], [ 18.8449436, 50.34398 ], [ 18.8449016, 50.344671 ], [ 18.8450129, 50.3445431 ], [ 18.845538, 50.3443576 ], [ 18.846468, 50.3435301 ], [ 18.8466124, 50.3430082 ], [ 18.8469553, 50.3423582 ], [ 18.8468339, 50.3419339 ], [ 18.8476253, 50.3412575 ], [ 18.8482458, 50.3409636 ], [ 18.8491605, 50.3405289 ], [ 18.8505807, 50.3398575 ], [ 18.8515128, 50.3395457 ], [ 18.8515177, 50.3395089 ], [ 18.8515342, 50.3394795 ], [ 18.851516, 50.3394563 ], [ 18.8514502, 50.3394166 ], [ 18.8518247, 50.3393086 ], [ 18.8519625, 50.3392981 ], [ 18.8521993, 50.3392299 ], [ 18.8522514, 50.3392335 ], [ 18.852292, 50.3392074 ], [ 18.852395, 50.3392027 ], [ 18.8524349, 50.3391766 ], [ 18.8524367, 50.3391468 ], [ 18.852792, 50.3389417 ], [ 18.8527948, 50.3388822 ], [ 18.8530375, 50.3386238 ], [ 18.8530437, 50.3385928 ], [ 18.8530352, 50.3385663 ], [ 18.8530047, 50.3385492 ], [ 18.852918, 50.3385167 ], [ 18.8531885, 50.338452 ], [ 18.853201, 50.3384356 ], [ 18.8533067, 50.3384211 ], [ 18.8534142, 50.3383331 ], [ 18.8535789, 50.3383207 ], [ 18.8536834, 50.3382974 ], [ 18.8538948, 50.3381602 ], [ 18.8541233, 50.3379371 ], [ 18.854292, 50.3377507 ], [ 18.8543639, 50.3377254 ], [ 18.8544176, 50.3375255 ], [ 18.8545188, 50.3373588 ], [ 18.8547139, 50.3369404 ], [ 18.8549085, 50.3368952 ], [ 18.8554323, 50.3367085 ], [ 18.8554672, 50.3366857 ], [ 18.8554825, 50.3366551 ], [ 18.8554906, 50.3366133 ], [ 18.8554865, 50.3363876 ], [ 18.8555611, 50.3363216 ], [ 18.8555599, 50.3363076 ], [ 18.8555422, 50.3362812 ], [ 18.8555915, 50.3362521 ], [ 18.8555465, 50.3361779 ], [ 18.8556132, 50.3361123 ], [ 18.855606, 50.3360787 ], [ 18.8556459, 50.3360158 ], [ 18.8556227, 50.3359542 ], [ 18.855653, 50.3358741 ], [ 18.8556381, 50.3358302 ], [ 18.8557174, 50.3357278 ], [ 18.855719, 50.335622 ], [ 18.8555869, 50.3354307 ], [ 18.8559968, 50.3350857 ], [ 18.8563088, 50.3350326 ], [ 18.8568321, 50.3349738 ], [ 18.8576762, 50.334559 ], [ 18.8577466, 50.3342606 ], [ 18.8576726, 50.3338718 ], [ 18.8576456, 50.3336441 ], [ 18.8576736, 50.333531 ], [ 18.85767, 50.3333324 ], [ 18.8576792, 50.3329622 ], [ 18.8577045, 50.3328999 ], [ 18.8576907, 50.3325231 ], [ 18.8577334, 50.332349 ], [ 18.8580781, 50.3323995 ], [ 18.858394, 50.3324175 ], [ 18.8589916, 50.3324153 ], [ 18.8595646, 50.3307227 ], [ 18.8595693, 50.3306397 ], [ 18.8597862, 50.3303762 ], [ 18.8598692, 50.329974 ], [ 18.8599544, 50.3298985 ], [ 18.8599273, 50.3297542 ], [ 18.8599284, 50.3297293 ], [ 18.8599623, 50.3296552 ], [ 18.8599925, 50.3295947 ], [ 18.8601345, 50.3294332 ], [ 18.8602182, 50.3292612 ], [ 18.8602437, 50.3291329 ], [ 18.8605047, 50.3289004 ], [ 18.8606861, 50.3287708 ], [ 18.8610278, 50.3285864 ], [ 18.8613668, 50.3285492 ], [ 18.8616432, 50.3285428 ], [ 18.861819, 50.3284879 ], [ 18.8619808, 50.3284522 ], [ 18.8620817, 50.3283439 ], [ 18.862266, 50.3281438 ], [ 18.8623402, 50.3280985 ], [ 18.8625349, 50.3280508 ], [ 18.8624428, 50.3279086 ], [ 18.8625575, 50.3273331 ], [ 18.8626046, 50.32725 ], [ 18.8628621, 50.3269906 ], [ 18.863069, 50.3268523 ], [ 18.8632268, 50.3268172 ], [ 18.8633388, 50.3271943 ], [ 18.8634303, 50.3273711 ], [ 18.8635744, 50.3274898 ], [ 18.8637996, 50.3276399 ], [ 18.8640164, 50.3277459 ], [ 18.8641821, 50.3278219 ], [ 18.8643859, 50.3279013 ], [ 18.8645356, 50.3279405 ], [ 18.8648668, 50.3279661 ], [ 18.8652152, 50.3279632 ], [ 18.8654242, 50.3279878 ], [ 18.8656304, 50.3280394 ], [ 18.8662451, 50.3282446 ], [ 18.8665156, 50.3283358 ], [ 18.866845, 50.3285014 ], [ 18.8671796, 50.3285768 ], [ 18.8679785, 50.3286543 ], [ 18.8682, 50.3286861 ], [ 18.8685782, 50.3288422 ], [ 18.8687871, 50.3288803 ], [ 18.8699656, 50.3292039 ], [ 18.8702394, 50.3292674 ], [ 18.87064, 50.329319 ], [ 18.8713415, 50.329373 ], [ 18.8725752, 50.3294797 ], [ 18.872748, 50.3294351 ], [ 18.8729322, 50.3293646 ], [ 18.8734457, 50.3290942 ], [ 18.8737025, 50.3289278 ], [ 18.8737382, 50.328853 ], [ 18.8742075, 50.3286764 ], [ 18.8742569, 50.3285615 ], [ 18.8746042, 50.3284609 ], [ 18.8747749, 50.3285587 ], [ 18.8748594, 50.3283972 ], [ 18.8749724, 50.3284512 ], [ 18.8752828, 50.3283893 ], [ 18.8754983, 50.3284198 ], [ 18.8756561, 50.3283947 ], [ 18.8758115, 50.3283124 ], [ 18.87624, 50.3284351 ], [ 18.8763628, 50.3286176 ], [ 18.8766756, 50.3286533 ], [ 18.8771201, 50.3285881 ], [ 18.8772886, 50.3284958 ], [ 18.8773333, 50.328511 ], [ 18.878191, 50.3283568 ], [ 18.8793345, 50.3289721 ], [ 18.879528, 50.328911 ], [ 18.879731, 50.3287909 ], [ 18.8802814, 50.3287605 ], [ 18.8804134, 50.328769 ], [ 18.8806105, 50.3287561 ], [ 18.8808735, 50.3287042 ], [ 18.8809211, 50.3286945 ], [ 18.8814996, 50.329314 ], [ 18.8816757, 50.329483 ], [ 18.8818496, 50.3295148 ], [ 18.8822376, 50.3295199 ], [ 18.8826611, 50.3295305 ], [ 18.8828672, 50.3295245 ], [ 18.883619, 50.3297828 ], [ 18.884342, 50.3296527 ], [ 18.8856724, 50.3294181 ], [ 18.8862667, 50.3293159 ], [ 18.8864759, 50.3292799 ], [ 18.8872886, 50.3294451 ], [ 18.8878387, 50.3292533 ], [ 18.8891247, 50.3287939 ], [ 18.8899171, 50.3298315 ], [ 18.890419, 50.3296638 ], [ 18.8897284, 50.3287476 ], [ 18.8896348, 50.3286235 ], [ 18.8905079, 50.3283255 ], [ 18.8911115, 50.3282568 ], [ 18.891997, 50.3281673 ], [ 18.8930329, 50.3281483 ], [ 18.8933129, 50.3281743 ], [ 18.8933861, 50.3281718 ], [ 18.8935252, 50.3281262 ], [ 18.8936305, 50.3280751 ], [ 18.8936017, 50.3280372 ], [ 18.8936767, 50.3280028 ], [ 18.8936213, 50.3279407 ], [ 18.8937043, 50.3279043 ], [ 18.8934802, 50.3276655 ], [ 18.8934681, 50.3276425 ], [ 18.8942059, 50.3273235 ], [ 18.8943882, 50.3272257 ], [ 18.8945216, 50.3270029 ], [ 18.8947743, 50.3265842 ], [ 18.8948528, 50.3264293 ], [ 18.8949987, 50.3263111 ], [ 18.8950795, 50.3262801 ], [ 18.8952593, 50.3262723 ], [ 18.8955823, 50.326395 ], [ 18.8954452, 50.3262004 ], [ 18.8954414, 50.3259863 ], [ 18.8954702, 50.3255159 ], [ 18.8960221, 50.3249245 ], [ 18.8961615, 50.3249165 ], [ 18.8964648, 50.3248034 ], [ 18.8970465, 50.3247397 ], [ 18.8975741, 50.3246422 ], [ 18.8977975, 50.3245679 ], [ 18.8983753, 50.3244278 ], [ 18.8984664, 50.3245244 ], [ 18.898863, 50.3243776 ], [ 18.8991923, 50.3242762 ], [ 18.8995243, 50.3241836 ], [ 18.899658, 50.3240909 ], [ 18.8997607, 50.3240446 ], [ 18.90017, 50.3239075 ], [ 18.9006016, 50.3237656 ], [ 18.9014591, 50.3234926 ], [ 18.9025365, 50.323098 ], [ 18.9029478, 50.3228819 ], [ 18.9041938, 50.3226206 ], [ 18.9055412, 50.3226483 ], [ 18.9068588, 50.3226239 ], [ 18.9078382, 50.3225063 ], [ 18.9083993, 50.322438 ], [ 18.9089762, 50.3223678 ], [ 18.9096174, 50.3222614 ], [ 18.9099882, 50.3222171 ], [ 18.9103366, 50.3221834 ], [ 18.9106501, 50.3221704 ], [ 18.9110372, 50.3221406 ], [ 18.9116526, 50.3220587 ], [ 18.9133654, 50.3217284 ], [ 18.9149358, 50.3214314 ], [ 18.9149335, 50.3213871 ], [ 18.9149977, 50.321374 ], [ 18.9150586, 50.3213609 ], [ 18.9157034, 50.321233 ], [ 18.9158598, 50.3212472 ], [ 18.9164926, 50.3211351 ], [ 18.916724, 50.3210926 ], [ 18.9171713, 50.3209835 ], [ 18.9178559, 50.320786 ], [ 18.9188542, 50.3206228 ], [ 18.9195486, 50.3205688 ], [ 18.9199945, 50.3205472 ], [ 18.920877, 50.3205214 ], [ 18.9219196, 50.3204672 ], [ 18.9223282, 50.3204432 ], [ 18.9226048, 50.3204232 ], [ 18.923116, 50.3203813 ], [ 18.9241157, 50.3202857 ], [ 18.9246266, 50.3202665 ], [ 18.9249681, 50.3202649 ], [ 18.9251203, 50.3202699 ], [ 18.9255854, 50.3202879 ], [ 18.9258963, 50.320413 ], [ 18.9263141, 50.3203908 ], [ 18.9263227, 50.3203638 ], [ 18.9263252, 50.3203381 ], [ 18.9260082, 50.3203378 ], [ 18.9257105, 50.3201801 ], [ 18.9257326, 50.3201243 ], [ 18.9257726, 50.3200689 ], [ 18.9260433, 50.3195995 ], [ 18.926151, 50.3194168 ], [ 18.9262912, 50.3191055 ], [ 18.9269412, 50.319092 ], [ 18.926906, 50.3189346 ], [ 18.926966, 50.3180863 ], [ 18.9287645, 50.3179549 ], [ 18.9315892, 50.3178175 ], [ 18.9328469, 50.317754 ], [ 18.9337446, 50.317706 ], [ 18.9353443, 50.3176363 ], [ 18.9356603, 50.3176579 ], [ 18.935692, 50.317654 ], [ 18.9360858, 50.3176349 ], [ 18.9373553, 50.3175424 ], [ 18.9379334, 50.317518 ], [ 18.9382239, 50.3175012 ], [ 18.9382747, 50.3175043 ], [ 18.9390828, 50.3174551 ], [ 18.9398638, 50.3173966 ], [ 18.9422528, 50.317134 ], [ 18.9428256, 50.3170864 ], [ 18.9433239, 50.3170379 ], [ 18.9435876, 50.3170243 ], [ 18.9443295, 50.3169653 ], [ 18.9446814, 50.3169225 ], [ 18.9451542, 50.3168781 ], [ 18.9454903, 50.3168541 ], [ 18.9457739, 50.3168302 ], [ 18.9461157, 50.3168117 ], [ 18.9465624, 50.3167962 ], [ 18.9469732, 50.3167077 ], [ 18.9466093, 50.3176085 ], [ 18.9461577, 50.3188556 ], [ 18.945925, 50.3195274 ], [ 18.9458154, 50.3198363 ], [ 18.9457715, 50.3199576 ], [ 18.9451664, 50.32163 ], [ 18.9445459, 50.3234574 ], [ 18.94436, 50.3239863 ], [ 18.9441857, 50.3244565 ], [ 18.9440626, 50.3247394 ], [ 18.9439642, 50.3250101 ], [ 18.9436639, 50.3258871 ], [ 18.9432562, 50.3270155 ], [ 18.9444853, 50.3265214 ], [ 18.9450686, 50.3262576 ], [ 18.9459708, 50.3257473 ], [ 18.9461053, 50.3256645 ], [ 18.9467276, 50.3252542 ], [ 18.9470332, 50.3250107 ], [ 18.947171, 50.3248817 ], [ 18.9475813, 50.324532 ], [ 18.9476849, 50.3244506 ], [ 18.9482178, 50.3240018 ], [ 18.9483447, 50.3239099 ], [ 18.948408, 50.3238548 ], [ 18.948684, 50.3236291 ], [ 18.9487095, 50.32361 ], [ 18.9486761, 50.3236127 ], [ 18.9487423, 50.3235506 ], [ 18.9487307, 50.3235522 ], [ 18.9489333, 50.3233783 ], [ 18.9490986, 50.3231854 ], [ 18.9499369, 50.3223549 ], [ 18.9504898, 50.3218309 ], [ 18.9507909, 50.3215099 ], [ 18.9510195, 50.3216195 ], [ 18.9512298, 50.3214628 ], [ 18.9512707, 50.321434 ], [ 18.9513125, 50.3215264 ], [ 18.9513331, 50.3216258 ], [ 18.9513553, 50.3216677 ], [ 18.9514985, 50.321881 ], [ 18.9515875, 50.321995 ], [ 18.9516987, 50.3220919 ], [ 18.9518948, 50.3222291 ], [ 18.9519302, 50.3222488 ], [ 18.9520609, 50.3223837 ], [ 18.9523637, 50.322768 ], [ 18.9525122, 50.3229244 ], [ 18.9526414, 50.3230415 ], [ 18.9526775, 50.3231015 ], [ 18.9527798, 50.3232134 ], [ 18.9527682, 50.3232256 ], [ 18.9532549, 50.3231909 ], [ 18.9532711, 50.3231743 ], [ 18.9538643, 50.3234241 ], [ 18.9540898, 50.3238222 ], [ 18.9541829, 50.3241184 ], [ 18.9542331, 50.3245212 ], [ 18.9542612, 50.3247909 ], [ 18.9542879, 50.3249939 ], [ 18.9542947, 50.3253075 ], [ 18.9542969, 50.3258259 ], [ 18.9543101, 50.3259535 ], [ 18.9543449, 50.3262013 ], [ 18.9543878, 50.3267435 ], [ 18.9544161, 50.3269746 ], [ 18.9544318, 50.3271793 ], [ 18.9544536, 50.3273044 ], [ 18.9544139, 50.3276818 ], [ 18.9544844, 50.3300277 ], [ 18.9544954, 50.3302078 ], [ 18.9544958, 50.3303916 ], [ 18.9545167, 50.330635 ], [ 18.9545572, 50.3313903 ], [ 18.9546236, 50.3314002 ], [ 18.9546658, 50.3314304 ], [ 18.9549454, 50.3316014 ], [ 18.9550633, 50.331674 ], [ 18.9551994, 50.3318907 ], [ 18.955163, 50.3318986 ], [ 18.9553257, 50.3321335 ], [ 18.9554572, 50.3322706 ], [ 18.9560711, 50.332867 ], [ 18.9564295, 50.3331238 ], [ 18.9568727, 50.3334469 ], [ 18.9578316, 50.3338896 ], [ 18.9587559, 50.3345659 ], [ 18.9590523, 50.3353312 ], [ 18.9594719, 50.3364444 ], [ 18.95962, 50.3368005 ], [ 18.9598894, 50.3375044 ], [ 18.9601391, 50.3380603 ], [ 18.9601124, 50.3380638 ], [ 18.9604049, 50.3389343 ], [ 18.9605715, 50.3394657 ], [ 18.9609017, 50.3404103 ], [ 18.9608666, 50.3404162 ], [ 18.9609096, 50.340534 ], [ 18.960939, 50.3405911 ], [ 18.9609969, 50.3408501 ], [ 18.9612225, 50.3407828 ], [ 18.9623493, 50.3405013 ], [ 18.962898, 50.3423927 ], [ 18.9633235, 50.3437998 ], [ 18.963545, 50.3446263 ], [ 18.9640214, 50.3464552 ], [ 18.9635118, 50.3464905 ], [ 18.9618486, 50.3465258 ], [ 18.9618608, 50.3466131 ], [ 18.962031, 50.3474436 ], [ 18.9620324, 50.3474762 ], [ 18.9620531, 50.3475473 ], [ 18.9622127, 50.3480199 ], [ 18.962777, 50.3497993 ], [ 18.9631432, 50.3508576 ], [ 18.9635462, 50.352064 ], [ 18.9639208, 50.3533246 ], [ 18.9640721, 50.3537696 ], [ 18.964097, 50.3540616 ], [ 18.9639284, 50.3541659 ], [ 18.9638904, 50.3543118 ], [ 18.9639161, 50.3546857 ], [ 18.9639805, 50.3549559 ], [ 18.9639101, 50.3551008 ], [ 18.9638529, 50.3551457 ], [ 18.9636486, 50.3553057 ], [ 18.9633347, 50.3554803 ], [ 18.9625207, 50.3558128 ], [ 18.9621642, 50.3559673 ], [ 18.9608162, 50.3563572 ], [ 18.9601965, 50.3564895 ], [ 18.9594939, 50.3565833 ], [ 18.959123, 50.3566654 ], [ 18.9582624, 50.3570171 ], [ 18.9578711, 50.3572025 ], [ 18.9572488, 50.3574757 ], [ 18.956505, 50.3578308 ], [ 18.9562485, 50.3579618 ], [ 18.9557879, 50.3581777 ], [ 18.955175, 50.3584439 ], [ 18.9549559, 50.358547 ], [ 18.954733, 50.3586233 ], [ 18.9546864, 50.3587029 ], [ 18.9542366, 50.3588846 ], [ 18.9533398, 50.3592174 ], [ 18.9529877, 50.3593371 ], [ 18.9527454, 50.3595168 ], [ 18.9525309, 50.3595172 ], [ 18.9524537, 50.3594991 ], [ 18.9524123, 50.3595539 ], [ 18.9524046, 50.3596472 ], [ 18.9517027, 50.3601594 ], [ 18.9510069, 50.3606943 ], [ 18.9490569, 50.3607253 ], [ 18.9479235, 50.3607519 ], [ 18.9451896, 50.3607999 ], [ 18.945178, 50.3607253 ], [ 18.9451405, 50.3605743 ], [ 18.9422026, 50.3607653 ], [ 18.9412636, 50.3608194 ], [ 18.9403149, 50.3608148 ], [ 18.9402694, 50.3608146 ], [ 18.9401783, 50.3608293 ], [ 18.939997, 50.3608847 ], [ 18.9395321, 50.3609297 ], [ 18.9389333, 50.360961 ], [ 18.9383888, 50.3609756 ], [ 18.9364604, 50.3610003 ], [ 18.935782, 50.3610245 ], [ 18.9353561, 50.3610298 ], [ 18.9351734, 50.3610233 ], [ 18.9350841, 50.3610116 ], [ 18.9348453, 50.3610823 ], [ 18.9362016, 50.3622536 ], [ 18.9362609, 50.3623273 ], [ 18.9364966, 50.3625334 ], [ 18.9370176, 50.3630159 ], [ 18.9343355, 50.3634049 ], [ 18.9313798, 50.3638678 ], [ 18.9306829, 50.36399 ], [ 18.9295892, 50.364202 ], [ 18.9286315, 50.3644462 ], [ 18.9276539, 50.3647836 ], [ 18.9267715, 50.3651241 ], [ 18.9260908, 50.3654154 ], [ 18.9255045, 50.3657087 ], [ 18.9253188, 50.3657777 ], [ 18.9252698, 50.3657914 ], [ 18.9252698, 50.365802 ], [ 18.9246634, 50.3661285 ], [ 18.9246722, 50.3662845 ], [ 18.9231106, 50.3665536 ], [ 18.9228752, 50.366589 ], [ 18.9229823, 50.3662479 ], [ 18.9229997, 50.3661925 ], [ 18.9230692, 50.3659714 ], [ 18.9223533, 50.3660717 ], [ 18.922286, 50.3660812 ], [ 18.9218344, 50.366154 ], [ 18.9217164, 50.3669593 ], [ 18.9215991, 50.3678235 ], [ 18.921589, 50.3681759 ], [ 18.9207054, 50.3693134 ], [ 18.9189151, 50.3706297 ], [ 18.9191778, 50.3706534 ], [ 18.9197412, 50.3706079 ], [ 18.9201172, 50.3705553 ], [ 18.9205213, 50.3705226 ], [ 18.9211885, 50.3704449 ], [ 18.921638, 50.3703708 ], [ 18.9224508, 50.370311 ], [ 18.9226638, 50.3703261 ], [ 18.9226357, 50.3704231 ], [ 18.922672, 50.3705676 ], [ 18.9227173, 50.3705803 ], [ 18.9227539, 50.37069 ], [ 18.9227677, 50.3710154 ], [ 18.9227098, 50.3713229 ], [ 18.9226536, 50.3714092 ], [ 18.9222374, 50.3714369 ], [ 18.9220549, 50.3713744 ], [ 18.9219269, 50.3713195 ], [ 18.9218219, 50.3713087 ], [ 18.9215786, 50.3713008 ], [ 18.9212583, 50.3713346 ], [ 18.9211089, 50.3713585 ], [ 18.9210784, 50.3713352 ], [ 18.9209464, 50.371372 ], [ 18.9199629, 50.3717164 ], [ 18.9193955, 50.3718837 ], [ 18.9191809, 50.3719331 ], [ 18.9190217, 50.3718949 ], [ 18.9188887, 50.3718164 ], [ 18.9188325, 50.3717571 ], [ 18.9186395, 50.3717317 ], [ 18.9186496, 50.3716214 ], [ 18.918391, 50.3716813 ], [ 18.9171527, 50.371592 ], [ 18.916653, 50.3715701 ], [ 18.9164509, 50.3715791 ], [ 18.9162881, 50.3716119 ], [ 18.915116, 50.3719565 ], [ 18.9146617, 50.3720984 ], [ 18.914495, 50.3721565 ], [ 18.9144915, 50.3721305 ], [ 18.9142979, 50.3718586 ], [ 18.9130287, 50.372455 ], [ 18.9125597, 50.3726843 ], [ 18.911794, 50.3730688 ], [ 18.9110576, 50.3734571 ], [ 18.9103759, 50.3737408 ], [ 18.909668, 50.373995 ], [ 18.9083231, 50.3738463 ], [ 18.9079105, 50.3740254 ], [ 18.9063591, 50.3749534 ], [ 18.9052833, 50.3750485 ], [ 18.9047752, 50.3750509 ], [ 18.9023552, 50.3765131 ], [ 18.9008294, 50.3770949 ], [ 18.9001361, 50.3773757 ], [ 18.8995939, 50.3776033 ], [ 18.8992739, 50.3777401 ], [ 18.8989091, 50.3779069 ], [ 18.8979489, 50.3783678 ], [ 18.897074, 50.3787644 ], [ 18.8969984, 50.3788251 ], [ 18.8969507, 50.3789964 ], [ 18.895981, 50.3792894 ], [ 18.8954708, 50.3794179 ], [ 18.8955403, 50.3794861 ], [ 18.89567, 50.3808566 ], [ 18.8962237, 50.381127 ], [ 18.8959835, 50.3844047 ], [ 18.8953317, 50.3848203 ], [ 18.8953044, 50.3849121 ], [ 18.8944671, 50.3848939 ], [ 18.8945227, 50.3842429 ], [ 18.8928776, 50.384193 ], [ 18.8929155, 50.3837167 ], [ 18.892795, 50.3837167 ], [ 18.8928183, 50.3834841 ], [ 18.8928724, 50.3825869 ], [ 18.8929211, 50.3821401 ], [ 18.8929364, 50.3816917 ], [ 18.8929914, 50.380652 ], [ 18.8929752, 50.3806103 ], [ 18.892947, 50.3805923 ], [ 18.8928296, 50.3806433 ], [ 18.89223, 50.3809526 ], [ 18.891928, 50.3810732 ], [ 18.8913842, 50.3811895 ], [ 18.8900332, 50.3812665 ], [ 18.8891547, 50.3813835 ], [ 18.8889801, 50.3813135 ], [ 18.8889275, 50.3812993 ], [ 18.8887357, 50.3812232 ], [ 18.8886009, 50.3813776 ], [ 18.88816, 50.3812188 ], [ 18.8882679, 50.3810951 ], [ 18.8864575, 50.3804247 ], [ 18.8857254, 50.3812353 ], [ 18.8856453, 50.3812254 ], [ 18.8854494, 50.3814254 ], [ 18.8849143, 50.382026 ], [ 18.8847691, 50.382209 ], [ 18.8842425, 50.3828374 ], [ 18.8840284, 50.3831268 ], [ 18.8841545, 50.3833437 ], [ 18.8843769, 50.3836766 ], [ 18.8844032, 50.3836962 ], [ 18.8848515, 50.3845724 ], [ 18.8850632, 50.3850013 ], [ 18.8853108, 50.3854371 ], [ 18.8853122, 50.3854784 ], [ 18.8853844, 50.3855984 ], [ 18.8855081, 50.3857804 ], [ 18.8857481, 50.3862013 ], [ 18.8860252, 50.3867095 ], [ 18.8860871, 50.3867947 ], [ 18.886503, 50.3875609 ], [ 18.8865673, 50.3876416 ], [ 18.8865825, 50.3876731 ], [ 18.8867434, 50.388 ], [ 18.8868774, 50.3882237 ], [ 18.886574, 50.3883856 ], [ 18.8866402, 50.3885041 ], [ 18.8867748, 50.3889508 ], [ 18.8869982, 50.3893771 ], [ 18.8871359, 50.3896263 ], [ 18.8868202, 50.389648 ], [ 18.8861506, 50.3897103 ], [ 18.8860402, 50.3897386 ], [ 18.886065, 50.3897572 ], [ 18.8862869, 50.3897612 ], [ 18.8865372, 50.3899848 ], [ 18.8866145, 50.390043 ], [ 18.8877896, 50.3910292 ], [ 18.887939, 50.3911359 ], [ 18.8880285, 50.3912402 ], [ 18.8886572, 50.391792 ], [ 18.8891658, 50.3921694 ], [ 18.889286, 50.392281 ], [ 18.8894324, 50.3923831 ], [ 18.8900131, 50.3927508 ], [ 18.8893883, 50.3931305 ], [ 18.889378, 50.3932203 ], [ 18.889223, 50.3933427 ], [ 18.8889835, 50.393469 ], [ 18.8885895, 50.3936298 ], [ 18.8881487, 50.3939297 ], [ 18.8880106, 50.3940078 ], [ 18.889073, 50.3943613 ], [ 18.8901827, 50.3947194 ], [ 18.8906757, 50.3947412 ], [ 18.8903504, 50.3949495 ], [ 18.8903384, 50.3952764 ], [ 18.8908264, 50.3956085 ], [ 18.8909997, 50.3954983 ], [ 18.8916512, 50.3959141 ], [ 18.8918065, 50.3958154 ], [ 18.8921872, 50.3960901 ], [ 18.8930381, 50.3966866 ], [ 18.8930668, 50.3967113 ], [ 18.8933562, 50.3965337 ], [ 18.8945324, 50.3972526 ], [ 18.8907301, 50.3996091 ], [ 18.8893366, 50.3994366 ], [ 18.8878207, 50.3992821 ], [ 18.8865326, 50.3991888 ], [ 18.8851274, 50.399109 ], [ 18.8836724, 50.3989977 ], [ 18.8835988, 50.3989898 ], [ 18.8836196, 50.3990148 ], [ 18.8837016, 50.3993991 ], [ 18.8836982, 50.399752 ], [ 18.8836451, 50.4000503 ], [ 18.8836361, 50.4004658 ], [ 18.8836794, 50.4004531 ], [ 18.8838045, 50.400989 ], [ 18.8838165, 50.4012718 ], [ 18.8838431, 50.4014171 ], [ 18.8839783, 50.4018961 ], [ 18.8841176, 50.4022908 ], [ 18.8843554, 50.4028856 ], [ 18.8843965, 50.402983 ], [ 18.8844908, 50.4031647 ], [ 18.8845943, 50.4034052 ], [ 18.8847164, 50.4037227 ], [ 18.8845198, 50.4057091 ], [ 18.8844416, 50.4057473 ], [ 18.8836694, 50.4062212 ], [ 18.8830882, 50.4065389 ], [ 18.8828421, 50.4066921 ], [ 18.8822055, 50.4071181 ], [ 18.8815116, 50.4075935 ], [ 18.8809703, 50.4079051 ], [ 18.8808663, 50.4079985 ], [ 18.8804519, 50.4082953 ], [ 18.8803299, 50.4083497 ], [ 18.8803223, 50.4084446 ], [ 18.8800892, 50.4086826 ], [ 18.879276, 50.4093745 ], [ 18.8791958, 50.4094495 ], [ 18.8785845, 50.4100206 ], [ 18.8778738, 50.4096367 ], [ 18.8777734, 50.4095824 ], [ 18.8776811, 50.4096068 ], [ 18.8772012, 50.4097913 ], [ 18.8768198, 50.4098905 ], [ 18.8766732, 50.4099408 ], [ 18.8754002, 50.4103069 ], [ 18.8752692, 50.411279 ], [ 18.8748831, 50.4112389 ], [ 18.8744223, 50.4112002 ], [ 18.8743098, 50.411635 ], [ 18.8740464, 50.4116201 ], [ 18.8739604, 50.4123207 ], [ 18.8735496, 50.412327 ], [ 18.8729957, 50.4123354 ], [ 18.8724623, 50.4123435 ], [ 18.8721599, 50.4123481 ], [ 18.872074, 50.4123544 ], [ 18.8712324, 50.4124164 ], [ 18.8706824, 50.4125215 ], [ 18.8679778, 50.4129655 ], [ 18.8677071, 50.4129566 ], [ 18.8672885, 50.4129499 ], [ 18.8668005, 50.4129478 ], [ 18.8663975, 50.412958 ], [ 18.8655186, 50.4129545 ], [ 18.8651902, 50.4129613 ], [ 18.8646487, 50.4129831 ], [ 18.863258, 50.4130045 ], [ 18.8631121, 50.4106537 ], [ 18.8630212, 50.4089014 ], [ 18.8629725, 50.408522 ], [ 18.8629626, 50.4083076 ], [ 18.8629284, 50.4080914 ], [ 18.8628382, 50.4078967 ], [ 18.8621649, 50.4067965 ], [ 18.8623631, 50.4066833 ], [ 18.8627739, 50.4064717 ], [ 18.8637741, 50.4059377 ], [ 18.8625906, 50.4062219 ], [ 18.8624348, 50.4063194 ], [ 18.8622971, 50.4061272 ], [ 18.8621789, 50.4059792 ], [ 18.862054, 50.4060493 ], [ 18.8618968, 50.4060127 ], [ 18.8616652, 50.4060578 ], [ 18.8608177, 50.406089 ], [ 18.8605208, 50.4060905 ], [ 18.8596266, 50.4062461 ], [ 18.8587507, 50.4064449 ], [ 18.8581641, 50.4066203 ], [ 18.8575329, 50.406863 ], [ 18.8561432, 50.4072841 ], [ 18.8556426, 50.4073811 ], [ 18.8551464, 50.4074376 ], [ 18.8551904, 50.407472 ], [ 18.8536238, 50.4077811 ], [ 18.852627, 50.4078091 ], [ 18.851928, 50.4079335 ], [ 18.8499538, 50.4078194 ], [ 18.8473466, 50.4078617 ], [ 18.8452569, 50.4078905 ], [ 18.8446275, 50.4088753 ], [ 18.8430102, 50.4100569 ], [ 18.8422261, 50.4107738 ], [ 18.8419002, 50.4110718 ], [ 18.8416897, 50.4112643 ], [ 18.8414109, 50.4114832 ], [ 18.8409953, 50.4119148 ], [ 18.8405939, 50.4122228 ], [ 18.840357, 50.4124403 ], [ 18.8398044, 50.4128838 ], [ 18.8385195, 50.4133582 ], [ 18.8377758, 50.4135628 ], [ 18.837617, 50.4136022 ], [ 18.8374068, 50.4136544 ], [ 18.8372344, 50.4137092 ], [ 18.8368401, 50.4132741 ], [ 18.8366194, 50.4133458 ], [ 18.8362941, 50.4134515 ], [ 18.835664, 50.4127812 ], [ 18.8353796, 50.4133555 ], [ 18.8349134, 50.4131028 ], [ 18.8347412, 50.4130095 ], [ 18.8341856, 50.4124646 ], [ 18.8337601, 50.4116368 ], [ 18.8334258, 50.4111333 ], [ 18.8331419, 50.4104811 ], [ 18.832894, 50.4101841 ], [ 18.8326145, 50.4096735 ], [ 18.8325433, 50.4094092 ], [ 18.8325453, 50.4081507 ], [ 18.8323929, 50.4076417 ], [ 18.8323924, 50.4068555 ], [ 18.8324109, 50.4067144 ], [ 18.832439, 50.4057139 ], [ 18.8324749, 50.4055037 ], [ 18.8324726, 50.4053344 ], [ 18.8321742, 50.4048409 ], [ 18.8320804, 50.4046106 ], [ 18.8313418, 50.402798 ], [ 18.831302, 50.4027255 ], [ 18.8310271, 50.4022207 ], [ 18.830608, 50.4017648 ], [ 18.8287445, 50.4001419 ], [ 18.8284612, 50.4002106 ], [ 18.8283035, 50.4002084 ], [ 18.8282999, 50.4002042 ], [ 18.82622, 50.4006401 ], [ 18.8231496, 50.4012728 ], [ 18.8221969, 50.4017656 ], [ 18.8212307, 50.4028098 ], [ 18.820874, 50.4040896 ], [ 18.8207077, 50.4043012 ], [ 18.820721, 50.4043846 ], [ 18.820497, 50.4045211 ], [ 18.8197303, 50.4049108 ], [ 18.8192229, 50.4051158 ], [ 18.8181397, 50.4053699 ], [ 18.8172396, 50.4053257 ], [ 18.8163601, 50.4053464 ], [ 18.8159518, 50.4053489 ], [ 18.8155386, 50.4053666 ], [ 18.8146522, 50.4053634 ], [ 18.8141147, 50.4054008 ], [ 18.8131432, 50.405486 ], [ 18.8131079, 50.405444 ], [ 18.8128898, 50.4055081 ], [ 18.8122306, 50.4049418 ], [ 18.8120312, 50.4050278 ], [ 18.8118359, 50.4048552 ], [ 18.8118229, 50.4048676 ], [ 18.8109951, 50.4041847 ], [ 18.8097891, 50.4045681 ], [ 18.8095583, 50.4045503 ], [ 18.80917, 50.4038868 ], [ 18.8084955, 50.4026998 ], [ 18.8082156, 50.402509 ], [ 18.8077079, 50.4019535 ], [ 18.8073876, 50.4015147 ], [ 18.806642, 50.4022994 ], [ 18.8051135, 50.4013349 ], [ 18.8050632, 50.4013072 ], [ 18.8043346, 50.4011622 ], [ 18.8033271, 50.4005348 ], [ 18.8019842, 50.3996656 ], [ 18.8010291, 50.4003254 ], [ 18.8002137, 50.3998756 ], [ 18.7999327, 50.3997784 ], [ 18.7998069, 50.3997219 ], [ 18.7994339, 50.3995081 ], [ 18.799094, 50.3995674 ], [ 18.7985771, 50.3998959 ], [ 18.7982423, 50.4001369 ], [ 18.7978918, 50.4003779 ], [ 18.7968692, 50.39959 ], [ 18.7966223, 50.3994889 ], [ 18.795797, 50.3992907 ], [ 18.7953469, 50.3996541 ], [ 18.7950704, 50.3999541 ], [ 18.7949295, 50.3999811 ], [ 18.7951655, 50.3996915 ], [ 18.7948675, 50.3995941 ], [ 18.7943468, 50.3995391 ], [ 18.7937093, 50.3996092 ], [ 18.7931249, 50.399537 ], [ 18.7927201, 50.3995894 ], [ 18.7924217, 50.3996827 ], [ 18.7919975, 50.3997155 ], [ 18.7913506, 50.3997832 ], [ 18.7904696, 50.3997047 ], [ 18.7903091, 50.3995248 ], [ 18.7920867, 50.3962068 ], [ 18.7936018, 50.3953364 ], [ 18.7948223, 50.3953633 ], [ 18.7944572, 50.3948227 ], [ 18.7914596, 50.3944296 ], [ 18.7903992, 50.3937347 ], [ 18.789444, 50.3931228 ], [ 18.7885838, 50.3925613 ] ] ] } }
]
}
