{
"type": "FeatureCollection",
"name": "caen_fr",
"crs": { "type": "name", "properties": { "name": "urn:ogc:def:crs:OGC:1.3:CRS84" } },
"features": [
{ "type": "Feature", "properties": { }, "geometry": { "type": "Polygon", "coordinates": [ [ [ -0.413777, 49.1869445 ], [ -0.4133541, 49.1861203 ], [ -0.412495, 49.1845048 ], [ -0.4124241, 49.1843535 ], [ -0.412358, 49.1842655 ], [ -0.4110157, 49.1837106 ], [ -0.4109717, 49.1833575 ], [ -0.4098665, 49.1825468 ], [ -0.4094848, 49.1821983 ], [ -0.4090501, 49.1817324 ], [ -0.4087154, 49.1813293 ], [ -0.4084028, 49.1809149 ], [ -0.4082944, 49.1808151 ], [ -0.4082037, 49.1806864 ], [ -0.4081141, 49.1805922 ], [ -0.4074191, 49.1799562 ], [ -0.4071588, 49.1797448 ], [ -0.4070833, 49.1796702 ], [ -0.4070131, 49.1795746 ], [ -0.4066887, 49.1788987 ], [ -0.4065277, 49.1787179 ], [ -0.4062088, 49.1784019 ], [ -0.4059205, 49.1781583 ], [ -0.4058658, 49.1781274 ], [ -0.4055414, 49.1780121 ], [ -0.4052724, 49.1778965 ], [ -0.404715, 49.1776287 ], [ -0.4045758, 49.1775861 ], [ -0.404331, 49.177542 ], [ -0.4038743, 49.1775029 ], [ -0.4036066, 49.177521 ], [ -0.4034932, 49.1775106 ], [ -0.4034625, 49.177438 ], [ -0.4033121, 49.1768859 ], [ -0.4032983, 49.1767848 ], [ -0.4033036, 49.176658 ], [ -0.4034287, 49.1762895 ], [ -0.4035203, 49.176055 ], [ -0.4036384, 49.1757527 ], [ -0.4036925, 49.1755335 ], [ -0.4037422, 49.1750876 ], [ -0.4037857, 49.1749502 ], [ -0.4038428, 49.1748696 ], [ -0.4040779, 49.17463 ], [ -0.4044415, 49.1742285 ], [ -0.4045019, 49.1741391 ], [ -0.4046068, 49.1738751 ], [ -0.404773, 49.1731795 ], [ -0.4047838, 49.1731465 ], [ -0.4048543, 49.1729308 ], [ -0.4048926, 49.1728034 ], [ -0.4051248, 49.1722618 ], [ -0.4054384, 49.1717342 ], [ -0.4056891, 49.1711392 ], [ -0.405934, 49.1709824 ], [ -0.4059441, 49.1709589 ], [ -0.4055989, 49.1707164 ], [ -0.4046364, 49.1700998 ], [ -0.4043587, 49.1699516 ], [ -0.4040123, 49.1698006 ], [ -0.4039902, 49.1697808 ], [ -0.4038783, 49.1697442 ], [ -0.4037752, 49.1697652 ], [ -0.4037161, 49.1697433 ], [ -0.4036037, 49.1696668 ], [ -0.4036054, 49.1696407 ], [ -0.4036384, 49.1696045 ], [ -0.4027804, 49.1693114 ], [ -0.4022838, 49.169192 ], [ -0.4008212, 49.1689154 ], [ -0.4007243, 49.1688439 ], [ -0.4011369, 49.1688384 ], [ -0.401891, 49.168807 ], [ -0.401902, 49.1687992 ], [ -0.401887, 49.1685963 ], [ -0.4016267, 49.1686376 ], [ -0.40141, 49.1686396 ], [ -0.4011992, 49.1686238 ], [ -0.4008881, 49.1686003 ], [ -0.4005621, 49.1685873 ], [ -0.3996374, 49.1684891 ], [ -0.3990467, 49.1684213 ], [ -0.3987745, 49.1684229 ], [ -0.3986851, 49.1684288 ], [ -0.3985881, 49.1684434 ], [ -0.3984344, 49.1684813 ], [ -0.3983529, 49.168495 ], [ -0.3982532, 49.1684993 ], [ -0.3981757, 49.1684952 ], [ -0.3978124, 49.1684564 ], [ -0.3975888, 49.1684213 ], [ -0.3971534, 49.1683426 ], [ -0.3969378, 49.1682736 ], [ -0.3966259, 49.1681846 ], [ -0.3965581, 49.1681743 ], [ -0.3965241, 49.1681731 ], [ -0.3964811, 49.1681761 ], [ -0.396444, 49.1681801 ], [ -0.3964107, 49.1681799 ], [ -0.3962486, 49.1681707 ], [ -0.3960625, 49.1681522 ], [ -0.3957148, 49.1681176 ], [ -0.3955642, 49.1681189 ], [ -0.3953353, 49.1681326 ], [ -0.3951499, 49.1681478 ], [ -0.3950215, 49.1681615 ], [ -0.3948554, 49.1681862 ], [ -0.3948016, 49.1681862 ], [ -0.3948186, 49.167918 ], [ -0.3949133, 49.167649 ], [ -0.3948767, 49.1676236 ], [ -0.3947751, 49.167478 ], [ -0.3946475, 49.1672928 ], [ -0.3945374, 49.1671311 ], [ -0.3940101, 49.1664765 ], [ -0.3941042, 49.1664808 ], [ -0.3943089, 49.1664934 ], [ -0.394339, 49.1664956 ], [ -0.3944602, 49.166503 ], [ -0.3943897, 49.1664335 ], [ -0.3943592, 49.1663933 ], [ -0.3943348, 49.1663546 ], [ -0.3943211, 49.1663159 ], [ -0.3943415, 49.1662221 ], [ -0.3943749, 49.1661664 ], [ -0.3944317, 49.1661278 ], [ -0.3946313, 49.1660725 ], [ -0.3946808, 49.1660309 ], [ -0.3946888, 49.165999 ], [ -0.3946801, 49.1659613 ], [ -0.3946496, 49.165942 ], [ -0.3945139, 49.1659388 ], [ -0.3942249, 49.1659589 ], [ -0.3941787, 49.1659493 ], [ -0.3941247, 49.1659076 ], [ -0.3941133, 49.1658422 ], [ -0.3942223, 49.165598 ], [ -0.3942258, 49.1655382 ], [ -0.3941831, 49.1654606 ], [ -0.3941364, 49.1654406 ], [ -0.3940821, 49.1654409 ], [ -0.3939339, 49.1654643 ], [ -0.3938877, 49.1654568 ], [ -0.3938406, 49.1654362 ], [ -0.3937885, 49.1653849 ], [ -0.3937387, 49.1653459 ], [ -0.3937541, 49.1653161 ], [ -0.3937894, 49.165282 ], [ -0.3938319, 49.16525 ], [ -0.3938759, 49.1652255 ], [ -0.3939083, 49.1652003 ], [ -0.3939828, 49.1651356 ], [ -0.3940066, 49.1650588 ], [ -0.3940124, 49.1649356 ], [ -0.3939918, 49.1648961 ], [ -0.3939034, 49.164835 ], [ -0.3937858, 49.164782 ], [ -0.3937263, 49.1647622 ], [ -0.3936174, 49.1647709 ], [ -0.3935298, 49.1647953 ], [ -0.3934562, 49.1647848 ], [ -0.3934112, 49.164729 ], [ -0.3933288, 49.1647075 ], [ -0.3931088, 49.1647195 ], [ -0.3923923, 49.1646981 ], [ -0.3922915, 49.1646762 ], [ -0.3922052, 49.1646344 ], [ -0.3921752, 49.164585 ], [ -0.3921948, 49.164533 ], [ -0.3923664, 49.1643779 ], [ -0.3924074, 49.164321 ], [ -0.3924025, 49.1642635 ], [ -0.3923406, 49.1642141 ], [ -0.392254, 49.1641898 ], [ -0.3919884, 49.1641561 ], [ -0.3918566, 49.1641241 ], [ -0.3917996, 49.164099 ], [ -0.3917373, 49.1640456 ], [ -0.3917084, 49.1640033 ], [ -0.3916411, 49.1638393 ], [ -0.391621, 49.1638233 ], [ -0.3915767, 49.1638152 ], [ -0.3915256, 49.1638307 ], [ -0.3914081, 49.1639597 ], [ -0.3913838, 49.163973 ], [ -0.3913175, 49.1639856 ], [ -0.3912191, 49.1639835 ], [ -0.3911617, 49.1639667 ], [ -0.3907775, 49.1637712 ], [ -0.3907154, 49.1637564 ], [ -0.3906837, 49.1637588 ], [ -0.3906344, 49.1637779 ], [ -0.3905585, 49.1638393 ], [ -0.3905126, 49.1638624 ], [ -0.3904298, 49.1638701 ], [ -0.3903225, 49.1638625 ], [ -0.3900001, 49.1638165 ], [ -0.3899117, 49.1638192 ], [ -0.3896251, 49.1638876 ], [ -0.3895529, 49.1638895 ], [ -0.3892677, 49.1638554 ], [ -0.3891892, 49.1638702 ], [ -0.3888916, 49.1638692 ], [ -0.3887169, 49.1638454 ], [ -0.3886692, 49.1638189 ], [ -0.388609, 49.1637342 ], [ -0.388545, 49.1635965 ], [ -0.3885087, 49.1635446 ], [ -0.3884527, 49.163499 ], [ -0.3883844, 49.1634648 ], [ -0.3878198, 49.1632681 ], [ -0.3876414, 49.1631876 ], [ -0.387594, 49.1631744 ], [ -0.3875182, 49.1631688 ], [ -0.3873321, 49.1631851 ], [ -0.3872586, 49.1631787 ], [ -0.387184, 49.1631484 ], [ -0.3871171, 49.1630903 ], [ -0.387023, 49.1629175 ], [ -0.3869862, 49.1628906 ], [ -0.3869269, 49.1628715 ], [ -0.3851452, 49.1628505 ], [ -0.3846754, 49.1629758 ], [ -0.3844076, 49.1629813 ], [ -0.3842644, 49.1629528 ], [ -0.3838047, 49.1628463 ], [ -0.3837075, 49.162841 ], [ -0.3831566, 49.162875 ], [ -0.3828977, 49.1628827 ], [ -0.3828322, 49.1628737 ], [ -0.3825736, 49.1627976 ], [ -0.3821721, 49.1627598 ], [ -0.3820709, 49.1627371 ], [ -0.3819426, 49.1627438 ], [ -0.3817739, 49.1627732 ], [ -0.3816906, 49.162779 ], [ -0.381463, 49.1627477 ], [ -0.3810995, 49.1626763 ], [ -0.3810117, 49.162682 ], [ -0.380611, 49.1627512 ], [ -0.3804596, 49.162791 ], [ -0.3802592, 49.1629035 ], [ -0.3801876, 49.1629133 ], [ -0.3801508, 49.1629101 ], [ -0.3800925, 49.1628858 ], [ -0.3799279, 49.1627256 ], [ -0.379882, 49.1626994 ], [ -0.3798193, 49.1626854 ], [ -0.3795751, 49.1626942 ], [ -0.3793719, 49.162715 ], [ -0.3792989, 49.1627104 ], [ -0.3792435, 49.1626941 ], [ -0.3790677, 49.1626102 ], [ -0.3788991, 49.1625695 ], [ -0.3787102, 49.1625553 ], [ -0.3785516, 49.1625679 ], [ -0.3784123, 49.1625983 ], [ -0.3780744, 49.1626993 ], [ -0.3779361, 49.162729 ], [ -0.3777752, 49.1627462 ], [ -0.3776379, 49.1627334 ], [ -0.3776011, 49.1627699 ], [ -0.3775025, 49.1628782 ], [ -0.3772899, 49.1630406 ], [ -0.3771294, 49.1631321 ], [ -0.3766184, 49.1633674 ], [ -0.3764921, 49.1634128 ], [ -0.3763604, 49.1634479 ], [ -0.3762472, 49.1634635 ], [ -0.3761191, 49.1634402 ], [ -0.3760425, 49.1634107 ], [ -0.3759568, 49.1633823 ], [ -0.3758749, 49.1633662 ], [ -0.3755963, 49.1633701 ], [ -0.3755431, 49.1633618 ], [ -0.375331, 49.1632963 ], [ -0.3752427, 49.1632819 ], [ -0.3749919, 49.1632712 ], [ -0.3744236, 49.163305 ], [ -0.373745, 49.1632545 ], [ -0.3736085, 49.1632591 ], [ -0.373547, 49.163272 ], [ -0.3734845, 49.1633024 ], [ -0.3733562, 49.1633918 ], [ -0.3732212, 49.1634451 ], [ -0.3728966, 49.1635515 ], [ -0.3728363, 49.1635857 ], [ -0.3727872, 49.1636584 ], [ -0.3727108, 49.1638426 ], [ -0.3726847, 49.1638647 ], [ -0.3726464, 49.1638773 ], [ -0.3726038, 49.1638776 ], [ -0.3723653, 49.1638145 ], [ -0.3723205, 49.1638127 ], [ -0.3722793, 49.1638226 ], [ -0.3722429, 49.1638475 ], [ -0.3722013, 49.1639048 ], [ -0.3720968, 49.1641242 ], [ -0.3720871, 49.1641743 ], [ -0.3721052, 49.1642078 ], [ -0.372173, 49.1642704 ], [ -0.3721896, 49.1643044 ], [ -0.3721724, 49.1643433 ], [ -0.3721304, 49.1643734 ], [ -0.3718875, 49.1644793 ], [ -0.3717412, 49.16456 ], [ -0.3716482, 49.1645895 ], [ -0.3714912, 49.1646126 ], [ -0.3712923, 49.1646275 ], [ -0.371236, 49.1646462 ], [ -0.3712067, 49.1646676 ], [ -0.3711141, 49.1647801 ], [ -0.3710832, 49.1648436 ], [ -0.3710808, 49.1649669 ], [ -0.3710678, 49.1649938 ], [ -0.3710379, 49.1650139 ], [ -0.3709945, 49.1650221 ], [ -0.3708526, 49.1650184 ], [ -0.3707928, 49.1650027 ], [ -0.370646, 49.1649401 ], [ -0.3705825, 49.164926 ], [ -0.370482, 49.1649388 ], [ -0.3700373, 49.1650823 ], [ -0.3700082, 49.1651207 ], [ -0.3699934, 49.1654799 ], [ -0.3699543, 49.1655469 ], [ -0.3698168, 49.165693 ], [ -0.3697304, 49.1658437 ], [ -0.3697236, 49.166084 ], [ -0.3696989, 49.1661698 ], [ -0.3694848, 49.1664092 ], [ -0.3694471, 49.1665368 ], [ -0.3694242, 49.1665628 ], [ -0.3693546, 49.1665851 ], [ -0.3691263, 49.1665915 ], [ -0.3689862, 49.1665731 ], [ -0.3686271, 49.1664626 ], [ -0.368523, 49.1664555 ], [ -0.3678127, 49.1664979 ], [ -0.3677838, 49.1665067 ], [ -0.3676239, 49.1666609 ], [ -0.3667679, 49.1657719 ], [ -0.3667374, 49.1657524 ], [ -0.3666869, 49.1657389 ], [ -0.3654153, 49.1655662 ], [ -0.3655061, 49.1653421 ], [ -0.3656224, 49.1650551 ], [ -0.3656991, 49.1648737 ], [ -0.3657289, 49.1648015 ], [ -0.3659394, 49.1642972 ], [ -0.3659387, 49.1642899 ], [ -0.3659742, 49.1642178 ], [ -0.3661601, 49.1637803 ], [ -0.3661829, 49.1637218 ], [ -0.3663221, 49.1633826 ], [ -0.366373, 49.1632466 ], [ -0.3664221, 49.1631211 ], [ -0.3664335, 49.1630861 ], [ -0.3664816, 49.162934 ], [ -0.3664959, 49.1628895 ], [ -0.3665252, 49.1627865 ], [ -0.3665393, 49.162734 ], [ -0.3665548, 49.162682 ], [ -0.3665911, 49.1625878 ], [ -0.3666274, 49.1624935 ], [ -0.3666691, 49.1623928 ], [ -0.366746, 49.1622071 ], [ -0.3668971, 49.1618392 ], [ -0.3668649, 49.1618256 ], [ -0.3669985, 49.1615564 ], [ -0.3674808, 49.1605743 ], [ -0.3675505, 49.1604012 ], [ -0.3674504, 49.1603878 ], [ -0.367058, 49.160324 ], [ -0.367008, 49.160317 ], [ -0.367092, 49.160163 ], [ -0.3670995, 49.1601493 ], [ -0.367167, 49.160025 ], [ -0.367174, 49.1600109 ], [ -0.367189, 49.159981 ], [ -0.3670941, 49.1599696 ], [ -0.3670931, 49.1599719 ], [ -0.3668916, 49.1599519 ], [ -0.3668363, 49.1599464 ], [ -0.3666452, 49.1599165 ], [ -0.3666411, 49.1599159 ], [ -0.3666401, 49.1599189 ], [ -0.3666394, 49.1599204 ], [ -0.3664955, 49.1599009 ], [ -0.3664383, 49.1598934 ], [ -0.366298, 49.159875 ], [ -0.3662352, 49.1598673 ], [ -0.366233, 49.159867 ], [ -0.3660659, 49.1598432 ], [ -0.3660828, 49.1597876 ], [ -0.3659974, 49.1597732 ], [ -0.3658213, 49.1597453 ], [ -0.3654481, 49.1596862 ], [ -0.3650422, 49.1596218 ], [ -0.3650386, 49.1596213 ], [ -0.3646329, 49.1595981 ], [ -0.364244, 49.1595759 ], [ -0.3638477, 49.1595689 ], [ -0.3634572, 49.1595619 ], [ -0.363067, 49.159555 ], [ -0.3626761, 49.1595481 ], [ -0.3622867, 49.1595411 ], [ -0.3618979, 49.1595342 ], [ -0.3617539, 49.1595446 ], [ -0.3616512, 49.1591369 ], [ -0.3616171, 49.1590867 ], [ -0.3617837, 49.1590374 ], [ -0.3616174, 49.1586563 ], [ -0.361575, 49.1586689 ], [ -0.3612721, 49.1587601 ], [ -0.361242, 49.1587678 ], [ -0.3592915, 49.159301 ], [ -0.3588756, 49.1593935 ], [ -0.3559656, 49.1599142 ], [ -0.3546793, 49.1601506 ], [ -0.3540517, 49.1602793 ], [ -0.3537147, 49.1603983 ], [ -0.3518398, 49.1611237 ], [ -0.3517969, 49.1611403 ], [ -0.3516746, 49.16117 ], [ -0.3516548, 49.1611909 ], [ -0.3518678, 49.1616473 ], [ -0.3520805, 49.1621835 ], [ -0.3520659, 49.1621934 ], [ -0.3520559, 49.1622004 ], [ -0.351875, 49.162242 ], [ -0.3518194, 49.1622497 ], [ -0.351763, 49.162265 ], [ -0.351748, 49.162268 ], [ -0.351345, 49.162354 ], [ -0.351266, 49.162371 ], [ -0.351208, 49.162382 ], [ -0.351145, 49.162394 ], [ -0.35116, 49.162417 ], [ -0.35099, 49.162466 ], [ -0.350959, 49.162474 ], [ -0.350918, 49.162486 ], [ -0.350805, 49.162518 ], [ -0.350783, 49.162523 ], [ -0.350687, 49.16255 ], [ -0.350606, 49.162572 ], [ -0.350502, 49.1626 ], [ -0.349999, 49.162736 ], [ -0.349935, 49.162753 ], [ -0.34993, 49.162754 ], [ -0.3498271, 49.1627804 ], [ -0.349798, 49.162789 ], [ -0.349677, 49.162821 ], [ -0.349612, 49.162837 ], [ -0.3493873, 49.1629008 ], [ -0.3493606, 49.1629084 ], [ -0.349341, 49.162914 ], [ -0.349042, 49.162995 ], [ -0.3490292, 49.1629983 ], [ -0.3489228, 49.1630199 ], [ -0.3486593, 49.1625969 ], [ -0.3486001, 49.1625019 ], [ -0.348545, 49.1624135 ], [ -0.347925, 49.161351 ], [ -0.3473075, 49.1602702 ], [ -0.3472409, 49.1601577 ], [ -0.3472268, 49.1601339 ], [ -0.3471613, 49.1600234 ], [ -0.3466352, 49.1591058 ], [ -0.3465541, 49.1589643 ], [ -0.3464788, 49.158833 ], [ -0.3464708, 49.1588189 ], [ -0.3463921, 49.1586768 ], [ -0.3462837, 49.1584916 ], [ -0.3461869, 49.1583238 ], [ -0.3460391, 49.1580626 ], [ -0.346026, 49.1580401 ], [ -0.3460009, 49.1579956 ], [ -0.345895, 49.1578116 ], [ -0.3453834, 49.1569223 ], [ -0.3451451, 49.1565051 ], [ -0.3449577, 49.1561769 ], [ -0.34421, 49.154868 ], [ -0.3441841, 49.1548258 ], [ -0.344174, 49.154809 ], [ -0.3441659, 49.1547996 ], [ -0.344105, 49.1546924 ], [ -0.3440705, 49.1546325 ], [ -0.3437589, 49.1540926 ], [ -0.343663, 49.1539233 ], [ -0.3434808, 49.1536048 ], [ -0.3434722, 49.1535915 ], [ -0.3433077, 49.1533052 ], [ -0.3432216, 49.1531548 ], [ -0.3431407, 49.1530145 ], [ -0.3430479, 49.1530437 ], [ -0.342574, 49.1533176 ], [ -0.3408049, 49.1543443 ], [ -0.3393236, 49.1552053 ], [ -0.3392466, 49.1552404 ], [ -0.3391462, 49.1552636 ], [ -0.3389475, 49.1552827 ], [ -0.3390467, 49.1553544 ], [ -0.3391312, 49.1554155 ], [ -0.3391638, 49.1554604 ], [ -0.3404794, 49.156446 ], [ -0.3383444, 49.1576344 ], [ -0.3373764, 49.1582746 ], [ -0.337678, 49.1584653 ], [ -0.3378077, 49.158549 ], [ -0.3380519, 49.1587052 ], [ -0.3392275, 49.1594571 ], [ -0.3394412, 49.1595938 ], [ -0.339501, 49.159632 ], [ -0.3396976, 49.1597578 ], [ -0.339857, 49.1598598 ], [ -0.3402513, 49.160112 ], [ -0.3406809, 49.1603867 ], [ -0.340367, 49.1606098 ], [ -0.340339, 49.160633 ], [ -0.340327, 49.160644 ], [ -0.34029, 49.160675 ], [ -0.340277, 49.160686 ], [ -0.340189, 49.160761 ], [ -0.3397702, 49.161115 ], [ -0.33967, 49.161203 ], [ -0.339638, 49.16123 ], [ -0.339618, 49.161247 ], [ -0.3392251, 49.1615846 ], [ -0.3390888, 49.1617171 ], [ -0.3391727, 49.161828 ], [ -0.3393765, 49.1619681 ], [ -0.3395778, 49.1621116 ], [ -0.3396176, 49.1621344 ], [ -0.3396754, 49.1621675 ], [ -0.340097, 49.1624086 ], [ -0.3401759, 49.1624538 ], [ -0.3403503, 49.1625701 ], [ -0.3403752, 49.1625863 ], [ -0.3405064, 49.162688 ], [ -0.3409417, 49.1629682 ], [ -0.3428622, 49.1642046 ], [ -0.3431107, 49.1643385 ], [ -0.3416889, 49.1654526 ], [ -0.3416919, 49.165496 ], [ -0.341617, 49.1655604 ], [ -0.3415456, 49.1655309 ], [ -0.3414962, 49.1655512 ], [ -0.3414284, 49.1655791 ], [ -0.3410201, 49.1657168 ], [ -0.3406128, 49.165848 ], [ -0.3382286, 49.1665218 ], [ -0.3372878, 49.1667377 ], [ -0.3372219, 49.1667528 ], [ -0.3365401, 49.1669545 ], [ -0.3364724, 49.1669747 ], [ -0.3364269, 49.1669875 ], [ -0.3363591, 49.1670067 ], [ -0.3362244, 49.1670294 ], [ -0.3353861, 49.1671317 ], [ -0.3349537, 49.1671844 ], [ -0.3347854, 49.1672049 ], [ -0.3346795, 49.1672178 ], [ -0.3345706, 49.1672311 ], [ -0.3345099, 49.1672385 ], [ -0.3340367, 49.1672962 ], [ -0.3334389, 49.1673691 ], [ -0.3332836, 49.1673881 ], [ -0.33296, 49.1674276 ], [ -0.332249, 49.1675144 ], [ -0.3319221, 49.1675544 ], [ -0.3313226, 49.1676273 ], [ -0.3313308, 49.1676484 ], [ -0.331319, 49.1682143 ], [ -0.3312453, 49.1690708 ], [ -0.331255, 49.169174 ], [ -0.3312504, 49.1692261 ], [ -0.3312464, 49.1692628 ], [ -0.3312324, 49.1694192 ], [ -0.3312313, 49.1694572 ], [ -0.331226, 49.169515 ], [ -0.3312134, 49.1696202 ], [ -0.3312095, 49.1697473 ], [ -0.331207, 49.1697951 ], [ -0.331197, 49.169871 ], [ -0.3311908, 49.1699969 ], [ -0.3311926, 49.1701119 ], [ -0.3311935, 49.1702407 ], [ -0.3311943, 49.1703637 ], [ -0.3311873, 49.170489 ], [ -0.3311884, 49.1706081 ], [ -0.3311866, 49.1707339 ], [ -0.3311809, 49.1709328 ], [ -0.3311828, 49.1710966 ], [ -0.3311766, 49.1713988 ], [ -0.3311719, 49.1715459 ], [ -0.3311681, 49.1715971 ], [ -0.3311675, 49.1716725 ], [ -0.331159, 49.171816 ], [ -0.331157, 49.171847 ], [ -0.3311534, 49.1719371 ], [ -0.331149, 49.17202 ], [ -0.33114, 49.172193 ], [ -0.3311389, 49.1722059 ], [ -0.331132, 49.1722782 ], [ -0.3311393, 49.172278 ], [ -0.331139, 49.172287 ], [ -0.331139, 49.1722871 ], [ -0.3311258, 49.1723369 ], [ -0.3309647, 49.1723843 ], [ -0.330938, 49.17277 ], [ -0.330929, 49.173055 ], [ -0.3309184, 49.1731276 ], [ -0.3308878, 49.1739244 ], [ -0.3308811, 49.1739972 ], [ -0.3307285, 49.17398 ], [ -0.3307285, 49.1740731 ], [ -0.330742, 49.1740731 ], [ -0.3307424, 49.1741231 ], [ -0.330744, 49.1741828 ], [ -0.3307466, 49.1742245 ], [ -0.330781, 49.1744296 ], [ -0.3307877, 49.1745226 ], [ -0.3308982, 49.1752492 ], [ -0.330903, 49.175282 ], [ -0.3309182, 49.1753723 ], [ -0.330918, 49.175395 ], [ -0.3309299, 49.175475 ], [ -0.3309365, 49.1755215 ], [ -0.3309438, 49.1755774 ], [ -0.3309504, 49.1756275 ], [ -0.3309551, 49.1756342 ], [ -0.330957, 49.175637 ], [ -0.330961, 49.1756765 ], [ -0.3309648, 49.1757269 ], [ -0.3309665, 49.1757336 ], [ -0.33097, 49.1757609 ], [ -0.330974, 49.1757844 ], [ -0.3309772, 49.1758073 ], [ -0.3309784, 49.1758132 ], [ -0.330994, 49.1758902 ], [ -0.331016, 49.17597 ], [ -0.331021, 49.176 ], [ -0.331036, 49.1760818 ], [ -0.331058, 49.17623 ], [ -0.3310723, 49.1763119 ], [ -0.331076, 49.176326 ], [ -0.3310833, 49.1763653 ], [ -0.3310875, 49.1764042 ], [ -0.331112, 49.176525 ], [ -0.33112, 49.176569 ], [ -0.331128, 49.176618 ], [ -0.3311257, 49.176693 ], [ -0.3311703, 49.1767154 ], [ -0.3317893, 49.1765413 ], [ -0.3318791, 49.1765861 ], [ -0.3319658, 49.1767815 ], [ -0.3314623, 49.1768955 ], [ -0.3314561, 49.1768853 ], [ -0.3312793, 49.1769219 ], [ -0.3312784, 49.1769523 ], [ -0.3312766, 49.1770162 ], [ -0.3312697, 49.1774146 ], [ -0.3317957, 49.1773172 ], [ -0.3319734, 49.1772707 ], [ -0.3321533, 49.1772217 ], [ -0.332774, 49.1770516 ], [ -0.3338179, 49.1767154 ], [ -0.3338493, 49.1767654 ], [ -0.3339244, 49.1769613 ], [ -0.3339643, 49.1770402 ], [ -0.3339655, 49.1770501 ], [ -0.3333082, 49.177228 ], [ -0.3325406, 49.1774686 ], [ -0.332583, 49.1775611 ], [ -0.3326091, 49.1776578 ], [ -0.3327187, 49.1780654 ], [ -0.3327821, 49.1783009 ], [ -0.3330054, 49.1792243 ], [ -0.3330236, 49.1792487 ], [ -0.3330406, 49.1792526 ], [ -0.3333676, 49.1792193 ], [ -0.333398, 49.1792231 ], [ -0.3334248, 49.1792468 ], [ -0.3336132, 49.1793391 ], [ -0.3338217, 49.1798912 ], [ -0.3339059, 49.1800885 ], [ -0.3339689, 49.1801872 ], [ -0.3339944, 49.1802271 ], [ -0.3340199, 49.180267 ], [ -0.3340732, 49.1803506 ], [ -0.3341443, 49.1804619 ], [ -0.3341963, 49.1805431 ], [ -0.3342295, 49.1805952 ], [ -0.3339363, 49.1806198 ], [ -0.3338479, 49.1806614 ], [ -0.3341939, 49.1813009 ], [ -0.3343227, 49.1815328 ], [ -0.3348627, 49.1813736 ], [ -0.3350418, 49.1816994 ], [ -0.3351465, 49.1818843 ], [ -0.3352475, 49.1820616 ], [ -0.3353186, 49.1821873 ], [ -0.3353519, 49.1822461 ], [ -0.3352625, 49.1822933 ], [ -0.3351909, 49.1823324 ], [ -0.3351182, 49.1823737 ], [ -0.3350469, 49.182422 ], [ -0.3349708, 49.1824932 ], [ -0.3349202, 49.182546 ], [ -0.3348386, 49.1826384 ], [ -0.3347361, 49.1827829 ], [ -0.3346172, 49.1830115 ], [ -0.3346145, 49.1833805 ], [ -0.3346583, 49.1835357 ], [ -0.3347394, 49.1837237 ], [ -0.3350344, 49.1843236 ], [ -0.3350697, 49.184418 ], [ -0.3351176, 49.184512 ], [ -0.335312, 49.1850405 ], [ -0.3353182, 49.1851229 ], [ -0.3352998, 49.1852031 ], [ -0.3352469, 49.1852978 ], [ -0.3351765, 49.1853823 ], [ -0.3350894, 49.1854574 ], [ -0.334989, 49.1855236 ], [ -0.3348759, 49.1855816 ], [ -0.3346231, 49.1856753 ], [ -0.3343462, 49.1857435 ], [ -0.3341315, 49.1857806 ], [ -0.3338201, 49.1858123 ], [ -0.3337018, 49.1858163 ], [ -0.3336668, 49.1858252 ], [ -0.3336556, 49.1858543 ], [ -0.3336774, 49.1859448 ], [ -0.333727, 49.1860743 ], [ -0.3337476, 49.1861073 ], [ -0.3337628, 49.1861317 ], [ -0.3339125, 49.1863719 ], [ -0.3344619, 49.1871803 ], [ -0.3345721, 49.1871624 ], [ -0.3346445, 49.1872736 ], [ -0.3346311, 49.1874442 ], [ -0.3348254, 49.1877175 ], [ -0.3351631, 49.1881065 ], [ -0.335367, 49.1883001 ], [ -0.3358155, 49.1888149 ], [ -0.3358978, 49.1889395 ], [ -0.3363021, 49.1896897 ], [ -0.3364832, 49.1899592 ], [ -0.3365752, 49.1900604 ], [ -0.337023, 49.190553 ], [ -0.3375745, 49.1911183 ], [ -0.3375921, 49.1911527 ], [ -0.3376219, 49.1911672 ], [ -0.33774, 49.1913083 ], [ -0.3379893, 49.1916077 ], [ -0.338048, 49.1916632 ], [ -0.3380218, 49.191684 ], [ -0.3377051, 49.1917907 ], [ -0.3358579, 49.1928713 ], [ -0.3358392, 49.1929003 ], [ -0.3358787, 49.1929534 ], [ -0.3367013, 49.1937991 ], [ -0.3381582, 49.195269 ], [ -0.3383663, 49.195479 ], [ -0.3387157, 49.1958146 ], [ -0.3390821, 49.1961422 ], [ -0.3397149, 49.1966471 ], [ -0.3401725, 49.1969832 ], [ -0.3411498, 49.1976581 ], [ -0.3413988, 49.197813 ], [ -0.3423254, 49.1983239 ], [ -0.3432463, 49.1987919 ], [ -0.3448106, 49.1995404 ], [ -0.3450209, 49.1996245 ], [ -0.3453885, 49.1997716 ], [ -0.3473756, 49.2005207 ], [ -0.3478607, 49.2007036 ], [ -0.3481795, 49.2008164 ], [ -0.3503105, 49.2015017 ], [ -0.3503451, 49.2015198 ], [ -0.3502924, 49.2015641 ], [ -0.3500887, 49.2016976 ], [ -0.3495586, 49.2020038 ], [ -0.3493823, 49.2021279 ], [ -0.3490511, 49.2023857 ], [ -0.3488583, 49.2025456 ], [ -0.3486341, 49.2027315 ], [ -0.3481418, 49.2031139 ], [ -0.3479343, 49.2032751 ], [ -0.3475889, 49.2035136 ], [ -0.3491097, 49.2045607 ], [ -0.3491176, 49.2045662 ], [ -0.3490298, 49.2046459 ], [ -0.348774, 49.2048767 ], [ -0.3491016, 49.2049257 ], [ -0.3494948, 49.2050359 ], [ -0.3500571, 49.205215 ], [ -0.3504278, 49.2052397 ], [ -0.3507793, 49.2052133 ], [ -0.3510173, 49.20518 ], [ -0.3506291, 49.205534 ], [ -0.3507706, 49.2055952 ], [ -0.3508576, 49.205614 ], [ -0.3508836, 49.2056549 ], [ -0.3508942, 49.2057205 ], [ -0.3508549, 49.2058413 ], [ -0.350586, 49.2061872 ], [ -0.3505846, 49.2062043 ], [ -0.3506162, 49.2062295 ], [ -0.352114, 49.2069877 ], [ -0.3520058, 49.2070831 ], [ -0.3513774, 49.2075706 ], [ -0.3513235, 49.2076267 ], [ -0.3524477, 49.2080994 ], [ -0.3531934, 49.2083975 ], [ -0.3533262, 49.2084363 ], [ -0.3539118, 49.2076955 ], [ -0.3539357, 49.2076858 ], [ -0.3551111, 49.2080097 ], [ -0.3557386, 49.2081556 ], [ -0.3557699, 49.2081758 ], [ -0.3557256, 49.2082581 ], [ -0.3556351, 49.2084583 ], [ -0.3550363, 49.2097818 ], [ -0.3550316, 49.2098124 ], [ -0.3551132, 49.2099559 ], [ -0.3552329, 49.2100928 ], [ -0.355588, 49.2104446 ], [ -0.3558821, 49.2107099 ], [ -0.3567123, 49.2113642 ], [ -0.3569109, 49.2115517 ], [ -0.3570167, 49.2116262 ], [ -0.3571364, 49.2116831 ], [ -0.3575845, 49.2118496 ], [ -0.3581494, 49.2120948 ], [ -0.358563, 49.2122583 ], [ -0.3588288, 49.2123503 ], [ -0.3594848, 49.2125447 ], [ -0.359945, 49.212693 ], [ -0.3601611, 49.2127473 ], [ -0.3602478, 49.2127159 ], [ -0.3636956, 49.2141009 ], [ -0.3637304, 49.2141267 ], [ -0.3637305, 49.2141499 ], [ -0.3636279, 49.2143271 ], [ -0.3636954, 49.2143453 ], [ -0.3645749, 49.2144955 ], [ -0.3647493, 49.2145124 ], [ -0.3648861, 49.214543 ], [ -0.3650418, 49.2148721 ], [ -0.3650681, 49.2148825 ], [ -0.3652811, 49.2149007 ], [ -0.368825, 49.2158116 ], [ -0.3693382, 49.2159575 ], [ -0.3701957, 49.2162236 ], [ -0.3702817, 49.2162646 ], [ -0.3703215, 49.2162655 ], [ -0.3707815, 49.2160781 ], [ -0.3709746, 49.2160111 ], [ -0.371521, 49.2158482 ], [ -0.3722765, 49.2155663 ], [ -0.3723053, 49.2154938 ], [ -0.3723619, 49.2154724 ], [ -0.3724675, 49.2154326 ], [ -0.3730353, 49.2150991 ], [ -0.3738109, 49.2146043 ], [ -0.3741672, 49.2144411 ], [ -0.3748957, 49.2140388 ], [ -0.3757566, 49.2135896 ], [ -0.3758655, 49.2135245 ], [ -0.376075, 49.213431 ], [ -0.3761421, 49.213472 ], [ -0.3763592, 49.2136207 ], [ -0.3764369, 49.2136421 ], [ -0.376829, 49.213693 ], [ -0.377273, 49.213727 ], [ -0.377469, 49.21373 ], [ -0.377624, 49.213704 ], [ -0.37774, 49.213647 ], [ -0.377811, 49.213571 ], [ -0.377897, 49.213386 ], [ -0.378015, 49.213099 ], [ -0.378137, 49.212779 ], [ -0.378295, 49.212652 ], [ -0.37905, 49.21201 ], [ -0.3789847, 49.2119352 ], [ -0.378961, 49.2119085 ], [ -0.3789287, 49.2118748 ], [ -0.3789051, 49.2118459 ], [ -0.3788018, 49.2117261 ], [ -0.3789496, 49.2116931 ], [ -0.3790723, 49.2116676 ], [ -0.3797478, 49.2115273 ], [ -0.3798952, 49.2114967 ], [ -0.3799229, 49.2114898 ], [ -0.3802206, 49.2114157 ], [ -0.3804468, 49.2113394 ], [ -0.3805483, 49.2112956 ], [ -0.3810129, 49.2110952 ], [ -0.3812279, 49.2109943 ], [ -0.381233, 49.210992 ], [ -0.381716, 49.2107773 ], [ -0.3818752, 49.2106982 ], [ -0.3822635, 49.2105051 ], [ -0.3824435, 49.2104138 ], [ -0.3829296, 49.210125 ], [ -0.3831435, 49.2099951 ], [ -0.3832312, 49.2099376 ], [ -0.3832699, 49.2099122 ], [ -0.3833366, 49.2098702 ], [ -0.3834742, 49.2097835 ], [ -0.3837348, 49.2096195 ], [ -0.3839202, 49.2095028 ], [ -0.3839649, 49.2094737 ], [ -0.3844892, 49.2091323 ], [ -0.3847505, 49.2089622 ], [ -0.3850797, 49.208712 ], [ -0.3851459, 49.208666 ], [ -0.3852983, 49.20856 ], [ -0.3853595, 49.2085187 ], [ -0.3854604, 49.2084336 ], [ -0.3859003, 49.2080844 ], [ -0.3860825, 49.2079397 ], [ -0.3862712, 49.2077891 ], [ -0.3863828, 49.2076903 ], [ -0.3864309, 49.2076477 ], [ -0.3864714, 49.2076119 ], [ -0.3865242, 49.2075713 ], [ -0.3866593, 49.2074674 ], [ -0.3868087, 49.2073525 ], [ -0.3872292, 49.2070655 ], [ -0.3873936, 49.2069539 ], [ -0.3874666, 49.2069044 ], [ -0.3875499, 49.2068429 ], [ -0.3876948, 49.2067358 ], [ -0.3880527, 49.2064507 ], [ -0.3881222, 49.2063954 ], [ -0.3882052, 49.2063028 ], [ -0.3882799, 49.206243 ], [ -0.3882922, 49.2062331 ], [ -0.3891901, 49.2055142 ], [ -0.3896494, 49.2051706 ], [ -0.3901748, 49.2047811 ], [ -0.390347, 49.2046534 ], [ -0.390613, 49.2044562 ], [ -0.3907653, 49.2043387 ], [ -0.3908167, 49.2042991 ], [ -0.3908854, 49.2042391 ], [ -0.3909306, 49.2041978 ], [ -0.3909796, 49.204151 ], [ -0.3910144, 49.204115 ], [ -0.39105, 49.2040725 ], [ -0.3911029, 49.2039995 ], [ -0.3911588, 49.2039048 ], [ -0.3912061, 49.203772 ], [ -0.3912511, 49.2036191 ], [ -0.3912913, 49.2034676 ], [ -0.3914906, 49.2030191 ], [ -0.392348, 49.2028171 ], [ -0.3931952, 49.2025836 ], [ -0.394439, 49.2019436 ], [ -0.3950122, 49.2015073 ], [ -0.3961137, 49.2001647 ], [ -0.3966788, 49.1991348 ], [ -0.3968163, 49.1985588 ], [ -0.3968277, 49.1984542 ], [ -0.3968411, 49.198332 ], [ -0.3988276, 49.199043 ], [ -0.4008768, 49.2000728 ], [ -0.4019025, 49.2006701 ], [ -0.4053998, 49.1988707 ], [ -0.4063687, 49.1983538 ], [ -0.4077244, 49.197583 ], [ -0.4081629, 49.1973336 ], [ -0.4091849, 49.19673 ], [ -0.4092824, 49.1966569 ], [ -0.4092766, 49.1966349 ], [ -0.4091425, 49.1965495 ], [ -0.409136, 49.196534 ], [ -0.4091462, 49.1965189 ], [ -0.4104442, 49.1956615 ], [ -0.4104845, 49.1956386 ], [ -0.4105516, 49.1956005 ], [ -0.4105639, 49.1955952 ], [ -0.4115741, 49.1947741 ], [ -0.4115635, 49.1947458 ], [ -0.4106479, 49.1937917 ], [ -0.410609, 49.1937934 ], [ -0.4102864, 49.1939043 ], [ -0.4101773, 49.1939088 ], [ -0.410155, 49.1938724 ], [ -0.4101251, 49.1936915 ], [ -0.4100834, 49.1934398 ], [ -0.4100485, 49.1932206 ], [ -0.40999, 49.1930598 ], [ -0.4099531, 49.1929926 ], [ -0.409226, 49.1921265 ], [ -0.4091568, 49.192044 ], [ -0.4091374, 49.1919957 ], [ -0.4091515, 49.1919843 ], [ -0.4092918, 49.1919364 ], [ -0.4093187, 49.1919126 ], [ -0.4093121, 49.1918971 ], [ -0.4092331, 49.1918339 ], [ -0.4091309, 49.1917838 ], [ -0.4087988, 49.1916532 ], [ -0.4087601, 49.1916256 ], [ -0.4085493, 49.1913946 ], [ -0.4083455, 49.1911341 ], [ -0.4081229, 49.1907988 ], [ -0.4080806, 49.1907229 ], [ -0.4080094, 49.1906024 ], [ -0.4078145, 49.1902024 ], [ -0.4075317, 49.1895525 ], [ -0.4073792, 49.1892439 ], [ -0.4073591, 49.1891804 ], [ -0.4072462, 49.1888656 ], [ -0.4072304, 49.1887966 ], [ -0.4072243, 49.1887693 ], [ -0.4072245, 49.1886637 ], [ -0.4071932, 49.188656 ], [ -0.4071208, 49.1886539 ], [ -0.407122, 49.188603 ], [ -0.4071938, 49.1886025 ], [ -0.407198, 49.188588 ], [ -0.4072, 49.188561 ], [ -0.407143, 49.188558 ], [ -0.407119, 49.188557 ], [ -0.4070844, 49.1885551 ], [ -0.4070183, 49.1885536 ], [ -0.406893, 49.188547 ], [ -0.406759, 49.188541 ], [ -0.406719, 49.1885391 ], [ -0.406739, 49.188333 ], [ -0.406743, 49.188305 ], [ -0.4068385, 49.1883244 ], [ -0.4070971, 49.1883397 ], [ -0.4071121, 49.1883234 ], [ -0.4074108, 49.1879672 ], [ -0.4074573, 49.187963 ], [ -0.4087077, 49.1881411 ], [ -0.4122024, 49.1885239 ], [ -0.4124774, 49.1885641 ], [ -0.4127151, 49.188732 ], [ -0.412713, 49.1885564 ], [ -0.4127072, 49.1879171 ], [ -0.4126892, 49.1876398 ], [ -0.4126713, 49.1872868 ], [ -0.4126468, 49.1871238 ], [ -0.412612, 49.1870465 ], [ -0.412617, 49.1870212 ], [ -0.4126472, 49.1870128 ], [ -0.4136865, 49.1869707 ], [ -0.413777, 49.1869445 ] ] ] } }
]
}
