{
"type": "FeatureCollection",
"name": "castello-de-la-plana_es",
"crs": { "type": "name", "properties": { "name": "urn:ogc:def:crs:OGC:1.3:CRS84" } },
"features": [
{ "type": "Feature", "properties": { }, "geometry": { "type": "Polygon", "coordinates": [ [ [ -0.1644067, 40.0290379 ], [ -0.1643642, 40.0286495 ], [ -0.1635201, 40.0275298 ], [ -0.1630457, 40.0271039 ], [ -0.161534, 40.0259769 ], [ -0.1613451, 40.025729 ], [ -0.161243, 40.0253662 ], [ -0.1612045, 40.0197984 ], [ -0.1610126, 40.0187758 ], [ -0.160438, 40.0170953 ], [ -0.1601024, 40.0164295 ], [ -0.1594427, 40.0142605 ], [ -0.1590654, 40.0131883 ], [ -0.158333, 40.0113597 ], [ -0.1582369, 40.0108529 ], [ -0.158221, 40.0098256 ], [ -0.1584639, 40.0084894 ], [ -0.1589476, 40.0072763 ], [ -0.159254, 40.0061038 ], [ -0.1594844, 40.0047853 ], [ -0.1593871, 40.0034587 ], [ -0.1585602, 40.0019341 ], [ -0.1580546, 40.0014173 ], [ -0.1558253, 40.0001014 ], [ -0.1539338, 39.9996766 ], [ -0.1525839, 39.999184 ], [ -0.151895, 39.9988518 ], [ -0.150465, 39.9980329 ], [ -0.1490947, 39.9969092 ], [ -0.1479436, 39.995863 ], [ -0.1475673, 39.9956195 ], [ -0.1437298, 39.9938404 ], [ -0.1421151, 39.9929628 ], [ -0.140908, 39.9921404 ], [ -0.139228, 39.9908648 ], [ -0.1361399, 39.9879095 ], [ -0.1351658, 39.9864925 ], [ -0.1338197, 39.9889469 ], [ -0.1335546, 39.9888574 ], [ -0.13221, 39.9882152 ], [ -0.1307962, 39.9876338 ], [ -0.1289853, 39.9867975 ], [ -0.1259096, 39.9855408 ], [ -0.1236187, 39.9845788 ], [ -0.1230986, 39.9842797 ], [ -0.1217576, 39.983742 ], [ -0.1204369, 39.9836476 ], [ -0.1192854, 39.9836063 ], [ -0.1181224, 39.9835995 ], [ -0.1173636, 39.9836297 ], [ -0.1169207, 39.9836071 ], [ -0.1161655, 39.9835408 ], [ -0.1160339, 39.9835293 ], [ -0.1131999, 39.9828825 ], [ -0.1128714, 39.9829815 ], [ -0.1104357, 39.9827118 ], [ -0.1092606, 39.9824482 ], [ -0.1085107, 39.9824555 ], [ -0.1059305, 39.9820465 ], [ -0.1043369, 39.9814103 ], [ -0.1025057, 39.9805653 ], [ -0.1006613, 39.9794244 ], [ -0.0998005, 39.9789808 ], [ -0.0993426, 39.9787619 ], [ -0.0990358, 39.9784589 ], [ -0.0986759, 39.9782393 ], [ -0.0980408, 39.9780508 ], [ -0.0972014, 39.9776862 ], [ -0.0945843, 39.9764108 ], [ -0.0943417, 39.9764032 ], [ -0.0935457, 39.975976 ], [ -0.0919399, 39.9752744 ], [ -0.0917602, 39.9751959 ], [ -0.0902689, 39.9745266 ], [ -0.0887126, 39.9736494 ], [ -0.0882714, 39.9734041 ], [ -0.0875294, 39.9730552 ], [ -0.084759, 39.9717931 ], [ -0.0846056, 39.9710194 ], [ -0.08362, 39.9706656 ], [ -0.0832834, 39.970349 ], [ -0.0825471, 39.9697354 ], [ -0.0785284, 39.9666688 ], [ -0.078191, 39.9663248 ], [ -0.0777033, 39.9659171 ], [ -0.07268, 39.9617479 ], [ -0.0705678, 39.9600079 ], [ -0.0695788, 39.9591918 ], [ -0.0688476, 39.9588975 ], [ -0.0626121, 39.9564393 ], [ -0.0604999, 39.9560675 ], [ -0.0602113, 39.9561379 ], [ -0.0599588, 39.9561116 ], [ -0.0595334, 39.9559509 ], [ -0.0595622, 39.9559055 ], [ -0.0582395, 39.9556682 ], [ -0.0574401, 39.9555248 ], [ -0.0563208, 39.9555429 ], [ -0.0541431, 39.9549801 ], [ -0.0539392, 39.954318 ], [ -0.0538333, 39.9543324 ], [ -0.053469, 39.9538694 ], [ -0.0530758, 39.9536995 ], [ -0.0517917, 39.952912 ], [ -0.0515587, 39.9530137 ], [ -0.0504899, 39.9530104 ], [ -0.0468314, 39.9514724 ], [ -0.0466061, 39.9517191 ], [ -0.0455952, 39.9512542 ], [ -0.0456338, 39.9512002 ], [ -0.0455711, 39.9511389 ], [ -0.0449498, 39.9509093 ], [ -0.0443923, 39.9506574 ], [ -0.0443337, 39.9506127 ], [ -0.0443276, 39.9505562 ], [ -0.0424712, 39.9503435 ], [ -0.0419158, 39.9514176 ], [ -0.0418685, 39.9514474 ], [ -0.0395775, 39.9510382 ], [ -0.0394835, 39.9511113 ], [ -0.0387543, 39.9508367 ], [ -0.0388259, 39.9506824 ], [ -0.0382095, 39.9504892 ], [ -0.0379857, 39.9505146 ], [ -0.0356878, 39.9498828 ], [ -0.0355909, 39.9500891 ], [ -0.0351606, 39.9499633 ], [ -0.0347225, 39.9500015 ], [ -0.0341604, 39.9498944 ], [ -0.0336001, 39.9496045 ], [ -0.0323879, 39.9490063 ], [ -0.030678, 39.9484533 ], [ -0.0307377, 39.9482437 ], [ -0.0305695, 39.9480509 ], [ -0.0294042, 39.9476611 ], [ -0.0288954, 39.9476561 ], [ -0.0283324, 39.947663 ], [ -0.0266339, 39.9470954 ], [ -0.0257739, 39.9466118 ], [ -0.0240559, 39.9460749 ], [ -0.0229918, 39.9476662 ], [ -0.0194038, 39.946565 ], [ -0.0187459, 39.9470761 ], [ -0.0185263, 39.947431 ], [ -0.0179327, 39.9475463 ], [ -0.0177909, 39.9476216 ], [ -0.0173387, 39.9474962 ], [ -0.0157548, 39.9492509 ], [ -0.0134345, 39.9484909 ], [ -0.012088, 39.947982 ], [ -0.0109393, 39.9475478 ], [ -0.0090993, 39.9469478 ], [ -0.0038498, 39.944964 ], [ -0.0000385, 39.9436722 ], [ 0.0000855, 39.9436302 ], [ 0.0008021, 39.9433873 ], [ 0.0014096, 39.9431814 ], [ 0.001915, 39.9430101 ], [ 0.0020665, 39.9429587 ], [ 0.0022884, 39.9428835 ], [ 0.0021754, 39.9431078 ], [ 0.0019955, 39.943243 ], [ 0.0020308, 39.9434021 ], [ 0.002073, 39.9449441 ], [ 0.0022018, 39.9464794 ], [ 0.002379, 39.947172 ], [ 0.0030053, 39.9478727 ], [ 0.0032612, 39.9477937 ], [ 0.0033068, 39.9478714 ], [ 0.0031365, 39.9479122 ], [ 0.003204, 39.9481902 ], [ 0.0032535, 39.9482791 ], [ 0.003161, 39.9483151 ], [ 0.0029954, 39.9483567 ], [ 0.0028425, 39.9483207 ], [ 0.0029913, 39.9484436 ], [ 0.0032059, 39.9484477 ], [ 0.003397, 39.948385 ], [ 0.0033769, 39.9481886 ], [ 0.0034297, 39.9481843 ], [ 0.0035307, 39.9484049 ], [ 0.0032221, 39.9484819 ], [ 0.0032675, 39.9487452 ], [ 0.0037588, 39.9492885 ], [ 0.0053829, 39.948941 ], [ 0.005566, 39.9488071 ], [ 0.0076782, 39.9483577 ], [ 0.0077288, 39.9484374 ], [ 0.0077258, 39.9484909 ], [ 0.0057963, 39.9489083 ], [ 0.0057319, 39.9490214 ], [ 0.0055361, 39.949116 ], [ 0.0053993, 39.9491016 ], [ 0.0041076, 39.9493676 ], [ 0.0041199, 39.9494182 ], [ 0.0039589, 39.9494532 ], [ 0.0038868, 39.949413 ], [ 0.0032723, 39.9495396 ], [ 0.0031784, 39.9496568 ], [ 0.0033313, 39.9497267 ], [ 0.0031588, 39.949847 ], [ 0.0031166, 39.9499774 ], [ 0.0032262, 39.9502047 ], [ 0.0036236, 39.9502132 ], [ 0.0038531, 39.9501638 ], [ 0.0039725, 39.9501646 ], [ 0.0041604, 39.9502713 ], [ 0.0041292, 39.9504368 ], [ 0.004095, 39.9506931 ], [ 0.004176, 39.9509439 ], [ 0.0042092, 39.9513243 ], [ 0.0044231, 39.952457 ], [ 0.004395, 39.9528756 ], [ 0.0044407, 39.9529393 ], [ 0.0043992, 39.9530603 ], [ 0.0040252, 39.9534547 ], [ 0.0037578, 39.953663 ], [ 0.00379, 39.9538643 ], [ 0.0038003, 39.953996 ], [ 0.0039031, 39.9539331 ], [ 0.0039986, 39.9539466 ], [ 0.0040972, 39.9539052 ], [ 0.0043277, 39.9536943 ], [ 0.0043706, 39.9537451 ], [ 0.003893, 39.9542932 ], [ 0.0038885, 39.9543958 ], [ 0.0040324, 39.9544462 ], [ 0.0043358, 39.9544102 ], [ 0.0043469, 39.9544952 ], [ 0.0040495, 39.9545468 ], [ 0.0039631, 39.9546404 ], [ 0.004114, 39.9551049 ], [ 0.0042807, 39.9552661 ], [ 0.0043782, 39.9558877 ], [ 0.0048752, 39.956392 ], [ 0.0048609, 39.9565204 ], [ 0.0048875, 39.9565909 ], [ 0.0049008, 39.9567115 ], [ 0.0048195, 39.9567768 ], [ 0.0047636, 39.956784 ], [ 0.0046423, 39.9568555 ], [ 0.0046543, 39.9569066 ], [ 0.0048075, 39.956926 ], [ 0.0048569, 39.9569148 ], [ 0.0048662, 39.9569403 ], [ 0.0049382, 39.9569342 ], [ 0.0050003, 39.9569924 ], [ 0.005185, 39.9569753 ], [ 0.005258, 39.9569383 ], [ 0.005326, 39.9568647 ], [ 0.00537, 39.956783 ], [ 0.005397, 39.9567196 ], [ 0.0052087, 39.9560883 ], [ 0.0051687, 39.9560393 ], [ 0.0050861, 39.9560188 ], [ 0.0050328, 39.9559412 ], [ 0.0049795, 39.9556899 ], [ 0.0049368, 39.9555775 ], [ 0.0050328, 39.9555428 ], [ 0.0047227, 39.954513 ], [ 0.004571, 39.9543975 ], [ 0.0046321, 39.9543098 ], [ 0.0051984, 39.953558 ], [ 0.0052148, 39.9533772 ], [ 0.0053293, 39.9532747 ], [ 0.0047427, 39.9501767 ], [ 0.0047015, 39.9501808 ], [ 0.0046688, 39.9500764 ], [ 0.0047349, 39.9500642 ], [ 0.0047099, 39.9499844 ], [ 0.0137765, 39.9479672 ], [ 0.014087, 39.9479446 ], [ 0.0143797, 39.9480267 ], [ 0.0146942, 39.9482284 ], [ 0.0156874, 39.9508289 ], [ 0.015843, 39.950841 ], [ 0.0198291, 39.9499067 ], [ 0.0198519, 39.9499431 ], [ 0.0199607, 39.9499031 ], [ 0.024092, 39.9564917 ], [ 0.0236798, 39.9566436 ], [ 0.0235016, 39.9563596 ], [ 0.0236937, 39.9562888 ], [ 0.0199479, 39.9503149 ], [ 0.0184094, 39.9506566 ], [ 0.0183234, 39.9507292 ], [ 0.0154709, 39.9513545 ], [ 0.0156303, 39.9518285 ], [ 0.0156965, 39.9518136 ], [ 0.0157197, 39.9518849 ], [ 0.0157431, 39.9519568 ], [ 0.0154203, 39.9520313 ], [ 0.0153949, 39.9519617 ], [ 0.0153669, 39.9518848 ], [ 0.0154192, 39.9518735 ], [ 0.0152297, 39.9514022 ], [ 0.0057476, 39.9534595 ], [ 0.0055208, 39.9536301 ], [ 0.0049394, 39.9544561 ], [ 0.0050508, 39.9549444 ], [ 0.0053458, 39.9554453 ], [ 0.0053058, 39.9556464 ], [ 0.0055945, 39.9566357 ], [ 0.0055735, 39.957054 ], [ 0.0052175, 39.9571613 ], [ 0.0050933, 39.9572431 ], [ 0.0051313, 39.9573793 ], [ 0.0056882, 39.9573488 ], [ 0.005846, 39.9572549 ], [ 0.0059915, 39.9570718 ], [ 0.0060617, 39.9568646 ], [ 0.0053823, 39.9545171 ], [ 0.0057465, 39.954008 ], [ 0.0057399, 39.953877 ], [ 0.0058901, 39.9537362 ], [ 0.0060009, 39.9537695 ], [ 0.0124398, 39.9523257 ], [ 0.0126154, 39.9526218 ], [ 0.0127132, 39.9525915 ], [ 0.012752, 39.9526556 ], [ 0.0130457, 39.952584 ], [ 0.0130613, 39.9525976 ], [ 0.0132816, 39.9525489 ], [ 0.0149291, 39.956934 ], [ 0.0147088, 39.9569826 ], [ 0.0146688, 39.9568762 ], [ 0.014551, 39.9569565 ], [ 0.0143857, 39.9570594 ], [ 0.0142748, 39.9571369 ], [ 0.0141812, 39.9572252 ], [ 0.0143604, 39.9577332 ], [ 0.014763, 39.9587722 ], [ 0.014752, 39.958811 ], [ 0.0146404, 39.9588482 ], [ 0.014549, 39.9588229 ], [ 0.0124623, 39.9593148 ], [ 0.0113304, 39.9595652 ], [ 0.0103476, 39.9597752 ], [ 0.0114835, 39.9630205 ], [ 0.0116159, 39.963098 ], [ 0.0131883, 39.9673934 ], [ 0.0169807, 39.9657634 ], [ 0.0196279, 39.9665946 ], [ 0.0223105, 39.9674947 ], [ 0.0223608, 39.9675551 ], [ 0.02224, 39.9677363 ], [ 0.0220689, 39.9677967 ], [ 0.0218827, 39.9675954 ], [ 0.0177255, 39.9662214 ], [ 0.015857, 39.967011 ], [ 0.0157276, 39.9668359 ], [ 0.0155881, 39.966781 ], [ 0.0154873, 39.9666603 ], [ 0.0145298, 39.9670588 ], [ 0.0135432, 39.9674825 ], [ 0.0125246, 39.9679098 ], [ 0.0127224, 39.9681861 ], [ 0.0120206, 39.9684724 ], [ 0.01208, 39.9685563 ], [ 0.0127818, 39.9682701 ], [ 0.0139674, 39.9699399 ], [ 0.0193277, 39.9676419 ], [ 0.0195413, 39.9676858 ], [ 0.0200249, 39.9683545 ], [ 0.0200041, 39.968414 ], [ 0.0199698, 39.9684298 ], [ 0.0199137, 39.968359 ], [ 0.0199705, 39.9683303 ], [ 0.0198785, 39.9682005 ], [ 0.0190762, 39.9685483 ], [ 0.0190423, 39.9685643 ], [ 0.0190259, 39.9685635 ], [ 0.0190207, 39.9685471 ], [ 0.0191692, 39.9684798 ], [ 0.0191132, 39.9684001 ], [ 0.0188705, 39.9685038 ], [ 0.01893, 39.9685868 ], [ 0.0188524, 39.9686154 ], [ 0.0188439, 39.9685995 ], [ 0.0188562, 39.9685923 ], [ 0.0188412, 39.9685718 ], [ 0.0187686, 39.9686033 ], [ 0.0187535, 39.9685945 ], [ 0.0184267, 39.9687355 ], [ 0.0183803, 39.9686688 ], [ 0.0182287, 39.9687375 ], [ 0.0183079, 39.9688443 ], [ 0.0181397, 39.9689142 ], [ 0.0181711, 39.9689543 ], [ 0.018334, 39.9688851 ], [ 0.0184812, 39.9690949 ], [ 0.0185086, 39.9690837 ], [ 0.0185208, 39.9691007 ], [ 0.0183955, 39.9691571 ], [ 0.0183936, 39.9691657 ], [ 0.0173822, 39.9695996 ], [ 0.017044, 39.9697422 ], [ 0.0169712, 39.9697758 ], [ 0.0169351, 39.9697295 ], [ 0.0167415, 39.9698121 ], [ 0.0165684, 39.969574 ], [ 0.0163048, 39.9696886 ], [ 0.0158834, 39.9698665 ], [ 0.0154771, 39.9700399 ], [ 0.0149529, 39.9702637 ], [ 0.0148448, 39.9703099 ], [ 0.0149821, 39.970506 ], [ 0.0145183, 39.9707041 ], [ 0.0171914, 39.9743543 ], [ 0.0174808, 39.9742306 ], [ 0.01765, 39.9744632 ], [ 0.0179415, 39.9743386 ], [ 0.0180636, 39.9742864 ], [ 0.0187061, 39.9740096 ], [ 0.0206646, 39.9731746 ], [ 0.0211583, 39.97183 ], [ 0.02115, 39.9717734 ], [ 0.019899, 39.9700548 ], [ 0.020096, 39.9697773 ], [ 0.0214069, 39.9692335 ], [ 0.0218224, 39.9692942 ], [ 0.0235355, 39.971697 ], [ 0.0237989, 39.9715982 ], [ 0.0238593, 39.9716939 ], [ 0.024074, 39.9716783 ], [ 0.0248346, 39.9709709 ], [ 0.0246415, 39.9708255 ], [ 0.024614, 39.9708519 ], [ 0.0245305, 39.9708009 ], [ 0.0249872, 39.9703615 ], [ 0.0281668, 39.9673023 ], [ 0.028498, 39.9672473 ], [ 0.0265676, 39.9604189 ], [ 0.0261906, 39.9604815 ], [ 0.026164, 39.9603874 ], [ 0.0258333, 39.9604423 ], [ 0.0257845, 39.9602695 ], [ 0.0270659, 39.9600567 ], [ 0.0271038, 39.9601908 ], [ 0.0292892, 39.9598234 ], [ 0.0291374, 39.9592732 ], [ 0.029522, 39.9592109 ], [ 0.0286716, 39.9561292 ], [ 0.0282767, 39.9561932 ], [ 0.0282173, 39.955978 ], [ 0.0280978, 39.9559974 ], [ 0.0280383, 39.955782 ], [ 0.0288603, 39.9556487 ], [ 0.0299385, 39.9595559 ], [ 0.0299209, 39.9595802 ], [ 0.0325416, 39.968824 ], [ 0.0323104, 39.9688666 ], [ 0.0322795, 39.9687658 ], [ 0.0291904, 39.9715411 ], [ 0.0292318, 39.9717319 ], [ 0.0289085, 39.9717223 ], [ 0.0278919, 39.9725528 ], [ 0.0286383, 39.9750418 ], [ 0.0256474, 39.9777486 ], [ 0.0245479, 39.9779316 ], [ 0.0244792, 39.9784089 ], [ 0.0246075, 39.9793753 ], [ 0.0248498, 39.9802543 ], [ 0.0254759, 39.9816589 ], [ 0.0262394, 39.9839111 ], [ 0.0264483, 39.9845683 ], [ 0.026613, 39.9848101 ], [ 0.0268007, 39.9860002 ], [ 0.027281, 39.987432 ], [ 0.0273985, 39.9883473 ], [ 0.0277252, 39.9896256 ], [ 0.0280169, 39.9904048 ], [ 0.0280211, 39.990565 ], [ 0.0281303, 39.9913085 ], [ 0.0283246, 39.9920716 ], [ 0.0284168, 39.992446 ], [ 0.0285523, 39.9927647 ], [ 0.0285953, 39.9929426 ], [ 0.0287339, 39.9936339 ], [ 0.0289428, 39.9942838 ], [ 0.0292812, 39.9950429 ], [ 0.0298537, 39.9966597 ], [ 0.0299237, 39.9969048 ], [ 0.0302902, 39.9982375 ], [ 0.0306561, 39.9992748 ], [ 0.0310975, 40.0002959 ], [ 0.0311042, 40.000577 ], [ 0.0312932, 40.0007497 ], [ 0.0313835, 40.0010064 ], [ 0.0318128, 40.0016345 ], [ 0.032062, 40.0015044 ], [ 0.0321336, 40.0015143 ], [ 0.0321351, 40.0015702 ], [ 0.0318412, 40.0017242 ], [ 0.0319517, 40.0019244 ], [ 0.0320264, 40.0021064 ], [ 0.0327862, 40.0017996 ], [ 0.0329023, 40.0016444 ], [ 0.0330044, 40.0016133 ], [ 0.0330673, 40.0016877 ], [ 0.0328706, 40.001911 ], [ 0.0320579, 40.0022102 ], [ 0.0320144, 40.0023291 ], [ 0.0319614, 40.002424 ], [ 0.0321951, 40.0027542 ], [ 0.0322954, 40.0032036 ], [ 0.0330157, 40.0045945 ], [ 0.0334928, 40.0060997 ], [ 0.0340896, 40.0079335 ], [ 0.0343445, 40.0086212 ], [ 0.0346925, 40.0091887 ], [ 0.0352995, 40.0105199 ], [ 0.0355432, 40.0108814 ], [ 0.0357854, 40.0111773 ], [ 0.0361837, 40.0115476 ], [ 0.0363032, 40.0115791 ], [ 0.0363764, 40.0116079 ], [ 0.0365343, 40.0116533 ], [ 0.0364108, 40.0119245 ], [ 0.0367655, 40.0126663 ], [ 0.0374226, 40.0135677 ], [ 0.0376703, 40.0138711 ], [ 0.0379554, 40.014155 ], [ 0.0381432, 40.0143374 ], [ 0.0385845, 40.0145919 ], [ 0.0386495, 40.0146319 ], [ 0.0386917, 40.014676 ], [ 0.0387615, 40.0148505 ], [ 0.039148, 40.0153553 ], [ 0.0385442, 40.0156305 ], [ 0.0155874, 40.0254246 ], [ 0.0122961, 40.0336981 ], [ 0.0105816, 40.0384086 ], [ 0.0095245, 40.043147 ], [ 0.0066226, 40.048582 ], [ 0.0040975, 40.0516651 ], [ 0.0001268, 40.0589381 ], [ -0.0033022, 40.0644134 ], [ -0.0043025, 40.064061 ], [ -0.0099068, 40.0565496 ], [ -0.0137651, 40.0522175 ], [ -0.0154057, 40.0498098 ], [ -0.016808, 40.0480264 ], [ -0.0208606, 40.0470139 ], [ -0.025766, 40.0455654 ], [ -0.0282691, 40.0448263 ], [ -0.032612, 40.0433254 ], [ -0.0360943, 40.0416672 ], [ -0.0402537, 40.038711 ], [ -0.0420527, 40.0334245 ], [ -0.0410403, 40.030282 ], [ -0.0438982, 40.0281392 ], [ -0.0472021, 40.027602 ], [ -0.0492963, 40.0274032 ], [ -0.0511224, 40.0269003 ], [ -0.0535349, 40.0266554 ], [ -0.0553915, 40.0276215 ], [ -0.0590647, 40.0258503 ], [ -0.063322, 40.0263006 ], [ -0.0689279, 40.0242629 ], [ -0.0754163, 40.0234992 ], [ -0.0763695, 40.0229997 ], [ -0.0768793, 40.0224372 ], [ -0.0806072, 40.0201894 ], [ -0.0870757, 40.0157495 ], [ -0.091047, 40.0138226 ], [ -0.0916549, 40.0135767 ], [ -0.0972895, 40.0121958 ], [ -0.1054052, 40.0108678 ], [ -0.107638, 40.0106984 ], [ -0.1110396, 40.010315 ], [ -0.1117376, 40.0101523 ], [ -0.1143196, 40.0097573 ], [ -0.1153592, 40.0097967 ], [ -0.1157113, 40.00981 ], [ -0.1185302, 40.0094282 ], [ -0.118633, 40.0094143 ], [ -0.1189965, 40.0094054 ], [ -0.1202456, 40.0095085 ], [ -0.1204702, 40.0094601 ], [ -0.1209152, 40.0094621 ], [ -0.1210873, 40.0095475 ], [ -0.1257562, 40.0132937 ], [ -0.130301, 40.017496 ], [ -0.1321566, 40.0193435 ], [ -0.1413275, 40.0222097 ], [ -0.1416696, 40.0224343 ], [ -0.1424271, 40.0230926 ], [ -0.143037, 40.0239183 ], [ -0.1434517, 40.0246492 ], [ -0.14795, 40.0286064 ], [ -0.1494688, 40.0304004 ], [ -0.1513494, 40.029699 ], [ -0.1547979, 40.0304595 ], [ -0.1546879, 40.0311323 ], [ -0.1553367, 40.0313104 ], [ -0.156531, 40.0313308 ], [ -0.1576304, 40.031664 ], [ -0.1579606, 40.0330233 ], [ -0.1583941, 40.0321782 ], [ -0.1587361, 40.0318443 ], [ -0.1593843, 40.0314729 ], [ -0.1637576, 40.0297155 ], [ -0.1641082, 40.0294539 ], [ -0.1644067, 40.0290379 ] ] ] } }
]
}
