{
"type": "FeatureCollection",
"name": "chemnitz_de",
"crs": { "type": "name", "properties": { "name": "urn:ogc:def:crs:OGC:1.3:CRS84" } },
"features": [
{ "type": "Feature", "properties": { }, "geometry": { "type": "Polygon", "coordinates": [ [ [ 12.7275333, 50.816595 ], [ 12.7276552, 50.8162626 ], [ 12.727798, 50.8160288 ], [ 12.7287238, 50.8162497 ], [ 12.72958, 50.8165706 ], [ 12.731785, 50.8172034 ], [ 12.7336265, 50.8176324 ], [ 12.7364506, 50.8181553 ], [ 12.7373397, 50.8183471 ], [ 12.7385018, 50.8191938 ], [ 12.7392435, 50.8196865 ], [ 12.7399646, 50.8199666 ], [ 12.7387121, 50.8212091 ], [ 12.741636, 50.8224706 ], [ 12.7447328, 50.8224207 ], [ 12.7476987, 50.8214168 ], [ 12.7465826, 50.8193548 ], [ 12.7477364, 50.8191298 ], [ 12.7486977, 50.8188836 ], [ 12.7501181, 50.8185199 ], [ 12.750659, 50.8183819 ], [ 12.7529304, 50.8178763 ], [ 12.7542756, 50.8166034 ], [ 12.7558086, 50.8153777 ], [ 12.7572783, 50.8147736 ], [ 12.7574209, 50.814573 ], [ 12.7580571, 50.814477 ], [ 12.7586064, 50.8148157 ], [ 12.7597292, 50.8130219 ], [ 12.7615255, 50.8129466 ], [ 12.7626333, 50.8133719 ], [ 12.7640004, 50.8127031 ], [ 12.7657407, 50.8123504 ], [ 12.7666716, 50.812287 ], [ 12.7673841, 50.8119716 ], [ 12.766615, 50.8116153 ], [ 12.7674478, 50.8109912 ], [ 12.7678402, 50.8113951 ], [ 12.7682171, 50.8115357 ], [ 12.7689972, 50.8113107 ], [ 12.7685627, 50.8098875 ], [ 12.7686748, 50.8090666 ], [ 12.7685402, 50.8084874 ], [ 12.7686031, 50.8081705 ], [ 12.7685505, 50.8073773 ], [ 12.7679044, 50.8062976 ], [ 12.7674376, 50.8055083 ], [ 12.7666181, 50.8041738 ], [ 12.7669409, 50.8039404 ], [ 12.7670368, 50.8039022 ], [ 12.7686618, 50.8036559 ], [ 12.7699486, 50.8032812 ], [ 12.7707333, 50.8029832 ], [ 12.7705511, 50.8027715 ], [ 12.7713193, 50.8024966 ], [ 12.7718263, 50.8024494 ], [ 12.7721577, 50.8023736 ], [ 12.772726, 50.8022539 ], [ 12.7731735, 50.8022078 ], [ 12.7737388, 50.8020142 ], [ 12.7743827, 50.8017704 ], [ 12.7750937, 50.8016248 ], [ 12.7753053, 50.801461 ], [ 12.7756626, 50.8011843 ], [ 12.7760484, 50.8001884 ], [ 12.7761337, 50.7991032 ], [ 12.7769933, 50.7975611 ], [ 12.7771836, 50.7954129 ], [ 12.777773, 50.7939647 ], [ 12.7778232, 50.7923176 ], [ 12.778341, 50.7916691 ], [ 12.7786247, 50.7907166 ], [ 12.7788633, 50.790035 ], [ 12.7792591, 50.789553 ], [ 12.7784186, 50.7881738 ], [ 12.777487, 50.7867395 ], [ 12.7783649, 50.7868397 ], [ 12.781911, 50.7857928 ], [ 12.7878307, 50.7856325 ], [ 12.7900157, 50.7847729 ], [ 12.791167, 50.7848586 ], [ 12.7922917, 50.7847629 ], [ 12.7927412, 50.7845455 ], [ 12.7931724, 50.7843027 ], [ 12.7968613, 50.7856157 ], [ 12.7994466, 50.7864497 ], [ 12.8019081, 50.7870942 ], [ 12.8033614, 50.7872509 ], [ 12.804754, 50.7879541 ], [ 12.8055963, 50.7881414 ], [ 12.8098158, 50.7885698 ], [ 12.8129668, 50.7885523 ], [ 12.8153185, 50.7881923 ], [ 12.816864, 50.7883232 ], [ 12.8169856, 50.7883902 ], [ 12.8171994, 50.7886682 ], [ 12.8175644, 50.7888638 ], [ 12.8177921, 50.7890715 ], [ 12.8177931, 50.7893513 ], [ 12.8178807, 50.7894154 ], [ 12.8179086, 50.7893945 ], [ 12.8180111, 50.789467 ], [ 12.8180824, 50.789445 ], [ 12.818496, 50.7896076 ], [ 12.8184074, 50.7896637 ], [ 12.8184056, 50.7897659 ], [ 12.8184752, 50.7898856 ], [ 12.8189479, 50.7903812 ], [ 12.8190974, 50.7904669 ], [ 12.8202045, 50.7909085 ], [ 12.8204757, 50.7911085 ], [ 12.8205052, 50.79117 ], [ 12.8205608, 50.7915018 ], [ 12.8207478, 50.7917464 ], [ 12.8208563, 50.7918326 ], [ 12.8215098, 50.7921149 ], [ 12.8215984, 50.7921413 ], [ 12.821694, 50.7921358 ], [ 12.821887, 50.7921622 ], [ 12.8221025, 50.7922138 ], [ 12.8222728, 50.7922841 ], [ 12.8223463, 50.7923504 ], [ 12.822384, 50.7924105 ], [ 12.8224536, 50.7924214 ], [ 12.8224744, 50.792483 ], [ 12.8225857, 50.7925577 ], [ 12.8225353, 50.7926719 ], [ 12.8225857, 50.792717 ], [ 12.8225978, 50.7927642 ], [ 12.8227403, 50.7928247 ], [ 12.8228516, 50.7928631 ], [ 12.8228672, 50.7928994 ], [ 12.8227125, 50.7932191 ], [ 12.82261, 50.7934641 ], [ 12.8225492, 50.7938025 ], [ 12.8225439, 50.7939189 ], [ 12.8223215, 50.7943716 ], [ 12.8223267, 50.7945067 ], [ 12.8223284, 50.7945682 ], [ 12.8222728, 50.7946638 ], [ 12.8227212, 50.7944682 ], [ 12.8232392, 50.7944034 ], [ 12.8240873, 50.7944041 ], [ 12.8249459, 50.7943793 ], [ 12.8253057, 50.794343 ], [ 12.8256777, 50.7943573 ], [ 12.825987, 50.7944243 ], [ 12.8263798, 50.7945342 ], [ 12.8270333, 50.7947956 ], [ 12.8284186, 50.7953274 ], [ 12.8287158, 50.7954306 ], [ 12.8289157, 50.7954251 ], [ 12.8292754, 50.7954691 ], [ 12.8295553, 50.7955339 ], [ 12.8301253, 50.7957328 ], [ 12.8306954, 50.7959898 ], [ 12.8311195, 50.7962875 ], [ 12.8317035, 50.7966391 ], [ 12.8317261, 50.7969291 ], [ 12.8318008, 50.7970269 ], [ 12.831952, 50.7971664 ], [ 12.8326403, 50.7975663 ], [ 12.833558, 50.7978475 ], [ 12.833697, 50.7979398 ], [ 12.8339265, 50.7980398 ], [ 12.8343818, 50.7981958 ], [ 12.8346304, 50.7982001 ], [ 12.8347312, 50.7981628 ], [ 12.8347903, 50.7981892 ], [ 12.8349825, 50.798177 ], [ 12.835214, 50.7982669 ], [ 12.8355326, 50.7983353 ], [ 12.8362172, 50.798745 ], [ 12.8365788, 50.7990094 ], [ 12.8366367, 50.7991374 ], [ 12.8366759, 50.7992213 ], [ 12.8366742, 50.7993052 ], [ 12.8366282, 50.7995828 ], [ 12.8366384, 50.799685 ], [ 12.8366776, 50.7997194 ], [ 12.8372699, 50.7999604 ], [ 12.8376274, 50.8001067 ], [ 12.8378879, 50.8002359 ], [ 12.8381858, 50.8003703 ], [ 12.8390675, 50.8006404 ], [ 12.8391577, 50.800678 ], [ 12.8394675, 50.800862 ], [ 12.8400003, 50.8015634 ], [ 12.8406503, 50.8020128 ], [ 12.840732, 50.8019475 ], [ 12.8410488, 50.8018232 ], [ 12.8415339, 50.801388 ], [ 12.841929, 50.8011088 ], [ 12.8419874, 50.8009919 ], [ 12.8427092, 50.8002638 ], [ 12.8433427, 50.7997412 ], [ 12.8436495, 50.7995072 ], [ 12.844313, 50.7990194 ], [ 12.8445331, 50.7989267 ], [ 12.8457734, 50.7977212 ], [ 12.8468171, 50.797344 ], [ 12.8473039, 50.7972049 ], [ 12.8486726, 50.7969056 ], [ 12.8491044, 50.7967707 ], [ 12.8495928, 50.7965568 ], [ 12.8502663, 50.7962323 ], [ 12.8505748, 50.7960953 ], [ 12.851455, 50.7957085 ], [ 12.8529821, 50.7952554 ], [ 12.8537373, 50.7949477 ], [ 12.8543842, 50.794777 ], [ 12.8547376, 50.7947138 ], [ 12.855106, 50.7946579 ], [ 12.8556027, 50.7946169 ], [ 12.8560639, 50.7945789 ], [ 12.8567115, 50.7944988 ], [ 12.8569901, 50.7944412 ], [ 12.85737, 50.7943007 ], [ 12.8576584, 50.7941321 ], [ 12.8579416, 50.7939655 ], [ 12.8583215, 50.7936833 ], [ 12.8585803, 50.7933586 ], [ 12.8587871, 50.7929434 ], [ 12.8593939, 50.7932353 ], [ 12.8600051, 50.7929245 ], [ 12.8612851, 50.792312 ], [ 12.8618062, 50.792134 ], [ 12.8629867, 50.7917915 ], [ 12.865764, 50.7909284 ], [ 12.8663342, 50.7907945 ], [ 12.866966, 50.7907556 ], [ 12.8677879, 50.7907397 ], [ 12.8697501, 50.7906449 ], [ 12.8708804, 50.7905437 ], [ 12.8716757, 50.7905385 ], [ 12.872688, 50.7905348 ], [ 12.8728542, 50.7904528 ], [ 12.8729629, 50.7903658 ], [ 12.8731804, 50.7901252 ], [ 12.8739992, 50.7894287 ], [ 12.8742087, 50.7893195 ], [ 12.87556, 50.788721 ], [ 12.8759086, 50.7886574 ], [ 12.8753982, 50.7879497 ], [ 12.8743062, 50.7869761 ], [ 12.8734064, 50.7861611 ], [ 12.8720006, 50.7848946 ], [ 12.8722371, 50.7847955 ], [ 12.8724877, 50.7846777 ], [ 12.8729998, 50.7844589 ], [ 12.8726568, 50.7841529 ], [ 12.8723633, 50.7839717 ], [ 12.8713851, 50.7833726 ], [ 12.8696967, 50.7829418 ], [ 12.8692237, 50.7826111 ], [ 12.8693036, 50.7823704 ], [ 12.8688415, 50.7821773 ], [ 12.8690107, 50.7814663 ], [ 12.8692503, 50.7804651 ], [ 12.8692597, 50.7802948 ], [ 12.870107, 50.7800413 ], [ 12.8706552, 50.7798878 ], [ 12.8712457, 50.7797095 ], [ 12.8730141, 50.7794983 ], [ 12.8744201, 50.7794131 ], [ 12.8745143, 50.7794951 ], [ 12.875581, 50.7794702 ], [ 12.875553, 50.7801302 ], [ 12.8755302, 50.7804178 ], [ 12.8759499, 50.7804568 ], [ 12.8761937, 50.7804568 ], [ 12.8766775, 50.7804779 ], [ 12.8767578, 50.7802102 ], [ 12.8767385, 50.77958 ], [ 12.8776577, 50.7796824 ], [ 12.8777996, 50.7800462 ], [ 12.8781606, 50.7810261 ], [ 12.8783195, 50.781461 ], [ 12.8806322, 50.7815491 ], [ 12.8812955, 50.7816435 ], [ 12.8821762, 50.781647 ], [ 12.8821331, 50.7810341 ], [ 12.8829509, 50.7811141 ], [ 12.8835428, 50.7812741 ], [ 12.8838977, 50.7813621 ], [ 12.8841947, 50.7815761 ], [ 12.8842357, 50.7817131 ], [ 12.8843276, 50.782014 ], [ 12.8844236, 50.782327 ], [ 12.8835497, 50.782453 ], [ 12.8844436, 50.7829379 ], [ 12.8848205, 50.7831469 ], [ 12.8851275, 50.7833109 ], [ 12.8855084, 50.7839298 ], [ 12.8857994, 50.7845508 ], [ 12.8868332, 50.7850167 ], [ 12.887957, 50.7852647 ], [ 12.8924314, 50.7834949 ], [ 12.8941974, 50.7828295 ], [ 12.8940345, 50.7805493 ], [ 12.8942001, 50.780495 ], [ 12.8946057, 50.7804319 ], [ 12.8946811, 50.7802411 ], [ 12.8947042, 50.7799238 ], [ 12.8947447, 50.7791999 ], [ 12.8946815, 50.7789474 ], [ 12.8942064, 50.7775381 ], [ 12.8929024, 50.7761063 ], [ 12.8923964, 50.7761208 ], [ 12.8922251, 50.7754031 ], [ 12.892124, 50.7751538 ], [ 12.8973299, 50.7731626 ], [ 12.8960865, 50.7717786 ], [ 12.8949948, 50.7707622 ], [ 12.8948129, 50.7706119 ], [ 12.8943833, 50.7703786 ], [ 12.8942974, 50.7703754 ], [ 12.8943681, 50.7697074 ], [ 12.893888, 50.769685 ], [ 12.8938756, 50.7697404 ], [ 12.893853, 50.7703863 ], [ 12.893423, 50.7704457 ], [ 12.8930287, 50.7705608 ], [ 12.8927306, 50.770695 ], [ 12.8925385, 50.7707877 ], [ 12.890132, 50.7705367 ], [ 12.8896035, 50.7704542 ], [ 12.8894479, 50.7698144 ], [ 12.8894074, 50.7698112 ], [ 12.8894201, 50.769621 ], [ 12.8893695, 50.7696194 ], [ 12.8894074, 50.7704234 ], [ 12.887919, 50.770222 ], [ 12.8864153, 50.7700174 ], [ 12.8865796, 50.7699167 ], [ 12.8868626, 50.7698416 ], [ 12.8871482, 50.769832 ], [ 12.8871431, 50.7698112 ], [ 12.8862182, 50.7697825 ], [ 12.8860388, 50.7697665 ], [ 12.8858619, 50.7697697 ], [ 12.8855631, 50.7698158 ], [ 12.8853988, 50.7697392 ], [ 12.8854961, 50.7697095 ], [ 12.8855753, 50.769566 ], [ 12.8849125, 50.7691081 ], [ 12.8839147, 50.7682492 ], [ 12.883486, 50.7681079 ], [ 12.8825999, 50.768338 ], [ 12.8824774, 50.7682788 ], [ 12.8814285, 50.7672557 ], [ 12.8806835, 50.7665291 ], [ 12.8801684, 50.7660529 ], [ 12.8805202, 50.7639226 ], [ 12.8805616, 50.7638096 ], [ 12.8805756, 50.7637713 ], [ 12.8811896, 50.761685 ], [ 12.8842677, 50.7619197 ], [ 12.8879132, 50.7622569 ], [ 12.8896999, 50.762617 ], [ 12.891537, 50.7631592 ], [ 12.8920053, 50.7624666 ], [ 12.8921422, 50.7621157 ], [ 12.8921422, 50.760744 ], [ 12.8925457, 50.7595454 ], [ 12.8933598, 50.758128 ], [ 12.8935471, 50.7566149 ], [ 12.8939145, 50.755913 ], [ 12.894054, 50.7554478 ], [ 12.8941646, 50.7552379 ], [ 12.8949304, 50.754336 ], [ 12.8952113, 50.7540277 ], [ 12.8959779, 50.7530507 ], [ 12.8960903, 50.7527225 ], [ 12.8967747, 50.7523715 ], [ 12.8975096, 50.7519476 ], [ 12.8978266, 50.7518519 ], [ 12.8981796, 50.7516604 ], [ 12.8999663, 50.7511271 ], [ 12.9011767, 50.7506622 ], [ 12.9035181, 50.7501516 ], [ 12.9034965, 50.7500286 ], [ 12.9035974, 50.7498736 ], [ 12.9040513, 50.7495818 ], [ 12.9044475, 50.7494223 ], [ 12.904606, 50.7493357 ], [ 12.9049806, 50.7488479 ], [ 12.9052881, 50.7485337 ], [ 12.9057803, 50.7482918 ], [ 12.9064432, 50.7477767 ], [ 12.9077013, 50.74638 ], [ 12.9081704, 50.7459287 ], [ 12.911348, 50.7440931 ], [ 12.9122463, 50.7439855 ], [ 12.9131562, 50.7436963 ], [ 12.9147931, 50.7432933 ], [ 12.9148278, 50.7437221 ], [ 12.914789, 50.7440479 ], [ 12.9147696, 50.7442107 ], [ 12.9158946, 50.7441259 ], [ 12.9158741, 50.7437633 ], [ 12.9158338, 50.7434335 ], [ 12.9168303, 50.7433968 ], [ 12.9167475, 50.7437977 ], [ 12.9194015, 50.7434365 ], [ 12.9194543, 50.7436338 ], [ 12.9211696, 50.743044 ], [ 12.921157, 50.7427208 ], [ 12.9235944, 50.7424916 ], [ 12.9241578, 50.7413804 ], [ 12.9260231, 50.7414253 ], [ 12.9282049, 50.7416278 ], [ 12.9307959, 50.7422381 ], [ 12.9335394, 50.7427681 ], [ 12.9350763, 50.7432175 ], [ 12.9367177, 50.7434321 ], [ 12.9387045, 50.7467589 ], [ 12.9376452, 50.747096 ], [ 12.937636, 50.7488616 ], [ 12.9381342, 50.7497941 ], [ 12.9385028, 50.750778 ], [ 12.9379443, 50.7511602 ], [ 12.937826, 50.7514391 ], [ 12.9371453, 50.7527014 ], [ 12.936338, 50.7533656 ], [ 12.9366533, 50.7535305 ], [ 12.936921, 50.7536431 ], [ 12.9372955, 50.7537579 ], [ 12.9375857, 50.7538114 ], [ 12.9384315, 50.7539574 ], [ 12.9390628, 50.754095 ], [ 12.9391244, 50.7540923 ], [ 12.9400595, 50.7543336 ], [ 12.9406703, 50.7545136 ], [ 12.9409981, 50.7546746 ], [ 12.9413968, 50.754922 ], [ 12.9416943, 50.7551302 ], [ 12.9419521, 50.7552742 ], [ 12.9423296, 50.7554623 ], [ 12.9427482, 50.7556318 ], [ 12.9431679, 50.755784 ], [ 12.9434883, 50.755862 ], [ 12.9438187, 50.7559546 ], [ 12.944119, 50.7560023 ], [ 12.9442957, 50.7560304 ], [ 12.9444647, 50.7560601 ], [ 12.9449039, 50.7561289 ], [ 12.9449852, 50.7561568 ], [ 12.9451888, 50.7560484 ], [ 12.9458938, 50.7560042 ], [ 12.9462696, 50.7559949 ], [ 12.9466654, 50.7559611 ], [ 12.9466471, 50.7561092 ], [ 12.9465065, 50.7561399 ], [ 12.9466039, 50.7563433 ], [ 12.9467454, 50.7565879 ], [ 12.9468728, 50.7567886 ], [ 12.9469182, 50.7568818 ], [ 12.9469652, 50.7569724 ], [ 12.9469805, 50.7570036 ], [ 12.9470576, 50.7571183 ], [ 12.9471384, 50.7571914 ], [ 12.9471934, 50.7572722 ], [ 12.9474094, 50.7573602 ], [ 12.9475618, 50.757452 ], [ 12.9477096, 50.7575131 ], [ 12.9478692, 50.7574798 ], [ 12.9481213, 50.7575491 ], [ 12.9482557, 50.7575672 ], [ 12.9484172, 50.7576349 ], [ 12.948693, 50.7576849 ], [ 12.9488503, 50.7577431 ], [ 12.9490993, 50.7577931 ], [ 12.9492891, 50.757774 ], [ 12.9495381, 50.7578076 ], [ 12.9497906, 50.7578277 ], [ 12.9499789, 50.7578666 ], [ 12.9501343, 50.7579333 ], [ 12.9503493, 50.758047 ], [ 12.9505406, 50.7581328 ], [ 12.9507961, 50.758242 ], [ 12.9512166, 50.7583589 ], [ 12.951408, 50.7584389 ], [ 12.9515626, 50.7584967 ], [ 12.9517757, 50.7585442 ], [ 12.9519472, 50.7586061 ], [ 12.95204, 50.7586817 ], [ 12.9521998, 50.7587664 ], [ 12.9522434, 50.7587463 ], [ 12.9523412, 50.758716 ], [ 12.9528084, 50.7585732 ], [ 12.9530937, 50.7584686 ], [ 12.9534649, 50.7583056 ], [ 12.9538575, 50.7581169 ], [ 12.9542268, 50.7579374 ], [ 12.954574, 50.7577682 ], [ 12.9549242, 50.7575974 ], [ 12.9552427, 50.757444 ], [ 12.9555994, 50.7572689 ], [ 12.955685, 50.7572278 ], [ 12.9560552, 50.757044 ], [ 12.9563056, 50.7569031 ], [ 12.9565544, 50.7567615 ], [ 12.9565706, 50.7567553 ], [ 12.9568595, 50.7566095 ], [ 12.9571784, 50.7564128 ], [ 12.9575007, 50.7562329 ], [ 12.9575848, 50.7561761 ], [ 12.9577624, 50.7560156 ], [ 12.9578681, 50.7559205 ], [ 12.9580037, 50.7557996 ], [ 12.9583298, 50.755484 ], [ 12.9583946, 50.7554153 ], [ 12.9584811, 50.7553101 ], [ 12.9586541, 50.7551029 ], [ 12.9587904, 50.7549164 ], [ 12.9589445, 50.7547272 ], [ 12.9591059, 50.7545457 ], [ 12.9593488, 50.7543469 ], [ 12.9596879, 50.7540747 ], [ 12.9598545, 50.7538911 ], [ 12.9601462, 50.7535628 ], [ 12.9601911, 50.7535179 ], [ 12.9606303, 50.7530961 ], [ 12.9609099, 50.752829 ], [ 12.9610857, 50.7526328 ], [ 12.9614184, 50.7522661 ], [ 12.9620877, 50.7515472 ], [ 12.9624898, 50.751187 ], [ 12.9629336, 50.7508501 ], [ 12.9633991, 50.7505491 ], [ 12.9638206, 50.7503037 ], [ 12.964766, 50.7506145 ], [ 12.9643556, 50.7509078 ], [ 12.9638633, 50.7512613 ], [ 12.9631167, 50.751791 ], [ 12.9642848, 50.7520399 ], [ 12.9636354, 50.7525377 ], [ 12.9648131, 50.7529835 ], [ 12.964589, 50.7532191 ], [ 12.9649823, 50.753745 ], [ 12.965416, 50.7541045 ], [ 12.9657753, 50.7537167 ], [ 12.9663698, 50.7532082 ], [ 12.9684954, 50.7542059 ], [ 12.9679687, 50.7546431 ], [ 12.9683597, 50.7551695 ], [ 12.9712889, 50.7560828 ], [ 12.9716326, 50.7564286 ], [ 12.9717807, 50.7568644 ], [ 12.971692, 50.7577262 ], [ 12.9726699, 50.7588717 ], [ 12.9732626, 50.7590026 ], [ 12.9736453, 50.7590132 ], [ 12.974038, 50.7589563 ], [ 12.9743006, 50.7588596 ], [ 12.9745489, 50.7586584 ], [ 12.9747253, 50.7584353 ], [ 12.9749961, 50.7584106 ], [ 12.9752661, 50.7586426 ], [ 12.97697, 50.7605879 ], [ 12.9772639, 50.7607217 ], [ 12.9780285, 50.76081 ], [ 12.9781084, 50.7605068 ], [ 12.9778422, 50.7598332 ], [ 12.9777207, 50.7596099 ], [ 12.9775324, 50.7589758 ], [ 12.9776783, 50.7586483 ], [ 12.9776689, 50.758483 ], [ 12.9776289, 50.7580275 ], [ 12.9776713, 50.7578756 ], [ 12.9776619, 50.7576836 ], [ 12.9777466, 50.7575437 ], [ 12.9783137, 50.7573546 ], [ 12.978429, 50.7572429 ], [ 12.9787773, 50.7573695 ], [ 12.9785985, 50.7579039 ], [ 12.9785726, 50.7587197 ], [ 12.9785491, 50.7591455 ], [ 12.9786855, 50.7596367 ], [ 12.9788273, 50.7598668 ], [ 12.9790536, 50.7608521 ], [ 12.9792062, 50.7614955 ], [ 12.9794529, 50.7621573 ], [ 12.9796576, 50.7624278 ], [ 12.9802226, 50.7622616 ], [ 12.980688, 50.7622877 ], [ 12.981454, 50.7624529 ], [ 12.9833326, 50.7630177 ], [ 12.984345, 50.7630915 ], [ 12.9858483, 50.7635923 ], [ 12.9864809, 50.7640176 ], [ 12.9872079, 50.7648017 ], [ 12.9872503, 50.7650101 ], [ 12.9871938, 50.7651828 ], [ 12.9870624, 50.765363 ], [ 12.9863325, 50.7654209 ], [ 12.9857489, 50.7653852 ], [ 12.9855815, 50.7654073 ], [ 12.985608, 50.765578 ], [ 12.9861536, 50.7663129 ], [ 12.9867611, 50.7666497 ], [ 12.9876366, 50.7668851 ], [ 12.9880687, 50.7669318 ], [ 12.9894236, 50.7669822 ], [ 12.9897564, 50.7671843 ], [ 12.9896765, 50.7675295 ], [ 12.9893171, 50.7677568 ], [ 12.9900011, 50.7685875 ], [ 12.9900876, 50.7689916 ], [ 12.9910261, 50.7696188 ], [ 12.9912355, 50.7705363 ], [ 12.9903206, 50.7706712 ], [ 12.9895393, 50.771292 ], [ 12.9895169, 50.7718198 ], [ 12.9904337, 50.7723845 ], [ 12.9906866, 50.7728685 ], [ 12.990487, 50.7732221 ], [ 12.9901275, 50.7734115 ], [ 12.9897814, 50.7735083 ], [ 12.9896563, 50.773717 ], [ 12.9895351, 50.7749352 ], [ 12.9905269, 50.7748005 ], [ 12.9912457, 50.7746069 ], [ 12.9914721, 50.7747542 ], [ 12.9910328, 50.7751289 ], [ 12.9904603, 50.7752509 ], [ 12.9897881, 50.7754908 ], [ 12.9900676, 50.7759412 ], [ 12.9901874, 50.7762863 ], [ 12.9902074, 50.7765473 ], [ 12.9900809, 50.7768209 ], [ 12.9899212, 50.7769429 ], [ 12.9895019, 50.7770187 ], [ 12.9889228, 50.7769556 ], [ 12.9886858, 50.7768088 ], [ 12.9880617, 50.7771698 ], [ 12.9884935, 50.7773172 ], [ 12.9893402, 50.7784026 ], [ 12.9901325, 50.7791223 ], [ 12.9916525, 50.7797613 ], [ 12.9930895, 50.7793834 ], [ 12.9945289, 50.7786002 ], [ 12.9954664, 50.7784432 ], [ 12.9958345, 50.7779652 ], [ 12.9968499, 50.7774995 ], [ 12.9981238, 50.7772773 ], [ 12.9984205, 50.7769327 ], [ 12.9995014, 50.776309 ], [ 13.0008428, 50.7759098 ], [ 13.0021368, 50.7756604 ], [ 13.0030256, 50.7751935 ], [ 13.0049067, 50.7750309 ], [ 13.005514, 50.7744032 ], [ 13.0059045, 50.7736834 ], [ 13.0068622, 50.7729524 ], [ 13.0081813, 50.7724281 ], [ 13.0086269, 50.7721818 ], [ 13.0088599, 50.7718442 ], [ 13.0094956, 50.7714352 ], [ 13.0102672, 50.7713645 ], [ 13.0106344, 50.7714403 ], [ 13.0110735, 50.7715181 ], [ 13.0118022, 50.7715458 ], [ 13.0129009, 50.771178 ], [ 13.0145833, 50.7701608 ], [ 13.0168719, 50.7691583 ], [ 13.0169749, 50.7693895 ], [ 13.017167, 50.7692777 ], [ 13.0173993, 50.7690897 ], [ 13.0176412, 50.7688906 ], [ 13.017849, 50.7690408 ], [ 13.0180035, 50.769148 ], [ 13.0183228, 50.7692314 ], [ 13.0188493, 50.7693723 ], [ 13.019859, 50.7697795 ], [ 13.0205889, 50.7702004 ], [ 13.0197223, 50.7710083 ], [ 13.0204459, 50.7712928 ], [ 13.0214287, 50.7715876 ], [ 13.0219788, 50.7718378 ], [ 13.0221, 50.7722139 ], [ 13.0220729, 50.7726577 ], [ 13.0227646, 50.7730291 ], [ 13.0219325, 50.7740759 ], [ 13.0217595, 50.7751261 ], [ 13.021885, 50.7756267 ], [ 13.0219815, 50.7759792 ], [ 13.0216438, 50.77677 ], [ 13.0226137, 50.7772246 ], [ 13.0241223, 50.7786005 ], [ 13.0247298, 50.7793803 ], [ 13.025264, 50.7797589 ], [ 13.0258531, 50.7801078 ], [ 13.0255126, 50.7803588 ], [ 13.0278771, 50.7822225 ], [ 13.0279663, 50.7824454 ], [ 13.0283535, 50.7830577 ], [ 13.0288017, 50.7836347 ], [ 13.0293239, 50.7852318 ], [ 13.0302394, 50.7855461 ], [ 13.0306023, 50.7855009 ], [ 13.0309505, 50.7857541 ], [ 13.0312083, 50.7859816 ], [ 13.0318525, 50.7866921 ], [ 13.0319281, 50.7871216 ], [ 13.0318851, 50.7877986 ], [ 13.0317708, 50.7886179 ], [ 13.0313626, 50.7894055 ], [ 13.0310191, 50.7907964 ], [ 13.0312259, 50.7909112 ], [ 13.0326133, 50.7911926 ], [ 13.033446, 50.7914423 ], [ 13.0342791, 50.7919433 ], [ 13.0348302, 50.7921016 ], [ 13.035357, 50.7923176 ], [ 13.035741, 50.7926031 ], [ 13.036347, 50.7931907 ], [ 13.0380987, 50.7945403 ], [ 13.0390576, 50.7955682 ], [ 13.0395779, 50.7969211 ], [ 13.0403, 50.7973918 ], [ 13.040698, 50.7980703 ], [ 13.040851, 50.7983401 ], [ 13.0402976, 50.7985064 ], [ 13.0404847, 50.7998477 ], [ 13.0411119, 50.8000248 ], [ 13.0418962, 50.8001986 ], [ 13.0424457, 50.8004906 ], [ 13.0429863, 50.8009951 ], [ 13.0418017, 50.8014373 ], [ 13.0420785, 50.8016952 ], [ 13.0429201, 50.8024236 ], [ 13.0425483, 50.8031341 ], [ 13.0424919, 50.8036006 ], [ 13.0431776, 50.8037809 ], [ 13.043806, 50.8039179 ], [ 13.0441814, 50.8041203 ], [ 13.0447107, 50.8044909 ], [ 13.044948, 50.8052439 ], [ 13.0449444, 50.8056845 ], [ 13.0452211, 50.80637 ], [ 13.0457162, 50.806355 ], [ 13.0466786, 50.8063781 ], [ 13.0472271, 50.8064644 ], [ 13.0477843, 50.8065219 ], [ 13.0482649, 50.8065909 ], [ 13.0489308, 50.8067038 ], [ 13.0528304, 50.8069575 ], [ 13.0537542, 50.8091918 ], [ 13.0538807, 50.8093956 ], [ 13.0540394, 50.8103252 ], [ 13.0527583, 50.8104427 ], [ 13.0512889, 50.8109456 ], [ 13.0510317, 50.8113789 ], [ 13.0498215, 50.811526 ], [ 13.0497991, 50.8118831 ], [ 13.0499836, 50.8120793 ], [ 13.0498811, 50.812217 ], [ 13.0497721, 50.8130279 ], [ 13.0495468, 50.8132438 ], [ 13.0488617, 50.8143085 ], [ 13.0479383, 50.8144986 ], [ 13.0469542, 50.8146758 ], [ 13.045278, 50.8152399 ], [ 13.0422963, 50.8166288 ], [ 13.0410358, 50.8176966 ], [ 13.039587, 50.8183753 ], [ 13.0393549, 50.8189134 ], [ 13.041248, 50.8213953 ], [ 13.0415716, 50.8221257 ], [ 13.0423386, 50.8225652 ], [ 13.0426573, 50.822261 ], [ 13.0433241, 50.821992 ], [ 13.0437888, 50.8228212 ], [ 13.0443545, 50.8246468 ], [ 13.044572, 50.8249407 ], [ 13.0455136, 50.826284 ], [ 13.0465609, 50.8279627 ], [ 13.0476863, 50.8298295 ], [ 13.0477558, 50.8304705 ], [ 13.0479317, 50.8316491 ], [ 13.0487179, 50.832884 ], [ 13.0495877, 50.8340227 ], [ 13.0494972, 50.8361053 ], [ 13.0494542, 50.8385269 ], [ 13.0490332, 50.8407742 ], [ 13.0487949, 50.8411431 ], [ 13.0487273, 50.8423751 ], [ 13.0472463, 50.8420215 ], [ 13.0461354, 50.8419975 ], [ 13.0453485, 50.8419558 ], [ 13.0437843, 50.8421768 ], [ 13.043213, 50.8423971 ], [ 13.0429177, 50.8426218 ], [ 13.0416535, 50.84278 ], [ 13.0397806, 50.8431246 ], [ 13.037337, 50.8436404 ], [ 13.0361981, 50.8439193 ], [ 13.0356708, 50.8440824 ], [ 13.0332262, 50.8452405 ], [ 13.0333657, 50.8457363 ], [ 13.0331104, 50.8464502 ], [ 13.0324206, 50.8471141 ], [ 13.0330221, 50.8480668 ], [ 13.0311107, 50.8480591 ], [ 13.0282749, 50.8484383 ], [ 13.0261787, 50.8472548 ], [ 13.0259301, 50.8472648 ], [ 13.0255928, 50.8471813 ], [ 13.0244166, 50.8466776 ], [ 13.0239515, 50.8465193 ], [ 13.023553, 50.8462273 ], [ 13.022014, 50.8463494 ], [ 13.0183698, 50.8472991 ], [ 13.0163062, 50.8480765 ], [ 13.014355, 50.8486752 ], [ 13.0117871, 50.8498775 ], [ 13.0112881, 50.8493596 ], [ 13.0099898, 50.8503854 ], [ 13.0090729, 50.8512933 ], [ 13.008458, 50.8518502 ], [ 13.0079191, 50.8519762 ], [ 13.0069752, 50.8520672 ], [ 13.0063093, 50.8519952 ], [ 13.0053555, 50.8517852 ], [ 13.0044736, 50.8515942 ], [ 13.003827, 50.8515278 ], [ 13.0034622, 50.8514743 ], [ 13.0022687, 50.8512992 ], [ 13.0013143, 50.851138 ], [ 12.9998494, 50.8509426 ], [ 12.9988523, 50.850846 ], [ 12.9979183, 50.8508294 ], [ 12.9948822, 50.8509139 ], [ 12.9937051, 50.8509821 ], [ 12.992703, 50.8510769 ], [ 12.9911298, 50.8512596 ], [ 12.9896537, 50.8514873 ], [ 12.987093, 50.8521827 ], [ 12.9866801, 50.8522567 ], [ 12.9866747, 50.8518256 ], [ 12.9865509, 50.8513699 ], [ 12.9860024, 50.85009 ], [ 12.9853415, 50.849404 ], [ 12.9850634, 50.8491038 ], [ 12.9848135, 50.8487762 ], [ 12.9846229, 50.8484516 ], [ 12.9844991, 50.8482441 ], [ 12.9844243, 50.8480865 ], [ 12.9843573, 50.8479625 ], [ 12.9841971, 50.847628 ], [ 12.9840544, 50.8473356 ], [ 12.9834026, 50.8475116 ], [ 12.9830752, 50.8476177 ], [ 12.9827231, 50.8477026 ], [ 12.9822898, 50.847761 ], [ 12.9815427, 50.8479132 ], [ 12.9810163, 50.8480927 ], [ 12.9812203, 50.8483073 ], [ 12.981779, 50.8487966 ], [ 12.982509, 50.8494651 ], [ 12.982628, 50.8496006 ], [ 12.9835671, 50.8506452 ], [ 12.9837551, 50.8509279 ], [ 12.9840644, 50.8513176 ], [ 12.9841875, 50.8516195 ], [ 12.9842885, 50.8519792 ], [ 12.9842888, 50.8524333 ], [ 12.984297, 50.8525746 ], [ 12.984313, 50.8528479 ], [ 12.9844539, 50.853432 ], [ 12.9844545, 50.8538326 ], [ 12.9844683, 50.8542051 ], [ 12.9844605, 50.854705 ], [ 12.9844297, 50.8549959 ], [ 12.984193, 50.8549523 ], [ 12.9838801, 50.8549127 ], [ 12.9832664, 50.8548374 ], [ 12.9831526, 50.8552298 ], [ 12.9830982, 50.8554053 ], [ 12.9832048, 50.8556954 ], [ 12.9842518, 50.8561547 ], [ 12.9846064, 50.856392 ], [ 12.9850177, 50.8566274 ], [ 12.985561, 50.856984 ], [ 12.986061, 50.8574014 ], [ 12.9863385, 50.8576129 ], [ 12.9870124, 50.8581465 ], [ 12.9871838, 50.8590457 ], [ 12.9871885, 50.8594839 ], [ 12.9870739, 50.8598044 ], [ 12.9869756, 50.8599904 ], [ 12.98679, 50.8602816 ], [ 12.9867198, 50.8604799 ], [ 12.9866925, 50.8606866 ], [ 12.9877064, 50.8605223 ], [ 12.987853, 50.861076 ], [ 12.9878955, 50.8615067 ], [ 12.987822, 50.8617422 ], [ 12.9876471, 50.8619443 ], [ 12.9873098, 50.8621073 ], [ 12.9868677, 50.8622512 ], [ 12.9867831, 50.862436 ], [ 12.9867694, 50.8628357 ], [ 12.9872118, 50.8631208 ], [ 12.9882495, 50.863945 ], [ 12.98758, 50.8641171 ], [ 12.9866408, 50.8644849 ], [ 12.9866931, 50.8646948 ], [ 12.9866667, 50.8648266 ], [ 12.9873539, 50.8650251 ], [ 12.9884521, 50.8652387 ], [ 12.9885514, 50.865141 ], [ 12.9920863, 50.8660342 ], [ 12.9919551, 50.8662563 ], [ 12.9921601, 50.866348 ], [ 12.9930466, 50.8667645 ], [ 12.9931961, 50.8668855 ], [ 12.993712, 50.8671571 ], [ 12.9934987, 50.8674649 ], [ 12.9930879, 50.8683685 ], [ 12.9930291, 50.86864 ], [ 12.9937127, 50.8688214 ], [ 12.9947389, 50.8689318 ], [ 12.996036, 50.8689431 ], [ 12.9962647, 50.8684385 ], [ 12.9971486, 50.869213 ], [ 12.9971018, 50.8692102 ], [ 12.9960438, 50.8692676 ], [ 12.9956773, 50.869272 ], [ 12.9954041, 50.8692743 ], [ 12.99494, 50.8692596 ], [ 12.994454, 50.8692243 ], [ 12.9939101, 50.8691629 ], [ 12.9933842, 50.8690953 ], [ 12.993052, 50.8690434 ], [ 12.9928228, 50.868997 ], [ 12.9926023, 50.869313 ], [ 12.9928548, 50.8696006 ], [ 12.9930979, 50.8698822 ], [ 12.9932535, 50.8701918 ], [ 12.9932399, 50.8705003 ], [ 12.9932332, 50.870533 ], [ 12.9926959, 50.8707483 ], [ 12.9939991, 50.8717433 ], [ 12.9943381, 50.8712486 ], [ 12.9944242, 50.871166 ], [ 12.9945418, 50.8710477 ], [ 12.9946111, 50.8709325 ], [ 12.9948394, 50.8710467 ], [ 12.9953263, 50.8712028 ], [ 12.9955748, 50.8712407 ], [ 12.9959545, 50.8712277 ], [ 12.995745, 50.871535 ], [ 12.9957009, 50.8716343 ], [ 12.995945, 50.8716641 ], [ 12.9960693, 50.8716827 ], [ 12.9961425, 50.8716757 ], [ 12.995959, 50.8719525 ], [ 12.9957977, 50.8724748 ], [ 12.9957921, 50.8726443 ], [ 12.9957213, 50.8728301 ], [ 12.9957015, 50.8731039 ], [ 12.9954914, 50.8734797 ], [ 12.9954981, 50.8736538 ], [ 12.9956623, 50.873885 ], [ 12.9959618, 50.8738239 ], [ 12.9960453, 50.8736195 ], [ 12.9961601, 50.8734127 ], [ 12.9963334, 50.8732931 ], [ 12.998241, 50.873772 ], [ 12.9995832, 50.8741103 ], [ 12.9991438, 50.8745834 ], [ 12.9987355, 50.8751131 ], [ 12.998235, 50.8756542 ], [ 12.9976862, 50.8761296 ], [ 12.9970049, 50.8767044 ], [ 12.9963076, 50.8772835 ], [ 12.9957834, 50.8777513 ], [ 12.9954528, 50.878039 ], [ 12.9947166, 50.8786217 ], [ 12.9937704, 50.8793474 ], [ 12.9926796, 50.8801952 ], [ 12.9908322, 50.8814948 ], [ 12.9905973, 50.8816353 ], [ 12.9902498, 50.8818327 ], [ 12.9901395, 50.8819554 ], [ 12.9894721, 50.8824489 ], [ 12.9891821, 50.8826552 ], [ 12.9888544, 50.8828739 ], [ 12.9871956, 50.883956 ], [ 12.9872361, 50.8841178 ], [ 12.9873786, 50.8843843 ], [ 12.9874909, 50.8847015 ], [ 12.987561, 50.8850411 ], [ 12.9876006, 50.8853295 ], [ 12.987604, 50.8859668 ], [ 12.9875642, 50.8860402 ], [ 12.9875757, 50.8860316 ], [ 12.9877663, 50.8858789 ], [ 12.9878871, 50.8857813 ], [ 12.988079, 50.8856346 ], [ 12.9883507, 50.8853412 ], [ 12.9884921, 50.8852397 ], [ 12.9888268, 50.8851559 ], [ 12.9888649, 50.8852173 ], [ 12.988953, 50.8851502 ], [ 12.9891768, 50.8851181 ], [ 12.9894791, 50.885162 ], [ 12.9901004, 50.8853399 ], [ 12.9903567, 50.8853884 ], [ 12.9904748, 50.8853995 ], [ 12.9914655, 50.8862809 ], [ 12.9915558, 50.8865247 ], [ 12.9916251, 50.8868313 ], [ 12.9916249, 50.8871978 ], [ 12.9916103, 50.8876786 ], [ 12.9908729, 50.8875697 ], [ 12.9901357, 50.8874326 ], [ 12.9896811, 50.8873715 ], [ 12.9893213, 50.887373 ], [ 12.9885769, 50.8874287 ], [ 12.9885976, 50.8874837 ], [ 12.9885906, 50.88754 ], [ 12.9885482, 50.8875911 ], [ 12.9885313, 50.8876237 ], [ 12.9885783, 50.8877047 ], [ 12.9886659, 50.8877539 ], [ 12.9887485, 50.8878756 ], [ 12.9877174, 50.8878918 ], [ 12.9877196, 50.8881578 ], [ 12.9880047, 50.8881527 ], [ 12.9893223, 50.8881152 ], [ 12.9899155, 50.8880925 ], [ 12.9900929, 50.8880845 ], [ 12.9900886, 50.888284 ], [ 12.990062, 50.8884087 ], [ 12.9902282, 50.8886475 ], [ 12.9906179, 50.889096 ], [ 12.9908993, 50.889338 ], [ 12.9910466, 50.8895885 ], [ 12.9907735, 50.8896286 ], [ 12.9907448, 50.8896048 ], [ 12.990627, 50.8894545 ], [ 12.9904474, 50.8892745 ], [ 12.9898371, 50.8889345 ], [ 12.9896202, 50.8890785 ], [ 12.9894609, 50.8891793 ], [ 12.989209, 50.8893768 ], [ 12.9882306, 50.8902958 ], [ 12.9887335, 50.8906596 ], [ 12.989123, 50.8909804 ], [ 12.9899503, 50.8917421 ], [ 12.9898842, 50.8917506 ], [ 12.9900321, 50.8918919 ], [ 12.9890183, 50.8932311 ], [ 12.9879436, 50.8946509 ], [ 12.9877082, 50.8945963 ], [ 12.9870735, 50.8941731 ], [ 12.9863257, 50.8936745 ], [ 12.9857386, 50.893283 ], [ 12.9856946, 50.8932537 ], [ 12.9856255, 50.8932075 ], [ 12.9857973, 50.8930163 ], [ 12.9862992, 50.8923913 ], [ 12.9868746, 50.8916072 ], [ 12.9869818, 50.8914377 ], [ 12.9870787, 50.8911257 ], [ 12.9870784, 50.8909619 ], [ 12.9870105, 50.8909073 ], [ 12.986859, 50.8908973 ], [ 12.9868221, 50.8911849 ], [ 12.9867584, 50.8914132 ], [ 12.9866549, 50.8915947 ], [ 12.986099, 50.8923268 ], [ 12.9850939, 50.8927584 ], [ 12.9847563, 50.892886 ], [ 12.9844775, 50.8929885 ], [ 12.984118, 50.8931354 ], [ 12.9836866, 50.8926 ], [ 12.9835996, 50.8925129 ], [ 12.9835126, 50.8924181 ], [ 12.9834683, 50.8923788 ], [ 12.9832746, 50.8924604 ], [ 12.9831191, 50.8924924 ], [ 12.9830393, 50.8926588 ], [ 12.982903, 50.8926715 ], [ 12.9826621, 50.8927151 ], [ 12.98246, 50.8926987 ], [ 12.9820145, 50.8927572 ], [ 12.9818118, 50.8927831 ], [ 12.9816921, 50.8927312 ], [ 12.9814152, 50.8927331 ], [ 12.9812966, 50.8928004 ], [ 12.9812596, 50.8927426 ], [ 12.9811083, 50.8928234 ], [ 12.9809113, 50.8928315 ], [ 12.9807779, 50.8927998 ], [ 12.9806254, 50.8927812 ], [ 12.9806072, 50.8927951 ], [ 12.9805063, 50.8927673 ], [ 12.9804344, 50.8926953 ], [ 12.9803347, 50.8926857 ], [ 12.9802668, 50.8926403 ], [ 12.9802688, 50.8925965 ], [ 12.9801241, 50.8924619 ], [ 12.9799841, 50.892461 ], [ 12.97995, 50.8924417 ], [ 12.9798507, 50.8924553 ], [ 12.9796946, 50.8924572 ], [ 12.9796187, 50.8924859 ], [ 12.9794902, 50.8924579 ], [ 12.9794546, 50.8924841 ], [ 12.9793322, 50.8924731 ], [ 12.9791126, 50.8918053 ], [ 12.9786463, 50.8917995 ], [ 12.9784939, 50.8913395 ], [ 12.9776771, 50.8914845 ], [ 12.9776654, 50.8914493 ], [ 12.9776243, 50.8914554 ], [ 12.9774782, 50.89148 ], [ 12.9773678, 50.8915264 ], [ 12.9772759, 50.8915792 ], [ 12.9768032, 50.8919823 ], [ 12.9765032, 50.8922576 ], [ 12.9763961, 50.8923223 ], [ 12.9764188, 50.8923381 ], [ 12.976765, 50.8925786 ], [ 12.9761184, 50.8929087 ], [ 12.9776658, 50.8939714 ], [ 12.9776035, 50.8939887 ], [ 12.9771479, 50.8941553 ], [ 12.9762019, 50.8945096 ], [ 12.9757121, 50.8947097 ], [ 12.975417, 50.8948422 ], [ 12.9751216, 50.8946998 ], [ 12.9748747, 50.8945615 ], [ 12.9746517, 50.8944309 ], [ 12.9745636, 50.8943866 ], [ 12.9742027, 50.8940934 ], [ 12.9738076, 50.8937501 ], [ 12.9727044, 50.8940759 ], [ 12.9720528, 50.8942553 ], [ 12.9713975, 50.8943984 ], [ 12.9709455, 50.8944583 ], [ 12.9702976, 50.8945741 ], [ 12.9691183, 50.8948356 ], [ 12.9675575, 50.8951667 ], [ 12.9672019, 50.8948988 ], [ 12.9669277, 50.8946874 ], [ 12.9665416, 50.8944043 ], [ 12.9655977, 50.8937515 ], [ 12.9653542, 50.8935611 ], [ 12.9650741, 50.8933099 ], [ 12.96481, 50.8930195 ], [ 12.9645511, 50.8926992 ], [ 12.9632576, 50.8926528 ], [ 12.962898, 50.8926293 ], [ 12.9624605, 50.8925861 ], [ 12.9621215, 50.8925728 ], [ 12.9615497, 50.8925918 ], [ 12.9614022, 50.8925648 ], [ 12.9608041, 50.8925938 ], [ 12.9606574, 50.8925534 ], [ 12.9601286, 50.8925101 ], [ 12.9601032, 50.8925353 ], [ 12.9580861, 50.8923772 ], [ 12.9579702, 50.8923776 ], [ 12.9578555, 50.8922786 ], [ 12.9571702, 50.8916649 ], [ 12.9564736, 50.8917612 ], [ 12.9562702, 50.8917815 ], [ 12.9558665, 50.8918869 ], [ 12.955048, 50.8921183 ], [ 12.9537582, 50.8925572 ], [ 12.9532653, 50.8927212 ], [ 12.9531503, 50.8919613 ], [ 12.9531543, 50.8909314 ], [ 12.9535022, 50.8908495 ], [ 12.9554695, 50.8905642 ], [ 12.9553381, 50.8901436 ], [ 12.9540322, 50.8901345 ], [ 12.9536313, 50.8901535 ], [ 12.9529249, 50.890122 ], [ 12.9527667, 50.889604 ], [ 12.9518647, 50.8875364 ], [ 12.9511697, 50.8872722 ], [ 12.9506248, 50.8871308 ], [ 12.9503356, 50.887239 ], [ 12.9498172, 50.887289 ], [ 12.9482658, 50.8871852 ], [ 12.9480457, 50.8886965 ], [ 12.9480142, 50.8891434 ], [ 12.9480621, 50.8894401 ], [ 12.9482111, 50.8899135 ], [ 12.9466858, 50.8899845 ], [ 12.946763, 50.8926707 ], [ 12.9449437, 50.8926918 ], [ 12.9450188, 50.891941 ], [ 12.9449331, 50.8919321 ], [ 12.9451787, 50.8908121 ], [ 12.9454282, 50.8899216 ], [ 12.9454562, 50.8895333 ], [ 12.944339, 50.8893137 ], [ 12.9442166, 50.8893174 ], [ 12.9438608, 50.8902525 ], [ 12.9437086, 50.8905326 ], [ 12.9435857, 50.8907166 ], [ 12.9431918, 50.8909039 ], [ 12.9430072, 50.8909262 ], [ 12.942213, 50.8910129 ], [ 12.9421104, 50.8910241 ], [ 12.9419758, 50.8909935 ], [ 12.9415561, 50.8908982 ], [ 12.9412603, 50.890831 ], [ 12.9406311, 50.8906881 ], [ 12.9401355, 50.8905017 ], [ 12.9397035, 50.890309 ], [ 12.9392656, 50.8900919 ], [ 12.9389421, 50.8900655 ], [ 12.9384513, 50.8899132 ], [ 12.9381279, 50.8898102 ], [ 12.9380002, 50.8895818 ], [ 12.9379918, 50.8893973 ], [ 12.9377473, 50.8890315 ], [ 12.9368841, 50.8888454 ], [ 12.9354615, 50.88883 ], [ 12.9342967, 50.8888946 ], [ 12.9336759, 50.8889291 ], [ 12.9334762, 50.8889428 ], [ 12.9330388, 50.8889989 ], [ 12.93257, 50.8889874 ], [ 12.9320419, 50.8889269 ], [ 12.9318429, 50.88885 ], [ 12.9315757, 50.8888158 ], [ 12.931627, 50.8891062 ], [ 12.9316415, 50.8896816 ], [ 12.931682, 50.8903507 ], [ 12.9305844, 50.8907298 ], [ 12.9304973, 50.8906782 ], [ 12.9303451, 50.889577 ], [ 12.9295184, 50.8897818 ], [ 12.9288527, 50.8898445 ], [ 12.9282502, 50.8898602 ], [ 12.9281196, 50.8899027 ], [ 12.9277153, 50.8898947 ], [ 12.9274921, 50.8898903 ], [ 12.9264038, 50.8899025 ], [ 12.9263343, 50.8894215 ], [ 12.9242472, 50.8892601 ], [ 12.924118, 50.8864557 ], [ 12.9239164, 50.8864509 ], [ 12.9235378, 50.8864212 ], [ 12.9228295, 50.8863512 ], [ 12.9223121, 50.8863088 ], [ 12.9218833, 50.886211 ], [ 12.920919, 50.8862276 ], [ 12.9206086, 50.8866106 ], [ 12.9203898, 50.8868871 ], [ 12.920007, 50.8871795 ], [ 12.9188001, 50.8882654 ], [ 12.9161843, 50.8891897 ], [ 12.9150069, 50.8895981 ], [ 12.9136401, 50.8902238 ], [ 12.9128522, 50.8905119 ], [ 12.9121559, 50.890722 ], [ 12.9114006, 50.8909683 ], [ 12.9109512, 50.8911165 ], [ 12.9108164, 50.8911697 ], [ 12.9094386, 50.8916038 ], [ 12.9077396, 50.891954 ], [ 12.9067749, 50.8921297 ], [ 12.9057756, 50.8922863 ], [ 12.9043255, 50.8923418 ], [ 12.9035776, 50.8923552 ], [ 12.9020549, 50.8923951 ], [ 12.9013096, 50.8923858 ], [ 12.9005602, 50.8923643 ], [ 12.9002067, 50.8923093 ], [ 12.8999834, 50.8923048 ], [ 12.8982405, 50.8922731 ], [ 12.8970128, 50.8922497 ], [ 12.8966541, 50.892183 ], [ 12.8956047, 50.8919615 ], [ 12.8953146, 50.891896 ], [ 12.8946766, 50.8917396 ], [ 12.8940839, 50.8915985 ], [ 12.8938994, 50.8915585 ], [ 12.8939934, 50.8918121 ], [ 12.8942534, 50.8921473 ], [ 12.8947484, 50.8927087 ], [ 12.8951785, 50.8930744 ], [ 12.8955943, 50.8934561 ], [ 12.8955998, 50.8937491 ], [ 12.8958442, 50.8940025 ], [ 12.89573, 50.8942149 ], [ 12.8957258, 50.8943461 ], [ 12.895777, 50.8944764 ], [ 12.8957795, 50.8945719 ], [ 12.8957162, 50.8946421 ], [ 12.8955427, 50.8947397 ], [ 12.8951008, 50.8948265 ], [ 12.8948223, 50.8947841 ], [ 12.8947175, 50.8948177 ], [ 12.8946004, 50.8948876 ], [ 12.8945282, 50.8949747 ], [ 12.8945813, 50.8950467 ], [ 12.8967466, 50.8956501 ], [ 12.8968903, 50.8958355 ], [ 12.8968769, 50.8960596 ], [ 12.8966324, 50.8962219 ], [ 12.8961578, 50.8963281 ], [ 12.8959909, 50.8965978 ], [ 12.8959891, 50.8967892 ], [ 12.8959885, 50.8968568 ], [ 12.8959047, 50.8971493 ], [ 12.8957937, 50.8975369 ], [ 12.8957092, 50.8977242 ], [ 12.8956862, 50.8977753 ], [ 12.8968786, 50.89908 ], [ 12.8970581, 50.8991873 ], [ 12.8971732, 50.899261 ], [ 12.8973336, 50.8993021 ], [ 12.8975999, 50.8993534 ], [ 12.8982019, 50.8994048 ], [ 12.8984701, 50.8994623 ], [ 12.8986269, 50.8995727 ], [ 12.8987095, 50.8997075 ], [ 12.8987356, 50.8998326 ], [ 12.8986813, 50.9000551 ], [ 12.8985366, 50.900289 ], [ 12.8979734, 50.901057 ], [ 12.8979349, 50.9013505 ], [ 12.8979389, 50.901649 ], [ 12.8978662, 50.9020998 ], [ 12.8977908, 50.902229 ], [ 12.8976281, 50.9023003 ], [ 12.8974227, 50.9023643 ], [ 12.8966797, 50.9024749 ], [ 12.8967641, 50.9021909 ], [ 12.8971207, 50.9016907 ], [ 12.8969971, 50.9014687 ], [ 12.8967577, 50.9012339 ], [ 12.8964537, 50.9011254 ], [ 12.8961122, 50.9011033 ], [ 12.8957865, 50.9016094 ], [ 12.895622, 50.9017217 ], [ 12.8953433, 50.9018096 ], [ 12.8952975, 50.9019739 ], [ 12.895138, 50.9021514 ], [ 12.8950849, 50.9024079 ], [ 12.8946249, 50.9023997 ], [ 12.8940157, 50.9025137 ], [ 12.8928251, 50.9027014 ], [ 12.8924619, 50.9025644 ], [ 12.8923523, 50.902489 ], [ 12.892004, 50.902372 ], [ 12.8917092, 50.9023781 ], [ 12.8913832, 50.9024021 ], [ 12.8910067, 50.9024515 ], [ 12.8906387, 50.9024922 ], [ 12.8902185, 50.9025818 ], [ 12.8898236, 50.9026936 ], [ 12.8892168, 50.902988 ], [ 12.8886118, 50.9034362 ], [ 12.8883694, 50.9036491 ], [ 12.8881492, 50.9039377 ], [ 12.8878509, 50.9038614 ], [ 12.8876172, 50.9037369 ], [ 12.8869126, 50.9036361 ], [ 12.8860415, 50.9034606 ], [ 12.8855249, 50.9032153 ], [ 12.8851298, 50.9029591 ], [ 12.8842083, 50.9021543 ], [ 12.8834226, 50.9018275 ], [ 12.8825132, 50.9016079 ], [ 12.8823087, 50.9015369 ], [ 12.8820705, 50.901496 ], [ 12.8804631, 50.9013944 ], [ 12.8794037, 50.9013275 ], [ 12.877147, 50.9011682 ], [ 12.8770813, 50.9012792 ], [ 12.8769039, 50.9012971 ], [ 12.875513, 50.9014377 ], [ 12.8743257, 50.9014489 ], [ 12.8735866, 50.9008914 ], [ 12.8732559, 50.9006687 ], [ 12.8730514, 50.9005829 ], [ 12.8728933, 50.90054 ], [ 12.872771, 50.9005318 ], [ 12.8724944, 50.9004622 ], [ 12.8723996, 50.9004928 ], [ 12.8723411, 50.9005426 ], [ 12.8723196, 50.9006099 ], [ 12.872237, 50.9006531 ], [ 12.8721227, 50.9006321 ], [ 12.8721295, 50.900508 ], [ 12.8719519, 50.9004293 ], [ 12.8718378, 50.9004031 ], [ 12.8716885, 50.9003609 ], [ 12.8715411, 50.9002841 ], [ 12.8712453, 50.9006819 ], [ 12.8710522, 50.9008683 ], [ 12.8708534, 50.9010191 ], [ 12.8709142, 50.9013669 ], [ 12.8705561, 50.9016061 ], [ 12.8699805, 50.9018801 ], [ 12.8692537, 50.9019419 ], [ 12.8691731, 50.9018827 ], [ 12.869168, 50.9018751 ], [ 12.8686298, 50.9016315 ], [ 12.8677894, 50.9012802 ], [ 12.8668922, 50.9010028 ], [ 12.8664141, 50.9008358 ], [ 12.8658236, 50.9006751 ], [ 12.8654546, 50.900493 ], [ 12.8651606, 50.9002828 ], [ 12.8650064, 50.9001378 ], [ 12.8645527, 50.8996506 ], [ 12.8643326, 50.8994915 ], [ 12.8640151, 50.8993402 ], [ 12.8636469, 50.899189 ], [ 12.8632611, 50.8990377 ], [ 12.862945, 50.8989026 ], [ 12.8627701, 50.898781 ], [ 12.8622649, 50.8988538 ], [ 12.861669, 50.8989036 ], [ 12.8611744, 50.898518 ], [ 12.8592734, 50.8985993 ], [ 12.8561267, 50.898313 ], [ 12.8549302, 50.8980274 ], [ 12.8540732, 50.8981682 ], [ 12.8514886, 50.8979389 ], [ 12.8501421, 50.8978444 ], [ 12.8491063, 50.8979004 ], [ 12.8469489, 50.8980155 ], [ 12.8470683, 50.8976125 ], [ 12.8470434, 50.8974244 ], [ 12.8469474, 50.8972069 ], [ 12.8469272, 50.8970575 ], [ 12.8467715, 50.8969021 ], [ 12.8466232, 50.8967761 ], [ 12.846411, 50.8966375 ], [ 12.8456256, 50.8961843 ], [ 12.8453988, 50.8960461 ], [ 12.8448956, 50.8957943 ], [ 12.8444229, 50.895588 ], [ 12.8442298, 50.8954922 ], [ 12.8438823, 50.8953457 ], [ 12.8425614, 50.8945674 ], [ 12.8423498, 50.894438 ], [ 12.8421348, 50.8942715 ], [ 12.8414622, 50.8938025 ], [ 12.8408635, 50.8933322 ], [ 12.840428, 50.893056 ], [ 12.8401116, 50.8928196 ], [ 12.8398076, 50.8926117 ], [ 12.8393917, 50.8923786 ], [ 12.8391619, 50.892257 ], [ 12.8380705, 50.8918793 ], [ 12.837481, 50.8917069 ], [ 12.8372544, 50.8916545 ], [ 12.8373067, 50.8915897 ], [ 12.8374621, 50.8912592 ], [ 12.8375753, 50.8909982 ], [ 12.8377564, 50.890543 ], [ 12.8381806, 50.8894949 ], [ 12.8382358, 50.8892428 ], [ 12.8386391, 50.8883735 ], [ 12.838861, 50.8879459 ], [ 12.8390896, 50.8875209 ], [ 12.8393004, 50.8870907 ], [ 12.8393405, 50.8869975 ], [ 12.839511, 50.8866629 ], [ 12.8396917, 50.8862223 ], [ 12.8394373, 50.8861704 ], [ 12.8394543, 50.8861223 ], [ 12.8390426, 50.8864451 ], [ 12.8387974, 50.886614 ], [ 12.8385245, 50.8867746 ], [ 12.8381738, 50.8869442 ], [ 12.8379259, 50.8870498 ], [ 12.8375223, 50.8872003 ], [ 12.8369689, 50.8873646 ], [ 12.8363037, 50.8874985 ], [ 12.8355373, 50.8875996 ], [ 12.8351614, 50.8876279 ], [ 12.8348051, 50.8876332 ], [ 12.8344341, 50.887622 ], [ 12.8340818, 50.8876009 ], [ 12.8336912, 50.8875648 ], [ 12.8333457, 50.887507 ], [ 12.8329981, 50.8874434 ], [ 12.8326578, 50.8873724 ], [ 12.8324872, 50.887355 ], [ 12.8322649, 50.8872915 ], [ 12.831941, 50.8871794 ], [ 12.8316116, 50.8870192 ], [ 12.8314233, 50.8869267 ], [ 12.8313947, 50.8869676 ], [ 12.8310147, 50.8867542 ], [ 12.8305002, 50.8864165 ], [ 12.8302372, 50.886222 ], [ 12.830279, 50.8861893 ], [ 12.8296189, 50.8857041 ], [ 12.8295662, 50.8856735 ], [ 12.8293424, 50.8854998 ], [ 12.8286535, 50.8850077 ], [ 12.8282107, 50.8846859 ], [ 12.8276679, 50.8842784 ], [ 12.8272728, 50.883999 ], [ 12.8273032, 50.8838048 ], [ 12.8273286, 50.8831825 ], [ 12.8272655, 50.882929 ], [ 12.8271699, 50.8827596 ], [ 12.8269617, 50.8823999 ], [ 12.8268268, 50.8821893 ], [ 12.8266937, 50.8819672 ], [ 12.8260071, 50.8809447 ], [ 12.8254156, 50.8798975 ], [ 12.8250961, 50.8792975 ], [ 12.8249097, 50.8789366 ], [ 12.8247845, 50.8785807 ], [ 12.8247687, 50.8784554 ], [ 12.8247405, 50.8782855 ], [ 12.8247349, 50.8781419 ], [ 12.8247209, 50.8778028 ], [ 12.8247343, 50.8772014 ], [ 12.8245421, 50.8770471 ], [ 12.8242874, 50.8769272 ], [ 12.8239277, 50.8768754 ], [ 12.823843, 50.8768594 ], [ 12.8232814, 50.876865 ], [ 12.8232418, 50.8768675 ], [ 12.8227227, 50.8769168 ], [ 12.8222948, 50.876973 ], [ 12.8220807, 50.8770188 ], [ 12.8220402, 50.8770314 ], [ 12.8218189, 50.8770781 ], [ 12.8211346, 50.8771354 ], [ 12.820845, 50.8771567 ], [ 12.8206021, 50.8771861 ], [ 12.8202839, 50.8772308 ], [ 12.8199117, 50.8773011 ], [ 12.8193114, 50.87741 ], [ 12.8190053, 50.8771739 ], [ 12.8187619, 50.8770029 ], [ 12.8184891, 50.876775 ], [ 12.8183106, 50.8766006 ], [ 12.8177087, 50.875815 ], [ 12.8174004, 50.8753515 ], [ 12.8172122, 50.8750863 ], [ 12.8170619, 50.8748054 ], [ 12.8169447, 50.8746862 ], [ 12.8168, 50.8745586 ], [ 12.8166278, 50.8744385 ], [ 12.8161709, 50.8740758 ], [ 12.8152475, 50.8730386 ], [ 12.8145692, 50.8723292 ], [ 12.8133129, 50.8717575 ], [ 12.8121956, 50.8711112 ], [ 12.8116451, 50.8707711 ], [ 12.8112252, 50.8705401 ], [ 12.8100071, 50.8697899 ], [ 12.8094547, 50.8695069 ], [ 12.8082791, 50.868828 ], [ 12.8078342, 50.8685563 ], [ 12.8074388, 50.8683252 ], [ 12.8071847, 50.8681933 ], [ 12.806599, 50.867919 ], [ 12.805431, 50.867456 ], [ 12.8053508, 50.8657983 ], [ 12.8052928, 50.8644215 ], [ 12.8052958, 50.86437 ], [ 12.8054352, 50.8619743 ], [ 12.8054496, 50.8619167 ], [ 12.8055857, 50.8612658 ], [ 12.8057388, 50.8609606 ], [ 12.8047675, 50.860506 ], [ 12.8041091, 50.8599443 ], [ 12.8047974, 50.8595564 ], [ 12.804831, 50.8596182 ], [ 12.8054442, 50.8594054 ], [ 12.805692, 50.8591433 ], [ 12.8058676, 50.8588707 ], [ 12.8060373, 50.8585604 ], [ 12.8055974, 50.8562485 ], [ 12.8043965, 50.8531523 ], [ 12.8043003, 50.8529041 ], [ 12.8044827, 50.851393 ], [ 12.8061082, 50.8472733 ], [ 12.8058995, 50.8472405 ], [ 12.8045754, 50.8471637 ], [ 12.8028067, 50.8463394 ], [ 12.8023025, 50.8459122 ], [ 12.8010294, 50.845212 ], [ 12.8001317, 50.8444998 ], [ 12.7989614, 50.8440529 ], [ 12.7981998, 50.8438277 ], [ 12.7963274, 50.8432504 ], [ 12.7953843, 50.8427417 ], [ 12.7935754, 50.8422336 ], [ 12.7926277, 50.8415624 ], [ 12.7924018, 50.8411504 ], [ 12.7923234, 50.8402821 ], [ 12.7921281, 50.8397498 ], [ 12.7916373, 50.8391598 ], [ 12.7905897, 50.8375147 ], [ 12.7901555, 50.8370319 ], [ 12.7894571, 50.8376518 ], [ 12.7888941, 50.8382258 ], [ 12.788406, 50.8386902 ], [ 12.7870409, 50.8379975 ], [ 12.7865622, 50.8378176 ], [ 12.7846501, 50.8373431 ], [ 12.7831146, 50.8368918 ], [ 12.7828181, 50.8366266 ], [ 12.7837139, 50.8358458 ], [ 12.7845209, 50.8348235 ], [ 12.7861146, 50.8335723 ], [ 12.7877811, 50.8325684 ], [ 12.7864613, 50.8317595 ], [ 12.7854355, 50.8310018 ], [ 12.7846462, 50.8306856 ], [ 12.783086, 50.8302863 ], [ 12.782137, 50.8300306 ], [ 12.7805474, 50.8300755 ], [ 12.7797376, 50.8313672 ], [ 12.7785814, 50.832324 ], [ 12.7761777, 50.8304246 ], [ 12.7777464, 50.8295251 ], [ 12.7756679, 50.8282453 ], [ 12.7747712, 50.8275001 ], [ 12.7745891, 50.8272001 ], [ 12.774271, 50.8263554 ], [ 12.7737084, 50.8255208 ], [ 12.772142, 50.824672 ], [ 12.7702975, 50.8258308 ], [ 12.7678813, 50.8281678 ], [ 12.7658951, 50.8302275 ], [ 12.7648422, 50.8301172 ], [ 12.76249, 50.8293948 ], [ 12.7633415, 50.8281916 ], [ 12.7649931, 50.826446 ], [ 12.7631442, 50.8259041 ], [ 12.7644716, 50.8246672 ], [ 12.7651034, 50.8242047 ], [ 12.7666153, 50.8230137 ], [ 12.7649177, 50.8224622 ], [ 12.7657011, 50.8217407 ], [ 12.7651348, 50.8215678 ], [ 12.764191, 50.8217467 ], [ 12.7622713, 50.8213073 ], [ 12.7617748, 50.8220627 ], [ 12.7619447, 50.8220925 ], [ 12.7612368, 50.8226172 ], [ 12.7572481, 50.8237322 ], [ 12.7563247, 50.8230006 ], [ 12.7551219, 50.8225218 ], [ 12.7545222, 50.8228075 ], [ 12.7535456, 50.8243587 ], [ 12.753035, 50.8248053 ], [ 12.7528462, 50.824382 ], [ 12.7508928, 50.8243376 ], [ 12.7497026, 50.8249791 ], [ 12.7491054, 50.8253526 ], [ 12.7488654, 50.8257099 ], [ 12.7484572, 50.8263158 ], [ 12.7480317, 50.8270182 ], [ 12.7472966, 50.8273034 ], [ 12.7463339, 50.8275239 ], [ 12.7457487, 50.8279353 ], [ 12.7449748, 50.8283168 ], [ 12.7440121, 50.8281559 ], [ 12.7417342, 50.8283149 ], [ 12.7417524, 50.8290486 ], [ 12.740944, 50.8293214 ], [ 12.7401665, 50.8294434 ], [ 12.7396752, 50.8295062 ], [ 12.7388093, 50.8293333 ], [ 12.738545, 50.8291515 ], [ 12.7377941, 50.8288951 ], [ 12.7373521, 50.8285496 ], [ 12.7369981, 50.827722 ], [ 12.736776, 50.8272027 ], [ 12.7367944, 50.8255433 ], [ 12.7367509, 50.8232745 ], [ 12.7351289, 50.822619 ], [ 12.731847, 50.8203998 ], [ 12.7287902, 50.8189047 ], [ 12.7275907, 50.8170908 ], [ 12.7275333, 50.816595 ] ] ] } }
]
}
