{
"type": "FeatureCollection",
"name": "ede_nl",
"crs": { "type": "name", "properties": { "name": "urn:ogc:def:crs:OGC:1.3:CRS84" } },
"features": [
{ "type": "Feature", "properties": { "bbox_west": 5.5860147, "bbox_south": 52.0109216, "bbox_east": 5.8186507, "bbox_north": 52.0923147, "place_id": 154434428, "osm_type": "relation", "osm_id": 334640, "lat": 52.0458265, "lon": 5.6702011, "class": "boundary", "type": "administrative", "place_rank": 16, "importance": 0.3891971053939251, "addresstype": "city", "name": "Ede", "display_name": "Ede, Gelderland, Netherlands" }, "geometry": { "type": "Polygon", "coordinates": [ [ [ 5.5860147, 52.0117763 ], [ 5.5860982, 52.011721 ], [ 5.5863413, 52.0115812 ], [ 5.586549, 52.0114615 ], [ 5.5865808, 52.0114421 ], [ 5.5866192, 52.0114186 ], [ 5.5867182, 52.011356 ], [ 5.5869385, 52.0112185 ], [ 5.5871628, 52.0110805 ], [ 5.5874223, 52.0109216 ], [ 5.5882561, 52.0111932 ], [ 5.5887548, 52.0113645 ], [ 5.5892826, 52.0115454 ], [ 5.5899041, 52.011758 ], [ 5.5902047, 52.0118572 ], [ 5.5901753, 52.0118868 ], [ 5.5901426, 52.0119197 ], [ 5.5900289, 52.0120344 ], [ 5.5899172, 52.012147 ], [ 5.5891761, 52.0128952 ], [ 5.5895341, 52.0130242 ], [ 5.5902606, 52.0132867 ], [ 5.5906373, 52.0134231 ], [ 5.5906665, 52.0134337 ], [ 5.5905898, 52.0134754 ], [ 5.5904678, 52.0135416 ], [ 5.5904135, 52.0135712 ], [ 5.5903227, 52.0136205 ], [ 5.5902199, 52.0136778 ], [ 5.5899431, 52.0138333 ], [ 5.5899359, 52.0138373 ], [ 5.5899317, 52.0138396 ], [ 5.5899272, 52.0138785 ], [ 5.5913502, 52.013842 ], [ 5.593458, 52.0137692 ], [ 5.593989, 52.0137504 ], [ 5.5942275, 52.013742 ], [ 5.5956839, 52.0136937 ], [ 5.596975, 52.0136493 ], [ 5.5999414, 52.0135473 ], [ 5.6009743, 52.01351 ], [ 5.602947, 52.0134353 ], [ 5.6032993, 52.0130298 ], [ 5.6036129, 52.0130437 ], [ 5.6053419, 52.0131953 ], [ 5.6073424, 52.013382 ], [ 5.6081393, 52.0134563 ], [ 5.6115568, 52.0137639 ], [ 5.6132768, 52.013913 ], [ 5.6191422, 52.0144601 ], [ 5.6208913, 52.0146234 ], [ 5.6277029, 52.0152426 ], [ 5.6303734, 52.0154877 ], [ 5.6305818, 52.0155181 ], [ 5.6308751, 52.0155759 ], [ 5.6312722, 52.015671 ], [ 5.6327474, 52.0158467 ], [ 5.6338239, 52.015926 ], [ 5.6370505, 52.0162254 ], [ 5.6380623, 52.0163071 ], [ 5.6393192, 52.0164128 ], [ 5.6421153, 52.0158647 ], [ 5.645388, 52.0153268 ], [ 5.6478326, 52.015017 ], [ 5.6504766, 52.0147358 ], [ 5.6563492, 52.0141911 ], [ 5.6622986, 52.0136363 ], [ 5.6634054, 52.0135388 ], [ 5.6670333, 52.013198 ], [ 5.6729774, 52.012653 ], [ 5.6727282, 52.0148329 ], [ 5.6723834, 52.0180726 ], [ 5.6722866, 52.0193167 ], [ 5.6732099, 52.0192872 ], [ 5.6737331, 52.0192937 ], [ 5.6751064, 52.0193755 ], [ 5.6772852, 52.0194334 ], [ 5.6799554, 52.0195068 ], [ 5.6817455, 52.019554 ], [ 5.6861185, 52.019643 ], [ 5.6942077, 52.0198309 ], [ 5.694246, 52.0198786 ], [ 5.6943535, 52.0200243 ], [ 5.6945482, 52.0202884 ], [ 5.6945569, 52.0203002 ], [ 5.6946511, 52.0204276 ], [ 5.6948878, 52.0207489 ], [ 5.6949002, 52.0207656 ], [ 5.6951618, 52.0211204 ], [ 5.6951817, 52.0211474 ], [ 5.6954944, 52.0215713 ], [ 5.6957276, 52.0218872 ], [ 5.6961537, 52.0224652 ], [ 5.6961802, 52.0224617 ], [ 5.6962767, 52.0224414 ], [ 5.6966131, 52.0223705 ], [ 5.6968587, 52.0223188 ], [ 5.6971031, 52.0222708 ], [ 5.6974098, 52.0222107 ], [ 5.6975615, 52.0221809 ], [ 5.6976483, 52.0221639 ], [ 5.6979621, 52.0221023 ], [ 5.6980726, 52.0220807 ], [ 5.6980937, 52.0220765 ], [ 5.6981015, 52.0220751 ], [ 5.6981309, 52.0220698 ], [ 5.6985022, 52.0220025 ], [ 5.6987201, 52.021961 ], [ 5.6989186, 52.0220843 ], [ 5.6990097, 52.0221408 ], [ 5.6990164, 52.0221451 ], [ 5.6993774, 52.0223694 ], [ 5.6995819, 52.0225009 ], [ 5.6996973, 52.022573 ], [ 5.7000354, 52.0227864 ], [ 5.7002501, 52.022923 ], [ 5.7002696, 52.0229359 ], [ 5.7003284, 52.0229746 ], [ 5.7003811, 52.0230163 ], [ 5.7003836, 52.0230183 ], [ 5.7004318, 52.0230566 ], [ 5.7005913, 52.0231674 ], [ 5.7009939, 52.0234473 ], [ 5.7010184, 52.0234656 ], [ 5.7013038, 52.0236719 ], [ 5.7016601, 52.0239253 ], [ 5.701897, 52.0240842 ], [ 5.7024416, 52.0245001 ], [ 5.7031932, 52.0250846 ], [ 5.7034988, 52.0253853 ], [ 5.7036847, 52.0255685 ], [ 5.7037147, 52.0255982 ], [ 5.703894, 52.0257759 ], [ 5.7039554, 52.0258367 ], [ 5.7041505, 52.0260275 ], [ 5.7042547, 52.0261277 ], [ 5.7043496, 52.0262173 ], [ 5.7045369, 52.0263942 ], [ 5.7046239, 52.0264583 ], [ 5.704634, 52.0264663 ], [ 5.7047661, 52.026572 ], [ 5.7049827, 52.0267454 ], [ 5.705314, 52.0271579 ], [ 5.7065642, 52.0282431 ], [ 5.7075733, 52.0281234 ], [ 5.708756, 52.027983 ], [ 5.7099278, 52.027852 ], [ 5.7185284, 52.0278328 ], [ 5.7186574, 52.0276731 ], [ 5.7187187, 52.0275972 ], [ 5.7188477, 52.0274377 ], [ 5.7198112, 52.0262443 ], [ 5.720796, 52.0250248 ], [ 5.7213254, 52.0243694 ], [ 5.7222064, 52.0232987 ], [ 5.7223062, 52.0231546 ], [ 5.7224929, 52.0229161 ], [ 5.723092, 52.0221501 ], [ 5.7232766, 52.0219143 ], [ 5.7234868, 52.0216456 ], [ 5.7238838, 52.0211469 ], [ 5.729586, 52.0205392 ], [ 5.7310711, 52.0203809 ], [ 5.7330183, 52.0201733 ], [ 5.7343771, 52.0200284 ], [ 5.7384235, 52.0195968 ], [ 5.7410254, 52.0193192 ], [ 5.7451375, 52.0197687 ], [ 5.7453202, 52.0197888 ], [ 5.745477, 52.0198062 ], [ 5.7458917, 52.0198522 ], [ 5.7461614, 52.0198824 ], [ 5.7467288, 52.0199469 ], [ 5.74725, 52.0200072 ], [ 5.7473554, 52.0200197 ], [ 5.7504864, 52.0204241 ], [ 5.7506575, 52.0204564 ], [ 5.7520109, 52.0207183 ], [ 5.7527555, 52.0208625 ], [ 5.7528964, 52.0208901 ], [ 5.7529221, 52.0208952 ], [ 5.7535458, 52.0210226 ], [ 5.7539637, 52.0211094 ], [ 5.7542068, 52.0208733 ], [ 5.7556072, 52.0208566 ], [ 5.7567562, 52.021102 ], [ 5.7581968, 52.0211322 ], [ 5.7597653, 52.0211661 ], [ 5.7612527, 52.0211809 ], [ 5.7622533, 52.0211901 ], [ 5.7623115, 52.0211907 ], [ 5.7627427, 52.0211947 ], [ 5.7642149, 52.0212422 ], [ 5.7659052, 52.0213242 ], [ 5.7675721, 52.0214046 ], [ 5.768627, 52.0214624 ], [ 5.7698808, 52.0215408 ], [ 5.7703047, 52.0215658 ], [ 5.7702773, 52.0213088 ], [ 5.7702649, 52.0211918 ], [ 5.7703131, 52.0211835 ], [ 5.7705236, 52.0211471 ], [ 5.7705821, 52.021137 ], [ 5.7708869, 52.0215823 ], [ 5.7710111, 52.0215908 ], [ 5.7719066, 52.0216512 ], [ 5.7729356, 52.021684 ], [ 5.7739593, 52.021734 ], [ 5.777658, 52.0218783 ], [ 5.7791479, 52.0219013 ], [ 5.7802279, 52.0219201 ], [ 5.7815709, 52.0219328 ], [ 5.784266, 52.0219602 ], [ 5.7857937, 52.0216633 ], [ 5.7874143, 52.0213489 ], [ 5.7874165, 52.0214137 ], [ 5.7874327, 52.0218873 ], [ 5.7874578, 52.0218857 ], [ 5.788565, 52.0218561 ], [ 5.7902407, 52.0218298 ], [ 5.7912413, 52.0218097 ], [ 5.7926406, 52.0218183 ], [ 5.7940529, 52.0218497 ], [ 5.7955286, 52.0218978 ], [ 5.7967092, 52.0219674 ], [ 5.7968383, 52.021975 ], [ 5.7980985, 52.0219585 ], [ 5.8002062, 52.0213719 ], [ 5.8009559, 52.021514 ], [ 5.801958, 52.0216718 ], [ 5.8023728, 52.0215262 ], [ 5.8027457, 52.0212731 ], [ 5.8027733, 52.0212544 ], [ 5.8028077, 52.0212311 ], [ 5.8036309, 52.0206819 ], [ 5.8039185, 52.020904 ], [ 5.8042208, 52.0211373 ], [ 5.8036456, 52.0214996 ], [ 5.8029246, 52.0219565 ], [ 5.8024127, 52.0222691 ], [ 5.8024329, 52.0223579 ], [ 5.8039858, 52.0226398 ], [ 5.8049835, 52.0228145 ], [ 5.8062229, 52.0230441 ], [ 5.8063529, 52.0230631 ], [ 5.8075882, 52.0232438 ], [ 5.8078141, 52.0232776 ], [ 5.8090579, 52.023464 ], [ 5.8105017, 52.0235865 ], [ 5.8118452, 52.0237423 ], [ 5.8119521, 52.0237547 ], [ 5.8119591, 52.0237562 ], [ 5.8131797, 52.0240275 ], [ 5.8133737, 52.0240706 ], [ 5.8141045, 52.0248412 ], [ 5.8143216, 52.0250725 ], [ 5.8184621, 52.0293971 ], [ 5.8185985, 52.0295397 ], [ 5.8186507, 52.0295942 ], [ 5.8177272, 52.0309674 ], [ 5.817485, 52.0313131 ], [ 5.8164587, 52.0328225 ], [ 5.815554, 52.0341594 ], [ 5.8109724, 52.033844 ], [ 5.805977, 52.0334561 ], [ 5.8022314, 52.0331174 ], [ 5.8002454, 52.0329513 ], [ 5.7953984, 52.03264 ], [ 5.7931875, 52.0339007 ], [ 5.7912876, 52.0350173 ], [ 5.7901199, 52.0357056 ], [ 5.7891422, 52.0362527 ], [ 5.7889045, 52.0363724 ], [ 5.7886297, 52.0364526 ], [ 5.7882721, 52.0365048 ], [ 5.7875287, 52.0365583 ], [ 5.7869135, 52.0365466 ], [ 5.78551, 52.0364875 ], [ 5.7852259, 52.0364951 ], [ 5.7849889, 52.0364865 ], [ 5.7845164, 52.036462 ], [ 5.7842151, 52.0364537 ], [ 5.7841027, 52.0364581 ], [ 5.7840619, 52.0365599 ], [ 5.7779918, 52.0366298 ], [ 5.7722639, 52.0360751 ], [ 5.7716905, 52.0378476 ], [ 5.7706518, 52.0410177 ], [ 5.769109, 52.0456836 ], [ 5.7689714, 52.046106 ], [ 5.7691386, 52.0466403 ], [ 5.7676724, 52.0472895 ], [ 5.7675102, 52.0473613 ], [ 5.7666651, 52.0477355 ], [ 5.7666359, 52.047749 ], [ 5.7657169, 52.0481754 ], [ 5.7645839, 52.0487012 ], [ 5.7637911, 52.0491026 ], [ 5.7617245, 52.0503121 ], [ 5.7595624, 52.0515775 ], [ 5.7595083, 52.0516092 ], [ 5.7581656, 52.0523871 ], [ 5.7576756, 52.0526631 ], [ 5.7571851, 52.052895 ], [ 5.756937, 52.0530438 ], [ 5.7564854, 52.0533147 ], [ 5.7552475, 52.0540569 ], [ 5.753767, 52.05492 ], [ 5.7526984, 52.0555457 ], [ 5.7518745, 52.0560235 ], [ 5.7517586, 52.0561116 ], [ 5.7516856, 52.0561824 ], [ 5.7515352, 52.0563561 ], [ 5.7512535, 52.0566609 ], [ 5.750946, 52.0570014 ], [ 5.7501612, 52.0578651 ], [ 5.7497456, 52.0582291 ], [ 5.7492386, 52.0586952 ], [ 5.748743, 52.0591508 ], [ 5.7479521, 52.0598778 ], [ 5.7478898, 52.0599351 ], [ 5.7473191, 52.0604598 ], [ 5.7464253, 52.0612813 ], [ 5.7452662, 52.0623467 ], [ 5.7452249, 52.0623847 ], [ 5.744489, 52.0630921 ], [ 5.7433001, 52.0641867 ], [ 5.7422505, 52.0652313 ], [ 5.7398584, 52.0676061 ], [ 5.7382951, 52.0691775 ], [ 5.7373967, 52.0701138 ], [ 5.7368566, 52.070762 ], [ 5.7366903, 52.0708486 ], [ 5.7365476, 52.0708477 ], [ 5.7360343, 52.0708268 ], [ 5.7345561, 52.0707401 ], [ 5.7332402, 52.0706398 ], [ 5.7286394, 52.0702349 ], [ 5.7278205, 52.0701836 ], [ 5.7284932, 52.0712472 ], [ 5.7291526, 52.072279 ], [ 5.7301026, 52.0735155 ], [ 5.7303647, 52.0738435 ], [ 5.7307423, 52.0743553 ], [ 5.7304292, 52.0749851 ], [ 5.7301244, 52.0754762 ], [ 5.7290111, 52.0767603 ], [ 5.7284913, 52.0776641 ], [ 5.7280082, 52.0786883 ], [ 5.7270056, 52.0805927 ], [ 5.725701, 52.0802259 ], [ 5.7249084, 52.0799835 ], [ 5.7236225, 52.079547 ], [ 5.723234, 52.0797936 ], [ 5.7224924, 52.0804356 ], [ 5.7214815, 52.0814632 ], [ 5.7202411, 52.0826572 ], [ 5.7204399, 52.0827467 ], [ 5.7197639, 52.0831306 ], [ 5.719272, 52.0832547 ], [ 5.7183743, 52.083624 ], [ 5.7172365, 52.0840059 ], [ 5.7169197, 52.084126 ], [ 5.7165669, 52.0843802 ], [ 5.7161215, 52.0847515 ], [ 5.7158519, 52.0850087 ], [ 5.7155802, 52.085295 ], [ 5.7154567, 52.0854584 ], [ 5.7154161, 52.0855558 ], [ 5.7153765, 52.0862293 ], [ 5.7153708, 52.0862705 ], [ 5.7151294, 52.0871555 ], [ 5.7151023, 52.0872722 ], [ 5.7150813, 52.087414 ], [ 5.715065, 52.0878798 ], [ 5.7150398, 52.08811 ], [ 5.7149761, 52.0882237 ], [ 5.7147859, 52.0883872 ], [ 5.7146074, 52.0885497 ], [ 5.7142871, 52.0887238 ], [ 5.7133748, 52.0889483 ], [ 5.7130525, 52.0890096 ], [ 5.7073921, 52.090155 ], [ 5.6995563, 52.0917385 ], [ 5.6991121, 52.0918401 ], [ 5.6985341, 52.0919431 ], [ 5.6983272, 52.0919977 ], [ 5.6965184, 52.0921425 ], [ 5.6940629, 52.0923122 ], [ 5.6939355, 52.0923147 ], [ 5.6938315, 52.0923082 ], [ 5.6937685, 52.0923003 ], [ 5.6937229, 52.0922821 ], [ 5.6933641, 52.0921301 ], [ 5.691785, 52.0914277 ], [ 5.6902182, 52.0907337 ], [ 5.6900597, 52.0906511 ], [ 5.6888124, 52.0900932 ], [ 5.6864426, 52.0890289 ], [ 5.6862737, 52.0889693 ], [ 5.6860848, 52.0889267 ], [ 5.68482, 52.0886644 ], [ 5.683904, 52.0884815 ], [ 5.682001, 52.0880851 ], [ 5.6794132, 52.0875496 ], [ 5.6794281, 52.087402 ], [ 5.6794368, 52.0872569 ], [ 5.6795186, 52.0862433 ], [ 5.6795602, 52.0856586 ], [ 5.6796017, 52.085034 ], [ 5.6796366, 52.0845234 ], [ 5.6796508, 52.0841724 ], [ 5.6796889, 52.0831884 ], [ 5.6797848, 52.0824609 ], [ 5.67915, 52.0830755 ], [ 5.6772203, 52.0849961 ], [ 5.6769283, 52.0852641 ], [ 5.6699292, 52.0830448 ], [ 5.6665888, 52.0819614 ], [ 5.6665103, 52.0819056 ], [ 5.6663351, 52.081838 ], [ 5.6637015, 52.0810008 ], [ 5.6628385, 52.0807395 ], [ 5.6607282, 52.0801299 ], [ 5.6590118, 52.079634 ], [ 5.6553051, 52.0784246 ], [ 5.6542026, 52.0780464 ], [ 5.6516566, 52.0771471 ], [ 5.6498867, 52.0764955 ], [ 5.6496566, 52.076411 ], [ 5.6492004, 52.0762438 ], [ 5.6464152, 52.0751692 ], [ 5.6445213, 52.0745055 ], [ 5.644219, 52.0744101 ], [ 5.6437958, 52.0743017 ], [ 5.6430832, 52.0741558 ], [ 5.6425557, 52.0740348 ], [ 5.6412301, 52.0736549 ], [ 5.6408613, 52.0735715 ], [ 5.6401695, 52.0734818 ], [ 5.6390655, 52.0734061 ], [ 5.6387906, 52.0733678 ], [ 5.6385536, 52.073321 ], [ 5.6379957, 52.0732077 ], [ 5.6375581, 52.0730584 ], [ 5.6372577, 52.0729701 ], [ 5.6359847, 52.0726531 ], [ 5.6339228, 52.0720508 ], [ 5.6336773, 52.0719703 ], [ 5.6335739, 52.0719207 ], [ 5.6334797, 52.0718597 ], [ 5.6332946, 52.0717021 ], [ 5.6331907, 52.07164 ], [ 5.6329862, 52.0715677 ], [ 5.6327976, 52.0715243 ], [ 5.6324263, 52.0719958 ], [ 5.6319949, 52.0718486 ], [ 5.6317197, 52.07179 ], [ 5.6301798, 52.0715424 ], [ 5.623559, 52.0704369 ], [ 5.6229608, 52.0703637 ], [ 5.6229431, 52.0703615 ], [ 5.6211234, 52.0701713 ], [ 5.6208494, 52.0701252 ], [ 5.6200868, 52.0699389 ], [ 5.6197932, 52.0698939 ], [ 5.6197713, 52.0698906 ], [ 5.6194882, 52.0698719 ], [ 5.6184451, 52.0698565 ], [ 5.6182955, 52.0698487 ], [ 5.617969, 52.0698078 ], [ 5.616675, 52.069511 ], [ 5.6161304, 52.0693988 ], [ 5.6112011, 52.0684698 ], [ 5.6108097, 52.068382 ], [ 5.6103823, 52.0682601 ], [ 5.6100199, 52.0681246 ], [ 5.6096737, 52.067964 ], [ 5.6094059, 52.0678192 ], [ 5.6091594, 52.0676574 ], [ 5.6089731, 52.0675128 ], [ 5.6087433, 52.0673091 ], [ 5.607963, 52.0663857 ], [ 5.6076472, 52.0660093 ], [ 5.6072846, 52.0655322 ], [ 5.607111, 52.0652487 ], [ 5.606861, 52.0647383 ], [ 5.6067243, 52.0643026 ], [ 5.606625, 52.0637853 ], [ 5.6065968, 52.0635083 ], [ 5.6065655, 52.0632016 ], [ 5.6063506, 52.0620268 ], [ 5.606289, 52.0616007 ], [ 5.6062233, 52.0607482 ], [ 5.6062521, 52.0603749 ], [ 5.6064745, 52.0593641 ], [ 5.6070647, 52.0552152 ], [ 5.6070631, 52.0551417 ], [ 5.6070457, 52.0550671 ], [ 5.6065252, 52.0537215 ], [ 5.6062207, 52.0529886 ], [ 5.6039057, 52.0470592 ], [ 5.6038344, 52.0468364 ], [ 5.6038185, 52.046641 ], [ 5.6038347, 52.0464168 ], [ 5.6039308, 52.0460772 ], [ 5.6006534, 52.046264 ], [ 5.6006631, 52.0461324 ], [ 5.600724, 52.0460426 ], [ 5.6008534, 52.0459282 ], [ 5.6010773, 52.0457771 ], [ 5.6014005, 52.0456162 ], [ 5.6015009, 52.0455442 ], [ 5.6015553, 52.0454574 ], [ 5.6015726, 52.0454038 ], [ 5.6015612, 52.0453386 ], [ 5.601511, 52.0452256 ], [ 5.6013252, 52.0448602 ], [ 5.6010934, 52.0443693 ], [ 5.6003136, 52.042774 ], [ 5.6000426, 52.0422093 ], [ 5.5997979, 52.0417137 ], [ 5.5996414, 52.0414434 ], [ 5.5995677, 52.0413366 ], [ 5.5994973, 52.0411937 ], [ 5.5993396, 52.0408688 ], [ 5.5990007, 52.0401912 ], [ 5.5988547, 52.0398952 ], [ 5.5986068, 52.0394009 ], [ 5.5982466, 52.0386876 ], [ 5.5981289, 52.0384508 ], [ 5.5980838, 52.0383565 ], [ 5.5980624, 52.038304 ], [ 5.5980504, 52.0382463 ], [ 5.59805, 52.0381644 ], [ 5.5980558, 52.0381196 ], [ 5.5980666, 52.0380691 ], [ 5.5980842, 52.0380207 ], [ 5.5981948, 52.0377744 ], [ 5.5981078, 52.0377768 ], [ 5.5974582, 52.0377989 ], [ 5.5974565, 52.0378081 ], [ 5.5973595, 52.0378108 ], [ 5.5972508, 52.0378139 ], [ 5.5971827, 52.0378158 ], [ 5.5971223, 52.0378177 ], [ 5.5970321, 52.0378209 ], [ 5.5968256, 52.0378282 ], [ 5.5965866, 52.0378366 ], [ 5.5963237, 52.0378459 ], [ 5.5960544, 52.0378554 ], [ 5.5957471, 52.0378663 ], [ 5.5954217, 52.0378785 ], [ 5.5952018, 52.037887 ], [ 5.5951966, 52.0378515 ], [ 5.595131, 52.0374027 ], [ 5.5958998, 52.0373751 ], [ 5.5958243, 52.0366821 ], [ 5.5965331, 52.0366559 ], [ 5.5962496, 52.0357834 ], [ 5.5960479, 52.0351627 ], [ 5.594871, 52.0351962 ], [ 5.5943772, 52.0352071 ], [ 5.5944155, 52.0350503 ], [ 5.5944319, 52.0349829 ], [ 5.5944407, 52.0349064 ], [ 5.5944472, 52.0348494 ], [ 5.5944487, 52.0348369 ], [ 5.5944465, 52.0347953 ], [ 5.5944422, 52.0347036 ], [ 5.5944364, 52.0344811 ], [ 5.5948843, 52.0344688 ], [ 5.5951049, 52.0344629 ], [ 5.5951699, 52.0344613 ], [ 5.5954612, 52.0344541 ], [ 5.5961513, 52.034437 ], [ 5.596218, 52.0344326 ], [ 5.5965002, 52.0344308 ], [ 5.5967565, 52.0344243 ], [ 5.5967613, 52.0345169 ], [ 5.5970081, 52.0345141 ], [ 5.5972287, 52.0345116 ], [ 5.597859, 52.0345044 ], [ 5.5978495, 52.0344075 ], [ 5.5976764, 52.034414 ], [ 5.597653, 52.034227 ], [ 5.5976294, 52.0340385 ], [ 5.59749, 52.0340561 ], [ 5.5974931, 52.0340473 ], [ 5.5975269, 52.0339517 ], [ 5.597562, 52.0338525 ], [ 5.5976353, 52.0336452 ], [ 5.597643, 52.0336236 ], [ 5.5976295, 52.0336134 ], [ 5.597615, 52.0336034 ], [ 5.5976118, 52.0336012 ], [ 5.5976103, 52.0336002 ], [ 5.5976069, 52.0335978 ], [ 5.5976002, 52.0335932 ], [ 5.5975929, 52.0335889 ], [ 5.5975791, 52.0335807 ], [ 5.5975688, 52.0335753 ], [ 5.5975591, 52.0335703 ], [ 5.5975382, 52.0335616 ], [ 5.597515, 52.033553 ], [ 5.5975048, 52.0335491 ], [ 5.5974895, 52.0335432 ], [ 5.5974865, 52.033542 ], [ 5.5974845, 52.0335413 ], [ 5.5974822, 52.0335404 ], [ 5.5974742, 52.0335375 ], [ 5.5974612, 52.0335327 ], [ 5.597433, 52.0335246 ], [ 5.5973615, 52.033538 ], [ 5.5972278, 52.0335715 ], [ 5.5968512, 52.033666 ], [ 5.5966907, 52.0337063 ], [ 5.5961831, 52.0338336 ], [ 5.5960158, 52.0338392 ], [ 5.5958215, 52.0338456 ], [ 5.5953829, 52.0338602 ], [ 5.5949372, 52.0337667 ], [ 5.5946582, 52.0337081 ], [ 5.5945783, 52.0336914 ], [ 5.5945335, 52.0336819 ], [ 5.5945298, 52.0336812 ], [ 5.5944505, 52.0336654 ], [ 5.594409, 52.0336572 ], [ 5.5943097, 52.0336256 ], [ 5.5942128, 52.0335858 ], [ 5.5941655, 52.0335641 ], [ 5.5941495, 52.0335568 ], [ 5.5939072, 52.0335236 ], [ 5.5938877, 52.0335314 ], [ 5.5938749, 52.0335365 ], [ 5.5938033, 52.0335651 ], [ 5.5936197, 52.0336385 ], [ 5.5934106, 52.0337221 ], [ 5.5932869, 52.0337715 ], [ 5.5931934, 52.0338089 ], [ 5.593171, 52.0338175 ], [ 5.5930342, 52.0338702 ], [ 5.5924488, 52.0340955 ], [ 5.5920609, 52.0342456 ], [ 5.5916504, 52.0344046 ], [ 5.5911515, 52.0345979 ], [ 5.5902837, 52.0342979 ], [ 5.5901874, 52.0342984 ], [ 5.5900229, 52.0343032 ], [ 5.5899532, 52.0335054 ], [ 5.5899386, 52.033338 ], [ 5.5899515, 52.0331794 ], [ 5.5899547, 52.0331408 ], [ 5.5899459, 52.0330578 ], [ 5.5899072, 52.0326927 ], [ 5.5898753, 52.0326941 ], [ 5.5897565, 52.0326976 ], [ 5.5896462, 52.0316955 ], [ 5.5896415, 52.0316957 ], [ 5.5895956, 52.031195 ], [ 5.5895888, 52.0311766 ], [ 5.5894792, 52.0311809 ], [ 5.5886176, 52.0312148 ], [ 5.5886031, 52.0312154 ], [ 5.5882911, 52.0312276 ], [ 5.5882854, 52.0312278 ], [ 5.5882709, 52.0312284 ], [ 5.5867117, 52.0312904 ], [ 5.5867034, 52.0311775 ], [ 5.5866779, 52.0309206 ], [ 5.586659, 52.0307183 ], [ 5.5866576, 52.0307047 ], [ 5.5866072, 52.0302225 ], [ 5.5865664, 52.029816 ], [ 5.5865037, 52.0292009 ], [ 5.5865026, 52.029171 ], [ 5.5865032, 52.0291076 ], [ 5.5865042, 52.029009 ], [ 5.5865296, 52.0287526 ], [ 5.5865305, 52.0287435 ], [ 5.5865329, 52.0287369 ], [ 5.5865418, 52.0287126 ], [ 5.5865819, 52.0286023 ], [ 5.5866445, 52.0284263 ], [ 5.5867404, 52.0282713 ], [ 5.5868421, 52.0281295 ], [ 5.5869211, 52.0280354 ], [ 5.5869241, 52.0280319 ], [ 5.5869249, 52.0280309 ], [ 5.5870651, 52.0278639 ], [ 5.5871813, 52.027719 ], [ 5.5872558, 52.0276097 ], [ 5.5873387, 52.0274489 ], [ 5.5873984, 52.0273038 ], [ 5.5874035, 52.0272914 ], [ 5.5874553, 52.027121 ], [ 5.5874846, 52.0269549 ], [ 5.5874855, 52.026815 ], [ 5.5874949, 52.0267876 ], [ 5.5874527, 52.0267903 ], [ 5.5874524, 52.0267844 ], [ 5.58745, 52.0267309 ], [ 5.5874456, 52.0266323 ], [ 5.5874541, 52.0266316 ], [ 5.5874766, 52.0266299 ], [ 5.5875113, 52.026628 ], [ 5.5874641, 52.0256462 ], [ 5.5874637, 52.0256372 ], [ 5.5874364, 52.0250715 ], [ 5.5873901, 52.0241134 ], [ 5.5873414, 52.0231146 ], [ 5.587297, 52.0222149 ], [ 5.5872628, 52.0222175 ], [ 5.5872254, 52.0213191 ], [ 5.5871952, 52.021319 ], [ 5.5871696, 52.021319 ], [ 5.5871492, 52.0209087 ], [ 5.5871799, 52.0209066 ], [ 5.5872217, 52.0209037 ], [ 5.5871997, 52.0204499 ], [ 5.5875615, 52.0204277 ], [ 5.5880571, 52.0203979 ], [ 5.5902422, 52.0202667 ], [ 5.5901614, 52.0193836 ], [ 5.5900969, 52.0189282 ], [ 5.5899953, 52.0182154 ], [ 5.5899803, 52.0181104 ], [ 5.5899185, 52.0176772 ], [ 5.5898808, 52.0174191 ], [ 5.5898694, 52.0173389 ], [ 5.5897927, 52.0167987 ], [ 5.5897108, 52.0162186 ], [ 5.5896316, 52.0156567 ], [ 5.5896217, 52.0155948 ], [ 5.5869588, 52.0157125 ], [ 5.5869223, 52.0157132 ], [ 5.5869119, 52.0154891 ], [ 5.5868934, 52.0150942 ], [ 5.5868712, 52.0147091 ], [ 5.5868615, 52.0145435 ], [ 5.5868484, 52.0143137 ], [ 5.5868416, 52.0142209 ], [ 5.5868397, 52.0141949 ], [ 5.5868351, 52.0141323 ], [ 5.5868354, 52.0140776 ], [ 5.5869013, 52.0140353 ], [ 5.5869028, 52.0140182 ], [ 5.586903, 52.0140158 ], [ 5.5869041, 52.0140039 ], [ 5.5869119, 52.0139138 ], [ 5.5868392, 52.0138751 ], [ 5.5868235, 52.0135481 ], [ 5.5868096, 52.0132189 ], [ 5.5867949, 52.0129351 ], [ 5.5867932, 52.0128957 ], [ 5.5867887, 52.0127861 ], [ 5.5867875, 52.0127555 ], [ 5.5867874, 52.0127529 ], [ 5.5867847, 52.0127074 ], [ 5.5867743, 52.0125303 ], [ 5.5867683, 52.0124164 ], [ 5.5867667, 52.0123789 ], [ 5.5867613, 52.0123366 ], [ 5.5867508, 52.0122859 ], [ 5.5867106, 52.0122219 ], [ 5.586687, 52.0121752 ], [ 5.5866558, 52.0121437 ], [ 5.5865858, 52.0120948 ], [ 5.5864554, 52.0120036 ], [ 5.5860147, 52.0117763 ] ] ] } }
]
}
