{
"type": "FeatureCollection",
"name": "elblag_pl",
"crs": { "type": "name", "properties": { "name": "urn:ogc:def:crs:OGC:1.3:CRS84" } },
"features": [
{ "type": "Feature", "properties": { "bbox_west": 19.3590089, "bbox_south": 54.1344488, "bbox_east": 19.5096945, "bbox_north": 54.2632569, "place_id": 175303873, "osm_type": "relation", "osm_id": 1600068, "lat": 54.1558708, "lon": 19.4044583, "class": "boundary", "type": "administrative", "place_rank": 12, "importance": 0.60486472165923166, "addresstype": "city", "name": "Elbląg", "display_name": "Elbląg, Warmian-Masurian Voivodeship, Poland" }, "geometry": { "type": "Polygon", "coordinates": [ [ [ 19.3590089, 54.1635211 ], [ 19.3591181, 54.163345 ], [ 19.3594586, 54.1628095 ], [ 19.3598161, 54.1622144 ], [ 19.3603881, 54.1612719 ], [ 19.3605764, 54.1609657 ], [ 19.3608736, 54.1604907 ], [ 19.3610864, 54.160152 ], [ 19.3614095, 54.1596413 ], [ 19.3617782, 54.159047 ], [ 19.3624048, 54.1580754 ], [ 19.3629385, 54.157222 ], [ 19.3631379, 54.1569055 ], [ 19.3635908, 54.1561739 ], [ 19.3638506, 54.155743 ], [ 19.3640505, 54.1554398 ], [ 19.3641752, 54.155239 ], [ 19.3642093, 54.1551841 ], [ 19.3648383, 54.154172 ], [ 19.365226, 54.1535245 ], [ 19.3653232, 54.1533627 ], [ 19.3654298, 54.1532079 ], [ 19.3656358, 54.1529028 ], [ 19.3658599, 54.1526163 ], [ 19.3659617, 54.1524597 ], [ 19.3661789, 54.1521472 ], [ 19.3664689, 54.1518073 ], [ 19.366643, 54.1516232 ], [ 19.3669169, 54.1513451 ], [ 19.3671066, 54.151165 ], [ 19.3673069, 54.1510128 ], [ 19.3674867, 54.1508575 ], [ 19.3678953, 54.1505439 ], [ 19.3681747, 54.150332 ], [ 19.3683906, 54.1501706 ], [ 19.3687061, 54.1499595 ], [ 19.3692713, 54.1496526 ], [ 19.3698179, 54.1493707 ], [ 19.3712437, 54.1487244 ], [ 19.3714549, 54.1486411 ], [ 19.3721807, 54.148369 ], [ 19.3725769, 54.148243 ], [ 19.373015, 54.1481068 ], [ 19.3732636, 54.1480286 ], [ 19.373584, 54.1479499 ], [ 19.373954, 54.1478597 ], [ 19.3747086, 54.1466346 ], [ 19.3764552, 54.1437596 ], [ 19.3767, 54.1433425 ], [ 19.3770284, 54.1428316 ], [ 19.3774551, 54.1421409 ], [ 19.3779449, 54.141454 ], [ 19.3780708, 54.1413154 ], [ 19.3781917, 54.1412032 ], [ 19.3783171, 54.1410944 ], [ 19.3784542, 54.1409856 ], [ 19.3785897, 54.1408871 ], [ 19.3787485, 54.1407825 ], [ 19.3789198, 54.1406804 ], [ 19.3790875, 54.1405845 ], [ 19.3792847, 54.1404885 ], [ 19.3794905, 54.1403939 ], [ 19.3796874, 54.1403112 ], [ 19.3798704, 54.1402418 ], [ 19.3800323, 54.1401844 ], [ 19.3802013, 54.1401298 ], [ 19.3804185, 54.140067 ], [ 19.3806176, 54.1400148 ], [ 19.3808112, 54.13997 ], [ 19.3810412, 54.1399232 ], [ 19.3812496, 54.1398865 ], [ 19.3814863, 54.1398503 ], [ 19.3816915, 54.1398263 ], [ 19.3819326, 54.139803 ], [ 19.3821584, 54.1397867 ], [ 19.3823925, 54.1397762 ], [ 19.3826162, 54.1397731 ], [ 19.3828469, 54.139774 ], [ 19.3830707, 54.1397796 ], [ 19.3833034, 54.1397911 ], [ 19.3835813, 54.1398155 ], [ 19.3837609, 54.1398366 ], [ 19.3840026, 54.1398701 ], [ 19.3842117, 54.1399036 ], [ 19.3844216, 54.1399436 ], [ 19.3846392, 54.1399908 ], [ 19.3848467, 54.140043 ], [ 19.3850573, 54.1401009 ], [ 19.3852587, 54.1401612 ], [ 19.3854583, 54.1402285 ], [ 19.3856884, 54.1403178 ], [ 19.3858396, 54.1403819 ], [ 19.3860479, 54.140476 ], [ 19.3862203, 54.1405594 ], [ 19.3864453, 54.1406745 ], [ 19.3866477, 54.1407847 ], [ 19.3873279, 54.1411561 ], [ 19.3877339, 54.1413422 ], [ 19.3888748, 54.1421095 ], [ 19.3897005, 54.1426568 ], [ 19.3899474, 54.142824 ], [ 19.3915102, 54.14388 ], [ 19.3920413, 54.1437306 ], [ 19.4061457, 54.1397845 ], [ 19.4059596, 54.139548 ], [ 19.4062602, 54.1394683 ], [ 19.4064428, 54.1396989 ], [ 19.4077922, 54.1393215 ], [ 19.4089644, 54.1389917 ], [ 19.4096181, 54.1388112 ], [ 19.4102859, 54.138626 ], [ 19.4109305, 54.138446 ], [ 19.4114469, 54.1383011 ], [ 19.4128388, 54.1379099 ], [ 19.4131781, 54.1378171 ], [ 19.4139113, 54.1376128 ], [ 19.415168, 54.1372553 ], [ 19.4156985, 54.1371156 ], [ 19.4165093, 54.1368993 ], [ 19.4173491, 54.1366819 ], [ 19.4179948, 54.1365283 ], [ 19.418671, 54.1363789 ], [ 19.4194374, 54.1362208 ], [ 19.4202944, 54.1360606 ], [ 19.4216215, 54.1358449 ], [ 19.4221124, 54.1357778 ], [ 19.4228981, 54.1356775 ], [ 19.423582, 54.1355976 ], [ 19.4244795, 54.1355108 ], [ 19.4247662, 54.1354866 ], [ 19.4251952, 54.1354534 ], [ 19.4259929, 54.1354005 ], [ 19.4266262, 54.1353673 ], [ 19.4271059, 54.1353491 ], [ 19.4275476, 54.1353339 ], [ 19.4283268, 54.1353196 ], [ 19.4289702, 54.1353153 ], [ 19.429257, 54.1353156 ], [ 19.4299475, 54.135324 ], [ 19.430553, 54.1353378 ], [ 19.4312359, 54.1353673 ], [ 19.4321631, 54.1354156 ], [ 19.4326288, 54.1354482 ], [ 19.433319, 54.1355018 ], [ 19.4337229, 54.1355368 ], [ 19.43415, 54.1355787 ], [ 19.434841, 54.135657 ], [ 19.4351535, 54.135694 ], [ 19.4357649, 54.1357728 ], [ 19.4363378, 54.1358563 ], [ 19.436845, 54.1359329 ], [ 19.4374231, 54.1360295 ], [ 19.4383397, 54.1361988 ], [ 19.4391787, 54.1363631 ], [ 19.4395127, 54.1364348 ], [ 19.4400764, 54.1365637 ], [ 19.441064, 54.1368068 ], [ 19.4414045, 54.1368973 ], [ 19.4420089, 54.1370595 ], [ 19.4428117, 54.1372736 ], [ 19.4428755, 54.1372894 ], [ 19.4429127, 54.1372603 ], [ 19.4430974, 54.1371158 ], [ 19.4436024, 54.1367395 ], [ 19.4440948, 54.136378 ], [ 19.4448442, 54.1358233 ], [ 19.4453412, 54.1354522 ], [ 19.4466954, 54.1344488 ], [ 19.4467946, 54.1344976 ], [ 19.4477995, 54.1350028 ], [ 19.4478935, 54.13505 ], [ 19.4479843, 54.1350949 ], [ 19.4480492, 54.1351283 ], [ 19.448351, 54.1352801 ], [ 19.4487105, 54.1354609 ], [ 19.4511728, 54.1366994 ], [ 19.4512808, 54.1367538 ], [ 19.4513617, 54.1367945 ], [ 19.4514226, 54.1368251 ], [ 19.4518149, 54.1370224 ], [ 19.4516626, 54.1371072 ], [ 19.4515354, 54.1371958 ], [ 19.4514333, 54.1372763 ], [ 19.451344, 54.1373702 ], [ 19.4512978, 54.1374366 ], [ 19.451285, 54.1374588 ], [ 19.4511685, 54.1376381 ], [ 19.4510384, 54.1378229 ], [ 19.4509593, 54.1379214 ], [ 19.4508087, 54.1381271 ], [ 19.4500192, 54.1386996 ], [ 19.449867, 54.1388096 ], [ 19.4501666, 54.1389022 ], [ 19.4509438, 54.1391435 ], [ 19.4511464, 54.1392222 ], [ 19.4516042, 54.1394154 ], [ 19.4519977, 54.1395862 ], [ 19.4521368, 54.1396544 ], [ 19.4523005, 54.1397233 ], [ 19.4525411, 54.1398105 ], [ 19.4530644, 54.1399577 ], [ 19.4531825, 54.1399898 ], [ 19.4534386, 54.1400643 ], [ 19.4537368, 54.1401706 ], [ 19.4555961, 54.1406732 ], [ 19.4566138, 54.1409477 ], [ 19.4575838, 54.1412112 ], [ 19.4578838, 54.1412907 ], [ 19.4582649, 54.1413935 ], [ 19.4590011, 54.1415825 ], [ 19.4594123, 54.1416816 ], [ 19.4602243, 54.1418638 ], [ 19.4616765, 54.1421389 ], [ 19.462332, 54.1422574 ], [ 19.4634384, 54.14246 ], [ 19.4636383, 54.1424966 ], [ 19.464207, 54.1426095 ], [ 19.4646841, 54.1427064 ], [ 19.4653253, 54.1428473 ], [ 19.466073, 54.1430218 ], [ 19.4664622, 54.1431188 ], [ 19.4668637, 54.1432231 ], [ 19.4674556, 54.1433835 ], [ 19.4681037, 54.1435673 ], [ 19.4685922, 54.1437138 ], [ 19.4692582, 54.1439264 ], [ 19.4704028, 54.144326 ], [ 19.4712338, 54.1446342 ], [ 19.4717844, 54.1448385 ], [ 19.4724342, 54.1450753 ], [ 19.472807, 54.1452043 ], [ 19.4734163, 54.1454159 ], [ 19.4743589, 54.145712 ], [ 19.4749907, 54.1458949 ], [ 19.4766811, 54.1463562 ], [ 19.4784813, 54.1468452 ], [ 19.4802174, 54.14731 ], [ 19.4811361, 54.147563 ], [ 19.4820859, 54.1478421 ], [ 19.4835799, 54.1482794 ], [ 19.4844475, 54.1485336 ], [ 19.4853617, 54.1488065 ], [ 19.4863386, 54.1490857 ], [ 19.4862781, 54.1491735 ], [ 19.4862261, 54.1492489 ], [ 19.4861962, 54.1492857 ], [ 19.4860665, 54.1494452 ], [ 19.4859476, 54.1495913 ], [ 19.4794598, 54.1521957 ], [ 19.4792223, 54.1523171 ], [ 19.4721415, 54.1559364 ], [ 19.4623002, 54.161203 ], [ 19.4622818, 54.1612139 ], [ 19.4622512, 54.1612329 ], [ 19.4624441, 54.1612618 ], [ 19.4624496, 54.1612626 ], [ 19.4637638, 54.1614593 ], [ 19.4641889, 54.1615258 ], [ 19.464743, 54.1616154 ], [ 19.4648331, 54.1616343 ], [ 19.4649219, 54.1616578 ], [ 19.4650131, 54.1616876 ], [ 19.4651037, 54.1617208 ], [ 19.4651377, 54.1617361 ], [ 19.4651821, 54.1617561 ], [ 19.4652373, 54.1617848 ], [ 19.4652869, 54.1618145 ], [ 19.4653918, 54.1618901 ], [ 19.4654451, 54.1619341 ], [ 19.465516, 54.1619969 ], [ 19.4655791, 54.162071 ], [ 19.4656134, 54.1621261 ], [ 19.46571, 54.1623268 ], [ 19.4657458, 54.1624135 ], [ 19.4658648, 54.1627018 ], [ 19.4660063, 54.1630491 ], [ 19.4661612, 54.1634299 ], [ 19.4663312, 54.1638491 ], [ 19.4664868, 54.1642341 ], [ 19.4666262, 54.1645791 ], [ 19.4667337, 54.1647748 ], [ 19.4667575, 54.1648069 ], [ 19.4668843, 54.1649403 ], [ 19.4669922, 54.1650306 ], [ 19.4671245, 54.1651187 ], [ 19.4684046, 54.1657955 ], [ 19.4687491, 54.165974 ], [ 19.4691945, 54.1662048 ], [ 19.4695267, 54.166366 ], [ 19.4696507, 54.1664156 ], [ 19.4697648, 54.1664586 ], [ 19.469893, 54.1665016 ], [ 19.4700251, 54.166536 ], [ 19.4701479, 54.1665638 ], [ 19.4702839, 54.1665906 ], [ 19.4704103, 54.1666118 ], [ 19.4705532, 54.1666303 ], [ 19.4706889, 54.1666445 ], [ 19.470834, 54.1666564 ], [ 19.4710184, 54.1666598 ], [ 19.4712131, 54.1666584 ], [ 19.4713835, 54.1666527 ], [ 19.4715723, 54.1666386 ], [ 19.4717357, 54.1666157 ], [ 19.4719232, 54.1665853 ], [ 19.4720913, 54.1665477 ], [ 19.4722386, 54.1665067 ], [ 19.4723947, 54.1664492 ], [ 19.4724785, 54.1664168 ], [ 19.4725605, 54.1663739 ], [ 19.4726477, 54.1663253 ], [ 19.4727427, 54.1662661 ], [ 19.4728419, 54.1661919 ], [ 19.4729821, 54.1660736 ], [ 19.4733975, 54.1656932 ], [ 19.4738072, 54.165318 ], [ 19.4742418, 54.16492 ], [ 19.4746663, 54.1645311 ], [ 19.4747844, 54.164423 ], [ 19.4751556, 54.164083 ], [ 19.4752998, 54.1639522 ], [ 19.4753969, 54.1638732 ], [ 19.4754878, 54.1638049 ], [ 19.4755828, 54.1637484 ], [ 19.4756747, 54.1636965 ], [ 19.475766, 54.1636532 ], [ 19.4758364, 54.1636236 ], [ 19.475885, 54.1636032 ], [ 19.4760047, 54.1635648 ], [ 19.4761612, 54.1635249 ], [ 19.4763201, 54.1634956 ], [ 19.4766449, 54.1634516 ], [ 19.4768168, 54.1634344 ], [ 19.4769343, 54.163425 ], [ 19.4770231, 54.1634207 ], [ 19.477152, 54.1634208 ], [ 19.4772588, 54.1634289 ], [ 19.4773655, 54.1634432 ], [ 19.4774812, 54.1634584 ], [ 19.4775932, 54.1634841 ], [ 19.4776722, 54.1635096 ], [ 19.4777393, 54.163535 ], [ 19.4777822, 54.163554 ], [ 19.4779368, 54.1636462 ], [ 19.4781073, 54.1637466 ], [ 19.4783062, 54.1638332 ], [ 19.4785052, 54.1639096 ], [ 19.4787026, 54.1639822 ], [ 19.4793202, 54.1641323 ], [ 19.4794676, 54.164176 ], [ 19.479615, 54.1642322 ], [ 19.4797729, 54.1643127 ], [ 19.4799578, 54.1644219 ], [ 19.4800218, 54.1644671 ], [ 19.4801025, 54.164536 ], [ 19.4801846, 54.1646255 ], [ 19.4802623, 54.1647418 ], [ 19.480299, 54.1648209 ], [ 19.4804559, 54.1652981 ], [ 19.4804901, 54.1653985 ], [ 19.4805202, 54.1654583 ], [ 19.4805501, 54.1655195 ], [ 19.4805953, 54.1655844 ], [ 19.4806342, 54.1656395 ], [ 19.4807021, 54.1657164 ], [ 19.4807657, 54.1657816 ], [ 19.4808577, 54.1658651 ], [ 19.4813772, 54.166238 ], [ 19.4815621, 54.166364 ], [ 19.4822293, 54.1668428 ], [ 19.4826137, 54.1671109 ], [ 19.4826908, 54.1671655 ], [ 19.4827732, 54.1672202 ], [ 19.4828562, 54.167266 ], [ 19.4829565, 54.1673169 ], [ 19.4831109, 54.1673751 ], [ 19.4833033, 54.1674411 ], [ 19.4837422, 54.167563 ], [ 19.4844353, 54.1677511 ], [ 19.4845462, 54.167777 ], [ 19.4846692, 54.1678028 ], [ 19.4847994, 54.1678248 ], [ 19.4849778, 54.1678502 ], [ 19.4852366, 54.16788 ], [ 19.4855182, 54.1679064 ], [ 19.4862454, 54.1679833 ], [ 19.4874192, 54.1681076 ], [ 19.4878404, 54.1681505 ], [ 19.4884442, 54.1682193 ], [ 19.4886909, 54.168252 ], [ 19.4889254, 54.1682897 ], [ 19.4893646, 54.1683659 ], [ 19.4895855, 54.1684079 ], [ 19.4911113, 54.1686842 ], [ 19.4947713, 54.1693487 ], [ 19.495994, 54.1695689 ], [ 19.4989165, 54.1700993 ], [ 19.5005317, 54.1703831 ], [ 19.5020598, 54.1706577 ], [ 19.5042761, 54.171056 ], [ 19.5047315, 54.1711411 ], [ 19.5054792, 54.1712815 ], [ 19.5057421, 54.1713466 ], [ 19.5060137, 54.1714266 ], [ 19.506181, 54.1714964 ], [ 19.5063994, 54.1715935 ], [ 19.5078991, 54.1723974 ], [ 19.5078912, 54.1724462 ], [ 19.5078873, 54.1724846 ], [ 19.507883, 54.1725227 ], [ 19.50782, 54.173477 ], [ 19.5077449, 54.1746129 ], [ 19.5077185, 54.1759109 ], [ 19.5076835, 54.1771476 ], [ 19.5076759, 54.1780732 ], [ 19.507618, 54.1785184 ], [ 19.5074779, 54.179144 ], [ 19.5074613, 54.1791652 ], [ 19.5072307, 54.1794606 ], [ 19.5069751, 54.1798554 ], [ 19.5066777, 54.1800976 ], [ 19.5085753, 54.1805046 ], [ 19.5089734, 54.1808102 ], [ 19.5096709, 54.181066 ], [ 19.5096945, 54.1814989 ], [ 19.509363, 54.1815221 ], [ 19.5085061, 54.1814641 ], [ 19.5083882, 54.1814608 ], [ 19.5079229, 54.1814477 ], [ 19.5079218, 54.181585 ], [ 19.5063042, 54.1813543 ], [ 19.5051528, 54.1812554 ], [ 19.5039793, 54.1811914 ], [ 19.5029264, 54.1813675 ], [ 19.5024632, 54.1814471 ], [ 19.5017705, 54.1815749 ], [ 19.5003602, 54.1819599 ], [ 19.4975039, 54.1822167 ], [ 19.4964165, 54.1823726 ], [ 19.4963812, 54.1823723 ], [ 19.4957385, 54.1823671 ], [ 19.495111, 54.1823317 ], [ 19.4943694, 54.1823033 ], [ 19.4931253, 54.182228 ], [ 19.4922092, 54.1821355 ], [ 19.4919784, 54.182178 ], [ 19.4917905, 54.1822771 ], [ 19.4916422, 54.1824821 ], [ 19.490952, 54.1825647 ], [ 19.4906688, 54.1826482 ], [ 19.4904054, 54.1825313 ], [ 19.4901205, 54.1824645 ], [ 19.4899368, 54.1824655 ], [ 19.4897822, 54.1825349 ], [ 19.4894741, 54.1826814 ], [ 19.4899183, 54.182942 ], [ 19.4899333, 54.1831867 ], [ 19.4897737, 54.1834053 ], [ 19.4894167, 54.1836191 ], [ 19.4893136, 54.183704 ], [ 19.4893142, 54.1838616 ], [ 19.4895281, 54.1839964 ], [ 19.490253, 54.184276 ], [ 19.4906181, 54.1844214 ], [ 19.4914257, 54.1846257 ], [ 19.4915443, 54.1847171 ], [ 19.4916599, 54.1850923 ], [ 19.491339, 54.1854041 ], [ 19.4915329, 54.1859925 ], [ 19.4924844, 54.186004 ], [ 19.4933196, 54.1859305 ], [ 19.496331, 54.1856037 ], [ 19.4967523, 54.1855064 ], [ 19.4977058, 54.1854443 ], [ 19.4979598, 54.185317 ], [ 19.4981471, 54.1849771 ], [ 19.4981535, 54.1849759 ], [ 19.4996067, 54.1844751 ], [ 19.5001524, 54.1845241 ], [ 19.5004217, 54.1845594 ], [ 19.5014067, 54.1847996 ], [ 19.5014237, 54.184878 ], [ 19.5012726, 54.1849885 ], [ 19.50098, 54.1850721 ], [ 19.4996117, 54.1850735 ], [ 19.4988407, 54.1853345 ], [ 19.4984505, 54.1858389 ], [ 19.4980591, 54.1859397 ], [ 19.4978861, 54.1859722 ], [ 19.4976392, 54.1859723 ], [ 19.4974064, 54.1859066 ], [ 19.4967005, 54.1863147 ], [ 19.4955402, 54.1871047 ], [ 19.4946343, 54.1877579 ], [ 19.49454, 54.1878851 ], [ 19.4945319, 54.1879689 ], [ 19.4947571, 54.1880492 ], [ 19.4959106, 54.1882763 ], [ 19.4974527, 54.1883645 ], [ 19.4979385, 54.1884521 ], [ 19.4986719, 54.1886927 ], [ 19.4991658, 54.1888048 ], [ 19.5001164, 54.1889551 ], [ 19.5009079, 54.1891057 ], [ 19.5016537, 54.189216 ], [ 19.5029047, 54.189313 ], [ 19.5051007, 54.1896184 ], [ 19.505195, 54.1896315 ], [ 19.5051262, 54.1901785 ], [ 19.505116, 54.1902597 ], [ 19.5050833, 54.1905836 ], [ 19.5050523, 54.1908873 ], [ 19.5050309, 54.191115 ], [ 19.5049713, 54.1914895 ], [ 19.5049419, 54.1918083 ], [ 19.5049118, 54.1920708 ], [ 19.5048801, 54.1924005 ], [ 19.504871, 54.192578 ], [ 19.5048778, 54.1930121 ], [ 19.5048797, 54.1931342 ], [ 19.5048811, 54.1932262 ], [ 19.5047671, 54.1935812 ], [ 19.5047399, 54.1936661 ], [ 19.5046756, 54.1940509 ], [ 19.5046547, 54.1946412 ], [ 19.50465, 54.1952178 ], [ 19.504612, 54.1956331 ], [ 19.5045991, 54.1957919 ], [ 19.5045248, 54.1967049 ], [ 19.5044805, 54.1970327 ], [ 19.5043724, 54.197906 ], [ 19.50434, 54.1981505 ], [ 19.5041399, 54.1987606 ], [ 19.5040309, 54.1990388 ], [ 19.5039813, 54.1993835 ], [ 19.5039131, 54.199952 ], [ 19.5038718, 54.2003146 ], [ 19.5038063, 54.2007178 ], [ 19.5037017, 54.2012723 ], [ 19.503682, 54.2013701 ], [ 19.5036249, 54.2016359 ], [ 19.5035573, 54.2019502 ], [ 19.503428, 54.2025787 ], [ 19.5033119, 54.2031386 ], [ 19.5032814, 54.2037739 ], [ 19.5032781, 54.2038527 ], [ 19.5032546, 54.2044199 ], [ 19.5032434, 54.2045327 ], [ 19.5032286, 54.2046806 ], [ 19.5031541, 54.2051821 ], [ 19.5031304, 54.2053722 ], [ 19.5030468, 54.2060011 ], [ 19.5029797, 54.2062377 ], [ 19.5029659, 54.2062848 ], [ 19.5029243, 54.2063603 ], [ 19.5029157, 54.206376 ], [ 19.5028987, 54.2064069 ], [ 19.5028809, 54.2064235 ], [ 19.5028093, 54.2064902 ], [ 19.5027425, 54.2064483 ], [ 19.5027097, 54.2064273 ], [ 19.502009, 54.2059791 ], [ 19.5007851, 54.2052014 ], [ 19.5001081, 54.2047514 ], [ 19.4978093, 54.2032875 ], [ 19.497278, 54.2035309 ], [ 19.4966305, 54.2038296 ], [ 19.496117, 54.2040665 ], [ 19.4956451, 54.2042842 ], [ 19.4954607, 54.204369 ], [ 19.4947371, 54.2047016 ], [ 19.4942672, 54.2049176 ], [ 19.4931732, 54.2054323 ], [ 19.4923089, 54.2058251 ], [ 19.4916976, 54.2061021 ], [ 19.4914949, 54.2062108 ], [ 19.4913725, 54.2062965 ], [ 19.4912392, 54.2063993 ], [ 19.4911524, 54.2064771 ], [ 19.4910475, 54.2065964 ], [ 19.4909825, 54.2066861 ], [ 19.4909177, 54.2067997 ], [ 19.4908633, 54.2069583 ], [ 19.4907258, 54.2075697 ], [ 19.4906428, 54.2079387 ], [ 19.4906001, 54.2080233 ], [ 19.4905581, 54.2080901 ], [ 19.4904831, 54.2081742 ], [ 19.4903669, 54.2082685 ], [ 19.4901306, 54.2084366 ], [ 19.4900287, 54.2085064 ], [ 19.4898443, 54.2086327 ], [ 19.4897398, 54.2087083 ], [ 19.489463, 54.2089038 ], [ 19.4894038, 54.208946 ], [ 19.4891532, 54.2088657 ], [ 19.4883838, 54.2087363 ], [ 19.4873692, 54.2082783 ], [ 19.4866472, 54.2081972 ], [ 19.4866168, 54.2076479 ], [ 19.4865098, 54.2076059 ], [ 19.4862172, 54.2080692 ], [ 19.4861347, 54.2081997 ], [ 19.4858614, 54.2086748 ], [ 19.4847829, 54.2075214 ], [ 19.4839747, 54.2075623 ], [ 19.4835393, 54.2075302 ], [ 19.4835271, 54.2071194 ], [ 19.4836665, 54.2071053 ], [ 19.4835258, 54.2062793 ], [ 19.4831533, 54.206357 ], [ 19.4829037, 54.2056756 ], [ 19.4826954, 54.2056863 ], [ 19.4827605, 54.2052907 ], [ 19.4826602, 54.2051751 ], [ 19.482555, 54.2051763 ], [ 19.4823558, 54.2048487 ], [ 19.4821298, 54.2048912 ], [ 19.4821271, 54.2048918 ], [ 19.4809751, 54.2050732 ], [ 19.4808475, 54.2050938 ], [ 19.4805631, 54.2051395 ], [ 19.4790289, 54.2054358 ], [ 19.4779979, 54.2055308 ], [ 19.4778677, 54.2051743 ], [ 19.477106, 54.2052648 ], [ 19.4769724, 54.2052806 ], [ 19.4757321, 54.204547 ], [ 19.4755262, 54.2045122 ], [ 19.4749453, 54.2044139 ], [ 19.4749461, 54.2044139 ], [ 19.4734749, 54.2042992 ], [ 19.4732104, 54.2041498 ], [ 19.4729682, 54.2039922 ], [ 19.4728548, 54.2039881 ], [ 19.4727541, 54.2039854 ], [ 19.472987, 54.2041713 ], [ 19.4741031, 54.2047988 ], [ 19.4743425, 54.2049334 ], [ 19.4754417, 54.205569 ], [ 19.4748261, 54.2058736 ], [ 19.475044, 54.2062509 ], [ 19.4755223, 54.2068181 ], [ 19.4760489, 54.2074427 ], [ 19.4761156, 54.207869 ], [ 19.4763193, 54.2078523 ], [ 19.4763983, 54.2080912 ], [ 19.4764965, 54.2084204 ], [ 19.4765733, 54.2086204 ], [ 19.4767928, 54.2090009 ], [ 19.4763113, 54.2090568 ], [ 19.476455, 54.2098689 ], [ 19.4758786, 54.2099759 ], [ 19.4758341, 54.2101136 ], [ 19.4757928, 54.2104181 ], [ 19.4758616, 54.2108685 ], [ 19.4759629, 54.2112496 ], [ 19.476082, 54.2116978 ], [ 19.4760389, 54.211774 ], [ 19.4759075, 54.2118686 ], [ 19.4757791, 54.2119126 ], [ 19.4752654, 54.2119749 ], [ 19.4749253, 54.2120411 ], [ 19.4746264, 54.2120805 ], [ 19.4742034, 54.2121606 ], [ 19.4739937, 54.2121926 ], [ 19.4735552, 54.2121045 ], [ 19.4733682, 54.2120634 ], [ 19.4731253, 54.2120379 ], [ 19.4729313, 54.2120646 ], [ 19.472775, 54.2120676 ], [ 19.4727352, 54.2120587 ], [ 19.4726291, 54.2120352 ], [ 19.4725829, 54.2120107 ], [ 19.4725326, 54.2119839 ], [ 19.4724966, 54.2119464 ], [ 19.472399, 54.2118449 ], [ 19.4723156, 54.2115689 ], [ 19.4722554, 54.2113692 ], [ 19.4721887, 54.2112844 ], [ 19.47211, 54.2111839 ], [ 19.4719231, 54.2111193 ], [ 19.471655, 54.2110397 ], [ 19.471588, 54.2110198 ], [ 19.4711738, 54.2107451 ], [ 19.4710083, 54.2106865 ], [ 19.4710058, 54.2106856 ], [ 19.4708801, 54.2106773 ], [ 19.4706979, 54.2106917 ], [ 19.4704425, 54.2108023 ], [ 19.4702449, 54.210858 ], [ 19.4701166, 54.2108941 ], [ 19.4698591, 54.2109969 ], [ 19.4694123, 54.2111699 ], [ 19.4691026, 54.2112031 ], [ 19.4687739, 54.2112319 ], [ 19.4686651, 54.2116232 ], [ 19.4686028, 54.2117232 ], [ 19.4686786, 54.2117299 ], [ 19.4688746, 54.2117425 ], [ 19.4690777, 54.2117409 ], [ 19.4691674, 54.2117296 ], [ 19.4692522, 54.2117139 ], [ 19.4692961, 54.2116959 ], [ 19.4693341, 54.2116612 ], [ 19.4694035, 54.211598 ], [ 19.4695061, 54.2115327 ], [ 19.4696298, 54.2115063 ], [ 19.4697052, 54.2114745 ], [ 19.4697168, 54.2114636 ], [ 19.4697172, 54.2114351 ], [ 19.4697122, 54.2114161 ], [ 19.4697092, 54.2113982 ], [ 19.4697123, 54.2113806 ], [ 19.4697293, 54.2113757 ], [ 19.4697523, 54.2113762 ], [ 19.4697818, 54.2113844 ], [ 19.4697927, 54.2113916 ], [ 19.4698059, 54.2114024 ], [ 19.4698257, 54.2114124 ], [ 19.4698549, 54.2114184 ], [ 19.4699027, 54.2114181 ], [ 19.4699295, 54.2114216 ], [ 19.469954, 54.2114375 ], [ 19.4699948, 54.2115239 ], [ 19.4700913, 54.2116051 ], [ 19.4701333, 54.211621 ], [ 19.4701939, 54.2116333 ], [ 19.4702561, 54.2116684 ], [ 19.4702844, 54.2117144 ], [ 19.4703326, 54.2117691 ], [ 19.4703958, 54.2118065 ], [ 19.4704744, 54.2118384 ], [ 19.4704928, 54.2118693 ], [ 19.4704896, 54.2119056 ], [ 19.4703958, 54.211987 ], [ 19.4702779, 54.2120329 ], [ 19.4702499, 54.2120549 ], [ 19.4702379, 54.2120846 ], [ 19.4702537, 54.2121143 ], [ 19.4703022, 54.2121416 ], [ 19.4703962, 54.2121508 ], [ 19.4704323, 54.2121563 ], [ 19.4704623, 54.2121744 ], [ 19.4704684, 54.2122416 ], [ 19.4704654, 54.2122681 ], [ 19.4704775, 54.2123407 ], [ 19.4705137, 54.2123707 ], [ 19.4706045, 54.2123972 ], [ 19.4706712, 54.2124026 ], [ 19.4707194, 54.212399 ], [ 19.4707573, 54.2123867 ], [ 19.4707859, 54.212369 ], [ 19.4708101, 54.2122894 ], [ 19.4708131, 54.2121939 ], [ 19.4708283, 54.2121532 ], [ 19.4708602, 54.2121347 ], [ 19.4709271, 54.2121137 ], [ 19.4710218, 54.212109 ], [ 19.4711942, 54.2121373 ], [ 19.4714149, 54.2121426 ], [ 19.4714876, 54.2121531 ], [ 19.471548, 54.212178 ], [ 19.4716486, 54.2123209 ], [ 19.4716364, 54.2123741 ], [ 19.4716122, 54.2124379 ], [ 19.4715792, 54.2124617 ], [ 19.4715273, 54.212484 ], [ 19.4714758, 54.2124982 ], [ 19.4714145, 54.2124976 ], [ 19.4713214, 54.2124841 ], [ 19.4712575, 54.2124645 ], [ 19.4712174, 54.2124604 ], [ 19.4711753, 54.212472 ], [ 19.4711332, 54.2125088 ], [ 19.4710362, 54.2125531 ], [ 19.4709937, 54.2125813 ], [ 19.4709755, 54.2126205 ], [ 19.4709937, 54.2127038 ], [ 19.4709859, 54.2127285 ], [ 19.4709391, 54.2127474 ], [ 19.4708815, 54.2127553 ], [ 19.4708583, 54.2127723 ], [ 19.4708696, 54.2127939 ], [ 19.4708997, 54.2128014 ], [ 19.4710483, 54.2127801 ], [ 19.4711635, 54.2127765 ], [ 19.471258, 54.2127965 ], [ 19.4713363, 54.2128386 ], [ 19.4713969, 54.212945 ], [ 19.4714333, 54.213046 ], [ 19.4714353, 54.2130698 ], [ 19.4714212, 54.2130921 ], [ 19.4714265, 54.2131064 ], [ 19.471454, 54.2131167 ], [ 19.4714909, 54.2131081 ], [ 19.4715301, 54.2131021 ], [ 19.4715667, 54.213085 ], [ 19.4716122, 54.213007 ], [ 19.4716455, 54.2129485 ], [ 19.4716655, 54.2129407 ], [ 19.4716973, 54.2129393 ], [ 19.4717425, 54.2129662 ], [ 19.4717908, 54.2129975 ], [ 19.4718244, 54.2129999 ], [ 19.4718557, 54.2129955 ], [ 19.4718735, 54.21298 ], [ 19.471885, 54.2129538 ], [ 19.4720093, 54.2129095 ], [ 19.4720851, 54.2129024 ], [ 19.4721587, 54.2129003 ], [ 19.4722216, 54.212906 ], [ 19.4722761, 54.2129343 ], [ 19.4723489, 54.2130584 ], [ 19.4723573, 54.2130912 ], [ 19.4723307, 54.213124 ], [ 19.4722989, 54.2131354 ], [ 19.4722286, 54.2131449 ], [ 19.4721826, 54.2131434 ], [ 19.4721367, 54.2131293 ], [ 19.4721042, 54.2131303 ], [ 19.472092, 54.2131488 ], [ 19.4721094, 54.2131737 ], [ 19.472167, 54.2131919 ], [ 19.4722003, 54.213218 ], [ 19.4722033, 54.2132433 ], [ 19.4721821, 54.2132623 ], [ 19.4720821, 54.21328 ], [ 19.4719911, 54.2132853 ], [ 19.4719682, 54.2132959 ], [ 19.4719669, 54.213319 ], [ 19.4720912, 54.2133651 ], [ 19.4721306, 54.2133917 ], [ 19.4721352, 54.2134684 ], [ 19.4721291, 54.2135057 ], [ 19.4721454, 54.21352 ], [ 19.4721778, 54.2135217 ], [ 19.4722507, 54.2135153 ], [ 19.4723176, 54.213495 ], [ 19.4723686, 54.2134934 ], [ 19.4724088, 54.2135092 ], [ 19.4724348, 54.2135307 ], [ 19.4724392, 54.2135537 ], [ 19.4724273, 54.213575 ], [ 19.4723966, 54.2135963 ], [ 19.4723235, 54.2136156 ], [ 19.4722416, 54.2136248 ], [ 19.4722359, 54.2136379 ], [ 19.4722538, 54.2136496 ], [ 19.4723693, 54.2136941 ], [ 19.4724756, 54.2137385 ], [ 19.4725078, 54.213761 ], [ 19.4725212, 54.2137883 ], [ 19.4725264, 54.2138115 ], [ 19.4725182, 54.2138362 ], [ 19.472348, 54.2138665 ], [ 19.4722598, 54.2138842 ], [ 19.4722497, 54.2139025 ], [ 19.4722564, 54.213935 ], [ 19.4722872, 54.213966 ], [ 19.4722756, 54.2139862 ], [ 19.4722264, 54.2140033 ], [ 19.4722173, 54.2140495 ], [ 19.4722242, 54.2140777 ], [ 19.4722446, 54.2140981 ], [ 19.4723257, 54.2141123 ], [ 19.4724351, 54.2141147 ], [ 19.4725162, 54.2141005 ], [ 19.4725337, 54.2140815 ], [ 19.4725357, 54.2140546 ], [ 19.4725162, 54.2140294 ], [ 19.4725196, 54.2140022 ], [ 19.4725526, 54.2139844 ], [ 19.4726134, 54.2139743 ], [ 19.4726742, 54.213982 ], [ 19.4726935, 54.2140016 ], [ 19.4727066, 54.2140128 ], [ 19.4727625, 54.2140269 ], [ 19.4728201, 54.2140317 ], [ 19.4728531, 54.2140447 ], [ 19.4728728, 54.2140649 ], [ 19.472873, 54.2140915 ], [ 19.4728467, 54.214135 ], [ 19.4728273, 54.2141521 ], [ 19.4728079, 54.2141692 ], [ 19.4727517, 54.214177 ], [ 19.47268, 54.214205 ], [ 19.4725945, 54.2142156 ], [ 19.4725846, 54.2142251 ], [ 19.4725717, 54.2142376 ], [ 19.4725792, 54.2142636 ], [ 19.4725814, 54.2142712 ], [ 19.4725837, 54.2142788 ], [ 19.4726447, 54.2143461 ], [ 19.4726665, 54.2143701 ], [ 19.4726799, 54.2143909 ], [ 19.4726777, 54.2144095 ], [ 19.4726611, 54.2144197 ], [ 19.4726526, 54.2144226 ], [ 19.4726387, 54.2144256 ], [ 19.4724919, 54.2144462 ], [ 19.4724513, 54.2144614 ], [ 19.4724376, 54.2144868 ], [ 19.4724479, 54.2145139 ], [ 19.4724827, 54.2145306 ], [ 19.4725221, 54.2145378 ], [ 19.4725982, 54.2145334 ], [ 19.472667, 54.2144977 ], [ 19.4727283, 54.2144901 ], [ 19.4727796, 54.2144838 ], [ 19.4728226, 54.2144905 ], [ 19.4728497, 54.2144947 ], [ 19.472856, 54.2145002 ], [ 19.4729714, 54.2145883 ], [ 19.4730583, 54.2146118 ], [ 19.4730986, 54.2146125 ], [ 19.4731599, 54.2147056 ], [ 19.4731684, 54.2147185 ], [ 19.4731375, 54.2147655 ], [ 19.473131, 54.2147754 ], [ 19.4731206, 54.214785 ], [ 19.4731263, 54.2147973 ], [ 19.4731595, 54.2148168 ], [ 19.4732139, 54.2148377 ], [ 19.4732694, 54.2148589 ], [ 19.4733342, 54.214866 ], [ 19.4733765, 54.2148651 ], [ 19.4734102, 54.2148526 ], [ 19.4734127, 54.214832 ], [ 19.4734072, 54.2148047 ], [ 19.4734478, 54.2147788 ], [ 19.4735046, 54.2147737 ], [ 19.4735885, 54.2148007 ], [ 19.4736097, 54.2148222 ], [ 19.4736105, 54.2148437 ], [ 19.4735773, 54.2148797 ], [ 19.4735595, 54.2148991 ], [ 19.473544, 54.2149145 ], [ 19.4735154, 54.2149605 ], [ 19.4735177, 54.2150041 ], [ 19.4734691, 54.2151706 ], [ 19.473485, 54.2152051 ], [ 19.4734964, 54.2152296 ], [ 19.4735171, 54.2152635 ], [ 19.473539, 54.2152994 ], [ 19.4735336, 54.215339 ], [ 19.4734955, 54.2153786 ], [ 19.4735049, 54.215433 ], [ 19.4735476, 54.2155085 ], [ 19.4735613, 54.2155788 ], [ 19.4735982, 54.215641 ], [ 19.4736302, 54.21569 ], [ 19.4736288, 54.2157152 ], [ 19.4736043, 54.2157595 ], [ 19.4735904, 54.2157847 ], [ 19.4735921, 54.2158331 ], [ 19.4736664, 54.2159162 ], [ 19.4736947, 54.2159404 ], [ 19.4737354, 54.2160091 ], [ 19.4737687, 54.2160653 ], [ 19.4737682, 54.2160924 ], [ 19.4737673, 54.2161205 ], [ 19.4737836, 54.2161472 ], [ 19.4738088, 54.2161654 ], [ 19.4738673, 54.216187 ], [ 19.4739109, 54.2162031 ], [ 19.4739624, 54.2162468 ], [ 19.4740418, 54.2162677 ], [ 19.4740985, 54.2162876 ], [ 19.4741499, 54.2163487 ], [ 19.474181, 54.2163804 ], [ 19.4742084, 54.2164086 ], [ 19.4742514, 54.2164278 ], [ 19.4743033, 54.2164499 ], [ 19.4743224, 54.2164846 ], [ 19.4743246, 54.2165068 ], [ 19.4742993, 54.2166142 ], [ 19.4742913, 54.2166631 ], [ 19.4742547, 54.2166791 ], [ 19.474205, 54.2166802 ], [ 19.4741553, 54.2166813 ], [ 19.4741425, 54.2166931 ], [ 19.474143, 54.2167095 ], [ 19.4742346, 54.2167406 ], [ 19.4742584, 54.2167612 ], [ 19.4742566, 54.2167855 ], [ 19.4741799, 54.2168205 ], [ 19.4741496, 54.2168343 ], [ 19.4741341, 54.2168567 ], [ 19.4741554, 54.2168795 ], [ 19.4742249, 54.216948 ], [ 19.4742446, 54.2169674 ], [ 19.4742638, 54.2170008 ], [ 19.4742529, 54.2170271 ], [ 19.4742406, 54.2170468 ], [ 19.4742141, 54.2170642 ], [ 19.4740672, 54.2171611 ], [ 19.4740448, 54.2171949 ], [ 19.4740645, 54.2172505 ], [ 19.4740443, 54.2172721 ], [ 19.474003, 54.2172801 ], [ 19.4739812, 54.2172998 ], [ 19.4739804, 54.2173168 ], [ 19.4739808, 54.2173564 ], [ 19.4740607, 54.2174283 ], [ 19.4742035, 54.217534 ], [ 19.4742585, 54.217657 ], [ 19.4742542, 54.217722 ], [ 19.4742526, 54.2177457 ], [ 19.4742411, 54.2178544 ], [ 19.4742092, 54.2178779 ], [ 19.4741363, 54.2178918 ], [ 19.4740906, 54.2179198 ], [ 19.4740685, 54.2179602 ], [ 19.4740736, 54.2180395 ], [ 19.4741145, 54.2181034 ], [ 19.4741999, 54.218154 ], [ 19.4742873, 54.2182141 ], [ 19.4743475, 54.2182907 ], [ 19.4743785, 54.2183159 ], [ 19.4743991, 54.2183327 ], [ 19.4744821, 54.2183494 ], [ 19.474516, 54.2183611 ], [ 19.4745311, 54.2183814 ], [ 19.4744843, 54.2185826 ], [ 19.4745073, 54.2186231 ], [ 19.4745075, 54.2186234 ], [ 19.4745076, 54.2186235 ], [ 19.4745205, 54.2186723 ], [ 19.4745023, 54.2186953 ], [ 19.4744896, 54.2187115 ], [ 19.4744558, 54.2187752 ], [ 19.4744156, 54.2187972 ], [ 19.4742954, 54.2187918 ], [ 19.474251, 54.218789 ], [ 19.4742138, 54.2188071 ], [ 19.4742025, 54.2188333 ], [ 19.4742343, 54.2189214 ], [ 19.4742738, 54.2189387 ], [ 19.4743254, 54.2189476 ], [ 19.4743663, 54.2189546 ], [ 19.474398, 54.218964 ], [ 19.4744359, 54.2189763 ], [ 19.4744534, 54.2189907 ], [ 19.4745119, 54.2190386 ], [ 19.4745719, 54.2190646 ], [ 19.4746142, 54.2190969 ], [ 19.4746215, 54.2191195 ], [ 19.4746111, 54.2191381 ], [ 19.4745504, 54.219152 ], [ 19.4744896, 54.2191495 ], [ 19.4744719, 54.2191622 ], [ 19.4744526, 54.2191986 ], [ 19.4744001, 54.2192969 ], [ 19.4743828, 54.2193345 ], [ 19.4743512, 54.219403 ], [ 19.4743469, 54.2195067 ], [ 19.4743556, 54.2195507 ], [ 19.4743227, 54.2196456 ], [ 19.4743642, 54.2196952 ], [ 19.4744501, 54.2197161 ], [ 19.4747225, 54.2196911 ], [ 19.4747857, 54.2196567 ], [ 19.4748422, 54.2196498 ], [ 19.4749057, 54.2196623 ], [ 19.4749466, 54.2196818 ], [ 19.4750482, 54.2197301 ], [ 19.4750922, 54.2198452 ], [ 19.4751178, 54.2198688 ], [ 19.4752767, 54.2198515 ], [ 19.4754207, 54.2198746 ], [ 19.4755234, 54.2198781 ], [ 19.4755612, 54.2198647 ], [ 19.4755989, 54.2198071 ], [ 19.475599, 54.2197823 ], [ 19.4756246, 54.2197456 ], [ 19.4756947, 54.219732 ], [ 19.475862, 54.219753 ], [ 19.4759486, 54.2197706 ], [ 19.4760435, 54.2198217 ], [ 19.4761118, 54.2198384 ], [ 19.4761677, 54.219852 ], [ 19.4762106, 54.219845 ], [ 19.4762235, 54.2198264 ], [ 19.476148, 54.2197617 ], [ 19.4761455, 54.2196575 ], [ 19.4760001, 54.2196461 ], [ 19.4758786, 54.2195916 ], [ 19.4757837, 54.2195193 ], [ 19.4757738, 54.2194335 ], [ 19.4758475, 54.2194228 ], [ 19.4758975, 54.2194114 ], [ 19.4760048, 54.2194551 ], [ 19.4760887, 54.2194925 ], [ 19.4762235, 54.2195118 ], [ 19.4763166, 54.2196079 ], [ 19.4765127, 54.2196922 ], [ 19.4765444, 54.2197115 ], [ 19.4768872, 54.2198767 ], [ 19.4769092, 54.2199085 ], [ 19.4769144, 54.2199347 ], [ 19.476887, 54.2199718 ], [ 19.4768092, 54.2200326 ], [ 19.476717, 54.220056 ], [ 19.4766716, 54.2201115 ], [ 19.4766607, 54.2201249 ], [ 19.476572, 54.2201359 ], [ 19.4765554, 54.2201454 ], [ 19.4764796, 54.2202379 ], [ 19.4763517, 54.2202971 ], [ 19.4761993, 54.2203476 ], [ 19.476131, 54.2203553 ], [ 19.4760527, 54.2203642 ], [ 19.4760182, 54.2203694 ], [ 19.4759886, 54.2204136 ], [ 19.4759915, 54.2204577 ], [ 19.4758904, 54.2204977 ], [ 19.4758393, 54.2205254 ], [ 19.4757948, 54.2205496 ], [ 19.4756514, 54.2206308 ], [ 19.4756296, 54.2206829 ], [ 19.4756298, 54.2207218 ], [ 19.4756626, 54.2207585 ], [ 19.4759744, 54.2209304 ], [ 19.4761158, 54.2210328 ], [ 19.4761178, 54.2210335 ], [ 19.476162, 54.2210505 ], [ 19.4762719, 54.2210437 ], [ 19.4763593, 54.2209881 ], [ 19.4763977, 54.2209752 ], [ 19.4764321, 54.2209873 ], [ 19.4764884, 54.2210979 ], [ 19.4764847, 54.2211335 ], [ 19.4764538, 54.2211606 ], [ 19.476366, 54.2211633 ], [ 19.4762625, 54.2211881 ], [ 19.4761916, 54.2212076 ], [ 19.4761598, 54.2212193 ], [ 19.4761212, 54.2212235 ], [ 19.4759236, 54.2211878 ], [ 19.4758864, 54.2211811 ], [ 19.4758424, 54.2211907 ], [ 19.4758261, 54.2212069 ], [ 19.4759321, 54.2213366 ], [ 19.4759416, 54.2214188 ], [ 19.4759505, 54.221496 ], [ 19.4759807, 54.2215179 ], [ 19.4760224, 54.2215482 ], [ 19.4760008, 54.2216387 ], [ 19.4760114, 54.2216685 ], [ 19.4760244, 54.2217055 ], [ 19.4760702, 54.2217429 ], [ 19.4761627, 54.2218181 ], [ 19.4762441, 54.2218495 ], [ 19.4764808, 54.2217946 ], [ 19.4765963, 54.2217853 ], [ 19.4766989, 54.2217771 ], [ 19.4767593, 54.2217857 ], [ 19.4768237, 54.2217948 ], [ 19.4768592, 54.2217735 ], [ 19.4767884, 54.2217178 ], [ 19.476731, 54.2217034 ], [ 19.4766843, 54.2216921 ], [ 19.4766607, 54.2216742 ], [ 19.4766758, 54.2215833 ], [ 19.476681, 54.2215389 ], [ 19.4767584, 54.2215069 ], [ 19.4768053, 54.2215028 ], [ 19.4768575, 54.2215204 ], [ 19.4769969, 54.2215937 ], [ 19.4770658, 54.2216222 ], [ 19.4771127, 54.2216892 ], [ 19.4771441, 54.2217341 ], [ 19.4772217, 54.2217844 ], [ 19.4772795, 54.221825 ], [ 19.4773057, 54.2218433 ], [ 19.4773229, 54.2218646 ], [ 19.4773259, 54.2218888 ], [ 19.4772923, 54.2218988 ], [ 19.4772561, 54.2218889 ], [ 19.477192, 54.2219021 ], [ 19.4771848, 54.2219285 ], [ 19.4771775, 54.2219559 ], [ 19.4771541, 54.2219867 ], [ 19.4771474, 54.2219956 ], [ 19.4771529, 54.2220195 ], [ 19.4771731, 54.2220426 ], [ 19.4772096, 54.2220475 ], [ 19.4772569, 54.2221135 ], [ 19.4772708, 54.2221552 ], [ 19.4772812, 54.2221865 ], [ 19.4772188, 54.2222124 ], [ 19.4771971, 54.2222453 ], [ 19.477206, 54.2222963 ], [ 19.4772276, 54.2223271 ], [ 19.4772888, 54.2223485 ], [ 19.4773549, 54.222466 ], [ 19.4773053, 54.2225066 ], [ 19.4772183, 54.2225387 ], [ 19.4771599, 54.2225195 ], [ 19.4771182, 54.2225233 ], [ 19.4770799, 54.222644 ], [ 19.4770345, 54.222679 ], [ 19.4770087, 54.2227038 ], [ 19.4769906, 54.222791 ], [ 19.4770317, 54.2228703 ], [ 19.4770541, 54.2229138 ], [ 19.477004, 54.2229529 ], [ 19.4769813, 54.2229837 ], [ 19.4770021, 54.2230158 ], [ 19.4770128, 54.2230402 ], [ 19.4769678, 54.2230679 ], [ 19.4769734, 54.2231003 ], [ 19.4770011, 54.2231163 ], [ 19.4769829, 54.2231527 ], [ 19.4769591, 54.2232003 ], [ 19.4769268, 54.223233 ], [ 19.476894, 54.223266 ], [ 19.4769021, 54.2232975 ], [ 19.476911, 54.2233323 ], [ 19.476856, 54.2233497 ], [ 19.4767793, 54.2233477 ], [ 19.4767068, 54.2233184 ], [ 19.4766388, 54.223326 ], [ 19.4766318, 54.223357 ], [ 19.4766198, 54.2234109 ], [ 19.4766997, 54.2235026 ], [ 19.4768017, 54.2235234 ], [ 19.4768511, 54.2235602 ], [ 19.476918, 54.2236271 ], [ 19.4768944, 54.2236548 ], [ 19.4767916, 54.2236947 ], [ 19.4767032, 54.2237625 ], [ 19.4766586, 54.2238227 ], [ 19.4766831, 54.2238955 ], [ 19.4767277, 54.2239018 ], [ 19.4767561, 54.2239628 ], [ 19.4767992, 54.2240646 ], [ 19.4768616, 54.2241158 ], [ 19.4768852, 54.2242011 ], [ 19.4768876, 54.2242824 ], [ 19.4769121, 54.2243522 ], [ 19.4769096, 54.2244477 ], [ 19.4769231, 54.2244827 ], [ 19.4777614, 54.2243448 ], [ 19.4786253, 54.2243558 ], [ 19.4795174, 54.2242763 ], [ 19.4804876, 54.2242395 ], [ 19.4809653, 54.2241965 ], [ 19.4812458, 54.224186 ], [ 19.4817337, 54.2241407 ], [ 19.4821145, 54.224106 ], [ 19.4823086, 54.2241797 ], [ 19.4823429, 54.2243052 ], [ 19.482416, 54.224292 ], [ 19.4828597, 54.2245028 ], [ 19.4829132, 54.2245551 ], [ 19.4829406, 54.2246616 ], [ 19.4828265, 54.2247624 ], [ 19.4830244, 54.2247998 ], [ 19.4829514, 54.2250029 ], [ 19.4829474, 54.2251148 ], [ 19.4830895, 54.2253113 ], [ 19.4831803, 54.2254213 ], [ 19.4834087, 54.2252833 ], [ 19.4832732, 54.2251772 ], [ 19.4833339, 54.2251719 ], [ 19.483282, 54.2250309 ], [ 19.4834209, 54.2250286 ], [ 19.4835867, 54.2250546 ], [ 19.4836836, 54.2250232 ], [ 19.4837682, 54.2247688 ], [ 19.4838231, 54.2247254 ], [ 19.484094, 54.2248431 ], [ 19.4842013, 54.2248337 ], [ 19.4842743, 54.224776 ], [ 19.4841981, 54.2245193 ], [ 19.4840529, 54.2244228 ], [ 19.484342, 54.2243451 ], [ 19.4845514, 54.2244361 ], [ 19.4845481, 54.2245594 ], [ 19.4847802, 54.2246173 ], [ 19.4850777, 54.2245548 ], [ 19.48532, 54.224665 ], [ 19.4854558, 54.2245856 ], [ 19.4858166, 54.2245404 ], [ 19.4860196, 54.2245817 ], [ 19.4861035, 54.2246537 ], [ 19.4861783, 54.2246436 ], [ 19.4862784, 54.2246936 ], [ 19.4863045, 54.2246585 ], [ 19.4869183, 54.2248368 ], [ 19.4870721, 54.2249712 ], [ 19.4869808, 54.2253036 ], [ 19.4872938, 54.2254267 ], [ 19.4877685, 54.2253613 ], [ 19.4878886, 54.2252737 ], [ 19.4882204, 54.2251747 ], [ 19.4886156, 54.2251484 ], [ 19.4889126, 54.2250206 ], [ 19.4892317, 54.2245445 ], [ 19.4892309, 54.2245446 ], [ 19.49002, 54.2243001 ], [ 19.4897939, 54.225275 ], [ 19.490106, 54.2254196 ], [ 19.4912689, 54.2254867 ], [ 19.4915903, 54.2263101 ], [ 19.4929016, 54.2259522 ], [ 19.4930306, 54.2262547 ], [ 19.4937376, 54.2262739 ], [ 19.494443, 54.2262948 ], [ 19.4950264, 54.2262351 ], [ 19.4956176, 54.2261521 ], [ 19.4960483, 54.2269723 ], [ 19.4960515, 54.2270131 ], [ 19.496047, 54.2270411 ], [ 19.4960385, 54.2270947 ], [ 19.4959132, 54.2272586 ], [ 19.4958012, 54.2274683 ], [ 19.4957689, 54.2276146 ], [ 19.4957922, 54.2279546 ], [ 19.4957918, 54.2283472 ], [ 19.4959188, 54.2288502 ], [ 19.4958864, 54.2295789 ], [ 19.4958342, 54.2299674 ], [ 19.4959533, 54.2303476 ], [ 19.4962082, 54.2304953 ], [ 19.4964245, 54.2305521 ], [ 19.4965525, 54.2307862 ], [ 19.4965101, 54.2308101 ], [ 19.4966268, 54.2310467 ], [ 19.4967984, 54.2313497 ], [ 19.4970522, 54.2317949 ], [ 19.497225, 54.2320982 ], [ 19.4972993, 54.2321843 ], [ 19.4973265, 54.2322158 ], [ 19.4975513, 54.2322684 ], [ 19.4978319, 54.232316 ], [ 19.4979717, 54.2324598 ], [ 19.4985048, 54.2327976 ], [ 19.4985748, 54.2327999 ], [ 19.4986126, 54.2327803 ], [ 19.4985995, 54.2325698 ], [ 19.498566, 54.2324224 ], [ 19.4986003, 54.2322251 ], [ 19.4986894, 54.2321475 ], [ 19.4989226, 54.2320916 ], [ 19.499789, 54.2321285 ], [ 19.5001, 54.2322497 ], [ 19.5014328, 54.2325034 ], [ 19.501964, 54.2326785 ], [ 19.5020352, 54.2326889 ], [ 19.5023235, 54.2326123 ], [ 19.5024862, 54.2325574 ], [ 19.5025375, 54.2325214 ], [ 19.5025586, 54.2324874 ], [ 19.5028076, 54.2324938 ], [ 19.5033155, 54.2327087 ], [ 19.5034678, 54.2328616 ], [ 19.5035998, 54.2329937 ], [ 19.504344, 54.23294 ], [ 19.5049449, 54.2328971 ], [ 19.505215, 54.232867 ], [ 19.505476, 54.2328212 ], [ 19.505888, 54.232711 ], [ 19.506427, 54.232474 ], [ 19.5065776, 54.232413 ], [ 19.5066742, 54.2323784 ], [ 19.5067872, 54.2323485 ], [ 19.5068934, 54.2323316 ], [ 19.507249, 54.232337 ], [ 19.507769, 54.232345 ], [ 19.5083112, 54.2323543 ], [ 19.5086598, 54.2323722 ], [ 19.5089395, 54.2323967 ], [ 19.5088591, 54.2326782 ], [ 19.508822, 54.2329644 ], [ 19.5088015, 54.2331227 ], [ 19.5085934, 54.2342053 ], [ 19.5085446, 54.2345646 ], [ 19.5084892, 54.2349732 ], [ 19.5082905, 54.2350126 ], [ 19.508216, 54.2351758 ], [ 19.5073638, 54.2352886 ], [ 19.5081796, 54.2365387 ], [ 19.5084825, 54.2369342 ], [ 19.5090337, 54.2376671 ], [ 19.5089743, 54.2378099 ], [ 19.5086522, 54.2385856 ], [ 19.5083153, 54.2393688 ], [ 19.5076565, 54.2409284 ], [ 19.5076559, 54.2409285 ], [ 19.5075487, 54.2413431 ], [ 19.5074125, 54.24187 ], [ 19.5070284, 54.2429651 ], [ 19.5069181, 54.2432796 ], [ 19.5068569, 54.2434541 ], [ 19.5066666, 54.2441448 ], [ 19.5064489, 54.2447319 ], [ 19.5063434, 54.2450164 ], [ 19.5061105, 54.2456936 ], [ 19.5056861, 54.2468891 ], [ 19.5054308, 54.2476779 ], [ 19.5051155, 54.2486531 ], [ 19.5048335, 54.2486798 ], [ 19.5039153, 54.2488725 ], [ 19.5035503, 54.2488628 ], [ 19.5030871, 54.2487625 ], [ 19.5024243, 54.2487239 ], [ 19.5012787, 54.2486819 ], [ 19.5004835, 54.248574 ], [ 19.5000426, 54.2484879 ], [ 19.4996052, 54.248355 ], [ 19.4992435, 54.2482117 ], [ 19.498777, 54.2480459 ], [ 19.4984655, 54.2479688 ], [ 19.498194, 54.247949 ], [ 19.4970609, 54.2479195 ], [ 19.4964291, 54.2478751 ], [ 19.496038, 54.2478223 ], [ 19.4953886, 54.2477272 ], [ 19.4952318, 54.2476487 ], [ 19.495144, 54.2476333 ], [ 19.4948933, 54.2477538 ], [ 19.4945178, 54.2480621 ], [ 19.4938363, 54.2486588 ], [ 19.4935547, 54.249103 ], [ 19.4935521, 54.2491856 ], [ 19.4935366, 54.2499151 ], [ 19.4935158, 54.2499704 ], [ 19.49342, 54.2501433 ], [ 19.4932991, 54.2502508 ], [ 19.4920817, 54.2507107 ], [ 19.4924154, 54.2509489 ], [ 19.4925786, 54.2510275 ], [ 19.4917674, 54.2513884 ], [ 19.4913794, 54.2509979 ], [ 19.4911265, 54.2510692 ], [ 19.4902637, 54.2512581 ], [ 19.4898778, 54.2513455 ], [ 19.4888665, 54.2515773 ], [ 19.4882793, 54.2517186 ], [ 19.487235, 54.2520073 ], [ 19.4859813, 54.2523211 ], [ 19.4855905, 54.2523908 ], [ 19.484529, 54.2525064 ], [ 19.4830822, 54.2526074 ], [ 19.4822497, 54.2526694 ], [ 19.4816319, 54.2526974 ], [ 19.4812512, 54.2526939 ], [ 19.4808727, 54.2526636 ], [ 19.4802153, 54.2525915 ], [ 19.4795847, 54.2525067 ], [ 19.4790463, 54.2524477 ], [ 19.4782391, 54.2523093 ], [ 19.4777401, 54.2522062 ], [ 19.4774846, 54.2521829 ], [ 19.4773722, 54.2521806 ], [ 19.4773232, 54.2521797 ], [ 19.4772716, 54.2521813 ], [ 19.4769365, 54.2515535 ], [ 19.4768943, 54.2514746 ], [ 19.4766768, 54.2510732 ], [ 19.4764817, 54.2506908 ], [ 19.4763922, 54.2505364 ], [ 19.4763069, 54.2504248 ], [ 19.476128, 54.2502526 ], [ 19.4757987, 54.2499735 ], [ 19.4752417, 54.2495293 ], [ 19.4748677, 54.2492312 ], [ 19.4741461, 54.2486576 ], [ 19.4741151, 54.2486754 ], [ 19.4740973, 54.2486857 ], [ 19.4735057, 54.2490261 ], [ 19.4736491, 54.2491578 ], [ 19.4738037, 54.2493004 ], [ 19.4746482, 54.2497722 ], [ 19.4745364, 54.2499183 ], [ 19.4744647, 54.2500029 ], [ 19.4743341, 54.2500937 ], [ 19.4741883, 54.2501328 ], [ 19.4739422, 54.2503399 ], [ 19.4738927, 54.2504113 ], [ 19.4738258, 54.2504346 ], [ 19.4738133, 54.250456 ], [ 19.473799, 54.2505304 ], [ 19.4737147, 54.2506822 ], [ 19.473689, 54.2507291 ], [ 19.473683, 54.2508155 ], [ 19.4736584, 54.2509075 ], [ 19.4736072, 54.2510834 ], [ 19.4735438, 54.2511292 ], [ 19.4734867, 54.2511856 ], [ 19.4734535, 54.2512367 ], [ 19.4733667, 54.2512984 ], [ 19.4733874, 54.2513241 ], [ 19.4733021, 54.2513788 ], [ 19.4731752, 54.2514791 ], [ 19.4731079, 54.2515367 ], [ 19.4730032, 54.2516147 ], [ 19.4729728, 54.2516263 ], [ 19.4729323, 54.2516181 ], [ 19.4728581, 54.2516787 ], [ 19.4727274, 54.251696 ], [ 19.472501, 54.2516702 ], [ 19.4724589, 54.2516403 ], [ 19.4724224, 54.2515867 ], [ 19.4723763, 54.2516367 ], [ 19.4722663, 54.2517036 ], [ 19.4721458, 54.2517041 ], [ 19.4720629, 54.2516994 ], [ 19.4719915, 54.2517821 ], [ 19.4718615, 54.2518832 ], [ 19.4716858, 54.2519589 ], [ 19.4715612, 54.2519795 ], [ 19.4713347, 54.2519626 ], [ 19.4710264, 54.2518878 ], [ 19.4708508, 54.2519425 ], [ 19.4704529, 54.2519154 ], [ 19.4703332, 54.2517956 ], [ 19.4701414, 54.2517809 ], [ 19.4700768, 54.2517201 ], [ 19.4699706, 54.2516904 ], [ 19.469802, 54.2517057 ], [ 19.4696404, 54.2516681 ], [ 19.4694741, 54.2516833 ], [ 19.4693934, 54.2517439 ], [ 19.4692521, 54.2517604 ], [ 19.4691937, 54.2517233 ], [ 19.4690534, 54.2517517 ], [ 19.4688133, 54.2516785 ], [ 19.4686985, 54.2516043 ], [ 19.4685862, 54.251574 ], [ 19.4683847, 54.2514978 ], [ 19.4683475, 54.2514736 ], [ 19.4682839, 54.2514884 ], [ 19.4681076, 54.2514735 ], [ 19.468033, 54.2514779 ], [ 19.467916, 54.2514192 ], [ 19.4678123, 54.2513911 ], [ 19.4677424, 54.2513418 ], [ 19.4676739, 54.2513207 ], [ 19.4675587, 54.251309 ], [ 19.467486, 54.2512516 ], [ 19.4673776, 54.251204 ], [ 19.4672983, 54.2511869 ], [ 19.467022, 54.2512012 ], [ 19.4669063, 54.2511802 ], [ 19.4667797, 54.2511845 ], [ 19.4667068, 54.2511585 ], [ 19.4664781, 54.251121 ], [ 19.4663488, 54.2510458 ], [ 19.4662937, 54.2509881 ], [ 19.46611, 54.250921 ], [ 19.4658912, 54.2507293 ], [ 19.4657012, 54.2505275 ], [ 19.4657415, 54.2504691 ], [ 19.4653144, 54.2504894 ], [ 19.4652625, 54.2505122 ], [ 19.4651337, 54.2506224 ], [ 19.4650453, 54.2506329 ], [ 19.4649471, 54.2506188 ], [ 19.4648552, 54.2506371 ], [ 19.4646367, 54.2507495 ], [ 19.4645244, 54.250793 ], [ 19.4645388, 54.2508408 ], [ 19.464445, 54.2509383 ], [ 19.4643373, 54.2509902 ], [ 19.4642412, 54.251119 ], [ 19.4641868, 54.2511839 ], [ 19.4640935, 54.2512381 ], [ 19.4640153, 54.2512579 ], [ 19.4638991, 54.2512413 ], [ 19.4638404, 54.2512723 ], [ 19.4637474, 54.2513023 ], [ 19.4636501, 54.251275 ], [ 19.4636279, 54.2512232 ], [ 19.4635454, 54.2512194 ], [ 19.4633796, 54.2512431 ], [ 19.46324, 54.2512821 ], [ 19.4630568, 54.2514223 ], [ 19.4629689, 54.2514765 ], [ 19.4628597, 54.2515469 ], [ 19.4627307, 54.2516245 ], [ 19.4626423, 54.2516824 ], [ 19.4626111, 54.2517964 ], [ 19.4626135, 54.2518722 ], [ 19.4625426, 54.2518951 ], [ 19.4625291, 54.2519568 ], [ 19.462341, 54.2520639 ], [ 19.4622066, 54.2521116 ], [ 19.4621684, 54.2521363 ], [ 19.4620719, 54.2521788 ], [ 19.462093, 54.2522121 ], [ 19.4620462, 54.2522659 ], [ 19.4619862, 54.2522995 ], [ 19.4619884, 54.2523793 ], [ 19.4619597, 54.2525524 ], [ 19.4619853, 54.2526214 ], [ 19.4619324, 54.2527615 ], [ 19.4618254, 54.2528824 ], [ 19.461796, 54.2529266 ], [ 19.4616862, 54.2530149 ], [ 19.4616155, 54.2531533 ], [ 19.4613884, 54.2533895 ], [ 19.4613726, 54.2535241 ], [ 19.4613293, 54.2536149 ], [ 19.4613317, 54.2536238 ], [ 19.4613207, 54.2537141 ], [ 19.4612736, 54.25384 ], [ 19.461346, 54.2539322 ], [ 19.4613942, 54.2540631 ], [ 19.461365, 54.2541247 ], [ 19.461327, 54.2541498 ], [ 19.4612557, 54.2541776 ], [ 19.4611107, 54.2541847 ], [ 19.4609698, 54.2541374 ], [ 19.4609346, 54.2541786 ], [ 19.4608745, 54.254223 ], [ 19.460808, 54.2542603 ], [ 19.4608155, 54.2543124 ], [ 19.4606352, 54.2543534 ], [ 19.4606047, 54.254401 ], [ 19.4605364, 54.2544339 ], [ 19.4604929, 54.2544676 ], [ 19.46045, 54.2544946 ], [ 19.4603434, 54.2546014 ], [ 19.4602913, 54.2546341 ], [ 19.4602392, 54.2546947 ], [ 19.4601552, 54.2547382 ], [ 19.4601427, 54.2547972 ], [ 19.4601007, 54.254846 ], [ 19.4601631, 54.2550799 ], [ 19.460219, 54.2551391 ], [ 19.4602443, 54.2551944 ], [ 19.4602783, 54.2552509 ], [ 19.4603363, 54.2553546 ], [ 19.4602582, 54.2553939 ], [ 19.4601524, 54.2554455 ], [ 19.4599366, 54.2555233 ], [ 19.459823, 54.2555316 ], [ 19.4597089, 54.2555325 ], [ 19.4596789, 54.2555718 ], [ 19.4596411, 54.2556238 ], [ 19.4595701, 54.2556583 ], [ 19.4596539, 54.2557325 ], [ 19.4596934, 54.2557675 ], [ 19.4597033, 54.2558138 ], [ 19.4596165, 54.2558567 ], [ 19.4595135, 54.2559077 ], [ 19.4593349, 54.2559375 ], [ 19.45926, 54.2559409 ], [ 19.4591828, 54.2559443 ], [ 19.4590939, 54.25593 ], [ 19.4589859, 54.2559126 ], [ 19.4589858, 54.2559126 ], [ 19.4590204, 54.2559594 ], [ 19.4590285, 54.2559703 ], [ 19.4590156, 54.2560376 ], [ 19.4590067, 54.2560839 ], [ 19.4589356, 54.2561082 ], [ 19.458859, 54.2561343 ], [ 19.4588135, 54.2561624 ], [ 19.4587983, 54.2561719 ], [ 19.4586694, 54.2561402 ], [ 19.4584925, 54.256016 ], [ 19.4584603, 54.2560103 ], [ 19.4584119, 54.2560017 ], [ 19.4583373, 54.2560291 ], [ 19.4583406, 54.2560714 ], [ 19.4583408, 54.2560733 ], [ 19.4582138, 54.2561714 ], [ 19.4581338, 54.2562475 ], [ 19.4579608, 54.2562839 ], [ 19.4576606, 54.2562355 ], [ 19.4575502, 54.2562491 ], [ 19.4575362, 54.2563515 ], [ 19.4572347, 54.2563441 ], [ 19.4571733, 54.2563287 ], [ 19.4571105, 54.2563103 ], [ 19.4570173, 54.2562828 ], [ 19.4569179, 54.2564037 ], [ 19.4569706, 54.2564672 ], [ 19.4569542, 54.256497 ], [ 19.4569382, 54.2565257 ], [ 19.4568633, 54.2565664 ], [ 19.4567697, 54.2565726 ], [ 19.4565049, 54.2565906 ], [ 19.4564967, 54.2565877 ], [ 19.4564283, 54.2565636 ], [ 19.4564458, 54.2565377 ], [ 19.4564727, 54.2564983 ], [ 19.4564575, 54.2564402 ], [ 19.4563659, 54.2564531 ], [ 19.4561868, 54.256541 ], [ 19.4560693, 54.2565763 ], [ 19.4560135, 54.2566303 ], [ 19.4560492, 54.2567241 ], [ 19.4560069, 54.2568109 ], [ 19.4559103, 54.2568342 ], [ 19.4555925, 54.256922 ], [ 19.455579, 54.2569257 ], [ 19.4555717, 54.2569336 ], [ 19.4554678, 54.2570462 ], [ 19.4552514, 54.2570919 ], [ 19.4552044, 54.2571019 ], [ 19.4551313, 54.2570848 ], [ 19.4550989, 54.2570441 ], [ 19.455071, 54.2570089 ], [ 19.4550038, 54.2570379 ], [ 19.4549116, 54.2570776 ], [ 19.4548253, 54.2570849 ], [ 19.4548162, 54.2570805 ], [ 19.4547555, 54.257051 ], [ 19.4546753, 54.2570659 ], [ 19.4546448, 54.2570936 ], [ 19.454586, 54.2571471 ], [ 19.4544419, 54.2571744 ], [ 19.4544176, 54.2571595 ], [ 19.4543672, 54.2571287 ], [ 19.4543422, 54.2570691 ], [ 19.4542623, 54.2570692 ], [ 19.4540146, 54.2571325 ], [ 19.4539046, 54.2571605 ], [ 19.4538195, 54.2571405 ], [ 19.4537741, 54.2570883 ], [ 19.4537862, 54.2570601 ], [ 19.4537475, 54.2570325 ], [ 19.4536918, 54.2570224 ], [ 19.4536557, 54.2570158 ], [ 19.4535749, 54.2570668 ], [ 19.4536866, 54.2572166 ], [ 19.4537042, 54.2572424 ], [ 19.4537145, 54.2572576 ], [ 19.4536272, 54.2572932 ], [ 19.4534411, 54.2572856 ], [ 19.4533359, 54.2572477 ], [ 19.4533224, 54.2572094 ], [ 19.4532576, 54.2572014 ], [ 19.4532328, 54.2572124 ], [ 19.4532166, 54.2572198 ], [ 19.4532106, 54.2573138 ], [ 19.4531759, 54.2573597 ], [ 19.4531299, 54.2574207 ], [ 19.4530152, 54.2574363 ], [ 19.4528404, 54.2574569 ], [ 19.4528137, 54.2575182 ], [ 19.452805, 54.257538 ], [ 19.4526839, 54.25758 ], [ 19.4525852, 54.2576141 ], [ 19.4525663, 54.2576353 ], [ 19.4525336, 54.2576718 ], [ 19.4524262, 54.2576937 ], [ 19.4523719, 54.2576771 ], [ 19.4523332, 54.2576652 ], [ 19.4522271, 54.2575869 ], [ 19.4521491, 54.2575667 ], [ 19.4520741, 54.2575472 ], [ 19.4519981, 54.2575122 ], [ 19.4519784, 54.2575031 ], [ 19.4518978, 54.2574617 ], [ 19.4518335, 54.2574817 ], [ 19.4517912, 54.2574917 ], [ 19.4517059, 54.2575119 ], [ 19.4516132, 54.2575559 ], [ 19.4516069, 54.2575973 ], [ 19.451584, 54.2577497 ], [ 19.4515855, 54.2578198 ], [ 19.4515861, 54.2578471 ], [ 19.4515, 54.2579034 ], [ 19.4514848, 54.257959 ], [ 19.4514423, 54.2579949 ], [ 19.4514271, 54.258047 ], [ 19.451355, 54.2580729 ], [ 19.4513534, 54.2580736 ], [ 19.451166, 54.2580853 ], [ 19.4511238, 54.2581113 ], [ 19.4510791, 54.2581387 ], [ 19.4509547, 54.2582435 ], [ 19.450867, 54.2582613 ], [ 19.450708, 54.2581902 ], [ 19.4506559, 54.2581668 ], [ 19.4504703, 54.2581447 ], [ 19.4504375, 54.2581216 ], [ 19.4503527, 54.258062 ], [ 19.450279, 54.2580475 ], [ 19.450125, 54.258092 ], [ 19.4499911, 54.2580531 ], [ 19.4498407, 54.257957 ], [ 19.4496761, 54.2579649 ], [ 19.4494733, 54.257949 ], [ 19.4493107, 54.2580254 ], [ 19.4492399, 54.2580046 ], [ 19.4491052, 54.2579651 ], [ 19.4490324, 54.2579524 ], [ 19.44895, 54.2579381 ], [ 19.4489305, 54.2579218 ], [ 19.4489139, 54.257908 ], [ 19.4488879, 54.2578588 ], [ 19.4487734, 54.2578217 ], [ 19.4487033, 54.2578282 ], [ 19.448441, 54.2579304 ], [ 19.4484113, 54.25794 ], [ 19.4483786, 54.2579506 ], [ 19.4483038, 54.2579058 ], [ 19.4482668, 54.2578835 ], [ 19.4483196, 54.2578018 ], [ 19.4482869, 54.2577125 ], [ 19.4482031, 54.2576554 ], [ 19.4481418, 54.2576635 ], [ 19.4481237, 54.2576658 ], [ 19.4480018, 54.2576959 ], [ 19.4477666, 54.257755 ], [ 19.4477213, 54.2577728 ], [ 19.4476303, 54.2578085 ], [ 19.4474772, 54.2578235 ], [ 19.4473946, 54.257851 ], [ 19.4473971, 54.2578538 ], [ 19.4475548, 54.2580342 ], [ 19.4474294, 54.2580874 ], [ 19.4471807, 54.2580616 ], [ 19.4468924, 54.2580873 ], [ 19.4468004, 54.2580846 ], [ 19.4467218, 54.2580571 ], [ 19.4466548, 54.2580337 ], [ 19.4466212, 54.2579659 ], [ 19.4466166, 54.25788 ], [ 19.4466159, 54.2578177 ], [ 19.4466121, 54.2577488 ], [ 19.4463997, 54.2577023 ], [ 19.4461727, 54.2576871 ], [ 19.4461496, 54.2576816 ], [ 19.4461168, 54.2576739 ], [ 19.4460902, 54.257655 ], [ 19.4460771, 54.2576456 ], [ 19.4460439, 54.2576506 ], [ 19.4460493, 54.2576795 ], [ 19.4460537, 54.2577027 ], [ 19.4460301, 54.2577489 ], [ 19.4460043, 54.2577582 ], [ 19.4459466, 54.2577789 ], [ 19.4458569, 54.2579341 ], [ 19.4458, 54.2579721 ], [ 19.4457997, 54.2579723 ], [ 19.4457994, 54.2579725 ], [ 19.4457283, 54.2580113 ], [ 19.4458602, 54.2580276 ], [ 19.4458556, 54.2580393 ], [ 19.4458282, 54.2581087 ], [ 19.4457707, 54.2581257 ], [ 19.4457617, 54.2582238 ], [ 19.4458132, 54.2582537 ], [ 19.4458237, 54.2582686 ], [ 19.4458464, 54.2583007 ], [ 19.4458041, 54.2583312 ], [ 19.4456684, 54.2583657 ], [ 19.4454364, 54.258451 ], [ 19.4454456, 54.258464 ], [ 19.4454473, 54.2584665 ], [ 19.4454434, 54.2584965 ], [ 19.4454621, 54.258522 ], [ 19.4454192, 54.258568 ], [ 19.4453389, 54.2585666 ], [ 19.4452713, 54.2585995 ], [ 19.4450699, 54.2586989 ], [ 19.4450543, 54.2587066 ], [ 19.4449815, 54.2586949 ], [ 19.4449643, 54.2586473 ], [ 19.4449625, 54.2586427 ], [ 19.444961, 54.2586372 ], [ 19.4449516, 54.2586064 ], [ 19.4448268, 54.2585685 ], [ 19.4447741, 54.2585822 ], [ 19.4446972, 54.2586567 ], [ 19.4447181, 54.2586849 ], [ 19.4447313, 54.258703 ], [ 19.4447957, 54.2587375 ], [ 19.4448082, 54.2587525 ], [ 19.4448486, 54.2588016 ], [ 19.4448445, 54.2588185 ], [ 19.4448376, 54.2588471 ], [ 19.4447697, 54.2588973 ], [ 19.4445978, 54.258993 ], [ 19.4445755, 54.2590054 ], [ 19.4445028, 54.2590526 ], [ 19.4443874, 54.2590677 ], [ 19.444284, 54.2590991 ], [ 19.4443278, 54.2591949 ], [ 19.4443061, 54.2592189 ], [ 19.4442714, 54.2592574 ], [ 19.4442744, 54.2592656 ], [ 19.4441562, 54.2592867 ], [ 19.4440598, 54.2593036 ], [ 19.4440746, 54.2593512 ], [ 19.4440129, 54.2594531 ], [ 19.4438996, 54.2595419 ], [ 19.443807, 54.2596446 ], [ 19.4438093, 54.2597239 ], [ 19.4438598, 54.2597947 ], [ 19.443889, 54.2598589 ], [ 19.4439224, 54.2599317 ], [ 19.443914, 54.2599932 ], [ 19.4439039, 54.2600669 ], [ 19.4438532, 54.2601722 ], [ 19.443879, 54.2602243 ], [ 19.4439551, 54.2603506 ], [ 19.4437298, 54.2604866 ], [ 19.4435355, 54.2604745 ], [ 19.443469, 54.2605139 ], [ 19.4433526, 54.2605439 ], [ 19.4432569, 54.2605268 ], [ 19.4431988, 54.2605164 ], [ 19.4431489, 54.260493 ], [ 19.4431148, 54.260477 ], [ 19.4429881, 54.2604721 ], [ 19.4428626, 54.260503 ], [ 19.4428205, 54.2605169 ], [ 19.442814, 54.2605319 ], [ 19.4428084, 54.2605442 ], [ 19.4427997, 54.2605815 ], [ 19.4427899, 54.2606239 ], [ 19.4427673, 54.2606506 ], [ 19.442723, 54.2607028 ], [ 19.4426344, 54.2607323 ], [ 19.4425825, 54.260787 ], [ 19.4424672, 54.2608293 ], [ 19.4424138, 54.2608489 ], [ 19.4423357, 54.2608671 ], [ 19.4422756, 54.260991 ], [ 19.4422745, 54.2609932 ], [ 19.4422334, 54.2610867 ], [ 19.4422038, 54.2611189 ], [ 19.4421742, 54.2611509 ], [ 19.4421182, 54.2612416 ], [ 19.4420938, 54.2612814 ], [ 19.4420836, 54.2612888 ], [ 19.442035, 54.2613244 ], [ 19.4419811, 54.261343 ], [ 19.4419363, 54.2613585 ], [ 19.44186, 54.2613337 ], [ 19.4418484, 54.26133 ], [ 19.441692, 54.261346 ], [ 19.4415044, 54.2613651 ], [ 19.4415912, 54.26147 ], [ 19.4415631, 54.2614871 ], [ 19.441495, 54.2615285 ], [ 19.4413766, 54.2615634 ], [ 19.4413384, 54.2615746 ], [ 19.4410956, 54.2615885 ], [ 19.4410662, 54.2616071 ], [ 19.4410541, 54.2616847 ], [ 19.4410507, 54.261742 ], [ 19.4410441, 54.2618552 ], [ 19.4409922, 54.2619082 ], [ 19.4409203, 54.2618931 ], [ 19.4408589, 54.2618802 ], [ 19.4408496, 54.2620018 ], [ 19.4407599, 54.2620429 ], [ 19.4405218, 54.261993 ], [ 19.4404397, 54.2619628 ], [ 19.4403212, 54.2619192 ], [ 19.440258, 54.2619455 ], [ 19.4402401, 54.2620227 ], [ 19.440234, 54.2620779 ], [ 19.4402275, 54.2621361 ], [ 19.4401956, 54.2622495 ], [ 19.4402364, 54.262308 ], [ 19.4402943, 54.2623908 ], [ 19.4403244, 54.2624339 ], [ 19.4403264, 54.2624351 ], [ 19.4404494, 54.2625049 ], [ 19.4405587, 54.2625868 ], [ 19.4405715, 54.2626924 ], [ 19.4405303, 54.2627785 ], [ 19.4403657, 54.2629294 ], [ 19.4402683, 54.2629664 ], [ 19.4402031, 54.262942 ], [ 19.4401093, 54.2629438 ], [ 19.4400583, 54.262928 ], [ 19.440012, 54.2629812 ], [ 19.4401046, 54.2631573 ], [ 19.4400766, 54.263204 ], [ 19.439869, 54.2632569 ], [ 19.4397679, 54.2632102 ], [ 19.439732, 54.2631202 ], [ 19.4396291, 54.2630953 ], [ 19.4395428, 54.2631119 ], [ 19.4393608, 54.2632074 ], [ 19.4391934, 54.263234 ], [ 19.4390425, 54.2631117 ], [ 19.4389761, 54.2630438 ], [ 19.4389185, 54.2629865 ], [ 19.4385715, 54.262765 ], [ 19.4385279, 54.2627429 ], [ 19.4384853, 54.2627212 ], [ 19.4383785, 54.2627574 ], [ 19.4382472, 54.2628581 ], [ 19.438174, 54.2628744 ], [ 19.4381075, 54.2628891 ], [ 19.4379591, 54.2628592 ], [ 19.4379239, 54.2628703 ], [ 19.4377964, 54.2629109 ], [ 19.4376689, 54.2628776 ], [ 19.4374573, 54.262864 ], [ 19.4373548, 54.2628399 ], [ 19.4372702, 54.2627557 ], [ 19.4369906, 54.262709 ], [ 19.4369459, 54.2627317 ], [ 19.4368074, 54.2628102 ], [ 19.4367416, 54.2628494 ], [ 19.4368284, 54.2629254 ], [ 19.4368419, 54.2629806 ], [ 19.4368049, 54.2630367 ], [ 19.4367849, 54.263067 ], [ 19.4367493, 54.2630807 ], [ 19.4366624, 54.2631142 ], [ 19.4366149, 54.2631175 ], [ 19.4364027, 54.2631234 ], [ 19.4363721, 54.2631313 ], [ 19.4363303, 54.2631506 ], [ 19.4361632, 54.2632271 ], [ 19.4361344, 54.2632278 ], [ 19.4361021, 54.2632223 ], [ 19.4359493, 54.2631758 ], [ 19.4359003, 54.2631665 ], [ 19.4358746, 54.2631721 ], [ 19.4358559, 54.263179 ], [ 19.4358056, 54.2632255 ], [ 19.4357737, 54.2632308 ], [ 19.4357369, 54.2632249 ], [ 19.4354309, 54.2630925 ], [ 19.4353203, 54.263008 ], [ 19.4352681, 54.262974 ], [ 19.4352097, 54.2629635 ], [ 19.4351506, 54.2629657 ], [ 19.4350869, 54.2629776 ], [ 19.4350278, 54.2629939 ], [ 19.4349864, 54.2630053 ], [ 19.4348422, 54.2630616 ], [ 19.4348298, 54.2630263 ], [ 19.4351906, 54.2628053 ], [ 19.4352604, 54.2627626 ], [ 19.4352508, 54.2626829 ], [ 19.43523, 54.262508 ], [ 19.43528, 54.2624028 ], [ 19.4357458, 54.2619391 ], [ 19.4361504, 54.2614953 ], [ 19.4357995, 54.2611641 ], [ 19.4357544, 54.2611118 ], [ 19.4357798, 54.2610874 ], [ 19.4358236, 54.2610455 ], [ 19.4358629, 54.261004 ], [ 19.4360257, 54.2609571 ], [ 19.436051, 54.2608632 ], [ 19.4360771, 54.2608355 ], [ 19.436088, 54.2608241 ], [ 19.436087, 54.2608039 ], [ 19.436086, 54.260782 ], [ 19.4361309, 54.260742 ], [ 19.4361406, 54.2607333 ], [ 19.4361399, 54.2607318 ], [ 19.4360604, 54.2605685 ], [ 19.4360783, 54.2604848 ], [ 19.436162, 54.2604404 ], [ 19.4361902, 54.2604243 ], [ 19.4363931, 54.2603096 ], [ 19.4364491, 54.2602164 ], [ 19.4364939, 54.2601758 ], [ 19.4363664, 54.2601119 ], [ 19.4361878, 54.2600379 ], [ 19.4361214, 54.2599716 ], [ 19.4360429, 54.2598931 ], [ 19.4359257, 54.259832 ], [ 19.4358435, 54.2597468 ], [ 19.4358357, 54.2596557 ], [ 19.4357656, 54.2595327 ], [ 19.4357293, 54.259469 ], [ 19.4357584, 54.2594319 ], [ 19.4357547, 54.2593925 ], [ 19.4357525, 54.2593684 ], [ 19.4356734, 54.2592622 ], [ 19.4355629, 54.2590646 ], [ 19.4355375, 54.2590193 ], [ 19.4352736, 54.2586174 ], [ 19.4350682, 54.2583308 ], [ 19.4349411, 54.2581767 ], [ 19.4348647, 54.2581299 ], [ 19.4344664, 54.2581085 ], [ 19.4339826, 54.2580707 ], [ 19.4330517, 54.2578691 ], [ 19.4335787, 54.2574128 ], [ 19.4342372, 54.25683 ], [ 19.4346868, 54.2564368 ], [ 19.4348756, 54.2562649 ], [ 19.4348962, 54.2561799 ], [ 19.4348747, 54.2561221 ], [ 19.4342078, 54.255629 ], [ 19.4340798, 54.2557057 ], [ 19.4338102, 54.2558468 ], [ 19.4336638, 54.2558705 ], [ 19.4325953, 54.2560436 ], [ 19.4322915, 54.2556661 ], [ 19.4321696, 54.2555466 ], [ 19.431998, 54.2554395 ], [ 19.4318692, 54.2554033 ], [ 19.4317489, 54.255402 ], [ 19.4316216, 54.2554242 ], [ 19.4314428, 54.255463 ], [ 19.4312719, 54.2554978 ], [ 19.4311182, 54.2554952 ], [ 19.4303434, 54.2554066 ], [ 19.4297754, 54.2553635 ], [ 19.4289201, 54.2552374 ], [ 19.428478, 54.2551743 ], [ 19.4283286, 54.2551853 ], [ 19.4289661, 54.2533918 ], [ 19.4290439, 54.2531738 ], [ 19.42908, 54.2530725 ], [ 19.4291079, 54.2529978 ], [ 19.4292316, 54.2527011 ], [ 19.429249, 54.2526594 ], [ 19.429709, 54.2514817 ], [ 19.4301451, 54.2506084 ], [ 19.4301615, 54.2505555 ], [ 19.4304066, 54.2496387 ], [ 19.430423, 54.2487083 ], [ 19.4306009, 54.2482902 ], [ 19.4307373, 54.2478429 ], [ 19.4308572, 54.2477162 ], [ 19.431016, 54.2475924 ], [ 19.4314166, 54.2473443 ], [ 19.4321776, 54.2467814 ], [ 19.4332622, 54.2459839 ], [ 19.4339655, 54.2454708 ], [ 19.4341484, 54.2453361 ], [ 19.4343358, 54.2451981 ], [ 19.4348822, 54.2448718 ], [ 19.4353541, 54.244561 ], [ 19.4357002, 54.2443331 ], [ 19.4367397, 54.2435812 ], [ 19.4369696, 54.2433805 ], [ 19.4370246, 54.243335 ], [ 19.4371643, 54.2432192 ], [ 19.4372742, 54.2431281 ], [ 19.4377879, 54.2427024 ], [ 19.4379282, 54.2426251 ], [ 19.4379734, 54.2426002 ], [ 19.4377051, 54.2417772 ], [ 19.4369758, 54.2415959 ], [ 19.4367819, 54.2415223 ], [ 19.4363214, 54.2413473 ], [ 19.4361661, 54.2412485 ], [ 19.4358541, 54.2410502 ], [ 19.4357364, 54.2408986 ], [ 19.435706, 54.2408596 ], [ 19.4355604, 54.2407738 ], [ 19.435389, 54.2406395 ], [ 19.4354896, 54.2404486 ], [ 19.4356447, 54.24036 ], [ 19.435911, 54.2402079 ], [ 19.4363481, 54.2400302 ], [ 19.4364507, 54.2399969 ], [ 19.4366261, 54.2399401 ], [ 19.4366584, 54.2399174 ], [ 19.4367182, 54.2398753 ], [ 19.4373295, 54.2400224 ], [ 19.4375941, 54.240065 ], [ 19.4379255, 54.2402248 ], [ 19.4383343, 54.2404035 ], [ 19.4386024, 54.2405169 ], [ 19.4392477, 54.2402235 ], [ 19.4391488, 54.240062 ], [ 19.4388059, 54.2395022 ], [ 19.4387242, 54.2394259 ], [ 19.4385049, 54.2392211 ], [ 19.4381675, 54.2390286 ], [ 19.4378339, 54.2388946 ], [ 19.43749, 54.2387564 ], [ 19.4368218, 54.2385655 ], [ 19.4361714, 54.2386148 ], [ 19.4358605, 54.2387876 ], [ 19.4354618, 54.2390092 ], [ 19.4346163, 54.2387387 ], [ 19.4341695, 54.2385771 ], [ 19.4337722, 54.238289 ], [ 19.4339539, 54.2381898 ], [ 19.4340828, 54.2379684 ], [ 19.4342117, 54.2377536 ], [ 19.4341952, 54.2375223 ], [ 19.4341919, 54.2372282 ], [ 19.4342051, 54.236868 ], [ 19.4342381, 54.2366598 ], [ 19.4342945, 54.2365026 ], [ 19.4342976, 54.236336 ], [ 19.4342872, 54.2362373 ], [ 19.434258, 54.2359592 ], [ 19.4342414, 54.2358271 ], [ 19.434291, 54.2356387 ], [ 19.4342844, 54.235533 ], [ 19.434096, 54.2353314 ], [ 19.4338647, 54.2352025 ], [ 19.433759, 54.2351166 ], [ 19.4337524, 54.234991 ], [ 19.4339539, 54.2348654 ], [ 19.4341489, 54.2347861 ], [ 19.4345884, 54.2345151 ], [ 19.4348462, 54.2337419 ], [ 19.4350071, 54.2336147 ], [ 19.4352851, 54.233498 ], [ 19.4363956, 54.2332488 ], [ 19.4367755, 54.2332552 ], [ 19.4371035, 54.2332569 ], [ 19.4374582, 54.2332207 ], [ 19.43807, 54.2331138 ], [ 19.438752, 54.232999 ], [ 19.4392419, 54.232953 ], [ 19.4418721, 54.2327845 ], [ 19.4442165, 54.232542 ], [ 19.4444113, 54.2325219 ], [ 19.4446054, 54.2325986 ], [ 19.4450563, 54.2330254 ], [ 19.4455525, 54.2335038 ], [ 19.4458316, 54.2335166 ], [ 19.4460372, 54.2335293 ], [ 19.4461889, 54.2332495 ], [ 19.4465312, 54.2330067 ], [ 19.4467835, 54.2328833 ], [ 19.4472536, 54.2326765 ], [ 19.4477234, 54.232326 ], [ 19.4479187, 54.232119 ], [ 19.448261, 54.2320426 ], [ 19.4486182, 54.2320141 ], [ 19.4490121, 54.2321537 ], [ 19.4496204, 54.232713 ], [ 19.4504399, 54.2325029 ], [ 19.4520334, 54.2319879 ], [ 19.4527387, 54.2316959 ], [ 19.4529951, 54.2317708 ], [ 19.4531973, 54.2317605 ], [ 19.4538836, 54.2315786 ], [ 19.4541823, 54.231511 ], [ 19.4545726, 54.231432 ], [ 19.4547122, 54.2314038 ], [ 19.4546599, 54.2313045 ], [ 19.4546086, 54.2312102 ], [ 19.4545034, 54.2310169 ], [ 19.4542878, 54.2306215 ], [ 19.4541863, 54.230424 ], [ 19.454044, 54.2301626 ], [ 19.4539546, 54.2299832 ], [ 19.4539058, 54.2298489 ], [ 19.4538611, 54.2296232 ], [ 19.4538387, 54.2294295 ], [ 19.4538184, 54.2291823 ], [ 19.4537925, 54.2286813 ], [ 19.4535751, 54.2287224 ], [ 19.453287, 54.2287738 ], [ 19.4528913, 54.228853 ], [ 19.4527866, 54.2289379 ], [ 19.4524818, 54.2291845 ], [ 19.4522922, 54.2293455 ], [ 19.4521644, 54.2294155 ], [ 19.4515866, 54.2297362 ], [ 19.4511936, 54.2294089 ], [ 19.4507767, 54.2290616 ], [ 19.4504852, 54.2288188 ], [ 19.4503455, 54.2287076 ], [ 19.4500744, 54.2284767 ], [ 19.4498422, 54.2282833 ], [ 19.4497313, 54.2281909 ], [ 19.4495368, 54.2280289 ], [ 19.4493604, 54.227882 ], [ 19.4492613, 54.2277994 ], [ 19.4490605, 54.227643 ], [ 19.4490188, 54.227586 ], [ 19.4485233, 54.2271847 ], [ 19.4480009, 54.2267415 ], [ 19.4475869, 54.2268466 ], [ 19.4464457, 54.2257001 ], [ 19.4446935, 54.2239588 ], [ 19.4430997, 54.2226338 ], [ 19.4421258, 54.2219043 ], [ 19.4416648, 54.2215515 ], [ 19.4392935, 54.2197353 ], [ 19.4387967, 54.2193032 ], [ 19.4380219, 54.2186294 ], [ 19.4386826, 54.2184948 ], [ 19.4386224, 54.21841 ], [ 19.4384942, 54.2183463 ], [ 19.4381966, 54.2182672 ], [ 19.4379855, 54.2181533 ], [ 19.4378881, 54.2179824 ], [ 19.4377671, 54.2179277 ], [ 19.4375611, 54.2179574 ], [ 19.4372278, 54.2180077 ], [ 19.4370682, 54.2180078 ], [ 19.4368436, 54.2179603 ], [ 19.4366055, 54.2178812 ], [ 19.4362916, 54.2179065 ], [ 19.4353087, 54.2180878 ], [ 19.4332132, 54.2184784 ], [ 19.4330334, 54.2184861 ], [ 19.4327955, 54.2184444 ], [ 19.4324738, 54.2182141 ], [ 19.4320205, 54.2178897 ], [ 19.431686, 54.2176502 ], [ 19.4316853, 54.2175952 ], [ 19.4317672, 54.2175552 ], [ 19.4334449, 54.2172546 ], [ 19.4335916, 54.2172095 ], [ 19.4336833, 54.2171097 ], [ 19.4337249, 54.2170298 ], [ 19.4337219, 54.2169667 ], [ 19.4335972, 54.2168118 ], [ 19.4334286, 54.2166122 ], [ 19.4333351, 54.2164584 ], [ 19.4332847, 54.2163804 ], [ 19.4333424, 54.2162667 ], [ 19.4334588, 54.2161935 ], [ 19.4338964, 54.2160603 ], [ 19.4338201, 54.2158342 ], [ 19.4336934, 54.2157958 ], [ 19.4336184, 54.2157556 ], [ 19.4335249, 54.2157718 ], [ 19.4334839, 54.215815 ], [ 19.4334921, 54.2158917 ], [ 19.4334921, 54.2159636 ], [ 19.4333609, 54.2159828 ], [ 19.4331641, 54.2159972 ], [ 19.4330382, 54.2160663 ], [ 19.4324968, 54.2161054 ], [ 19.4318462, 54.2161689 ], [ 19.4310623, 54.2162454 ], [ 19.4289883, 54.216397 ], [ 19.4281366, 54.2164319 ], [ 19.4271695, 54.2164717 ], [ 19.425505, 54.2165373 ], [ 19.4251456, 54.2165514 ], [ 19.4247147, 54.2165682 ], [ 19.423104, 54.2165697 ], [ 19.4225495, 54.2165902 ], [ 19.4221176, 54.2165561 ], [ 19.4217266, 54.21658 ], [ 19.4213064, 54.2166209 ], [ 19.4208337, 54.2166414 ], [ 19.4200983, 54.2166585 ], [ 19.4192696, 54.2166755 ], [ 19.4190692, 54.2166814 ], [ 19.4187981, 54.2166738 ], [ 19.4186832, 54.216657 ], [ 19.4185409, 54.2166428 ], [ 19.4183928, 54.2166582 ], [ 19.4182631, 54.2166504 ], [ 19.4181495, 54.2166438 ], [ 19.4179601, 54.2166383 ], [ 19.4178012, 54.2166488 ], [ 19.4177214, 54.2166719 ], [ 19.417654, 54.2166672 ], [ 19.4175948, 54.2166586 ], [ 19.417542, 54.2166626 ], [ 19.4175032, 54.2166704 ], [ 19.4174615, 54.2166814 ], [ 19.4174022, 54.216683 ], [ 19.4173736, 54.2166718 ], [ 19.4172993, 54.2166664 ], [ 19.4178935, 54.2172116 ], [ 19.418079, 54.2176727 ], [ 19.418079, 54.2182151 ], [ 19.4177775, 54.2186491 ], [ 19.4172869, 54.2189747 ], [ 19.4170384, 54.2189707 ], [ 19.4170093, 54.2189726 ], [ 19.4166587, 54.2190361 ], [ 19.4162916, 54.2190549 ], [ 19.4158068, 54.2190408 ], [ 19.4152068, 54.2190455 ], [ 19.4148326, 54.219069 ], [ 19.4146773, 54.2190973 ], [ 19.4144855, 54.2191632 ], [ 19.4142938, 54.219229 ], [ 19.4139526, 54.2193538 ], [ 19.4137314, 54.2194267 ], [ 19.4136349, 54.2194714 ], [ 19.4132466, 54.2193961 ], [ 19.4126607, 54.219302 ], [ 19.4119218, 54.2192314 ], [ 19.4108464, 54.2192079 ], [ 19.4103828, 54.2192526 ], [ 19.4096534, 54.2192643 ], [ 19.4091192, 54.2192785 ], [ 19.4086109, 54.2192926 ], [ 19.408354, 54.2192843 ], [ 19.4080364, 54.2192593 ], [ 19.4076186, 54.2192532 ], [ 19.4071145, 54.2192458 ], [ 19.4068688, 54.2192831 ], [ 19.4064309, 54.2193089 ], [ 19.4057586, 54.219552 ], [ 19.4052807, 54.2197248 ], [ 19.4046711, 54.2195127 ], [ 19.4041252, 54.2195053 ], [ 19.4034292, 54.2198008 ], [ 19.4029352, 54.2198233 ], [ 19.4009531, 54.2192937 ], [ 19.4002044, 54.2192085 ], [ 19.3997289, 54.219387 ], [ 19.3988479, 54.2189986 ], [ 19.3984441, 54.2190422 ], [ 19.3980454, 54.2191038 ], [ 19.3973289, 54.2188367 ], [ 19.3967902, 54.2188116 ], [ 19.3958297, 54.2187521 ], [ 19.3954083, 54.2187718 ], [ 19.3949403, 54.21876 ], [ 19.3944214, 54.2187913 ], [ 19.3943269, 54.2186343 ], [ 19.3941926, 54.2186565 ], [ 19.3937444, 54.2187306 ], [ 19.3936722, 54.2187425 ], [ 19.3934502, 54.2188991 ], [ 19.3932552, 54.2189624 ], [ 19.3931011, 54.219029 ], [ 19.3928881, 54.2191192 ], [ 19.3925573, 54.2191535 ], [ 19.3921367, 54.2191809 ], [ 19.3916835, 54.2191867 ], [ 19.3913355, 54.2191911 ], [ 19.3912435, 54.2192359 ], [ 19.391207, 54.2192566 ], [ 19.3908866, 54.2193167 ], [ 19.390873, 54.219405 ], [ 19.3908774, 54.2194694 ], [ 19.3908818, 54.219579 ], [ 19.3910068, 54.2201115 ], [ 19.3910125, 54.2201245 ], [ 19.390781, 54.2201293 ], [ 19.3901999, 54.2201259 ], [ 19.3898247, 54.2201334 ], [ 19.3891316, 54.2201788 ], [ 19.3888008, 54.2201998 ], [ 19.3885609, 54.2202038 ], [ 19.3883941, 54.2202154 ], [ 19.3883274, 54.2202327 ], [ 19.3882222, 54.2202729 ], [ 19.3880122, 54.2203677 ], [ 19.3879222, 54.2204033 ], [ 19.3878697, 54.2204282 ], [ 19.387886, 54.2204784 ], [ 19.387836, 54.2204899 ], [ 19.3877837, 54.2205 ], [ 19.3876493, 54.220526 ], [ 19.3876089, 54.220534 ], [ 19.38751, 54.220553 ], [ 19.3874536, 54.2203861 ], [ 19.3873166, 54.2198895 ], [ 19.387047, 54.2189952 ], [ 19.3869552, 54.2187817 ], [ 19.3864891, 54.2172986 ], [ 19.3860643, 54.2156855 ], [ 19.3859392, 54.2152095 ], [ 19.3859163, 54.2151233 ], [ 19.3855105, 54.213557 ], [ 19.3854942, 54.2134936 ], [ 19.3848925, 54.2113407 ], [ 19.3844295, 54.2095664 ], [ 19.3843334, 54.2092128 ], [ 19.3841866, 54.208672 ], [ 19.3841123, 54.2081541 ], [ 19.3841328, 54.2079894 ], [ 19.3841865, 54.2077577 ], [ 19.384267, 54.2075203 ], [ 19.3844303, 54.2071236 ], [ 19.3836232, 54.207084 ], [ 19.3830656, 54.2070627 ], [ 19.3826741, 54.207045 ], [ 19.3825357, 54.2070393 ], [ 19.3818821, 54.2070236 ], [ 19.3813063, 54.2069903 ], [ 19.3809447, 54.2069784 ], [ 19.3801755, 54.2069491 ], [ 19.3800066, 54.206943 ], [ 19.37925, 54.2069187 ], [ 19.3782774, 54.2068827 ], [ 19.3775215, 54.2068489 ], [ 19.3770417, 54.2068425 ], [ 19.3759777, 54.2068289 ], [ 19.3753776, 54.2068075 ], [ 19.375216, 54.2068018 ], [ 19.3751519, 54.2067995 ], [ 19.3749411, 54.2067891 ], [ 19.3749191, 54.2067854 ], [ 19.3742998, 54.2067623 ], [ 19.3744395, 54.2063892 ], [ 19.375129, 54.2046881 ], [ 19.3755341, 54.203794 ], [ 19.3760749, 54.2025827 ], [ 19.3769214, 54.2013206 ], [ 19.3775404, 54.2002983 ], [ 19.3779552, 54.1994188 ], [ 19.3782299, 54.1983284 ], [ 19.3785681, 54.197344 ], [ 19.3785993, 54.1951085 ], [ 19.3786299, 54.1929127 ], [ 19.3786346, 54.1925785 ], [ 19.3786625, 54.1921876 ], [ 19.3787525, 54.1909293 ], [ 19.3789158, 54.1886439 ], [ 19.3789553, 54.1880914 ], [ 19.379153, 54.1856666 ], [ 19.3793696, 54.1847189 ], [ 19.380286, 54.1828496 ], [ 19.3809421, 54.1818397 ], [ 19.3814123, 54.1811605 ], [ 19.3820529, 54.180235 ], [ 19.3815362, 54.1798764 ], [ 19.3807646, 54.1793427 ], [ 19.3804077, 54.1795074 ], [ 19.3798888, 54.1799375 ], [ 19.3798061, 54.1800603 ], [ 19.379587, 54.1799779 ], [ 19.3793953, 54.1799079 ], [ 19.3793219, 54.1798807 ], [ 19.3783044, 54.1795366 ], [ 19.3779782, 54.1794145 ], [ 19.3782282, 54.1792182 ], [ 19.3785388, 54.1790039 ], [ 19.3787637, 54.1788297 ], [ 19.378844, 54.1787918 ], [ 19.3789188, 54.1787561 ], [ 19.3789589, 54.178737 ], [ 19.3791972, 54.1785896 ], [ 19.3793314, 54.1785099 ], [ 19.3793317, 54.1785098 ], [ 19.3793334, 54.1785084 ], [ 19.3794606, 54.178407 ], [ 19.3795848, 54.178269 ], [ 19.3796208, 54.1782291 ], [ 19.3802938, 54.177441 ], [ 19.3803931, 54.1773215 ], [ 19.380398, 54.1773155 ], [ 19.3805585, 54.1771342 ], [ 19.3809888, 54.1766672 ], [ 19.38132, 54.1763077 ], [ 19.3815006, 54.1761097 ], [ 19.3819765, 54.1755995 ], [ 19.3821579, 54.1754005 ], [ 19.3822975, 54.1752361 ], [ 19.3821511, 54.175184 ], [ 19.382097, 54.1751647 ], [ 19.3819651, 54.1751307 ], [ 19.3821326, 54.1749958 ], [ 19.3829628, 54.1743042 ], [ 19.3837263, 54.1736697 ], [ 19.3845097, 54.1730062 ], [ 19.3847221, 54.1728201 ], [ 19.3844626, 54.1727113 ], [ 19.384451, 54.172667 ], [ 19.3841739, 54.1725744 ], [ 19.3841046, 54.1725284 ], [ 19.3839753, 54.1724396 ], [ 19.3838669, 54.1724121 ], [ 19.383133, 54.1722627 ], [ 19.3828189, 54.1722012 ], [ 19.3825744, 54.1721493 ], [ 19.3814533, 54.1719235 ], [ 19.3809026, 54.1718134 ], [ 19.378058, 54.1712348 ], [ 19.3777376, 54.1711554 ], [ 19.3770251, 54.170976 ], [ 19.3761879, 54.1707603 ], [ 19.3765679, 54.1702953 ], [ 19.3762173, 54.1702441 ], [ 19.3756421, 54.1701626 ], [ 19.3749876, 54.1700389 ], [ 19.3741732, 54.1697876 ], [ 19.3735902, 54.1695662 ], [ 19.3731547, 54.1693816 ], [ 19.3723518, 54.1688955 ], [ 19.3719435, 54.1685582 ], [ 19.3717466, 54.1683668 ], [ 19.3715498, 54.1681261 ], [ 19.3712928, 54.1677723 ], [ 19.3711038, 54.1674164 ], [ 19.3710188, 54.1672182 ], [ 19.3709348, 54.166895 ], [ 19.3708951, 54.1665937 ], [ 19.370848, 54.1655543 ], [ 19.370798, 54.1644906 ], [ 19.3707855, 54.1635482 ], [ 19.3707174, 54.1635469 ], [ 19.3698807, 54.1635534 ], [ 19.3694452, 54.1635519 ], [ 19.3694299, 54.1635518 ], [ 19.3689229, 54.16355 ], [ 19.3685813, 54.1635576 ], [ 19.3684299, 54.1635503 ], [ 19.3679304, 54.1635506 ], [ 19.3672083, 54.1635511 ], [ 19.3667717, 54.1635497 ], [ 19.3658639, 54.1635458 ], [ 19.3654789, 54.1635442 ], [ 19.3651014, 54.1635426 ], [ 19.3645741, 54.1635403 ], [ 19.3644346, 54.1635397 ], [ 19.3636296, 54.1635362 ], [ 19.3630148, 54.1635335 ], [ 19.3617998, 54.1635283 ], [ 19.3616411, 54.1635276 ], [ 19.3604739, 54.1635226 ], [ 19.3603091, 54.1635221 ], [ 19.3594885, 54.1635194 ], [ 19.3594251, 54.1635186 ], [ 19.3590089, 54.1635211 ] ] ] } }
]
}
