{
"type": "FeatureCollection",
"name": "emmen_nl",
"crs": { "type": "name", "properties": { "name": "urn:ogc:def:crs:OGC:1.3:CRS84" } },
"features": [
{ "type": "Feature", "properties": { "bbox_west": 6.8308505, "bbox_south": 52.7256047, "bbox_east": 6.9794729, "bbox_north": 52.8378978, "place_id": 152931502, "osm_type": "relation", "osm_id": 1423541, "lat": 52.788937, "lon": 6.8939001, "class": "boundary", "type": "administrative", "place_rank": 16, "importance": 0.47160852761590838, "addresstype": "city", "name": "Emmen", "display_name": "Emmen, Drenthe, Netherlands" }, "geometry": { "type": "Polygon", "coordinates": [ [ [ 6.8308505, 52.7676904 ], [ 6.8308549, 52.7675791 ], [ 6.8308642, 52.7674899 ], [ 6.8308812, 52.7673777 ], [ 6.8308978, 52.7673104 ], [ 6.8309405, 52.7671859 ], [ 6.8310108, 52.7670426 ], [ 6.8310958, 52.7669089 ], [ 6.8311477, 52.7668427 ], [ 6.8312749, 52.7667056 ], [ 6.8314451, 52.7665437 ], [ 6.8314477, 52.7665412 ], [ 6.8317395, 52.7662769 ], [ 6.8320635, 52.7659734 ], [ 6.8323598, 52.7657025 ], [ 6.8324698, 52.7656019 ], [ 6.8327509, 52.76533 ], [ 6.8329524, 52.7651307 ], [ 6.8331167, 52.7649242 ], [ 6.8333014, 52.7646766 ], [ 6.8335415, 52.764334 ], [ 6.8336092, 52.7642327 ], [ 6.8337025, 52.7641197 ], [ 6.8338358, 52.7639889 ], [ 6.8339788, 52.7638677 ], [ 6.834084, 52.7637907 ], [ 6.8341457, 52.7637448 ], [ 6.8342136, 52.7637015 ], [ 6.8344217, 52.7635863 ], [ 6.8347236, 52.7634197 ], [ 6.8350773, 52.7632251 ], [ 6.8354079, 52.7630427 ], [ 6.8355486, 52.7629671 ], [ 6.83568, 52.762899 ], [ 6.8358003, 52.7628396 ], [ 6.835913, 52.7627824 ], [ 6.8360361, 52.7627296 ], [ 6.8361749, 52.7626755 ], [ 6.8363129, 52.7626266 ], [ 6.8364561, 52.7625794 ], [ 6.8366832, 52.7625261 ], [ 6.8368725, 52.7624895 ], [ 6.8370351, 52.7624583 ], [ 6.8370397, 52.7624576 ], [ 6.8372141, 52.7624346 ], [ 6.8375334, 52.7624041 ], [ 6.837622, 52.7623968 ], [ 6.837626, 52.7623965 ], [ 6.8377093, 52.7623862 ], [ 6.8378283, 52.7623724 ], [ 6.8379271, 52.7623552 ], [ 6.8380759, 52.7623214 ], [ 6.8381936, 52.7622933 ], [ 6.8383494, 52.7622447 ], [ 6.8385151, 52.7621811 ], [ 6.8386967, 52.7620995 ], [ 6.8388071, 52.7620402 ], [ 6.8388968, 52.7619805 ], [ 6.8389726, 52.7619233 ], [ 6.8390475, 52.7618578 ], [ 6.8391005, 52.7617985 ], [ 6.8392034, 52.7616819 ], [ 6.8393432, 52.7614867 ], [ 6.8396941, 52.7609963 ], [ 6.839644, 52.7609211 ], [ 6.8396407, 52.7609161 ], [ 6.8396016, 52.7608575 ], [ 6.8393101, 52.7604308 ], [ 6.8390561, 52.760058 ], [ 6.8387698, 52.7596388 ], [ 6.83874, 52.7595952 ], [ 6.8383591, 52.7590169 ], [ 6.8382586, 52.758857 ], [ 6.8380004, 52.7584463 ], [ 6.8379161, 52.7583481 ], [ 6.8377886, 52.7582142 ], [ 6.8375745, 52.7580227 ], [ 6.8373775, 52.7578605 ], [ 6.8371379, 52.7576632 ], [ 6.8369103, 52.7574893 ], [ 6.836673, 52.7573079 ], [ 6.8365474, 52.7572119 ], [ 6.8359179, 52.7567472 ], [ 6.8353205, 52.7563339 ], [ 6.8349703, 52.7561179 ], [ 6.834938, 52.756098 ], [ 6.8358087, 52.7560268 ], [ 6.8358205, 52.7560258 ], [ 6.8381492, 52.7558354 ], [ 6.8382406, 52.7558279 ], [ 6.83824, 52.7558024 ], [ 6.8384391, 52.7552938 ], [ 6.8384414, 52.75529 ], [ 6.8385241, 52.7551614 ], [ 6.838527, 52.7551574 ], [ 6.838681, 52.7547825 ], [ 6.8387267, 52.7546423 ], [ 6.8387494, 52.754575 ], [ 6.8387568, 52.7545263 ], [ 6.8387604, 52.7544795 ], [ 6.8387566, 52.7544421 ], [ 6.8387444, 52.7543831 ], [ 6.8387217, 52.7543194 ], [ 6.8386888, 52.7542575 ], [ 6.8386319, 52.7541662 ], [ 6.8385593, 52.7540689 ], [ 6.8384022, 52.7538687 ], [ 6.8382764, 52.7536942 ], [ 6.8382061, 52.7535878 ], [ 6.8381605, 52.7535058 ], [ 6.8381222, 52.7534224 ], [ 6.8381103, 52.7533819 ], [ 6.8381049, 52.7533506 ], [ 6.8381038, 52.7532527 ], [ 6.8381234, 52.7531425 ], [ 6.8381808, 52.7529718 ], [ 6.838255, 52.7527605 ], [ 6.8383759, 52.7523643 ], [ 6.838412, 52.7522516 ], [ 6.8384306, 52.7521929 ], [ 6.8384452, 52.7521296 ], [ 6.8384645, 52.7520205 ], [ 6.8384703, 52.7519253 ], [ 6.8384687, 52.7518437 ], [ 6.8384609, 52.7517643 ], [ 6.838444, 52.7516516 ], [ 6.8384156, 52.7515304 ], [ 6.83837, 52.7513946 ], [ 6.8383183, 52.7512761 ], [ 6.8382884, 52.7512266 ], [ 6.8382507, 52.7511717 ], [ 6.8381634, 52.7510575 ], [ 6.8380687, 52.7509582 ], [ 6.8379447, 52.7508498 ], [ 6.837787, 52.7507131 ], [ 6.8375841, 52.7505805 ], [ 6.837363, 52.7504646 ], [ 6.8370279, 52.7503023 ], [ 6.8366119, 52.750072 ], [ 6.8365095, 52.7500178 ], [ 6.8364251, 52.749965 ], [ 6.83634, 52.74991 ], [ 6.8362868, 52.7498717 ], [ 6.8361357, 52.7497477 ], [ 6.8358616, 52.7494922 ], [ 6.8357228, 52.7493291 ], [ 6.8355797, 52.749159 ], [ 6.835539, 52.7491021 ], [ 6.8354278, 52.7489146 ], [ 6.835188, 52.7485222 ], [ 6.8351641, 52.7484831 ], [ 6.8347933, 52.7482199 ], [ 6.8345571, 52.7480715 ], [ 6.8344098, 52.747979 ], [ 6.8342119, 52.7478363 ], [ 6.8340539, 52.7477186 ], [ 6.8336734, 52.7473919 ], [ 6.8335778, 52.7473049 ], [ 6.8335395, 52.7472425 ], [ 6.8334702, 52.7471274 ], [ 6.833432, 52.747029 ], [ 6.8334005, 52.7469348 ], [ 6.8333784, 52.7468553 ], [ 6.8333637, 52.7467831 ], [ 6.8333489, 52.7466201 ], [ 6.8333093, 52.7463092 ], [ 6.8332256, 52.7458819 ], [ 6.8332249, 52.7458758 ], [ 6.8332125, 52.745768 ], [ 6.8331922, 52.7455929 ], [ 6.8331198, 52.7451758 ], [ 6.8330622, 52.7448984 ], [ 6.8330124, 52.7447239 ], [ 6.8329467, 52.7445316 ], [ 6.8328862, 52.7443989 ], [ 6.8327384, 52.7441491 ], [ 6.8326944, 52.7440874 ], [ 6.8327746, 52.7440541 ], [ 6.8332075, 52.7438746 ], [ 6.8334643, 52.7437672 ], [ 6.834164, 52.7434793 ], [ 6.8351867, 52.7430599 ], [ 6.8365389, 52.7425033 ], [ 6.8368135, 52.7423836 ], [ 6.8368581, 52.7423623 ], [ 6.8368944, 52.7423385 ], [ 6.8369345, 52.7423032 ], [ 6.8372143, 52.7419817 ], [ 6.8378413, 52.741268 ], [ 6.8387696, 52.740197 ], [ 6.839111, 52.7398065 ], [ 6.839394, 52.7394829 ], [ 6.8394772, 52.7393865 ], [ 6.8396465, 52.7391913 ], [ 6.8396771, 52.7391953 ], [ 6.8397464, 52.7392044 ], [ 6.8407218, 52.7393321 ], [ 6.8415286, 52.7371778 ], [ 6.8420539, 52.7357922 ], [ 6.8425266, 52.7359246 ], [ 6.8428024, 52.7352166 ], [ 6.8428121, 52.7351918 ], [ 6.8428337, 52.735136 ], [ 6.8428414, 52.7351157 ], [ 6.8428725, 52.7350331 ], [ 6.8432454, 52.734043 ], [ 6.8434539, 52.7334896 ], [ 6.8437061, 52.7328198 ], [ 6.843817, 52.7325285 ], [ 6.8438903, 52.7323309 ], [ 6.8440046, 52.7320275 ], [ 6.8442522, 52.7313701 ], [ 6.8452045, 52.7315135 ], [ 6.8467199, 52.7317416 ], [ 6.8467963, 52.7315324 ], [ 6.8478084, 52.7316647 ], [ 6.8487777, 52.7317914 ], [ 6.8481378, 52.73352 ], [ 6.850048, 52.7337683 ], [ 6.8502347, 52.7332373 ], [ 6.8503717, 52.7332524 ], [ 6.850765, 52.7332959 ], [ 6.8511477, 52.7333378 ], [ 6.8518901, 52.7334191 ], [ 6.8525068, 52.7334866 ], [ 6.8526347, 52.7335006 ], [ 6.8529552, 52.7335357 ], [ 6.8534592, 52.7335909 ], [ 6.854421, 52.7336962 ], [ 6.8553184, 52.733795 ], [ 6.8560407, 52.7338746 ], [ 6.8563927, 52.7339185 ], [ 6.8565292, 52.7339324 ], [ 6.8566546, 52.7339465 ], [ 6.8567264, 52.7339542 ], [ 6.856891, 52.7339717 ], [ 6.8569746, 52.7339806 ], [ 6.8569929, 52.733944 ], [ 6.8574553, 52.7339932 ], [ 6.8590692, 52.7341648 ], [ 6.8610098, 52.7343697 ], [ 6.8614564, 52.7344177 ], [ 6.8661741, 52.7349324 ], [ 6.8660673, 52.7352983 ], [ 6.8659809, 52.7355705 ], [ 6.8659295, 52.7356923 ], [ 6.866155, 52.7358544 ], [ 6.8707979, 52.7363608 ], [ 6.8745315, 52.7367679 ], [ 6.8762505, 52.7369044 ], [ 6.8760761, 52.736263 ], [ 6.8760153, 52.7361326 ], [ 6.8762065, 52.7352449 ], [ 6.8765313, 52.7352552 ], [ 6.877351, 52.735314 ], [ 6.8774269, 52.7352097 ], [ 6.8783252, 52.735447 ], [ 6.8781431, 52.7363261 ], [ 6.8787699, 52.7364877 ], [ 6.8785403, 52.7374913 ], [ 6.8786447, 52.7375185 ], [ 6.8805942, 52.7380282 ], [ 6.8815038, 52.7367594 ], [ 6.8815496, 52.7367158 ], [ 6.8816076, 52.7366765 ], [ 6.8816795, 52.7366413 ], [ 6.8817586, 52.7366152 ], [ 6.8818367, 52.7365992 ], [ 6.8819249, 52.7365888 ], [ 6.8823765, 52.7365936 ], [ 6.8826735, 52.736595 ], [ 6.8827855, 52.736598 ], [ 6.8838475, 52.7366069 ], [ 6.8842343, 52.736499 ], [ 6.8858305, 52.7367899 ], [ 6.8860435, 52.7368228 ], [ 6.8865731, 52.7369065 ], [ 6.8866566, 52.7369187 ], [ 6.8868153, 52.736627 ], [ 6.8877498, 52.7349099 ], [ 6.8882162, 52.7340527 ], [ 6.8886824, 52.7331959 ], [ 6.8895038, 52.7316861 ], [ 6.8952594, 52.7345333 ], [ 6.8951805, 52.7290095 ], [ 6.9000827, 52.7263421 ], [ 6.9044844, 52.726331 ], [ 6.9070124, 52.7269817 ], [ 6.9078935, 52.7256047 ], [ 6.9079656, 52.7256233 ], [ 6.9089541, 52.7258774 ], [ 6.9103064, 52.726216 ], [ 6.9116644, 52.7265736 ], [ 6.9119439, 52.7266463 ], [ 6.9130088, 52.7269233 ], [ 6.914371, 52.7272751 ], [ 6.9157196, 52.727619 ], [ 6.9170703, 52.72796 ], [ 6.917197, 52.7279909 ], [ 6.9174499, 52.7280526 ], [ 6.9173861, 52.7281445 ], [ 6.91695, 52.728773 ], [ 6.9183415, 52.7291319 ], [ 6.9184273, 52.7291542 ], [ 6.9188727, 52.7285249 ], [ 6.9192905, 52.7286328 ], [ 6.9196357, 52.7287219 ], [ 6.920067, 52.7288341 ], [ 6.9204661, 52.7289374 ], [ 6.9200819, 52.729483 ], [ 6.9185256, 52.7316925 ], [ 6.9180693, 52.731562 ], [ 6.917875, 52.7318287 ], [ 6.9168576, 52.7333026 ], [ 6.91685, 52.7333135 ], [ 6.9166512, 52.7336015 ], [ 6.9173871, 52.7337744 ], [ 6.9186803, 52.7341081 ], [ 6.9181236, 52.7348981 ], [ 6.9180909, 52.7349445 ], [ 6.916134, 52.7344379 ], [ 6.9154662, 52.734265 ], [ 6.9148928, 52.735071 ], [ 6.9142812, 52.7359306 ], [ 6.9149679, 52.7361094 ], [ 6.9157267, 52.736307 ], [ 6.9169128, 52.7366159 ], [ 6.9168617, 52.7366885 ], [ 6.9167255, 52.7366532 ], [ 6.9165046, 52.7369677 ], [ 6.9151503, 52.7366162 ], [ 6.9148651, 52.7370018 ], [ 6.916356, 52.7373887 ], [ 6.9163311, 52.7374216 ], [ 6.9163016, 52.7374603 ], [ 6.9157329, 52.7381373 ], [ 6.9154021, 52.7385314 ], [ 6.9152796, 52.7386773 ], [ 6.9149061, 52.7385784 ], [ 6.9149134, 52.7385672 ], [ 6.9147944, 52.7385392 ], [ 6.9147576, 52.7385305 ], [ 6.9145969, 52.7384926 ], [ 6.9145944, 52.7384959 ], [ 6.9145593, 52.7385422 ], [ 6.9144101, 52.7387393 ], [ 6.915078, 52.7389174 ], [ 6.9149806, 52.7390335 ], [ 6.9143049, 52.7398394 ], [ 6.9136862, 52.7405776 ], [ 6.9134544, 52.7408534 ], [ 6.9124343, 52.7405906 ], [ 6.912429, 52.7405981 ], [ 6.9121884, 52.7409426 ], [ 6.9120074, 52.7412016 ], [ 6.9123694, 52.7412953 ], [ 6.912454, 52.7413172 ], [ 6.9124948, 52.7413278 ], [ 6.9124591, 52.7413762 ], [ 6.9125571, 52.7414015 ], [ 6.912583, 52.7413656 ], [ 6.9129427, 52.7414547 ], [ 6.9126395, 52.7417276 ], [ 6.912475, 52.7419206 ], [ 6.9115249, 52.7430352 ], [ 6.9115218, 52.7430453 ], [ 6.9102652, 52.7427186 ], [ 6.9099564, 52.7430953 ], [ 6.9096055, 52.7435232 ], [ 6.9093658, 52.7438156 ], [ 6.9100209, 52.7439961 ], [ 6.9106559, 52.7441716 ], [ 6.9108984, 52.7442828 ], [ 6.9109611, 52.7442944 ], [ 6.9123408, 52.7445493 ], [ 6.9125679, 52.7445912 ], [ 6.9153957, 52.7451136 ], [ 6.9154418, 52.7450281 ], [ 6.9155787, 52.7450634 ], [ 6.9163378, 52.7452592 ], [ 6.9172154, 52.7454855 ], [ 6.918535, 52.7458259 ], [ 6.9186288, 52.7458501 ], [ 6.9246422, 52.7474006 ], [ 6.925966, 52.7477419 ], [ 6.9268668, 52.7482 ], [ 6.9223491, 52.7512067 ], [ 6.9225285, 52.7512502 ], [ 6.9225458, 52.7512544 ], [ 6.9227461, 52.7513031 ], [ 6.9228563, 52.7513298 ], [ 6.9237021, 52.7507565 ], [ 6.9237313, 52.7507741 ], [ 6.9239704, 52.7509183 ], [ 6.9248094, 52.7514159 ], [ 6.9255417, 52.7518503 ], [ 6.9255181, 52.7518834 ], [ 6.9255082, 52.7518973 ], [ 6.9255626, 52.7519115 ], [ 6.9255331, 52.7519529 ], [ 6.9254789, 52.7519385 ], [ 6.9254632, 52.7519604 ], [ 6.9260765, 52.7521073 ], [ 6.9259985, 52.7521561 ], [ 6.925608, 52.7524006 ], [ 6.9259891, 52.7526023 ], [ 6.9260479, 52.7526334 ], [ 6.9256207, 52.7536555 ], [ 6.9257213, 52.7536429 ], [ 6.9258387, 52.7536131 ], [ 6.9259488, 52.7535614 ], [ 6.9260073, 52.753524 ], [ 6.9260582, 52.753483 ], [ 6.9261135, 52.7534151 ], [ 6.9261442, 52.7533513 ], [ 6.9261565, 52.7532887 ], [ 6.9261684, 52.7532286 ], [ 6.9261701, 52.7531376 ], [ 6.9261785, 52.7530373 ], [ 6.9261841, 52.7529591 ], [ 6.9261851, 52.7529166 ], [ 6.9262075, 52.7528353 ], [ 6.9262634, 52.7527476 ], [ 6.92637, 52.7526343 ], [ 6.9264827, 52.7525398 ], [ 6.9285479, 52.7535827 ], [ 6.9303033, 52.7524201 ], [ 6.9304237, 52.7523381 ], [ 6.9304468, 52.7523228 ], [ 6.9305687, 52.7522433 ], [ 6.9305926, 52.7522558 ], [ 6.9306148, 52.7522437 ], [ 6.9307019, 52.7522896 ], [ 6.9318513, 52.7528961 ], [ 6.9318928, 52.7528687 ], [ 6.9318022, 52.7528209 ], [ 6.9317702, 52.7528042 ], [ 6.9322055, 52.7525149 ], [ 6.9323276, 52.7525822 ], [ 6.932645, 52.752373 ], [ 6.9327647, 52.7522941 ], [ 6.9331299, 52.7520466 ], [ 6.9335333, 52.7517796 ], [ 6.9338283, 52.7515843 ], [ 6.9338866, 52.7515813 ], [ 6.9342476, 52.7513393 ], [ 6.9348582, 52.7509304 ], [ 6.9357279, 52.7503482 ], [ 6.936306, 52.7499611 ], [ 6.9367507, 52.7496632 ], [ 6.9368527, 52.7495947 ], [ 6.9360204, 52.7491606 ], [ 6.9369359, 52.7485478 ], [ 6.9365012, 52.7482997 ], [ 6.9381166, 52.7472258 ], [ 6.942187, 52.7445119 ], [ 6.9447898, 52.7429407 ], [ 6.9458632, 52.7435321 ], [ 6.9468314, 52.7428851 ], [ 6.9473265, 52.7432939 ], [ 6.9477488, 52.7435369 ], [ 6.9478299, 52.7434528 ], [ 6.9489515, 52.7426848 ], [ 6.9489744, 52.7426171 ], [ 6.9490051, 52.7425267 ], [ 6.9499427, 52.7415323 ], [ 6.9485836, 52.7410622 ], [ 6.949468, 52.7404285 ], [ 6.9492843, 52.740365 ], [ 6.9489499, 52.7402511 ], [ 6.9491288, 52.7401315 ], [ 6.9490133, 52.7400917 ], [ 6.9497198, 52.7396163 ], [ 6.9497537, 52.7395933 ], [ 6.9497802, 52.7395761 ], [ 6.9500525, 52.7393992 ], [ 6.9503288, 52.7392144 ], [ 6.9503632, 52.7391914 ], [ 6.9508993, 52.7388413 ], [ 6.9509686, 52.7387916 ], [ 6.9510746, 52.7388283 ], [ 6.952096, 52.7381441 ], [ 6.9522322, 52.7380528 ], [ 6.9541328, 52.7367797 ], [ 6.9571879, 52.7347329 ], [ 6.9582066, 52.7340503 ], [ 6.9588645, 52.7336211 ], [ 6.9592832, 52.7330105 ], [ 6.9593179, 52.7330158 ], [ 6.9611781, 52.7334688 ], [ 6.9614457, 52.7335416 ], [ 6.9617213, 52.7336093 ], [ 6.9619941, 52.7336736 ], [ 6.9622751, 52.7337396 ], [ 6.9628153, 52.7338701 ], [ 6.963088, 52.7339328 ], [ 6.9633718, 52.7340003 ], [ 6.9636443, 52.7340581 ], [ 6.9639195, 52.7341141 ], [ 6.9643132, 52.7341968 ], [ 6.9646103, 52.7342542 ], [ 6.9646928, 52.7342697 ], [ 6.9650941, 52.7343374 ], [ 6.9654815, 52.7343985 ], [ 6.9658796, 52.734453 ], [ 6.9660169, 52.7344727 ], [ 6.9662751, 52.7345124 ], [ 6.9666733, 52.7345701 ], [ 6.9670687, 52.7346246 ], [ 6.9674611, 52.7346741 ], [ 6.9678095, 52.7347142 ], [ 6.9681689, 52.7347559 ], [ 6.9685087, 52.7347846 ], [ 6.9688759, 52.7348162 ], [ 6.9692318, 52.7348363 ], [ 6.9695329, 52.7348539 ], [ 6.9697983, 52.7348653 ], [ 6.9700388, 52.734867 ], [ 6.9702791, 52.7348638 ], [ 6.9705164, 52.734854 ], [ 6.9707617, 52.7348359 ], [ 6.9714666, 52.7347618 ], [ 6.9717054, 52.7347172 ], [ 6.9719303, 52.7346661 ], [ 6.9721901, 52.7345979 ], [ 6.9719783, 52.7345182 ], [ 6.9743007, 52.733812 ], [ 6.9753601, 52.7334927 ], [ 6.9761519, 52.733255 ], [ 6.9768195, 52.733057 ], [ 6.9773506, 52.7332406 ], [ 6.977735, 52.7333682 ], [ 6.9778677, 52.7334112 ], [ 6.9781368, 52.7332235 ], [ 6.9787517, 52.7327823 ], [ 6.9791171, 52.7329728 ], [ 6.9794729, 52.7331549 ], [ 6.9794119, 52.733194 ], [ 6.9789773, 52.7334804 ], [ 6.9785939, 52.733738 ], [ 6.9780834, 52.7340811 ], [ 6.9780817, 52.7340823 ], [ 6.9777039, 52.7343426 ], [ 6.9612633, 52.7454574 ], [ 6.9599066, 52.7463742 ], [ 6.9556341, 52.7492612 ], [ 6.9479432, 52.7544567 ], [ 6.9524537, 52.7560265 ], [ 6.9531484, 52.7562682 ], [ 6.9532682, 52.7563099 ], [ 6.963106, 52.7597326 ], [ 6.9634433, 52.7593767 ], [ 6.9639875, 52.7595481 ], [ 6.9644656, 52.7596987 ], [ 6.9645102, 52.7596582 ], [ 6.9648189, 52.7593777 ], [ 6.9668268, 52.7600708 ], [ 6.9790514, 52.7642895 ], [ 6.9789118, 52.764664 ], [ 6.9788091, 52.7649398 ], [ 6.9786515, 52.7653627 ], [ 6.9786397, 52.7653943 ], [ 6.9784555, 52.7658888 ], [ 6.9782405, 52.7664657 ], [ 6.9780358, 52.7670152 ], [ 6.9778396, 52.7675417 ], [ 6.977453, 52.7685792 ], [ 6.9770947, 52.7695407 ], [ 6.9770739, 52.7695966 ], [ 6.9769411, 52.7699529 ], [ 6.9765381, 52.7704701 ], [ 6.9758847, 52.7713085 ], [ 6.9752471, 52.7721265 ], [ 6.9749613, 52.7724931 ], [ 6.97466, 52.7728797 ], [ 6.974503, 52.773085 ], [ 6.9744764, 52.7731153 ], [ 6.974771, 52.7730368 ], [ 6.9746868, 52.7731241 ], [ 6.9746752, 52.7731404 ], [ 6.9746093, 52.7732324 ], [ 6.9745753, 52.7732828 ], [ 6.974549, 52.7733167 ], [ 6.9742405, 52.7737146 ], [ 6.9738865, 52.7741711 ], [ 6.9729259, 52.7753897 ], [ 6.9714093, 52.7773134 ], [ 6.9706659, 52.7782563 ], [ 6.9670847, 52.782798 ], [ 6.9656899, 52.7845665 ], [ 6.9656876, 52.7845694 ], [ 6.9656812, 52.7845776 ], [ 6.9660336, 52.784531 ], [ 6.9666719, 52.7845102 ], [ 6.9667942, 52.7845386 ], [ 6.9668335, 52.7845424 ], [ 6.9668693, 52.7845519 ], [ 6.9669023, 52.784562 ], [ 6.966932, 52.7845801 ], [ 6.9669512, 52.7845919 ], [ 6.9669579, 52.784596 ], [ 6.9669732, 52.7846228 ], [ 6.9669826, 52.7846439 ], [ 6.9669761, 52.7846441 ], [ 6.9669664, 52.7848675 ], [ 6.9669535, 52.7851091 ], [ 6.9669433, 52.7852152 ], [ 6.9669259, 52.7854353 ], [ 6.9669223, 52.7855339 ], [ 6.9668883, 52.7860349 ], [ 6.9669238, 52.7860357 ], [ 6.9668983, 52.7864425 ], [ 6.9668583, 52.7872951 ], [ 6.9666485, 52.7917659 ], [ 6.9666482, 52.791792 ], [ 6.9666459, 52.7920325 ], [ 6.9666449, 52.7920592 ], [ 6.9665172, 52.7948568 ], [ 6.9662678, 52.7948766 ], [ 6.9610269, 52.7952075 ], [ 6.9607371, 52.7952266 ], [ 6.9603047, 52.7952627 ], [ 6.9605165, 52.7954029 ], [ 6.9604915, 52.7954262 ], [ 6.9604789, 52.7954538 ], [ 6.9604405, 52.7963682 ], [ 6.9602938, 52.7998625 ], [ 6.9602491, 52.8008648 ], [ 6.9602475, 52.8009026 ], [ 6.9602079, 52.8017908 ], [ 6.9602243, 52.8018864 ], [ 6.9601968, 52.8023271 ], [ 6.9601778, 52.8023786 ], [ 6.9601176, 52.8024712 ], [ 6.9600881, 52.8025343 ], [ 6.9600908, 52.8026575 ], [ 6.9598688, 52.8026561 ], [ 6.9598528, 52.8026613 ], [ 6.959812, 52.8026681 ], [ 6.9597629, 52.8026767 ], [ 6.9597128, 52.8026883 ], [ 6.9596699, 52.8027024 ], [ 6.9595911, 52.8027301 ], [ 6.9595421, 52.8027434 ], [ 6.959484, 52.8027544 ], [ 6.959427, 52.8027622 ], [ 6.9593745, 52.8027663 ], [ 6.9593303, 52.8027673 ], [ 6.9592817, 52.802767 ], [ 6.9591801, 52.8027641 ], [ 6.9589285, 52.8027574 ], [ 6.9585011, 52.8027383 ], [ 6.9581427, 52.8027261 ], [ 6.9580627, 52.8027232 ], [ 6.9578224, 52.8027147 ], [ 6.9570506, 52.8026874 ], [ 6.9563259, 52.8026592 ], [ 6.9553625, 52.8026266 ], [ 6.9547548, 52.8026021 ], [ 6.9546747, 52.8026015 ], [ 6.9539381, 52.8025782 ], [ 6.953319, 52.8025567 ], [ 6.9526451, 52.8025294 ], [ 6.952298, 52.8025174 ], [ 6.9521698, 52.8025123 ], [ 6.9520976, 52.8025068 ], [ 6.9519942, 52.8025041 ], [ 6.9515895, 52.8024808 ], [ 6.9512737, 52.8024576 ], [ 6.9510508, 52.8024376 ], [ 6.9508791, 52.802425 ], [ 6.9507117, 52.802416 ], [ 6.9505061, 52.802406 ], [ 6.9502474, 52.802394 ], [ 6.9500837, 52.8023851 ], [ 6.9499693, 52.8023781 ], [ 6.949889, 52.8023695 ], [ 6.9497549, 52.8023565 ], [ 6.9496196, 52.8023342 ], [ 6.9494948, 52.8023155 ], [ 6.9493862, 52.8022971 ], [ 6.9493426, 52.8022819 ], [ 6.9493166, 52.8022637 ], [ 6.9493006, 52.8022427 ], [ 6.9491242, 52.8026226 ], [ 6.9507403, 52.8026849 ], [ 6.9507756, 52.8035621 ], [ 6.9503356, 52.8035433 ], [ 6.9495147, 52.8064432 ], [ 6.9487786, 52.8063955 ], [ 6.9487462, 52.8064192 ], [ 6.9486709, 52.8064777 ], [ 6.9486053, 52.8065333 ], [ 6.9485389, 52.8065951 ], [ 6.9484754, 52.8066601 ], [ 6.948423, 52.8067194 ], [ 6.9483822, 52.8067699 ], [ 6.9483381, 52.8068299 ], [ 6.9483018, 52.8068845 ], [ 6.9482682, 52.8069406 ], [ 6.9482394, 52.8069945 ], [ 6.9482134, 52.8070495 ], [ 6.94819, 52.8071059 ], [ 6.9481732, 52.8071527 ], [ 6.9481557, 52.807205 ], [ 6.9481271, 52.8073058 ], [ 6.9479033, 52.8080943 ], [ 6.9476613, 52.8089468 ], [ 6.9475277, 52.8094175 ], [ 6.9474659, 52.8095954 ], [ 6.9473961, 52.809796 ], [ 6.9473172, 52.8100229 ], [ 6.9472204, 52.810301 ], [ 6.9471384, 52.8105902 ], [ 6.9464707, 52.8129439 ], [ 6.9461795, 52.8139818 ], [ 6.946167, 52.814026 ], [ 6.9461544, 52.8140703 ], [ 6.9461419, 52.8141144 ], [ 6.9461295, 52.8141586 ], [ 6.9461172, 52.8142027 ], [ 6.946105, 52.8142468 ], [ 6.946081, 52.814335 ], [ 6.9460693, 52.814379 ], [ 6.9460577, 52.814423 ], [ 6.9460463, 52.814467 ], [ 6.9460352, 52.814511 ], [ 6.9460244, 52.8145549 ], [ 6.9460138, 52.8145989 ], [ 6.9460035, 52.8146428 ], [ 6.9459935, 52.8146867 ], [ 6.945987, 52.8147158 ], [ 6.9459808, 52.8147448 ], [ 6.9459776, 52.8147597 ], [ 6.9459745, 52.8147746 ], [ 6.9459656, 52.8148184 ], [ 6.945957, 52.8148623 ], [ 6.9459205, 52.8150806 ], [ 6.945894, 52.8152994 ], [ 6.9458774, 52.8155185 ], [ 6.9458708, 52.8157379 ], [ 6.9458742, 52.8159573 ], [ 6.9458876, 52.8161765 ], [ 6.945911, 52.8163954 ], [ 6.9459444, 52.8166139 ], [ 6.9459915, 52.8168488 ], [ 6.9460501, 52.8170828 ], [ 6.9461202, 52.8173156 ], [ 6.9461945, 52.8175277 ], [ 6.9462782, 52.8177384 ], [ 6.9463714, 52.8179477 ], [ 6.946474, 52.8181554 ], [ 6.9465859, 52.8183613 ], [ 6.946707, 52.8185652 ], [ 6.9451525, 52.8183979 ], [ 6.9450535, 52.8183873 ], [ 6.9448113, 52.8183612 ], [ 6.9436605, 52.8182373 ], [ 6.9430205, 52.8181684 ], [ 6.9428599, 52.8181511 ], [ 6.9425707, 52.8181199 ], [ 6.9423341, 52.8180944 ], [ 6.9422366, 52.8180839 ], [ 6.9414417, 52.8179983 ], [ 6.9404113, 52.8178873 ], [ 6.9403382, 52.8178795 ], [ 6.9402652, 52.8178716 ], [ 6.9397347, 52.8178145 ], [ 6.9379496, 52.8176221 ], [ 6.9375035, 52.8175752 ], [ 6.9358774, 52.817404 ], [ 6.9351113, 52.8173218 ], [ 6.9345607, 52.8191773 ], [ 6.9341798, 52.820461 ], [ 6.9337963, 52.8204057 ], [ 6.9334643, 52.8205869 ], [ 6.9324131, 52.8211608 ], [ 6.9310662, 52.821896 ], [ 6.9309485, 52.8219602 ], [ 6.9309606, 52.8219657 ], [ 6.9310366, 52.8220001 ], [ 6.9309906, 52.8220245 ], [ 6.9310018, 52.8220354 ], [ 6.9311978, 52.8221249 ], [ 6.92949, 52.8230463 ], [ 6.9294474, 52.8230869 ], [ 6.9294243, 52.8231213 ], [ 6.928689, 52.8235201 ], [ 6.9286151, 52.8235085 ], [ 6.928405, 52.8234358 ], [ 6.9283865, 52.8234457 ], [ 6.9282947, 52.8234951 ], [ 6.9282689, 52.8235094 ], [ 6.9281307, 52.8235862 ], [ 6.9280214, 52.8236469 ], [ 6.9274568, 52.8239606 ], [ 6.9265729, 52.8244517 ], [ 6.9322656, 52.8263121 ], [ 6.9322631, 52.8263136 ], [ 6.932243, 52.8263254 ], [ 6.9321975, 52.8263572 ], [ 6.9319674, 52.8265179 ], [ 6.9315841, 52.8267897 ], [ 6.9315131, 52.8268437 ], [ 6.9314657, 52.8268919 ], [ 6.9314457, 52.826912 ], [ 6.9313446, 52.8270097 ], [ 6.9312619, 52.8271067 ], [ 6.9311583, 52.8272264 ], [ 6.9311044, 52.8272883 ], [ 6.9310543, 52.8273277 ], [ 6.9310124, 52.8273376 ], [ 6.9309382, 52.8273331 ], [ 6.9308886, 52.8273217 ], [ 6.9303969, 52.8274925 ], [ 6.9268319, 52.8292458 ], [ 6.9268835, 52.8292941 ], [ 6.9276197, 52.8299609 ], [ 6.9290516, 52.8312206 ], [ 6.9293733, 52.8314741 ], [ 6.9296278, 52.8316682 ], [ 6.9308123, 52.8325402 ], [ 6.9307137, 52.8325579 ], [ 6.9307093, 52.8325604 ], [ 6.9305265, 52.8326633 ], [ 6.9304969, 52.8326412 ], [ 6.9303877, 52.8325618 ], [ 6.9298334, 52.8331762 ], [ 6.9290691, 52.8340231 ], [ 6.9287, 52.834432 ], [ 6.927077, 52.8362302 ], [ 6.9255727, 52.8378969 ], [ 6.9255718, 52.8378978 ], [ 6.9237856, 52.8372928 ], [ 6.9157053, 52.8345552 ], [ 6.9139685, 52.8339667 ], [ 6.9138731, 52.8340785 ], [ 6.9136885, 52.8341594 ], [ 6.9129115, 52.833896 ], [ 6.9123999, 52.8337226 ], [ 6.9118182, 52.8343302 ], [ 6.9112275, 52.8350398 ], [ 6.9109254, 52.8354015 ], [ 6.9109252, 52.8354014 ], [ 6.9094179, 52.8348648 ], [ 6.9091558, 52.8347715 ], [ 6.908373, 52.8345036 ], [ 6.9083592, 52.8344989 ], [ 6.9074559, 52.8341109 ], [ 6.9069658, 52.833901 ], [ 6.9031553, 52.8322599 ], [ 6.9013582, 52.8314858 ], [ 6.8988027, 52.8304 ], [ 6.8968756, 52.8295783 ], [ 6.8957293, 52.8290903 ], [ 6.8944779, 52.8285546 ], [ 6.8918357, 52.8274154 ], [ 6.8917685, 52.8273936 ], [ 6.891658, 52.827354 ], [ 6.889965, 52.8266342 ], [ 6.8889341, 52.826196 ], [ 6.885689, 52.8248172 ], [ 6.8849439, 52.8245006 ], [ 6.883485, 52.8238785 ], [ 6.8826316, 52.8236102 ], [ 6.8819752, 52.8234019 ], [ 6.8818594, 52.8233652 ], [ 6.8735991, 52.8207472 ], [ 6.8719494, 52.8202145 ], [ 6.8714172, 52.8200509 ], [ 6.8713835, 52.8200406 ], [ 6.8713199, 52.8200205 ], [ 6.8712011, 52.819983 ], [ 6.8711313, 52.819961 ], [ 6.8706816, 52.819823 ], [ 6.8701437, 52.8196579 ], [ 6.8697629, 52.8195389 ], [ 6.8692534, 52.8193796 ], [ 6.8690372, 52.8193111 ], [ 6.8690253, 52.819307 ], [ 6.8690159, 52.8193028 ], [ 6.8690019, 52.8192938 ], [ 6.8689218, 52.8192234 ], [ 6.8687607, 52.8190818 ], [ 6.8683513, 52.8187217 ], [ 6.8680797, 52.8184819 ], [ 6.8677955, 52.8182294 ], [ 6.8671809, 52.8176875 ], [ 6.8665671, 52.8171445 ], [ 6.8663743, 52.8169723 ], [ 6.8660091, 52.8166457 ], [ 6.8656712, 52.8163465 ], [ 6.8654834, 52.8161822 ], [ 6.8650639, 52.8158159 ], [ 6.8647298, 52.8156715 ], [ 6.8644587, 52.8155648 ], [ 6.8631549, 52.8151551 ], [ 6.8624135, 52.8149229 ], [ 6.8623853, 52.8149127 ], [ 6.862271, 52.8148714 ], [ 6.8618653, 52.8147472 ], [ 6.8613579, 52.814592 ], [ 6.8606264, 52.8143635 ], [ 6.8594894, 52.8140049 ], [ 6.8589257, 52.81383 ], [ 6.8588054, 52.813793 ], [ 6.8585117, 52.8137026 ], [ 6.8583787, 52.8135855 ], [ 6.858367, 52.8135754 ], [ 6.8583069, 52.8135233 ], [ 6.8581856, 52.8134337 ], [ 6.8577088, 52.8130947 ], [ 6.8576906, 52.8130817 ], [ 6.8575997, 52.8130171 ], [ 6.85759, 52.8130103 ], [ 6.8575524, 52.812984 ], [ 6.8570631, 52.812642 ], [ 6.8561977, 52.8120296 ], [ 6.8559569, 52.8118598 ], [ 6.8558142, 52.8117496 ], [ 6.8557167, 52.8116628 ], [ 6.8556221, 52.8115774 ], [ 6.8555667, 52.8115178 ], [ 6.8552642, 52.8111924 ], [ 6.8552423, 52.8111689 ], [ 6.8547511, 52.8106376 ], [ 6.8545984, 52.81046 ], [ 6.85423, 52.8097688 ], [ 6.8540825, 52.8094335 ], [ 6.8538227, 52.8088642 ], [ 6.8536891, 52.808618 ], [ 6.8535965, 52.8084553 ], [ 6.8530925, 52.8077658 ], [ 6.8529468, 52.8075652 ], [ 6.8527605, 52.8073296 ], [ 6.852564, 52.8071063 ], [ 6.852228, 52.8067205 ], [ 6.8519422, 52.8064218 ], [ 6.8517981, 52.8062846 ], [ 6.8515771, 52.806094 ], [ 6.8510289, 52.8056124 ], [ 6.8501132, 52.8048089 ], [ 6.8501058, 52.8048023 ], [ 6.8500684, 52.8047814 ], [ 6.84993, 52.8047037 ], [ 6.8498058, 52.8046339 ], [ 6.8496917, 52.8045699 ], [ 6.849671, 52.8045583 ], [ 6.8495437, 52.8044868 ], [ 6.8494913, 52.8044574 ], [ 6.8492817, 52.8043095 ], [ 6.8490419, 52.8041246 ], [ 6.8488684, 52.8039859 ], [ 6.848832, 52.8039502 ], [ 6.8487111, 52.803815 ], [ 6.8486642, 52.8037557 ], [ 6.8486026, 52.8036615 ], [ 6.8485695, 52.8036011 ], [ 6.848523, 52.8034914 ], [ 6.8484352, 52.8032314 ], [ 6.8483375, 52.8029148 ], [ 6.8481464, 52.802292 ], [ 6.8480033, 52.8018258 ], [ 6.847911, 52.8015461 ], [ 6.8478912, 52.801505 ], [ 6.847738, 52.8012524 ], [ 6.8476015, 52.8010307 ], [ 6.8472799, 52.8005907 ], [ 6.8471241, 52.8003492 ], [ 6.8468704, 52.7999723 ], [ 6.846629, 52.7996296 ], [ 6.8463149, 52.7991691 ], [ 6.8460289, 52.798775 ], [ 6.8457286, 52.7983393 ], [ 6.8455249, 52.7980418 ], [ 6.8454175, 52.797883 ], [ 6.8452501, 52.7976028 ], [ 6.8449928, 52.7971562 ], [ 6.8448853, 52.796949 ], [ 6.8446915, 52.7965873 ], [ 6.8444331, 52.7960813 ], [ 6.8440539, 52.7953628 ], [ 6.8439616, 52.7951943 ], [ 6.8438612, 52.7950236 ], [ 6.8436588, 52.7946983 ], [ 6.8435328, 52.7945177 ], [ 6.8434461, 52.7943982 ], [ 6.843347, 52.7942615 ], [ 6.8431902, 52.7940708 ], [ 6.8430053, 52.793848 ], [ 6.842863, 52.7936873 ], [ 6.8427249, 52.7935387 ], [ 6.8425981, 52.7934094 ], [ 6.8425609, 52.7933724 ], [ 6.8423372, 52.7931497 ], [ 6.8422049, 52.793021 ], [ 6.8420243, 52.7928376 ], [ 6.8417516, 52.7925489 ], [ 6.8415583, 52.7923332 ], [ 6.841341, 52.7920745 ], [ 6.8412004, 52.7918382 ], [ 6.84099, 52.7914683 ], [ 6.8406278, 52.7908732 ], [ 6.8402533, 52.7902457 ], [ 6.8398587, 52.7895874 ], [ 6.8395523, 52.7890775 ], [ 6.8394146, 52.788867 ], [ 6.8392685, 52.7886788 ], [ 6.8389838, 52.7883812 ], [ 6.838332, 52.7877352 ], [ 6.8378251, 52.787228 ], [ 6.8375528, 52.7869572 ], [ 6.8373096, 52.7867015 ], [ 6.8371543, 52.7865233 ], [ 6.8369899, 52.7863136 ], [ 6.8368755, 52.7861591 ], [ 6.8366826, 52.7858682 ], [ 6.8364081, 52.7854261 ], [ 6.8363453, 52.7853118 ], [ 6.8362389, 52.7851437 ], [ 6.8358228, 52.7844665 ], [ 6.8357986, 52.7844272 ], [ 6.8351342, 52.783361 ], [ 6.834925, 52.7830215 ], [ 6.8347983, 52.782817 ], [ 6.8347104, 52.782687 ], [ 6.8346149, 52.7825562 ], [ 6.8344897, 52.7824034 ], [ 6.8343176, 52.7822165 ], [ 6.8341778, 52.7820746 ], [ 6.8340439, 52.7819574 ], [ 6.8337692, 52.7817165 ], [ 6.8335484, 52.7815099 ], [ 6.8334092, 52.7813652 ], [ 6.8332973, 52.7812423 ], [ 6.8332093, 52.7811387 ], [ 6.8330942, 52.7809979 ], [ 6.8329887, 52.7808652 ], [ 6.8325874, 52.7803562 ], [ 6.8324856, 52.780219 ], [ 6.8323784, 52.7800699 ], [ 6.8318404, 52.7793996 ], [ 6.8316441, 52.7791526 ], [ 6.8314867, 52.7789522 ], [ 6.8313786, 52.778807 ], [ 6.8312607, 52.7786493 ], [ 6.8312, 52.7785465 ], [ 6.8311482, 52.778438 ], [ 6.8310948, 52.7783072 ], [ 6.8310471, 52.7781624 ], [ 6.8309997, 52.7779707 ], [ 6.8309733, 52.7777985 ], [ 6.8309664, 52.7776465 ], [ 6.8309754, 52.7775195 ], [ 6.8309946, 52.7773582 ], [ 6.8310394, 52.7771631 ], [ 6.8310713, 52.7770527 ], [ 6.8311027, 52.7769108 ], [ 6.8311152, 52.7768202 ], [ 6.8311235, 52.7767286 ], [ 6.8311282, 52.776644 ], [ 6.8311253, 52.7765315 ], [ 6.8311143, 52.7764382 ], [ 6.8310987, 52.7763532 ], [ 6.8310781, 52.7762546 ], [ 6.8310591, 52.7761371 ], [ 6.8310449, 52.7760469 ], [ 6.8310404, 52.7759722 ], [ 6.8310456, 52.7758821 ], [ 6.8310536, 52.775827 ], [ 6.8310697, 52.7757625 ], [ 6.8310955, 52.7756881 ], [ 6.8311255, 52.7756167 ], [ 6.8311688, 52.775543 ], [ 6.8311744, 52.775535 ], [ 6.8312174, 52.7754727 ], [ 6.8312772, 52.7753977 ], [ 6.8313371, 52.7753295 ], [ 6.8314485, 52.7752218 ], [ 6.8316476, 52.775018 ], [ 6.8318026, 52.7748607 ], [ 6.8319745, 52.7746869 ], [ 6.8321115, 52.7745561 ], [ 6.8322355, 52.7744369 ], [ 6.8322484, 52.7744238 ], [ 6.8327757, 52.7738807 ], [ 6.8334781, 52.77315 ], [ 6.8336304, 52.7729913 ], [ 6.8337165, 52.7728904 ], [ 6.8337797, 52.7728112 ], [ 6.8338496, 52.7727161 ], [ 6.8339663, 52.7725346 ], [ 6.8340975, 52.7722402 ], [ 6.8341556, 52.7720491 ], [ 6.8341964, 52.7718645 ], [ 6.8342169, 52.7716882 ], [ 6.8342274, 52.771561 ], [ 6.8342208, 52.7714291 ], [ 6.8342038, 52.7713108 ], [ 6.8341708, 52.7711828 ], [ 6.8341131, 52.7710066 ], [ 6.8340097, 52.7707788 ], [ 6.8339015, 52.770588 ], [ 6.8337635, 52.770386 ], [ 6.8335857, 52.7701771 ], [ 6.8334827, 52.7700732 ], [ 6.8333987, 52.7700015 ], [ 6.8331939, 52.7698274 ], [ 6.8329482, 52.7696522 ], [ 6.8326884, 52.76949 ], [ 6.832186, 52.7691754 ], [ 6.8315664, 52.7687878 ], [ 6.8314015, 52.7686647 ], [ 6.8312928, 52.7685632 ], [ 6.8311894, 52.7684566 ], [ 6.8311486, 52.7684032 ], [ 6.8310749, 52.768302 ], [ 6.8310063, 52.7681928 ], [ 6.830934, 52.7680358 ], [ 6.8308926, 52.7679083 ], [ 6.8308621, 52.7678009 ], [ 6.8308505, 52.7676904 ] ] ] } }
]
}
