{
"type": "FeatureCollection",
"name": "esbjerg_dk",
"crs": { "type": "name", "properties": { "name": "urn:ogc:def:crs:OGC:1.3:CRS84" } },
"features": [
{ "type": "Feature", "properties": { "id": "12337669-a544-6b98-e053-d480220a5a3f", "skrivemaade": "Esbjerg", "skrivemaade_officiel": "Esbjerg", "skrivemaade_uofficiel": null, "visningstekst": "Esbjerg (By i Esbjerg Kommune)", "stednavn_type": "bebyggelse", "stednavn_subtype": "by", "kommunekode": "0561", "bbox": "POLYGON ((458447.7 6144971.2635, 458447.7 6155141.65, 470000.3 6155141.65, 470000.3 6144971.2635, 458447.7 6144971.2635))" }, "geometry": { "type": "Polygon", "coordinates": [ [ [ 8.413034416799986, 55.530047137018748 ], [ 8.411350535390397, 55.526237715485181 ], [ 8.41268056448302, 55.526047075593887 ], [ 8.412025467190121, 55.525126624909966 ], [ 8.410600149178913, 55.525296752820545 ], [ 8.408388360846381, 55.521572985474428 ], [ 8.413397347979089, 55.52116259129896 ], [ 8.413191078872462, 55.520079031534415 ], [ 8.410677808105239, 55.518077146728892 ], [ 8.404889306800797, 55.5175299617664 ], [ 8.403324235491734, 55.515384800293589 ], [ 8.402396925462048, 55.515536094376131 ], [ 8.403047346871967, 55.516435332775046 ], [ 8.402331330881086, 55.516624946153257 ], [ 8.400939380963425, 55.515573545001033 ], [ 8.402850507900379, 55.514593445927126 ], [ 8.401564350819317, 55.514881186010307 ], [ 8.400915736668646, 55.514200483718724 ], [ 8.40422996405505, 55.513621424726267 ], [ 8.403435773960167, 55.511842857839696 ], [ 8.403300378407026, 55.513025902637466 ], [ 8.39441582029451, 55.513826881478209 ], [ 8.396623483995375, 55.514243216494997 ], [ 8.396030346914854, 55.515457874483374 ], [ 8.394140931219164, 55.515021177978831 ], [ 8.392896764714786, 55.515405183377929 ], [ 8.39296814653936, 55.514245194794725 ], [ 8.389887356788327, 55.515587471173738 ], [ 8.387810277652441, 55.514522170835093 ], [ 8.386629866133084, 55.515029627238043 ], [ 8.386074622347774, 55.514735614624144 ], [ 8.387560453746559, 55.513885172759345 ], [ 8.383880800939961, 55.511461569541197 ], [ 8.38556239934935, 55.510470879523595 ], [ 8.382643878951592, 55.509582510589802 ], [ 8.380323567454091, 55.510909955921953 ], [ 8.381578426470123, 55.511589966959356 ], [ 8.379191214962644, 55.513938384723225 ], [ 8.377353075450838, 55.513981442883178 ], [ 8.378942894951688, 55.517177422311988 ], [ 8.379694791357958, 55.5168993459882 ], [ 8.382147369097519, 55.522225246570081 ], [ 8.383460550206541, 55.521986189487457 ], [ 8.383162062532779, 55.522557983206838 ], [ 8.379786732798266, 55.52343934600615 ], [ 8.382039677177769, 55.523265173161057 ], [ 8.383045051933891, 55.526361276068215 ], [ 8.374216374865753, 55.528136131202103 ], [ 8.372682719300848, 55.531023882241378 ], [ 8.364090736852811, 55.533804916134947 ], [ 8.36539328646414, 55.53552634472917 ], [ 8.364180194622024, 55.535576487042015 ], [ 8.36313628849971, 55.534216811642466 ], [ 8.362122928040558, 55.534629783178858 ], [ 8.363941203112681, 55.537449869577571 ], [ 8.360531243106935, 55.538399169139517 ], [ 8.359829440701951, 55.539708062295468 ], [ 8.356248339140246, 55.540617456508997 ], [ 8.341671437146438, 55.532623936839535 ], [ 8.347996751607456, 55.526767897418239 ], [ 8.34958329781645, 55.526217947773013 ], [ 8.357962451376174, 55.519854067654947 ], [ 8.36581186130158, 55.516523820775667 ], [ 8.37141941142808, 55.513228586233808 ], [ 8.374954056025134, 55.512453132306646 ], [ 8.378085032351457, 55.510897352948618 ], [ 8.380312826010835, 55.509396234522626 ], [ 8.383900479319013, 55.504615256013828 ], [ 8.387431966714308, 55.501519727904068 ], [ 8.405005352876785, 55.490477462768048 ], [ 8.413870644454757, 55.485946769460874 ], [ 8.415325064992976, 55.486066854650474 ], [ 8.414658811043864, 55.486730512934564 ], [ 8.417125529455557, 55.48912775675543 ], [ 8.419581795832054, 55.48774589597911 ], [ 8.421830181257125, 55.488239342703103 ], [ 8.422798625108092, 55.49034543425509 ], [ 8.425378319231466, 55.490804522728411 ], [ 8.42590309326078, 55.490426433026279 ], [ 8.426264361139465, 55.490963683113911 ], [ 8.431122247036994, 55.491973621802678 ], [ 8.433702182790302, 55.494184056787311 ], [ 8.429557829034319, 55.502359641296536 ], [ 8.428614334956592, 55.502158991794708 ], [ 8.428035106053605, 55.50284442451828 ], [ 8.428524060900131, 55.50259869780907 ], [ 8.429119503486151, 55.503177197133347 ], [ 8.428137538487624, 55.503521536270661 ], [ 8.42912707625953, 55.504098190634956 ], [ 8.42677310240706, 55.504614576005665 ], [ 8.425036201237756, 55.504360671384951 ], [ 8.425458707869728, 55.505332045895585 ], [ 8.423534586817812, 55.507725996868444 ], [ 8.414515504916972, 55.510786656057334 ], [ 8.412756773604908, 55.513007172775382 ], [ 8.413053483470124, 55.513787396682829 ], [ 8.414356694055302, 55.513974788356293 ], [ 8.425567593336369, 55.510119578235383 ], [ 8.4288971247659, 55.511453007996401 ], [ 8.431293391991142, 55.510918088197592 ], [ 8.428631985938162, 55.509992293911893 ], [ 8.428457857855356, 55.507628029191096 ], [ 8.429287588205483, 55.50512880500365 ], [ 8.430153062331831, 55.504959497016259 ], [ 8.43608475481833, 55.495205419233628 ], [ 8.434928003419442, 55.491855735091846 ], [ 8.433915596934744, 55.491355130347245 ], [ 8.431974130528621, 55.491474278634954 ], [ 8.431201854924781, 55.489974729342158 ], [ 8.428258353372694, 55.490408247944139 ], [ 8.427714579682144, 55.489543874547735 ], [ 8.426464080983134, 55.489929806629824 ], [ 8.424641641082939, 55.489410682118113 ], [ 8.424642513110392, 55.488721021568367 ], [ 8.427236401591502, 55.488174081290893 ], [ 8.427735435899695, 55.487548392754483 ], [ 8.423005134488685, 55.485929317675598 ], [ 8.421333908394598, 55.486553497150602 ], [ 8.421363644077282, 55.487202417920017 ], [ 8.420212746787676, 55.486927756750497 ], [ 8.420617320478833, 55.485056657863105 ], [ 8.419580989074488, 55.483645551467056 ], [ 8.420622084954777, 55.483200469636792 ], [ 8.41954036888762, 55.482156849469021 ], [ 8.409593142145352, 55.478859816245674 ], [ 8.414956980669428, 55.474969785480738 ], [ 8.416199590575113, 55.475371455236392 ], [ 8.415037276816744, 55.475198949764177 ], [ 8.41148561430624, 55.478190493079808 ], [ 8.412742311194608, 55.47794716884988 ], [ 8.412334724788645, 55.478459025949654 ], [ 8.414078307387165, 55.478777664533332 ], [ 8.415803921360974, 55.476366012494076 ], [ 8.417358765081691, 55.476872856722146 ], [ 8.415808855466553, 55.479284110719668 ], [ 8.416792536302175, 55.479293562630957 ], [ 8.417670189448632, 55.478381539831801 ], [ 8.420652633306993, 55.479328061772335 ], [ 8.420502248908267, 55.478556632451323 ], [ 8.421611372416548, 55.478361312074455 ], [ 8.420987599457304, 55.478053742645038 ], [ 8.421914774066918, 55.478051923478944 ], [ 8.419695256273457, 55.477355981316002 ], [ 8.418763278752577, 55.477857375687726 ], [ 8.42017615510062, 55.476412406019087 ], [ 8.41992084573341, 55.476894457273282 ], [ 8.422273584082149, 55.477642603061412 ], [ 8.42219650196688, 55.476844474039666 ], [ 8.423097645829621, 55.476846565885445 ], [ 8.422277318436501, 55.476457113863709 ], [ 8.423427076056869, 55.476475653941769 ], [ 8.421074118622705, 55.475734806687711 ], [ 8.420536989150818, 55.476091790794314 ], [ 8.421001304446634, 55.475597158119136 ], [ 8.419989362382251, 55.475751598235654 ], [ 8.419552939624165, 55.475100839217063 ], [ 8.41870125172469, 55.475976516311938 ], [ 8.417276644194661, 55.475500860938837 ], [ 8.419502810690624, 55.473559972801304 ], [ 8.420481567571333, 55.47374441620088 ], [ 8.422382010989681, 55.471645757959188 ], [ 8.41982121554107, 55.474823458592603 ], [ 8.423918444448246, 55.476011420117594 ], [ 8.426022743593867, 55.473857682421773 ], [ 8.423490039318512, 55.473061584650814 ], [ 8.422483745518191, 55.473895224858488 ], [ 8.423165802739016, 55.472927066367156 ], [ 8.424288946196022, 55.472289862308124 ], [ 8.42382568762744, 55.472858556167012 ], [ 8.426252209479406, 55.473623687348834 ], [ 8.427271840182909, 55.472573518100923 ], [ 8.423860636813359, 55.47150355951301 ], [ 8.423415841854009, 55.471869617223376 ], [ 8.423303189947218, 55.470830677731755 ], [ 8.42434727031991, 55.468873612920227 ], [ 8.423873762249766, 55.469985276152791 ], [ 8.429443486064253, 55.471755160517866 ], [ 8.43635480197527, 55.466314772611845 ], [ 8.432398729117045, 55.464494103639716 ], [ 8.431452029096972, 55.466512794484792 ], [ 8.430623172323909, 55.465132843189565 ], [ 8.429064254915414, 55.464621653790928 ], [ 8.42554002365136, 55.468041371372365 ], [ 8.425251711845798, 55.468027617620393 ], [ 8.430949446691045, 55.462772867923654 ], [ 8.430842790283204, 55.46061387019855 ], [ 8.43541796785116, 55.458178313408595 ], [ 8.43574804462917, 55.460467914074364 ], [ 8.43667801022451, 55.460507511798703 ], [ 8.437728003615451, 55.462670660563241 ], [ 8.438863280322364, 55.462545125169633 ], [ 8.438592524308755, 55.460496448443273 ], [ 8.440262912177502, 55.461051158974158 ], [ 8.44092847024722, 55.460733134616795 ], [ 8.439788722117292, 55.460140695827192 ], [ 8.441597937931128, 55.460697282357785 ], [ 8.442523546768633, 55.464555547417426 ], [ 8.446395533896736, 55.463323542838268 ], [ 8.44330395362565, 55.461881125064835 ], [ 8.44290332879511, 55.460604114949952 ], [ 8.448433773477158, 55.460383844638969 ], [ 8.448879279984386, 55.462174851255817 ], [ 8.450802644849713, 55.462021840248475 ], [ 8.449759582129083, 55.457743107748435 ], [ 8.442913652694365, 55.458009305893576 ], [ 8.441575269993681, 55.457320908403879 ], [ 8.438417921954647, 55.457191623753019 ], [ 8.441574144343429, 55.45726626992127 ], [ 8.444747146767481, 55.4565975059474 ], [ 8.446542379416202, 55.456158498276764 ], [ 8.446338068906611, 55.455515622838675 ], [ 8.449965550912593, 55.454555748809916 ], [ 8.471308226984524, 55.449778577893476 ], [ 8.472094583420025, 55.451037303606633 ], [ 8.479455640697278, 55.453693613202738 ], [ 8.481688123581355, 55.451896172963146 ], [ 8.484078498347026, 55.45337082412825 ], [ 8.484792727108038, 55.455535166984902 ], [ 8.489716894821612, 55.457129219620768 ], [ 8.491362843162522, 55.455953080275386 ], [ 8.494072868556847, 55.456740690707619 ], [ 8.49580440920367, 55.455574370649138 ], [ 8.49635204713943, 55.455980090768676 ], [ 8.49529447693204, 55.457157735864016 ], [ 8.500730095288105, 55.458147625357192 ], [ 8.498909784131628, 55.456252436427263 ], [ 8.499205393745253, 55.455735251503462 ], [ 8.501077118175925, 55.455749095325004 ], [ 8.503567795098579, 55.45676662749208 ], [ 8.503459752600524, 55.458318047887524 ], [ 8.503830201821755, 55.458474376440257 ], [ 8.504526356981124, 55.457109188544031 ], [ 8.506995165656736, 55.456775088219956 ], [ 8.511333611564506, 55.458401043817645 ], [ 8.518459394269382, 55.457429337347122 ], [ 8.518802461745578, 55.458501081593056 ], [ 8.525322474044483, 55.458038876542432 ], [ 8.525587925796009, 55.45926890053191 ], [ 8.512363067997116, 55.460222269129645 ], [ 8.511115170058938, 55.45841823315358 ], [ 8.507804296501922, 55.458935669938718 ], [ 8.507960958906839, 55.459829134679673 ], [ 8.511199523039206, 55.460522698285715 ], [ 8.512879931338956, 55.463759541093083 ], [ 8.520103211243471, 55.463548418321004 ], [ 8.520577362683547, 55.466573114200919 ], [ 8.510318119660054, 55.465798633180839 ], [ 8.511584301289089, 55.466190532104271 ], [ 8.510576561620052, 55.466360653143362 ], [ 8.510156456445499, 55.467229072429987 ], [ 8.511626091392671, 55.470935403861731 ], [ 8.509628081689883, 55.479456412187318 ], [ 8.506735488950797, 55.483952802850453 ], [ 8.503294234244837, 55.483464260797497 ], [ 8.500387114926472, 55.489390716446707 ], [ 8.500450143323361, 55.489687683491354 ], [ 8.501242389281144, 55.489250427964286 ], [ 8.503065661270311, 55.48960622046387 ], [ 8.501326455353123, 55.489335776163749 ], [ 8.500329843155059, 55.489789361438255 ], [ 8.499801868720541, 55.487966499296455 ], [ 8.498730932994967, 55.488940406431439 ], [ 8.499062407820187, 55.490455603681824 ], [ 8.50250398430202, 55.491226688379435 ], [ 8.501318905663043, 55.491887896893267 ], [ 8.50111836787992, 55.493103309960304 ], [ 8.501609194726775, 55.501588358628119 ], [ 8.491199713042748, 55.501217217578798 ], [ 8.481686049672611, 55.499610379566988 ], [ 8.473155557090838, 55.496745065969321 ], [ 8.472548781129465, 55.49570629906777 ], [ 8.470091282418982, 55.494864771170185 ], [ 8.46908682081007, 55.493793623445001 ], [ 8.465942820744134, 55.494023559031795 ], [ 8.465851917006232, 55.494577049051919 ], [ 8.460999425153016, 55.495170688775296 ], [ 8.460310069898968, 55.495681911910999 ], [ 8.460223043436745, 55.496431934950785 ], [ 8.461213461130241, 55.496710274026213 ], [ 8.466896696445295, 55.496009808750735 ], [ 8.467688956907761, 55.496805804586465 ], [ 8.464813917913109, 55.497669302709689 ], [ 8.463885235788879, 55.502292938929436 ], [ 8.469856757921633, 55.502249562163129 ], [ 8.46960832306274, 55.503194781783016 ], [ 8.473156839748217, 55.502542181431139 ], [ 8.473446412687208, 55.501508800130807 ], [ 8.473967421905872, 55.502208607606846 ], [ 8.475168809056861, 55.502164609111205 ], [ 8.47637580720742, 55.50118457075277 ], [ 8.477448718973605, 55.502029236574728 ], [ 8.475326416246256, 55.504444085899202 ], [ 8.47933584659086, 55.505192909401046 ], [ 8.478340341880639, 55.516397378261132 ], [ 8.468983052858805, 55.517715827256772 ], [ 8.468491070548248, 55.517403593078697 ], [ 8.459072958241405, 55.519685376964439 ], [ 8.456406340743781, 55.51890996064769 ], [ 8.455436650608359, 55.514190983725456 ], [ 8.448827362787247, 55.522050150292777 ], [ 8.443885163785611, 55.52404027539513 ], [ 8.442320260476123, 55.522152164769153 ], [ 8.442126217833586, 55.519678837821729 ], [ 8.435828318853952, 55.518158712815982 ], [ 8.434264069137152, 55.515914839581612 ], [ 8.434460785427358, 55.515416136626428 ], [ 8.438082003288933, 55.514781239556243 ], [ 8.440615564189306, 55.514832732928554 ], [ 8.439187950503825, 55.514663201105932 ], [ 8.439545378583816, 55.514328678544629 ], [ 8.442826559098714, 55.514434762686065 ], [ 8.442774848185541, 55.513375908938428 ], [ 8.438058084495831, 55.513848222606562 ], [ 8.432159043641644, 55.511822664101118 ], [ 8.431542946312335, 55.512335681642455 ], [ 8.433388653964707, 55.514456619996992 ], [ 8.425230356810845, 55.516984871948331 ], [ 8.425061907222551, 55.518719062894213 ], [ 8.425846054222202, 55.520088853725092 ], [ 8.430089666658029, 55.518751541467807 ], [ 8.433382986477195, 55.521078956413945 ], [ 8.434320541702011, 55.522554894404415 ], [ 8.432120985303074, 55.523418588138249 ], [ 8.431687990454469, 55.525173346197001 ], [ 8.434675167576417, 55.525410754475402 ], [ 8.434599419880373, 55.527935330614085 ], [ 8.43590135385938, 55.528193941304437 ], [ 8.422014904348636, 55.529012167037003 ], [ 8.421503712423968, 55.529787206037071 ], [ 8.420557576139336, 55.529821464031293 ], [ 8.420239980608086, 55.529236872961789 ], [ 8.413034416799986, 55.530047137018748 ] ] ] } }
]
}
