{
"type": "FeatureCollection",
"name": "funchal_pt",
"crs": { "type": "name", "properties": { "name": "urn:ogc:def:crs:OGC:1.3:CRS84" } },
"features": [
{ "type": "Feature", "properties": { }, "geometry": { "type": "Polygon", "coordinates": [ [ [ -16.9696837, 32.645343 ], [ -16.9696291, 32.6450053 ], [ -16.9694712, 32.6446958 ], [ -16.9694451, 32.6445154 ], [ -16.9693272, 32.6444698 ], [ -16.9688001, 32.6443195 ], [ -16.968261, 32.6441657 ], [ -16.9677914, 32.6440891 ], [ -16.9667716, 32.6437117 ], [ -16.9664908, 32.6435913 ], [ -16.9664237, 32.6435625 ], [ -16.9655791, 32.6433267 ], [ -16.9650947, 32.6431132 ], [ -16.9647494, 32.6430225 ], [ -16.9644195, 32.6430677 ], [ -16.9639769, 32.643289 ], [ -16.963816, 32.6433297 ], [ -16.9632581, 32.6432755 ], [ -16.9627759, 32.6431315 ], [ -16.9624094, 32.6429502 ], [ -16.9622831, 32.6428703 ], [ -16.9620692, 32.6428219 ], [ -16.9618156, 32.6428402 ], [ -16.9614828, 32.6428964 ], [ -16.9613056, 32.6429575 ], [ -16.9610487, 32.6430461 ], [ -16.9608727, 32.6430899 ], [ -16.9605879, 32.6430992 ], [ -16.9602579, 32.6430335 ], [ -16.9600181, 32.6429621 ], [ -16.9597501, 32.6428539 ], [ -16.9592112, 32.6425493 ], [ -16.9588828, 32.6425806 ], [ -16.9588205, 32.6425866 ], [ -16.9587762, 32.6425651 ], [ -16.9587695, 32.6425386 ], [ -16.9587381, 32.6425443 ], [ -16.9586722, 32.6425817 ], [ -16.9584119, 32.6425146 ], [ -16.9582515, 32.642322 ], [ -16.9581586, 32.642315 ], [ -16.9571528, 32.6418551 ], [ -16.9568848, 32.6416791 ], [ -16.9568833, 32.641613 ], [ -16.9569062, 32.6415487 ], [ -16.9568906, 32.6414509 ], [ -16.9570005, 32.6413924 ], [ -16.9569864, 32.6413443 ], [ -16.9570729, 32.6411893 ], [ -16.9570645, 32.6411637 ], [ -16.9570505, 32.6411543 ], [ -16.9569556, 32.6411414 ], [ -16.9568996, 32.6412091 ], [ -16.9568541, 32.6412177 ], [ -16.9568144, 32.6411921 ], [ -16.9567985, 32.6411427 ], [ -16.9567582, 32.6411229 ], [ -16.9567011, 32.6411241 ], [ -16.9566609, 32.6411327 ], [ -16.9565648, 32.6411831 ], [ -16.9565442, 32.6413706 ], [ -16.9565568, 32.6414085 ], [ -16.956618, 32.6414924 ], [ -16.9562504, 32.6419386 ], [ -16.9560808, 32.6421444 ], [ -16.9559814, 32.6421217 ], [ -16.9559094, 32.6421167 ], [ -16.9557239, 32.6420679 ], [ -16.9554958, 32.6420156 ], [ -16.9551955, 32.6418832 ], [ -16.9544951, 32.6415351 ], [ -16.9540606, 32.6412623 ], [ -16.9534543, 32.6408009 ], [ -16.9529876, 32.6404457 ], [ -16.9514543, 32.6392944 ], [ -16.9492952, 32.6376415 ], [ -16.9478602, 32.6365932 ], [ -16.947854, 32.636541 ], [ -16.9477781, 32.6364899 ], [ -16.9477783, 32.6363299 ], [ -16.947686, 32.6362241 ], [ -16.9477096, 32.6359753 ], [ -16.9478197, 32.6358608 ], [ -16.9478761, 32.6357423 ], [ -16.9479052, 32.635681 ], [ -16.9480295, 32.6355215 ], [ -16.9481915, 32.6354163 ], [ -16.9482088, 32.6353434 ], [ -16.9482161, 32.6351694 ], [ -16.948089, 32.6351186 ], [ -16.9478205, 32.6351856 ], [ -16.9477362, 32.6351215 ], [ -16.947681, 32.6349701 ], [ -16.9476094, 32.6348886 ], [ -16.9474588, 32.6347173 ], [ -16.9474044, 32.6344777 ], [ -16.9474365, 32.634428 ], [ -16.9473274, 32.6341922 ], [ -16.9472844, 32.6341465 ], [ -16.9471791, 32.6341423 ], [ -16.9471366, 32.6341024 ], [ -16.9470406, 32.6338474 ], [ -16.9468161, 32.6335511 ], [ -16.9466993, 32.6334621 ], [ -16.9466193, 32.6334801 ], [ -16.9466095, 32.6335343 ], [ -16.9465398, 32.6334644 ], [ -16.9464353, 32.6334697 ], [ -16.946332, 32.6333315 ], [ -16.9463169, 32.6332089 ], [ -16.9463698, 32.6331425 ], [ -16.9463203, 32.6330853 ], [ -16.9462947, 32.6330823 ], [ -16.9462939, 32.6331325 ], [ -16.9462266, 32.633156 ], [ -16.9459009, 32.6331561 ], [ -16.9457269, 32.6331255 ], [ -16.9455835, 32.6330645 ], [ -16.9454302, 32.6330592 ], [ -16.944836, 32.6329406 ], [ -16.9448022, 32.633022 ], [ -16.9446244, 32.6331775 ], [ -16.9446051, 32.6333937 ], [ -16.9445416, 32.6333927 ], [ -16.9445153, 32.6334448 ], [ -16.9443732, 32.6334668 ], [ -16.9443024, 32.6335104 ], [ -16.9442511, 32.6333618 ], [ -16.9441683, 32.6333496 ], [ -16.9440589, 32.6332741 ], [ -16.9440319, 32.6330992 ], [ -16.9439837, 32.6330865 ], [ -16.9439, 32.6328986 ], [ -16.9438017, 32.6328809 ], [ -16.9437801, 32.6329122 ], [ -16.9437398, 32.6329003 ], [ -16.9437026, 32.6329699 ], [ -16.9438015, 32.6330161 ], [ -16.9438184, 32.633104 ], [ -16.9439197, 32.6331798 ], [ -16.9439904, 32.6333426 ], [ -16.9439661, 32.6333921 ], [ -16.9438298, 32.6333211 ], [ -16.9437391, 32.6331979 ], [ -16.9435984, 32.6332419 ], [ -16.9436615, 32.6330586 ], [ -16.9436309, 32.6330314 ], [ -16.9436382, 32.6329591 ], [ -16.9435584, 32.6330218 ], [ -16.9435738, 32.6329822 ], [ -16.9435347, 32.6329611 ], [ -16.9435403, 32.6329111 ], [ -16.9433938, 32.6329438 ], [ -16.9433228, 32.6329218 ], [ -16.9432043, 32.6329471 ], [ -16.9431432, 32.6330642 ], [ -16.9430514, 32.6330771 ], [ -16.9430395, 32.6329911 ], [ -16.9428938, 32.633036 ], [ -16.9428801, 32.6330646 ], [ -16.9431058, 32.6331433 ], [ -16.9433039, 32.6330132 ], [ -16.9433328, 32.6330559 ], [ -16.9432724, 32.6330784 ], [ -16.9432803, 32.633102 ], [ -16.9433967, 32.6330986 ], [ -16.9435513, 32.6331744 ], [ -16.9434178, 32.6333168 ], [ -16.9432133, 32.6332945 ], [ -16.9431325, 32.6332445 ], [ -16.9429008, 32.6332436 ], [ -16.9432903, 32.6333647 ], [ -16.9432541, 32.6334175 ], [ -16.9432933, 32.6335043 ], [ -16.943144, 32.6336543 ], [ -16.9430356, 32.6336547 ], [ -16.9427073, 32.6335486 ], [ -16.9424903, 32.633572 ], [ -16.9425009, 32.6336283 ], [ -16.9424597, 32.6336651 ], [ -16.9423691, 32.6336584 ], [ -16.9422723, 32.6337199 ], [ -16.9420096, 32.6337588 ], [ -16.9419982, 32.6338315 ], [ -16.9419302, 32.6338454 ], [ -16.9418596, 32.6339285 ], [ -16.9417313, 32.6338651 ], [ -16.9416296, 32.6339357 ], [ -16.9416319, 32.6338727 ], [ -16.9417003, 32.6337712 ], [ -16.941646, 32.6337328 ], [ -16.9415158, 32.6339843 ], [ -16.9415902, 32.6341313 ], [ -16.941541, 32.6341618 ], [ -16.9415415, 32.6342923 ], [ -16.9415134, 32.634308 ], [ -16.941432, 32.6342724 ], [ -16.9414674, 32.6340164 ], [ -16.9414022, 32.6340498 ], [ -16.9413517, 32.634072 ], [ -16.9413376, 32.634125 ], [ -16.9413229, 32.6341614 ], [ -16.9412933, 32.6342234 ], [ -16.9413207, 32.6342431 ], [ -16.9412878, 32.6343381 ], [ -16.9411556, 32.6343524 ], [ -16.9411398, 32.6343354 ], [ -16.9411302, 32.6343209 ], [ -16.9411114, 32.6342882 ], [ -16.9410532, 32.6342557 ], [ -16.9410523, 32.6342428 ], [ -16.9410835, 32.6342418 ], [ -16.9410817, 32.6342206 ], [ -16.9410525, 32.6342204 ], [ -16.9410787, 32.6341914 ], [ -16.9410763, 32.6341028 ], [ -16.9410272, 32.6340831 ], [ -16.9410157, 32.6340515 ], [ -16.9409506, 32.6339651 ], [ -16.9409208, 32.6340405 ], [ -16.9409073, 32.6340745 ], [ -16.9400726, 32.6340476 ], [ -16.9398719, 32.6339942 ], [ -16.9397439, 32.6339602 ], [ -16.9397069, 32.6338362 ], [ -16.9396092, 32.6337274 ], [ -16.9394062, 32.6337631 ], [ -16.9394977, 32.6338162 ], [ -16.9393415, 32.6337695 ], [ -16.9392399, 32.6338927 ], [ -16.9392632, 32.6339595 ], [ -16.939378, 32.634059 ], [ -16.9395668, 32.6341116 ], [ -16.9396161, 32.6341799 ], [ -16.9394418, 32.6343223 ], [ -16.9394013, 32.6342975 ], [ -16.939379, 32.6343201 ], [ -16.9393137, 32.63431 ], [ -16.9392602, 32.6341814 ], [ -16.9389841, 32.6346077 ], [ -16.9391201, 32.6347477 ], [ -16.9390932, 32.6349416 ], [ -16.9390455, 32.6349833 ], [ -16.939078, 32.6350341 ], [ -16.9390192, 32.6352517 ], [ -16.9389636, 32.6352466 ], [ -16.9389511, 32.6352812 ], [ -16.9391303, 32.6354236 ], [ -16.939056, 32.6356348 ], [ -16.9390525, 32.6356447 ], [ -16.9388802, 32.6357685 ], [ -16.9386183, 32.635893 ], [ -16.9385313, 32.6359174 ], [ -16.9384914, 32.6357979 ], [ -16.9384736, 32.6358535 ], [ -16.93843, 32.6358815 ], [ -16.9384191, 32.6358885 ], [ -16.9383893, 32.6358501 ], [ -16.9383592, 32.6358112 ], [ -16.9382658, 32.6358907 ], [ -16.9382493, 32.6358599 ], [ -16.9382086, 32.6358885 ], [ -16.9381723, 32.6358669 ], [ -16.9381353, 32.6359212 ], [ -16.9381144, 32.6358881 ], [ -16.9380473, 32.6359332 ], [ -16.9380204, 32.6358943 ], [ -16.9380246, 32.635684 ], [ -16.9379179, 32.6356643 ], [ -16.9378173, 32.6357429 ], [ -16.9378529, 32.6358982 ], [ -16.9377943, 32.6359103 ], [ -16.9377495, 32.6359696 ], [ -16.9377431, 32.6360193 ], [ -16.9377307, 32.6361148 ], [ -16.937568, 32.6359654 ], [ -16.9375511, 32.6359855 ], [ -16.9375912, 32.6360414 ], [ -16.9374386, 32.636164 ], [ -16.9374011, 32.6360466 ], [ -16.9372721, 32.6360306 ], [ -16.9372398, 32.6361076 ], [ -16.9372132, 32.6360632 ], [ -16.9371869, 32.6360688 ], [ -16.9372004, 32.6362171 ], [ -16.9371774, 32.6362403 ], [ -16.9369344, 32.6362671 ], [ -16.9368839, 32.6362392 ], [ -16.9367446, 32.6362956 ], [ -16.9367224, 32.6362635 ], [ -16.9365806, 32.6362778 ], [ -16.9365501, 32.6361728 ], [ -16.9365044, 32.6360765 ], [ -16.9365059, 32.6359223 ], [ -16.9365341, 32.6358091 ], [ -16.936534, 32.6356636 ], [ -16.9365054, 32.6356636 ], [ -16.9364515, 32.6357221 ], [ -16.936415, 32.6357992 ], [ -16.9364465, 32.6358274 ], [ -16.9364004, 32.6359756 ], [ -16.9364327, 32.6360877 ], [ -16.9361145, 32.6361639 ], [ -16.9360028, 32.6361054 ], [ -16.9359653, 32.6361133 ], [ -16.9360255, 32.6362564 ], [ -16.9360276, 32.6362614 ], [ -16.9358823, 32.6362821 ], [ -16.9358418, 32.6363316 ], [ -16.9355604, 32.636409 ], [ -16.9353603, 32.6365205 ], [ -16.9351799, 32.6365356 ], [ -16.9350171, 32.6365189 ], [ -16.9347998, 32.6364728 ], [ -16.9346423, 32.6364209 ], [ -16.9345049, 32.6363565 ], [ -16.9344299, 32.6362973 ], [ -16.9343819, 32.6362319 ], [ -16.9343911, 32.636183 ], [ -16.9344574, 32.6360852 ], [ -16.9345915, 32.6360135 ], [ -16.934642, 32.6359457 ], [ -16.9346299, 32.6358942 ], [ -16.9345706, 32.6358686 ], [ -16.9345265, 32.6358876 ], [ -16.9344755, 32.6360105 ], [ -16.9344195, 32.6360502 ], [ -16.9343342, 32.635942 ], [ -16.9341666, 32.6360224 ], [ -16.9340181, 32.6360221 ], [ -16.9339689, 32.6359873 ], [ -16.9339973, 32.6359309 ], [ -16.9339659, 32.6358678 ], [ -16.9339572, 32.6358503 ], [ -16.9340227, 32.6357111 ], [ -16.9340511, 32.6356507 ], [ -16.9338758, 32.6355535 ], [ -16.9338454, 32.635487 ], [ -16.933794, 32.6354629 ], [ -16.9337697, 32.6354515 ], [ -16.9337131, 32.6354878 ], [ -16.9335575, 32.6354887 ], [ -16.9334382, 32.6353867 ], [ -16.9332953, 32.635344 ], [ -16.9332268, 32.635359 ], [ -16.9329261, 32.6353054 ], [ -16.9327764, 32.6352571 ], [ -16.9327122, 32.6351793 ], [ -16.9326313, 32.6351614 ], [ -16.9325387, 32.63528 ], [ -16.9324676, 32.635371 ], [ -16.93234, 32.6353372 ], [ -16.9321314, 32.6353383 ], [ -16.9321185, 32.6353384 ], [ -16.9320432, 32.6354306 ], [ -16.932054, 32.6355626 ], [ -16.9320015, 32.6357321 ], [ -16.9319173, 32.6357538 ], [ -16.9318426, 32.6357155 ], [ -16.9317632, 32.6357527 ], [ -16.9316866, 32.6357435 ], [ -16.9316249, 32.6358386 ], [ -16.9315935, 32.6359907 ], [ -16.9312292, 32.6359787 ], [ -16.9308042, 32.6359161 ], [ -16.9306349, 32.6359535 ], [ -16.9305522, 32.6359236 ], [ -16.93052, 32.6358411 ], [ -16.9304277, 32.635855 ], [ -16.9302853, 32.6359861 ], [ -16.9301784, 32.6362635 ], [ -16.9298163, 32.6364589 ], [ -16.9293737, 32.6366114 ], [ -16.9293366, 32.6366048 ], [ -16.9293003, 32.6364855 ], [ -16.9292352, 32.636463 ], [ -16.9291862, 32.6363992 ], [ -16.929125, 32.6364297 ], [ -16.9292025, 32.6365455 ], [ -16.9290519, 32.6366435 ], [ -16.9284802, 32.6368597 ], [ -16.9284304, 32.6367335 ], [ -16.9283633, 32.6367522 ], [ -16.9284709, 32.6370287 ], [ -16.9284456, 32.6370493 ], [ -16.9284189, 32.637071 ], [ -16.928358, 32.6370683 ], [ -16.9281237, 32.6369142 ], [ -16.9280273, 32.6369221 ], [ -16.9279422, 32.6369927 ], [ -16.9278531, 32.6369946 ], [ -16.9278305, 32.6369338 ], [ -16.9277856, 32.6368127 ], [ -16.9277222, 32.63683 ], [ -16.9277529, 32.6369608 ], [ -16.9277634, 32.6370055 ], [ -16.9274745, 32.6370403 ], [ -16.9272544, 32.6371036 ], [ -16.9271999, 32.6369542 ], [ -16.927137, 32.6369707 ], [ -16.9271908, 32.6371121 ], [ -16.9267161, 32.6372142 ], [ -16.9266678, 32.6370237 ], [ -16.9265829, 32.637036 ], [ -16.9266084, 32.6371546 ], [ -16.9265281, 32.6371986 ], [ -16.9261062, 32.6371932 ], [ -16.9260935, 32.6371831 ], [ -16.9260028, 32.6371104 ], [ -16.9259797, 32.6371191 ], [ -16.9258994, 32.6372472 ], [ -16.9258879, 32.6373976 ], [ -16.9257908, 32.6374566 ], [ -16.9257385, 32.6376404 ], [ -16.9257079, 32.6377478 ], [ -16.9256908, 32.6381575 ], [ -16.925606, 32.6382191 ], [ -16.9255704, 32.6383664 ], [ -16.9254601, 32.6385274 ], [ -16.9254727, 32.6386042 ], [ -16.9252372, 32.6389725 ], [ -16.9251883, 32.6392601 ], [ -16.9252217, 32.639341 ], [ -16.9251989, 32.6394878 ], [ -16.9251444, 32.6395813 ], [ -16.9251123, 32.6395428 ], [ -16.9250817, 32.6395514 ], [ -16.9250849, 32.6397001 ], [ -16.9250032, 32.6398857 ], [ -16.9248316, 32.6399394 ], [ -16.9247438, 32.6400048 ], [ -16.9246344, 32.6400096 ], [ -16.9239847, 32.639674 ], [ -16.923758, 32.6395131 ], [ -16.9235437, 32.6394174 ], [ -16.9234207, 32.6394134 ], [ -16.923431, 32.6394784 ], [ -16.9234733, 32.6395083 ], [ -16.9234608, 32.6395442 ], [ -16.9233159, 32.6395374 ], [ -16.9232355, 32.6395815 ], [ -16.9232183, 32.6396258 ], [ -16.9232751, 32.6397848 ], [ -16.9232677, 32.6399463 ], [ -16.9232167, 32.6399911 ], [ -16.9230969, 32.6399619 ], [ -16.923046, 32.6399898 ], [ -16.9230388, 32.6400901 ], [ -16.9231004, 32.6401749 ], [ -16.9231205, 32.6402748 ], [ -16.9230947, 32.6404421 ], [ -16.9230598, 32.6404692 ], [ -16.9230308, 32.640461 ], [ -16.9229448, 32.6404368 ], [ -16.9228275, 32.6402708 ], [ -16.922823, 32.6402645 ], [ -16.9227267, 32.6402531 ], [ -16.9227224, 32.6403544 ], [ -16.9226526, 32.6404209 ], [ -16.9225591, 32.6406085 ], [ -16.9226391, 32.6407403 ], [ -16.9227416, 32.6407491 ], [ -16.9226534, 32.6408054 ], [ -16.9226191, 32.6409357 ], [ -16.9227274, 32.6411399 ], [ -16.9224179, 32.6412351 ], [ -16.9223191, 32.6412422 ], [ -16.922271, 32.6412488 ], [ -16.922172, 32.641277 ], [ -16.922069, 32.6411681 ], [ -16.9219063, 32.6411674 ], [ -16.9219027, 32.6411406 ], [ -16.921859, 32.6411433 ], [ -16.9218617, 32.6412089 ], [ -16.9220422, 32.6411971 ], [ -16.9220961, 32.6412601 ], [ -16.9218576, 32.6413837 ], [ -16.9217047, 32.6413186 ], [ -16.9214842, 32.6413644 ], [ -16.9212229, 32.641469 ], [ -16.9210292, 32.6415893 ], [ -16.9208465, 32.6416143 ], [ -16.9202731, 32.6413609 ], [ -16.920001, 32.641151 ], [ -16.9196387, 32.6410104 ], [ -16.9196062, 32.6410325 ], [ -16.9195703, 32.6409842 ], [ -16.9194883, 32.6410063 ], [ -16.9194918, 32.6410508 ], [ -16.9194203, 32.6410477 ], [ -16.9193922, 32.6410903 ], [ -16.9194285, 32.6411474 ], [ -16.9195727, 32.6411867 ], [ -16.9196186, 32.6412411 ], [ -16.9195557, 32.6414911 ], [ -16.9193622, 32.6416447 ], [ -16.9193494, 32.6416437 ], [ -16.9193167, 32.6416411 ], [ -16.9190123, 32.6416165 ], [ -16.9190338, 32.6414923 ], [ -16.9192007, 32.6414897 ], [ -16.9192061, 32.6413509 ], [ -16.9190657, 32.6413528 ], [ -16.9190637, 32.6414455 ], [ -16.9189156, 32.6414339 ], [ -16.9189116, 32.641487 ], [ -16.9189561, 32.6414914 ], [ -16.9189206, 32.64158 ], [ -16.9180583, 32.6416274 ], [ -16.9178025, 32.6413403 ], [ -16.9178813, 32.641255 ], [ -16.9179174, 32.6412166 ], [ -16.9179579, 32.6411831 ], [ -16.9179712, 32.6411838 ], [ -16.9180154, 32.6411552 ], [ -16.9180344, 32.6411129 ], [ -16.9180296, 32.6410999 ], [ -16.9179999, 32.6410896 ], [ -16.9179784, 32.6411031 ], [ -16.9179619, 32.6411377 ], [ -16.917955, 32.6411442 ], [ -16.9178908, 32.6411478 ], [ -16.9178876, 32.6411446 ], [ -16.917887, 32.6411217 ], [ -16.9178898, 32.6410913 ], [ -16.9178796, 32.6410699 ], [ -16.9178685, 32.6410572 ], [ -16.9178084, 32.6410247 ], [ -16.9177871, 32.6410197 ], [ -16.9177744, 32.6410207 ], [ -16.9177697, 32.6410244 ], [ -16.9177736, 32.6410402 ], [ -16.9177939, 32.6410773 ], [ -16.9178623, 32.6410974 ], [ -16.9178677, 32.6411066 ], [ -16.9178627, 32.6411388 ], [ -16.9178531, 32.6411528 ], [ -16.9178352, 32.641161 ], [ -16.9178097, 32.6411631 ], [ -16.9177646, 32.641152 ], [ -16.917713, 32.6411164 ], [ -16.9176858, 32.6410918 ], [ -16.917662, 32.6410807 ], [ -16.9176264, 32.6410757 ], [ -16.9175843, 32.6410848 ], [ -16.9175763, 32.6410794 ], [ -16.9175697, 32.6410537 ], [ -16.9175721, 32.6410383 ], [ -16.9175809, 32.6410301 ], [ -16.9176012, 32.6410226 ], [ -16.9176114, 32.6410075 ], [ -16.9176032, 32.6409834 ], [ -16.9176066, 32.6409774 ], [ -16.9175867, 32.6409799 ], [ -16.9175677, 32.6409972 ], [ -16.9175536, 32.6410028 ], [ -16.9175307, 32.6410024 ], [ -16.9175063, 32.6409883 ], [ -16.917486, 32.6409846 ], [ -16.9174358, 32.6409863 ], [ -16.9173617, 32.6409675 ], [ -16.9172746, 32.640977 ], [ -16.9171958, 32.6409239 ], [ -16.9171861, 32.6409213 ], [ -16.9171535, 32.6409178 ], [ -16.9171191, 32.6409249 ], [ -16.9170936, 32.6409221 ], [ -16.9170673, 32.6409258 ], [ -16.917048, 32.6409155 ], [ -16.9170183, 32.6409149 ], [ -16.9169726, 32.6408997 ], [ -16.9169359, 32.6408961 ], [ -16.916924, 32.6409061 ], [ -16.916875, 32.6409081 ], [ -16.9167985, 32.6409003 ], [ -16.9168, 32.6408948 ], [ -16.9167916, 32.6408914 ], [ -16.9167672, 32.6408915 ], [ -16.9167603, 32.6409032 ], [ -16.9167501, 32.6409059 ], [ -16.9167185, 32.6409019 ], [ -16.9167052, 32.6409097 ], [ -16.916696, 32.6409098 ], [ -16.9166396, 32.6408859 ], [ -16.916638, 32.6408784 ], [ -16.916622, 32.6408746 ], [ -16.9166126, 32.6408782 ], [ -16.916572, 32.6408808 ], [ -16.9165517, 32.6408942 ], [ -16.9165148, 32.640889 ], [ -16.9164966, 32.6408974 ], [ -16.9164886, 32.6408976 ], [ -16.9164027, 32.6408947 ], [ -16.9163576, 32.6408834 ], [ -16.9163099, 32.640882 ], [ -16.9162854, 32.6408754 ], [ -16.9162594, 32.640899 ], [ -16.916252, 32.6408964 ], [ -16.9162117, 32.6408973 ], [ -16.9162169, 32.6408819 ], [ -16.9161999, 32.6408727 ], [ -16.9161902, 32.6408726 ], [ -16.9161802, 32.6408868 ], [ -16.9161521, 32.6408911 ], [ -16.9161555, 32.6408784 ], [ -16.9161143, 32.6408843 ], [ -16.9160992, 32.6408774 ], [ -16.91608, 32.6408774 ], [ -16.9160778, 32.6408858 ], [ -16.9160745, 32.6408858 ], [ -16.9160637, 32.6408785 ], [ -16.9160283, 32.6408826 ], [ -16.9159768, 32.6408714 ], [ -16.9159554, 32.6408782 ], [ -16.9159464, 32.640891 ], [ -16.9159296, 32.6408955 ], [ -16.9159268, 32.6408992 ], [ -16.9159375, 32.6409154 ], [ -16.9159265, 32.6409171 ], [ -16.9159109, 32.6409156 ], [ -16.9159021, 32.6409034 ], [ -16.9158896, 32.6409051 ], [ -16.9158781, 32.6408989 ], [ -16.915865, 32.6409005 ], [ -16.9158589, 32.6409154 ], [ -16.915852, 32.6409179 ], [ -16.915814, 32.6409161 ], [ -16.9158076, 32.6409111 ], [ -16.9158092, 32.6409005 ], [ -16.9157772, 32.6408939 ], [ -16.9157609, 32.6409013 ], [ -16.9157546, 32.640915 ], [ -16.9157436, 32.6409129 ], [ -16.9157426, 32.6408961 ], [ -16.9157392, 32.6408961 ], [ -16.9157321, 32.6408995 ], [ -16.9157245, 32.6409106 ], [ -16.9156826, 32.640917 ], [ -16.915669, 32.6409211 ], [ -16.9156613, 32.6409304 ], [ -16.9156346, 32.6409368 ], [ -16.9154855, 32.6409369 ], [ -16.9154477, 32.6409123 ], [ -16.9153824, 32.6408698 ], [ -16.91533, 32.6408514 ], [ -16.9152775, 32.6408444 ], [ -16.9152369, 32.6408672 ], [ -16.9153252, 32.6409141 ], [ -16.9153018, 32.6409805 ], [ -16.915192, 32.6409888 ], [ -16.9150702, 32.6408931 ], [ -16.9150645, 32.640877 ], [ -16.9150574, 32.6408724 ], [ -16.915049, 32.6408726 ], [ -16.9150384, 32.6408796 ], [ -16.9150346, 32.6409032 ], [ -16.9150294, 32.6409063 ], [ -16.9150094, 32.6409062 ], [ -16.914983, 32.6409165 ], [ -16.9149645, 32.6409279 ], [ -16.9149484, 32.640947 ], [ -16.9149408, 32.6409684 ], [ -16.9149411, 32.6409802 ], [ -16.9149836, 32.6410324 ], [ -16.9149665, 32.6410369 ], [ -16.9127151, 32.6413686 ], [ -16.9119189, 32.6414893 ], [ -16.9118595, 32.6414659 ], [ -16.9118289, 32.6414594 ], [ -16.9118103, 32.6414101 ], [ -16.911816, 32.6413977 ], [ -16.9117995, 32.6413849 ], [ -16.911788, 32.6413809 ], [ -16.9117686, 32.6413806 ], [ -16.9117306, 32.6413987 ], [ -16.9117161, 32.6413897 ], [ -16.9117066, 32.6413971 ], [ -16.9116726, 32.6413887 ], [ -16.9116502, 32.6413886 ], [ -16.9116012, 32.6414241 ], [ -16.9115961, 32.6414227 ], [ -16.9115991, 32.6414146 ], [ -16.911593, 32.6414108 ], [ -16.9115857, 32.6414179 ], [ -16.9115527, 32.6414258 ], [ -16.9115456, 32.6414461 ], [ -16.9115378, 32.6414496 ], [ -16.9115085, 32.64144 ], [ -16.911493, 32.6414437 ], [ -16.911477, 32.6414582 ], [ -16.9114439, 32.6414515 ], [ -16.9114217, 32.6414522 ], [ -16.9113873, 32.6414626 ], [ -16.911366, 32.6414589 ], [ -16.911349, 32.6414645 ], [ -16.9113464, 32.6414611 ], [ -16.9112766, 32.6414712 ], [ -16.9112701, 32.6414751 ], [ -16.9112447, 32.6414687 ], [ -16.9112342, 32.6414688 ], [ -16.9112235, 32.6414775 ], [ -16.9111674, 32.6414742 ], [ -16.9111568, 32.6414866 ], [ -16.9111364, 32.6414768 ], [ -16.911015, 32.6415144 ], [ -16.9109996, 32.6415143 ], [ -16.9109805, 32.6415069 ], [ -16.9109657, 32.6415132 ], [ -16.9109251, 32.641513 ], [ -16.9108997, 32.6415222 ], [ -16.9108715, 32.6415234 ], [ -16.9108408, 32.6415415 ], [ -16.9108114, 32.6415412 ], [ -16.910803, 32.6415464 ], [ -16.910771, 32.6415352 ], [ -16.9107312, 32.6415412 ], [ -16.9107177, 32.6415536 ], [ -16.9106976, 32.6415536 ], [ -16.9106723, 32.6415448 ], [ -16.9106573, 32.6415504 ], [ -16.9106441, 32.6415508 ], [ -16.9106362, 32.6415584 ], [ -16.9106271, 32.6415584 ], [ -16.91061, 32.6415661 ], [ -16.910586, 32.64156 ], [ -16.9105589, 32.641576 ], [ -16.9104842, 32.6415744 ], [ -16.9104709, 32.6415662 ], [ -16.9104591, 32.641566 ], [ -16.9104421, 32.6415568 ], [ -16.9104379, 32.6415604 ], [ -16.9104409, 32.6415722 ], [ -16.910427, 32.6415839 ], [ -16.9104176, 32.6415868 ], [ -16.910376, 32.6415857 ], [ -16.9103581, 32.6415769 ], [ -16.9103496, 32.6415766 ], [ -16.910334, 32.6415809 ], [ -16.9103031, 32.6415798 ], [ -16.910273, 32.6415875 ], [ -16.9102491, 32.6415767 ], [ -16.9102178, 32.6415791 ], [ -16.9102163, 32.6415701 ], [ -16.9102108, 32.6415689 ], [ -16.9101993, 32.6415696 ], [ -16.9101873, 32.6415779 ], [ -16.9101662, 32.6415781 ], [ -16.910142, 32.6415754 ], [ -16.9101201, 32.6415682 ], [ -16.9100919, 32.6415794 ], [ -16.9100709, 32.6415721 ], [ -16.9100504, 32.6415766 ], [ -16.9100284, 32.6415707 ], [ -16.9100004, 32.6415836 ], [ -16.9099929, 32.6415836 ], [ -16.9099673, 32.6415695 ], [ -16.9099575, 32.6415695 ], [ -16.9099338, 32.6415747 ], [ -16.909914, 32.6415845 ], [ -16.9099124, 32.6415923 ], [ -16.909907, 32.6415924 ], [ -16.9099014, 32.6415869 ], [ -16.9099034, 32.6415826 ], [ -16.9098792, 32.6415775 ], [ -16.909868, 32.6415802 ], [ -16.909852, 32.6415655 ], [ -16.9098455, 32.6415664 ], [ -16.9098439, 32.6415708 ], [ -16.9098301, 32.6415726 ], [ -16.9098153, 32.6415862 ], [ -16.9098025, 32.6415895 ], [ -16.9097396, 32.6415902 ], [ -16.9096734, 32.6415785 ], [ -16.9096554, 32.6415785 ], [ -16.9096183, 32.641588 ], [ -16.9095654, 32.6415846 ], [ -16.9095502, 32.6415895 ], [ -16.9095141, 32.6415905 ], [ -16.9094893, 32.6415838 ], [ -16.9094826, 32.6415727 ], [ -16.9094709, 32.6415843 ], [ -16.9094564, 32.6415875 ], [ -16.9094382, 32.6415872 ], [ -16.9094136, 32.6415793 ], [ -16.9093636, 32.6415818 ], [ -16.9093461, 32.641575 ], [ -16.9092979, 32.6415823 ], [ -16.9092765, 32.6415725 ], [ -16.909266, 32.6415719 ], [ -16.909246, 32.6415801 ], [ -16.9091814, 32.6415765 ], [ -16.9091259, 32.6415934 ], [ -16.9090686, 32.6415933 ], [ -16.9090649, 32.6415816 ], [ -16.9090596, 32.6415783 ], [ -16.9090024, 32.6415781 ], [ -16.9089012, 32.6415954 ], [ -16.9088689, 32.6415939 ], [ -16.9088388, 32.6415855 ], [ -16.9088245, 32.6415896 ], [ -16.9088191, 32.6415832 ], [ -16.9088123, 32.6415832 ], [ -16.9088027, 32.6415871 ], [ -16.9087918, 32.641599 ], [ -16.9087792, 32.6415934 ], [ -16.9087534, 32.6416 ], [ -16.9086226, 32.6415968 ], [ -16.9085716, 32.641606 ], [ -16.9085147, 32.6416096 ], [ -16.908497, 32.6416072 ], [ -16.9084729, 32.6415956 ], [ -16.9084598, 32.6415951 ], [ -16.9084243, 32.6416011 ], [ -16.9083369, 32.6416028 ], [ -16.9083123, 32.6416114 ], [ -16.908281, 32.6416128 ], [ -16.9082329, 32.6416085 ], [ -16.9081845, 32.6416116 ], [ -16.9080861, 32.6416083 ], [ -16.9080308, 32.6415956 ], [ -16.9080084, 32.6416041 ], [ -16.9079979, 32.6416042 ], [ -16.9079445, 32.6415815 ], [ -16.9078516, 32.6415797 ], [ -16.9078229, 32.6415777 ], [ -16.9078017, 32.6415721 ], [ -16.907777, 32.6415721 ], [ -16.9077614, 32.6415761 ], [ -16.9076531, 32.6415762 ], [ -16.9075249, 32.6415909 ], [ -16.9074767, 32.6415808 ], [ -16.9074384, 32.6415803 ], [ -16.9074222, 32.6415879 ], [ -16.9073947, 32.6416105 ], [ -16.9073346, 32.6416129 ], [ -16.9072987, 32.6416082 ], [ -16.90727, 32.6415991 ], [ -16.9072548, 32.6416003 ], [ -16.9072475, 32.6416103 ], [ -16.9072324, 32.641613 ], [ -16.9071994, 32.6416017 ], [ -16.907181, 32.6415904 ], [ -16.9071557, 32.6415922 ], [ -16.9071588, 32.6415297 ], [ -16.90703, 32.6415324 ], [ -16.9069685, 32.6415482 ], [ -16.9069249, 32.641574 ], [ -16.9069008, 32.6415981 ], [ -16.9068856, 32.641622 ], [ -16.90687, 32.641668 ], [ -16.9068643, 32.6420592 ], [ -16.906984, 32.6420618 ], [ -16.9098314, 32.6420599 ], [ -16.910574, 32.6420657 ], [ -16.9150913, 32.6413938 ], [ -16.9158631, 32.6412791 ], [ -16.9161451, 32.6412527 ], [ -16.9163625, 32.6412407 ], [ -16.9166607, 32.6412389 ], [ -16.9166631, 32.6413878 ], [ -16.9166654, 32.6415366 ], [ -16.9167774, 32.6415364 ], [ -16.9170427, 32.6414879 ], [ -16.917057, 32.6415155 ], [ -16.9170621, 32.6415356 ], [ -16.9170703, 32.6415742 ], [ -16.9170712, 32.6416105 ], [ -16.9170598, 32.6416332 ], [ -16.9170334, 32.6417299 ], [ -16.9160185, 32.6419438 ], [ -16.9160318, 32.6419926 ], [ -16.916696, 32.6418528 ], [ -16.9168145, 32.6422592 ], [ -16.9161989, 32.6423865 ], [ -16.9161852, 32.6424606 ], [ -16.9157218, 32.6425496 ], [ -16.9152257, 32.6426492 ], [ -16.9151852, 32.6426062 ], [ -16.9129268, 32.6439929 ], [ -16.9132601, 32.644417 ], [ -16.9132028, 32.6444916 ], [ -16.9127966, 32.6450349 ], [ -16.9126282, 32.6452012 ], [ -16.9125001, 32.6450699 ], [ -16.9122377, 32.6448307 ], [ -16.912801, 32.6443704 ], [ -16.912737, 32.644321 ], [ -16.9126578, 32.6442481 ], [ -16.9118463, 32.644676 ], [ -16.911479, 32.644863 ], [ -16.9113856, 32.6449509 ], [ -16.9115949, 32.6451289 ], [ -16.9115109, 32.6452075 ], [ -16.9113533, 32.6450768 ], [ -16.9111124, 32.644877 ], [ -16.9110576, 32.6449246 ], [ -16.911111, 32.6449823 ], [ -16.9111379, 32.645056 ], [ -16.9113372, 32.6452452 ], [ -16.9111917, 32.6455485 ], [ -16.9112857, 32.6455865 ], [ -16.9111062, 32.6459498 ], [ -16.911064, 32.6459562 ], [ -16.9109913, 32.6459761 ], [ -16.9109123, 32.6460011 ], [ -16.910795, 32.6460441 ], [ -16.9107821, 32.6460433 ], [ -16.9107556, 32.6460362 ], [ -16.9104497, 32.6459323 ], [ -16.9103809, 32.6459061 ], [ -16.9103913, 32.6458815 ], [ -16.9103457, 32.6458685 ], [ -16.9102326, 32.6461408 ], [ -16.9099866, 32.6460647 ], [ -16.9099208, 32.6460455 ], [ -16.9099329, 32.6460197 ], [ -16.9098922, 32.6460068 ], [ -16.9097719, 32.646247 ], [ -16.9096546, 32.6462679 ], [ -16.9095454, 32.6462361 ], [ -16.9094387, 32.6462042 ], [ -16.9092698, 32.6455257 ], [ -16.9092665, 32.6453498 ], [ -16.9108047, 32.6447995 ], [ -16.9107732, 32.6447358 ], [ -16.9107687, 32.644737 ], [ -16.9107487, 32.6446925 ], [ -16.9106767, 32.644719 ], [ -16.9106811, 32.6447298 ], [ -16.9106593, 32.6447379 ], [ -16.9105125, 32.6447954 ], [ -16.9104767, 32.6448228 ], [ -16.9104484, 32.6448361 ], [ -16.9103792, 32.6448535 ], [ -16.9103031, 32.644865 ], [ -16.9102773, 32.6448655 ], [ -16.9102459, 32.6448748 ], [ -16.9101037, 32.6449436 ], [ -16.9100282, 32.6449691 ], [ -16.9099153, 32.6449986 ], [ -16.9098982, 32.6450088 ], [ -16.9098748, 32.6450147 ], [ -16.9098281, 32.6450161 ], [ -16.9098119, 32.645024 ], [ -16.9098015, 32.6450425 ], [ -16.9097675, 32.6450386 ], [ -16.9097526, 32.6450422 ], [ -16.9097137, 32.6450703 ], [ -16.909614, 32.6451041 ], [ -16.9095601, 32.6451078 ], [ -16.9095055, 32.6451305 ], [ -16.9094954, 32.6451421 ], [ -16.9094593, 32.6451482 ], [ -16.9094299, 32.6451655 ], [ -16.9093668, 32.6451889 ], [ -16.9091763, 32.6452419 ], [ -16.9091277, 32.6452642 ], [ -16.9090753, 32.6453095 ], [ -16.9090273, 32.6453242 ], [ -16.9089995, 32.6453428 ], [ -16.9089871, 32.6453581 ], [ -16.9089748, 32.6453733 ], [ -16.9089671, 32.6453939 ], [ -16.908964, 32.6454208 ], [ -16.9089682, 32.645452 ], [ -16.9089869, 32.6454814 ], [ -16.909014, 32.6455004 ], [ -16.9090412, 32.6456074 ], [ -16.9091909, 32.6461403 ], [ -16.9091662, 32.6461465 ], [ -16.9092112, 32.6463287 ], [ -16.908936, 32.6463791 ], [ -16.9088015, 32.6457976 ], [ -16.9077562, 32.6459322 ], [ -16.9069157, 32.6460449 ], [ -16.9067002, 32.6454144 ], [ -16.9087113, 32.644908 ], [ -16.9086658, 32.6447381 ], [ -16.9058594, 32.645409 ], [ -16.9059172, 32.645606 ], [ -16.9059352, 32.6456672 ], [ -16.9058873, 32.6457153 ], [ -16.9058604, 32.645751 ], [ -16.9058508, 32.6457947 ], [ -16.9058296, 32.6458627 ], [ -16.9058334, 32.6459825 ], [ -16.9057892, 32.6460441 ], [ -16.9057142, 32.6460764 ], [ -16.9056027, 32.6460829 ], [ -16.9054815, 32.6460926 ], [ -16.9053873, 32.6461024 ], [ -16.9052892, 32.6461185 ], [ -16.9052565, 32.6461477 ], [ -16.9051661, 32.6461979 ], [ -16.905081, 32.646243 ], [ -16.9050484, 32.6460579 ], [ -16.9049308, 32.6460754 ], [ -16.9050548, 32.6467863 ], [ -16.9048714, 32.6467836 ], [ -16.9047943, 32.6467857 ], [ -16.9046845, 32.6461038 ], [ -16.9045472, 32.6461247 ], [ -16.9046333, 32.6465478 ], [ -16.9043029, 32.6465857 ], [ -16.9039274, 32.6465996 ], [ -16.9038108, 32.6465616 ], [ -16.90246, 32.6457 ], [ -16.9023568, 32.6456883 ], [ -16.9022998, 32.6457106 ], [ -16.902258, 32.645759 ], [ -16.9022364, 32.6457959 ], [ -16.9022379, 32.6458559 ], [ -16.9022812, 32.6459059 ], [ -16.9023119, 32.6459319 ], [ -16.9023446, 32.6459516 ], [ -16.9023842, 32.6459562 ], [ -16.9024465, 32.645956 ], [ -16.9024888, 32.6459819 ], [ -16.902523, 32.6460328 ], [ -16.9025226, 32.6461112 ], [ -16.9024686, 32.6461865 ], [ -16.9023751, 32.6462704 ], [ -16.902265, 32.646347 ], [ -16.9021423, 32.6464093 ], [ -16.9019005, 32.6464717 ], [ -16.9016144, 32.6464844 ], [ -16.901412, 32.6464468 ], [ -16.901128, 32.6463327 ], [ -16.9010535, 32.646283 ], [ -16.9009806, 32.6461971 ], [ -16.9009722, 32.6460737 ], [ -16.901003, 32.6460528 ], [ -16.9011067, 32.6460315 ], [ -16.9011845, 32.6460421 ], [ -16.9012364, 32.6460104 ], [ -16.901263, 32.6459549 ], [ -16.9012701, 32.6458822 ], [ -16.9012408, 32.6457919 ], [ -16.9011675, 32.6457641 ], [ -16.901067, 32.6457484 ], [ -16.9009705, 32.6457688 ], [ -16.9008874, 32.6457976 ], [ -16.900684, 32.6458271 ], [ -16.9003283, 32.6458818 ], [ -16.900134, 32.6458621 ], [ -16.8999891, 32.6458291 ], [ -16.8998932, 32.6457767 ], [ -16.8998009, 32.6457615 ], [ -16.899711, 32.6457584 ], [ -16.899668, 32.6457895 ], [ -16.8996427, 32.6458522 ], [ -16.8996467, 32.6459228 ], [ -16.8997101, 32.6459812 ], [ -16.8998903, 32.6460594 ], [ -16.9000975, 32.6461203 ], [ -16.9001041, 32.6461625 ], [ -16.9000913, 32.6463514 ], [ -16.9000628, 32.6464289 ], [ -16.9000182, 32.6464584 ], [ -16.8999883, 32.6464698 ], [ -16.8999384, 32.6464888 ], [ -16.8998895, 32.6465019 ], [ -16.8998022, 32.6465292 ], [ -16.8997221, 32.6465692 ], [ -16.8996379, 32.6465734 ], [ -16.899556, 32.6465734 ], [ -16.8994988, 32.6465674 ], [ -16.8994884, 32.6466333 ], [ -16.8994704, 32.6466288 ], [ -16.8992887, 32.6465784 ], [ -16.8991051, 32.6464273 ], [ -16.8991677, 32.6464262 ], [ -16.8992362, 32.6463587 ], [ -16.8991839, 32.6463731 ], [ -16.8991701, 32.6463436 ], [ -16.8990547, 32.6463118 ], [ -16.8990181, 32.6462429 ], [ -16.898947, 32.6462935 ], [ -16.8990186, 32.6463438 ], [ -16.8990502, 32.6464437 ], [ -16.8989634, 32.6464674 ], [ -16.8988878, 32.6463849 ], [ -16.8987383, 32.6463812 ], [ -16.8987166, 32.6463363 ], [ -16.8986089, 32.6463475 ], [ -16.8986275, 32.6462396 ], [ -16.8987266, 32.6461826 ], [ -16.8987108, 32.6461515 ], [ -16.8986734, 32.6461681 ], [ -16.898627, 32.6461466 ], [ -16.8985935, 32.6461849 ], [ -16.8985926, 32.6461299 ], [ -16.8985262, 32.6461387 ], [ -16.898527, 32.6462026 ], [ -16.8984564, 32.6462189 ], [ -16.898439, 32.6462712 ], [ -16.8984133, 32.6462518 ], [ -16.8983846, 32.646337 ], [ -16.8983406, 32.6463129 ], [ -16.8983981, 32.6462153 ], [ -16.8983537, 32.6461989 ], [ -16.8983062, 32.6462271 ], [ -16.8982027, 32.6463772 ], [ -16.8981851, 32.6463614 ], [ -16.8981915, 32.6464553 ], [ -16.8981515, 32.6464405 ], [ -16.8981285, 32.6464629 ], [ -16.8980656, 32.6466206 ], [ -16.8978973, 32.6467418 ], [ -16.8978158, 32.6467396 ], [ -16.8975935, 32.6465672 ], [ -16.8976807, 32.6464677 ], [ -16.8976199, 32.6464351 ], [ -16.8976122, 32.6464309 ], [ -16.8975477, 32.6465078 ], [ -16.8972473, 32.6464937 ], [ -16.8968272, 32.646776 ], [ -16.8967121, 32.6468534 ], [ -16.8966537, 32.646871 ], [ -16.8966302, 32.6468504 ], [ -16.8965901, 32.6468907 ], [ -16.8965694, 32.6468155 ], [ -16.8965149, 32.6468654 ], [ -16.8965713, 32.6468749 ], [ -16.896567, 32.6468957 ], [ -16.8960849, 32.6470833 ], [ -16.8958318, 32.6470789 ], [ -16.894927, 32.646893 ], [ -16.8947361, 32.6469341 ], [ -16.8942462, 32.646871 ], [ -16.8939919, 32.6468673 ], [ -16.8939058, 32.6468074 ], [ -16.8937696, 32.6468361 ], [ -16.8936667, 32.6467681 ], [ -16.893574, 32.646804 ], [ -16.8934862, 32.6467929 ], [ -16.8933206, 32.6467328 ], [ -16.8933808, 32.646686 ], [ -16.8933372, 32.6466145 ], [ -16.8931679, 32.6467727 ], [ -16.8930942, 32.6467852 ], [ -16.8930229, 32.6466892 ], [ -16.8929497, 32.6466927 ], [ -16.8928747, 32.64664 ], [ -16.8928376, 32.6466702 ], [ -16.8927585, 32.6466716 ], [ -16.8924663, 32.6466057 ], [ -16.8923743, 32.6466497 ], [ -16.8922485, 32.6466091 ], [ -16.8921316, 32.646603 ], [ -16.8920114, 32.6465967 ], [ -16.891724, 32.6466678 ], [ -16.8916171, 32.6466344 ], [ -16.8915148, 32.6466715 ], [ -16.891347, 32.6466787 ], [ -16.8906319, 32.6466101 ], [ -16.8905191, 32.6465743 ], [ -16.8903959, 32.6465037 ], [ -16.8901387, 32.6463563 ], [ -16.8901169, 32.6462973 ], [ -16.8902452, 32.6462102 ], [ -16.8901475, 32.6462717 ], [ -16.8899501, 32.6462756 ], [ -16.8897656, 32.6462793 ], [ -16.8895563, 32.6462341 ], [ -16.8895199, 32.6461518 ], [ -16.8894836, 32.6461467 ], [ -16.8894238, 32.6461854 ], [ -16.8893716, 32.6462193 ], [ -16.8891875, 32.646233 ], [ -16.889059, 32.6462107 ], [ -16.8889101, 32.6461131 ], [ -16.8888666, 32.6460609 ], [ -16.8891405, 32.645913 ], [ -16.8891661, 32.6458268 ], [ -16.8890762, 32.645769 ], [ -16.8891073, 32.645697 ], [ -16.8890457, 32.645662 ], [ -16.8890349, 32.6456647 ], [ -16.8889697, 32.6456637 ], [ -16.8889211, 32.6457026 ], [ -16.8889449, 32.645776 ], [ -16.8889205, 32.6457438 ], [ -16.8888666, 32.6458123 ], [ -16.8888842, 32.6458434 ], [ -16.888914, 32.6457947 ], [ -16.8889571, 32.6458542 ], [ -16.8888475, 32.6460033 ], [ -16.888831, 32.6459655 ], [ -16.8888681, 32.6458983 ], [ -16.8887772, 32.6457903 ], [ -16.8887451, 32.64579 ], [ -16.8886764, 32.6458357 ], [ -16.8886294, 32.6459771 ], [ -16.8885443, 32.6460542 ], [ -16.8884049, 32.6461574 ], [ -16.8882664, 32.6462044 ], [ -16.8881784, 32.6461923 ], [ -16.8881643, 32.6461642 ], [ -16.8880546, 32.6461613 ], [ -16.887962, 32.6461043 ], [ -16.887868, 32.6461137 ], [ -16.8878234, 32.6460754 ], [ -16.8877752, 32.6460981 ], [ -16.8876029, 32.646094 ], [ -16.8875542, 32.6461324 ], [ -16.8873217, 32.6461405 ], [ -16.8870908, 32.6460779 ], [ -16.8870572, 32.6461096 ], [ -16.8867019, 32.6461369 ], [ -16.8864114, 32.6460865 ], [ -16.8863438, 32.6461225 ], [ -16.8862279, 32.6461047 ], [ -16.8859572, 32.6462015 ], [ -16.8859269, 32.646181 ], [ -16.8858563, 32.6461953 ], [ -16.8858399, 32.64615 ], [ -16.8856921, 32.6462174 ], [ -16.8855474, 32.6461562 ], [ -16.8855795, 32.6460831 ], [ -16.8855222, 32.646104 ], [ -16.8854971, 32.6461577 ], [ -16.8854367, 32.6460843 ], [ -16.8854269, 32.6461226 ], [ -16.8853664, 32.6460956 ], [ -16.8853192, 32.6461303 ], [ -16.8852772, 32.6461103 ], [ -16.8852123, 32.6461389 ], [ -16.8851734, 32.6460834 ], [ -16.8851568, 32.6461234 ], [ -16.8851321, 32.6460874 ], [ -16.8851032, 32.6461335 ], [ -16.885077, 32.6461034 ], [ -16.8847655, 32.6461604 ], [ -16.8845579, 32.6460969 ], [ -16.8845418, 32.6460431 ], [ -16.8846342, 32.6459521 ], [ -16.8846114, 32.6459183 ], [ -16.8845714, 32.6459155 ], [ -16.8844656, 32.6460028 ], [ -16.8841499, 32.6459996 ], [ -16.8836361, 32.6459034 ], [ -16.8835148, 32.6457797 ], [ -16.8833767, 32.645773 ], [ -16.8832659, 32.6457077 ], [ -16.8832266, 32.6457276 ], [ -16.8831496, 32.6457124 ], [ -16.8830904, 32.6456639 ], [ -16.8829079, 32.645686 ], [ -16.882794, 32.6456631 ], [ -16.8827111, 32.6456464 ], [ -16.8821897, 32.6456105 ], [ -16.8820888, 32.6456605 ], [ -16.881873, 32.6456448 ], [ -16.8808168, 32.6454219 ], [ -16.8806733, 32.6453517 ], [ -16.8804341, 32.6453594 ], [ -16.8802386, 32.6453303 ], [ -16.8800105, 32.6453525 ], [ -16.8797965, 32.6453088 ], [ -16.8797084, 32.6453464 ], [ -16.8794878, 32.6453335 ], [ -16.8793768, 32.6453847 ], [ -16.878824, 32.645403 ], [ -16.8785443, 32.6453604 ], [ -16.878142, 32.6452269 ], [ -16.8777159, 32.6451719 ], [ -16.8775485, 32.6451168 ], [ -16.8774038, 32.6450112 ], [ -16.8771835, 32.6450088 ], [ -16.8770622, 32.644993 ], [ -16.8761569, 32.6448752 ], [ -16.8755744, 32.6446245 ], [ -16.8753049, 32.6445878 ], [ -16.8749641, 32.6444509 ], [ -16.8741905, 32.6443473 ], [ -16.8737855, 32.6443697 ], [ -16.8735356, 32.64442 ], [ -16.8734196, 32.6444069 ], [ -16.8722047, 32.6441475 ], [ -16.8715511, 32.6439425 ], [ -16.8714676, 32.6439002 ], [ -16.8714395, 32.6438195 ], [ -16.8713315, 32.6438438 ], [ -16.8712893, 32.6437952 ], [ -16.8711805, 32.64376 ], [ -16.8711683, 32.6437234 ], [ -16.8710907, 32.64373 ], [ -16.8710447, 32.6436823 ], [ -16.8709924, 32.6437082 ], [ -16.8708643, 32.6436592 ], [ -16.8707856, 32.6436775 ], [ -16.8704651, 32.6436277 ], [ -16.8703681, 32.6435201 ], [ -16.870212, 32.6435638 ], [ -16.870158, 32.6435031 ], [ -16.870131, 32.6435456 ], [ -16.8699163, 32.6434775 ], [ -16.869899, 32.64344 ], [ -16.8698141, 32.6434565 ], [ -16.8697986, 32.6434152 ], [ -16.8687471, 32.6429426 ], [ -16.8686233, 32.6428177 ], [ -16.8685289, 32.6427959 ], [ -16.8684324, 32.6427224 ], [ -16.8683367, 32.6427198 ], [ -16.8682549, 32.6426708 ], [ -16.8681086, 32.6426594 ], [ -16.8678635, 32.6425697 ], [ -16.8676179, 32.6425281 ], [ -16.8674107, 32.6424421 ], [ -16.8671936, 32.6424588 ], [ -16.8667637, 32.6423309 ], [ -16.8666797, 32.6422658 ], [ -16.8666051, 32.6422668 ], [ -16.866597, 32.6422312 ], [ -16.8665504, 32.642238 ], [ -16.8662703, 32.6421034 ], [ -16.8663924, 32.6419308 ], [ -16.8663376, 32.6419356 ], [ -16.8662807, 32.6420209 ], [ -16.8662061, 32.6420314 ], [ -16.8661411, 32.6420873 ], [ -16.8661049, 32.6420768 ], [ -16.8660997, 32.6420395 ], [ -16.8659413, 32.6420333 ], [ -16.8648185, 32.6414833 ], [ -16.8643158, 32.6412766 ], [ -16.8639474, 32.6410647 ], [ -16.8636269, 32.6409786 ], [ -16.8633897, 32.6409497 ], [ -16.8630716, 32.6408473 ], [ -16.8629611, 32.6408483 ], [ -16.8627483, 32.640759 ], [ -16.862202, 32.640647 ], [ -16.8618426, 32.6404467 ], [ -16.8617365, 32.6404366 ], [ -16.8616588, 32.6403947 ], [ -16.8612771, 32.6403844 ], [ -16.8609689, 32.6403398 ], [ -16.8608135, 32.6403808 ], [ -16.8604543, 32.6402904 ], [ -16.8602577, 32.6402969 ], [ -16.860018, 32.6402023 ], [ -16.8599123, 32.6402018 ], [ -16.859887, 32.6401631 ], [ -16.8599095, 32.6401199 ], [ -16.8598106, 32.6400727 ], [ -16.8596903, 32.6401166 ], [ -16.8595786, 32.6402351 ], [ -16.8595093, 32.6402396 ], [ -16.859353, 32.6401557 ], [ -16.8586609, 32.6400888 ], [ -16.8580393, 32.6398679 ], [ -16.8579264, 32.6398646 ], [ -16.8578619, 32.6398068 ], [ -16.8577723, 32.639787 ], [ -16.8578308, 32.6405632 ], [ -16.8580794, 32.6408173 ], [ -16.8581065, 32.6409142 ], [ -16.8582745, 32.6411409 ], [ -16.8584815, 32.6413369 ], [ -16.8585896, 32.641616 ], [ -16.8586659, 32.6416928 ], [ -16.8586771, 32.6418384 ], [ -16.8588262, 32.6423857 ], [ -16.8589732, 32.6424961 ], [ -16.8590455, 32.6426216 ], [ -16.8589847, 32.643129 ], [ -16.8590783, 32.6432807 ], [ -16.8591304, 32.6434624 ], [ -16.859028, 32.6436828 ], [ -16.8591377, 32.6438556 ], [ -16.8591649, 32.6440284 ], [ -16.858956, 32.6442332 ], [ -16.8589299, 32.6444254 ], [ -16.8587795, 32.644545 ], [ -16.8588816, 32.6447385 ], [ -16.8588191, 32.6450257 ], [ -16.8589349, 32.6452315 ], [ -16.8589967, 32.6455435 ], [ -16.8587093, 32.6459239 ], [ -16.8586485, 32.6462264 ], [ -16.8586997, 32.6464112 ], [ -16.8589578, 32.6467341 ], [ -16.8588901, 32.6470036 ], [ -16.858992, 32.6472981 ], [ -16.8591483, 32.6473837 ], [ -16.8591488, 32.6476797 ], [ -16.8593537, 32.647725 ], [ -16.8594217, 32.6477922 ], [ -16.8593182, 32.6479502 ], [ -16.8594007, 32.6483277 ], [ -16.8594766, 32.6483817 ], [ -16.8595109, 32.6485295 ], [ -16.8596473, 32.6486741 ], [ -16.8597103, 32.648833 ], [ -16.859765, 32.6488834 ], [ -16.8599639, 32.648926 ], [ -16.860025, 32.6490752 ], [ -16.8603275, 32.6493628 ], [ -16.8603423, 32.6494743 ], [ -16.8604314, 32.6495523 ], [ -16.8605274, 32.6498011 ], [ -16.8605249, 32.6498718 ], [ -16.860458, 32.6499629 ], [ -16.860501, 32.650127 ], [ -16.8605535, 32.6501826 ], [ -16.8607749, 32.650265 ], [ -16.8609056, 32.6503848 ], [ -16.860926, 32.6504569 ], [ -16.8610609, 32.6505974 ], [ -16.8611747, 32.6508052 ], [ -16.8613254, 32.650878 ], [ -16.8613706, 32.6509441 ], [ -16.861659, 32.6511722 ], [ -16.8618328, 32.6512348 ], [ -16.862074, 32.6512508 ], [ -16.8621916, 32.6513194 ], [ -16.8628986, 32.6515027 ], [ -16.8629995, 32.6515487 ], [ -16.863042, 32.6516486 ], [ -16.8632656, 32.651795 ], [ -16.8632095, 32.6518489 ], [ -16.8629452, 32.6519701 ], [ -16.8620452, 32.6525707 ], [ -16.8611395, 32.6532162 ], [ -16.8604435, 32.6537621 ], [ -16.8584321, 32.6550424 ], [ -16.858191, 32.6552732 ], [ -16.8580128, 32.6558571 ], [ -16.8579011, 32.6563889 ], [ -16.8577623, 32.6572913 ], [ -16.8577728, 32.6574498 ], [ -16.859669, 32.6587013 ], [ -16.8597217, 32.6587384 ], [ -16.8597624, 32.6587649 ], [ -16.8624172, 32.6604718 ], [ -16.8637164, 32.6614162 ], [ -16.8638874, 32.6615433 ], [ -16.8645103, 32.6622731 ], [ -16.8648486, 32.6623259 ], [ -16.8654129, 32.6624256 ], [ -16.8654354, 32.662518 ], [ -16.8658976, 32.6633867 ], [ -16.8662466, 32.6635503 ], [ -16.8664029, 32.6637002 ], [ -16.8664969, 32.6636722 ], [ -16.8669513, 32.6640894 ], [ -16.8670713, 32.6642563 ], [ -16.867798, 32.6657808 ], [ -16.8680727, 32.6661111 ], [ -16.8682875, 32.6665082 ], [ -16.8684249, 32.6670665 ], [ -16.8685074, 32.6676035 ], [ -16.8687807, 32.6683583 ], [ -16.8687638, 32.6689166 ], [ -16.8688239, 32.6691142 ], [ -16.8686514, 32.6692636 ], [ -16.8687641, 32.6693031 ], [ -16.868751, 32.6695199 ], [ -16.8688569, 32.6699288 ], [ -16.8690695, 32.6703615 ], [ -16.8698321, 32.6714597 ], [ -16.8699711, 32.672088 ], [ -16.8701742, 32.672399 ], [ -16.8702297, 32.6726715 ], [ -16.8703583, 32.6729517 ], [ -16.8703997, 32.6732646 ], [ -16.8703574, 32.6737738 ], [ -16.870385, 32.674309 ], [ -16.8703208, 32.674816 ], [ -16.8703852, 32.6750363 ], [ -16.8707345, 32.6753962 ], [ -16.8712935, 32.6757264 ], [ -16.8719419, 32.675658 ], [ -16.872046, 32.6757619 ], [ -16.8724219, 32.6764301 ], [ -16.8725176, 32.6768268 ], [ -16.8725005, 32.6770018 ], [ -16.8725468, 32.6774029 ], [ -16.8726719, 32.6778851 ], [ -16.8726258, 32.6784108 ], [ -16.8727902, 32.6790714 ], [ -16.87285, 32.6797851 ], [ -16.8732474, 32.6804549 ], [ -16.8733216, 32.6806691 ], [ -16.8733096, 32.680716 ], [ -16.8733304, 32.6807371 ], [ -16.8733835, 32.6817613 ], [ -16.8730856, 32.6823117 ], [ -16.8729594, 32.6828752 ], [ -16.8729199, 32.6839627 ], [ -16.8729492, 32.6841412 ], [ -16.8730825, 32.6849544 ], [ -16.8730437, 32.6855542 ], [ -16.8729767, 32.6858013 ], [ -16.8725852, 32.6860361 ], [ -16.8725202, 32.6864141 ], [ -16.8725657, 32.6865552 ], [ -16.8726031, 32.6865809 ], [ -16.8727385, 32.6866379 ], [ -16.8730459, 32.6866709 ], [ -16.8732056, 32.6867547 ], [ -16.8733127, 32.6871799 ], [ -16.873478, 32.6875328 ], [ -16.8733562, 32.6879049 ], [ -16.8734567, 32.6881832 ], [ -16.8734767, 32.6882411 ], [ -16.8733228, 32.6883467 ], [ -16.873112, 32.6886786 ], [ -16.8728616, 32.6894845 ], [ -16.8727653, 32.6895764 ], [ -16.8726316, 32.6898015 ], [ -16.8726382, 32.6898591 ], [ -16.8726749, 32.6898573 ], [ -16.872665, 32.6899346 ], [ -16.8742653, 32.690234 ], [ -16.8746153, 32.6904356 ], [ -16.8748418, 32.6907192 ], [ -16.874791, 32.691169 ], [ -16.8746259, 32.6914351 ], [ -16.8749671, 32.6916056 ], [ -16.8755249, 32.6917311 ], [ -16.8760834, 32.6921907 ], [ -16.876417, 32.6925404 ], [ -16.8765411, 32.692826 ], [ -16.8766574, 32.6932374 ], [ -16.8767031, 32.6937691 ], [ -16.8766682, 32.6940631 ], [ -16.876676, 32.6944174 ], [ -16.8768458, 32.6947984 ], [ -16.8767579, 32.6948487 ], [ -16.8769578, 32.6951492 ], [ -16.8771102, 32.6952492 ], [ -16.8773305, 32.6952929 ], [ -16.8775247, 32.6954482 ], [ -16.8782912, 32.69594 ], [ -16.8783885, 32.6958238 ], [ -16.8785121, 32.695866 ], [ -16.8796913, 32.6958529 ], [ -16.8797544, 32.6958234 ], [ -16.8798125, 32.6957402 ], [ -16.8799335, 32.69544 ], [ -16.8800846, 32.6952588 ], [ -16.8804021, 32.6949674 ], [ -16.8814599, 32.6950877 ], [ -16.881844, 32.695187 ], [ -16.8831113, 32.6962263 ], [ -16.883578, 32.6965371 ], [ -16.8843179, 32.6969306 ], [ -16.8852936, 32.6973051 ], [ -16.8857514, 32.697555 ], [ -16.8860788, 32.6980974 ], [ -16.8865793, 32.6984089 ], [ -16.8871164, 32.69886 ], [ -16.8876166, 32.6996656 ], [ -16.8877147, 32.7005396 ], [ -16.8880955, 32.7007738 ], [ -16.8890471, 32.7017478 ], [ -16.8903696, 32.7020482 ], [ -16.8907812, 32.7022184 ], [ -16.8910237, 32.7028036 ], [ -16.8913003, 32.7031211 ], [ -16.8916155, 32.7034458 ], [ -16.8933976, 32.7050245 ], [ -16.8937357, 32.705996 ], [ -16.8939172, 32.7067456 ], [ -16.894053, 32.707654 ], [ -16.8960166, 32.7096839 ], [ -16.8962871, 32.7101403 ], [ -16.8962892, 32.710314 ], [ -16.8962924, 32.7105409 ], [ -16.8966492, 32.7105276 ], [ -16.8969446, 32.7105684 ], [ -16.8980792, 32.7107912 ], [ -16.8985009, 32.7120558 ], [ -16.9002573, 32.7135062 ], [ -16.9010223, 32.7143864 ], [ -16.9007951, 32.714627 ], [ -16.9018152, 32.7155056 ], [ -16.9021398, 32.7159149 ], [ -16.9023942, 32.7160401 ], [ -16.9028627, 32.7164132 ], [ -16.9035243, 32.7168061 ], [ -16.9036539, 32.7168539 ], [ -16.9047689, 32.7175387 ], [ -16.9055233, 32.7185141 ], [ -16.9055592, 32.7186482 ], [ -16.9055682, 32.7189453 ], [ -16.9056113, 32.7196876 ], [ -16.9061641, 32.7209497 ], [ -16.9085229, 32.7229331 ], [ -16.9088715, 32.7238804 ], [ -16.9091611, 32.724938 ], [ -16.9097734, 32.7250876 ], [ -16.9106936, 32.7251669 ], [ -16.9110596, 32.7253986 ], [ -16.9111854, 32.7254145 ], [ -16.9112732, 32.7253815 ], [ -16.9116125, 32.7250584 ], [ -16.9114645, 32.724957 ], [ -16.9115369, 32.7248045 ], [ -16.9127222, 32.7235838 ], [ -16.9173461, 32.7230225 ], [ -16.9216777, 32.7258658 ], [ -16.9224708, 32.7261842 ], [ -16.9227283, 32.7262448 ], [ -16.9250466, 32.7265461 ], [ -16.9262558, 32.7275792 ], [ -16.926437, 32.7282088 ], [ -16.926592, 32.7283204 ], [ -16.9278417, 32.7301592 ], [ -16.9282574, 32.7322515 ], [ -16.9286793, 32.7356523 ], [ -16.92868, 32.7353033 ], [ -16.9288456, 32.7345781 ], [ -16.929081, 32.7340321 ], [ -16.9292312, 32.7339067 ], [ -16.9294416, 32.7338965 ], [ -16.9304379, 32.7339957 ], [ -16.9324285, 32.7331696 ], [ -16.9325606, 32.7330883 ], [ -16.9327361, 32.7329067 ], [ -16.9334493, 32.7322736 ], [ -16.9341715, 32.7315506 ], [ -16.9344447, 32.7314845 ], [ -16.9344725, 32.7309904 ], [ -16.9347157, 32.7304288 ], [ -16.9354269, 32.7297865 ], [ -16.9358513, 32.7297068 ], [ -16.9357971, 32.7295107 ], [ -16.9359366, 32.7294815 ], [ -16.9361647, 32.729447 ], [ -16.9365425, 32.7294799 ], [ -16.9374789, 32.7297749 ], [ -16.9384265, 32.7299908 ], [ -16.9388477, 32.7301243 ], [ -16.9397304, 32.7303041 ], [ -16.9402828, 32.7302801 ], [ -16.9407162, 32.729837 ], [ -16.9413774, 32.7292557 ], [ -16.9419681, 32.728804 ], [ -16.9431709, 32.7280054 ], [ -16.9434935, 32.7276004 ], [ -16.94415, 32.7263863 ], [ -16.94483, 32.7248206 ], [ -16.9453639, 32.7241979 ], [ -16.9456862, 32.7236126 ], [ -16.9458131, 32.7233043 ], [ -16.9458422, 32.7233434 ], [ -16.9463419, 32.7235436 ], [ -16.9468816, 32.7236977 ], [ -16.9475171, 32.7237916 ], [ -16.9487298, 32.7234942 ], [ -16.9487681, 32.7234038 ], [ -16.9486668, 32.7232065 ], [ -16.9486883, 32.7229323 ], [ -16.9488899, 32.721808 ], [ -16.9489546, 32.7217088 ], [ -16.9496418, 32.7214907 ], [ -16.9501022, 32.7210286 ], [ -16.9502116, 32.720965 ], [ -16.950718, 32.7208701 ], [ -16.9509974, 32.720774 ], [ -16.9516034, 32.7206327 ], [ -16.952113, 32.7203284 ], [ -16.9528792, 32.7203745 ], [ -16.9535898, 32.7203479 ], [ -16.953986, 32.7201928 ], [ -16.9541737, 32.7200297 ], [ -16.9539766, 32.719803 ], [ -16.9538475, 32.7195095 ], [ -16.9538215, 32.7190743 ], [ -16.9537123, 32.7187665 ], [ -16.9531803, 32.7179987 ], [ -16.9534903, 32.7174844 ], [ -16.953562, 32.7172883 ], [ -16.9535662, 32.7168069 ], [ -16.9540781, 32.7164438 ], [ -16.9544453, 32.7160303 ], [ -16.9547401, 32.715618 ], [ -16.954872, 32.7150128 ], [ -16.9549188, 32.7145594 ], [ -16.9547985, 32.7141636 ], [ -16.954772, 32.713788 ], [ -16.955031, 32.7139108 ], [ -16.9551834, 32.7139332 ], [ -16.9555078, 32.7139111 ], [ -16.9562419, 32.7137883 ], [ -16.9565822, 32.7138201 ], [ -16.9569334, 32.7139133 ], [ -16.9570448, 32.7138841 ], [ -16.9571436, 32.713816 ], [ -16.9572571, 32.7135055 ], [ -16.957454, 32.7133438 ], [ -16.9576051, 32.7132641 ], [ -16.958158, 32.7130558 ], [ -16.9589041, 32.7129428 ], [ -16.959102, 32.7128514 ], [ -16.9593027, 32.7126696 ], [ -16.9598341, 32.7120675 ], [ -16.959897, 32.7120301 ], [ -16.9601825, 32.7119723 ], [ -16.9603832, 32.7118593 ], [ -16.9605773, 32.7115516 ], [ -16.9615822, 32.710731 ], [ -16.9623568, 32.710414 ], [ -16.9628695, 32.7100478 ], [ -16.9640176, 32.7097338 ], [ -16.9640634, 32.7096921 ], [ -16.9640816, 32.7095185 ], [ -16.9638021, 32.7084605 ], [ -16.9638407, 32.7076723 ], [ -16.9637496, 32.7067313 ], [ -16.9639356, 32.7058231 ], [ -16.9641226, 32.7055455 ], [ -16.9656287, 32.7038862 ], [ -16.966122, 32.7030518 ], [ -16.9663097, 32.702891 ], [ -16.9664139, 32.7023833 ], [ -16.9665447, 32.7021724 ], [ -16.9667558, 32.7015779 ], [ -16.9673026, 32.7014726 ], [ -16.9672926, 32.7013915 ], [ -16.9672068, 32.7013186 ], [ -16.9666887, 32.7011472 ], [ -16.9666199, 32.7010988 ], [ -16.9664601, 32.7008181 ], [ -16.9660667, 32.7004908 ], [ -16.9658791, 32.7002423 ], [ -16.9656606, 32.6998302 ], [ -16.9656794, 32.6996048 ], [ -16.9657657, 32.6992854 ], [ -16.965766, 32.6991283 ], [ -16.9656727, 32.6988381 ], [ -16.9655371, 32.6987482 ], [ -16.9654809, 32.6987753 ], [ -16.9653008, 32.6986961 ], [ -16.9650136, 32.698662 ], [ -16.9647044, 32.6985391 ], [ -16.9645399, 32.6984241 ], [ -16.9643143, 32.6979456 ], [ -16.9640401, 32.6976234 ], [ -16.9637697, 32.6974373 ], [ -16.963301, 32.6972821 ], [ -16.9631171, 32.6971573 ], [ -16.9630445, 32.6970591 ], [ -16.9630102, 32.6969567 ], [ -16.9630322, 32.6967908 ], [ -16.9636381, 32.6961708 ], [ -16.9636243, 32.6957911 ], [ -16.9636822, 32.6953832 ], [ -16.9636298, 32.6951005 ], [ -16.9635718, 32.6950126 ], [ -16.9634049, 32.6948851 ], [ -16.9631088, 32.6947502 ], [ -16.9623696, 32.6946852 ], [ -16.9623066, 32.6946558 ], [ -16.9621968, 32.6945238 ], [ -16.9622878, 32.6941111 ], [ -16.9624808, 32.6939078 ], [ -16.9626827, 32.6938367 ], [ -16.9630136, 32.6938793 ], [ -16.963487, 32.6939889 ], [ -16.9636125, 32.6939834 ], [ -16.963934, 32.6938447 ], [ -16.9641529, 32.6936497 ], [ -16.9642496, 32.6935022 ], [ -16.9642593, 32.6934356 ], [ -16.9640132, 32.6929342 ], [ -16.963961, 32.692734 ], [ -16.9639848, 32.6926498 ], [ -16.9640629, 32.6925474 ], [ -16.9642082, 32.6924685 ], [ -16.9647684, 32.6923658 ], [ -16.964878, 32.692299 ], [ -16.9649292, 32.6922158 ], [ -16.9649299, 32.6920915 ], [ -16.9646898, 32.6915473 ], [ -16.964696, 32.6914012 ], [ -16.9647507, 32.6912479 ], [ -16.964979, 32.6910542 ], [ -16.9655833, 32.6908214 ], [ -16.9656639, 32.6907522 ], [ -16.9657403, 32.6903006 ], [ -16.9656491, 32.6898821 ], [ -16.9657536, 32.6897757 ], [ -16.9661322, 32.6895782 ], [ -16.966238, 32.6894146 ], [ -16.9662201, 32.6893383 ], [ -16.9661135, 32.6891932 ], [ -16.9659503, 32.6890389 ], [ -16.9653878, 32.6882946 ], [ -16.9651535, 32.688059 ], [ -16.964866, 32.6879269 ], [ -16.9642524, 32.6877732 ], [ -16.9639404, 32.6876588 ], [ -16.9637693, 32.6874952 ], [ -16.9636736, 32.6873016 ], [ -16.9636379, 32.6870361 ], [ -16.9636925, 32.6867179 ], [ -16.9638034, 32.6865897 ], [ -16.9641617, 32.6864836 ], [ -16.9642417, 32.6863487 ], [ -16.9642468, 32.6862691 ], [ -16.9641901, 32.6861391 ], [ -16.9639021, 32.6858683 ], [ -16.9633112, 32.6854641 ], [ -16.9631975, 32.6853495 ], [ -16.9630068, 32.6850705 ], [ -16.9629197, 32.684798 ], [ -16.9629889, 32.6845258 ], [ -16.9631564, 32.6842905 ], [ -16.963742, 32.6839062 ], [ -16.9638683, 32.6837784 ], [ -16.9641787, 32.6832387 ], [ -16.9641723, 32.6830255 ], [ -16.9640947, 32.6828779 ], [ -16.963944, 32.6827465 ], [ -16.963088, 32.682337 ], [ -16.9629149, 32.6821938 ], [ -16.9629365, 32.6820228 ], [ -16.9630861, 32.6817227 ], [ -16.9631802, 32.6813303 ], [ -16.963163, 32.6811126 ], [ -16.9630258, 32.6809888 ], [ -16.9629331, 32.6809519 ], [ -16.9627293, 32.6809544 ], [ -16.9620773, 32.6811489 ], [ -16.9613478, 32.6812102 ], [ -16.9610876, 32.6812022 ], [ -16.9607031, 32.6811059 ], [ -16.9605928, 32.6810247 ], [ -16.9604045, 32.6807746 ], [ -16.9601463, 32.680316 ], [ -16.959972, 32.6801844 ], [ -16.9594575, 32.6802384 ], [ -16.9588256, 32.6804231 ], [ -16.958667, 32.6803756 ], [ -16.9585459, 32.6802041 ], [ -16.958517, 32.6801031 ], [ -16.9584012, 32.6796987 ], [ -16.9581342, 32.6784545 ], [ -16.9577515, 32.6777449 ], [ -16.9576509, 32.6774574 ], [ -16.9577509, 32.6772403 ], [ -16.9580855, 32.6770144 ], [ -16.9590365, 32.6767484 ], [ -16.9591101, 32.6766631 ], [ -16.9592395, 32.6763029 ], [ -16.959236, 32.6761428 ], [ -16.9589063, 32.6754555 ], [ -16.9588591, 32.6752943 ], [ -16.9588661, 32.6752124 ], [ -16.9589596, 32.6750827 ], [ -16.9592886, 32.6747832 ], [ -16.9593391, 32.6745995 ], [ -16.9592494, 32.6744067 ], [ -16.95916, 32.6743009 ], [ -16.958655, 32.6738532 ], [ -16.9585186, 32.6736717 ], [ -16.9584767, 32.6735359 ], [ -16.9585233, 32.6721648 ], [ -16.9585929, 32.6718267 ], [ -16.9585975, 32.6715782 ], [ -16.9584855, 32.6709689 ], [ -16.9581993, 32.6701174 ], [ -16.958226, 32.6695752 ], [ -16.9583265, 32.6692905 ], [ -16.9585182, 32.6689556 ], [ -16.9588501, 32.668671 ], [ -16.9594114, 32.6684988 ], [ -16.959625, 32.6684765 ], [ -16.960011, 32.6685044 ], [ -16.9603389, 32.6684791 ], [ -16.9604357, 32.6684431 ], [ -16.960491, 32.6683864 ], [ -16.9604975, 32.6683731 ], [ -16.9605609, 32.6681896 ], [ -16.9605624, 32.6679769 ], [ -16.9602812, 32.6675694 ], [ -16.9601961, 32.6673852 ], [ -16.9600964, 32.6665779 ], [ -16.9601665, 32.6658808 ], [ -16.9606802, 32.6643477 ], [ -16.960691, 32.6640398 ], [ -16.9604798, 32.6632646 ], [ -16.9604866, 32.6628326 ], [ -16.9605677, 32.6625972 ], [ -16.960683, 32.6624267 ], [ -16.9613941, 32.6617892 ], [ -16.9614888, 32.6615283 ], [ -16.9615013, 32.6613104 ], [ -16.9615057, 32.6612718 ], [ -16.9615664, 32.6607467 ], [ -16.961505, 32.6605416 ], [ -16.9615893, 32.6603054 ], [ -16.9616593, 32.6596126 ], [ -16.961637, 32.6594273 ], [ -16.9616723, 32.6592751 ], [ -16.9616068, 32.6586223 ], [ -16.9616903, 32.6583117 ], [ -16.9618401, 32.6579707 ], [ -16.9619491, 32.6578162 ], [ -16.9620448, 32.6577438 ], [ -16.9621124, 32.6575756 ], [ -16.9622244, 32.6574971 ], [ -16.9624489, 32.657379 ], [ -16.9630631, 32.6572103 ], [ -16.9635228, 32.6570044 ], [ -16.9641178, 32.6565173 ], [ -16.9643899, 32.6562026 ], [ -16.9646435, 32.655766 ], [ -16.9647828, 32.6555934 ], [ -16.9650233, 32.6551711 ], [ -16.9652069, 32.6546735 ], [ -16.9652502, 32.6541399 ], [ -16.9651743, 32.6538382 ], [ -16.9651029, 32.6536636 ], [ -16.9647491, 32.6531872 ], [ -16.9646481, 32.6528373 ], [ -16.9643833, 32.6512921 ], [ -16.9643976, 32.6509206 ], [ -16.9646055, 32.6506973 ], [ -16.9648161, 32.6505568 ], [ -16.9649492, 32.6505258 ], [ -16.9657552, 32.6504748 ], [ -16.965883, 32.6504188 ], [ -16.9660876, 32.6502618 ], [ -16.966393, 32.6498321 ], [ -16.9665719, 32.6492731 ], [ -16.966703, 32.6491252 ], [ -16.9670581, 32.64859 ], [ -16.9680155, 32.6480152 ], [ -16.968138, 32.6478969 ], [ -16.9684948, 32.647407 ], [ -16.9687544, 32.6471097 ], [ -16.9689762, 32.6467458 ], [ -16.9693568, 32.646474 ], [ -16.9694891, 32.6463312 ], [ -16.9695248, 32.6462846 ], [ -16.9696081, 32.6456617 ], [ -16.9696837, 32.645343 ] ] ] } }
]
}
