{
"type": "FeatureCollection",
"name": "gomel_by",
"crs": { "type": "name", "properties": { "name": "urn:ogc:def:crs:OGC:1.3:CRS84" } },
"features": [
{ "type": "Feature", "properties": { "bbox_west": 30.7469505, "bbox_south": 52.3434547, "bbox_east": 31.1715281, "bbox_north": 52.5707879, "place_id": 172380014, "osm_type": "relation", "osm_id": 163244, "lat": 52.4238936, "lon": 31.0131698, "class": "boundary", "type": "administrative", "place_rank": 12, "importance": 0.61833613516946728, "addresstype": "city", "name": "Homyel", "display_name": "Homyel, Homyel Region, Belarus" }, "geometry": { "type": "MultiPolygon", "coordinates": [ [ [ [ 30.7469505, 52.4114903 ], [ 30.7473911, 52.4104913 ], [ 30.7486132, 52.4106383 ], [ 30.7492616, 52.4090967 ], [ 30.7496357, 52.4084476 ], [ 30.7497936, 52.4065407 ], [ 30.7502259, 52.4054655 ], [ 30.7513316, 52.4058155 ], [ 30.7516558, 52.4061045 ], [ 30.7527864, 52.4062364 ], [ 30.7542579, 52.4031223 ], [ 30.7549479, 52.4032846 ], [ 30.7556302, 52.4011903 ], [ 30.7567881, 52.4013435 ], [ 30.7568796, 52.401171 ], [ 30.7580684, 52.4014551 ], [ 30.7564639, 52.403702 ], [ 30.755167, 52.4058068 ], [ 30.7568463, 52.4061567 ], [ 30.7561147, 52.4075717 ], [ 30.7559568, 52.4079926 ], [ 30.7559402, 52.4085403 ], [ 30.7558155, 52.4092351 ], [ 30.7576028, 52.409301 ], [ 30.7581432, 52.4095292 ], [ 30.7578524, 52.4116911 ], [ 30.7568267, 52.4122002 ], [ 30.7503174, 52.4119365 ], [ 30.7469505, 52.4114903 ] ] ], [ [ [ 30.8012642, 52.4640288 ], [ 30.8061746, 52.460385 ], [ 30.8085215, 52.4614379 ], [ 30.8085743, 52.4614002 ], [ 30.8109091, 52.4624682 ], [ 30.819875, 52.4556804 ], [ 30.8192112, 52.4540964 ], [ 30.8193088, 52.4540767 ], [ 30.819136, 52.4536299 ], [ 30.8184977, 52.4534594 ], [ 30.8185634, 52.4533526 ], [ 30.815539, 52.4526428 ], [ 30.8116987, 52.4543294 ], [ 30.8105877, 52.4559867 ], [ 30.8102277, 52.4559071 ], [ 30.8101545, 52.4560234 ], [ 30.8092794, 52.4558374 ], [ 30.8095297, 52.4557414 ], [ 30.8095672, 52.4556772 ], [ 30.8102154, 52.4545681 ], [ 30.8104497, 52.4536663 ], [ 30.8103015, 52.4536542 ], [ 30.8104558, 52.4529176 ], [ 30.8100136, 52.4523467 ], [ 30.8100669, 52.4522312 ], [ 30.8073509, 52.4515783 ], [ 30.8096918, 52.4478566 ], [ 30.8107012, 52.4474793 ], [ 30.8116139, 52.4472591 ], [ 30.8131874, 52.4470705 ], [ 30.81485, 52.4433067 ], [ 30.8152775, 52.4433093 ], [ 30.8157571, 52.4426444 ], [ 30.8163252, 52.4428031 ], [ 30.8169314, 52.4426704 ], [ 30.817605, 52.4426856 ], [ 30.8181966, 52.4417752 ], [ 30.8205283, 52.4378296 ], [ 30.822609, 52.4345517 ], [ 30.8314087, 52.4332133 ], [ 30.832709, 52.432101 ], [ 30.8338106, 52.4315077 ], [ 30.8336135, 52.4313314 ], [ 30.8354803, 52.4311127 ], [ 30.8360138, 52.4306501 ], [ 30.8363814, 52.4305669 ], [ 30.8428233, 52.4305659 ], [ 30.8424209, 52.4296215 ], [ 30.8425727, 52.429594 ], [ 30.8427246, 52.4290576 ], [ 30.8432371, 52.429038 ], [ 30.8435083, 52.4277545 ], [ 30.8441442, 52.424816 ], [ 30.8452448, 52.420886 ], [ 30.8508853, 52.4218449 ], [ 30.8574301, 52.4229027 ], [ 30.8573253, 52.423007 ], [ 30.8583685, 52.4231299 ], [ 30.8621578, 52.4238344 ], [ 30.8713651, 52.4254382 ], [ 30.8712551, 52.425671 ], [ 30.8840155, 52.4278348 ], [ 30.8842534, 52.4277251 ], [ 30.8853153, 52.4276447 ], [ 30.8859851, 52.4276443 ], [ 30.8877602, 52.4278096 ], [ 30.8877248, 52.4279503 ], [ 30.8885252, 52.4279758 ], [ 30.888648, 52.4276519 ], [ 30.886838, 52.4272712 ], [ 30.8857655, 52.426957 ], [ 30.8848351, 52.4266428 ], [ 30.8839482, 52.4261903 ], [ 30.8832136, 52.4256263 ], [ 30.8823097, 52.4247972 ], [ 30.881893, 52.4238878 ], [ 30.8814355, 52.4215533 ], [ 30.8815215, 52.4215086 ], [ 30.8813197, 52.4208421 ], [ 30.8797586, 52.4211538 ], [ 30.8797836, 52.4212046 ], [ 30.8795676, 52.4212426 ], [ 30.8793495, 52.4211976 ], [ 30.8788405, 52.4201141 ], [ 30.8787859, 52.4196009 ], [ 30.8789477, 52.4193482 ], [ 30.8806905, 52.4190733 ], [ 30.8801795, 52.418421 ], [ 30.8772475, 52.4161532 ], [ 30.8787774, 52.4143632 ], [ 30.8836932, 52.4158926 ], [ 30.8844352, 52.4157003 ], [ 30.8848641, 52.4148645 ], [ 30.8840987, 52.4147041 ], [ 30.8858959, 52.4122369 ], [ 30.8894033, 52.4132241 ], [ 30.8895222, 52.4130741 ], [ 30.8911773, 52.4134793 ], [ 30.896394, 52.414945 ], [ 30.9018618, 52.4083869 ], [ 30.8967051, 52.4046081 ], [ 30.902001, 52.4021519 ], [ 30.9042639, 52.4010351 ], [ 30.9035278, 52.4004567 ], [ 30.9027917, 52.3997438 ], [ 30.9024459, 52.3987622 ], [ 30.9031752, 52.3982524 ], [ 30.9038851, 52.3984022 ], [ 30.9021436, 52.39726 ], [ 30.9001035, 52.3970012 ], [ 30.8996698, 52.3977484 ], [ 30.8984942, 52.3976095 ], [ 30.8985408, 52.3974317 ], [ 30.8984372, 52.3974048 ], [ 30.8979885, 52.3968204 ], [ 30.8990614, 52.3961527 ], [ 30.8962995, 52.3953355 ], [ 30.8966834, 52.3943765 ], [ 30.8958928, 52.3942813 ], [ 30.8963891, 52.3926271 ], [ 30.8951804, 52.3914189 ], [ 30.8983294, 52.3895828 ], [ 30.8999047, 52.3901291 ], [ 30.9042036, 52.3929053 ], [ 30.9115143, 52.3935072 ], [ 30.9130878, 52.3892188 ], [ 30.9127627, 52.3890499 ], [ 30.9127954, 52.3889665 ], [ 30.9121262, 52.3888044 ], [ 30.9124395, 52.3878178 ], [ 30.9130544, 52.3863257 ], [ 30.9138202, 52.3846377 ], [ 30.915422, 52.3828762 ], [ 30.9159383, 52.3829471 ], [ 30.9147838, 52.3853839 ], [ 30.9155416, 52.3855457 ], [ 30.9156317, 52.3853976 ], [ 30.9161149, 52.3854898 ], [ 30.9159993, 52.3857007 ], [ 30.9201145, 52.3865121 ], [ 30.920427, 52.3866888 ], [ 30.9219063, 52.3866565 ], [ 30.9226078, 52.3850457 ], [ 30.9226559, 52.385042 ], [ 30.9254091, 52.3861414 ], [ 30.9278553, 52.3871372 ], [ 30.9280847, 52.386777 ], [ 30.9302742, 52.38498 ], [ 30.9330618, 52.3833071 ], [ 30.9357999, 52.3813279 ], [ 30.9381206, 52.3796055 ], [ 30.9394501, 52.3790268 ], [ 30.9401661, 52.3787803 ], [ 30.9409959, 52.3787241 ], [ 30.9430624, 52.3787107 ], [ 30.9439947, 52.3779005 ], [ 30.9442658, 52.3779663 ], [ 30.9446384, 52.3781639 ], [ 30.9448243, 52.3781572 ], [ 30.9449549, 52.378068 ], [ 30.945713, 52.3773155 ], [ 30.9483861, 52.3755445 ], [ 30.9486205, 52.3753905 ], [ 30.9488726, 52.3752683 ], [ 30.9490948, 52.3751731 ], [ 30.9493229, 52.3750818 ], [ 30.9495902, 52.3750052 ], [ 30.9499561, 52.3749743 ], [ 30.9502184, 52.3749852 ], [ 30.9503863, 52.3750242 ], [ 30.9505722, 52.3751377 ], [ 30.9507042, 52.3752671 ], [ 30.9507402, 52.3753794 ], [ 30.9507202, 52.3754868 ], [ 30.9505262, 52.3756735 ], [ 30.9524795, 52.37658 ], [ 30.9527348, 52.3765675 ], [ 30.9531944, 52.3766984 ], [ 30.9535961, 52.3768834 ], [ 30.9539332, 52.3770871 ], [ 30.9543009, 52.3771515 ], [ 30.9546141, 52.3771993 ], [ 30.9549851, 52.3774923 ], [ 30.954992, 52.3776545 ], [ 30.954757, 52.3777272 ], [ 30.9552609, 52.3779205 ], [ 30.9556184, 52.377854 ], [ 30.9571878, 52.3781782 ], [ 30.9573615, 52.3783735 ], [ 30.957593, 52.3787642 ], [ 30.9576338, 52.3789679 ], [ 30.9575589, 52.3792027 ], [ 30.957501, 52.3794646 ], [ 30.9574398, 52.3803125 ], [ 30.9574364, 52.3812476 ], [ 30.9574193, 52.3817484 ], [ 30.957484, 52.3825028 ], [ 30.9577325, 52.3832862 ], [ 30.9580594, 52.3841776 ], [ 30.9583215, 52.3846493 ], [ 30.9588015, 52.3852665 ], [ 30.9592339, 52.3859376 ], [ 30.9594756, 52.3864031 ], [ 30.9596595, 52.3869204 ], [ 30.9598773, 52.3875625 ], [ 30.9599863, 52.3880632 ], [ 30.960102, 52.3884559 ], [ 30.9603403, 52.3889567 ], [ 30.9607319, 52.3895322 ], [ 30.9610995, 52.3902033 ], [ 30.9614876, 52.3909346 ], [ 30.9617055, 52.391026 ], [ 30.9619643, 52.3913024 ], [ 30.9621175, 52.3917283 ], [ 30.9623251, 52.3920171 ], [ 30.9625294, 52.3922394 ], [ 30.9628018, 52.3923785 ], [ 30.9629924, 52.3925406 ], [ 30.9631116, 52.3927442 ], [ 30.9633533, 52.3929291 ], [ 30.9641261, 52.3933176 ], [ 30.9650317, 52.3937289 ], [ 30.965927, 52.394051 ], [ 30.9665467, 52.3942213 ], [ 30.9672071, 52.3943792 ], [ 30.9678676, 52.3945309 ], [ 30.96846, 52.394643 ], [ 30.9696311, 52.3946784 ], [ 30.9703494, 52.3946451 ], [ 30.9711018, 52.3945953 ], [ 30.9716363, 52.3944623 ], [ 30.9722253, 52.3942836 ], [ 30.9736756, 52.3936583 ], [ 30.9752311, 52.3929848 ], [ 30.9764445, 52.3923488 ], [ 30.9767206, 52.3920853 ], [ 30.9774595, 52.391689 ], [ 30.978109, 52.3912737 ], [ 30.9786379, 52.3908844 ], [ 30.978949, 52.3906566 ], [ 30.9792563, 52.3904833 ], [ 30.9795907, 52.3902745 ], [ 30.9804696, 52.3896953 ], [ 30.980808, 52.3894936 ], [ 30.9813719, 52.3891233 ], [ 30.9820797, 52.3887744 ], [ 30.9827447, 52.3884042 ], [ 30.9833048, 52.388238 ], [ 30.9836315, 52.388003 ], [ 30.9841643, 52.3877562 ], [ 30.9845532, 52.3875283 ], [ 30.9863071, 52.3869112 ], [ 30.9874661, 52.3866216 ], [ 30.9885589, 52.3864578 ], [ 30.9896945, 52.3862822 ], [ 30.9910168, 52.3861042 ], [ 30.9924052, 52.3859451 ], [ 30.9934573, 52.385819 ], [ 30.9928831, 52.385068 ], [ 30.9905586, 52.3821739 ], [ 30.9900323, 52.3807514 ], [ 30.9903104, 52.3803344 ], [ 30.9914862, 52.3792975 ], [ 30.9915966, 52.37906 ], [ 30.9948299, 52.3779611 ], [ 30.9960783, 52.3776199 ], [ 30.9985631, 52.3771624 ], [ 31.0037188, 52.3768989 ], [ 31.0042968, 52.3753855 ], [ 31.0039433, 52.3711336 ], [ 31.0037435, 52.3711173 ], [ 31.002065, 52.3699341 ], [ 31.0012462, 52.3696937 ], [ 31.0017259, 52.3691967 ], [ 31.0019642, 52.3692111 ], [ 31.0020889, 52.3692591 ], [ 31.0025561, 52.3690236 ], [ 31.0028794, 52.3686089 ], [ 31.003641, 52.3685554 ], [ 31.0045227, 52.368733 ], [ 31.0042094, 52.3666537 ], [ 31.0038844, 52.3652294 ], [ 31.002369, 52.3614294 ], [ 31.0011888, 52.3586397 ], [ 31.0010109, 52.3578967 ], [ 31.0010195, 52.3571538 ], [ 31.0011594, 52.356272 ], [ 31.0016392, 52.355071 ], [ 31.0025067, 52.3538306 ], [ 31.0021127, 52.3536964 ], [ 31.0023179, 52.3534744 ], [ 31.0026747, 52.3536049 ], [ 31.0049117, 52.351988 ], [ 31.0069296, 52.3510791 ], [ 31.0078504, 52.3507499 ], [ 31.0095567, 52.3503552 ], [ 31.0122979, 52.3500104 ], [ 31.0186766, 52.3499225 ], [ 31.0212136, 52.3498702 ], [ 31.0212602, 52.3486647 ], [ 31.0209791, 52.3486647 ], [ 31.0214744, 52.3444252 ], [ 31.0303865, 52.3442854 ], [ 31.056092, 52.3434547 ], [ 31.0560725, 52.3446557 ], [ 31.0564352, 52.3448771 ], [ 31.0559326, 52.3452863 ], [ 31.0574856, 52.3489003 ], [ 31.0577062, 52.3490345 ], [ 31.0622777, 52.349313 ], [ 31.0612526, 52.3510727 ], [ 31.0610217, 52.3510344 ], [ 31.0609669, 52.3511155 ], [ 31.0602666, 52.3527703 ], [ 31.0553976, 52.3594319 ], [ 31.0555116, 52.3594569 ], [ 31.0550706, 52.3600093 ], [ 31.0540302, 52.3607468 ], [ 31.053008, 52.361279 ], [ 31.0519952, 52.3613114 ], [ 31.0495185, 52.3655315 ], [ 31.0485786, 52.3663064 ], [ 31.0438747, 52.3720942 ], [ 31.0416972, 52.3734083 ], [ 31.0404866, 52.3742391 ], [ 31.039562, 52.3749827 ], [ 31.0380783, 52.3758102 ], [ 31.0367545, 52.3763551 ], [ 31.0347605, 52.3767262 ], [ 31.0346653, 52.3767542 ], [ 31.0343256, 52.3776445 ], [ 31.0340808, 52.3780883 ], [ 31.0331115, 52.37913 ], [ 31.0331986, 52.3796961 ], [ 31.0337102, 52.3796895 ], [ 31.0339465, 52.3796754 ], [ 31.0351502, 52.3794804 ], [ 31.035273, 52.3795222 ], [ 31.0353733, 52.3798926 ], [ 31.0354023, 52.3798894 ], [ 31.0358993, 52.3798646 ], [ 31.0357418, 52.3803386 ], [ 31.0355765, 52.3803495 ], [ 31.0357857, 52.3822303 ], [ 31.0363507, 52.3825564 ], [ 31.0363979, 52.3827351 ], [ 31.0357928, 52.3833977 ], [ 31.0352819, 52.3838423 ], [ 31.0353464, 52.383935 ], [ 31.0355135, 52.384175 ], [ 31.0360775, 52.3849852 ], [ 31.0374679, 52.3867406 ], [ 31.0375799, 52.3867661 ], [ 31.0377321, 52.3866008 ], [ 31.038318, 52.3868032 ], [ 31.0395491, 52.3854099 ], [ 31.0398389, 52.3848163 ], [ 31.0395044, 52.3848694 ], [ 31.0391933, 52.3851117 ], [ 31.0380828, 52.3845125 ], [ 31.0380077, 52.3842408 ], [ 31.0380775, 52.3839362 ], [ 31.0396166, 52.3839523 ], [ 31.0412915, 52.3827026 ], [ 31.0426379, 52.3819169 ], [ 31.0424211, 52.3817428 ], [ 31.042779, 52.3815331 ], [ 31.0437154, 52.3812564 ], [ 31.0444316, 52.3808437 ], [ 31.0455153, 52.3802293 ], [ 31.0478066, 52.3813685 ], [ 31.048026, 52.3815639 ], [ 31.0479778, 52.3818036 ], [ 31.0471293, 52.3824655 ], [ 31.0454188, 52.3836898 ], [ 31.0454579, 52.3837208 ], [ 31.0441287, 52.3846309 ], [ 31.0432616, 52.3852303 ], [ 31.0439977, 52.3856682 ], [ 31.0431551, 52.3860851 ], [ 31.0424107, 52.3864426 ], [ 31.0409892, 52.3870876 ], [ 31.0410966, 52.3874041 ], [ 31.0412838, 52.3879559 ], [ 31.041399, 52.3882955 ], [ 31.0414384, 52.3884114 ], [ 31.0415414, 52.3887151 ], [ 31.0394762, 52.3889762 ], [ 31.039959, 52.3890253 ], [ 31.0401414, 52.3893756 ], [ 31.039743, 52.3894435 ], [ 31.0399982, 52.3900645 ], [ 31.0401862, 52.3905218 ], [ 31.0405145, 52.3913204 ], [ 31.0410223, 52.3912508 ], [ 31.0410298, 52.391271 ], [ 31.0414246, 52.3913073 ], [ 31.0418051, 52.3912492 ], [ 31.0419658, 52.3912698 ], [ 31.0418347, 52.3917021 ], [ 31.0417915, 52.3916979 ], [ 31.0416427, 52.3922375 ], [ 31.0417325, 52.392265 ], [ 31.0417975, 52.3923232 ], [ 31.0417988, 52.3923929 ], [ 31.0418691, 52.392401 ], [ 31.0417845, 52.392613 ], [ 31.0414832, 52.3925702 ], [ 31.0414561, 52.3926377 ], [ 31.0413887, 52.3926262 ], [ 31.0412605, 52.3929953 ], [ 31.0407582, 52.3940883 ], [ 31.0410561, 52.39429 ], [ 31.0411961, 52.3952877 ], [ 31.0411744, 52.395767 ], [ 31.0411951, 52.3960296 ], [ 31.044736, 52.3947575 ], [ 31.0462273, 52.3942532 ], [ 31.0461408, 52.3941259 ], [ 31.0467464, 52.393979 ], [ 31.0474035, 52.3938823 ], [ 31.0480778, 52.3938203 ], [ 31.049214, 52.393753 ], [ 31.0502423, 52.3937789 ], [ 31.0508509, 52.3938666 ], [ 31.0514222, 52.3940241 ], [ 31.051456, 52.3939777 ], [ 31.054715, 52.3945796 ], [ 31.0578633, 52.3952005 ], [ 31.0597385, 52.3959982 ], [ 31.0605909, 52.3963397 ], [ 31.0612365, 52.3966913 ], [ 31.0618708, 52.3969489 ], [ 31.0626682, 52.3971356 ], [ 31.0628916, 52.3971874 ], [ 31.063631, 52.3972787 ], [ 31.0641112, 52.3973646 ], [ 31.0644207, 52.3974815 ], [ 31.0646656, 52.3977767 ], [ 31.0648142, 52.3978088 ], [ 31.0647981, 52.3978345 ], [ 31.0655274, 52.398035 ], [ 31.0654336, 52.3981519 ], [ 31.0653925, 52.3982664 ], [ 31.0656545, 52.3984394 ], [ 31.0656624, 52.3984764 ], [ 31.0656643, 52.3985122 ], [ 31.0656213, 52.3985492 ], [ 31.0650621, 52.3989274 ], [ 31.0647042, 52.399172 ], [ 31.0651149, 52.3993259 ], [ 31.0650562, 52.3993712 ], [ 31.0657738, 52.3996838 ], [ 31.0656565, 52.3999093 ], [ 31.0657699, 52.3999308 ], [ 31.0660847, 52.3998866 ], [ 31.0666526, 52.3999844 ], [ 31.0674879, 52.3993257 ], [ 31.0676257, 52.3995603 ], [ 31.0676676, 52.3995766 ], [ 31.0679753, 52.3995024 ], [ 31.0682032, 52.3994234 ], [ 31.0697264, 52.399315 ], [ 31.0697398, 52.3994554 ], [ 31.0725829, 52.3994415 ], [ 31.0725736, 52.3993863 ], [ 31.0738733, 52.3993674 ], [ 31.0739747, 52.3994855 ], [ 31.0740706, 52.3994863 ], [ 31.0743744, 52.3992507 ], [ 31.0762287, 52.399204 ], [ 31.0762332, 52.39925 ], [ 31.081713, 52.3992288 ], [ 31.0817754, 52.399204 ], [ 31.0817874, 52.3991112 ], [ 31.0836497, 52.3988543 ], [ 31.0837367, 52.4025397 ], [ 31.0854159, 52.4025196 ], [ 31.0854419, 52.401109 ], [ 31.0857797, 52.4009895 ], [ 31.0858392, 52.4000685 ], [ 31.0875784, 52.399926 ], [ 31.0876908, 52.3999528 ], [ 31.0878992, 52.4000784 ], [ 31.0880617, 52.4018041 ], [ 31.0880228, 52.4018375 ], [ 31.0882113, 52.4026993 ], [ 31.0883975, 52.402689 ], [ 31.0886789, 52.4038124 ], [ 31.0862728, 52.4038671 ], [ 31.0859774, 52.4039407 ], [ 31.0856718, 52.4043607 ], [ 31.0856361, 52.4050806 ], [ 31.0839954, 52.4051182 ], [ 31.0837262, 52.4050872 ], [ 31.0833447, 52.4049845 ], [ 31.0829084, 52.4049625 ], [ 31.082414, 52.4049677 ], [ 31.0815637, 52.4050136 ], [ 31.0794469, 52.4049423 ], [ 31.0788077, 52.4049956 ], [ 31.0785359, 52.4050026 ], [ 31.0769649, 52.4049794 ], [ 31.0770541, 52.4047801 ], [ 31.0770967, 52.4045844 ], [ 31.0770052, 52.4043994 ], [ 31.077007, 52.4042961 ], [ 31.0750276, 52.4043746 ], [ 31.0750108, 52.4041856 ], [ 31.074636, 52.4041708 ], [ 31.0746678, 52.4042545 ], [ 31.0738537, 52.4042592 ], [ 31.073567, 52.4038485 ], [ 31.0728753, 52.4038035 ], [ 31.0700136, 52.4038752 ], [ 31.0699246, 52.4036689 ], [ 31.0645575, 52.4036281 ], [ 31.0638294, 52.4038703 ], [ 31.0610425, 52.4037378 ], [ 31.0597395, 52.4039975 ], [ 31.0563545, 52.4051255 ], [ 31.0551724, 52.4056695 ], [ 31.0544327, 52.4058948 ], [ 31.0542571, 52.4060019 ], [ 31.0541395, 52.4063026 ], [ 31.0534144, 52.4066606 ], [ 31.0530691, 52.4068686 ], [ 31.0526462, 52.4066248 ], [ 31.0520107, 52.4070195 ], [ 31.0515148, 52.4075563 ], [ 31.051214, 52.4079641 ], [ 31.0514609, 52.4080136 ], [ 31.0517077, 52.408055 ], [ 31.0515037, 52.4084108 ], [ 31.0512835, 52.4083773 ], [ 31.0513314, 52.408709 ], [ 31.0514015, 52.4088308 ], [ 31.0515343, 52.4088028 ], [ 31.0516632, 52.4089795 ], [ 31.0518762, 52.4091858 ], [ 31.0519674, 52.4091895 ], [ 31.0521625, 52.40946 ], [ 31.0525407, 52.4098612 ], [ 31.0520271, 52.4101069 ], [ 31.0523183, 52.4103804 ], [ 31.0529297, 52.4117342 ], [ 31.0530069, 52.412509 ], [ 31.0524296, 52.4140441 ], [ 31.0523815, 52.4143212 ], [ 31.0524451, 52.4144512 ], [ 31.0530378, 52.4151904 ], [ 31.0534927, 52.4156681 ], [ 31.053721, 52.4158533 ], [ 31.0541834, 52.4161714 ], [ 31.0543963, 52.4164069 ], [ 31.0545224, 52.416658 ], [ 31.0545144, 52.4168894 ], [ 31.0543759, 52.4171717 ], [ 31.0542623, 52.4172849 ], [ 31.0540045, 52.4175082 ], [ 31.0537074, 52.4177835 ], [ 31.0531988, 52.4182548 ], [ 31.0566715, 52.4205467 ], [ 31.0578498, 52.4211996 ], [ 31.0599604, 52.4222544 ], [ 31.0609047, 52.422144 ], [ 31.0615942, 52.4213613 ], [ 31.0616612, 52.4212944 ], [ 31.0617342, 52.4212331 ], [ 31.0618213, 52.4211767 ], [ 31.0619113, 52.4211284 ], [ 31.0626827, 52.4208225 ], [ 31.0628027, 52.4207752 ], [ 31.0629046, 52.42072 ], [ 31.0629917, 52.4206582 ], [ 31.0630695, 52.4205938 ], [ 31.0631229, 52.4205294 ], [ 31.0631683, 52.4204494 ], [ 31.0632002, 52.4203761 ], [ 31.0633375, 52.4199679 ], [ 31.063416, 52.4198015 ], [ 31.0634533, 52.4197289 ], [ 31.0635028, 52.4196565 ], [ 31.0635619, 52.4195974 ], [ 31.0636456, 52.4195309 ], [ 31.063743, 52.4194702 ], [ 31.0645553, 52.4190113 ], [ 31.0646643, 52.418948 ], [ 31.0647652, 52.4188811 ], [ 31.0660999, 52.4178803 ], [ 31.066967, 52.4172341 ], [ 31.0670484, 52.4171818 ], [ 31.0671354, 52.4171388 ], [ 31.067258, 52.4170951 ], [ 31.0673598, 52.4170524 ], [ 31.0674285, 52.4170177 ], [ 31.0675053, 52.4169766 ], [ 31.0675656, 52.4169355 ], [ 31.0676406, 52.4168796 ], [ 31.0677095, 52.4168235 ], [ 31.068054, 52.4165277 ], [ 31.0681292, 52.4164658 ], [ 31.0681875, 52.4164073 ], [ 31.068234, 52.4163611 ], [ 31.0682773, 52.4163003 ], [ 31.068318, 52.4162454 ], [ 31.0685262, 52.4160314 ], [ 31.0686078, 52.4159569 ], [ 31.0686874, 52.4158885 ], [ 31.0687724, 52.4158233 ], [ 31.0698217, 52.4151868 ], [ 31.0700666, 52.4150644 ], [ 31.0701392, 52.4150283 ], [ 31.0702193, 52.4149952 ], [ 31.0703135, 52.4149678 ], [ 31.0704301, 52.4149445 ], [ 31.071222, 52.4148063 ], [ 31.0713359, 52.4147879 ], [ 31.0714603, 52.4147701 ], [ 31.0715816, 52.4147536 ], [ 31.0717075, 52.4147388 ], [ 31.0718395, 52.4147249 ], [ 31.0725681, 52.4146691 ], [ 31.0726656, 52.4146607 ], [ 31.0727663, 52.4146491 ], [ 31.0728641, 52.4146341 ], [ 31.0729742, 52.4146115 ], [ 31.073393, 52.4145061 ], [ 31.0735158, 52.4144715 ], [ 31.0736798, 52.414422 ], [ 31.0738427, 52.414365 ], [ 31.0739444, 52.414321 ], [ 31.0742531, 52.4141444 ], [ 31.0743565, 52.4140769 ], [ 31.0744603, 52.4140065 ], [ 31.0745534, 52.4139332 ], [ 31.0746262, 52.4138637 ], [ 31.0753863, 52.4129276 ], [ 31.0754357, 52.412862 ], [ 31.0754732, 52.4128058 ], [ 31.0755011, 52.4127425 ], [ 31.0755236, 52.4126751 ], [ 31.075546, 52.4126024 ], [ 31.0755547, 52.4125289 ], [ 31.0755452, 52.4124614 ], [ 31.0755263, 52.4124049 ], [ 31.0754878, 52.4123421 ], [ 31.0744804, 52.4110555 ], [ 31.0744281, 52.4109868 ], [ 31.0743927, 52.410928 ], [ 31.0743666, 52.4108654 ], [ 31.07435, 52.4107959 ], [ 31.0743357, 52.4107105 ], [ 31.0743312, 52.41063 ], [ 31.0743387, 52.4105524 ], [ 31.0743472, 52.4104836 ], [ 31.0744426, 52.4102116 ], [ 31.0744673, 52.4101507 ], [ 31.0744975, 52.4100999 ], [ 31.0745398, 52.4100531 ], [ 31.0746207, 52.4099953 ], [ 31.0747149, 52.4099483 ], [ 31.0748172, 52.409906 ], [ 31.0749571, 52.4098641 ], [ 31.0752733, 52.4097832 ], [ 31.0754223, 52.4097459 ], [ 31.0755549, 52.4097185 ], [ 31.0757377, 52.4096913 ], [ 31.075892, 52.4096767 ], [ 31.0760337, 52.4096688 ], [ 31.0762179, 52.4096622 ], [ 31.0764212, 52.4096644 ], [ 31.0766118, 52.4096723 ], [ 31.0768149, 52.4096852 ], [ 31.0769785, 52.4097028 ], [ 31.0771529, 52.4097257 ], [ 31.0774357, 52.4097705 ], [ 31.0775723, 52.4097962 ], [ 31.0776925, 52.4098252 ], [ 31.0778076, 52.4098628 ], [ 31.0785299, 52.410136 ], [ 31.0786953, 52.4101956 ], [ 31.0788237, 52.4102494 ], [ 31.07893, 52.4102984 ], [ 31.0792692, 52.4104853 ], [ 31.0793522, 52.4105372 ], [ 31.0794133, 52.4105842 ], [ 31.0794668, 52.410641 ], [ 31.0795265, 52.4107024 ], [ 31.079592, 52.4107576 ], [ 31.0796674, 52.4108106 ], [ 31.080328, 52.4111953 ], [ 31.0804381, 52.4112614 ], [ 31.080559, 52.4113276 ], [ 31.0817404, 52.4118836 ], [ 31.0818412, 52.4119421 ], [ 31.0819146, 52.4119979 ], [ 31.0819702, 52.4120495 ], [ 31.0821775, 52.4123126 ], [ 31.0822103, 52.4123559 ], [ 31.0822247, 52.4123973 ], [ 31.0822157, 52.4124353 ], [ 31.0821866, 52.412476 ], [ 31.0821504, 52.4125153 ], [ 31.0818438, 52.4127933 ], [ 31.0817556, 52.4128824 ], [ 31.0816881, 52.4129676 ], [ 31.0816182, 52.4130854 ], [ 31.0815474, 52.4132016 ], [ 31.0814915, 52.4133193 ], [ 31.0812997, 52.4138028 ], [ 31.0812597, 52.41392 ], [ 31.081222, 52.4140422 ], [ 31.0811988, 52.4141657 ], [ 31.081201, 52.4142854 ], [ 31.0812482, 52.4145495 ], [ 31.0756411, 52.4170136 ], [ 31.0752975, 52.4172023 ], [ 31.0744921, 52.4171555 ], [ 31.0738595, 52.4174265 ], [ 31.0736384, 52.4176442 ], [ 31.0735482, 52.417733 ], [ 31.0738943, 52.4180829 ], [ 31.0750269, 52.418309 ], [ 31.0767115, 52.4195875 ], [ 31.077274, 52.419974 ], [ 31.0776531, 52.4202711 ], [ 31.077909, 52.4205864 ], [ 31.0781004, 52.4209277 ], [ 31.0781514, 52.4212971 ], [ 31.0782249, 52.4218596 ], [ 31.0789313, 52.4216627 ], [ 31.0804289, 52.4212453 ], [ 31.0812114, 52.4210272 ], [ 31.0820488, 52.4207939 ], [ 31.0821734, 52.4206999 ], [ 31.0822106, 52.4205478 ], [ 31.0818134, 52.4200069 ], [ 31.0824294, 52.4198737 ], [ 31.0828843, 52.4200598 ], [ 31.0833224, 52.4201489 ], [ 31.0838698, 52.4201821 ], [ 31.0844773, 52.4201756 ], [ 31.0850507, 52.4200932 ], [ 31.0856533, 52.4199282 ], [ 31.086443, 52.4197632 ], [ 31.0872291, 52.4196565 ], [ 31.0875502, 52.4198368 ], [ 31.0874567, 52.4208532 ], [ 31.0876382, 52.4209253 ], [ 31.0901104, 52.4211412 ], [ 31.0912048, 52.4213182 ], [ 31.0914259, 52.4214573 ], [ 31.0915063, 52.4227343 ], [ 31.0913997, 52.4237743 ], [ 31.0910799, 52.4249824 ], [ 31.0907714, 52.4260867 ], [ 31.0934809, 52.4261139 ], [ 31.1001774, 52.426093 ], [ 31.1088415, 52.4261996 ], [ 31.1089095, 52.4296258 ], [ 31.1130919, 52.4295762 ], [ 31.1130774, 52.4322354 ], [ 31.1278154, 52.4321153 ], [ 31.1334976, 52.4313541 ], [ 31.1340433, 52.4323854 ], [ 31.1352582, 52.4340633 ], [ 31.1358837, 52.4346632 ], [ 31.136258, 52.4348852 ], [ 31.1393403, 52.4363459 ], [ 31.1402788, 52.4367816 ], [ 31.1410145, 52.4369646 ], [ 31.1415334, 52.4369667 ], [ 31.1429119, 52.4368416 ], [ 31.1507032, 52.4358602 ], [ 31.1571105, 52.4350002 ], [ 31.1578585, 52.4348669 ], [ 31.1583969, 52.4346896 ], [ 31.1587993, 52.4344604 ], [ 31.1626161, 52.4319028 ], [ 31.1628717, 52.431853 ], [ 31.1632716, 52.4318143 ], [ 31.1635128, 52.4318655 ], [ 31.1640764, 52.4322653 ], [ 31.1649008, 52.4325891 ], [ 31.1715281, 52.4344259 ], [ 31.1691631, 52.4377222 ], [ 31.1693786, 52.4381645 ], [ 31.1695908, 52.4396397 ], [ 31.1401163, 52.4441139 ], [ 31.1331834, 52.4451842 ], [ 31.1183492, 52.4473822 ], [ 31.1158708, 52.4463876 ], [ 31.1117307, 52.4435517 ], [ 31.1118937, 52.4432975 ], [ 31.1119111, 52.443226 ], [ 31.1120714, 52.4425653 ], [ 31.1122328, 52.4405355 ], [ 31.1124055, 52.440068 ], [ 31.1093405, 52.439425 ], [ 31.1063516, 52.4414556 ], [ 31.1007105, 52.4388716 ], [ 31.1004144, 52.4384473 ], [ 31.0923476, 52.4342556 ], [ 31.0918962, 52.4326403 ], [ 31.0916029, 52.4319145 ], [ 31.0915232, 52.4317079 ], [ 31.0915843, 52.4315352 ], [ 31.0921616, 52.4299047 ], [ 31.0922311, 52.4297084 ], [ 31.0925089, 52.4289239 ], [ 31.0926445, 52.4285407 ], [ 31.0933997, 52.426228 ], [ 31.0906877, 52.4262766 ], [ 31.0884159, 52.4317997 ], [ 31.0883491, 52.4320112 ], [ 31.0885721, 52.432154 ], [ 31.0884823, 52.4323127 ], [ 31.0885574, 52.4324918 ], [ 31.088476, 52.4326736 ], [ 31.0883599, 52.4328025 ], [ 31.088582, 52.4328409 ], [ 31.0881208, 52.4340837 ], [ 31.0872859, 52.4365705 ], [ 31.0866679, 52.438411 ], [ 31.0864247, 52.4392114 ], [ 31.0854323, 52.4386715 ], [ 31.0845139, 52.4380893 ], [ 31.0831844, 52.4369301 ], [ 31.0808103, 52.4347738 ], [ 31.0773288, 52.4316032 ], [ 31.0757808, 52.4302155 ], [ 31.074774, 52.429315 ], [ 31.0736561, 52.4285696 ], [ 31.0725736, 52.4279616 ], [ 31.0710306, 52.4273219 ], [ 31.0687908, 52.426368 ], [ 31.0608609, 52.4225968 ], [ 31.0598534, 52.4229963 ], [ 31.0588223, 52.4234368 ], [ 31.057876, 52.4238902 ], [ 31.0560614, 52.4249354 ], [ 31.0547067, 52.4258661 ], [ 31.0558033, 52.4270272 ], [ 31.0562673, 52.4276789 ], [ 31.0562921, 52.4279178 ], [ 31.0560254, 52.4281291 ], [ 31.0546089, 52.4284916 ], [ 31.05187, 52.4290896 ], [ 31.0502323, 52.4290794 ], [ 31.0519269, 52.438355 ], [ 31.0522322, 52.4383906 ], [ 31.0526505, 52.4383997 ], [ 31.0527571, 52.4384603 ], [ 31.0527388, 52.4385462 ], [ 31.0526248, 52.4387699 ], [ 31.0526455, 52.4389644 ], [ 31.0527792, 52.4391218 ], [ 31.0532358, 52.4394204 ], [ 31.0534685, 52.4394824 ], [ 31.0536663, 52.4395072 ], [ 31.053973, 52.4394893 ], [ 31.054271, 52.439429 ], [ 31.0546125, 52.4393237 ], [ 31.0548397, 52.4392896 ], [ 31.0549887, 52.4393243 ], [ 31.0550002, 52.4394089 ], [ 31.0547812, 52.440844 ], [ 31.054215, 52.4418826 ], [ 31.0541467, 52.4425461 ], [ 31.0542062, 52.443092 ], [ 31.0542802, 52.4435187 ], [ 31.0544867, 52.443996 ], [ 31.0547854, 52.4443826 ], [ 31.0552635, 52.4447646 ], [ 31.0559442, 52.44522 ], [ 31.056585, 52.4456499 ], [ 31.0571383, 52.4460512 ], [ 31.0581065, 52.4466921 ], [ 31.0590139, 52.4473636 ], [ 31.0598172, 52.4475805 ], [ 31.060408, 52.4480474 ], [ 31.0601466, 52.4481836 ], [ 31.0581931, 52.4483781 ], [ 31.0576406, 52.4486591 ], [ 31.0575076, 52.4490497 ], [ 31.0556411, 52.4499508 ], [ 31.0519428, 52.4515059 ], [ 31.0528675, 52.4520939 ], [ 31.0538472, 52.4526616 ], [ 31.0544432, 52.4529233 ], [ 31.0555506, 52.4534304 ], [ 31.0567546, 52.4537808 ], [ 31.0585176, 52.4543565 ], [ 31.0615394, 52.4554183 ], [ 31.0636184, 52.4560193 ], [ 31.062291, 52.457236 ], [ 31.0660152, 52.4584037 ], [ 31.0663413, 52.4581915 ], [ 31.0668904, 52.4585627 ], [ 31.0604047, 52.4627959 ], [ 31.0570766, 52.4650482 ], [ 31.0532051, 52.4675748 ], [ 31.0448878, 52.4714345 ], [ 31.0360361, 52.4752829 ], [ 31.0365887, 52.4756115 ], [ 31.0342358, 52.4767892 ], [ 31.0344037, 52.4769198 ], [ 31.033634, 52.4772996 ], [ 31.0329115, 52.4769228 ], [ 31.0277579, 52.4791598 ], [ 31.028159, 52.4795397 ], [ 31.0254164, 52.4807256 ], [ 31.0238251, 52.4812454 ], [ 31.0228108, 52.4817171 ], [ 31.0223953, 52.482016 ], [ 31.0213965, 52.4824853 ], [ 31.0203341, 52.4829464 ], [ 31.0201981, 52.4831539 ], [ 31.0199205, 52.4834727 ], [ 31.0167097, 52.4849522 ], [ 31.0165975, 52.4848199 ], [ 31.0162979, 52.4849256 ], [ 31.015695, 52.4850407 ], [ 31.0147215, 52.4850926 ], [ 31.0138348, 52.4853364 ], [ 31.0142858, 52.4856544 ], [ 31.012959, 52.4862643 ], [ 31.0097724, 52.4877139 ], [ 31.0085636, 52.4882595 ], [ 31.0055372, 52.4896246 ], [ 31.0054733, 52.4895721 ], [ 31.004501, 52.489584 ], [ 31.0043947, 52.4895033 ], [ 31.0012345, 52.4909421 ], [ 31.0009805, 52.4913536 ], [ 31.0013086, 52.4917426 ], [ 30.9988802, 52.4928569 ], [ 30.9975635, 52.4933661 ], [ 30.9972758, 52.4934065 ], [ 30.9964204, 52.493775 ], [ 30.994825, 52.4937016 ], [ 30.994773, 52.4936992 ], [ 30.9942211, 52.4939461 ], [ 30.9916103, 52.4951141 ], [ 30.9890928, 52.4961989 ], [ 30.9870893, 52.4969382 ], [ 30.9870788, 52.4971626 ], [ 30.9863629, 52.4974509 ], [ 30.9864694, 52.4975633 ], [ 30.9861911, 52.4976757 ], [ 30.9861185, 52.4975989 ], [ 30.9838802, 52.4984851 ], [ 30.9833945, 52.4987826 ], [ 30.9793043, 52.5002821 ], [ 30.9788702, 52.5003689 ], [ 30.9782825, 52.5006029 ], [ 30.9777288, 52.5007057 ], [ 30.9775287, 52.5009665 ], [ 30.9764538, 52.5016574 ], [ 30.9757532, 52.5016993 ], [ 30.9747974, 52.5016557 ], [ 30.9732479, 52.5021103 ], [ 30.9676611, 52.504339 ], [ 30.9658887, 52.5049473 ], [ 30.9650195, 52.5041056 ], [ 30.9617121, 52.5029567 ], [ 30.9631181, 52.500558 ], [ 30.9638097, 52.4992329 ], [ 30.9653429, 52.4965254 ], [ 30.9657434, 52.4964082 ], [ 30.9659961, 52.4964372 ], [ 30.9660296, 52.4961005 ], [ 30.9656504, 52.4955542 ], [ 30.965535, 52.4950439 ], [ 30.964908, 52.4949466 ], [ 30.9654498, 52.4937363 ], [ 30.9651595, 52.4936842 ], [ 30.9664888, 52.4908255 ], [ 30.9677511, 52.4883698 ], [ 30.968416, 52.4883296 ], [ 30.9718334, 52.4815707 ], [ 30.9720807, 52.4810743 ], [ 30.9725607, 52.4801449 ], [ 30.9735844, 52.4780249 ], [ 30.9737676, 52.4776645 ], [ 30.9755954, 52.4738874 ], [ 30.977731, 52.4696034 ], [ 30.9767551, 52.4701238 ], [ 30.9757219, 52.4705616 ], [ 30.9747298, 52.4708953 ], [ 30.9736438, 52.4711368 ], [ 30.9725623, 52.471248 ], [ 30.9716255, 52.4712757 ], [ 30.9707788, 52.4712085 ], [ 30.9697547, 52.4711 ], [ 30.9690654, 52.4710417 ], [ 30.9661641, 52.4702928 ], [ 30.9640722, 52.4697148 ], [ 30.9631562, 52.4694344 ], [ 30.9622262, 52.469171 ], [ 30.9614145, 52.4689394 ], [ 30.9605548, 52.4686738 ], [ 30.9599909, 52.4684616 ], [ 30.9589144, 52.4679938 ], [ 30.9579323, 52.4674494 ], [ 30.9570502, 52.4668343 ], [ 30.9551575, 52.4652376 ], [ 30.9537528, 52.4640866 ], [ 30.9501735, 52.4610134 ], [ 30.948603, 52.462195 ], [ 30.9476923, 52.4630281 ], [ 30.9473803, 52.4633704 ], [ 30.9469727, 52.4639551 ], [ 30.946908, 52.4641834 ], [ 30.9467513, 52.4643387 ], [ 30.9464739, 52.4645397 ], [ 30.9463853, 52.4645422 ], [ 30.9460488, 52.4644593 ], [ 30.9451617, 52.4658377 ], [ 30.9441446, 52.4674853 ], [ 30.9439575, 52.4677354 ], [ 30.9402351, 52.4676684 ], [ 30.9396021, 52.4675409 ], [ 30.9385715, 52.4658844 ], [ 30.9383593, 52.465513 ], [ 30.9367542, 52.4658164 ], [ 30.9361801, 52.4651344 ], [ 30.9360868, 52.465137 ], [ 30.9352445, 52.4634315 ], [ 30.9335294, 52.4629105 ], [ 30.9315484, 52.462671 ], [ 30.9311248, 52.462541 ], [ 30.930619, 52.4622585 ], [ 30.9300053, 52.4622415 ], [ 30.9297055, 52.4621636 ], [ 30.9297497, 52.4621151 ], [ 30.9264937, 52.4611389 ], [ 30.9256951, 52.4621721 ], [ 30.9237801, 52.4616306 ], [ 30.9215132, 52.4610306 ], [ 30.9209408, 52.4608406 ], [ 30.9205416, 52.4607325 ], [ 30.9204018, 52.4607577 ], [ 30.9201496, 52.4606994 ], [ 30.9198697, 52.4606 ], [ 30.91933, 52.4611629 ], [ 30.9187994, 52.461239 ], [ 30.9184586, 52.4611073 ], [ 30.9146561, 52.4633773 ], [ 30.914366, 52.4635445 ], [ 30.9133678, 52.4629051 ], [ 30.9134604, 52.4628501 ], [ 30.912515, 52.4621276 ], [ 30.9130745, 52.462039 ], [ 30.9137337, 52.4618944 ], [ 30.9142601, 52.4616852 ], [ 30.9158665, 52.4601772 ], [ 30.9175288, 52.4607924 ], [ 30.9195006, 52.4590499 ], [ 30.919237, 52.4589802 ], [ 30.9185696, 52.4583257 ], [ 30.9189491, 52.4581562 ], [ 30.9202841, 52.4577145 ], [ 30.9204029, 52.4574817 ], [ 30.9204378, 52.4571343 ], [ 30.919306, 52.4568258 ], [ 30.9154033, 52.4556181 ], [ 30.9123225, 52.4546622 ], [ 30.9104617, 52.45409 ], [ 30.9101471, 52.4545459 ], [ 30.9096099, 52.4544376 ], [ 30.9088875, 52.4539948 ], [ 30.9091447, 52.4536738 ], [ 30.9077722, 52.4532434 ], [ 30.9095609, 52.4512072 ], [ 30.9113343, 52.4490601 ], [ 30.9132236, 52.4468617 ], [ 30.9165109, 52.4429539 ], [ 30.9164599, 52.4428222 ], [ 30.9162449, 52.4427026 ], [ 30.915991, 52.4426658 ], [ 30.915667, 52.4427019 ], [ 30.9149969, 52.4427205 ], [ 30.9136762, 52.4435054 ], [ 30.9121372, 52.4436569 ], [ 30.9121814, 52.4446089 ], [ 30.9114858, 52.4451014 ], [ 30.9078252, 52.4450124 ], [ 30.9077758, 52.4430343 ], [ 30.9078132, 52.4425191 ], [ 30.9078157, 52.4424841 ], [ 30.9072468, 52.4424608 ], [ 30.9053877, 52.4423222 ], [ 30.9050565, 52.4423165 ], [ 30.9033502, 52.4422453 ], [ 30.9020117, 52.4420756 ], [ 30.9018229, 52.4420274 ], [ 30.9011747, 52.4420089 ], [ 30.9008874, 52.4419944 ], [ 30.9006297, 52.4419697 ], [ 30.9003576, 52.4418741 ], [ 30.9000771, 52.4418227 ], [ 30.8991042, 52.4417653 ], [ 30.8982528, 52.441742 ], [ 30.8979827, 52.4416886 ], [ 30.8977699, 52.4416036 ], [ 30.8979, 52.4413117 ], [ 30.8978018, 52.4411751 ], [ 30.8975437, 52.4411458 ], [ 30.897603, 52.440872 ], [ 30.8974407, 52.4408618 ], [ 30.8974835, 52.4406471 ], [ 30.8975992, 52.4405995 ], [ 30.8978188, 52.4406031 ], [ 30.8978502, 52.4403714 ], [ 30.900111, 52.4404451 ], [ 30.9001281, 52.4388736 ], [ 30.9006011, 52.437501 ], [ 30.8981234, 52.4374114 ], [ 30.8982017, 52.4373034 ], [ 30.8985043, 52.4368859 ], [ 30.8971918, 52.4364443 ], [ 30.8970994, 52.436565 ], [ 30.8941558, 52.4363261 ], [ 30.8935014, 52.4351693 ], [ 30.8935787, 52.435103 ], [ 30.893244, 52.4350225 ], [ 30.893065, 52.4348992 ], [ 30.8930143, 52.4347167 ], [ 30.89157, 52.4356746 ], [ 30.891191, 52.4357641 ], [ 30.8898731, 52.4339179 ], [ 30.8922884, 52.4314988 ], [ 30.8921833, 52.4312676 ], [ 30.8917146, 52.4309471 ], [ 30.8910305, 52.4307512 ], [ 30.8902632, 52.4308917 ], [ 30.8888534, 52.4311796 ], [ 30.8882828, 52.4312255 ], [ 30.8876555, 52.4311677 ], [ 30.8867451, 52.4327921 ], [ 30.8862121, 52.4339979 ], [ 30.8861069, 52.434426 ], [ 30.8858171, 52.4344449 ], [ 30.8856665, 52.435208 ], [ 30.8857103, 52.4364054 ], [ 30.8858888, 52.4370831 ], [ 30.8860672, 52.4371663 ], [ 30.8862312, 52.4374708 ], [ 30.8861057, 52.4376996 ], [ 30.8856883, 52.437713 ], [ 30.8855092, 52.4375812 ], [ 30.8825102, 52.4373599 ], [ 30.8823794, 52.4379582 ], [ 30.8795565, 52.4377449 ], [ 30.8731647, 52.4372563 ], [ 30.8714482, 52.4372381 ], [ 30.8697971, 52.4374161 ], [ 30.8645481, 52.439014 ], [ 30.8643395, 52.4387628 ], [ 30.8471348, 52.4442978 ], [ 30.8472059, 52.4443903 ], [ 30.8470265, 52.4444503 ], [ 30.846938, 52.4443591 ], [ 30.8388488, 52.4468853 ], [ 30.8389622, 52.4470195 ], [ 30.8319083, 52.4493593 ], [ 30.8289505, 52.4509408 ], [ 30.8285622, 52.4507055 ], [ 30.8275394, 52.4513865 ], [ 30.8273189, 52.4511862 ], [ 30.8259355, 52.4521112 ], [ 30.8257861, 52.452263 ], [ 30.8257353, 52.4524554 ], [ 30.8257454, 52.4529655 ], [ 30.8256612, 52.4531809 ], [ 30.8254667, 52.4533706 ], [ 30.8252044, 52.4536137 ], [ 30.8249942, 52.4538569 ], [ 30.8246942, 52.4539114 ], [ 30.8246159, 52.4535183 ], [ 30.8245426, 52.4533885 ], [ 30.8243824, 52.4532958 ], [ 30.8241836, 52.4533009 ], [ 30.8238989, 52.4534119 ], [ 30.823397, 52.4536923 ], [ 30.8229212, 52.4539991 ], [ 30.8203832, 52.4559807 ], [ 30.8111954, 52.4629407 ], [ 30.8137319, 52.4641998 ], [ 30.8124174, 52.4652249 ], [ 30.8119513, 52.4649994 ], [ 30.8127306, 52.4644939 ], [ 30.8116617, 52.4639256 ], [ 30.8115048, 52.4640292 ], [ 30.8101198, 52.463393 ], [ 30.8060555, 52.4664964 ], [ 30.804943, 52.4659594 ], [ 30.8051889, 52.4657755 ], [ 30.8049928, 52.4655237 ], [ 30.8057004, 52.4649648 ], [ 30.8046597, 52.4644987 ], [ 30.8044717, 52.464655 ], [ 30.8040487, 52.4644417 ], [ 30.8032407, 52.4650702 ], [ 30.8012642, 52.4640288 ] ] ], [ [ [ 30.8786136, 52.5672207 ], [ 30.8812496, 52.5665846 ], [ 30.8812149, 52.5664951 ], [ 30.8822247, 52.5661973 ], [ 30.8823383, 52.5661044 ], [ 30.8834649, 52.5657011 ], [ 30.8839344, 52.5657802 ], [ 30.8846768, 52.5656667 ], [ 30.8853959, 52.565306 ], [ 30.8863294, 52.5646034 ], [ 30.8863402, 52.5644442 ], [ 30.8881518, 52.5628569 ], [ 30.8912257, 52.5634579 ], [ 30.8886758, 52.5662442 ], [ 30.8869427, 52.5679224 ], [ 30.8818924, 52.5701099 ], [ 30.8812997, 52.5704489 ], [ 30.8803158, 52.5707879 ], [ 30.8798449, 52.5701097 ], [ 30.8786136, 52.5672207 ] ] ], [ [ [ 30.8985477, 52.5395043 ], [ 30.9011549, 52.5363655 ], [ 30.9042555, 52.532267 ], [ 30.9081501, 52.5272152 ], [ 30.9092551, 52.5269998 ], [ 30.9112293, 52.5271075 ], [ 30.9133428, 52.5276134 ], [ 30.9143406, 52.5280442 ], [ 30.9169435, 52.5281834 ], [ 30.9184122, 52.5277864 ], [ 30.9213036, 52.5278941 ], [ 30.9238981, 52.5284287 ], [ 30.9268599, 52.5255047 ], [ 30.9272325, 52.5256169 ], [ 30.9291189, 52.5261703 ], [ 30.9305903, 52.5243378 ], [ 30.9307698, 52.5240329 ], [ 30.9311358, 52.5240186 ], [ 30.931702, 52.5234263 ], [ 30.9321121, 52.5235042 ], [ 30.9322573, 52.523319 ], [ 30.9322801, 52.5232899 ], [ 30.9334908, 52.5235108 ], [ 30.9335557, 52.5234043 ], [ 30.9338722, 52.5228849 ], [ 30.9347577, 52.5230268 ], [ 30.9352512, 52.5230996 ], [ 30.9361723, 52.5232355 ], [ 30.9377908, 52.5234793 ], [ 30.9393364, 52.5238115 ], [ 30.9398801, 52.5239773 ], [ 30.9403084, 52.5242483 ], [ 30.9388409, 52.525679 ], [ 30.9378516, 52.526556 ], [ 30.9357871, 52.5286065 ], [ 30.925623, 52.5392314 ], [ 30.9251006, 52.5394284 ], [ 30.9215241, 52.5428123 ], [ 30.919957, 52.5442706 ], [ 30.9168714, 52.5471803 ], [ 30.9161576, 52.5477605 ], [ 30.9104175, 52.5529935 ], [ 30.9101297, 52.5530609 ], [ 30.9097937, 52.5533132 ], [ 30.9094413, 52.5533481 ], [ 30.9028459, 52.5511461 ], [ 30.9040222, 52.5497724 ], [ 30.9036975, 52.5496692 ], [ 30.9040274, 52.5492512 ], [ 30.9030618, 52.5489121 ], [ 30.9029466, 52.5482018 ], [ 30.9017189, 52.547718 ], [ 30.9016053, 52.5478277 ], [ 30.9006544, 52.5475734 ], [ 30.9007188, 52.5474167 ], [ 30.8991677, 52.5464855 ], [ 30.8997554, 52.5454416 ], [ 30.9043521, 52.5464599 ], [ 30.9049058, 52.5454606 ], [ 30.9041655, 52.5452322 ], [ 30.9045839, 52.5447624 ], [ 30.904938, 52.5448587 ], [ 30.905292, 52.5442731 ], [ 30.90482, 52.5436402 ], [ 30.904541, 52.5439208 ], [ 30.9038907, 52.5437717 ], [ 30.9041226, 52.5433531 ], [ 30.9035218, 52.541761 ], [ 30.9014982, 52.5411291 ], [ 30.9016913, 52.540718 ], [ 30.8985477, 52.5395043 ] ] ], [ [ [ 31.0357127, 52.3778014 ], [ 31.0368624, 52.3772601 ], [ 31.0363276, 52.376703 ], [ 31.0374254, 52.3764153 ], [ 31.0382099, 52.3760133 ], [ 31.0391437, 52.3766631 ], [ 31.0399362, 52.3769693 ], [ 31.0399208, 52.3770562 ], [ 31.0404101, 52.3777172 ], [ 31.039565, 52.378094 ], [ 31.0384072, 52.3790696 ], [ 31.0379262, 52.3794527 ], [ 31.0357127, 52.3778014 ] ] ] ] } }
]
}
