{
"type": "FeatureCollection",
"name": "gottingen_de",
"crs": { "type": "name", "properties": { "name": "urn:ogc:def:crs:OGC:1.3:CRS84" } },
"features": [
{ "type": "Feature", "properties": { "bbox_west": 9.8001404, "bbox_south": 51.4830221, "bbox_east": 10.0536056, "bbox_north": 51.5908204, "place_id": 139148227, "osm_type": "relation", "osm_id": 191361, "lat": 51.5328328, "lon": 9.9351811, "class": "boundary", "type": "administrative", "place_rank": 16, "importance": 0.66959500782113446, "addresstype": "city", "name": "Göttingen", "display_name": "Göttingen, Landkreis Göttingen, Lower Saxony, Germany" }, "geometry": { "type": "Polygon", "coordinates": [ [ [ 9.8001404, 51.5350501 ], [ 9.8002889, 51.5351092 ], [ 9.8003737, 51.5350929 ], [ 9.8004745, 51.5349301 ], [ 9.8006647, 51.534623 ], [ 9.8007461, 51.5343962 ], [ 9.8007566, 51.5343938 ], [ 9.80091, 51.5343581 ], [ 9.8009122, 51.5343575 ], [ 9.8011697, 51.5342955 ], [ 9.801574, 51.5341982 ], [ 9.801731, 51.5341605 ], [ 9.8020925, 51.5340736 ], [ 9.8022426, 51.533782 ], [ 9.8024835, 51.5333521 ], [ 9.8027643, 51.5328507 ], [ 9.8028008, 51.5328194 ], [ 9.8028451, 51.5327814 ], [ 9.8029457, 51.5328244 ], [ 9.8029527, 51.5328032 ], [ 9.803194, 51.5320855 ], [ 9.8032284, 51.531983 ], [ 9.8031427, 51.5318649 ], [ 9.8031228, 51.5318199 ], [ 9.8030963, 51.5317173 ], [ 9.8031217, 51.5315333 ], [ 9.8031353, 51.5314605 ], [ 9.8031192, 51.5313236 ], [ 9.8030939, 51.5312521 ], [ 9.8031101, 51.5311997 ], [ 9.8031013, 51.5311516 ], [ 9.8031507, 51.5310006 ], [ 9.803156, 51.5309929 ], [ 9.8032684, 51.5307919 ], [ 9.8032606, 51.5307534 ], [ 9.8032842, 51.5306856 ], [ 9.8032922, 51.5306157 ], [ 9.8035484, 51.5305647 ], [ 9.8038644, 51.5304914 ], [ 9.8041191, 51.5304136 ], [ 9.8041607, 51.5303377 ], [ 9.8042718, 51.530197 ], [ 9.8042971, 51.530167 ], [ 9.8043536, 51.530079 ], [ 9.8044494, 51.5299313 ], [ 9.8045992, 51.5297876 ], [ 9.8048083, 51.5296819 ], [ 9.8050302, 51.5296372 ], [ 9.805163, 51.5295956 ], [ 9.8055122, 51.5295232 ], [ 9.8057905, 51.5293443 ], [ 9.8062655, 51.529244 ], [ 9.8065303, 51.5291432 ], [ 9.8068189, 51.5289933 ], [ 9.8069618, 51.528959 ], [ 9.8070387, 51.5289205 ], [ 9.8072342, 51.5288196 ], [ 9.8075023, 51.5286646 ], [ 9.8076699, 51.5285248 ], [ 9.8077426, 51.5284936 ], [ 9.808059, 51.5284335 ], [ 9.8080753, 51.5284304 ], [ 9.8081435, 51.5283589 ], [ 9.8080977, 51.5281971 ], [ 9.8080426, 51.5280219 ], [ 9.8080043, 51.5278958 ], [ 9.8079769, 51.5278397 ], [ 9.8078977, 51.5276909 ], [ 9.8078926, 51.5276604 ], [ 9.8078854, 51.5276107 ], [ 9.8078633, 51.5275717 ], [ 9.8082306, 51.5274019 ], [ 9.8087555, 51.527214 ], [ 9.8088204, 51.5273038 ], [ 9.8090432, 51.5274266 ], [ 9.8092666, 51.5276587 ], [ 9.8094965, 51.5277458 ], [ 9.8098457, 51.5277644 ], [ 9.8101502, 51.5278049 ], [ 9.8103003, 51.5277163 ], [ 9.8102811, 51.527661 ], [ 9.8102081, 51.527451 ], [ 9.81004, 51.5273387 ], [ 9.8098748, 51.5271245 ], [ 9.8097355, 51.5269239 ], [ 9.809538, 51.5267337 ], [ 9.8093802, 51.5265479 ], [ 9.8092901, 51.5263228 ], [ 9.8091243, 51.5259983 ], [ 9.8091003, 51.5256876 ], [ 9.8091214, 51.5254114 ], [ 9.8090366, 51.5252236 ], [ 9.8088914, 51.5250068 ], [ 9.8088726, 51.5249988 ], [ 9.8088284, 51.5249801 ], [ 9.8085987, 51.5248416 ], [ 9.8081182, 51.5246669 ], [ 9.807987, 51.5244658 ], [ 9.8081321, 51.5242541 ], [ 9.8084881, 51.5239345 ], [ 9.8087916, 51.5237166 ], [ 9.8089535, 51.5234397 ], [ 9.8091247, 51.5231429 ], [ 9.8094115, 51.5228751 ], [ 9.8096267, 51.5226136 ], [ 9.8099802, 51.5223391 ], [ 9.8107983, 51.5221932 ], [ 9.8111904, 51.5220715 ], [ 9.8116952, 51.5219144 ], [ 9.8119638, 51.5217393 ], [ 9.8123398, 51.5213814 ], [ 9.8124431, 51.5212186 ], [ 9.8126109, 51.5210176 ], [ 9.812659, 51.520888 ], [ 9.8131214, 51.5203975 ], [ 9.8133634, 51.5202529 ], [ 9.8134675, 51.5201796 ], [ 9.8136137, 51.5200012 ], [ 9.8137285, 51.519907 ], [ 9.8138391, 51.5197997 ], [ 9.8144793, 51.5194037 ], [ 9.8148792, 51.5191807 ], [ 9.8153937, 51.5188793 ], [ 9.8158201, 51.5187223 ], [ 9.8165291, 51.5183917 ], [ 9.8170189, 51.5182133 ], [ 9.8174071, 51.5179798 ], [ 9.8180172, 51.5178212 ], [ 9.8186222, 51.5176156 ], [ 9.8188158, 51.5174467 ], [ 9.8192032, 51.5173734 ], [ 9.8195554, 51.5172736 ], [ 9.820026, 51.5171574 ], [ 9.8203874, 51.5170681 ], [ 9.8204181, 51.5170567 ], [ 9.8204269, 51.5170534 ], [ 9.8204402, 51.5170485 ], [ 9.8205525, 51.5170068 ], [ 9.8206013, 51.5169887 ], [ 9.8212413, 51.5168915 ], [ 9.8215544, 51.5168381 ], [ 9.8220383, 51.5167638 ], [ 9.8224831, 51.5166969 ], [ 9.8225474, 51.5165042 ], [ 9.8225916, 51.5163315 ], [ 9.8226493, 51.5161983 ], [ 9.8227141, 51.5161579 ], [ 9.8231735, 51.5161251 ], [ 9.8236541, 51.5160617 ], [ 9.8240536, 51.5160445 ], [ 9.8256134, 51.5159451 ], [ 9.8263946, 51.5159034 ], [ 9.8268034, 51.5159328 ], [ 9.8277376, 51.5158848 ], [ 9.8287646, 51.5158333 ], [ 9.8288742, 51.5158188 ], [ 9.8297401, 51.5157356 ], [ 9.8308034, 51.515675 ], [ 9.8319081, 51.5156119 ], [ 9.8327283, 51.5155289 ], [ 9.8327877, 51.5155229 ], [ 9.8330859, 51.5154927 ], [ 9.8340951, 51.5155179 ], [ 9.8352452, 51.5156055 ], [ 9.8352797, 51.5156037 ], [ 9.8352952, 51.5156029 ], [ 9.8354468, 51.515595 ], [ 9.8359565, 51.5153802 ], [ 9.8368118, 51.5153333 ], [ 9.8374543, 51.5152907 ], [ 9.8384754, 51.5151962 ], [ 9.8390441, 51.5151189 ], [ 9.8390961, 51.5152244 ], [ 9.839337, 51.5151823 ], [ 9.8392975, 51.5150741 ], [ 9.8394856, 51.5150387 ], [ 9.8404635, 51.51483 ], [ 9.8413821, 51.5145512 ], [ 9.8414537, 51.5145319 ], [ 9.8415884, 51.5146677 ], [ 9.8417581, 51.5148335 ], [ 9.8418865, 51.5149595 ], [ 9.8420742, 51.515145 ], [ 9.8422431, 51.5153162 ], [ 9.8425075, 51.5153187 ], [ 9.8428204, 51.5153362 ], [ 9.8431513, 51.5153 ], [ 9.8434909, 51.5152591 ], [ 9.843565, 51.5151947 ], [ 9.8437517, 51.5151292 ], [ 9.8439929, 51.5149314 ], [ 9.844088, 51.514879 ], [ 9.8442019, 51.5147772 ], [ 9.8443314, 51.5147181 ], [ 9.8444957, 51.5146261 ], [ 9.8448355, 51.5146026 ], [ 9.8450272, 51.5143791 ], [ 9.8453475, 51.5140732 ], [ 9.8455193, 51.513927 ], [ 9.8457171, 51.5137997 ], [ 9.8459456, 51.5136846 ], [ 9.8462883, 51.5134959 ], [ 9.8465254, 51.5132948 ], [ 9.8468061, 51.513049 ], [ 9.8470877, 51.5129964 ], [ 9.8473102, 51.5129986 ], [ 9.8476638, 51.5130167 ], [ 9.8482328, 51.5130423 ], [ 9.8486417, 51.5130883 ], [ 9.8490591, 51.5131351 ], [ 9.8492576, 51.5130206 ], [ 9.8495895, 51.5130088 ], [ 9.8496788, 51.5129088 ], [ 9.850487, 51.51188 ], [ 9.8504991, 51.5118661 ], [ 9.8505255, 51.5118356 ], [ 9.8509288, 51.5112925 ], [ 9.8509401, 51.5112788 ], [ 9.8510765, 51.5111118 ], [ 9.851208, 51.5109971 ], [ 9.8513616, 51.5109257 ], [ 9.8514822, 51.5109213 ], [ 9.8516014, 51.510935 ], [ 9.8532168, 51.5111201 ], [ 9.8532177, 51.511062 ], [ 9.8532191, 51.5109658 ], [ 9.8532155, 51.5106918 ], [ 9.853215, 51.5106688 ], [ 9.8532146, 51.5106603 ], [ 9.8532133, 51.5106157 ], [ 9.8532108, 51.5105315 ], [ 9.85321, 51.5105038 ], [ 9.8532069, 51.5103791 ], [ 9.8539813, 51.5104514 ], [ 9.854377, 51.5105145 ], [ 9.8548006, 51.5105989 ], [ 9.8553945, 51.5107458 ], [ 9.8556993, 51.5108319 ], [ 9.8560061, 51.5109275 ], [ 9.8563965, 51.5110755 ], [ 9.856463, 51.5111025 ], [ 9.8566115, 51.5111627 ], [ 9.8568044, 51.511241 ], [ 9.8570728, 51.5113623 ], [ 9.8571415, 51.5113976 ], [ 9.8573522, 51.511506 ], [ 9.8576201, 51.5116505 ], [ 9.8578641, 51.5118002 ], [ 9.8580745, 51.5119459 ], [ 9.8583035, 51.5121277 ], [ 9.8584094, 51.5122221 ], [ 9.8584293, 51.5121662 ], [ 9.8584875, 51.5120028 ], [ 9.8586942, 51.5120407 ], [ 9.8591313, 51.5121209 ], [ 9.8612946, 51.5125176 ], [ 9.8614979, 51.5125549 ], [ 9.8617656, 51.512604 ], [ 9.8618754, 51.5126242 ], [ 9.8621319, 51.5126712 ], [ 9.8644268, 51.5130924 ], [ 9.8645826, 51.5132909 ], [ 9.8646799, 51.5132761 ], [ 9.8647483, 51.5132657 ], [ 9.8647917, 51.5132591 ], [ 9.8656166, 51.5132585 ], [ 9.8661706, 51.5132196 ], [ 9.8664466, 51.5132146 ], [ 9.8666443, 51.513211 ], [ 9.8666735, 51.5132105 ], [ 9.8666717, 51.5132315 ], [ 9.8667108, 51.5132333 ], [ 9.8672772, 51.5132596 ], [ 9.86773, 51.5132807 ], [ 9.8677963, 51.5132838 ], [ 9.8682465, 51.5133048 ], [ 9.8689115, 51.5133358 ], [ 9.8683732, 51.5146112 ], [ 9.8682654, 51.5148663 ], [ 9.8681407, 51.5151614 ], [ 9.868762, 51.5152361 ], [ 9.869124, 51.5152796 ], [ 9.869547, 51.5153303 ], [ 9.87035, 51.5154265 ], [ 9.8712779, 51.5155376 ], [ 9.8714015, 51.5156128 ], [ 9.8714803, 51.5155662 ], [ 9.8721792, 51.5155433 ], [ 9.8732162, 51.5155092 ], [ 9.8747833, 51.5154576 ], [ 9.8750142, 51.51545 ], [ 9.8749455, 51.5154978 ], [ 9.8749891, 51.516063 ], [ 9.875036, 51.5166716 ], [ 9.8751113, 51.5167138 ], [ 9.8753098, 51.5167071 ], [ 9.8753149, 51.5167069 ], [ 9.8756034, 51.5166972 ], [ 9.8757731, 51.5166915 ], [ 9.8779952, 51.5166167 ], [ 9.8780621, 51.5166145 ], [ 9.8781356, 51.5166121 ], [ 9.8781732, 51.5166107 ], [ 9.8782283, 51.5166088 ], [ 9.8782735, 51.5166073 ], [ 9.878278, 51.5166071 ], [ 9.8783356, 51.5166049 ], [ 9.8783661, 51.516604 ], [ 9.8783585, 51.5166812 ], [ 9.8783824, 51.5172192 ], [ 9.8783888, 51.5173639 ], [ 9.8784192, 51.517364 ], [ 9.8786308, 51.5173646 ], [ 9.8786748, 51.5173648 ], [ 9.8788909, 51.5173654 ], [ 9.8789034, 51.5173655 ], [ 9.878905, 51.517401 ], [ 9.8789871, 51.5174091 ], [ 9.8789952, 51.51741 ], [ 9.8793039, 51.5174399 ], [ 9.879434, 51.5174525 ], [ 9.879517, 51.5174605 ], [ 9.8800817, 51.517587 ], [ 9.8804199, 51.5176648 ], [ 9.8806615, 51.5177251 ], [ 9.8808328, 51.5177751 ], [ 9.8809007, 51.5177949 ], [ 9.8810581, 51.5170959 ], [ 9.8811028, 51.5168973 ], [ 9.8811163, 51.5168375 ], [ 9.8811258, 51.5167954 ], [ 9.8811341, 51.5167582 ], [ 9.8811628, 51.5166311 ], [ 9.8812273, 51.5163447 ], [ 9.8814204, 51.5164309 ], [ 9.8814613, 51.5164776 ], [ 9.8814292, 51.5166107 ], [ 9.8817848, 51.516765 ], [ 9.8821254, 51.5167957 ], [ 9.8822665, 51.516859 ], [ 9.8823356, 51.51689 ], [ 9.8826103, 51.5169548 ], [ 9.8829376, 51.5170769 ], [ 9.8832464, 51.5171921 ], [ 9.8836286, 51.5172647 ], [ 9.8841128, 51.5173564 ], [ 9.8850092, 51.5175261 ], [ 9.8862764, 51.517766 ], [ 9.8863352, 51.5177772 ], [ 9.8870456, 51.5179116 ], [ 9.887815, 51.5180573 ], [ 9.8899791, 51.518467 ], [ 9.8922583, 51.5188984 ], [ 9.8923239, 51.5189105 ], [ 9.8924838, 51.51894 ], [ 9.8925207, 51.518944 ], [ 9.892582, 51.5189507 ], [ 9.8926644, 51.5189597 ], [ 9.8931106, 51.5190085 ], [ 9.8937682, 51.5190805 ], [ 9.8941268, 51.5191197 ], [ 9.8977604, 51.519517 ], [ 9.897887, 51.5195309 ], [ 9.8981277, 51.5195692 ], [ 9.8994108, 51.5199001 ], [ 9.9000991, 51.5200776 ], [ 9.9011772, 51.5203557 ], [ 9.9013536, 51.5203704 ], [ 9.9018981, 51.5203298 ], [ 9.9021195, 51.5203127 ], [ 9.9024129, 51.5202905 ], [ 9.9026356, 51.5202736 ], [ 9.9056094, 51.5200481 ], [ 9.9056472, 51.5200362 ], [ 9.9056877, 51.5200235 ], [ 9.9056971, 51.5199852 ], [ 9.9059886, 51.5192616 ], [ 9.9061514, 51.5188477 ], [ 9.9062765, 51.518527 ], [ 9.9062969, 51.5184662 ], [ 9.9063406, 51.5183497 ], [ 9.9064164, 51.5183458 ], [ 9.9064248, 51.5183178 ], [ 9.9085406, 51.5182939 ], [ 9.9086568, 51.5182926 ], [ 9.908868, 51.5182909 ], [ 9.9090389, 51.5182895 ], [ 9.909219, 51.5182881 ], [ 9.909336, 51.5182872 ], [ 9.9105468, 51.5182917 ], [ 9.9106383, 51.518292 ], [ 9.9107527, 51.5182924 ], [ 9.9108505, 51.5182928 ], [ 9.9115035, 51.5182952 ], [ 9.9124427, 51.5182986 ], [ 9.9122458, 51.5177391 ], [ 9.9126862, 51.5176565 ], [ 9.913794, 51.5174487 ], [ 9.9143947, 51.517338 ], [ 9.9146136, 51.5172951 ], [ 9.9147084, 51.5172766 ], [ 9.9148208, 51.5172546 ], [ 9.9151207, 51.517196 ], [ 9.9152941, 51.5171617 ], [ 9.9153856, 51.517144 ], [ 9.9154041, 51.5171297 ], [ 9.9154926, 51.5170614 ], [ 9.9155204, 51.5170399 ], [ 9.9155497, 51.5170412 ], [ 9.9155828, 51.5170426 ], [ 9.915519, 51.5169557 ], [ 9.916632, 51.5165221 ], [ 9.9168427, 51.5163799 ], [ 9.9174014, 51.5161198 ], [ 9.9174645, 51.5160763 ], [ 9.91752, 51.5160276 ], [ 9.9175455, 51.5160052 ], [ 9.9175808, 51.5160272 ], [ 9.9176356, 51.5160513 ], [ 9.9177042, 51.5160708 ], [ 9.9177749, 51.5160769 ], [ 9.9178638, 51.5160752 ], [ 9.9178571, 51.5160582 ], [ 9.9177252, 51.5160446 ], [ 9.9175985, 51.5159675 ], [ 9.9171434, 51.5156908 ], [ 9.9171483, 51.5156704 ], [ 9.9170382, 51.5155948 ], [ 9.9170849, 51.5154653 ], [ 9.9173157, 51.5149794 ], [ 9.9172939, 51.5149361 ], [ 9.9170994, 51.5145489 ], [ 9.9170832, 51.5145165 ], [ 9.9168402, 51.5142473 ], [ 9.9168068, 51.514148 ], [ 9.9168013, 51.5141316 ], [ 9.916761, 51.5140489 ], [ 9.9167142, 51.5139526 ], [ 9.91671, 51.5139427 ], [ 9.9165705, 51.5136603 ], [ 9.9161682, 51.5128808 ], [ 9.9160077, 51.5125423 ], [ 9.9159703, 51.5124667 ], [ 9.91584, 51.512459 ], [ 9.9158662, 51.5124329 ], [ 9.9159221, 51.512357 ], [ 9.9159968, 51.5122379 ], [ 9.9160433, 51.5121215 ], [ 9.9160631, 51.5119986 ], [ 9.9160611, 51.5119186 ], [ 9.9159873, 51.5117724 ], [ 9.9159258, 51.5116508 ], [ 9.9159144, 51.5116282 ], [ 9.9158884, 51.5115767 ], [ 9.9160501, 51.5115858 ], [ 9.9169657, 51.5116378 ], [ 9.9186793, 51.511734 ], [ 9.922142, 51.5119297 ], [ 9.9222222, 51.5119342 ], [ 9.9222964, 51.5119384 ], [ 9.922173, 51.5115211 ], [ 9.9221508, 51.5114044 ], [ 9.9221427, 51.5112867 ], [ 9.9221535, 51.5110798 ], [ 9.9222456, 51.511082 ], [ 9.9226382, 51.5110914 ], [ 9.9227096, 51.5110931 ], [ 9.9227946, 51.5110951 ], [ 9.9227607, 51.5109869 ], [ 9.9227502, 51.5109534 ], [ 9.9227676, 51.5108446 ], [ 9.9228011, 51.5106358 ], [ 9.9228127, 51.5105623 ], [ 9.9228218, 51.5105061 ], [ 9.922825, 51.5104503 ], [ 9.9228226, 51.5104036 ], [ 9.9222339, 51.5090923 ], [ 9.9221661, 51.5090156 ], [ 9.9220839, 51.5089443 ], [ 9.9210536, 51.5084142 ], [ 9.9209307, 51.5083422 ], [ 9.9207918, 51.5082408 ], [ 9.9206996, 51.5081659 ], [ 9.9205933, 51.5080249 ], [ 9.920699, 51.5080072 ], [ 9.9206492, 51.5079465 ], [ 9.9206288, 51.5079216 ], [ 9.9204887, 51.507751 ], [ 9.9203014, 51.5074557 ], [ 9.9201986, 51.5072314 ], [ 9.9201397, 51.5069161 ], [ 9.9200398, 51.5065502 ], [ 9.9199639, 51.5059482 ], [ 9.9199679, 51.5058301 ], [ 9.9200093, 51.5057267 ], [ 9.9200027, 51.5056775 ], [ 9.9200105, 51.5056395 ], [ 9.920093, 51.5056058 ], [ 9.9241567, 51.505077 ], [ 9.9233828, 51.5023671 ], [ 9.9234832, 51.5023542 ], [ 9.9287852, 51.5016707 ], [ 9.9296605, 51.5015579 ], [ 9.9294589, 51.5007473 ], [ 9.929338, 51.5002615 ], [ 9.9293172, 51.5001781 ], [ 9.9292228, 51.4997986 ], [ 9.9291693, 51.4995837 ], [ 9.9316972, 51.4992599 ], [ 9.9317527, 51.4992528 ], [ 9.9316939, 51.4990429 ], [ 9.9316802, 51.4989939 ], [ 9.9316371, 51.4989074 ], [ 9.9316047, 51.4988424 ], [ 9.9315578, 51.4987481 ], [ 9.9314753, 51.498611 ], [ 9.9311827, 51.4983592 ], [ 9.9310235, 51.4982738 ], [ 9.931178, 51.4982826 ], [ 9.9312437, 51.4982863 ], [ 9.9312909, 51.4982888 ], [ 9.9331066, 51.4983862 ], [ 9.9338518, 51.4984262 ], [ 9.9348866, 51.4984816 ], [ 9.9348301, 51.4981019 ], [ 9.9349156, 51.4981056 ], [ 9.9349077, 51.4980464 ], [ 9.9349039, 51.498018 ], [ 9.934901, 51.4979959 ], [ 9.9348399, 51.4975363 ], [ 9.9347898, 51.4971595 ], [ 9.9347459, 51.4968288 ], [ 9.9346485, 51.4960962 ], [ 9.9345867, 51.4956309 ], [ 9.9345848, 51.4956164 ], [ 9.9345318, 51.4952178 ], [ 9.9344317, 51.4952554 ], [ 9.9340346, 51.4953715 ], [ 9.9340123, 51.495378 ], [ 9.9339847, 51.4953555 ], [ 9.9339359, 51.4953265 ], [ 9.9341111, 51.4948937 ], [ 9.9342152, 51.4948066 ], [ 9.9344217, 51.494784 ], [ 9.9344966, 51.4947459 ], [ 9.9346524, 51.4945996 ], [ 9.934868, 51.4944688 ], [ 9.9350534, 51.4943173 ], [ 9.9352723, 51.4941671 ], [ 9.9353769, 51.4940858 ], [ 9.935598, 51.4939461 ], [ 9.9359773, 51.4936811 ], [ 9.9360907, 51.4936301 ], [ 9.9361687, 51.4936136 ], [ 9.9362424, 51.4935981 ], [ 9.9362666, 51.4935929 ], [ 9.936321, 51.4935814 ], [ 9.9363702, 51.4935333 ], [ 9.936395, 51.4935175 ], [ 9.9365024, 51.4934338 ], [ 9.9367049, 51.4932407 ], [ 9.9368382, 51.4931135 ], [ 9.9368753, 51.4930282 ], [ 9.9369565, 51.492968 ], [ 9.9370742, 51.4929418 ], [ 9.9371258, 51.4929403 ], [ 9.9372231, 51.4929375 ], [ 9.9372285, 51.4928668 ], [ 9.9372402, 51.4927142 ], [ 9.9372446, 51.4926569 ], [ 9.9373115, 51.4925913 ], [ 9.937464, 51.4925208 ], [ 9.9374746, 51.4925159 ], [ 9.9376105, 51.4924895 ], [ 9.9376991, 51.4924971 ], [ 9.9377525, 51.4925016 ], [ 9.9377862, 51.492488 ], [ 9.9378262, 51.4924717 ], [ 9.9378325, 51.4924439 ], [ 9.9378434, 51.4923959 ], [ 9.9378369, 51.4923516 ], [ 9.9378313, 51.4923137 ], [ 9.9377829, 51.4922598 ], [ 9.9378644, 51.4921866 ], [ 9.937984, 51.4921214 ], [ 9.9382552, 51.4918895 ], [ 9.9383176, 51.4917849 ], [ 9.938434, 51.4917356 ], [ 9.9385047, 51.4917213 ], [ 9.9385566, 51.4916993 ], [ 9.938624, 51.4916163 ], [ 9.9386236, 51.4916147 ], [ 9.9386177, 51.4915892 ], [ 9.9385531, 51.491541 ], [ 9.9384598, 51.4914714 ], [ 9.938478, 51.4913806 ], [ 9.9385731, 51.4913137 ], [ 9.9388341, 51.4913879 ], [ 9.9388435, 51.4913863 ], [ 9.9389281, 51.4913722 ], [ 9.9390618, 51.4913221 ], [ 9.9392407, 51.4912349 ], [ 9.9394903, 51.4912317 ], [ 9.9396586, 51.4912295 ], [ 9.9397534, 51.4911985 ], [ 9.9398421, 51.4911041 ], [ 9.9399342, 51.4910243 ], [ 9.9402432, 51.490905 ], [ 9.9402337, 51.4908751 ], [ 9.9402709, 51.4908485 ], [ 9.940117, 51.4901351 ], [ 9.9399845, 51.4895802 ], [ 9.9399075, 51.4891788 ], [ 9.93986, 51.4889782 ], [ 9.9385901, 51.4886656 ], [ 9.9390973, 51.4883121 ], [ 9.9404605, 51.4873619 ], [ 9.9406601, 51.4872228 ], [ 9.9407047, 51.4871917 ], [ 9.9407567, 51.4871554 ], [ 9.9408411, 51.4870966 ], [ 9.9412762, 51.4864048 ], [ 9.9418243, 51.4855334 ], [ 9.9420781, 51.4851297 ], [ 9.9423128, 51.4847567 ], [ 9.9424343, 51.4845635 ], [ 9.9423264, 51.4838823 ], [ 9.9441513, 51.4835834 ], [ 9.9441939, 51.4835764 ], [ 9.944941, 51.483454 ], [ 9.9475771, 51.4830221 ], [ 9.9477135, 51.4830273 ], [ 9.947818, 51.4830533 ], [ 9.9484625, 51.4832139 ], [ 9.9496117, 51.4835001 ], [ 9.9499069, 51.4835736 ], [ 9.9504633, 51.4836949 ], [ 9.951698, 51.483907 ], [ 9.951963, 51.4839526 ], [ 9.9528006, 51.4841418 ], [ 9.9530817, 51.4841796 ], [ 9.9533745, 51.4841895 ], [ 9.9537527, 51.4841351 ], [ 9.9539248, 51.4840712 ], [ 9.9539318, 51.4841179 ], [ 9.9540129, 51.4841468 ], [ 9.9542146, 51.484081 ], [ 9.9543549, 51.484049 ], [ 9.9544808, 51.4839919 ], [ 9.9545397, 51.4839608 ], [ 9.9545767, 51.4840025 ], [ 9.9546627, 51.4840994 ], [ 9.9546822, 51.4841213 ], [ 9.9548287, 51.484286 ], [ 9.9548447, 51.4843051 ], [ 9.9548624, 51.4843262 ], [ 9.9548648, 51.484329 ], [ 9.9549944, 51.4844849 ], [ 9.9550057, 51.4844984 ], [ 9.9550603, 51.484564 ], [ 9.9552093, 51.4847495 ], [ 9.9555016, 51.4852513 ], [ 9.955584, 51.4854942 ], [ 9.9556045, 51.4860021 ], [ 9.9556242, 51.4862894 ], [ 9.9557186, 51.4864983 ], [ 9.9557654, 51.4866018 ], [ 9.955821, 51.4867423 ], [ 9.955926, 51.4870418 ], [ 9.9559294, 51.4870618 ], [ 9.9559406, 51.4871278 ], [ 9.9559787, 51.487352 ], [ 9.9559732, 51.4874387 ], [ 9.9559485, 51.487827 ], [ 9.9564144, 51.4883492 ], [ 9.9568038, 51.4887767 ], [ 9.956942, 51.4889032 ], [ 9.9571718, 51.4890449 ], [ 9.9573249, 51.4891029 ], [ 9.9577832, 51.4892765 ], [ 9.957901, 51.4893211 ], [ 9.9580194, 51.4893659 ], [ 9.9590527, 51.4897572 ], [ 9.9593253, 51.4898901 ], [ 9.9593944, 51.4899238 ], [ 9.9596154, 51.4900501 ], [ 9.9598868, 51.4902051 ], [ 9.9599919, 51.4902652 ], [ 9.9601539, 51.4903654 ], [ 9.9603987, 51.4905242 ], [ 9.960515, 51.4905997 ], [ 9.9608255, 51.4908011 ], [ 9.9609546, 51.4908464 ], [ 9.9611821, 51.4909263 ], [ 9.9614035, 51.4909688 ], [ 9.9614777, 51.4909831 ], [ 9.9617969, 51.4910285 ], [ 9.9622578, 51.4910942 ], [ 9.9624897, 51.4911272 ], [ 9.9628694, 51.4911925 ], [ 9.9630852, 51.4912551 ], [ 9.9632897, 51.4913171 ], [ 9.963502, 51.4913814 ], [ 9.9638129, 51.4914319 ], [ 9.9639682, 51.4914422 ], [ 9.9639728, 51.4914425 ], [ 9.9642078, 51.4914579 ], [ 9.9642748, 51.4914708 ], [ 9.9644686, 51.4915082 ], [ 9.9649606, 51.4916118 ], [ 9.9655917, 51.4918049 ], [ 9.9656369, 51.4918318 ], [ 9.9652279, 51.4921442 ], [ 9.9650974, 51.4922438 ], [ 9.9651198, 51.4922621 ], [ 9.9651681, 51.4923015 ], [ 9.9655809, 51.4926393 ], [ 9.9657144, 51.4927485 ], [ 9.9666976, 51.4935528 ], [ 9.9676818, 51.4948965 ], [ 9.9677898, 51.4949827 ], [ 9.9688812, 51.4956047 ], [ 9.9694058, 51.4959037 ], [ 9.9699313, 51.4962032 ], [ 9.9706752, 51.4966271 ], [ 9.9709445, 51.4963709 ], [ 9.9713975, 51.4959397 ], [ 9.9718814, 51.4954791 ], [ 9.9729566, 51.4959416 ], [ 9.9738719, 51.4963436 ], [ 9.9740078, 51.4964033 ], [ 9.9739391, 51.4976124 ], [ 9.9742476, 51.4981303 ], [ 9.9742625, 51.4981554 ], [ 9.9748297, 51.5001179 ], [ 9.9752806, 51.5007345 ], [ 9.9756397, 51.5012193 ], [ 9.9756673, 51.501257 ], [ 9.9758001, 51.5011962 ], [ 9.9758565, 51.5012463 ], [ 9.9759085, 51.5012926 ], [ 9.97596, 51.5013402 ], [ 9.9760963, 51.5014631 ], [ 9.9763962, 51.5017446 ], [ 9.9764766, 51.5019936 ], [ 9.9766811, 51.5024675 ], [ 9.9770048, 51.5030787 ], [ 9.9771885, 51.5033598 ], [ 9.977243, 51.5034372 ], [ 9.9774105, 51.5036892 ], [ 9.9789985, 51.5045068 ], [ 9.9791088, 51.5045636 ], [ 9.9794505, 51.5047396 ], [ 9.9796935, 51.5048953 ], [ 9.9797395, 51.5049782 ], [ 9.9797574, 51.5050302 ], [ 9.9797691, 51.5050662 ], [ 9.9799448, 51.5056035 ], [ 9.9800892, 51.5060449 ], [ 9.9801707, 51.5062941 ], [ 9.9802537, 51.5064601 ], [ 9.980336, 51.5066245 ], [ 9.9808814, 51.5074417 ], [ 9.9810096, 51.5076789 ], [ 9.9810233, 51.5077041 ], [ 9.9810315, 51.5077192 ], [ 9.9812164, 51.5077662 ], [ 9.9817884, 51.5078931 ], [ 9.9823313, 51.5076022 ], [ 9.9831948, 51.5075359 ], [ 9.9833552, 51.5075236 ], [ 9.9841937, 51.5074592 ], [ 9.9843314, 51.5075493 ], [ 9.9843815, 51.5075821 ], [ 9.9847978, 51.5078543 ], [ 9.9852275, 51.5082463 ], [ 9.985818, 51.5087529 ], [ 9.9862267, 51.5090583 ], [ 9.9864639, 51.5093322 ], [ 9.9865041, 51.5093786 ], [ 9.9868511, 51.5095987 ], [ 9.9873679, 51.5099272 ], [ 9.9876029, 51.5102053 ], [ 9.98774, 51.5104509 ], [ 9.9879668, 51.5109048 ], [ 9.9879751, 51.5114923 ], [ 9.9881227, 51.512041 ], [ 9.988504, 51.5122041 ], [ 9.989196, 51.5123541 ], [ 9.9893299, 51.5123859 ], [ 9.9898676, 51.5125195 ], [ 9.9902063, 51.5124804 ], [ 9.9903354, 51.5123539 ], [ 9.9901978, 51.5119245 ], [ 9.9902254, 51.5112388 ], [ 9.9903525, 51.5110683 ], [ 9.9906233, 51.5108499 ], [ 9.9909169, 51.510476 ], [ 9.9910546, 51.5101892 ], [ 9.991358, 51.5099235 ], [ 9.9916961, 51.5096138 ], [ 9.9918006, 51.5096616 ], [ 9.991935, 51.5097232 ], [ 9.9919549, 51.5097316 ], [ 9.9923017, 51.509879 ], [ 9.9923538, 51.5099012 ], [ 9.9927902, 51.5099829 ], [ 9.9930765, 51.5100415 ], [ 9.993587, 51.510113 ], [ 9.9937548, 51.5101104 ], [ 9.993884, 51.5101083 ], [ 9.9946364, 51.5101212 ], [ 9.9954471, 51.5102171 ], [ 9.9965861, 51.5102934 ], [ 9.9975402, 51.5103731 ], [ 9.9989647, 51.5105718 ], [ 9.9993693, 51.510857 ], [ 9.9997522, 51.5109942 ], [ 9.9997405, 51.5111479 ], [ 9.999692, 51.5113601 ], [ 9.9996419, 51.5115976 ], [ 9.9997433, 51.5118305 ], [ 9.999742, 51.5120781 ], [ 9.9996601, 51.5123026 ], [ 9.9996688, 51.5126382 ], [ 9.9998379, 51.5130216 ], [ 10.0001153, 51.5134531 ], [ 10.0005915, 51.5137705 ], [ 10.0008206, 51.5138973 ], [ 10.0009874, 51.5140088 ], [ 10.0011378, 51.5142207 ], [ 10.0011943, 51.5146252 ], [ 10.0017434, 51.5149974 ], [ 10.0021808, 51.5153434 ], [ 10.0026777, 51.515635 ], [ 10.0032469, 51.5158789 ], [ 10.0035089, 51.5160963 ], [ 10.0036423, 51.5162826 ], [ 10.00378, 51.516476 ], [ 10.0037967, 51.5168138 ], [ 10.0038091, 51.5170674 ], [ 10.0038407, 51.5173197 ], [ 10.0038587, 51.5173706 ], [ 10.0038677, 51.5173959 ], [ 10.00389, 51.5174591 ], [ 10.0040324, 51.5176314 ], [ 10.0042775, 51.5179629 ], [ 10.0048713, 51.5184284 ], [ 10.0043516, 51.5188193 ], [ 10.0038806, 51.5191065 ], [ 10.0033139, 51.5196762 ], [ 10.0032965, 51.5196937 ], [ 10.0032137, 51.5197769 ], [ 10.0029591, 51.5201979 ], [ 10.0027604, 51.5205231 ], [ 10.0025651, 51.5208859 ], [ 10.0024229, 51.5211528 ], [ 10.0033177, 51.5213459 ], [ 10.0040239, 51.521465 ], [ 10.0045126, 51.5214137 ], [ 10.0048049, 51.5213601 ], [ 10.0051736, 51.5209517 ], [ 10.0054998, 51.5206083 ], [ 10.0056305, 51.5204842 ], [ 10.0057981, 51.5203272 ], [ 10.0060286, 51.5201262 ], [ 10.006407, 51.5200596 ], [ 10.0071826, 51.5199842 ], [ 10.0075665, 51.5199067 ], [ 10.0080954, 51.5198244 ], [ 10.0084499, 51.5198539 ], [ 10.0088986, 51.5199015 ], [ 10.0089227, 51.519904 ], [ 10.0090211, 51.5199144 ], [ 10.0090865, 51.5199208 ], [ 10.009135, 51.5199262 ], [ 10.0093647, 51.5200335 ], [ 10.009613, 51.5201464 ], [ 10.0097036, 51.5201968 ], [ 10.0097894, 51.5202053 ], [ 10.0104104, 51.5203173 ], [ 10.0106581, 51.5204024 ], [ 10.010797, 51.5204476 ], [ 10.0109481, 51.5204557 ], [ 10.0111273, 51.5204715 ], [ 10.0115842, 51.520499 ], [ 10.0118329, 51.5205398 ], [ 10.0121114, 51.5205816 ], [ 10.0122214, 51.5205938 ], [ 10.0133379, 51.5203742 ], [ 10.0142168, 51.5202742 ], [ 10.0148446, 51.5202338 ], [ 10.016219, 51.5202668 ], [ 10.0170369, 51.5203072 ], [ 10.0175483, 51.5204302 ], [ 10.0180177, 51.5204686 ], [ 10.0185557, 51.5205314 ], [ 10.0190978, 51.5205916 ], [ 10.0194936, 51.5206682 ], [ 10.0196369, 51.520696 ], [ 10.0199625, 51.520759 ], [ 10.0208205, 51.5211563 ], [ 10.0208335, 51.5211977 ], [ 10.020855, 51.5212659 ], [ 10.0204775, 51.5214016 ], [ 10.0202541, 51.521441 ], [ 10.0197195, 51.5215306 ], [ 10.0192744, 51.5216869 ], [ 10.0184256, 51.5218792 ], [ 10.018175, 51.5219563 ], [ 10.0180776, 51.5220746 ], [ 10.0180356, 51.5221699 ], [ 10.0178759, 51.5227309 ], [ 10.0179775, 51.522795 ], [ 10.0181566, 51.5229234 ], [ 10.0182432, 51.5232149 ], [ 10.0182454, 51.5232435 ], [ 10.0182563, 51.5232962 ], [ 10.0182664, 51.5233158 ], [ 10.0182718, 51.5233399 ], [ 10.0182855, 51.5234039 ], [ 10.0182903, 51.5234263 ], [ 10.018294, 51.5234435 ], [ 10.0182958, 51.5234519 ], [ 10.0183082, 51.5234908 ], [ 10.0185537, 51.5242654 ], [ 10.0188819, 51.5252959 ], [ 10.0190477, 51.525824 ], [ 10.0190629, 51.5258724 ], [ 10.0192026, 51.5263173 ], [ 10.0192164, 51.5263593 ], [ 10.0192337, 51.5264121 ], [ 10.0196215, 51.5275938 ], [ 10.0201983, 51.5283355 ], [ 10.0202157, 51.5283578 ], [ 10.020236, 51.528384 ], [ 10.0202576, 51.5284118 ], [ 10.0207397, 51.5290318 ], [ 10.021471, 51.5294434 ], [ 10.0221204, 51.5297754 ], [ 10.0227198, 51.5300765 ], [ 10.0233315, 51.5300482 ], [ 10.0233701, 51.5300464 ], [ 10.0238251, 51.5300253 ], [ 10.023827, 51.5300478 ], [ 10.0254237, 51.53002 ], [ 10.0269528, 51.5302503 ], [ 10.0290621, 51.5305131 ], [ 10.0303574, 51.5303621 ], [ 10.031227, 51.5302768 ], [ 10.0320007, 51.530266 ], [ 10.0325297, 51.5302155 ], [ 10.0341496, 51.5299586 ], [ 10.0356478, 51.529952 ], [ 10.0359145, 51.5299733 ], [ 10.0361264, 51.5300098 ], [ 10.0362074, 51.5300561 ], [ 10.0363307, 51.5301266 ], [ 10.0366433, 51.5302687 ], [ 10.0369534, 51.5303929 ], [ 10.0376921, 51.5308199 ], [ 10.038682, 51.5313275 ], [ 10.0386946, 51.5313048 ], [ 10.0394218, 51.5312973 ], [ 10.0395279, 51.5312726 ], [ 10.0400103, 51.5311602 ], [ 10.0410389, 51.5307969 ], [ 10.0426694, 51.5305732 ], [ 10.0442066, 51.5303704 ], [ 10.0460402, 51.5301546 ], [ 10.0473564, 51.5302999 ], [ 10.0482459, 51.5303862 ], [ 10.0489913, 51.5304468 ], [ 10.0493681, 51.5304687 ], [ 10.0494439, 51.5304731 ], [ 10.0500389, 51.5305076 ], [ 10.0506645, 51.5305795 ], [ 10.0510936, 51.5305993 ], [ 10.0511028, 51.5306448 ], [ 10.0511321, 51.5307897 ], [ 10.0511331, 51.5310357 ], [ 10.0510884, 51.531372 ], [ 10.0512803, 51.5315783 ], [ 10.0514583, 51.5316921 ], [ 10.0514742, 51.5318004 ], [ 10.0514353, 51.5319136 ], [ 10.0513518, 51.5321476 ], [ 10.0514387, 51.5323852 ], [ 10.0515384, 51.5325148 ], [ 10.0516721, 51.5327268 ], [ 10.0518042, 51.532861 ], [ 10.0518845, 51.5330111 ], [ 10.0520254, 51.5332023 ], [ 10.0520909, 51.5336322 ], [ 10.0521715, 51.5339092 ], [ 10.0522336, 51.5340997 ], [ 10.0523516, 51.5342694 ], [ 10.0525372, 51.5344069 ], [ 10.0528318, 51.5345375 ], [ 10.0531115, 51.5346397 ], [ 10.0534159, 51.5347508 ], [ 10.0536056, 51.5350379 ], [ 10.0533975, 51.53514 ], [ 10.053319, 51.5351785 ], [ 10.0531072, 51.5352824 ], [ 10.0530682, 51.5353804 ], [ 10.05283, 51.5356776 ], [ 10.0527166, 51.5357762 ], [ 10.0528187, 51.536045 ], [ 10.0528226, 51.5364596 ], [ 10.0527806, 51.5366075 ], [ 10.0526228, 51.5367262 ], [ 10.0521255, 51.5368008 ], [ 10.0519347, 51.5368681 ], [ 10.051721, 51.5370627 ], [ 10.0515777, 51.5372527 ], [ 10.0514782, 51.5375414 ], [ 10.0514234, 51.5377734 ], [ 10.0511229, 51.5379766 ], [ 10.0507612, 51.5381818 ], [ 10.0506574, 51.538279 ], [ 10.0506082, 51.538409 ], [ 10.0505892, 51.5384907 ], [ 10.0506562, 51.5386315 ], [ 10.0504848, 51.5388045 ], [ 10.0503125, 51.5389788 ], [ 10.0501731, 51.5390885 ], [ 10.0500605, 51.5392113 ], [ 10.0499754, 51.5395112 ], [ 10.0499999, 51.5397536 ], [ 10.0499109, 51.5399635 ], [ 10.0498435, 51.5401097 ], [ 10.0494958, 51.5405171 ], [ 10.0494648, 51.540728 ], [ 10.0493684, 51.54106 ], [ 10.0492296, 51.5413458 ], [ 10.0491191, 51.5416657 ], [ 10.0490234, 51.5421562 ], [ 10.0489694, 51.5423314 ], [ 10.0488266, 51.5427935 ], [ 10.0487274, 51.5430741 ], [ 10.0486387, 51.5433511 ], [ 10.0486959, 51.5435354 ], [ 10.0486563, 51.5439511 ], [ 10.0487084, 51.5441127 ], [ 10.048695, 51.5443915 ], [ 10.0487612, 51.5446372 ], [ 10.0484713, 51.5448243 ], [ 10.0484124, 51.5450042 ], [ 10.0481107, 51.5452117 ], [ 10.048058, 51.5452381 ], [ 10.0479504, 51.5452918 ], [ 10.0475014, 51.5453668 ], [ 10.0472598, 51.545553 ], [ 10.0464278, 51.5458743 ], [ 10.0461627, 51.5460124 ], [ 10.0457997, 51.546157 ], [ 10.0456641, 51.5463469 ], [ 10.0454256, 51.5465103 ], [ 10.0452269, 51.5465664 ], [ 10.0451488, 51.5465884 ], [ 10.0449719, 51.5466831 ], [ 10.0449212, 51.5467101 ], [ 10.0447896, 51.5467806 ], [ 10.0447206, 51.5470024 ], [ 10.0445609, 51.5472489 ], [ 10.044615, 51.5476025 ], [ 10.0445335, 51.5477355 ], [ 10.0442915, 51.5481664 ], [ 10.0441202, 51.5483846 ], [ 10.0437745, 51.5485585 ], [ 10.0434567, 51.548842 ], [ 10.0430271, 51.5491453 ], [ 10.0426576, 51.5494025 ], [ 10.0424588, 51.5495407 ], [ 10.0421067, 51.5498127 ], [ 10.0417018, 51.5501807 ], [ 10.0416801, 51.550214 ], [ 10.0415372, 51.5504338 ], [ 10.0414486, 51.5506204 ], [ 10.0414083, 51.5508948 ], [ 10.0414026, 51.5515356 ], [ 10.0415606, 51.5520082 ], [ 10.0416463, 51.5523708 ], [ 10.0416459, 51.5523856 ], [ 10.0416146, 51.553103 ], [ 10.0410359, 51.5541695 ], [ 10.0408738, 51.5545327 ], [ 10.0409259, 51.5548722 ], [ 10.0409713, 51.5550731 ], [ 10.0411113, 51.5553144 ], [ 10.0411322, 51.5553504 ], [ 10.0414841, 51.5559583 ], [ 10.0415756, 51.5565403 ], [ 10.0415322, 51.556914 ], [ 10.0414883, 51.5572908 ], [ 10.0411164, 51.5578016 ], [ 10.0407419, 51.5583048 ], [ 10.0401574, 51.5586308 ], [ 10.0396539, 51.5588249 ], [ 10.0388608, 51.5592003 ], [ 10.0381784, 51.5593866 ], [ 10.037598, 51.5595422 ], [ 10.0371962, 51.5596458 ], [ 10.036484, 51.5597637 ], [ 10.0359208, 51.5598103 ], [ 10.0348183, 51.5599621 ], [ 10.0343707, 51.5600398 ], [ 10.0339614, 51.5601668 ], [ 10.0336497, 51.5602061 ], [ 10.0331716, 51.560363 ], [ 10.0328137, 51.5604988 ], [ 10.0327427, 51.5605257 ], [ 10.032613, 51.5605749 ], [ 10.0322122, 51.5606614 ], [ 10.0319533, 51.5607132 ], [ 10.0312641, 51.5607994 ], [ 10.031158, 51.5607875 ], [ 10.0305584, 51.5607202 ], [ 10.0300149, 51.5607626 ], [ 10.0286151, 51.5609353 ], [ 10.0281899, 51.5608786 ], [ 10.0266773, 51.560692 ], [ 10.0255601, 51.5607315 ], [ 10.0248117, 51.5608648 ], [ 10.0241118, 51.5611164 ], [ 10.0228647, 51.5613202 ], [ 10.0219781, 51.5615827 ], [ 10.0216001, 51.5616809 ], [ 10.0214526, 51.5617211 ], [ 10.0211377, 51.5618069 ], [ 10.0211169, 51.5618126 ], [ 10.0211105, 51.5618143 ], [ 10.0210286, 51.5618366 ], [ 10.0210422, 51.5619094 ], [ 10.021055, 51.5619776 ], [ 10.0210674, 51.5620088 ], [ 10.0210686, 51.5620369 ], [ 10.0210702, 51.5620761 ], [ 10.0210713, 51.5621031 ], [ 10.0210721, 51.5621213 ], [ 10.0210893, 51.5621704 ], [ 10.0212424, 51.5627279 ], [ 10.0212835, 51.5628406 ], [ 10.02133, 51.5629677 ], [ 10.0214197, 51.5632134 ], [ 10.0216479, 51.5638982 ], [ 10.0216511, 51.5639078 ], [ 10.0216618, 51.56394 ], [ 10.0216691, 51.5639619 ], [ 10.0217343, 51.5641509 ], [ 10.0218043, 51.5643534 ], [ 10.021821, 51.5644069 ], [ 10.0219809, 51.5653106 ], [ 10.0221166, 51.5655527 ], [ 10.0232078, 51.5658286 ], [ 10.023687, 51.5660277 ], [ 10.0241139, 51.5663472 ], [ 10.0241688, 51.5663869 ], [ 10.0259175, 51.5676515 ], [ 10.0263742, 51.5679135 ], [ 10.0268312, 51.5681881 ], [ 10.0274071, 51.5684739 ], [ 10.0278172, 51.5686774 ], [ 10.0279842, 51.5687695 ], [ 10.0289086, 51.5692113 ], [ 10.0292197, 51.5694938 ], [ 10.0294567, 51.5697089 ], [ 10.0296904, 51.5702447 ], [ 10.0305566, 51.5715558 ], [ 10.0305923, 51.5719126 ], [ 10.0305979, 51.5719682 ], [ 10.0306235, 51.5722239 ], [ 10.0306391, 51.5723799 ], [ 10.0306823, 51.5728106 ], [ 10.0308959, 51.5735406 ], [ 10.0310889, 51.5737319 ], [ 10.0313533, 51.5739542 ], [ 10.0315553, 51.574113 ], [ 10.0319218, 51.5743052 ], [ 10.0338125, 51.574974 ], [ 10.0343254, 51.5752152 ], [ 10.0345832, 51.5753826 ], [ 10.0345744, 51.5754135 ], [ 10.0345669, 51.5754401 ], [ 10.0344921, 51.5757028 ], [ 10.0344535, 51.5758385 ], [ 10.0343486, 51.5762072 ], [ 10.0343607, 51.576505 ], [ 10.0349105, 51.5775615 ], [ 10.0346171, 51.5780736 ], [ 10.0342596, 51.5785616 ], [ 10.0342412, 51.5785865 ], [ 10.0331042, 51.5787831 ], [ 10.0328605, 51.5791913 ], [ 10.0327713, 51.5792206 ], [ 10.0324078, 51.57934 ], [ 10.031901, 51.5798097 ], [ 10.0307876, 51.5800176 ], [ 10.0303106, 51.5801066 ], [ 10.0297747, 51.5804045 ], [ 10.0291512, 51.5805707 ], [ 10.0289249, 51.5807066 ], [ 10.0280102, 51.5809978 ], [ 10.0279754, 51.5810088 ], [ 10.0276303, 51.5816479 ], [ 10.0276773, 51.5818365 ], [ 10.0277055, 51.5821428 ], [ 10.0265697, 51.5825824 ], [ 10.0256975, 51.5826841 ], [ 10.0247999, 51.5828841 ], [ 10.0243705, 51.5831303 ], [ 10.0239715, 51.5832247 ], [ 10.0232108, 51.583384 ], [ 10.0226461, 51.5834027 ], [ 10.0218947, 51.5836613 ], [ 10.0214865, 51.5837436 ], [ 10.0207289, 51.5836171 ], [ 10.0205267, 51.5837139 ], [ 10.0201878, 51.5842582 ], [ 10.0196843, 51.5845025 ], [ 10.019145, 51.5846585 ], [ 10.018808, 51.5848877 ], [ 10.0189628, 51.5852157 ], [ 10.0189131, 51.5854316 ], [ 10.0180251, 51.5859145 ], [ 10.0178406, 51.5861145 ], [ 10.0175806, 51.5862778 ], [ 10.0172047, 51.586545 ], [ 10.0170428, 51.586637 ], [ 10.0163365, 51.5869155 ], [ 10.0160912, 51.5872042 ], [ 10.0160285, 51.5872784 ], [ 10.0159843, 51.5873303 ], [ 10.0153777, 51.5876837 ], [ 10.0150288, 51.5878366 ], [ 10.0141053, 51.5878776 ], [ 10.0134899, 51.5881265 ], [ 10.0131508, 51.5882657 ], [ 10.012677, 51.5886503 ], [ 10.0122811, 51.5891379 ], [ 10.0121818, 51.589256 ], [ 10.0112381, 51.5900035 ], [ 10.0106434, 51.5901107 ], [ 10.0101497, 51.5902351 ], [ 10.0095149, 51.5903619 ], [ 10.0088296, 51.5905398 ], [ 10.0079225, 51.5905691 ], [ 10.0072133, 51.5906728 ], [ 10.0060165, 51.5906689 ], [ 10.0054095, 51.5907825 ], [ 10.0044962, 51.5907688 ], [ 10.0036409, 51.5908204 ], [ 10.0030342, 51.5907702 ], [ 10.0024515, 51.5905023 ], [ 10.0021914, 51.5902725 ], [ 10.0017528, 51.5900897 ], [ 10.0010948, 51.5900212 ], [ 10.0003146, 51.5899468 ], [ 9.999569, 51.5896768 ], [ 9.9993542, 51.5892602 ], [ 9.9987244, 51.5890338 ], [ 9.9981041, 51.5891976 ], [ 9.9977174, 51.589253 ], [ 9.997649, 51.5892627 ], [ 9.9976565, 51.5892757 ], [ 9.9971435, 51.5894278 ], [ 9.9962803, 51.5892987 ], [ 9.994993, 51.5895678 ], [ 9.9946119, 51.5898106 ], [ 9.9938573, 51.5900774 ], [ 9.9935499, 51.590014 ], [ 9.9930123, 51.5899031 ], [ 9.9917871, 51.5892463 ], [ 9.9912992, 51.5892096 ], [ 9.9906811, 51.5889418 ], [ 9.9900033, 51.5890525 ], [ 9.9891798, 51.588853 ], [ 9.9880481, 51.588852 ], [ 9.9872142, 51.5885989 ], [ 9.9862366, 51.5891888 ], [ 9.9856671, 51.5893188 ], [ 9.9856393, 51.5893312 ], [ 9.9855433, 51.589373 ], [ 9.9854454, 51.5894156 ], [ 9.9851477, 51.5898123 ], [ 9.9845548, 51.5900434 ], [ 9.9845448, 51.5900474 ], [ 9.9845154, 51.5900432 ], [ 9.9844862, 51.5900391 ], [ 9.9843786, 51.5900059 ], [ 9.9805723, 51.5888382 ], [ 9.9773927, 51.5878685 ], [ 9.9737156, 51.5867468 ], [ 9.9715258, 51.5860787 ], [ 9.9704843, 51.5859207 ], [ 9.969083, 51.5857068 ], [ 9.9686962, 51.5864497 ], [ 9.9681355, 51.5871437 ], [ 9.9677644, 51.5885429 ], [ 9.9676449, 51.5885116 ], [ 9.9674997, 51.5884737 ], [ 9.9671131, 51.5883728 ], [ 9.9667045, 51.5882661 ], [ 9.9664377, 51.5881964 ], [ 9.9665725, 51.587656 ], [ 9.9666447, 51.5873667 ], [ 9.9666693, 51.5872681 ], [ 9.9661022, 51.5869756 ], [ 9.966335, 51.586514 ], [ 9.9651969, 51.5861907 ], [ 9.9641733, 51.5858766 ], [ 9.9647564, 51.5852056 ], [ 9.9649722, 51.5849583 ], [ 9.9649943, 51.5849323 ], [ 9.962783, 51.5849383 ], [ 9.9625584, 51.5849389 ], [ 9.9608393, 51.5849435 ], [ 9.9591611, 51.585021 ], [ 9.9591961, 51.5849183 ], [ 9.9595416, 51.5839061 ], [ 9.9595556, 51.5838652 ], [ 9.9589916, 51.5834113 ], [ 9.9591113, 51.5832676 ], [ 9.9592287, 51.5831266 ], [ 9.9596627, 51.5826056 ], [ 9.9592909, 51.5821188 ], [ 9.9591826, 51.5819771 ], [ 9.958538, 51.581115 ], [ 9.9583537, 51.5808769 ], [ 9.958586, 51.5807793 ], [ 9.9585975, 51.5807744 ], [ 9.9581595, 51.5804058 ], [ 9.9574578, 51.5801955 ], [ 9.957046, 51.5801955 ], [ 9.956179, 51.579971 ], [ 9.9555694, 51.5799231 ], [ 9.955184, 51.5799072 ], [ 9.9549124, 51.5798462 ], [ 9.9546677, 51.5796721 ], [ 9.9540346, 51.579461 ], [ 9.9539303, 51.5793738 ], [ 9.9537514, 51.57915 ], [ 9.9535914, 51.579033 ], [ 9.9532832, 51.5789591 ], [ 9.9525598, 51.5787215 ], [ 9.9515761, 51.5787055 ], [ 9.9507205, 51.578693 ], [ 9.9498975, 51.5788638 ], [ 9.9496797, 51.5787931 ], [ 9.9493971, 51.5783624 ], [ 9.9489812, 51.5779935 ], [ 9.948608, 51.5777142 ], [ 9.9481301, 51.577381 ], [ 9.9476562, 51.577102 ], [ 9.9476389, 51.5771016 ], [ 9.943726, 51.5770068 ], [ 9.9433854, 51.5770026 ], [ 9.943284, 51.5769973 ], [ 9.9419066, 51.5771965 ], [ 9.940743, 51.5773668 ], [ 9.9406976, 51.5773709 ], [ 9.9406058, 51.5773791 ], [ 9.9405516, 51.577383 ], [ 9.9405318, 51.5774093 ], [ 9.9405399, 51.5774861 ], [ 9.9405556, 51.5776348 ], [ 9.940567, 51.5777423 ], [ 9.9405818, 51.5778827 ], [ 9.940744, 51.5786777 ], [ 9.9407693, 51.5788016 ], [ 9.9407775, 51.5788482 ], [ 9.9408358, 51.579213 ], [ 9.9408782, 51.579473 ], [ 9.9383072, 51.5796852 ], [ 9.9382094, 51.5796932 ], [ 9.9381685, 51.5796966 ], [ 9.9371541, 51.5797803 ], [ 9.9366765, 51.5798197 ], [ 9.9364132, 51.5798414 ], [ 9.9357955, 51.5798923 ], [ 9.9349301, 51.5799637 ], [ 9.9339674, 51.5800431 ], [ 9.9328779, 51.580133 ], [ 9.9331302, 51.5804499 ], [ 9.9330624, 51.5804553 ], [ 9.9329333, 51.5804654 ], [ 9.9323998, 51.5805073 ], [ 9.9318467, 51.5805507 ], [ 9.9311997, 51.5806015 ], [ 9.9308913, 51.5806257 ], [ 9.929808, 51.5807017 ], [ 9.9294077, 51.5807346 ], [ 9.9292627, 51.5807739 ], [ 9.9292576, 51.5807752 ], [ 9.9284139, 51.5810038 ], [ 9.9278587, 51.5811542 ], [ 9.9271619, 51.5813431 ], [ 9.9271704, 51.5812818 ], [ 9.92724, 51.5807789 ], [ 9.9273766, 51.579888 ], [ 9.9275314, 51.5788763 ], [ 9.9275425, 51.5788438 ], [ 9.927553, 51.5788132 ], [ 9.9275645, 51.5787795 ], [ 9.927681, 51.577968 ], [ 9.9277589, 51.5773676 ], [ 9.9278176, 51.5769147 ], [ 9.9278284, 51.5768285 ], [ 9.927863, 51.5765573 ], [ 9.9278679, 51.5765212 ], [ 9.9277853, 51.5765381 ], [ 9.9276735, 51.576561 ], [ 9.9276287, 51.5765701 ], [ 9.9275844, 51.5765792 ], [ 9.9272743, 51.5766227 ], [ 9.9269996, 51.5766076 ], [ 9.9266265, 51.5765734 ], [ 9.9243544, 51.5761607 ], [ 9.9241566, 51.5761407 ], [ 9.9233321, 51.5760684 ], [ 9.9233299, 51.576056 ], [ 9.9233268, 51.5760385 ], [ 9.9232611, 51.5756763 ], [ 9.9231341, 51.5749763 ], [ 9.9230767, 51.5746934 ], [ 9.9230356, 51.5744694 ], [ 9.9228951, 51.574461 ], [ 9.9228677, 51.5744593 ], [ 9.9227468, 51.5744521 ], [ 9.9227408, 51.5744517 ], [ 9.922617, 51.5744443 ], [ 9.9225835, 51.5744424 ], [ 9.9225246, 51.5744391 ], [ 9.922341, 51.5744292 ], [ 9.9223143, 51.5744278 ], [ 9.9221785, 51.5744204 ], [ 9.9220549, 51.5744138 ], [ 9.9219061, 51.5744054 ], [ 9.9218935, 51.5744047 ], [ 9.9217661, 51.5743976 ], [ 9.9217641, 51.5743974 ], [ 9.9217135, 51.5743946 ], [ 9.9217099, 51.5743944 ], [ 9.921589, 51.5743876 ], [ 9.9214787, 51.5743814 ], [ 9.9214516, 51.5743799 ], [ 9.9211194, 51.5743608 ], [ 9.9210907, 51.5743591 ], [ 9.9206759, 51.574336 ], [ 9.9192959, 51.5742588 ], [ 9.9191552, 51.5742511 ], [ 9.919086, 51.5738881 ], [ 9.9190093, 51.5734866 ], [ 9.9189971, 51.5734227 ], [ 9.9188374, 51.5725856 ], [ 9.9187995, 51.5723868 ], [ 9.9187885, 51.5723291 ], [ 9.9186216, 51.5714547 ], [ 9.9185876, 51.5712763 ], [ 9.9182781, 51.5714081 ], [ 9.9182402, 51.5714232 ], [ 9.9182166, 51.5714325 ], [ 9.9179521, 51.5715378 ], [ 9.9177799, 51.5715993 ], [ 9.9175654, 51.5716696 ], [ 9.917183, 51.5717806 ], [ 9.9168034, 51.5718755 ], [ 9.9163591, 51.5719732 ], [ 9.9160557, 51.5720393 ], [ 9.9158149, 51.5720957 ], [ 9.9158034, 51.5720984 ], [ 9.9157248, 51.5721168 ], [ 9.9156583, 51.5721324 ], [ 9.9156409, 51.5721364 ], [ 9.9156039, 51.5721451 ], [ 9.9153905, 51.572195 ], [ 9.9151119, 51.5722478 ], [ 9.9151029, 51.5722495 ], [ 9.9147058, 51.5723015 ], [ 9.91471, 51.5723281 ], [ 9.9145333, 51.5723505 ], [ 9.9144119, 51.572341 ], [ 9.9143494, 51.5723361 ], [ 9.9139484, 51.5723614 ], [ 9.9131994, 51.5724209 ], [ 9.9124549, 51.5724879 ], [ 9.912261, 51.5725053 ], [ 9.9107029, 51.5726455 ], [ 9.9103797, 51.5726745 ], [ 9.9096675, 51.5727384 ], [ 9.909716, 51.5727822 ], [ 9.9101819, 51.5731415 ], [ 9.9103073, 51.5732381 ], [ 9.9105624, 51.5734348 ], [ 9.9106169, 51.5734768 ], [ 9.9107548, 51.5735831 ], [ 9.9111796, 51.5739107 ], [ 9.9114511, 51.57412 ], [ 9.9116103, 51.5742428 ], [ 9.9116468, 51.5742709 ], [ 9.9117968, 51.5743867 ], [ 9.9119031, 51.5744686 ], [ 9.9119838, 51.5745308 ], [ 9.9122397, 51.5747282 ], [ 9.9125035, 51.5749316 ], [ 9.9125666, 51.575038 ], [ 9.9130851, 51.5759133 ], [ 9.9129606, 51.5759231 ], [ 9.9128943, 51.5759284 ], [ 9.9126964, 51.5759442 ], [ 9.9110995, 51.5760717 ], [ 9.9098799, 51.5761687 ], [ 9.9098106, 51.5761742 ], [ 9.9097584, 51.5761783 ], [ 9.9096799, 51.5761846 ], [ 9.9091759, 51.5756757 ], [ 9.9091039, 51.5756149 ], [ 9.9090645, 51.5755817 ], [ 9.9090037, 51.5755303 ], [ 9.9089745, 51.5755057 ], [ 9.9089285, 51.5754668 ], [ 9.908739, 51.5753068 ], [ 9.9085529, 51.5751497 ], [ 9.9081465, 51.5748474 ], [ 9.9070183, 51.5740751 ], [ 9.9061861, 51.5735307 ], [ 9.9057671, 51.5732906 ], [ 9.9055692, 51.5731855 ], [ 9.9053376, 51.5730623 ], [ 9.9050918, 51.5730657 ], [ 9.905041, 51.5730664 ], [ 9.9049776, 51.5730716 ], [ 9.9045482, 51.5731076 ], [ 9.9044862, 51.5731133 ], [ 9.9044788, 51.5731086 ], [ 9.9044103, 51.5730647 ], [ 9.9043852, 51.5730663 ], [ 9.9041452, 51.5730811 ], [ 9.9040674, 51.5730549 ], [ 9.9040069, 51.5730345 ], [ 9.9033475, 51.5726061 ], [ 9.9023549, 51.5719917 ], [ 9.9018996, 51.5717338 ], [ 9.9018177, 51.5716951 ], [ 9.9017581, 51.5716768 ], [ 9.9017463, 51.5716731 ], [ 9.9011124, 51.5713707 ], [ 9.9006818, 51.571176 ], [ 9.9004463, 51.5710838 ], [ 9.9000678, 51.5709382 ], [ 9.8998046, 51.5708455 ], [ 9.8993525, 51.5706904 ], [ 9.8990578, 51.5706049 ], [ 9.8990378, 51.5705284 ], [ 9.8987945, 51.5704613 ], [ 9.898136, 51.5702986 ], [ 9.8967878, 51.5700402 ], [ 9.8948958, 51.5697873 ], [ 9.8945487, 51.5697413 ], [ 9.8937639, 51.5696461 ], [ 9.893066, 51.5695641 ], [ 9.8919825, 51.5694098 ], [ 9.8918631, 51.5693503 ], [ 9.8917734, 51.569339 ], [ 9.8916687, 51.5693558 ], [ 9.8916651, 51.5694116 ], [ 9.8916639, 51.5694307 ], [ 9.8916623, 51.5694649 ], [ 9.891657, 51.5695744 ], [ 9.8916414, 51.5699027 ], [ 9.8916643, 51.5700767 ], [ 9.8918784, 51.5707644 ], [ 9.8918931, 51.5708115 ], [ 9.8919393, 51.5709595 ], [ 9.8918556, 51.5709028 ], [ 9.8911989, 51.570788 ], [ 9.8896769, 51.5705487 ], [ 9.8886696, 51.5703904 ], [ 9.8882845, 51.5703298 ], [ 9.8878764, 51.5702657 ], [ 9.8877473, 51.5702454 ], [ 9.8875064, 51.5702075 ], [ 9.8868609, 51.570106 ], [ 9.8866414, 51.5700715 ], [ 9.885954, 51.5699634 ], [ 9.8849326, 51.5698028 ], [ 9.8832198, 51.5695334 ], [ 9.8830685, 51.5695096 ], [ 9.8825035, 51.5694207 ], [ 9.8822755, 51.5693968 ], [ 9.882298, 51.569377 ], [ 9.8823971, 51.5692899 ], [ 9.882375, 51.5692621 ], [ 9.8823247, 51.5691993 ], [ 9.882277, 51.5691396 ], [ 9.8822907, 51.5691242 ], [ 9.8824831, 51.568909 ], [ 9.8824097, 51.5688377 ], [ 9.8800414, 51.5689504 ], [ 9.8798287, 51.5689605 ], [ 9.8797809, 51.5688267 ], [ 9.8795809, 51.5682668 ], [ 9.8794911, 51.5680153 ], [ 9.8794281, 51.5678389 ], [ 9.8793311, 51.5675676 ], [ 9.8792113, 51.5672325 ], [ 9.8791692, 51.5671157 ], [ 9.878733, 51.565894 ], [ 9.8787194, 51.5658559 ], [ 9.8783849, 51.5649191 ], [ 9.8783484, 51.5648169 ], [ 9.8783422, 51.5647993 ], [ 9.8757416, 51.5647965 ], [ 9.8756519, 51.5647965 ], [ 9.8735836, 51.5647941 ], [ 9.8735573, 51.5647529 ], [ 9.8732167, 51.564733 ], [ 9.8721779, 51.5644846 ], [ 9.8713482, 51.5642862 ], [ 9.8712504, 51.5642614 ], [ 9.8706548, 51.5641109 ], [ 9.8703939, 51.564045 ], [ 9.8703951, 51.5640583 ], [ 9.8703081, 51.5640429 ], [ 9.8702982, 51.5639239 ], [ 9.8701602, 51.5622581 ], [ 9.8702465, 51.5622657 ], [ 9.8702427, 51.5622022 ], [ 9.8708051, 51.5622413 ], [ 9.8710644, 51.5622593 ], [ 9.8709395, 51.56102 ], [ 9.8702418, 51.5609433 ], [ 9.8703291, 51.5604384 ], [ 9.8700681, 51.5604308 ], [ 9.869134, 51.5604591 ], [ 9.8680506, 51.5604632 ], [ 9.8677123, 51.5604645 ], [ 9.8671166, 51.5605111 ], [ 9.8670097, 51.5605101 ], [ 9.8670453, 51.561256 ], [ 9.86708, 51.5619833 ], [ 9.8670825, 51.5620376 ], [ 9.8666828, 51.5620099 ], [ 9.8666296, 51.563368 ], [ 9.8664839, 51.5633669 ], [ 9.8664871, 51.5635803 ], [ 9.8654559, 51.5635667 ], [ 9.8643497, 51.5635521 ], [ 9.8636143, 51.5635423 ], [ 9.8634954, 51.5635408 ], [ 9.8635017, 51.5635007 ], [ 9.8634776, 51.5630097 ], [ 9.8635053, 51.5627486 ], [ 9.8635093, 51.5627122 ], [ 9.8633697, 51.5627056 ], [ 9.8624752, 51.5626876 ], [ 9.8620309, 51.5626784 ], [ 9.8614823, 51.5613869 ], [ 9.8613373, 51.5613846 ], [ 9.861212, 51.5613682 ], [ 9.8609556, 51.5613531 ], [ 9.8608163, 51.5613315 ], [ 9.860782, 51.5615209 ], [ 9.8607377, 51.5616769 ], [ 9.8607066, 51.5620994 ], [ 9.860702, 51.5622801 ], [ 9.8606442, 51.5626263 ], [ 9.8604861, 51.5629893 ], [ 9.8605064, 51.5633646 ], [ 9.8603103, 51.5635861 ], [ 9.8602642, 51.5637155 ], [ 9.8602592, 51.5640799 ], [ 9.8601672, 51.5642989 ], [ 9.8600777, 51.5644246 ], [ 9.8599699, 51.5645314 ], [ 9.8598774, 51.5645959 ], [ 9.8598138, 51.5646782 ], [ 9.8597191, 51.5649491 ], [ 9.859711, 51.5650445 ], [ 9.8595355, 51.5650549 ], [ 9.8595464, 51.5651108 ], [ 9.8596399, 51.5655883 ], [ 9.8597211, 51.5660044 ], [ 9.8592081, 51.5664873 ], [ 9.8591907, 51.5665037 ], [ 9.8587148, 51.5664718 ], [ 9.8578671, 51.5671905 ], [ 9.8578349, 51.5672178 ], [ 9.8576802, 51.5673489 ], [ 9.8573396, 51.5676377 ], [ 9.8572949, 51.5676756 ], [ 9.8568337, 51.5680666 ], [ 9.856396, 51.5684376 ], [ 9.8563314, 51.5684924 ], [ 9.8558595, 51.5688924 ], [ 9.8557264, 51.5689833 ], [ 9.854984, 51.56949 ], [ 9.8540601, 51.5701205 ], [ 9.8539664, 51.5701845 ], [ 9.8523748, 51.5712708 ], [ 9.8522958, 51.5713154 ], [ 9.8521317, 51.571408 ], [ 9.8520782, 51.5714382 ], [ 9.8518359, 51.5715751 ], [ 9.8508109, 51.5721543 ], [ 9.8502652, 51.5724627 ], [ 9.8503873, 51.5725897 ], [ 9.8507769, 51.5729947 ], [ 9.85104, 51.5732681 ], [ 9.8508585, 51.5733602 ], [ 9.8499208, 51.5738357 ], [ 9.8493431, 51.5741286 ], [ 9.8492408, 51.5741786 ], [ 9.8492055, 51.574196 ], [ 9.8488553, 51.5743672 ], [ 9.848011, 51.57478 ], [ 9.847685, 51.5749394 ], [ 9.8473789, 51.575089 ], [ 9.847538, 51.5753582 ], [ 9.8474948, 51.57538 ], [ 9.8471717, 51.5755435 ], [ 9.847109, 51.5755752 ], [ 9.8470251, 51.5756176 ], [ 9.8469261, 51.5756252 ], [ 9.8462805, 51.5756746 ], [ 9.8453731, 51.5758323 ], [ 9.8444889, 51.5759067 ], [ 9.8439687, 51.5759655 ], [ 9.8439421, 51.5758719 ], [ 9.8438778, 51.5756453 ], [ 9.843833, 51.5754874 ], [ 9.8433376, 51.5755372 ], [ 9.8433164, 51.5755393 ], [ 9.8432171, 51.5755493 ], [ 9.8431294, 51.5755609 ], [ 9.8431272, 51.5754952 ], [ 9.8430752, 51.5754477 ], [ 9.8430973, 51.5754369 ], [ 9.8429664, 51.5753186 ], [ 9.84296, 51.5752508 ], [ 9.8429625, 51.5751836 ], [ 9.8429865, 51.5751522 ], [ 9.8429718, 51.5750461 ], [ 9.842964, 51.57496 ], [ 9.8428991, 51.5748621 ], [ 9.8427848, 51.5748551 ], [ 9.8426595, 51.5748507 ], [ 9.842496, 51.5748447 ], [ 9.842103, 51.5748356 ], [ 9.8415853, 51.5748184 ], [ 9.8411898, 51.5747949 ], [ 9.840913, 51.5747754 ], [ 9.8406333, 51.574743 ], [ 9.840546, 51.5747279 ], [ 9.8402108, 51.5746804 ], [ 9.8401511, 51.5746719 ], [ 9.839996, 51.5746499 ], [ 9.8396989, 51.5746007 ], [ 9.8394571, 51.5745541 ], [ 9.8393941, 51.574538 ], [ 9.8393294, 51.5745215 ], [ 9.8393061, 51.5745155 ], [ 9.8385114, 51.5744605 ], [ 9.8379009, 51.5744182 ], [ 9.837975, 51.5742699 ], [ 9.8380413, 51.5741373 ], [ 9.8381749, 51.5738556 ], [ 9.8385461, 51.5731274 ], [ 9.8385644, 51.5730961 ], [ 9.8388678, 51.5725825 ], [ 9.8389237, 51.5724879 ], [ 9.8391438, 51.5721543 ], [ 9.8387585, 51.572053 ], [ 9.8375891, 51.5717307 ], [ 9.83638, 51.5714703 ], [ 9.836237, 51.5714393 ], [ 9.8352433, 51.5713225 ], [ 9.835077, 51.5713158 ], [ 9.8348209, 51.571284 ], [ 9.8337641, 51.5711463 ], [ 9.8331591, 51.5710956 ], [ 9.8330587, 51.5715314 ], [ 9.8330147, 51.5717225 ], [ 9.8327883, 51.5727054 ], [ 9.832403, 51.573833 ], [ 9.8323999, 51.5738421 ], [ 9.8321031, 51.574697 ], [ 9.8319442, 51.5751545 ], [ 9.8319313, 51.5751918 ], [ 9.8318224, 51.5755052 ], [ 9.831789, 51.5756014 ], [ 9.831743, 51.5757124 ], [ 9.8317078, 51.5756944 ], [ 9.8313041, 51.5754883 ], [ 9.8312954, 51.5754823 ], [ 9.8312104, 51.5754232 ], [ 9.8309337, 51.5752964 ], [ 9.830723, 51.5751773 ], [ 9.8304221, 51.5750472 ], [ 9.8299983, 51.5748049 ], [ 9.8299289, 51.5747579 ], [ 9.8298364, 51.5746953 ], [ 9.8297904, 51.5746561 ], [ 9.8296595, 51.5745447 ], [ 9.829394, 51.5743187 ], [ 9.8293281, 51.5742385 ], [ 9.8291883, 51.5740681 ], [ 9.8289761, 51.5739366 ], [ 9.828927, 51.573861 ], [ 9.8288079, 51.5738291 ], [ 9.8286368, 51.5737819 ], [ 9.8278268, 51.5735448 ], [ 9.8260265, 51.5730179 ], [ 9.8257074, 51.5729244 ], [ 9.8256376, 51.5729062 ], [ 9.8256695, 51.5728186 ], [ 9.82578, 51.5725132 ], [ 9.8258149, 51.5724396 ], [ 9.8260681, 51.5713746 ], [ 9.8262677, 51.5705353 ], [ 9.8263329, 51.5702611 ], [ 9.826603, 51.5700491 ], [ 9.8268256, 51.5696682 ], [ 9.8265594, 51.56869 ], [ 9.8264741, 51.5684998 ], [ 9.826138, 51.5682284 ], [ 9.8261074, 51.5681987 ], [ 9.8260517, 51.5681879 ], [ 9.8214636, 51.5676877 ], [ 9.8204683, 51.5675396 ], [ 9.8198046, 51.5674424 ], [ 9.8184436, 51.5671672 ], [ 9.8176331, 51.5669254 ], [ 9.8175595, 51.5668829 ], [ 9.8174556, 51.5668229 ], [ 9.8172898, 51.5667136 ], [ 9.81678, 51.5665694 ], [ 9.8158625, 51.5663207 ], [ 9.8155322, 51.5662307 ], [ 9.8151299, 51.5660888 ], [ 9.8146979, 51.5659441 ], [ 9.8146962, 51.5658879 ], [ 9.8146879, 51.5656155 ], [ 9.8146822, 51.565428 ], [ 9.8146698, 51.5653063 ], [ 9.8146515, 51.565267 ], [ 9.8144601, 51.5648569 ], [ 9.8142513, 51.5645046 ], [ 9.8141893, 51.5643879 ], [ 9.8141448, 51.5642692 ], [ 9.8141814, 51.56423 ], [ 9.8136556, 51.5640991 ], [ 9.8137244, 51.5639134 ], [ 9.8137364, 51.5638434 ], [ 9.8134281, 51.5637382 ], [ 9.8128741, 51.5635517 ], [ 9.8124066, 51.5633368 ], [ 9.8121932, 51.5632459 ], [ 9.8116711, 51.5630345 ], [ 9.8116391, 51.5630215 ], [ 9.8113157, 51.5629423 ], [ 9.8113555, 51.5629213 ], [ 9.8113922, 51.5629018 ], [ 9.8114373, 51.562878 ], [ 9.8123192, 51.5624847 ], [ 9.812827, 51.5622551 ], [ 9.8135254, 51.5618734 ], [ 9.8138457, 51.5616983 ], [ 9.8149029, 51.5611529 ], [ 9.8149694, 51.5611189 ], [ 9.8147307, 51.5610688 ], [ 9.8147658, 51.5610506 ], [ 9.8148424, 51.5610107 ], [ 9.8148824, 51.5609899 ], [ 9.814967, 51.56096 ], [ 9.8153785, 51.5608109 ], [ 9.8154103, 51.5608006 ], [ 9.8156962, 51.5607068 ], [ 9.8157799, 51.5606794 ], [ 9.8159545, 51.5606415 ], [ 9.8160736, 51.5606174 ], [ 9.8161328, 51.5605966 ], [ 9.8166359, 51.5604205 ], [ 9.8169371, 51.560315 ], [ 9.8172639, 51.5602092 ], [ 9.8174379, 51.5601208 ], [ 9.817573, 51.5600521 ], [ 9.8177427, 51.5599454 ], [ 9.817775, 51.5599223 ], [ 9.8178789, 51.5598482 ], [ 9.8180154, 51.5597441 ], [ 9.81824, 51.5595727 ], [ 9.8182697, 51.55955 ], [ 9.8183452, 51.5594874 ], [ 9.8184308, 51.5594305 ], [ 9.8185909, 51.5593202 ], [ 9.8186554, 51.5592757 ], [ 9.8190194, 51.5590077 ], [ 9.8191285, 51.5589552 ], [ 9.8193343, 51.558856 ], [ 9.8193211, 51.558849 ], [ 9.8191446, 51.5587548 ], [ 9.8192581, 51.5586863 ], [ 9.818431, 51.5584186 ], [ 9.8188119, 51.5582051 ], [ 9.8181112, 51.5579829 ], [ 9.8180711, 51.5579702 ], [ 9.8183049, 51.5574729 ], [ 9.8183106, 51.5574609 ], [ 9.8183245, 51.5574314 ], [ 9.8183435, 51.557391 ], [ 9.8187769, 51.5564694 ], [ 9.818731, 51.5564595 ], [ 9.8179285, 51.5562872 ], [ 9.8176693, 51.5562315 ], [ 9.8172741, 51.5561466 ], [ 9.8173978, 51.5559524 ], [ 9.8174295, 51.5559026 ], [ 9.8177379, 51.5554184 ], [ 9.8170896, 51.5549605 ], [ 9.816908, 51.554837 ], [ 9.8163985, 51.5545265 ], [ 9.8163179, 51.5544655 ], [ 9.8160296, 51.5542476 ], [ 9.8159434, 51.5541817 ], [ 9.8157186, 51.5540282 ], [ 9.8155469, 51.5539265 ], [ 9.8154024, 51.5538563 ], [ 9.8150906, 51.5537665 ], [ 9.8149335, 51.5537081 ], [ 9.8139701, 51.5534148 ], [ 9.8138254, 51.5531601 ], [ 9.8121047, 51.5517443 ], [ 9.8108137, 51.5509724 ], [ 9.8112049, 51.5506698 ], [ 9.8094738, 51.550168 ], [ 9.8085825, 51.5498783 ], [ 9.8081634, 51.5496988 ], [ 9.8077607, 51.5493858 ], [ 9.8076208, 51.5492393 ], [ 9.8074783, 51.549126 ], [ 9.8073248, 51.5489941 ], [ 9.8072621, 51.5488482 ], [ 9.8071542, 51.548733 ], [ 9.8069368, 51.5486917 ], [ 9.8067082, 51.548743 ], [ 9.8064685, 51.5487277 ], [ 9.8060129, 51.5486555 ], [ 9.8057983, 51.5486081 ], [ 9.805727, 51.5485464 ], [ 9.805661, 51.5484892 ], [ 9.8056737, 51.5484223 ], [ 9.8057223, 51.5481655 ], [ 9.8058525, 51.5480383 ], [ 9.8060194, 51.5479311 ], [ 9.8062011, 51.5478486 ], [ 9.8063989, 51.5477679 ], [ 9.8066122, 51.5476859 ], [ 9.8067256, 51.5475418 ], [ 9.8067446, 51.5473959 ], [ 9.8067772, 51.5472479 ], [ 9.8067804, 51.5472392 ], [ 9.8068278, 51.5471085 ], [ 9.8069833, 51.5469895 ], [ 9.8071344, 51.5468812 ], [ 9.8072506, 51.5467564 ], [ 9.8073666, 51.5466275 ], [ 9.8074949, 51.5465112 ], [ 9.8076751, 51.5463949 ], [ 9.8078451, 51.5462843 ], [ 9.8080292, 51.5462052 ], [ 9.8082394, 51.5461377 ], [ 9.8084632, 51.5460909 ], [ 9.8086518, 51.5460002 ], [ 9.8087623, 51.545878 ], [ 9.8088432, 51.5457465 ], [ 9.8088747, 51.5456014 ], [ 9.8087406, 51.5455801 ], [ 9.8085019, 51.5455533 ], [ 9.8082849, 51.5455204 ], [ 9.8082323, 51.5455071 ], [ 9.8080802, 51.5454687 ], [ 9.8079162, 51.54536 ], [ 9.8077336, 51.5452668 ], [ 9.8074979, 51.5452311 ], [ 9.8072856, 51.5452039 ], [ 9.8070803, 51.5451465 ], [ 9.8068798, 51.5450731 ], [ 9.8066842, 51.5449854 ], [ 9.8060352, 51.5448676 ], [ 9.8050552, 51.5445946 ], [ 9.804835, 51.5445387 ], [ 9.8053278, 51.5440716 ], [ 9.8052403, 51.5440374 ], [ 9.8052091, 51.5440252 ], [ 9.805185, 51.5440157 ], [ 9.8050877, 51.5440421 ], [ 9.8048756, 51.5440025 ], [ 9.8047701, 51.5439828 ], [ 9.804464, 51.5439256 ], [ 9.8044746, 51.5438971 ], [ 9.8045125, 51.5437952 ], [ 9.8045653, 51.5436535 ], [ 9.8047129, 51.5432577 ], [ 9.8047294, 51.5432131 ], [ 9.8047348, 51.5431988 ], [ 9.8047417, 51.5431803 ], [ 9.804805, 51.5430102 ], [ 9.8048152, 51.5429828 ], [ 9.8049157, 51.5427183 ], [ 9.8048513, 51.5427038 ], [ 9.8044935, 51.5426236 ], [ 9.8038464, 51.542488 ], [ 9.8039391, 51.5421302 ], [ 9.8040545, 51.5417005 ], [ 9.8042104, 51.5411204 ], [ 9.8031212, 51.5410653 ], [ 9.8028622, 51.5410522 ], [ 9.8028682, 51.5408896 ], [ 9.8028702, 51.5408342 ], [ 9.8028899, 51.5402662 ], [ 9.8028953, 51.5401082 ], [ 9.802098, 51.540071 ], [ 9.801946, 51.5400639 ], [ 9.8012998, 51.5400335 ], [ 9.8013008, 51.5400071 ], [ 9.8013022, 51.53997 ], [ 9.8011683, 51.539848 ], [ 9.8010522, 51.5397422 ], [ 9.8009484, 51.5396477 ], [ 9.8008307, 51.5395405 ], [ 9.8007099, 51.5394306 ], [ 9.8004389, 51.5391841 ], [ 9.80029, 51.5390139 ], [ 9.8002515, 51.5386164 ], [ 9.8002408, 51.5383937 ], [ 9.8002399, 51.5383752 ], [ 9.800222, 51.5381785 ], [ 9.8001991, 51.5379277 ], [ 9.8002021, 51.5376286 ], [ 9.8002012, 51.5375906 ], [ 9.8001902, 51.537109 ], [ 9.8001875, 51.536992 ], [ 9.8001682, 51.5361725 ], [ 9.8001662, 51.536089 ], [ 9.8001518, 51.5355075 ], [ 9.8001452, 51.5352428 ], [ 9.8001423, 51.5351274 ], [ 9.8001404, 51.5350501 ] ] ] } }
]
}
