{
"type": "FeatureCollection",
"name": "gutersloh_de",
"crs": { "type": "name", "properties": { "name": "urn:ogc:def:crs:OGC:1.3:CRS84" } },
"features": [
{ "type": "Feature", "properties": { "bbox_west": 8.2854784, "bbox_south": 51.8560093, "bbox_east": 8.50599, "bbox_north": 51.977117, "place_id": 138731855, "osm_type": "relation", "osm_id": 138119, "lat": 51.9166621, "lon": 8.4043282, "class": "boundary", "type": "administrative", "place_rank": 16, "importance": 0.53714906168235488, "addresstype": "city", "name": "Gütersloh", "display_name": "Gütersloh, Kreis Gütersloh, North Rhine-Westphalia, Germany" }, "geometry": { "type": "Polygon", "coordinates": [ [ [ 8.2854784, 51.9230267 ], [ 8.2873332, 51.9216929 ], [ 8.2875606, 51.9215523 ], [ 8.2877799, 51.9214503 ], [ 8.2878418, 51.9214232 ], [ 8.2879906, 51.9213717 ], [ 8.2911169, 51.9205125 ], [ 8.2913837, 51.9204475 ], [ 8.2917725, 51.9203615 ], [ 8.2921841, 51.920289 ], [ 8.2923764, 51.9202643 ], [ 8.2926313, 51.9202361 ], [ 8.2939789, 51.9201388 ], [ 8.2954291, 51.920034 ], [ 8.295712, 51.9200021 ], [ 8.2959842, 51.9199558 ], [ 8.2962663, 51.9198939 ], [ 8.2965291, 51.9198221 ], [ 8.2968308, 51.9197218 ], [ 8.2971264, 51.9196031 ], [ 8.2984736, 51.9190243 ], [ 8.2991384, 51.9187412 ], [ 8.2996371, 51.9185226 ], [ 8.2999255, 51.9183769 ], [ 8.3002541, 51.918192 ], [ 8.3008706, 51.9178485 ], [ 8.3032653, 51.9165211 ], [ 8.3052891, 51.9153929 ], [ 8.3053544, 51.9153548 ], [ 8.3057242, 51.9151617 ], [ 8.3059572, 51.9150565 ], [ 8.306208, 51.9149577 ], [ 8.3064671, 51.9148703 ], [ 8.3100482, 51.9138141 ], [ 8.3102759, 51.9137235 ], [ 8.3104841, 51.9136137 ], [ 8.3106717, 51.9134886 ], [ 8.3107506, 51.9134344 ], [ 8.3111636, 51.9131464 ], [ 8.3113455, 51.9130115 ], [ 8.3115299, 51.912856 ], [ 8.3116737, 51.9127241 ], [ 8.3118656, 51.912529 ], [ 8.3120017, 51.9123664 ], [ 8.3121032, 51.9122 ], [ 8.3123857, 51.9116387 ], [ 8.3129747, 51.910387 ], [ 8.3130342, 51.910222 ], [ 8.3130766, 51.9100629 ], [ 8.3130952, 51.9099773 ], [ 8.3131168, 51.9099029 ], [ 8.3131455, 51.9097852 ], [ 8.3130635, 51.9095991 ], [ 8.3128753, 51.9078035 ], [ 8.3128717, 51.9076836 ], [ 8.3129001, 51.9075746 ], [ 8.3129449, 51.9074561 ], [ 8.3130304, 51.9073025 ], [ 8.3131021, 51.9072094 ], [ 8.3131884, 51.9071198 ], [ 8.3132945, 51.9070302 ], [ 8.3133365, 51.9069991 ], [ 8.3137161, 51.9067588 ], [ 8.3136581, 51.9067247 ], [ 8.3136138, 51.9066988 ], [ 8.3135712, 51.9066978 ], [ 8.3127274, 51.9066792 ], [ 8.3123822, 51.9066716 ], [ 8.3143288, 51.9054589 ], [ 8.3149171, 51.9050924 ], [ 8.3149173, 51.9050922 ], [ 8.3149528, 51.9050702 ], [ 8.3150074, 51.9050362 ], [ 8.3152816, 51.9048653 ], [ 8.3155602, 51.9046917 ], [ 8.3159701, 51.9049486 ], [ 8.3161572, 51.9050658 ], [ 8.3161996, 51.9050924 ], [ 8.3162541, 51.905123 ], [ 8.3163034, 51.9051508 ], [ 8.3164851, 51.9050376 ], [ 8.3166539, 51.9049059 ], [ 8.3167973, 51.9047417 ], [ 8.3169125, 51.9045664 ], [ 8.3169922, 51.9043932 ], [ 8.3170516, 51.9042092 ], [ 8.3170887, 51.9040321 ], [ 8.3171059, 51.9038582 ], [ 8.3171053, 51.9036858 ], [ 8.3170846, 51.9035113 ], [ 8.3170342, 51.903333 ], [ 8.3169536, 51.903172 ], [ 8.3168301, 51.9030174 ], [ 8.3166775, 51.9028762 ], [ 8.3164876, 51.9027313 ], [ 8.3162863, 51.9025894 ], [ 8.3160733, 51.9024548 ], [ 8.314131, 51.9013101 ], [ 8.313849, 51.9011188 ], [ 8.3136782, 51.9009638 ], [ 8.3135109, 51.9007877 ], [ 8.3128427, 51.8999442 ], [ 8.3126704, 51.8996991 ], [ 8.3125956, 51.8995502 ], [ 8.3125478, 51.8994072 ], [ 8.312525, 51.8992975 ], [ 8.3125381, 51.8991896 ], [ 8.3125707, 51.8990906 ], [ 8.3126874, 51.8987926 ], [ 8.312752, 51.8986497 ], [ 8.3128251, 51.898509 ], [ 8.3129046, 51.8983731 ], [ 8.3144609, 51.8960091 ], [ 8.314521, 51.896022 ], [ 8.3145899, 51.8960369 ], [ 8.3151921, 51.8961667 ], [ 8.3151731, 51.8961119 ], [ 8.3152135, 51.8961132 ], [ 8.3152237, 51.8961135 ], [ 8.3152473, 51.8961143 ], [ 8.3152766, 51.8961152 ], [ 8.3153047, 51.8961169 ], [ 8.3153529, 51.8961198 ], [ 8.3157162, 51.8961419 ], [ 8.3156979, 51.8963509 ], [ 8.3162847, 51.8964956 ], [ 8.3170923, 51.8966948 ], [ 8.3171134, 51.8967 ], [ 8.317163, 51.8967123 ], [ 8.3171763, 51.8967155 ], [ 8.3169426, 51.8969623 ], [ 8.3169341, 51.8969713 ], [ 8.3169048, 51.8970023 ], [ 8.3170276, 51.8970232 ], [ 8.3187693, 51.8973198 ], [ 8.3195382, 51.8974508 ], [ 8.3200653, 51.8975404 ], [ 8.3221673, 51.8978979 ], [ 8.3222222, 51.8979073 ], [ 8.3222467, 51.8979114 ], [ 8.3222583, 51.8976817 ], [ 8.3222598, 51.8976515 ], [ 8.3222611, 51.8976438 ], [ 8.3223555, 51.897089 ], [ 8.3223728, 51.8969239 ], [ 8.3223879, 51.8967792 ], [ 8.3224026, 51.8966377 ], [ 8.3223762, 51.8964631 ], [ 8.3222843, 51.8961442 ], [ 8.3222693, 51.8961096 ], [ 8.3222692, 51.8961096 ], [ 8.3221769, 51.8958965 ], [ 8.322103, 51.8950867 ], [ 8.3239029, 51.8952542 ], [ 8.3241983, 51.8952367 ], [ 8.3245692, 51.8952146 ], [ 8.3254882, 51.89516 ], [ 8.3260566, 51.8951261 ], [ 8.3266372, 51.8950916 ], [ 8.3269328, 51.895074 ], [ 8.3281625, 51.8950009 ], [ 8.3283291, 51.894991 ], [ 8.3283447, 51.8949907 ], [ 8.3296355, 51.8949736 ], [ 8.33048, 51.894805 ], [ 8.329565, 51.8945084 ], [ 8.3299569, 51.8940426 ], [ 8.3299906, 51.8940025 ], [ 8.3302785, 51.89366 ], [ 8.3306378, 51.8932328 ], [ 8.3306402, 51.8931718 ], [ 8.3293873, 51.8927674 ], [ 8.3284777, 51.8924739 ], [ 8.3293542, 51.891843 ], [ 8.3293684, 51.8918327 ], [ 8.3290966, 51.8917073 ], [ 8.3289506, 51.89164 ], [ 8.3284446, 51.8914066 ], [ 8.3272568, 51.8909393 ], [ 8.3266427, 51.8906977 ], [ 8.3258571, 51.8902252 ], [ 8.3251153, 51.8894427 ], [ 8.3248808, 51.8891954 ], [ 8.3248345, 51.8891466 ], [ 8.3248391, 51.8892508 ], [ 8.3247826, 51.8892562 ], [ 8.3247305, 51.8892611 ], [ 8.3247189, 51.8892622 ], [ 8.3234407, 51.8894553 ], [ 8.3227709, 51.889564 ], [ 8.322245, 51.8889326 ], [ 8.3216094, 51.8881881 ], [ 8.3209991, 51.8875031 ], [ 8.3207858, 51.8875186 ], [ 8.3206127, 51.8875073 ], [ 8.3206069, 51.887507 ], [ 8.3206067, 51.8874992 ], [ 8.3206065, 51.8874935 ], [ 8.3206196, 51.8874729 ], [ 8.320633, 51.8874519 ], [ 8.3205801, 51.8872797 ], [ 8.3205584, 51.8872092 ], [ 8.3205508, 51.8871211 ], [ 8.3205788, 51.8871164 ], [ 8.3206603, 51.8871028 ], [ 8.3221057, 51.8868614 ], [ 8.3236478, 51.8866039 ], [ 8.3242491, 51.8869212 ], [ 8.3245147, 51.8871771 ], [ 8.3244829, 51.887224 ], [ 8.3245859, 51.887194 ], [ 8.3246089, 51.8871873 ], [ 8.3246674, 51.8871702 ], [ 8.3246876, 51.8871643 ], [ 8.3246919, 51.8871631 ], [ 8.3247811, 51.8870021 ], [ 8.3249005, 51.8868402 ], [ 8.3249283, 51.8868023 ], [ 8.3249527, 51.8867543 ], [ 8.3250764, 51.8865106 ], [ 8.3251651, 51.8863357 ], [ 8.3251926, 51.8862816 ], [ 8.3252544, 51.8861597 ], [ 8.3252744, 51.8861204 ], [ 8.3252361, 51.8857648 ], [ 8.3251864, 51.8854663 ], [ 8.325016, 51.8850747 ], [ 8.3250104, 51.885062 ], [ 8.3249984, 51.8850342 ], [ 8.3250738, 51.8850112 ], [ 8.3271224, 51.8843877 ], [ 8.3271694, 51.8843071 ], [ 8.3272112, 51.8842743 ], [ 8.3273241, 51.8841858 ], [ 8.3278056, 51.8839577 ], [ 8.328119, 51.8837832 ], [ 8.3292152, 51.8830515 ], [ 8.3293173, 51.8829834 ], [ 8.3285701, 51.8826138 ], [ 8.3270598, 51.8818668 ], [ 8.3267282, 51.8817028 ], [ 8.3258882, 51.8812874 ], [ 8.3258587, 51.8812728 ], [ 8.325532, 51.8811112 ], [ 8.3254846, 51.8810877 ], [ 8.3252606, 51.8809769 ], [ 8.3252367, 51.8809651 ], [ 8.3266909, 51.8791889 ], [ 8.3281794, 51.8773705 ], [ 8.3296494, 51.8755745 ], [ 8.3296555, 51.8755771 ], [ 8.3296901, 51.875592 ], [ 8.3300964, 51.8757671 ], [ 8.3303752, 51.8758872 ], [ 8.330572, 51.8757136 ], [ 8.3306138, 51.8756767 ], [ 8.3310982, 51.8752493 ], [ 8.3317678, 51.8746585 ], [ 8.331765, 51.8746088 ], [ 8.3317623, 51.8745597 ], [ 8.33176, 51.8745178 ], [ 8.3317738, 51.8745007 ], [ 8.3318557, 51.8743994 ], [ 8.3318661, 51.8744988 ], [ 8.3331766, 51.8751173 ], [ 8.3334552, 51.875249 ], [ 8.3350208, 51.8759888 ], [ 8.3352046, 51.8760756 ], [ 8.3352826, 51.8761125 ], [ 8.3374384, 51.8771311 ], [ 8.3375241, 51.8770688 ], [ 8.3375525, 51.8770483 ], [ 8.3375637, 51.8770403 ], [ 8.3376831, 51.8769543 ], [ 8.3377369, 51.8769244 ], [ 8.337755, 51.876936 ], [ 8.3377952, 51.8769617 ], [ 8.3378328, 51.8769857 ], [ 8.3378876, 51.8770207 ], [ 8.3379102, 51.8770352 ], [ 8.337991, 51.8771173 ], [ 8.3386885, 51.8775689 ], [ 8.3391751, 51.8778823 ], [ 8.3395684, 51.8781227 ], [ 8.33959, 51.8781359 ], [ 8.3396031, 51.8781439 ], [ 8.3396199, 51.8781542 ], [ 8.340112, 51.8784561 ], [ 8.3403883, 51.8786192 ], [ 8.3403911, 51.8786207 ], [ 8.3404099, 51.8786312 ], [ 8.3404276, 51.8786412 ], [ 8.3404543, 51.8786223 ], [ 8.3405121, 51.8785805 ], [ 8.3406022, 51.8785265 ], [ 8.3406795, 51.8784951 ], [ 8.3407722, 51.8785526 ], [ 8.3408123, 51.8785262 ], [ 8.3408728, 51.8784886 ], [ 8.3408838, 51.8784953 ], [ 8.3408941, 51.8785018 ], [ 8.3420655, 51.8792419 ], [ 8.3420971, 51.8792619 ], [ 8.3421714, 51.8792372 ], [ 8.3422429, 51.8792134 ], [ 8.3423943, 51.8793096 ], [ 8.3432087, 51.8798272 ], [ 8.3441918, 51.8804494 ], [ 8.344302, 51.8805192 ], [ 8.3447126, 51.8803743 ], [ 8.3448034, 51.8803819 ], [ 8.3452706, 51.880686 ], [ 8.3459736, 51.8811436 ], [ 8.3460916, 51.8812466 ], [ 8.3461039, 51.8812573 ], [ 8.3461413, 51.8812503 ], [ 8.3461932, 51.8812407 ], [ 8.3462157, 51.8812365 ], [ 8.3462269, 51.8812487 ], [ 8.3462315, 51.8812536 ], [ 8.3462664, 51.8812504 ], [ 8.3462866, 51.8812485 ], [ 8.346313, 51.8812377 ], [ 8.3464896, 51.8812063 ], [ 8.3465449, 51.8812003 ], [ 8.3466818, 51.881198 ], [ 8.3467699, 51.8811976 ], [ 8.3468091, 51.8812076 ], [ 8.346903, 51.8812202 ], [ 8.3469521, 51.8812381 ], [ 8.346999, 51.881237 ], [ 8.3470576, 51.8812203 ], [ 8.3470995, 51.8812146 ], [ 8.3472425, 51.8812108 ], [ 8.3473818, 51.8812106 ], [ 8.3474501, 51.8812562 ], [ 8.3474863, 51.8812699 ], [ 8.3475093, 51.8812676 ], [ 8.347525, 51.8812728 ], [ 8.3475574, 51.8812834 ], [ 8.3476275, 51.8813157 ], [ 8.347643, 51.8813229 ], [ 8.3489309, 51.8819161 ], [ 8.3489619, 51.8819305 ], [ 8.3489829, 51.881911 ], [ 8.3491117, 51.8817911 ], [ 8.3496389, 51.8817214 ], [ 8.3506842, 51.8815833 ], [ 8.3519439, 51.881415 ], [ 8.3522666, 51.8813724 ], [ 8.3534074, 51.8812218 ], [ 8.3540553, 51.880982 ], [ 8.35429, 51.8808952 ], [ 8.3543101, 51.8808454 ], [ 8.3543455, 51.8808819 ], [ 8.3543787, 51.8809163 ], [ 8.3544142, 51.880953 ], [ 8.354796, 51.8813479 ], [ 8.3548129, 51.8813655 ], [ 8.3548403, 51.8813939 ], [ 8.3548996, 51.8814551 ], [ 8.3550268, 51.8815863 ], [ 8.3551148, 51.8815777 ], [ 8.3552346, 51.8815659 ], [ 8.3553059, 51.8815588 ], [ 8.355237, 51.8814873 ], [ 8.3551254, 51.8813712 ], [ 8.3549364, 51.8811738 ], [ 8.3546919, 51.8809186 ], [ 8.3545178, 51.8807369 ], [ 8.3545419, 51.8807319 ], [ 8.3550539, 51.8806266 ], [ 8.3567162, 51.8802845 ], [ 8.3575883, 51.880105 ], [ 8.3577452, 51.8801571 ], [ 8.3578335, 51.8800361 ], [ 8.3580024, 51.8798044 ], [ 8.3580716, 51.8796936 ], [ 8.3582298, 51.879287 ], [ 8.3582842, 51.8791518 ], [ 8.3583939, 51.8788788 ], [ 8.3584968, 51.8786237 ], [ 8.358505, 51.8785817 ], [ 8.3585174, 51.8785177 ], [ 8.3585225, 51.8784914 ], [ 8.358797, 51.8772335 ], [ 8.3588709, 51.8768948 ], [ 8.3589398, 51.876579 ], [ 8.3589395, 51.8765673 ], [ 8.3589392, 51.8765528 ], [ 8.358939, 51.8765444 ], [ 8.3589957, 51.8759476 ], [ 8.3584504, 51.8758566 ], [ 8.357378, 51.8756687 ], [ 8.3571125, 51.8756221 ], [ 8.3572487, 51.8751985 ], [ 8.3573753, 51.8747218 ], [ 8.3573783, 51.8747106 ], [ 8.3573818, 51.8746952 ], [ 8.3574752, 51.8742802 ], [ 8.3575157, 51.8740837 ], [ 8.3574305, 51.8738891 ], [ 8.3572877, 51.8738529 ], [ 8.3571596, 51.8739509 ], [ 8.3570925, 51.8739778 ], [ 8.3570234, 51.8739707 ], [ 8.3570008, 51.8739754 ], [ 8.3566311, 51.8740521 ], [ 8.3565223, 51.8740935 ], [ 8.3560075, 51.8742894 ], [ 8.3558315, 51.8743096 ], [ 8.3556746, 51.8743028 ], [ 8.3556295, 51.8743008 ], [ 8.3556219, 51.8743005 ], [ 8.3555978, 51.8742995 ], [ 8.3558458, 51.8739378 ], [ 8.3558958, 51.8738648 ], [ 8.3560454, 51.8736465 ], [ 8.3561523, 51.8733559 ], [ 8.3561581, 51.873313 ], [ 8.3563564, 51.8726104 ], [ 8.356546, 51.8726328 ], [ 8.3575083, 51.8727461 ], [ 8.3578777, 51.8727896 ], [ 8.358176, 51.8720519 ], [ 8.3586639, 51.8720886 ], [ 8.3586998, 51.8720602 ], [ 8.358729, 51.8720371 ], [ 8.3587467, 51.8720231 ], [ 8.3590338, 51.8717966 ], [ 8.3590449, 51.8717879 ], [ 8.360067, 51.8709822 ], [ 8.3607266, 51.8704623 ], [ 8.3608396, 51.8703732 ], [ 8.3608497, 51.8703652 ], [ 8.3609096, 51.870332 ], [ 8.3609889, 51.8703026 ], [ 8.3610993, 51.8702168 ], [ 8.3611091, 51.8702069 ], [ 8.361114, 51.8702019 ], [ 8.3611338, 51.8701821 ], [ 8.3611113, 51.870171 ], [ 8.3610963, 51.8701636 ], [ 8.3610766, 51.8701539 ], [ 8.3631071, 51.8685501 ], [ 8.3649543, 51.8670907 ], [ 8.3649836, 51.8670674 ], [ 8.3649983, 51.8670664 ], [ 8.3649976, 51.8670452 ], [ 8.3649967, 51.8670185 ], [ 8.3649952, 51.866974 ], [ 8.3643084, 51.8649637 ], [ 8.3643029, 51.8649477 ], [ 8.3643002, 51.8649399 ], [ 8.3642977, 51.8649324 ], [ 8.3641715, 51.864563 ], [ 8.3641432, 51.8644802 ], [ 8.3641079, 51.8643769 ], [ 8.3641011, 51.864357 ], [ 8.3640475, 51.8642 ], [ 8.3640345, 51.8641622 ], [ 8.3639801, 51.8640028 ], [ 8.3639764, 51.863992 ], [ 8.3639607, 51.8638946 ], [ 8.3639572, 51.8638731 ], [ 8.3639564, 51.8638682 ], [ 8.363954, 51.8638536 ], [ 8.363949, 51.863823 ], [ 8.3663884, 51.8631288 ], [ 8.3670463, 51.8629426 ], [ 8.3682686, 51.8625897 ], [ 8.3683556, 51.8625599 ], [ 8.368744, 51.8624521 ], [ 8.3689267, 51.8624021 ], [ 8.3691115, 51.862324 ], [ 8.3693278, 51.8622195 ], [ 8.3694961, 51.862112 ], [ 8.3695537, 51.8620752 ], [ 8.37037, 51.8615538 ], [ 8.3715471, 51.8608019 ], [ 8.3716565, 51.8607424 ], [ 8.3716786, 51.8607304 ], [ 8.3718351, 51.8606244 ], [ 8.3718797, 51.8605883 ], [ 8.3722676, 51.8603468 ], [ 8.3730248, 51.8598723 ], [ 8.3731252, 51.8598178 ], [ 8.3732485, 51.8597604 ], [ 8.3735332, 51.8596475 ], [ 8.3746219, 51.8592108 ], [ 8.3747321, 51.8591662 ], [ 8.3750009, 51.8590609 ], [ 8.3751933, 51.8589851 ], [ 8.3753167, 51.8589342 ], [ 8.3763654, 51.858519 ], [ 8.3768704, 51.8583173 ], [ 8.3775748, 51.8580358 ], [ 8.3777067, 51.8579887 ], [ 8.3777377, 51.8579707 ], [ 8.3780274, 51.8578501 ], [ 8.378186, 51.8577852 ], [ 8.3784211, 51.8576892 ], [ 8.3787279, 51.8575676 ], [ 8.3791663, 51.8573933 ], [ 8.3795205, 51.8572389 ], [ 8.379623, 51.8572041 ], [ 8.3801032, 51.8570144 ], [ 8.3801835, 51.8569709 ], [ 8.3802962, 51.856932 ], [ 8.3803565, 51.8569151 ], [ 8.3806728, 51.8567879 ], [ 8.3807015, 51.8567664 ], [ 8.3810182, 51.8566353 ], [ 8.3810578, 51.8566235 ], [ 8.3812054, 51.8565971 ], [ 8.381346, 51.8565785 ], [ 8.3818497, 51.8565648 ], [ 8.382339, 51.8565859 ], [ 8.3829848, 51.8566139 ], [ 8.3832148, 51.8566294 ], [ 8.3834868, 51.8566141 ], [ 8.3872189, 51.8561193 ], [ 8.3873178, 51.8561063 ], [ 8.3874173, 51.8560984 ], [ 8.3880062, 51.8560186 ], [ 8.3880745, 51.8560093 ], [ 8.3884535, 51.8560303 ], [ 8.3886941, 51.8560683 ], [ 8.3887873, 51.8560834 ], [ 8.3890947, 51.8561155 ], [ 8.3894685, 51.8561585 ], [ 8.3896416, 51.85617 ], [ 8.3899023, 51.8562076 ], [ 8.3901145, 51.8562322 ], [ 8.3905428, 51.8562629 ], [ 8.3905692, 51.8562628 ], [ 8.3908581, 51.8563145 ], [ 8.3912199, 51.8563705 ], [ 8.3914184, 51.8563945 ], [ 8.3914614, 51.8563985 ], [ 8.3916424, 51.8564006 ], [ 8.391837, 51.8564134 ], [ 8.3918788, 51.8564219 ], [ 8.3920435, 51.8564457 ], [ 8.392188, 51.8564825 ], [ 8.3923305, 51.8564892 ], [ 8.3923959, 51.85649 ], [ 8.3925017, 51.8565105 ], [ 8.3925232, 51.8565215 ], [ 8.3925872, 51.8565251 ], [ 8.3927484, 51.8565501 ], [ 8.3927846, 51.8565641 ], [ 8.3928564, 51.8565645 ], [ 8.3929486, 51.8565618 ], [ 8.3929826, 51.8565689 ], [ 8.3931297, 51.8565905 ], [ 8.3931807, 51.856608 ], [ 8.3935509, 51.8566478 ], [ 8.3936314, 51.8566483 ], [ 8.3936976, 51.8566656 ], [ 8.3940841, 51.8567049 ], [ 8.3943102, 51.8567306 ], [ 8.39437, 51.8567325 ], [ 8.3944898, 51.8567561 ], [ 8.3946433, 51.8567754 ], [ 8.3946687, 51.8567833 ], [ 8.3952974, 51.8568433 ], [ 8.3957606, 51.8569013 ], [ 8.3960174, 51.8569258 ], [ 8.3962239, 51.8569507 ], [ 8.3964786, 51.856984 ], [ 8.3969338, 51.85702 ], [ 8.3970398, 51.8570417 ], [ 8.3971159, 51.8570744 ], [ 8.3971491, 51.8571277 ], [ 8.3972612, 51.8572023 ], [ 8.3974157, 51.8572539 ], [ 8.3976252, 51.8572855 ], [ 8.397961, 51.8573207 ], [ 8.3981661, 51.8573162 ], [ 8.3983879, 51.8572741 ], [ 8.3986427, 51.8571724 ], [ 8.3986496, 51.8571573 ], [ 8.398669, 51.8571531 ], [ 8.3987552, 51.8571202 ], [ 8.3988421, 51.857128 ], [ 8.3988769, 51.8571311 ], [ 8.399042, 51.8571587 ], [ 8.3991386, 51.8571563 ], [ 8.3992545, 51.8571977 ], [ 8.3998553, 51.8574877 ], [ 8.4000137, 51.8575389 ], [ 8.4001362, 51.8575832 ], [ 8.4002247, 51.8576515 ], [ 8.4003049, 51.8577331 ], [ 8.4003886, 51.8578007 ], [ 8.4004512, 51.857883 ], [ 8.4005682, 51.8580013 ], [ 8.4011213, 51.8585462 ], [ 8.4011851, 51.8586088 ], [ 8.4012081, 51.8586594 ], [ 8.401248, 51.8586985 ], [ 8.4014606, 51.8590076 ], [ 8.4018078, 51.8592997 ], [ 8.4022867, 51.8595468 ], [ 8.402583, 51.8596998 ], [ 8.4030074, 51.8599313 ], [ 8.4030393, 51.8599552 ], [ 8.4030663, 51.8599644 ], [ 8.4033471, 51.8600816 ], [ 8.4034051, 51.8600871 ], [ 8.4034959, 51.8601187 ], [ 8.4035933, 51.86012 ], [ 8.4040742, 51.8602089 ], [ 8.4040906, 51.8602178 ], [ 8.4041327, 51.8602145 ], [ 8.4044492, 51.8602676 ], [ 8.4044604, 51.8602774 ], [ 8.4046413, 51.8602874 ], [ 8.404697, 51.8603174 ], [ 8.4048635, 51.8603394 ], [ 8.4050548, 51.860438 ], [ 8.4053289, 51.8605242 ], [ 8.4053503, 51.860545 ], [ 8.4053762, 51.8605476 ], [ 8.4053961, 51.8605775 ], [ 8.405476, 51.8605877 ], [ 8.405625, 51.8606447 ], [ 8.4056506, 51.8606803 ], [ 8.405816, 51.8607502 ], [ 8.4058292, 51.8607615 ], [ 8.405863, 51.8607769 ], [ 8.406089, 51.8608863 ], [ 8.4061723, 51.860911 ], [ 8.4062028, 51.860922 ], [ 8.40636, 51.8609565 ], [ 8.4064842, 51.8609971 ], [ 8.4066426, 51.8610247 ], [ 8.4066837, 51.8610346 ], [ 8.4067864, 51.8610448 ], [ 8.4068171, 51.861043 ], [ 8.4068514, 51.8610531 ], [ 8.4071013, 51.8610575 ], [ 8.407142, 51.8610619 ], [ 8.4072037, 51.8610637 ], [ 8.4074754, 51.8611028 ], [ 8.4074884, 51.8611187 ], [ 8.4076274, 51.8611309 ], [ 8.407699, 51.8611322 ], [ 8.4077251, 51.8611448 ], [ 8.4077705, 51.8611341 ], [ 8.4077966, 51.8611388 ], [ 8.4078094, 51.8611457 ], [ 8.4078475, 51.8611575 ], [ 8.407889, 51.8611537 ], [ 8.4079074, 51.8611671 ], [ 8.4080243, 51.8611811 ], [ 8.408061, 51.8611817 ], [ 8.4081322, 51.8611955 ], [ 8.4083989, 51.8612402 ], [ 8.4086943, 51.8612872 ], [ 8.4088625, 51.8613106 ], [ 8.4092549, 51.8613432 ], [ 8.4093112, 51.8613436 ], [ 8.4093747, 51.8613518 ], [ 8.4095586, 51.8613637 ], [ 8.4100218, 51.8613898 ], [ 8.410457, 51.8614211 ], [ 8.4105369, 51.8614257 ], [ 8.4108067, 51.8614327 ], [ 8.4109501, 51.8614432 ], [ 8.4113373, 51.8614616 ], [ 8.4116969, 51.8614861 ], [ 8.4118052, 51.8614961 ], [ 8.4119969, 51.8615065 ], [ 8.4122056, 51.8615225 ], [ 8.4123356, 51.8615265 ], [ 8.4123995, 51.8615259 ], [ 8.4127412, 51.8615522 ], [ 8.412893, 51.8615714 ], [ 8.4129397, 51.8615802 ], [ 8.4131106, 51.8615937 ], [ 8.4132099, 51.8616044 ], [ 8.4132222, 51.8616115 ], [ 8.413408, 51.8616442 ], [ 8.4135559, 51.8616676 ], [ 8.4135603, 51.8616991 ], [ 8.4135616, 51.8617088 ], [ 8.4135646, 51.861738 ], [ 8.4140818, 51.8620134 ], [ 8.4144262, 51.8621647 ], [ 8.4146096, 51.8623415 ], [ 8.4150981, 51.8624475 ], [ 8.4155252, 51.8625352 ], [ 8.4156485, 51.8625978 ], [ 8.4156659, 51.8625801 ], [ 8.4161988, 51.8620382 ], [ 8.4162091, 51.8620277 ], [ 8.4162163, 51.8620204 ], [ 8.4163703, 51.8620421 ], [ 8.416386, 51.8620443 ], [ 8.4164548, 51.8620533 ], [ 8.4165461, 51.8620652 ], [ 8.416555, 51.8620666 ], [ 8.4166593, 51.8620837 ], [ 8.4167524, 51.8620989 ], [ 8.4167808, 51.8621036 ], [ 8.4167957, 51.8620734 ], [ 8.4168024, 51.86206 ], [ 8.4171146, 51.8620754 ], [ 8.417387, 51.8621169 ], [ 8.4175444, 51.8621671 ], [ 8.417645, 51.8622295 ], [ 8.4177943, 51.8623774 ], [ 8.4183037, 51.862745 ], [ 8.4187155, 51.8630233 ], [ 8.4192178, 51.8632671 ], [ 8.4196629, 51.8634624 ], [ 8.4199136, 51.8635952 ], [ 8.4219019, 51.864528 ], [ 8.4220516, 51.8646391 ], [ 8.4223573, 51.8648855 ], [ 8.4226777, 51.865137 ], [ 8.4228969, 51.8653418 ], [ 8.423032, 51.8654367 ], [ 8.4232225, 51.8655019 ], [ 8.4234752, 51.865543 ], [ 8.4243948, 51.8655844 ], [ 8.4245453, 51.865649 ], [ 8.4246354, 51.8657184 ], [ 8.4247118, 51.865856 ], [ 8.4248673, 51.8662519 ], [ 8.4249448, 51.866508 ], [ 8.4250265, 51.8666278 ], [ 8.4256575, 51.8673012 ], [ 8.4258494, 51.8675315 ], [ 8.4259518, 51.8675975 ], [ 8.4260649, 51.8676422 ], [ 8.426457, 51.8677337 ], [ 8.4266454, 51.8677709 ], [ 8.4267824, 51.8678143 ], [ 8.4269108, 51.8678867 ], [ 8.4271572, 51.8680964 ], [ 8.4272059, 51.8681378 ], [ 8.4273128, 51.8681987 ], [ 8.4274543, 51.8682258 ], [ 8.4276439, 51.8682268 ], [ 8.4280328, 51.8682011 ], [ 8.4286551, 51.8681511 ], [ 8.4288763, 51.8681382 ], [ 8.4292188, 51.8680958 ], [ 8.4293916, 51.8680943 ], [ 8.4296253, 51.8681475 ], [ 8.4297459, 51.8682082 ], [ 8.4298129, 51.8683011 ], [ 8.429836, 51.8682911 ], [ 8.4298475, 51.8682861 ], [ 8.4298537, 51.8682834 ], [ 8.4298683, 51.868277 ], [ 8.4310477, 51.868816 ], [ 8.431056, 51.86884 ], [ 8.431067, 51.8688721 ], [ 8.431074, 51.8688923 ], [ 8.4311133, 51.8689048 ], [ 8.4311997, 51.8689387 ], [ 8.4323796, 51.8694027 ], [ 8.4331225, 51.8696149 ], [ 8.4331483, 51.8696222 ], [ 8.4332064, 51.8695707 ], [ 8.4337495, 51.8696982 ], [ 8.4337676, 51.8697019 ], [ 8.4341815, 51.8697854 ], [ 8.434458, 51.8698413 ], [ 8.4344869, 51.8698471 ], [ 8.434615, 51.869873 ], [ 8.4353516, 51.8700218 ], [ 8.4357295, 51.8700981 ], [ 8.4353732, 51.8704109 ], [ 8.4353582, 51.8704241 ], [ 8.4353433, 51.8704381 ], [ 8.4353275, 51.8704531 ], [ 8.4355681, 51.8705681 ], [ 8.4356852, 51.8706501 ], [ 8.4357922, 51.8707509 ], [ 8.4359063, 51.8708202 ], [ 8.436326, 51.870941 ], [ 8.4371168, 51.8711411 ], [ 8.4376701, 51.8712816 ], [ 8.4379453, 51.8713362 ], [ 8.4383237, 51.8714237 ], [ 8.4384796, 51.8714655 ], [ 8.4386587, 51.8715334 ], [ 8.4387915, 51.8715903 ], [ 8.4389194, 51.8716512 ], [ 8.4391279, 51.8717214 ], [ 8.439388, 51.8718331 ], [ 8.4394674, 51.8718673 ], [ 8.4408921, 51.8724796 ], [ 8.440978, 51.8725326 ], [ 8.4410969, 51.8725801 ], [ 8.441744, 51.8728332 ], [ 8.442325, 51.8730904 ], [ 8.4425993, 51.8732082 ], [ 8.4429485, 51.8733511 ], [ 8.4433751, 51.873551 ], [ 8.4451071, 51.874293 ], [ 8.4460833, 51.8746943 ], [ 8.4462518, 51.874779 ], [ 8.4474396, 51.8755358 ], [ 8.4483011, 51.8760398 ], [ 8.4483789, 51.876075 ], [ 8.4492983, 51.8766271 ], [ 8.4494086, 51.8766892 ], [ 8.4494241, 51.8766985 ], [ 8.4494514, 51.8767148 ], [ 8.4495123, 51.8767538 ], [ 8.4496418, 51.876915 ], [ 8.4497516, 51.8770725 ], [ 8.4498664, 51.8772404 ], [ 8.4498782, 51.8772567 ], [ 8.4499123, 51.8773048 ], [ 8.4499586, 51.8773609 ], [ 8.4502305, 51.8776791 ], [ 8.4502997, 51.8777582 ], [ 8.4503543, 51.8778103 ], [ 8.4504027, 51.8778646 ], [ 8.4504245, 51.8778731 ], [ 8.4506115, 51.8779462 ], [ 8.4506818, 51.8779613 ], [ 8.4507362, 51.8779667 ], [ 8.4508378, 51.8779768 ], [ 8.4508695, 51.8779799 ], [ 8.4508991, 51.8779828 ], [ 8.4509626, 51.8780154 ], [ 8.4509781, 51.8780234 ], [ 8.4511059, 51.8780837 ], [ 8.451235, 51.8781556 ], [ 8.4513694, 51.8782304 ], [ 8.4514873, 51.8783074 ], [ 8.4515246, 51.8783317 ], [ 8.451643, 51.8783842 ], [ 8.4516885, 51.8783978 ], [ 8.4517875, 51.8784275 ], [ 8.4520363, 51.8785581 ], [ 8.4521503, 51.8786256 ], [ 8.4522058, 51.8786584 ], [ 8.452249, 51.8786839 ], [ 8.4524029, 51.8787822 ], [ 8.4524397, 51.8788057 ], [ 8.4525017, 51.8788433 ], [ 8.4525841, 51.8788933 ], [ 8.4525662, 51.8789064 ], [ 8.4525602, 51.8789107 ], [ 8.4525832, 51.8789241 ], [ 8.4526498, 51.8789636 ], [ 8.4526812, 51.8790043 ], [ 8.4526944, 51.8790724 ], [ 8.4527293, 51.8791694 ], [ 8.4527607, 51.8792565 ], [ 8.452771, 51.8793359 ], [ 8.4528018, 51.8793976 ], [ 8.4528914, 51.8795006 ], [ 8.4529422, 51.8795463 ], [ 8.4530156, 51.8796121 ], [ 8.4530605, 51.8796538 ], [ 8.453169, 51.8797547 ], [ 8.453254, 51.8798612 ], [ 8.4533804, 51.8799617 ], [ 8.4533616, 51.8799713 ], [ 8.453331, 51.8799868 ], [ 8.4533272, 51.8799888 ], [ 8.4533189, 51.879993 ], [ 8.4532322, 51.8800371 ], [ 8.4530005, 51.8801549 ], [ 8.4530605, 51.8802117 ], [ 8.4547136, 51.8820217 ], [ 8.4547215, 51.8820303 ], [ 8.4547498, 51.88206 ], [ 8.4549214, 51.8822397 ], [ 8.4549485, 51.882268 ], [ 8.4549985, 51.8823204 ], [ 8.4550756, 51.8824122 ], [ 8.4558561, 51.8832741 ], [ 8.455822, 51.8832879 ], [ 8.4557415, 51.8833204 ], [ 8.4557054, 51.883335 ], [ 8.4557017, 51.8833368 ], [ 8.4556733, 51.8833504 ], [ 8.4556677, 51.8833531 ], [ 8.4556407, 51.8833661 ], [ 8.4555754, 51.8833976 ], [ 8.4547028, 51.8838175 ], [ 8.4540105, 51.8841473 ], [ 8.4542585, 51.8844209 ], [ 8.4526869, 51.8847936 ], [ 8.4524251, 51.8846364 ], [ 8.4514172, 51.884895 ], [ 8.4513327, 51.8849368 ], [ 8.4509164, 51.8849464 ], [ 8.4504938, 51.8849168 ], [ 8.4503495, 51.8849067 ], [ 8.4502895, 51.8850062 ], [ 8.4503002, 51.8850858 ], [ 8.4500852, 51.8854033 ], [ 8.4497738, 51.8859217 ], [ 8.4495412, 51.8863091 ], [ 8.4494854, 51.8864669 ], [ 8.449457, 51.8864814 ], [ 8.4493894, 51.8865159 ], [ 8.4493679, 51.8865269 ], [ 8.4492805, 51.886518 ], [ 8.4488816, 51.8864999 ], [ 8.4487406, 51.8864899 ], [ 8.4482671, 51.8863593 ], [ 8.4479763, 51.8862786 ], [ 8.4479659, 51.8862757 ], [ 8.4478557, 51.8862451 ], [ 8.4478338, 51.8862926 ], [ 8.4478179, 51.8863272 ], [ 8.4478079, 51.8863487 ], [ 8.4477318, 51.8865136 ], [ 8.4476536, 51.8866831 ], [ 8.4475219, 51.8869685 ], [ 8.4470571, 51.8879759 ], [ 8.447052, 51.887987 ], [ 8.447049, 51.8879935 ], [ 8.4472283, 51.8880324 ], [ 8.4474037, 51.88807 ], [ 8.4475451, 51.8881279 ], [ 8.4475768, 51.8881313 ], [ 8.4476484, 51.8881388 ], [ 8.4476825, 51.8881686 ], [ 8.4477065, 51.8881896 ], [ 8.4477287, 51.888209 ], [ 8.4477406, 51.8882193 ], [ 8.4477288, 51.8882288 ], [ 8.447687, 51.8882627 ], [ 8.4471672, 51.8887309 ], [ 8.4468889, 51.8889803 ], [ 8.4462452, 51.8895721 ], [ 8.4460593, 51.8897301 ], [ 8.446648, 51.88992 ], [ 8.4466926, 51.8899466 ], [ 8.4470046, 51.8901333 ], [ 8.4471279, 51.8901942 ], [ 8.4475276, 51.8903915 ], [ 8.4477609, 51.8905067 ], [ 8.4478022, 51.8905252 ], [ 8.447981, 51.890595 ], [ 8.448251, 51.8906799 ], [ 8.4482453, 51.8906946 ], [ 8.4482421, 51.8907028 ], [ 8.4482165, 51.8907679 ], [ 8.4481376, 51.8909044 ], [ 8.4480633, 51.8910327 ], [ 8.4480556, 51.891046 ], [ 8.4480351, 51.8910814 ], [ 8.4480301, 51.8910901 ], [ 8.4479692, 51.8911953 ], [ 8.4479271, 51.891268 ], [ 8.4479237, 51.8912739 ], [ 8.4479942, 51.8913118 ], [ 8.4482364, 51.8914418 ], [ 8.448617, 51.8916458 ], [ 8.4488544, 51.891773 ], [ 8.4492048, 51.8919564 ], [ 8.449807, 51.8922621 ], [ 8.4502295, 51.8924767 ], [ 8.4502715, 51.8924967 ], [ 8.4509976, 51.8928427 ], [ 8.4516423, 51.8931492 ], [ 8.4522872, 51.8934342 ], [ 8.4523123, 51.8933882 ], [ 8.4523197, 51.8933746 ], [ 8.4530765, 51.893674 ], [ 8.4534204, 51.8938297 ], [ 8.4538199, 51.8940105 ], [ 8.4544873, 51.8943125 ], [ 8.4545134, 51.8943245 ], [ 8.4544117, 51.8943605 ], [ 8.4541771, 51.8944434 ], [ 8.4541302, 51.8944599 ], [ 8.4538975, 51.8945421 ], [ 8.4538009, 51.8945763 ], [ 8.4535099, 51.8947308 ], [ 8.4527857, 51.8950669 ], [ 8.4526599, 51.8951132 ], [ 8.4525836, 51.8951254 ], [ 8.4525126, 51.8951368 ], [ 8.4524935, 51.8951664 ], [ 8.4524774, 51.895187 ], [ 8.4524533, 51.8952181 ], [ 8.4524458, 51.8952278 ], [ 8.4524058, 51.8952781 ], [ 8.4522007, 51.8953586 ], [ 8.4521739, 51.8953692 ], [ 8.4520786, 51.8954066 ], [ 8.4515345, 51.8956202 ], [ 8.4504137, 51.8960796 ], [ 8.4503917, 51.8960886 ], [ 8.4503055, 51.8961242 ], [ 8.449665, 51.8963882 ], [ 8.449712, 51.8964157 ], [ 8.4497771, 51.8964536 ], [ 8.4498228, 51.8964803 ], [ 8.4498572, 51.8965004 ], [ 8.4537137, 51.8987511 ], [ 8.4539616, 51.8988958 ], [ 8.4544473, 51.8991793 ], [ 8.4550456, 51.8995285 ], [ 8.4551491, 51.8995888 ], [ 8.4554222, 51.8997482 ], [ 8.455432, 51.8998411 ], [ 8.4554935, 51.9004209 ], [ 8.4555035, 51.9005138 ], [ 8.4555059, 51.9005365 ], [ 8.4555089, 51.900565 ], [ 8.4555141, 51.9006136 ], [ 8.4555159, 51.9006306 ], [ 8.4555164, 51.9006352 ], [ 8.455529, 51.9007527 ], [ 8.4555316, 51.9007777 ], [ 8.4555623, 51.9010651 ], [ 8.4555716, 51.9011517 ], [ 8.4555731, 51.901166 ], [ 8.4555744, 51.9011783 ], [ 8.4555751, 51.9011844 ], [ 8.4555776, 51.9012077 ], [ 8.4556539, 51.901922 ], [ 8.4556541, 51.901924 ], [ 8.4556547, 51.9019296 ], [ 8.4556571, 51.9019521 ], [ 8.4556698, 51.9020706 ], [ 8.4557455, 51.9027795 ], [ 8.4557485, 51.9028078 ], [ 8.4557727, 51.9030339 ], [ 8.4558976, 51.9036311 ], [ 8.456044, 51.9043305 ], [ 8.4560498, 51.9043583 ], [ 8.4560525, 51.9043712 ], [ 8.4560803, 51.9045039 ], [ 8.4560908, 51.9045543 ], [ 8.4561503, 51.9048383 ], [ 8.4561535, 51.9048537 ], [ 8.4561547, 51.9048595 ], [ 8.4562409, 51.9052713 ], [ 8.4562465, 51.9052985 ], [ 8.4562525, 51.905327 ], [ 8.456257, 51.9053487 ], [ 8.4563767, 51.9053721 ], [ 8.4565774, 51.9054006 ], [ 8.4566959, 51.9054281 ], [ 8.45678, 51.9054477 ], [ 8.456876, 51.9054623 ], [ 8.45729, 51.9054949 ], [ 8.4575211, 51.9055369 ], [ 8.4576821, 51.9055661 ], [ 8.4577355, 51.9055758 ], [ 8.4581803, 51.9056565 ], [ 8.4584477, 51.9057071 ], [ 8.4587362, 51.9057617 ], [ 8.4589739, 51.9058066 ], [ 8.4591683, 51.9058434 ], [ 8.4592193, 51.9058318 ], [ 8.4592489, 51.905801 ], [ 8.4598655, 51.9058813 ], [ 8.4606593, 51.9060882 ], [ 8.4615211, 51.9063127 ], [ 8.4616831, 51.9063308 ], [ 8.4619623, 51.9063416 ], [ 8.4622077, 51.9063511 ], [ 8.4623324, 51.9063879 ], [ 8.4624612, 51.9064258 ], [ 8.4625312, 51.9064223 ], [ 8.4625488, 51.9064214 ], [ 8.4626236, 51.9064268 ], [ 8.4626963, 51.9064504 ], [ 8.4631082, 51.9066608 ], [ 8.4631112, 51.9066623 ], [ 8.4631511, 51.9067104 ], [ 8.4631798, 51.906745 ], [ 8.4632704, 51.9068542 ], [ 8.4632953, 51.9068842 ], [ 8.4634759, 51.9070121 ], [ 8.4636785, 51.9071673 ], [ 8.463991, 51.907281 ], [ 8.4642434, 51.9073892 ], [ 8.4643045, 51.9073857 ], [ 8.4643151, 51.9073851 ], [ 8.4643437, 51.9073834 ], [ 8.4643838, 51.9073811 ], [ 8.4644127, 51.9073728 ], [ 8.4644393, 51.9073651 ], [ 8.4645464, 51.9073341 ], [ 8.4647959, 51.9073356 ], [ 8.4648313, 51.9073358 ], [ 8.4649416, 51.9073365 ], [ 8.4649859, 51.9073402 ], [ 8.4650452, 51.907345 ], [ 8.4651634, 51.9073593 ], [ 8.4652257, 51.907414 ], [ 8.4652685, 51.9074517 ], [ 8.4653132, 51.9074613 ], [ 8.4653477, 51.9074732 ], [ 8.465376, 51.9074811 ], [ 8.465434, 51.9074977 ], [ 8.4654929, 51.9075144 ], [ 8.4655474, 51.9075251 ], [ 8.465702, 51.9075747 ], [ 8.4658105, 51.9076096 ], [ 8.465844, 51.9076203 ], [ 8.465946, 51.907655 ], [ 8.4659779, 51.9076659 ], [ 8.466033, 51.9076846 ], [ 8.4661952, 51.907672 ], [ 8.466508, 51.907765 ], [ 8.4666812, 51.9078842 ], [ 8.4668474, 51.9079523 ], [ 8.467062, 51.9080402 ], [ 8.4673282, 51.9081492 ], [ 8.4676457, 51.9082793 ], [ 8.4682478, 51.9083545 ], [ 8.4683715, 51.9083699 ], [ 8.4690313, 51.9084091 ], [ 8.4696633, 51.9085087 ], [ 8.4699246, 51.9085191 ], [ 8.4702214, 51.9085738 ], [ 8.4709987, 51.9086482 ], [ 8.4725066, 51.9087078 ], [ 8.4726546, 51.9087137 ], [ 8.473077, 51.9087304 ], [ 8.4733632, 51.9087619 ], [ 8.4735288, 51.9087801 ], [ 8.4735354, 51.9087607 ], [ 8.4739653, 51.9088195 ], [ 8.47441, 51.9088655 ], [ 8.4748007, 51.908917 ], [ 8.4755743, 51.9090038 ], [ 8.4756726, 51.9090246 ], [ 8.4757642, 51.909044 ], [ 8.4761742, 51.9090911 ], [ 8.4765233, 51.909123 ], [ 8.4766676, 51.9091357 ], [ 8.4767087, 51.9091401 ], [ 8.477235, 51.9091927 ], [ 8.4775415, 51.9091824 ], [ 8.4779056, 51.9091814 ], [ 8.4780206, 51.9091631 ], [ 8.4782578, 51.9091529 ], [ 8.4784268, 51.9092019 ], [ 8.4785605, 51.9092406 ], [ 8.4787379, 51.9092276 ], [ 8.4787561, 51.9092239 ], [ 8.4788313, 51.9091954 ], [ 8.4789914, 51.9091349 ], [ 8.4790483, 51.9091134 ], [ 8.4791406, 51.9090785 ], [ 8.4792501, 51.9090989 ], [ 8.4793808, 51.9091233 ], [ 8.4794838, 51.9091424 ], [ 8.4797371, 51.9091136 ], [ 8.4799252, 51.9091087 ], [ 8.4799426, 51.9091079 ], [ 8.4802871, 51.9090907 ], [ 8.4809387, 51.9090219 ], [ 8.4810779, 51.908996 ], [ 8.4813533, 51.9089778 ], [ 8.4819358, 51.9089638 ], [ 8.4825786, 51.9089998 ], [ 8.4829148, 51.9090425 ], [ 8.48354, 51.9092695 ], [ 8.4838681, 51.9093689 ], [ 8.4838793, 51.9093578 ], [ 8.4839002, 51.9093812 ], [ 8.4838886, 51.9093925 ], [ 8.4839789, 51.9094266 ], [ 8.4840652, 51.9094722 ], [ 8.484096, 51.9094886 ], [ 8.4841642, 51.9095062 ], [ 8.484328, 51.9095715 ], [ 8.4844434, 51.9096232 ], [ 8.4846493, 51.9096962 ], [ 8.4849188, 51.90977 ], [ 8.4851883, 51.9098263 ], [ 8.4854703, 51.9098606 ], [ 8.4857508, 51.9098793 ], [ 8.4860634, 51.9098916 ], [ 8.4869516, 51.9098915 ], [ 8.4871818, 51.9098705 ], [ 8.487299, 51.909901 ], [ 8.4875635, 51.9098933 ], [ 8.4881691, 51.9098993 ], [ 8.4886896, 51.9097948 ], [ 8.4887182, 51.9098064 ], [ 8.4888932, 51.9097756 ], [ 8.4891766, 51.9097476 ], [ 8.4900806, 51.9096901 ], [ 8.49021, 51.9096848 ], [ 8.4902427, 51.9096842 ], [ 8.490524, 51.9096476 ], [ 8.4906868, 51.909637 ], [ 8.4909255, 51.9096822 ], [ 8.4911095, 51.9096355 ], [ 8.4914117, 51.9095329 ], [ 8.4915816, 51.9095117 ], [ 8.4917232, 51.9095653 ], [ 8.4918586, 51.909528 ], [ 8.491974, 51.9092693 ], [ 8.4921031, 51.9090637 ], [ 8.4921626, 51.908969 ], [ 8.492273, 51.9089677 ], [ 8.4924719, 51.9089654 ], [ 8.4926182, 51.9089886 ], [ 8.4926593, 51.9089951 ], [ 8.4928941, 51.9089886 ], [ 8.4929814, 51.9090022 ], [ 8.4930987, 51.9090519 ], [ 8.4933774, 51.9092271 ], [ 8.4935016, 51.9093053 ], [ 8.4935102, 51.9093538 ], [ 8.4936106, 51.909378 ], [ 8.4937711, 51.909376 ], [ 8.494006, 51.9093375 ], [ 8.4941539, 51.909344 ], [ 8.4942428, 51.9093745 ], [ 8.494379, 51.9094637 ], [ 8.4944183, 51.9094961 ], [ 8.4944985, 51.909589 ], [ 8.4944886, 51.9096669 ], [ 8.4945389, 51.9097173 ], [ 8.4946463, 51.9097571 ], [ 8.4946859, 51.9098182 ], [ 8.4947187, 51.9098686 ], [ 8.4948561, 51.9099438 ], [ 8.4951981, 51.9100522 ], [ 8.4954909, 51.9101607 ], [ 8.495544, 51.9101781 ], [ 8.4956436, 51.9102073 ], [ 8.4956896, 51.9102197 ], [ 8.4960327, 51.9103604 ], [ 8.4960542, 51.9103687 ], [ 8.4961836, 51.910433 ], [ 8.4963339, 51.9105274 ], [ 8.4964492, 51.9105367 ], [ 8.4964778, 51.9105303 ], [ 8.4965604, 51.9104999 ], [ 8.4965709, 51.9105004 ], [ 8.4968359, 51.9104895 ], [ 8.4970131, 51.9105451 ], [ 8.4970225, 51.9105365 ], [ 8.4972275, 51.9105629 ], [ 8.4973648, 51.9106458 ], [ 8.4976067, 51.910698 ], [ 8.4976337, 51.9107224 ], [ 8.4976447, 51.9107323 ], [ 8.4976966, 51.9107792 ], [ 8.4977492, 51.9108267 ], [ 8.4978456, 51.9109137 ], [ 8.4978787, 51.9109355 ], [ 8.4979724, 51.9109976 ], [ 8.4980009, 51.9110165 ], [ 8.4980071, 51.9110206 ], [ 8.4980419, 51.9110436 ], [ 8.4980499, 51.9110489 ], [ 8.4980853, 51.9110724 ], [ 8.4982391, 51.9111781 ], [ 8.4983907, 51.9112502 ], [ 8.4984205, 51.9112792 ], [ 8.4984895, 51.9113463 ], [ 8.4985927, 51.9113716 ], [ 8.4986087, 51.911367 ], [ 8.4986728, 51.9113486 ], [ 8.4987136, 51.9113369 ], [ 8.4987386, 51.9113298 ], [ 8.4987896, 51.911298 ], [ 8.4988541, 51.9112565 ], [ 8.4989933, 51.9111667 ], [ 8.4990233, 51.9111427 ], [ 8.4991022, 51.9110795 ], [ 8.4991127, 51.9110693 ], [ 8.4991764, 51.911007 ], [ 8.4991802, 51.910904 ], [ 8.4992467, 51.9108782 ], [ 8.4994152, 51.9108907 ], [ 8.4994722, 51.910895 ], [ 8.4994742, 51.9108678 ], [ 8.49948, 51.9107854 ], [ 8.4994802, 51.9107833 ], [ 8.4995718, 51.9107331 ], [ 8.4996248, 51.9107251 ], [ 8.499777, 51.9107022 ], [ 8.4998015, 51.9107194 ], [ 8.4998403, 51.9107464 ], [ 8.4999535, 51.9108255 ], [ 8.5001564, 51.9108238 ], [ 8.5001899, 51.9107045 ], [ 8.5002706, 51.9106 ], [ 8.5004118, 51.9105664 ], [ 8.5004065, 51.9105371 ], [ 8.5004011, 51.9105076 ], [ 8.5003911, 51.9104531 ], [ 8.50038, 51.9103917 ], [ 8.5004719, 51.9103626 ], [ 8.5005313, 51.9103653 ], [ 8.5006311, 51.9103718 ], [ 8.5006908, 51.910377 ], [ 8.500767, 51.9104019 ], [ 8.5008051, 51.9103995 ], [ 8.500929, 51.9104409 ], [ 8.5011628, 51.9104591 ], [ 8.5012379, 51.9105523 ], [ 8.5012578, 51.9105769 ], [ 8.5012669, 51.9105882 ], [ 8.5013315, 51.9106234 ], [ 8.5015359, 51.9106308 ], [ 8.5017453, 51.9106524 ], [ 8.501852, 51.9106433 ], [ 8.5019274, 51.9106375 ], [ 8.5019655, 51.910626 ], [ 8.5019931, 51.9106422 ], [ 8.5021, 51.9107049 ], [ 8.5022126, 51.9107711 ], [ 8.5038442, 51.9117289 ], [ 8.5039985, 51.9118194 ], [ 8.5040805, 51.9118675 ], [ 8.5050183, 51.9124174 ], [ 8.5051101, 51.9124712 ], [ 8.5054656, 51.9134372 ], [ 8.5055487, 51.9136632 ], [ 8.5056176, 51.9138502 ], [ 8.5056529, 51.9139463 ], [ 8.5057049, 51.9140874 ], [ 8.505715, 51.914115 ], [ 8.5057461, 51.9141994 ], [ 8.5057498, 51.9142097 ], [ 8.5057607, 51.9142397 ], [ 8.5057682, 51.9142604 ], [ 8.5057929, 51.9143284 ], [ 8.5059687, 51.9148125 ], [ 8.5059836, 51.9148535 ], [ 8.50599, 51.9148711 ], [ 8.5058888, 51.9154002 ], [ 8.5058873, 51.9154106 ], [ 8.5058833, 51.9154242 ], [ 8.5056183, 51.916803 ], [ 8.5055999, 51.9168956 ], [ 8.505531, 51.9172574 ], [ 8.5055196, 51.9173195 ], [ 8.5052823, 51.9185486 ], [ 8.5051129, 51.9193819 ], [ 8.5050262, 51.9198143 ], [ 8.5046905, 51.9214644 ], [ 8.5045911, 51.9217843 ], [ 8.504498, 51.9221831 ], [ 8.5044812, 51.9222263 ], [ 8.5044727, 51.9222463 ], [ 8.5038286, 51.923384 ], [ 8.5036585, 51.9234221 ], [ 8.5033884, 51.92348 ], [ 8.5031833, 51.923525 ], [ 8.5029203, 51.9235835 ], [ 8.5028328, 51.923638 ], [ 8.5024303, 51.9238887 ], [ 8.5020582, 51.9241214 ], [ 8.501933, 51.9242011 ], [ 8.5018562, 51.9242488 ], [ 8.5015344, 51.9245252 ], [ 8.5010482, 51.9249453 ], [ 8.5009503, 51.9250482 ], [ 8.4991655, 51.9269361 ], [ 8.4988698, 51.927318 ], [ 8.4969771, 51.9297462 ], [ 8.4966059, 51.9302246 ], [ 8.496556, 51.9302885 ], [ 8.4965455, 51.9303015 ], [ 8.4960981, 51.9311417 ], [ 8.4968037, 51.931767 ], [ 8.4971629, 51.932132 ], [ 8.4982537, 51.933221 ], [ 8.497265, 51.9339352 ], [ 8.496649, 51.9344031 ], [ 8.4965724, 51.9344637 ], [ 8.4963236, 51.9346253 ], [ 8.4954504, 51.9351974 ], [ 8.4954018, 51.9352162 ], [ 8.4952651, 51.9352702 ], [ 8.4948652, 51.935426 ], [ 8.4941116, 51.9356889 ], [ 8.4951952, 51.9364383 ], [ 8.4949277, 51.9367203 ], [ 8.4948757, 51.9367764 ], [ 8.4948205, 51.9368363 ], [ 8.4944265, 51.9372061 ], [ 8.4942261, 51.9373885 ], [ 8.4941019, 51.9374863 ], [ 8.4939869, 51.9375777 ], [ 8.4936714, 51.9378341 ], [ 8.4935425, 51.9379965 ], [ 8.4934099, 51.9381649 ], [ 8.4933394, 51.9382405 ], [ 8.4933437, 51.9382585 ], [ 8.4933031, 51.938271 ], [ 8.4932616, 51.9382838 ], [ 8.493505, 51.9387994 ], [ 8.4939915, 51.939839 ], [ 8.493558, 51.9398796 ], [ 8.4934888, 51.9398862 ], [ 8.4929077, 51.9399413 ], [ 8.4925076, 51.9399792 ], [ 8.4908021, 51.9401409 ], [ 8.4909857, 51.9405422 ], [ 8.4910424, 51.9406719 ], [ 8.4912593, 51.941143 ], [ 8.4914411, 51.9415389 ], [ 8.4911168, 51.9418565 ], [ 8.4909117, 51.9420593 ], [ 8.4907151, 51.9422518 ], [ 8.490525, 51.9424372 ], [ 8.4905701, 51.9424581 ], [ 8.49021, 51.9428075 ], [ 8.489911, 51.9430968 ], [ 8.4898718, 51.9431337 ], [ 8.4897586, 51.9430225 ], [ 8.4896875, 51.9429521 ], [ 8.4895433, 51.9428131 ], [ 8.4892872, 51.9425641 ], [ 8.4892167, 51.9425958 ], [ 8.4891346, 51.9426283 ], [ 8.4871054, 51.943447 ], [ 8.487635, 51.9439718 ], [ 8.4874781, 51.9441453 ], [ 8.4871827, 51.9446851 ], [ 8.4873603, 51.9448321 ], [ 8.4868596, 51.9453143 ], [ 8.4854422, 51.9444398 ], [ 8.485267, 51.9443312 ], [ 8.4851693, 51.9442709 ], [ 8.4848303, 51.9440616 ], [ 8.4844531, 51.9444985 ], [ 8.4834259, 51.9440389 ], [ 8.4834073, 51.9440703 ], [ 8.4831066, 51.9445837 ], [ 8.4828866, 51.94495 ], [ 8.4827671, 51.9451524 ], [ 8.4825545, 51.9455127 ], [ 8.4825399, 51.9455374 ], [ 8.4806572, 51.9454056 ], [ 8.4806504, 51.9453578 ], [ 8.4806081, 51.9453302 ], [ 8.4806081, 51.9453262 ], [ 8.480388, 51.9453155 ], [ 8.4803878, 51.94531 ], [ 8.4803855, 51.9452585 ], [ 8.4799231, 51.9452195 ], [ 8.4793273, 51.94517 ], [ 8.4787194, 51.9451401 ], [ 8.4782927, 51.9451369 ], [ 8.4777601, 51.9451203 ], [ 8.4772353, 51.9451028 ], [ 8.4771951, 51.9450913 ], [ 8.4768106, 51.944981 ], [ 8.4760046, 51.9447473 ], [ 8.4760037, 51.9447496 ], [ 8.4759095, 51.944723 ], [ 8.4758258, 51.9446881 ], [ 8.4757291, 51.9446982 ], [ 8.4751259, 51.9445574 ], [ 8.4745593, 51.9444357 ], [ 8.4745461, 51.9444328 ], [ 8.4744233, 51.9444116 ], [ 8.474125, 51.944362 ], [ 8.473236, 51.9444393 ], [ 8.4731487, 51.9444468 ], [ 8.4723428, 51.9445163 ], [ 8.4728814, 51.9438629 ], [ 8.4697193, 51.9435996 ], [ 8.4697536, 51.943938 ], [ 8.4697863, 51.9442618 ], [ 8.4698409, 51.9448131 ], [ 8.4706927, 51.9449588 ], [ 8.4708328, 51.9449863 ], [ 8.4709861, 51.9450483 ], [ 8.4710519, 51.9450544 ], [ 8.4711501, 51.9450984 ], [ 8.4712639, 51.9451112 ], [ 8.4714601, 51.9451792 ], [ 8.4720233, 51.9450999 ], [ 8.4720634, 51.9450756 ], [ 8.4721029, 51.9450886 ], [ 8.4721497, 51.9451489 ], [ 8.47219, 51.9452168 ], [ 8.4721578, 51.945313 ], [ 8.4722336, 51.9454988 ], [ 8.4722337, 51.9458664 ], [ 8.4722006, 51.9460201 ], [ 8.4721329, 51.9461706 ], [ 8.4720727, 51.9462652 ], [ 8.4719984, 51.9463787 ], [ 8.4707632, 51.9462132 ], [ 8.4705506, 51.946715 ], [ 8.470363, 51.9471561 ], [ 8.4700926, 51.9477692 ], [ 8.4697545, 51.9485548 ], [ 8.4696001, 51.9488373 ], [ 8.4693977, 51.949126 ], [ 8.4693615, 51.9491743 ], [ 8.4691075, 51.9495166 ], [ 8.4690841, 51.9495844 ], [ 8.469094, 51.9496104 ], [ 8.4688635, 51.9496366 ], [ 8.4686939, 51.9496452 ], [ 8.4686183, 51.9496275 ], [ 8.4685423, 51.9496175 ], [ 8.4684998, 51.9496272 ], [ 8.4683977, 51.9496304 ], [ 8.4683304, 51.9496569 ], [ 8.4682954, 51.9497126 ], [ 8.4682445, 51.9497506 ], [ 8.4681623, 51.9497685 ], [ 8.468098, 51.9497533 ], [ 8.467824, 51.9497767 ], [ 8.467704, 51.9498323 ], [ 8.4676252, 51.9498307 ], [ 8.467399, 51.9498787 ], [ 8.4672131, 51.9498831 ], [ 8.4671996, 51.9498921 ], [ 8.4672297, 51.9499896 ], [ 8.4673281, 51.9500312 ], [ 8.4673592, 51.9500576 ], [ 8.4672563, 51.9501125 ], [ 8.4672012, 51.9501331 ], [ 8.4671462, 51.9502258 ], [ 8.4670835, 51.9503146 ], [ 8.4671133, 51.9503494 ], [ 8.4669785, 51.9503913 ], [ 8.4668312, 51.9503622 ], [ 8.4667472, 51.9503332 ], [ 8.4667027, 51.9503318 ], [ 8.4666308, 51.9503273 ], [ 8.4665821, 51.950324 ], [ 8.4664659, 51.9503238 ], [ 8.4664394, 51.9503052 ], [ 8.4662936, 51.9502446 ], [ 8.4661476, 51.950156 ], [ 8.4658026, 51.9500438 ], [ 8.4652982, 51.9499045 ], [ 8.4652964, 51.9499141 ], [ 8.4648234, 51.9498998 ], [ 8.4646674, 51.9498951 ], [ 8.4644445, 51.9498742 ], [ 8.4643473, 51.9498888 ], [ 8.4631225, 51.9495199 ], [ 8.4624333, 51.9493133 ], [ 8.4620895, 51.9491581 ], [ 8.4617465, 51.9491411 ], [ 8.4613492, 51.94917 ], [ 8.4611447, 51.9491824 ], [ 8.4609047, 51.9491855 ], [ 8.4607558, 51.9491745 ], [ 8.4603471, 51.9491438 ], [ 8.4599286, 51.9491115 ], [ 8.459834, 51.9491048 ], [ 8.4581606, 51.9490101 ], [ 8.4581107, 51.9490069 ], [ 8.4580799, 51.9490049 ], [ 8.457247, 51.9489551 ], [ 8.4567445, 51.948926 ], [ 8.4555197, 51.9488081 ], [ 8.4544482, 51.9487096 ], [ 8.4537646, 51.9486418 ], [ 8.4529294, 51.9485216 ], [ 8.4526555, 51.9484849 ], [ 8.452398, 51.9484499 ], [ 8.4521114, 51.948415 ], [ 8.4520206, 51.9484052 ], [ 8.4519184, 51.9483934 ], [ 8.4518011, 51.9483793 ], [ 8.4516952, 51.9483663 ], [ 8.4515665, 51.948351 ], [ 8.4511769, 51.9483048 ], [ 8.4510495, 51.9482897 ], [ 8.4507591, 51.9482485 ], [ 8.449925, 51.9481262 ], [ 8.4491432, 51.9480476 ], [ 8.4470708, 51.9478697 ], [ 8.4457682, 51.9477301 ], [ 8.4457729, 51.9476805 ], [ 8.4450174, 51.9467588 ], [ 8.4444952, 51.9467329 ], [ 8.4443569, 51.9467258 ], [ 8.4429301, 51.9466521 ], [ 8.4421982, 51.9466139 ], [ 8.4418309, 51.9465948 ], [ 8.4416433, 51.946585 ], [ 8.4414706, 51.9465763 ], [ 8.4414758, 51.946524 ], [ 8.4412819, 51.9465134 ], [ 8.4394728, 51.946147 ], [ 8.4385568, 51.9459606 ], [ 8.4373215, 51.9456084 ], [ 8.437435, 51.9454735 ], [ 8.4372739, 51.9454817 ], [ 8.4372525, 51.9455077 ], [ 8.4371267, 51.945473 ], [ 8.4369157, 51.9454494 ], [ 8.4368536, 51.9454258 ], [ 8.4368122, 51.9453354 ], [ 8.4367851, 51.9453198 ], [ 8.436738, 51.9453116 ], [ 8.4366217, 51.9453614 ], [ 8.4366023, 51.9453461 ], [ 8.4365236, 51.945287 ], [ 8.4364354, 51.9452628 ], [ 8.4363569, 51.9452826 ], [ 8.4363426, 51.9453582 ], [ 8.4361981, 51.945321 ], [ 8.4360888, 51.9453164 ], [ 8.435836, 51.9453775 ], [ 8.4357777, 51.945442 ], [ 8.4356838, 51.9454785 ], [ 8.4355211, 51.9454019 ], [ 8.4353577, 51.945555 ], [ 8.4353541, 51.945588 ], [ 8.4353834, 51.9456127 ], [ 8.4354678, 51.9456355 ], [ 8.4355061, 51.945693 ], [ 8.4354157, 51.9457523 ], [ 8.4353095, 51.9457669 ], [ 8.4352115, 51.9457495 ], [ 8.4350806, 51.9457884 ], [ 8.4350021, 51.945784 ], [ 8.4348469, 51.9457589 ], [ 8.434556, 51.9457938 ], [ 8.4344842, 51.9458338 ], [ 8.4344805, 51.9459098 ], [ 8.4342918, 51.9459407 ], [ 8.4342507, 51.9459608 ], [ 8.4340878, 51.9459804 ], [ 8.4339555, 51.946065 ], [ 8.4338786, 51.9460981 ], [ 8.4337414, 51.9461169 ], [ 8.4336187, 51.9460976 ], [ 8.4335668, 51.9460758 ], [ 8.4335143, 51.9460679 ], [ 8.433458, 51.9461155 ], [ 8.4333417, 51.9461589 ], [ 8.433209, 51.9461547 ], [ 8.4331155, 51.9461061 ], [ 8.432761, 51.9460711 ], [ 8.4325643, 51.9460944 ], [ 8.4324223, 51.94609 ], [ 8.4322501, 51.9460497 ], [ 8.4319785, 51.9459627 ], [ 8.4315138, 51.94569 ], [ 8.4314562, 51.9456654 ], [ 8.4313475, 51.9456489 ], [ 8.43129, 51.9456707 ], [ 8.4312374, 51.9457109 ], [ 8.4311246, 51.9457669 ], [ 8.4311436, 51.9457803 ], [ 8.430993, 51.9458429 ], [ 8.4309797, 51.9458331 ], [ 8.4309429, 51.9458438 ], [ 8.4308689, 51.9458452 ], [ 8.4308045, 51.945832 ], [ 8.4307787, 51.9458141 ], [ 8.4307375, 51.945812 ], [ 8.4307259, 51.9458113 ], [ 8.430411, 51.9456589 ], [ 8.4303629, 51.9456 ], [ 8.429822, 51.945301 ], [ 8.4296523, 51.9452529 ], [ 8.4296171, 51.9452246 ], [ 8.4295159, 51.9452036 ], [ 8.4293121, 51.9451065 ], [ 8.4293493, 51.9450784 ], [ 8.4292573, 51.9450387 ], [ 8.4291617, 51.9450324 ], [ 8.4290944, 51.9450081 ], [ 8.4290324, 51.9449574 ], [ 8.4290454, 51.944908 ], [ 8.428797, 51.9448001 ], [ 8.4286958, 51.9447579 ], [ 8.4285757, 51.9447134 ], [ 8.4285039, 51.944696 ], [ 8.4284103, 51.9446881 ], [ 8.4282427, 51.9446939 ], [ 8.4281676, 51.9446779 ], [ 8.4280932, 51.944649 ], [ 8.4280015, 51.9445742 ], [ 8.4279684, 51.9445671 ], [ 8.4279368, 51.9445818 ], [ 8.4279989, 51.9446486 ], [ 8.4280018, 51.9446777 ], [ 8.4279562, 51.9447169 ], [ 8.4279143, 51.9447306 ], [ 8.4278262, 51.9447317 ], [ 8.4277806, 51.944721 ], [ 8.4276089, 51.9446946 ], [ 8.4274088, 51.9446303 ], [ 8.4271895, 51.9446487 ], [ 8.4271044, 51.9446794 ], [ 8.4269778, 51.9447142 ], [ 8.4269192, 51.9447435 ], [ 8.4268952, 51.9448011 ], [ 8.4267926, 51.9450659 ], [ 8.4265536, 51.945678 ], [ 8.4265282, 51.9457436 ], [ 8.4265235, 51.9457572 ], [ 8.4277557, 51.9457042 ], [ 8.4281436, 51.9457677 ], [ 8.4279016, 51.9461416 ], [ 8.42783, 51.9462499 ], [ 8.4277112, 51.9464219 ], [ 8.4275643, 51.946612 ], [ 8.4274579, 51.946748 ], [ 8.4274134, 51.9468014 ], [ 8.4272878, 51.9469653 ], [ 8.4268673, 51.9475735 ], [ 8.4268319, 51.9476238 ], [ 8.426564, 51.9480092 ], [ 8.4262769, 51.9483534 ], [ 8.4256348, 51.9490679 ], [ 8.4247262, 51.9500801 ], [ 8.4244752, 51.9503595 ], [ 8.4242103, 51.9506545 ], [ 8.4240982, 51.9507985 ], [ 8.4239175, 51.9510275 ], [ 8.423719, 51.9512842 ], [ 8.4236914, 51.9513105 ], [ 8.4236424, 51.9513307 ], [ 8.4235928, 51.9513389 ], [ 8.423692, 51.951388 ], [ 8.4237211, 51.9514024 ], [ 8.4237661, 51.9514268 ], [ 8.4237902, 51.951467 ], [ 8.4238462, 51.9515632 ], [ 8.4238079, 51.9516283 ], [ 8.4237294, 51.9517635 ], [ 8.4236698, 51.9518682 ], [ 8.4234773, 51.9521926 ], [ 8.4232531, 51.9525767 ], [ 8.423068, 51.9527965 ], [ 8.423031, 51.9528447 ], [ 8.4232147, 51.9530205 ], [ 8.4229691, 51.9533003 ], [ 8.4229242, 51.9533491 ], [ 8.4228365, 51.9534132 ], [ 8.4227849, 51.9534845 ], [ 8.4227429, 51.9535853 ], [ 8.4226563, 51.9537065 ], [ 8.4225303, 51.9539273 ], [ 8.422505, 51.9540108 ], [ 8.4225128, 51.9540995 ], [ 8.4224177, 51.9541324 ], [ 8.4221074, 51.9542197 ], [ 8.4219438, 51.9542839 ], [ 8.4218595, 51.9543298 ], [ 8.4216884, 51.9543942 ], [ 8.4215753, 51.9544178 ], [ 8.4214421, 51.9544274 ], [ 8.4211661, 51.9543887 ], [ 8.421008, 51.9550126 ], [ 8.4209676, 51.9551715 ], [ 8.4208722, 51.955554 ], [ 8.4208504, 51.9556111 ], [ 8.4208302, 51.9556698 ], [ 8.4209324, 51.9557217 ], [ 8.4209183, 51.955789 ], [ 8.420903, 51.955849 ], [ 8.4207282, 51.9560074 ], [ 8.4205304, 51.9562033 ], [ 8.4204598, 51.9563006 ], [ 8.4204103, 51.9563737 ], [ 8.4202933, 51.9565491 ], [ 8.4201811, 51.9567388 ], [ 8.4201875, 51.9567595 ], [ 8.4207465, 51.9570563 ], [ 8.4207513, 51.9571746 ], [ 8.4207552, 51.9571969 ], [ 8.4208207, 51.9575651 ], [ 8.4208841, 51.9579822 ], [ 8.4208175, 51.9580971 ], [ 8.4203282, 51.9588859 ], [ 8.4202755, 51.9589669 ], [ 8.419702, 51.9598489 ], [ 8.4196813, 51.9598799 ], [ 8.419659, 51.9599155 ], [ 8.4194948, 51.9598419 ], [ 8.419073, 51.959751 ], [ 8.4188473, 51.9597017 ], [ 8.4182831, 51.9595886 ], [ 8.4179996, 51.9595114 ], [ 8.4178745, 51.9594685 ], [ 8.4178376, 51.9594559 ], [ 8.417781, 51.9594369 ], [ 8.417625, 51.9593702 ], [ 8.4170605, 51.959089 ], [ 8.4169157, 51.959036 ], [ 8.4159623, 51.9589979 ], [ 8.4157625, 51.9589857 ], [ 8.4156276, 51.958979 ], [ 8.4152638, 51.9590147 ], [ 8.4152669, 51.9590229 ], [ 8.4151748, 51.9590334 ], [ 8.415067, 51.9590457 ], [ 8.4152602, 51.9593679 ], [ 8.4154782, 51.9597302 ], [ 8.4156581, 51.9600232 ], [ 8.4157347, 51.9601503 ], [ 8.4158654, 51.9603671 ], [ 8.4159689, 51.9605272 ], [ 8.4151974, 51.960779 ], [ 8.4152023, 51.9609635 ], [ 8.4149117, 51.9609313 ], [ 8.4141716, 51.960851 ], [ 8.4138733, 51.9607536 ], [ 8.4130827, 51.9604955 ], [ 8.4130427, 51.9604688 ], [ 8.4130304, 51.9604573 ], [ 8.4132011, 51.960223 ], [ 8.4136204, 51.9598741 ], [ 8.4139092, 51.9596505 ], [ 8.4142491, 51.9593765 ], [ 8.4142296, 51.9593635 ], [ 8.4136394, 51.9592685 ], [ 8.4129115, 51.9591515 ], [ 8.4123164, 51.9590566 ], [ 8.4109714, 51.9588405 ], [ 8.4107958, 51.9588197 ], [ 8.4106899, 51.9591266 ], [ 8.4083003, 51.9589105 ], [ 8.4082366, 51.9589059 ], [ 8.408179, 51.9588946 ], [ 8.4081062, 51.9588818 ], [ 8.4080151, 51.9590442 ], [ 8.4079736, 51.9591316 ], [ 8.4079534, 51.9592131 ], [ 8.4079481, 51.9592647 ], [ 8.407966, 51.9594564 ], [ 8.4079541, 51.9595151 ], [ 8.4079417, 51.9595856 ], [ 8.4078332, 51.9600256 ], [ 8.4077874, 51.9601867 ], [ 8.4073472, 51.9601429 ], [ 8.4067374, 51.9600698 ], [ 8.4067432, 51.9600349 ], [ 8.4068963, 51.9591071 ], [ 8.4069369, 51.9588526 ], [ 8.4067965, 51.9588228 ], [ 8.4064223, 51.9587414 ], [ 8.4061443, 51.9586703 ], [ 8.405711, 51.9586049 ], [ 8.4056843, 51.9586009 ], [ 8.4053851, 51.9586139 ], [ 8.4051351, 51.9586034 ], [ 8.4050162, 51.9586198 ], [ 8.4049922, 51.958623 ], [ 8.4049892, 51.9586285 ], [ 8.4045128, 51.9585364 ], [ 8.4044274, 51.9586622 ], [ 8.4043297, 51.9587739 ], [ 8.4042854, 51.9588205 ], [ 8.4042158, 51.9589073 ], [ 8.4041378, 51.9590065 ], [ 8.4040614, 51.959104 ], [ 8.4040265, 51.9590876 ], [ 8.4039607, 51.9591474 ], [ 8.4040099, 51.9591691 ], [ 8.4039882, 51.9592277 ], [ 8.4039679, 51.959286 ], [ 8.4039597, 51.9592863 ], [ 8.4039325, 51.9592744 ], [ 8.4037118, 51.9592027 ], [ 8.4033867, 51.959104 ], [ 8.4026684, 51.958903 ], [ 8.402444, 51.9588524 ], [ 8.4020381, 51.9587536 ], [ 8.4013536, 51.9585958 ], [ 8.4006727, 51.9584421 ], [ 8.3999878, 51.9582925 ], [ 8.3993042, 51.9581423 ], [ 8.3988092, 51.9580338 ], [ 8.3986169, 51.9579916 ], [ 8.3982719, 51.9579148 ], [ 8.3980999, 51.9578765 ], [ 8.3980126, 51.9578571 ], [ 8.3979697, 51.9578479 ], [ 8.3979328, 51.9578397 ], [ 8.3975909, 51.957763 ], [ 8.3972483, 51.9576869 ], [ 8.3962674, 51.9574671 ], [ 8.3961658, 51.9575207 ], [ 8.396163, 51.9575222 ], [ 8.3961133, 51.9575487 ], [ 8.3960686, 51.9575732 ], [ 8.3954079, 51.9589373 ], [ 8.3953619, 51.9590327 ], [ 8.3952733, 51.9594282 ], [ 8.3950319, 51.9604957 ], [ 8.3950271, 51.9605095 ], [ 8.3938865, 51.9603361 ], [ 8.3912657, 51.9599469 ], [ 8.390706, 51.9608677 ], [ 8.3937101, 51.9613313 ], [ 8.3933591, 51.9624546 ], [ 8.3933415, 51.9625099 ], [ 8.3933239, 51.9625679 ], [ 8.3932634, 51.9626605 ], [ 8.3932424, 51.9626841 ], [ 8.39265, 51.9625255 ], [ 8.3920602, 51.9623675 ], [ 8.391493, 51.9621931 ], [ 8.3914889, 51.9621989 ], [ 8.3914706, 51.9622182 ], [ 8.3900983, 51.9636706 ], [ 8.3894118, 51.9643968 ], [ 8.3891678, 51.9646548 ], [ 8.3891291, 51.9646548 ], [ 8.389132, 51.9646994 ], [ 8.3891389, 51.9647893 ], [ 8.3891407, 51.9648212 ], [ 8.3890916, 51.9650588 ], [ 8.3890424, 51.9652964 ], [ 8.3892631, 51.9652896 ], [ 8.3893669, 51.9652872 ], [ 8.3894241, 51.9652862 ], [ 8.3894672, 51.965285 ], [ 8.3895581, 51.9652627 ], [ 8.3896597, 51.9652635 ], [ 8.3897796, 51.9652834 ], [ 8.3899262, 51.9652879 ], [ 8.3900144, 51.9652654 ], [ 8.3900748, 51.9652654 ], [ 8.3901959, 51.9652612 ], [ 8.3902797, 51.9652405 ], [ 8.390665, 51.9652332 ], [ 8.3907214, 51.965254 ], [ 8.3907938, 51.9652393 ], [ 8.3908922, 51.9652452 ], [ 8.3910695, 51.9652328 ], [ 8.3912722, 51.9652179 ], [ 8.3913456, 51.9652205 ], [ 8.3914036, 51.9652058 ], [ 8.3914637, 51.9651825 ], [ 8.3915744, 51.9651656 ], [ 8.3916243, 51.9651282 ], [ 8.3917291, 51.9651007 ], [ 8.3918119, 51.9651186 ], [ 8.3918774, 51.9651152 ], [ 8.3919662, 51.9650789 ], [ 8.3920298, 51.9650782 ], [ 8.3921056, 51.9650991 ], [ 8.3921107, 51.9651048 ], [ 8.3921653, 51.9651282 ], [ 8.3922218, 51.9651546 ], [ 8.3922352, 51.9651925 ], [ 8.3922421, 51.9652134 ], [ 8.3922375, 51.9652608 ], [ 8.392244, 51.9653036 ], [ 8.392244, 51.9653773 ], [ 8.3922624, 51.9654526 ], [ 8.3922696, 51.9654735 ], [ 8.3922738, 51.9655121 ], [ 8.3922788, 51.9655486 ], [ 8.3922754, 51.965585 ], [ 8.3922804, 51.9656272 ], [ 8.3922868, 51.9656743 ], [ 8.3922878, 51.9657257 ], [ 8.3922894, 51.9657651 ], [ 8.3922951, 51.9658184 ], [ 8.3923046, 51.9658595 ], [ 8.3923282, 51.9659529 ], [ 8.3923096, 51.9661065 ], [ 8.3922987, 51.9662146 ], [ 8.3922853, 51.9663142 ], [ 8.3922671, 51.9663797 ], [ 8.3922522, 51.9664644 ], [ 8.3922388, 51.9665468 ], [ 8.3922376, 51.9665744 ], [ 8.3922435, 51.9666915 ], [ 8.3922393, 51.966767 ], [ 8.3922301, 51.9667865 ], [ 8.3922276, 51.9668306 ], [ 8.3922286, 51.966879 ], [ 8.3922348, 51.9669342 ], [ 8.392221, 51.9670461 ], [ 8.3922196, 51.9670865 ], [ 8.3922481, 51.9671218 ], [ 8.3922373, 51.9671859 ], [ 8.3920939, 51.9671771 ], [ 8.3916382, 51.9671497 ], [ 8.3911146, 51.9671183 ], [ 8.3906247, 51.9670891 ], [ 8.3904715, 51.9674768 ], [ 8.3904004, 51.9676526 ], [ 8.3903671, 51.967743 ], [ 8.3900937, 51.9683997 ], [ 8.3892569, 51.9683035 ], [ 8.3892449, 51.9683407 ], [ 8.389232, 51.9683773 ], [ 8.3879283, 51.9682091 ], [ 8.3868954, 51.9679249 ], [ 8.3863111, 51.9677396 ], [ 8.3859871, 51.9676364 ], [ 8.3857173, 51.9675515 ], [ 8.3854395, 51.967463 ], [ 8.385161, 51.9673746 ], [ 8.3850764, 51.9673482 ], [ 8.3850016, 51.9673249 ], [ 8.3845864, 51.9672063 ], [ 8.3841707, 51.9670856 ], [ 8.3828623, 51.9680512 ], [ 8.3829008, 51.9680614 ], [ 8.382448, 51.9683998 ], [ 8.3823641, 51.9684614 ], [ 8.3821652, 51.968598 ], [ 8.3820409, 51.9686841 ], [ 8.3819087, 51.9687767 ], [ 8.3812884, 51.9692014 ], [ 8.3806688, 51.9696265 ], [ 8.3805894, 51.9696432 ], [ 8.3805006, 51.9696951 ], [ 8.3800719, 51.9699435 ], [ 8.3796077, 51.9702126 ], [ 8.3794758, 51.9702887 ], [ 8.3786799, 51.9701401 ], [ 8.3782862, 51.9710221 ], [ 8.3781512, 51.9711957 ], [ 8.3778164, 51.9728058 ], [ 8.378042, 51.9728424 ], [ 8.3781792, 51.9728739 ], [ 8.3784456, 51.9729209 ], [ 8.3785753, 51.9729343 ], [ 8.3791648, 51.973032 ], [ 8.3811165, 51.9733092 ], [ 8.3811918, 51.9733318 ], [ 8.3813169, 51.9733695 ], [ 8.3812742, 51.9734143 ], [ 8.3812972, 51.9736704 ], [ 8.3812785, 51.9739075 ], [ 8.3813007, 51.9739526 ], [ 8.3813608, 51.9740393 ], [ 8.3814108, 51.9740787 ], [ 8.3814655, 51.9741773 ], [ 8.3807855, 51.9742366 ], [ 8.3806888, 51.9748849 ], [ 8.3806896, 51.9748916 ], [ 8.3806758, 51.9749106 ], [ 8.3805616, 51.9748928 ], [ 8.3801181, 51.9748272 ], [ 8.3800352, 51.9748047 ], [ 8.3796484, 51.9746609 ], [ 8.3795714, 51.9746323 ], [ 8.37955, 51.9746243 ], [ 8.3781994, 51.9741333 ], [ 8.3781211, 51.9740972 ], [ 8.3781144, 51.9741021 ], [ 8.3781093, 51.9741085 ], [ 8.3780978, 51.9741235 ], [ 8.3772918, 51.975181 ], [ 8.3772849, 51.9751896 ], [ 8.3772737, 51.9752036 ], [ 8.3772575, 51.9752239 ], [ 8.3772378, 51.9752485 ], [ 8.3770669, 51.9754625 ], [ 8.3761027, 51.9756087 ], [ 8.3757075, 51.9756947 ], [ 8.3754331, 51.9757327 ], [ 8.3752846, 51.9757601 ], [ 8.3748336, 51.9758434 ], [ 8.3743832, 51.9759139 ], [ 8.3741148, 51.9759684 ], [ 8.3738862, 51.9759704 ], [ 8.3738053, 51.9759863 ], [ 8.3737624, 51.9759947 ], [ 8.3735554, 51.9760017 ], [ 8.3734973, 51.9760049 ], [ 8.3734104, 51.9760098 ], [ 8.3733785, 51.9760116 ], [ 8.3733511, 51.9760132 ], [ 8.3733377, 51.9760061 ], [ 8.3712108, 51.9748771 ], [ 8.3711619, 51.9748897 ], [ 8.3698887, 51.9752188 ], [ 8.369749, 51.9752549 ], [ 8.3692629, 51.9753805 ], [ 8.3693648, 51.9755184 ], [ 8.3698823, 51.9762191 ], [ 8.3698881, 51.9762269 ], [ 8.3698951, 51.9762364 ], [ 8.3683366, 51.9767524 ], [ 8.3681657, 51.976809 ], [ 8.3681428, 51.9768166 ], [ 8.3681117, 51.9768269 ], [ 8.3679809, 51.9768702 ], [ 8.3672356, 51.977117 ], [ 8.3672301, 51.9771123 ], [ 8.3672235, 51.9771068 ], [ 8.367314, 51.9763827 ], [ 8.3673616, 51.9759897 ], [ 8.3674713, 51.9751309 ], [ 8.3674854, 51.9750208 ], [ 8.3674801, 51.9750205 ], [ 8.3655983, 51.9749252 ], [ 8.3655379, 51.9749217 ], [ 8.3649036, 51.9748847 ], [ 8.3640563, 51.9748621 ], [ 8.3639591, 51.9748573 ], [ 8.3638316, 51.9748509 ], [ 8.3634188, 51.9748123 ], [ 8.3631278, 51.974785 ], [ 8.3631063, 51.974783 ], [ 8.3631016, 51.9747826 ], [ 8.3630928, 51.9747818 ], [ 8.3630856, 51.9747811 ], [ 8.362345, 51.9760739 ], [ 8.3622576, 51.9760502 ], [ 8.3583912, 51.9749994 ], [ 8.3583031, 51.9749755 ], [ 8.3582806, 51.9749694 ], [ 8.3582612, 51.9749641 ], [ 8.3582207, 51.974918 ], [ 8.3581965, 51.9748904 ], [ 8.3581884, 51.9748811 ], [ 8.3581726, 51.9748787 ], [ 8.3581065, 51.9748686 ], [ 8.3576264, 51.9747952 ], [ 8.3576015, 51.9747939 ], [ 8.3573223, 51.9747794 ], [ 8.3557127, 51.9748549 ], [ 8.3557136, 51.974863 ], [ 8.3554474, 51.9748654 ], [ 8.3552946, 51.9748667 ], [ 8.3549725, 51.9748357 ], [ 8.3538991, 51.9747321 ], [ 8.3538399, 51.9747264 ], [ 8.353518, 51.9746954 ], [ 8.3535353, 51.9751446 ], [ 8.3535305, 51.9751838 ], [ 8.3535286, 51.975199 ], [ 8.3535281, 51.9752037 ], [ 8.3535272, 51.9752108 ], [ 8.3523226, 51.9753218 ], [ 8.3521186, 51.9753405 ], [ 8.3515545, 51.9753871 ], [ 8.3509307, 51.9754385 ], [ 8.35092, 51.9754394 ], [ 8.3508263, 51.9754471 ], [ 8.3506774, 51.9754594 ], [ 8.3505874, 51.9754668 ], [ 8.3494403, 51.9755454 ], [ 8.3492005, 51.9755618 ], [ 8.3486328, 51.9756007 ], [ 8.3483363, 51.975621 ], [ 8.3482711, 51.9756254 ], [ 8.3481724, 51.9756322 ], [ 8.3481439, 51.9756341 ], [ 8.3480676, 51.9756393 ], [ 8.3479635, 51.9756464 ], [ 8.347965, 51.975603 ], [ 8.3479608, 51.9755279 ], [ 8.3478676, 51.9750415 ], [ 8.3478481, 51.9749694 ], [ 8.3478193, 51.9748635 ], [ 8.3477752, 51.9748618 ], [ 8.347689, 51.9748585 ], [ 8.3470735, 51.9748349 ], [ 8.3470606, 51.9746467 ], [ 8.3470311, 51.9742164 ], [ 8.3470265, 51.9741493 ], [ 8.3469981, 51.9737372 ], [ 8.3469823, 51.9735072 ], [ 8.3444338, 51.9731724 ], [ 8.3430078, 51.9729851 ], [ 8.3424458, 51.9729124 ], [ 8.3423042, 51.9722632 ], [ 8.3421892, 51.9722503 ], [ 8.3421867, 51.9722356 ], [ 8.3421113, 51.9717988 ], [ 8.3420998, 51.9717324 ], [ 8.341231, 51.9720865 ], [ 8.3410276, 51.9721403 ], [ 8.3409131, 51.9721706 ], [ 8.3407718, 51.972208 ], [ 8.3407286, 51.9722194 ], [ 8.3406844, 51.9722131 ], [ 8.3405037, 51.9721876 ], [ 8.3404113, 51.9721745 ], [ 8.340213, 51.9720929 ], [ 8.3401466, 51.9720656 ], [ 8.3401368, 51.9720588 ], [ 8.3401179, 51.9720459 ], [ 8.3400863, 51.9720242 ], [ 8.3397202, 51.9717732 ], [ 8.3395483, 51.9716903 ], [ 8.339204, 51.971606 ], [ 8.3391243, 51.971611 ], [ 8.3388606, 51.9715512 ], [ 8.338516, 51.9714881 ], [ 8.3384631, 51.9714726 ], [ 8.3382719, 51.9713707 ], [ 8.3380467, 51.9712761 ], [ 8.3377962, 51.9711999 ], [ 8.337719, 51.9711578 ], [ 8.3376538, 51.9711372 ], [ 8.3374759, 51.9710954 ], [ 8.3373919, 51.9710805 ], [ 8.3371717, 51.9710493 ], [ 8.3369719, 51.9710374 ], [ 8.3369197, 51.9710343 ], [ 8.3369176, 51.9710342 ], [ 8.3369036, 51.9710333 ], [ 8.3368525, 51.9710303 ], [ 8.3364151, 51.9709606 ], [ 8.3361893, 51.9709246 ], [ 8.3359854, 51.9709052 ], [ 8.3352395, 51.9707701 ], [ 8.3350768, 51.9707407 ], [ 8.3350109, 51.9707077 ], [ 8.334696, 51.9706087 ], [ 8.3345763, 51.9705754 ], [ 8.334518, 51.9705572 ], [ 8.3345047, 51.9705531 ], [ 8.3341624, 51.9704464 ], [ 8.3339064, 51.9703778 ], [ 8.333842, 51.9703666 ], [ 8.333828, 51.9703611 ], [ 8.3337394, 51.970326 ], [ 8.3337363, 51.9703166 ], [ 8.3337323, 51.9703048 ], [ 8.3337199, 51.9702843 ], [ 8.3336895, 51.970234 ], [ 8.3336644, 51.9701926 ], [ 8.3336462, 51.9701626 ], [ 8.3336481, 51.9700829 ], [ 8.333649, 51.9700459 ], [ 8.3336494, 51.9700291 ], [ 8.3336688, 51.9700091 ], [ 8.3337135, 51.9699632 ], [ 8.3337554, 51.9699201 ], [ 8.3340514, 51.9696157 ], [ 8.3342773, 51.9693833 ], [ 8.334531, 51.9690875 ], [ 8.3345393, 51.9690779 ], [ 8.3345446, 51.9690717 ], [ 8.3345544, 51.9690603 ], [ 8.3345623, 51.9690511 ], [ 8.3348115, 51.9687606 ], [ 8.334793, 51.9687285 ], [ 8.3347654, 51.9686806 ], [ 8.334756, 51.9686828 ], [ 8.3336583, 51.9683505 ], [ 8.3331997, 51.9682117 ], [ 8.3328952, 51.9681299 ], [ 8.3320806, 51.9679357 ], [ 8.3320307, 51.9679288 ], [ 8.3319251, 51.9679143 ], [ 8.3317832, 51.9678948 ], [ 8.3316363, 51.9678746 ], [ 8.3316324, 51.9678788 ], [ 8.3315803, 51.9678733 ], [ 8.3315068, 51.9678654 ], [ 8.3307287, 51.967828 ], [ 8.3306341, 51.9678198 ], [ 8.330632, 51.9678196 ], [ 8.3305275, 51.967801 ], [ 8.3302883, 51.967787 ], [ 8.329849, 51.967764 ], [ 8.3296214, 51.9677639 ], [ 8.3293245, 51.9677583 ], [ 8.3290911, 51.9677319 ], [ 8.3289572, 51.9677013 ], [ 8.3287186, 51.9676577 ], [ 8.3285092, 51.9676041 ], [ 8.3283433, 51.9675359 ], [ 8.3282299, 51.9674703 ], [ 8.3281364, 51.9674073 ], [ 8.3279402, 51.9673035 ], [ 8.3278894, 51.9672673 ], [ 8.327875, 51.9672571 ], [ 8.3278658, 51.9672505 ], [ 8.327858, 51.967245 ], [ 8.3278368, 51.9672349 ], [ 8.3277884, 51.9672119 ], [ 8.3277825, 51.9671935 ], [ 8.3274793, 51.96707 ], [ 8.327407, 51.9670492 ], [ 8.3273342, 51.9670402 ], [ 8.3273012, 51.9669399 ], [ 8.3273007, 51.966849 ], [ 8.3272145, 51.9667474 ], [ 8.3271092, 51.9666826 ], [ 8.3267544, 51.9665595 ], [ 8.3258341, 51.9662727 ], [ 8.325661, 51.9662361 ], [ 8.3255513, 51.9662382 ], [ 8.325455, 51.9663036 ], [ 8.3254367, 51.9663498 ], [ 8.325373, 51.9665106 ], [ 8.325358, 51.9666202 ], [ 8.325355, 51.966629 ], [ 8.325352, 51.9666376 ], [ 8.325349, 51.9666464 ], [ 8.3253154, 51.9667436 ], [ 8.3252964, 51.9667987 ], [ 8.3251223, 51.9668475 ], [ 8.3245752, 51.9670009 ], [ 8.3189749, 51.968571 ], [ 8.3188941, 51.968478 ], [ 8.3187224, 51.9682986 ], [ 8.3181422, 51.967918 ], [ 8.3180406, 51.9679719 ], [ 8.3180324, 51.9679763 ], [ 8.3179273, 51.9679578 ], [ 8.3177525, 51.9679272 ], [ 8.3176832, 51.9679129 ], [ 8.3174064, 51.9678561 ], [ 8.3170256, 51.9677957 ], [ 8.3169896, 51.9677909 ], [ 8.3169571, 51.9677866 ], [ 8.3165416, 51.9677311 ], [ 8.3159055, 51.9676306 ], [ 8.3156883, 51.9676079 ], [ 8.3155255, 51.9676494 ], [ 8.3154786, 51.9676493 ], [ 8.3151179, 51.967649 ], [ 8.3143974, 51.9677465 ], [ 8.3137989, 51.9677627 ], [ 8.3133693, 51.9677033 ], [ 8.3127009, 51.9676724 ], [ 8.3125251, 51.9674648 ], [ 8.3125304, 51.967427 ], [ 8.3125499, 51.9672909 ], [ 8.3127759, 51.9672647 ], [ 8.3129041, 51.9669141 ], [ 8.3129055, 51.9669091 ], [ 8.3129243, 51.9668405 ], [ 8.3131103, 51.9661673 ], [ 8.3131725, 51.9660726 ], [ 8.3135256, 51.9655355 ], [ 8.3137658, 51.965291 ], [ 8.3144203, 51.9649677 ], [ 8.314695, 51.9647299 ], [ 8.314871, 51.9645776 ], [ 8.3147204, 51.9643634 ], [ 8.3149661, 51.9642312 ], [ 8.315216, 51.9640968 ], [ 8.3153293, 51.9640358 ], [ 8.3154978, 51.9639325 ], [ 8.3158233, 51.9641602 ], [ 8.3160462, 51.9641388 ], [ 8.3166302, 51.9640828 ], [ 8.3166516, 51.9640807 ], [ 8.3166661, 51.9640793 ], [ 8.3166787, 51.9640781 ], [ 8.3162688, 51.963057 ], [ 8.3162515, 51.9630138 ], [ 8.3162081, 51.9629058 ], [ 8.316451, 51.962476 ], [ 8.3164772, 51.9624218 ], [ 8.3164786, 51.9624054 ], [ 8.3164627, 51.9623757 ], [ 8.3157455, 51.961301 ], [ 8.3157504, 51.9612958 ], [ 8.3157721, 51.9612728 ], [ 8.3161529, 51.9607442 ], [ 8.3157914, 51.9602132 ], [ 8.3152014, 51.9600906 ], [ 8.3153825, 51.9599384 ], [ 8.3156011, 51.9597547 ], [ 8.3157799, 51.9596436 ], [ 8.3158393, 51.9596187 ], [ 8.3159618, 51.9595692 ], [ 8.3159723, 51.9595711 ], [ 8.3159895, 51.9595743 ], [ 8.3163689, 51.9596437 ], [ 8.3166451, 51.9597168 ], [ 8.3168281, 51.9598141 ], [ 8.3170605, 51.9598365 ], [ 8.3172205, 51.9599061 ], [ 8.3172939, 51.9599507 ], [ 8.3175952, 51.9601585 ], [ 8.3179132, 51.9603799 ], [ 8.3179882, 51.9604277 ], [ 8.3181089, 51.9605046 ], [ 8.3182394, 51.9605878 ], [ 8.3183483, 51.9606693 ], [ 8.3184865, 51.9608854 ], [ 8.3185411, 51.9611119 ], [ 8.318793, 51.9611335 ], [ 8.3191237, 51.9603758 ], [ 8.3192624, 51.9602187 ], [ 8.319789, 51.9602501 ], [ 8.3196812, 51.9591342 ], [ 8.3196731, 51.9590933 ], [ 8.3196681, 51.959068 ], [ 8.3196639, 51.9590471 ], [ 8.3196526, 51.9589926 ], [ 8.319649, 51.9589751 ], [ 8.319648, 51.9589701 ], [ 8.3196469, 51.9589651 ], [ 8.3196454, 51.9589575 ], [ 8.3196482, 51.9589433 ], [ 8.3196524, 51.9589223 ], [ 8.3199059, 51.9577516 ], [ 8.319921, 51.957719 ], [ 8.3202568, 51.9573618 ], [ 8.3203323, 51.9572734 ], [ 8.3203561, 51.9572497 ], [ 8.3203647, 51.957241 ], [ 8.3203772, 51.9572285 ], [ 8.320387, 51.9572188 ], [ 8.3204691, 51.9571372 ], [ 8.3206992, 51.9566882 ], [ 8.3209232, 51.9562512 ], [ 8.3209282, 51.9562446 ], [ 8.320954, 51.9562104 ], [ 8.3209623, 51.9561993 ], [ 8.3213627, 51.955669 ], [ 8.3217219, 51.9551933 ], [ 8.3217439, 51.9551645 ], [ 8.3217456, 51.9551624 ], [ 8.3217477, 51.9551596 ], [ 8.3217686, 51.9551323 ], [ 8.322443, 51.9542551 ], [ 8.3224435, 51.9542431 ], [ 8.3224446, 51.9542155 ], [ 8.322445, 51.9542047 ], [ 8.3224921, 51.9542173 ], [ 8.3225549, 51.954234 ], [ 8.3226291, 51.9542539 ], [ 8.3226929, 51.9542248 ], [ 8.3227839, 51.9541833 ], [ 8.322853, 51.9541518 ], [ 8.3239378, 51.9532404 ], [ 8.3244486, 51.9527412 ], [ 8.3244554, 51.9527131 ], [ 8.3244635, 51.9526796 ], [ 8.3244741, 51.9526357 ], [ 8.3244399, 51.9526227 ], [ 8.3244349, 51.9526208 ], [ 8.3247324, 51.9524029 ], [ 8.3252619, 51.9518829 ], [ 8.3255139, 51.9518154 ], [ 8.3258866, 51.9516186 ], [ 8.3259911, 51.9515979 ], [ 8.3262032, 51.9515946 ], [ 8.3261975, 51.9515911 ], [ 8.3261707, 51.9515746 ], [ 8.3261709, 51.9515651 ], [ 8.3261715, 51.9515401 ], [ 8.3261871, 51.9509248 ], [ 8.3261882, 51.9508808 ], [ 8.3262023, 51.9503235 ], [ 8.326765, 51.9504083 ], [ 8.3288081, 51.950716 ], [ 8.3288235, 51.9507183 ], [ 8.3288998, 51.950381 ], [ 8.3289797, 51.9501224 ], [ 8.3290229, 51.9499826 ], [ 8.3290555, 51.9498784 ], [ 8.3290634, 51.9498029 ], [ 8.3290668, 51.9497694 ], [ 8.3290368, 51.9497674 ], [ 8.3289926, 51.9497644 ], [ 8.3289326, 51.9497603 ], [ 8.3286325, 51.94974 ], [ 8.3286123, 51.9497387 ], [ 8.3285456, 51.9497342 ], [ 8.3282183, 51.9477076 ], [ 8.3282075, 51.9476406 ], [ 8.3281734, 51.9476425 ], [ 8.3281676, 51.9476428 ], [ 8.3281393, 51.9474814 ], [ 8.3281246, 51.947397 ], [ 8.328081, 51.947148 ], [ 8.3280665, 51.946961 ], [ 8.328085, 51.9468279 ], [ 8.3281231, 51.9467153 ], [ 8.3284474, 51.946351 ], [ 8.3284458, 51.9463385 ], [ 8.3284441, 51.9463261 ], [ 8.3284389, 51.9462863 ], [ 8.3284381, 51.9462808 ], [ 8.3284671, 51.9462893 ], [ 8.3285424, 51.9463328 ], [ 8.3285727, 51.9463503 ], [ 8.3285866, 51.9463545 ], [ 8.3286409, 51.9463709 ], [ 8.329468, 51.9466203 ], [ 8.3297937, 51.9467185 ], [ 8.3298237, 51.9466934 ], [ 8.3298424, 51.9466777 ], [ 8.3299796, 51.9465628 ], [ 8.3300021, 51.946544 ], [ 8.3300524, 51.9465018 ], [ 8.3301636, 51.9460048 ], [ 8.3302342, 51.9459573 ], [ 8.3302414, 51.9459524 ], [ 8.3302541, 51.9459439 ], [ 8.3303025, 51.9459339 ], [ 8.3302939, 51.9459237 ], [ 8.3302859, 51.9459143 ], [ 8.3302319, 51.9458508 ], [ 8.3304334, 51.9447852 ], [ 8.3305924, 51.943944 ], [ 8.3305644, 51.9439093 ], [ 8.3305305, 51.9438671 ], [ 8.3304965, 51.9438249 ], [ 8.3304762, 51.9438079 ], [ 8.3304768, 51.9437995 ], [ 8.3304778, 51.9437882 ], [ 8.3301422, 51.9437444 ], [ 8.3297336, 51.9436911 ], [ 8.3297493, 51.9436787 ], [ 8.3297705, 51.9436618 ], [ 8.3300745, 51.9432003 ], [ 8.3301008, 51.9431603 ], [ 8.3316463, 51.9408651 ], [ 8.3316683, 51.9408325 ], [ 8.3316708, 51.9408289 ], [ 8.332236, 51.9407033 ], [ 8.3322245, 51.9406882 ], [ 8.3322159, 51.9406769 ], [ 8.3322049, 51.9406624 ], [ 8.3321925, 51.9406461 ], [ 8.3321851, 51.9406364 ], [ 8.3318399, 51.9401796 ], [ 8.3318072, 51.9401362 ], [ 8.3317938, 51.9401185 ], [ 8.3317657, 51.9400813 ], [ 8.3323301, 51.9396859 ], [ 8.3322819, 51.9396668 ], [ 8.3322633, 51.9396595 ], [ 8.3322547, 51.9395931 ], [ 8.3321122, 51.9384935 ], [ 8.3320743, 51.9382018 ], [ 8.3320678, 51.9381514 ], [ 8.3311085, 51.9381493 ], [ 8.3308666, 51.938201 ], [ 8.3308436, 51.938206 ], [ 8.3308207, 51.9381572 ], [ 8.330595, 51.9376764 ], [ 8.33057, 51.9376231 ], [ 8.3305665, 51.9376051 ], [ 8.3305576, 51.9375595 ], [ 8.3305539, 51.9375404 ], [ 8.3303131, 51.9370746 ], [ 8.3300951, 51.9366529 ], [ 8.3300809, 51.9366253 ], [ 8.3300761, 51.9366161 ], [ 8.3300629, 51.9365905 ], [ 8.3300477, 51.9365631 ], [ 8.3297503, 51.9360205 ], [ 8.3297422, 51.9360056 ], [ 8.3297244, 51.9359731 ], [ 8.3297047, 51.935937 ], [ 8.3295694, 51.9359268 ], [ 8.3296102, 51.9357208 ], [ 8.3288157, 51.9351508 ], [ 8.3286058, 51.9350002 ], [ 8.3282242, 51.9347264 ], [ 8.3280782, 51.9346217 ], [ 8.3280475, 51.934602 ], [ 8.3280429, 51.9345991 ], [ 8.3280829, 51.9345882 ], [ 8.3286279, 51.9341821 ], [ 8.3286461, 51.9341685 ], [ 8.3286305, 51.9341598 ], [ 8.3277604, 51.9335424 ], [ 8.3273246, 51.9332332 ], [ 8.3273014, 51.9332179 ], [ 8.3272723, 51.9331969 ], [ 8.327228, 51.9331649 ], [ 8.3267049, 51.9327917 ], [ 8.3258528, 51.9321861 ], [ 8.3253314, 51.9318155 ], [ 8.3253029, 51.9317951 ], [ 8.3252841, 51.9317818 ], [ 8.3251735, 51.9317031 ], [ 8.3242816, 51.9310686 ], [ 8.324056, 51.9309081 ], [ 8.3239991, 51.9308676 ], [ 8.323784, 51.9307138 ], [ 8.323594, 51.9305766 ], [ 8.3234112, 51.9304326 ], [ 8.3232456, 51.930281 ], [ 8.3232274, 51.930262 ], [ 8.3232143, 51.9302482 ], [ 8.3231787, 51.9302107 ], [ 8.3230886, 51.9301157 ], [ 8.3230574, 51.9300828 ], [ 8.3230433, 51.9300641 ], [ 8.3229001, 51.9298742 ], [ 8.3227956, 51.9297022 ], [ 8.3227073, 51.929526 ], [ 8.3226587, 51.9294073 ], [ 8.3226358, 51.9293533 ], [ 8.3224268, 51.9288386 ], [ 8.3223594, 51.9286727 ], [ 8.3223107, 51.9285528 ], [ 8.3222375, 51.9283806 ], [ 8.3221556, 51.9282117 ], [ 8.3220299, 51.9280137 ], [ 8.3218812, 51.9278213 ], [ 8.3217355, 51.927666 ], [ 8.3215234, 51.9274599 ], [ 8.3215524, 51.92745 ], [ 8.3216162, 51.9274283 ], [ 8.3216503, 51.9274167 ], [ 8.321644, 51.9274105 ], [ 8.3215936, 51.9273749 ], [ 8.3215036, 51.9273114 ], [ 8.3213048, 51.9273706 ], [ 8.3210659, 51.9274292 ], [ 8.3206226, 51.9275377 ], [ 8.3201437, 51.9276547 ], [ 8.3196746, 51.9277681 ], [ 8.3191725, 51.927889 ], [ 8.3187309, 51.9279954 ], [ 8.3183811, 51.928084 ], [ 8.3183355, 51.9280955 ], [ 8.3183211, 51.9280992 ], [ 8.3181894, 51.9281429 ], [ 8.318118, 51.9281726 ], [ 8.3179629, 51.9282371 ], [ 8.317802, 51.9283166 ], [ 8.3174503, 51.928516 ], [ 8.3171821, 51.928668 ], [ 8.3161104, 51.9292739 ], [ 8.315041, 51.9298804 ], [ 8.3139619, 51.9304885 ], [ 8.3128963, 51.9310946 ], [ 8.3126235, 51.9312458 ], [ 8.312386, 51.9313774 ], [ 8.3122173, 51.9314621 ], [ 8.3121671, 51.9314855 ], [ 8.3121304, 51.9315027 ], [ 8.3121119, 51.9315114 ], [ 8.3120752, 51.9315286 ], [ 8.312044, 51.9315432 ], [ 8.3117791, 51.9316671 ], [ 8.3115029, 51.9317964 ], [ 8.3106185, 51.9322102 ], [ 8.3094633, 51.9327494 ], [ 8.3088139, 51.9330542 ], [ 8.3083028, 51.9332941 ], [ 8.3071451, 51.9338373 ], [ 8.3059885, 51.9343798 ], [ 8.3047975, 51.9349404 ], [ 8.304528, 51.9350668 ], [ 8.3040281, 51.9353011 ], [ 8.3040034, 51.9353128 ], [ 8.3037879, 51.9354343 ], [ 8.3032231, 51.9349143 ], [ 8.3032032, 51.934896 ], [ 8.3031842, 51.9348785 ], [ 8.303168, 51.9348636 ], [ 8.3029313, 51.9346456 ], [ 8.3028179, 51.9345412 ], [ 8.3028152, 51.9345388 ], [ 8.3026625, 51.9343981 ], [ 8.3023259, 51.934088 ], [ 8.3022792, 51.9340449 ], [ 8.3022728, 51.9340391 ], [ 8.3022673, 51.934034 ], [ 8.3022409, 51.9340096 ], [ 8.3022267, 51.9339966 ], [ 8.3018799, 51.9336771 ], [ 8.3018607, 51.9336593 ], [ 8.3018523, 51.9336516 ], [ 8.3014608, 51.933291 ], [ 8.3014527, 51.9332834 ], [ 8.3014297, 51.9332622 ], [ 8.3008699, 51.9327465 ], [ 8.3006612, 51.9325541 ], [ 8.3002792, 51.9322022 ], [ 8.300201, 51.9321301 ], [ 8.2995596, 51.9315391 ], [ 8.2995152, 51.9314981 ], [ 8.299502, 51.9314859 ], [ 8.2994623, 51.9314493 ], [ 8.2994471, 51.9314353 ], [ 8.299322, 51.9314372 ], [ 8.2984905, 51.9314502 ], [ 8.2984171, 51.9314514 ], [ 8.298465, 51.9308914 ], [ 8.2977497, 51.9303665 ], [ 8.2976935, 51.9302927 ], [ 8.2976216, 51.930265 ], [ 8.2972176, 51.9301093 ], [ 8.2968744, 51.929977 ], [ 8.2967946, 51.9294071 ], [ 8.2968749, 51.9293369 ], [ 8.2968822, 51.9293305 ], [ 8.2967966, 51.9292508 ], [ 8.2965525, 51.9290233 ], [ 8.2962859, 51.9287616 ], [ 8.2962501, 51.9287365 ], [ 8.2961856, 51.9287032 ], [ 8.2960685, 51.9287671 ], [ 8.2959917, 51.928809 ], [ 8.2954242, 51.9291189 ], [ 8.2953943, 51.9291353 ], [ 8.2953641, 51.9291518 ], [ 8.2951452, 51.9292712 ], [ 8.2938693, 51.928676 ], [ 8.2926287, 51.9287011 ], [ 8.2915904, 51.9287222 ], [ 8.2911145, 51.9287318 ], [ 8.2910697, 51.9287327 ], [ 8.2910153, 51.9287076 ], [ 8.2899684, 51.9282241 ], [ 8.2888063, 51.9276875 ], [ 8.2887564, 51.9276644 ], [ 8.2893298, 51.9270419 ], [ 8.2893772, 51.9269904 ], [ 8.2893877, 51.926979 ], [ 8.2866487, 51.9257025 ], [ 8.2866752, 51.92569 ], [ 8.2866928, 51.9256816 ], [ 8.2867057, 51.9256755 ], [ 8.2867182, 51.9256697 ], [ 8.2870156, 51.9255332 ], [ 8.2874889, 51.9253159 ], [ 8.2876967, 51.9252206 ], [ 8.2875934, 51.9252215 ], [ 8.2874283, 51.9252226 ], [ 8.2873467, 51.9252231 ], [ 8.2873311, 51.9252232 ], [ 8.2872914, 51.9252235 ], [ 8.287249, 51.9252237 ], [ 8.2870821, 51.9252248 ], [ 8.2870677, 51.9252249 ], [ 8.2858435, 51.925233 ], [ 8.2857437, 51.9252336 ], [ 8.2856427, 51.9252343 ], [ 8.2856281, 51.9241774 ], [ 8.2856255, 51.9239867 ], [ 8.2856229, 51.9238208 ], [ 8.2856136, 51.9232317 ], [ 8.2856124, 51.9231576 ], [ 8.2856115, 51.9230974 ], [ 8.2855674, 51.923074 ], [ 8.2854784, 51.9230267 ] ] ] } }
]
}
