{
"type": "FeatureCollection",
"name": "haarlemmermeer_nl",
"crs": { "type": "name", "properties": { "name": "urn:ogc:def:crs:OGC:1.3:CRS84" } },
"features": [
{ "type": "Feature", "properties": { "bbox_west": 4.5504551, "bbox_south": 52.2144684, "bbox_east": 4.8191588, "bbox_north": 52.4333362, "place_id": 156869555, "osm_type": "relation", "osm_id": 443890, "lat": 52.3238421, "lon": 4.7152612, "class": "boundary", "type": "administrative", "place_rank": 14, "importance": 0.52648871157822952, "addresstype": "municipality", "name": "Haarlemmermeer", "display_name": "Haarlemmermeer, North Holland, Netherlands" }, "geometry": { "type": "Polygon", "coordinates": [ [ [ 4.5504551, 52.2265968 ], [ 4.5504598, 52.2264443 ], [ 4.5504797, 52.2262803 ], [ 4.550522, 52.2261016 ], [ 4.5505599, 52.2259854 ], [ 4.550593, 52.2259074 ], [ 4.5506355, 52.2258251 ], [ 4.5506727, 52.2257564 ], [ 4.5507216, 52.2256824 ], [ 4.550761, 52.2256306 ], [ 4.5508169, 52.2255623 ], [ 4.5508993, 52.2254707 ], [ 4.550997, 52.2253676 ], [ 4.551134, 52.2252217 ], [ 4.5512458, 52.2251032 ], [ 4.5513846, 52.2249587 ], [ 4.5516658, 52.2246548 ], [ 4.551914, 52.2243928 ], [ 4.5521922, 52.2240925 ], [ 4.5524334, 52.2238338 ], [ 4.5526752, 52.2235726 ], [ 4.5529505, 52.2232758 ], [ 4.5532852, 52.2229136 ], [ 4.5535952, 52.2225762 ], [ 4.553934, 52.2222054 ], [ 4.5556368, 52.2203213 ], [ 4.5559784, 52.2199432 ], [ 4.5561901, 52.219709 ], [ 4.5564001, 52.2194766 ], [ 4.5565318, 52.2193413 ], [ 4.5566154, 52.219273 ], [ 4.5567211, 52.2192066 ], [ 4.5568566, 52.21914 ], [ 4.5569811, 52.2190958 ], [ 4.5571066, 52.219062 ], [ 4.5573072, 52.2190202 ], [ 4.5574466, 52.2189982 ], [ 4.5584331, 52.2187985 ], [ 4.5590579, 52.2187064 ], [ 4.5602334, 52.2185327 ], [ 4.5604028, 52.2185082 ], [ 4.5612922, 52.2183734 ], [ 4.5615189, 52.218339 ], [ 4.5616027, 52.2183263 ], [ 4.5618033, 52.218296 ], [ 4.5637917, 52.2179951 ], [ 4.5655049, 52.2177394 ], [ 4.5660374, 52.21766 ], [ 4.5671274, 52.2174907 ], [ 4.5675568, 52.2174272 ], [ 4.5677443, 52.2173987 ], [ 4.5680086, 52.2173585 ], [ 4.568251, 52.2173212 ], [ 4.5686518, 52.2172629 ], [ 4.5692014, 52.2171815 ], [ 4.5695195, 52.2171346 ], [ 4.5702224, 52.2170279 ], [ 4.5702528, 52.2170237 ], [ 4.5703273, 52.217019 ], [ 4.5706724, 52.2169918 ], [ 4.5711016, 52.2169698 ], [ 4.5713523, 52.2169594 ], [ 4.5713963, 52.2169589 ], [ 4.5715655, 52.2169589 ], [ 4.5717689, 52.2169648 ], [ 4.5717888, 52.2169654 ], [ 4.5719383, 52.2169718 ], [ 4.5722933, 52.2170085 ], [ 4.5726309, 52.2170499 ], [ 4.5728292, 52.2170775 ], [ 4.5734091, 52.2171665 ], [ 4.5735615, 52.2172115 ], [ 4.5737453, 52.2172549 ], [ 4.573757, 52.2172572 ], [ 4.5793404, 52.2183557 ], [ 4.5815083, 52.2187584 ], [ 4.5817317, 52.2187945 ], [ 4.5818545, 52.2188122 ], [ 4.5820018, 52.2188292 ], [ 4.5822049, 52.2188472 ], [ 4.5823516, 52.2188582 ], [ 4.5823713, 52.2188597 ], [ 4.5824592, 52.2188663 ], [ 4.5826113, 52.2188738 ], [ 4.5828546, 52.2188844 ], [ 4.5830833, 52.2188904 ], [ 4.583194, 52.2188893 ], [ 4.5833568, 52.218885 ], [ 4.5835533, 52.2188742 ], [ 4.5836404, 52.218866 ], [ 4.5838923, 52.2188393 ], [ 4.5840908, 52.2188084 ], [ 4.5843542, 52.218765 ], [ 4.5850627, 52.2186026 ], [ 4.5854558, 52.2185125 ], [ 4.5970394, 52.2158254 ], [ 4.5974632, 52.2157271 ], [ 4.5977974, 52.2156424 ], [ 4.6003942, 52.214984 ], [ 4.6017076, 52.2146511 ], [ 4.6021376, 52.214629 ], [ 4.6026007, 52.2145859 ], [ 4.602731, 52.2145661 ], [ 4.6027617, 52.2145583 ], [ 4.6043695, 52.2145676 ], [ 4.6053349, 52.2145732 ], [ 4.606754, 52.2145814 ], [ 4.606908, 52.2145795 ], [ 4.6070411, 52.2145779 ], [ 4.607071, 52.2145776 ], [ 4.611695, 52.2145338 ], [ 4.6118994, 52.2145319 ], [ 4.6120686, 52.2145303 ], [ 4.6122122, 52.2145289 ], [ 4.6159441, 52.2144934 ], [ 4.6181498, 52.2144684 ], [ 4.6184714, 52.2144766 ], [ 4.6186663, 52.2144892 ], [ 4.6188488, 52.2145066 ], [ 4.6189957, 52.2145186 ], [ 4.6192818, 52.214544 ], [ 4.6194444, 52.2145593 ], [ 4.6195797, 52.2145726 ], [ 4.6196379, 52.2145784 ], [ 4.6198087, 52.2145981 ], [ 4.6198921, 52.2146078 ], [ 4.6199204, 52.2146112 ], [ 4.620005, 52.2146215 ], [ 4.6200053, 52.2146216 ], [ 4.6201133, 52.214636 ], [ 4.6202116, 52.2146491 ], [ 4.6204941, 52.2146849 ], [ 4.6205774, 52.2146901 ], [ 4.6207857, 52.2147207 ], [ 4.6210084, 52.2147473 ], [ 4.6211124, 52.2147602 ], [ 4.6212744, 52.214784 ], [ 4.6213027, 52.2147885 ], [ 4.6213666, 52.2147987 ], [ 4.6214344, 52.2148068 ], [ 4.6216044, 52.2148272 ], [ 4.6216877, 52.2148353 ], [ 4.6218779, 52.2148538 ], [ 4.6229274, 52.2149732 ], [ 4.6236959, 52.2150604 ], [ 4.6243336, 52.2151311 ], [ 4.6247706, 52.2151816 ], [ 4.625386, 52.2152496 ], [ 4.6258453, 52.2153013 ], [ 4.6259241, 52.2153102 ], [ 4.6260488, 52.2153253 ], [ 4.6263135, 52.2153575 ], [ 4.6265663, 52.2153882 ], [ 4.6267723, 52.2154143 ], [ 4.626773, 52.2154144 ], [ 4.6271744, 52.2154652 ], [ 4.6274716, 52.2155029 ], [ 4.6276974, 52.2155305 ], [ 4.6278624, 52.2155506 ], [ 4.6280438, 52.2155781 ], [ 4.6282145, 52.2155952 ], [ 4.6282638, 52.2156002 ], [ 4.6284689, 52.2156094 ], [ 4.6284917, 52.2156127 ], [ 4.6285498, 52.2156198 ], [ 4.6286934, 52.2156406 ], [ 4.6288584, 52.2156626 ], [ 4.6289134, 52.215669 ], [ 4.6290561, 52.2156983 ], [ 4.6292478, 52.2157185 ], [ 4.6294545, 52.2157424 ], [ 4.629676, 52.2157708 ], [ 4.6302344, 52.2158321 ], [ 4.6304414, 52.2158589 ], [ 4.6307127, 52.2158803 ], [ 4.6310116, 52.2159124 ], [ 4.6312365, 52.2159398 ], [ 4.6314098, 52.2159691 ], [ 4.6315296, 52.2159964 ], [ 4.6317313, 52.2160134 ], [ 4.6319774, 52.2160464 ], [ 4.6322245, 52.2160943 ], [ 4.6324565, 52.2161426 ], [ 4.6326345, 52.2161843 ], [ 4.6328048, 52.2162327 ], [ 4.6329372, 52.2162703 ], [ 4.6333658, 52.21644 ], [ 4.63337, 52.2164417 ], [ 4.6337947, 52.2166186 ], [ 4.6337954, 52.2166189 ], [ 4.6344366, 52.2168689 ], [ 4.6352781, 52.2171929 ], [ 4.6358013, 52.2173964 ], [ 4.6372812, 52.2179581 ], [ 4.6384983, 52.2184524 ], [ 4.6389706, 52.2186643 ], [ 4.6390916, 52.2187186 ], [ 4.6395099, 52.2188812 ], [ 4.6397455, 52.2189728 ], [ 4.6398704, 52.2190214 ], [ 4.6399952, 52.21907 ], [ 4.6401185, 52.2191179 ], [ 4.6402639, 52.2191745 ], [ 4.6403683, 52.2192151 ], [ 4.6404694, 52.2192544 ], [ 4.640486, 52.2192607 ], [ 4.6417153, 52.2197309 ], [ 4.6417297, 52.2197406 ], [ 4.6418133, 52.2197943 ], [ 4.6419047, 52.2198284 ], [ 4.6420514, 52.2198835 ], [ 4.6422324, 52.2199344 ], [ 4.6426377, 52.2200709 ], [ 4.6426347, 52.2200749 ], [ 4.6426543, 52.2200813 ], [ 4.6427331, 52.2201084 ], [ 4.6427191, 52.2201231 ], [ 4.642914, 52.2201892 ], [ 4.6432551, 52.2203056 ], [ 4.6432543, 52.2203087 ], [ 4.6434242, 52.2203594 ], [ 4.6437055, 52.2204454 ], [ 4.6437063, 52.2204456 ], [ 4.6442303, 52.2206049 ], [ 4.6445964, 52.2206384 ], [ 4.6447395, 52.2206583 ], [ 4.6449834, 52.2206862 ], [ 4.6452252, 52.2207165 ], [ 4.6453109, 52.2207288 ], [ 4.6455685, 52.2207587 ], [ 4.645716, 52.2207837 ], [ 4.6459668, 52.2208332 ], [ 4.6461959, 52.2208798 ], [ 4.6463734, 52.2209152 ], [ 4.6466099, 52.2209697 ], [ 4.6468752, 52.2210798 ], [ 4.6469262, 52.221101 ], [ 4.6471283, 52.2211849 ], [ 4.6473022, 52.2212586 ], [ 4.6473484, 52.2212782 ], [ 4.6473523, 52.2212799 ], [ 4.6474952, 52.2213433 ], [ 4.6476367, 52.221406 ], [ 4.6477896, 52.2214685 ], [ 4.6477999, 52.2214727 ], [ 4.648054, 52.2215736 ], [ 4.6480825, 52.221585 ], [ 4.6480847, 52.2215858 ], [ 4.648266, 52.2216726 ], [ 4.6483217, 52.221696 ], [ 4.6483519, 52.2217087 ], [ 4.6485402, 52.2217879 ], [ 4.6488265, 52.2219031 ], [ 4.6489419, 52.2219517 ], [ 4.6489999, 52.2219788 ], [ 4.6492893, 52.2220888 ], [ 4.6496226, 52.2222292 ], [ 4.6496582, 52.2222442 ], [ 4.6499009, 52.2223469 ], [ 4.6500538, 52.2224133 ], [ 4.6502725, 52.2225081 ], [ 4.6504117, 52.2225697 ], [ 4.6505126, 52.2226143 ], [ 4.6508035, 52.222749 ], [ 4.6508459, 52.2227686 ], [ 4.6512483, 52.2229539 ], [ 4.6517311, 52.2231802 ], [ 4.6517462, 52.2231873 ], [ 4.6519447, 52.2232988 ], [ 4.6522665, 52.2234797 ], [ 4.6524518, 52.2235884 ], [ 4.6527523, 52.2237649 ], [ 4.653246, 52.2240307 ], [ 4.6535572, 52.2242029 ], [ 4.6538538, 52.2243457 ], [ 4.6540984, 52.2244593 ], [ 4.6543303, 52.2245556 ], [ 4.6545673, 52.2246475 ], [ 4.6547887, 52.2247311 ], [ 4.6551266, 52.2248602 ], [ 4.6554498, 52.2249829 ], [ 4.6557942, 52.225115 ], [ 4.6561207, 52.2252418 ], [ 4.6564688, 52.225372 ], [ 4.6567343, 52.2254765 ], [ 4.6571477, 52.225637 ], [ 4.6574846, 52.2257641 ], [ 4.6575516, 52.225788 ], [ 4.6576686, 52.2258299 ], [ 4.6578732, 52.2258995 ], [ 4.6580399, 52.2259554 ], [ 4.6582601, 52.2260286 ], [ 4.6584738, 52.2260983 ], [ 4.6586141, 52.2261401 ], [ 4.6587648, 52.2261818 ], [ 4.6590113, 52.2262468 ], [ 4.659328, 52.2263212 ], [ 4.6595698, 52.2263738 ], [ 4.6600633, 52.2264717 ], [ 4.6607752, 52.2266162 ], [ 4.661461, 52.226755 ], [ 4.6622171, 52.2269098 ], [ 4.6630445, 52.2270762 ], [ 4.6635007, 52.2271682 ], [ 4.6638045, 52.2272318 ], [ 4.6638604, 52.2272426 ], [ 4.6638836, 52.2272471 ], [ 4.664004, 52.2272712 ], [ 4.6640222, 52.2272749 ], [ 4.664147, 52.2273013 ], [ 4.6641558, 52.2273032 ], [ 4.664222, 52.2273192 ], [ 4.6643008, 52.2273406 ], [ 4.6644632, 52.2273846 ], [ 4.664467, 52.2273857 ], [ 4.6645836, 52.2274188 ], [ 4.664589, 52.2274203 ], [ 4.6647063, 52.2274573 ], [ 4.6647175, 52.2274609 ], [ 4.6649106, 52.227527 ], [ 4.6649114, 52.2275273 ], [ 4.6650453, 52.2275738 ], [ 4.6651773, 52.2276266 ], [ 4.6652635, 52.2276617 ], [ 4.6653177, 52.2276856 ], [ 4.6653608, 52.2277093 ], [ 4.665437, 52.2277516 ], [ 4.6654971, 52.2277869 ], [ 4.6656508, 52.2278783 ], [ 4.6658473, 52.2279964 ], [ 4.6659156, 52.2280375 ], [ 4.6660299, 52.228109 ], [ 4.6665983, 52.228467 ], [ 4.6670074, 52.2287218 ], [ 4.6672107, 52.2288513 ], [ 4.6677412, 52.2291841 ], [ 4.6679133, 52.2292914 ], [ 4.6681287, 52.2294466 ], [ 4.6683168, 52.2295636 ], [ 4.6684189, 52.2296227 ], [ 4.6684473, 52.2296373 ], [ 4.6686839, 52.2297594 ], [ 4.6687371, 52.22981 ], [ 4.6688566, 52.2299024 ], [ 4.6688646, 52.2299077 ], [ 4.6691512, 52.2300985 ], [ 4.6692407, 52.2301581 ], [ 4.6695598, 52.2303591 ], [ 4.669618, 52.2303977 ], [ 4.6696631, 52.2303595 ], [ 4.6702368, 52.2306912 ], [ 4.6702553, 52.2307019 ], [ 4.6702663, 52.2307083 ], [ 4.6703482, 52.2307558 ], [ 4.6702935, 52.2307953 ], [ 4.6715883, 52.2314656 ], [ 4.6728935, 52.2321417 ], [ 4.6734072, 52.2324086 ], [ 4.6736467, 52.232533 ], [ 4.6739703, 52.2327011 ], [ 4.6741367, 52.2327875 ], [ 4.6750962, 52.2332833 ], [ 4.6757922, 52.2336486 ], [ 4.6763306, 52.2339247 ], [ 4.6763893, 52.2339548 ], [ 4.6768535, 52.2342418 ], [ 4.6770033, 52.234338 ], [ 4.6770739, 52.2343867 ], [ 4.6773273, 52.2345616 ], [ 4.6777687, 52.2349311 ], [ 4.6778991, 52.2350535 ], [ 4.6779963, 52.2351513 ], [ 4.6780253, 52.2351805 ], [ 4.6781741, 52.23534 ], [ 4.6782786, 52.235452 ], [ 4.6784879, 52.2356892 ], [ 4.6787326, 52.2360258 ], [ 4.679067, 52.2365015 ], [ 4.6794196, 52.2370111 ], [ 4.6794488, 52.2370534 ], [ 4.6796324, 52.2373196 ], [ 4.6796867, 52.2373983 ], [ 4.6797202, 52.2374465 ], [ 4.6798505, 52.2376338 ], [ 4.6800187, 52.2378758 ], [ 4.6803226, 52.2383143 ], [ 4.680366, 52.238377 ], [ 4.6804181, 52.2384433 ], [ 4.6805411, 52.2386001 ], [ 4.6805785, 52.2386418 ], [ 4.6807134, 52.2387924 ], [ 4.6808225, 52.2388908 ], [ 4.6810061, 52.2390186 ], [ 4.6811053, 52.2390732 ], [ 4.6811576, 52.2390986 ], [ 4.6811847, 52.2391118 ], [ 4.681214, 52.239126 ], [ 4.6812487, 52.2391429 ], [ 4.6812946, 52.2391618 ], [ 4.6814507, 52.2392264 ], [ 4.6814903, 52.2392404 ], [ 4.6817095, 52.239318 ], [ 4.681828, 52.2393555 ], [ 4.6819029, 52.2393791 ], [ 4.6819794, 52.2394033 ], [ 4.6820569, 52.2394277 ], [ 4.682339, 52.2395078 ], [ 4.6824837, 52.2395489 ], [ 4.6827362, 52.2396143 ], [ 4.6829872, 52.2396792 ], [ 4.6835489, 52.2398145 ], [ 4.6836751, 52.239845 ], [ 4.6844556, 52.2400368 ], [ 4.6844726, 52.240041 ], [ 4.684738, 52.2401049 ], [ 4.6852447, 52.2402269 ], [ 4.6856799, 52.2403328 ], [ 4.6859831, 52.2404065 ], [ 4.6862022, 52.2404598 ], [ 4.6864909, 52.24053 ], [ 4.6865434, 52.2405428 ], [ 4.6871987, 52.2407931 ], [ 4.6872722, 52.2408211 ], [ 4.6874979, 52.2409073 ], [ 4.6884753, 52.2412775 ], [ 4.6885745, 52.2413139 ], [ 4.6891036, 52.2415083 ], [ 4.6893283, 52.2415908 ], [ 4.6898388, 52.2417806 ], [ 4.689975, 52.2418312 ], [ 4.6906026, 52.2420582 ], [ 4.6911042, 52.2422319 ], [ 4.6918225, 52.2424591 ], [ 4.6923352, 52.2426178 ], [ 4.6924387, 52.2426472 ], [ 4.6924885, 52.2426605 ], [ 4.6925874, 52.2426871 ], [ 4.6927137, 52.2427197 ], [ 4.6927814, 52.2427332 ], [ 4.692989, 52.2427746 ], [ 4.6932586, 52.242823 ], [ 4.6933478, 52.242839 ], [ 4.6937726, 52.2429182 ], [ 4.6940493, 52.2429697 ], [ 4.6943361, 52.2430198 ], [ 4.6944577, 52.243041 ], [ 4.6946008, 52.2430629 ], [ 4.6946766, 52.2430745 ], [ 4.6946867, 52.2430834 ], [ 4.695115, 52.2431571 ], [ 4.6953857, 52.2432037 ], [ 4.6955128, 52.2432228 ], [ 4.6956106, 52.2432374 ], [ 4.6957916, 52.2432646 ], [ 4.696152, 52.2433225 ], [ 4.6963667, 52.243357 ], [ 4.6968427, 52.2434287 ], [ 4.6973063, 52.2434985 ], [ 4.6977355, 52.2435651 ], [ 4.6982763, 52.2436475 ], [ 4.6986542, 52.2437085 ], [ 4.6990388, 52.2437681 ], [ 4.6990834, 52.243775 ], [ 4.6995126, 52.2438444 ], [ 4.6998485, 52.2438977 ], [ 4.6999616, 52.2439157 ], [ 4.70016, 52.2439355 ], [ 4.700225, 52.243945 ], [ 4.7003724, 52.2439667 ], [ 4.7005736, 52.2440063 ], [ 4.7007835, 52.2440492 ], [ 4.7010099, 52.2441024 ], [ 4.7011662, 52.2441408 ], [ 4.7012756, 52.2441721 ], [ 4.7013194, 52.2441898 ], [ 4.7013892, 52.2442181 ], [ 4.7014899, 52.2442661 ], [ 4.7016191, 52.2443271 ], [ 4.7017569, 52.244402 ], [ 4.7018673, 52.2444679 ], [ 4.7020454, 52.2445882 ], [ 4.7023199, 52.2447659 ], [ 4.7026669, 52.2449987 ], [ 4.7028564, 52.2451232 ], [ 4.7029809, 52.245205 ], [ 4.7032703, 52.2454009 ], [ 4.7034765, 52.2455403 ], [ 4.7037472, 52.2457194 ], [ 4.7038321, 52.2457756 ], [ 4.7041104, 52.2459636 ], [ 4.7042233, 52.2460399 ], [ 4.7042636, 52.2460664 ], [ 4.7044074, 52.2461609 ], [ 4.7045346, 52.2462445 ], [ 4.7045548, 52.2462578 ], [ 4.7049201, 52.2464946 ], [ 4.7051445, 52.2466466 ], [ 4.7052672, 52.2467552 ], [ 4.7054435, 52.2469366 ], [ 4.705571, 52.2470767 ], [ 4.7056284, 52.2471397 ], [ 4.705697, 52.2472336 ], [ 4.705735, 52.247296 ], [ 4.7057697, 52.2473529 ], [ 4.7058348, 52.2474787 ], [ 4.70589, 52.247581 ], [ 4.7059361, 52.2476665 ], [ 4.7060117, 52.2478076 ], [ 4.7060562, 52.2478907 ], [ 4.7061829, 52.2481008 ], [ 4.7062833, 52.2482462 ], [ 4.7063876, 52.2483913 ], [ 4.7064539, 52.2484785 ], [ 4.7066418, 52.2486858 ], [ 4.7069068, 52.248974 ], [ 4.7069505, 52.2490215 ], [ 4.7072764, 52.2493503 ], [ 4.7072965, 52.2493706 ], [ 4.7075472, 52.2496264 ], [ 4.7076103, 52.2496907 ], [ 4.7078221, 52.2499068 ], [ 4.7082353, 52.2503356 ], [ 4.7087999, 52.2509105 ], [ 4.7089336, 52.2510467 ], [ 4.7091047, 52.2512229 ], [ 4.7093511, 52.2514767 ], [ 4.7099559, 52.2520984 ], [ 4.7102971, 52.2524493 ], [ 4.7105898, 52.2527507 ], [ 4.7110954, 52.253262 ], [ 4.7117837, 52.253967 ], [ 4.7119591, 52.2541451 ], [ 4.7122409, 52.2544314 ], [ 4.7126542, 52.2548601 ], [ 4.7129322, 52.2551454 ], [ 4.7130525, 52.2552568 ], [ 4.7131295, 52.2553243 ], [ 4.7131747, 52.2553624 ], [ 4.7132202, 52.2554009 ], [ 4.7135025, 52.2555597 ], [ 4.7136453, 52.25564 ], [ 4.7137572, 52.2556961 ], [ 4.7140564, 52.2558459 ], [ 4.7140607, 52.255848 ], [ 4.714352, 52.2559623 ], [ 4.7144015, 52.2559808 ], [ 4.7150418, 52.2562203 ], [ 4.7152348, 52.2562915 ], [ 4.7155085, 52.2564053 ], [ 4.7156309, 52.2564562 ], [ 4.7158403, 52.2565281 ], [ 4.7158545, 52.2565344 ], [ 4.7160653, 52.2566273 ], [ 4.7161046, 52.2566446 ], [ 4.7162955, 52.2567288 ], [ 4.7162984, 52.2567301 ], [ 4.7168481, 52.2569707 ], [ 4.7168329, 52.2569879 ], [ 4.7170745, 52.2570947 ], [ 4.7172875, 52.2571939 ], [ 4.718162, 52.2575687 ], [ 4.7182029, 52.2575886 ], [ 4.7182549, 52.2576139 ], [ 4.7183819, 52.2576756 ], [ 4.7184654, 52.2577162 ], [ 4.7186009, 52.257782 ], [ 4.7186503, 52.2578083 ], [ 4.7187694, 52.2578566 ], [ 4.7187816, 52.2578616 ], [ 4.7188035, 52.2578705 ], [ 4.7188088, 52.2578674 ], [ 4.718837, 52.2578797 ], [ 4.7188938, 52.2579045 ], [ 4.7190227, 52.2579606 ], [ 4.7190787, 52.257985 ], [ 4.7192777, 52.2580731 ], [ 4.7193191, 52.2580932 ], [ 4.7194681, 52.2581523 ], [ 4.7197183, 52.2582624 ], [ 4.7198602, 52.2583288 ], [ 4.7199102, 52.2583489 ], [ 4.7201351, 52.258439 ], [ 4.7201829, 52.258459 ], [ 4.7202682, 52.258497 ], [ 4.7202952, 52.2585115 ], [ 4.7203753, 52.2585544 ], [ 4.7204719, 52.2586032 ], [ 4.7206373, 52.2586974 ], [ 4.7207708, 52.258773 ], [ 4.7207857, 52.2587815 ], [ 4.7208986, 52.2588553 ], [ 4.7209489, 52.25889 ], [ 4.720969, 52.2589065 ], [ 4.7211477, 52.2590464 ], [ 4.721177, 52.2590695 ], [ 4.7214055, 52.2592561 ], [ 4.721771, 52.2595648 ], [ 4.7218404, 52.2596223 ], [ 4.7218934, 52.2596664 ], [ 4.7219039, 52.2596751 ], [ 4.7220352, 52.2597814 ], [ 4.7220701, 52.259805 ], [ 4.7221346, 52.2598494 ], [ 4.7221792, 52.25988 ], [ 4.7221814, 52.2598815 ], [ 4.7222061, 52.2598984 ], [ 4.722277, 52.2599555 ], [ 4.7224919, 52.2601331 ], [ 4.722627, 52.260244 ], [ 4.7227791, 52.2603524 ], [ 4.7229441, 52.2604959 ], [ 4.7230702, 52.2605981 ], [ 4.7231831, 52.2606908 ], [ 4.7232157, 52.2607133 ], [ 4.7235253, 52.2609859 ], [ 4.7235386, 52.2609937 ], [ 4.7236615, 52.261114 ], [ 4.7237173, 52.2611645 ], [ 4.7237895, 52.2612297 ], [ 4.7238172, 52.2612578 ], [ 4.723936, 52.2613812 ], [ 4.7239819, 52.2614357 ], [ 4.7239838, 52.2614377 ], [ 4.7241564, 52.2616405 ], [ 4.7243384, 52.2618545 ], [ 4.7243823, 52.261903 ], [ 4.7244563, 52.2619941 ], [ 4.7245594, 52.2621369 ], [ 4.7247237, 52.2623719 ], [ 4.7247515, 52.262415 ], [ 4.7248308, 52.2625149 ], [ 4.7248698, 52.2625609 ], [ 4.7250776, 52.2627915 ], [ 4.7250797, 52.2627938 ], [ 4.7251194, 52.2628358 ], [ 4.7251642, 52.2628831 ], [ 4.7254787, 52.2631017 ], [ 4.7255095, 52.2631182 ], [ 4.7255707, 52.2631597 ], [ 4.7256219, 52.263195 ], [ 4.725698, 52.2632433 ], [ 4.7258773, 52.2633388 ], [ 4.725941, 52.263371 ], [ 4.7259972, 52.2633955 ], [ 4.7260227, 52.2634062 ], [ 4.7261638, 52.2634603 ], [ 4.7262348, 52.2634848 ], [ 4.7266281, 52.2636257 ], [ 4.7268516, 52.2636955 ], [ 4.7270233, 52.2637567 ], [ 4.7270601, 52.2637756 ], [ 4.7270866, 52.2637864 ], [ 4.7271571, 52.2638149 ], [ 4.727328, 52.2638855 ], [ 4.7273819, 52.2639077 ], [ 4.7275053, 52.2639657 ], [ 4.7275456, 52.2639853 ], [ 4.7276762, 52.2640486 ], [ 4.7277537, 52.2640869 ], [ 4.7278057, 52.2641126 ], [ 4.7279271, 52.2641793 ], [ 4.72802, 52.2642328 ], [ 4.7281496, 52.2643074 ], [ 4.7282396, 52.2643571 ], [ 4.7283428, 52.2644078 ], [ 4.7284667, 52.2644742 ], [ 4.7285498, 52.2645151 ], [ 4.728552, 52.2645163 ], [ 4.7286382, 52.2645656 ], [ 4.7289576, 52.2647629 ], [ 4.7290552, 52.2648191 ], [ 4.7292268, 52.2649053 ], [ 4.7294283, 52.2650054 ], [ 4.729542, 52.2650517 ], [ 4.7298876, 52.2651909 ], [ 4.7300823, 52.2652651 ], [ 4.730248, 52.2653207 ], [ 4.7303005, 52.2653383 ], [ 4.7304066, 52.2653738 ], [ 4.7304382, 52.2653845 ], [ 4.7305413, 52.2654198 ], [ 4.7306115, 52.2654399 ], [ 4.7307226, 52.2654718 ], [ 4.7307823, 52.2654892 ], [ 4.7309154, 52.265528 ], [ 4.7314233, 52.2656868 ], [ 4.7314729, 52.2657018 ], [ 4.731511, 52.2657133 ], [ 4.7317459, 52.2657888 ], [ 4.7320268, 52.2658628 ], [ 4.7320314, 52.265864 ], [ 4.7326468, 52.2660351 ], [ 4.7330755, 52.2661523 ], [ 4.7334144, 52.2662395 ], [ 4.7337456, 52.2663277 ], [ 4.7338669, 52.2663624 ], [ 4.7340352, 52.266408 ], [ 4.7342952, 52.2664765 ], [ 4.7345674, 52.2665467 ], [ 4.7346971, 52.2665801 ], [ 4.7351944, 52.2667087 ], [ 4.7354139, 52.2667649 ], [ 4.7357406, 52.2668485 ], [ 4.7358724, 52.2668842 ], [ 4.7360309, 52.2669174 ], [ 4.7364281, 52.2670012 ], [ 4.7365118, 52.2670187 ], [ 4.7369576, 52.2671135 ], [ 4.7370767, 52.2671383 ], [ 4.7372105, 52.2671662 ], [ 4.7375642, 52.2672345 ], [ 4.7378767, 52.2672954 ], [ 4.7381254, 52.2673444 ], [ 4.7385004, 52.2674157 ], [ 4.7386626, 52.2674478 ], [ 4.7388569, 52.2674973 ], [ 4.7389247, 52.2675141 ], [ 4.7390318, 52.2675456 ], [ 4.7391473, 52.2675845 ], [ 4.739235, 52.2676135 ], [ 4.7393388, 52.2676532 ], [ 4.7394475, 52.2676957 ], [ 4.7395793, 52.2677485 ], [ 4.7397202, 52.26781 ], [ 4.7398505, 52.2678713 ], [ 4.7400075, 52.2679461 ], [ 4.740146, 52.2680127 ], [ 4.7405423, 52.2682144 ], [ 4.7410723, 52.268481 ], [ 4.7414331, 52.2686652 ], [ 4.7415548, 52.2687193 ], [ 4.741762, 52.2688182 ], [ 4.7419219, 52.2688949 ], [ 4.7421046, 52.2689847 ], [ 4.7421543, 52.2690102 ], [ 4.7422173, 52.2690456 ], [ 4.7425893, 52.26922 ], [ 4.7425965, 52.2692238 ], [ 4.7426869, 52.2692715 ], [ 4.7427781, 52.2693205 ], [ 4.7428041, 52.2693337 ], [ 4.7430277, 52.2694478 ], [ 4.743375, 52.2696249 ], [ 4.7434802, 52.2696799 ], [ 4.7435817, 52.269735 ], [ 4.7437654, 52.2698376 ], [ 4.7438267, 52.2698718 ], [ 4.7438408, 52.2698797 ], [ 4.7438821, 52.2699028 ], [ 4.743969, 52.2699606 ], [ 4.7440205, 52.2699948 ], [ 4.7440526, 52.2700304 ], [ 4.7441188, 52.2701037 ], [ 4.7441377, 52.2701247 ], [ 4.7442105, 52.2702053 ], [ 4.7442653, 52.2702661 ], [ 4.7442923, 52.270296 ], [ 4.7443792, 52.2703926 ], [ 4.7444558, 52.2704777 ], [ 4.7445211, 52.2705503 ], [ 4.7445447, 52.2705765 ], [ 4.7445919, 52.2706209 ], [ 4.7446697, 52.2706939 ], [ 4.7446905, 52.2707392 ], [ 4.7447243, 52.2708127 ], [ 4.7448025, 52.2708808 ], [ 4.7448427, 52.2709003 ], [ 4.7449493, 52.2710289 ], [ 4.7449497, 52.2710295 ], [ 4.7451692, 52.2712515 ], [ 4.7451714, 52.2712538 ], [ 4.7453006, 52.2713793 ], [ 4.7455574, 52.2715958 ], [ 4.7456752, 52.2716869 ], [ 4.745879, 52.2717992 ], [ 4.7460149, 52.2718796 ], [ 4.7461748, 52.2719789 ], [ 4.7463464, 52.272098 ], [ 4.7464594, 52.2721539 ], [ 4.7465478, 52.2721968 ], [ 4.7466255, 52.2722258 ], [ 4.7466994, 52.2722534 ], [ 4.7467982, 52.2722863 ], [ 4.7468987, 52.2723045 ], [ 4.7469245, 52.2723121 ], [ 4.7471153, 52.2723791 ], [ 4.7472411, 52.2724233 ], [ 4.7472732, 52.2724346 ], [ 4.747292, 52.2724411 ], [ 4.7474622, 52.2725002 ], [ 4.7474683, 52.2725023 ], [ 4.7474759, 52.272505 ], [ 4.7475561, 52.2725309 ], [ 4.7476785, 52.2725706 ], [ 4.7477164, 52.2725828 ], [ 4.7477657, 52.2725988 ], [ 4.747855, 52.272628 ], [ 4.747905, 52.2726441 ], [ 4.7479058, 52.2726443 ], [ 4.7479826, 52.2726689 ], [ 4.7480393, 52.2726871 ], [ 4.7480892, 52.2727028 ], [ 4.7481968, 52.2727366 ], [ 4.7482683, 52.2727596 ], [ 4.7484065, 52.272804 ], [ 4.748427, 52.2728091 ], [ 4.7484943, 52.2728258 ], [ 4.7485949, 52.2728507 ], [ 4.7486815, 52.2728755 ], [ 4.7488118, 52.272912 ], [ 4.7489377, 52.2729482 ], [ 4.7489714, 52.2729567 ], [ 4.7489983, 52.2729653 ], [ 4.7490433, 52.2729798 ], [ 4.7490946, 52.2729986 ], [ 4.7492561, 52.2730549 ], [ 4.7492878, 52.2730648 ], [ 4.74937, 52.2730906 ], [ 4.7494822, 52.2731239 ], [ 4.7498046, 52.2732302 ], [ 4.7498519, 52.273245 ], [ 4.7498641, 52.2732488 ], [ 4.7501608, 52.2733427 ], [ 4.7504939, 52.2734061 ], [ 4.7505845, 52.2734234 ], [ 4.7507784, 52.2734603 ], [ 4.7508598, 52.2734772 ], [ 4.7511993, 52.2735419 ], [ 4.7514767, 52.2735866 ], [ 4.7518335, 52.2736368 ], [ 4.7518902, 52.2736448 ], [ 4.751903, 52.2736473 ], [ 4.7520968, 52.2736732 ], [ 4.7526341, 52.2737241 ], [ 4.7529208, 52.2737515 ], [ 4.7530888, 52.2737693 ], [ 4.7532971, 52.2737906 ], [ 4.7533872, 52.2737989 ], [ 4.7534145, 52.2738015 ], [ 4.7534577, 52.2738055 ], [ 4.7536906, 52.2738291 ], [ 4.7537106, 52.2738311 ], [ 4.7537215, 52.273832 ], [ 4.7541452, 52.273869 ], [ 4.7541983, 52.2738736 ], [ 4.7545534, 52.2739123 ], [ 4.7546984, 52.2739281 ], [ 4.7548536, 52.2739496 ], [ 4.7550167, 52.2739713 ], [ 4.7551483, 52.2739933 ], [ 4.7552633, 52.2740139 ], [ 4.7557038, 52.2740908 ], [ 4.7557319, 52.2740957 ], [ 4.75623, 52.2742239 ], [ 4.7568785, 52.2744011 ], [ 4.756879, 52.2744013 ], [ 4.7571725, 52.2744818 ], [ 4.7576279, 52.2746068 ], [ 4.7578359, 52.2746638 ], [ 4.7580788, 52.2747305 ], [ 4.7584651, 52.2748365 ], [ 4.758573, 52.2748661 ], [ 4.7585752, 52.2748667 ], [ 4.7586808, 52.2748953 ], [ 4.7588214, 52.2749392 ], [ 4.7588811, 52.2749551 ], [ 4.758888, 52.274957 ], [ 4.7591859, 52.275039 ], [ 4.7595524, 52.27514 ], [ 4.7597879, 52.2752081 ], [ 4.7598589, 52.2752286 ], [ 4.7600582, 52.2752839 ], [ 4.7604696, 52.2753979 ], [ 4.7604888, 52.2754032 ], [ 4.760655, 52.2754493 ], [ 4.7607459, 52.2754748 ], [ 4.7609264, 52.2755253 ], [ 4.7612298, 52.2756124 ], [ 4.7613509, 52.2756477 ], [ 4.761525, 52.2756983 ], [ 4.7619059, 52.2758091 ], [ 4.7621457, 52.275881 ], [ 4.7626157, 52.2760218 ], [ 4.7629705, 52.2761239 ], [ 4.7635472, 52.2762881 ], [ 4.7640125, 52.2764177 ], [ 4.7640383, 52.2764265 ], [ 4.7641951, 52.2764801 ], [ 4.7643781, 52.2765388 ], [ 4.7648394, 52.2766915 ], [ 4.765113, 52.2767821 ], [ 4.7652581, 52.2768387 ], [ 4.766186, 52.2772219 ], [ 4.7668413, 52.277501 ], [ 4.7671071, 52.2776201 ], [ 4.7674728, 52.2777824 ], [ 4.7679947, 52.2780182 ], [ 4.768941, 52.2784404 ], [ 4.7689458, 52.2784425 ], [ 4.7696191, 52.2787407 ], [ 4.7701635, 52.2789832 ], [ 4.7702145, 52.2790046 ], [ 4.7703569, 52.2790694 ], [ 4.7704129, 52.2790925 ], [ 4.77057, 52.2791634 ], [ 4.7707063, 52.2792267 ], [ 4.7708412, 52.2792894 ], [ 4.7710199, 52.2793662 ], [ 4.7710913, 52.2793969 ], [ 4.771092, 52.2793972 ], [ 4.7716987, 52.2796691 ], [ 4.7717525, 52.2796932 ], [ 4.772526, 52.2800395 ], [ 4.7729024, 52.2802019 ], [ 4.7730016, 52.2802467 ], [ 4.7732717, 52.2803623 ], [ 4.7733088, 52.2803793 ], [ 4.7733477, 52.2803971 ], [ 4.7741134, 52.2807475 ], [ 4.7743699, 52.2808649 ], [ 4.7745301, 52.2809373 ], [ 4.774746, 52.2810331 ], [ 4.7749085, 52.2810994 ], [ 4.7753545, 52.2812815 ], [ 4.7756737, 52.2814079 ], [ 4.776023, 52.2815472 ], [ 4.7763366, 52.2816706 ], [ 4.7771082, 52.2819668 ], [ 4.7774251, 52.2820903 ], [ 4.7775712, 52.2821508 ], [ 4.7778672, 52.2822658 ], [ 4.7783359, 52.2824508 ], [ 4.7786338, 52.2825675 ], [ 4.7789714, 52.2826995 ], [ 4.7790791, 52.2827431 ], [ 4.7793942, 52.2828774 ], [ 4.7796412, 52.2829906 ], [ 4.7796719, 52.2830046 ], [ 4.77969, 52.2830142 ], [ 4.7797988, 52.2830728 ], [ 4.7799104, 52.2831303 ], [ 4.7800654, 52.2832189 ], [ 4.7801139, 52.2832445 ], [ 4.7801379, 52.2832604 ], [ 4.7802737, 52.2833442 ], [ 4.7803955, 52.283423 ], [ 4.7805129, 52.283494 ], [ 4.7806926, 52.2836102 ], [ 4.7809026, 52.2837444 ], [ 4.7810795, 52.2838564 ], [ 4.7812162, 52.2839432 ], [ 4.7812699, 52.2839773 ], [ 4.7814274, 52.2840793 ], [ 4.7815525, 52.2841583 ], [ 4.7816695, 52.2842333 ], [ 4.7817519, 52.2842876 ], [ 4.7817619, 52.284294 ], [ 4.7819707, 52.284425 ], [ 4.7822011, 52.2845717 ], [ 4.7824086, 52.284705 ], [ 4.7826089, 52.2848316 ], [ 4.7827266, 52.2849072 ], [ 4.7827616, 52.2849298 ], [ 4.7828251, 52.2849701 ], [ 4.7830022, 52.2850864 ], [ 4.7833202, 52.2852925 ], [ 4.7833628, 52.2853202 ], [ 4.7837718, 52.2855853 ], [ 4.7840306, 52.2857531 ], [ 4.784408, 52.2859977 ], [ 4.7847246, 52.286203 ], [ 4.7850447, 52.2864105 ], [ 4.7852727, 52.2865583 ], [ 4.7853296, 52.2865952 ], [ 4.7854637, 52.2866821 ], [ 4.785601, 52.2867711 ], [ 4.7857307, 52.2868544 ], [ 4.7859722, 52.2870095 ], [ 4.7862116, 52.2871631 ], [ 4.7863046, 52.2872229 ], [ 4.7866337, 52.2874342 ], [ 4.7869002, 52.2876053 ], [ 4.7882513, 52.288473 ], [ 4.7883415, 52.2885309 ], [ 4.7883382, 52.2885327 ], [ 4.7884551, 52.2886176 ], [ 4.7885071, 52.2886559 ], [ 4.7886408, 52.288756 ], [ 4.7886663, 52.2887762 ], [ 4.788843, 52.288917 ], [ 4.7891271, 52.2891596 ], [ 4.7893707, 52.289366 ], [ 4.7895624, 52.289533 ], [ 4.7896429, 52.2896274 ], [ 4.7898559, 52.2898923 ], [ 4.7900497, 52.2901068 ], [ 4.7900542, 52.2901118 ], [ 4.790268, 52.2903473 ], [ 4.7911228, 52.2912891 ], [ 4.7922973, 52.2925871 ], [ 4.7923537, 52.2926494 ], [ 4.7925197, 52.2928328 ], [ 4.7925553, 52.2928751 ], [ 4.7925863, 52.2929163 ], [ 4.7926358, 52.2929891 ], [ 4.7926874, 52.2930653 ], [ 4.7927285, 52.2931341 ], [ 4.7930249, 52.2936949 ], [ 4.7932483, 52.2940995 ], [ 4.7932576, 52.2941163 ], [ 4.7937154, 52.2949452 ], [ 4.793876, 52.2952362 ], [ 4.7940201, 52.2954956 ], [ 4.7943847, 52.2961522 ], [ 4.7944518, 52.2962845 ], [ 4.7945225, 52.2964028 ], [ 4.7946188, 52.2965961 ], [ 4.7947336, 52.2969142 ], [ 4.7949362, 52.2974946 ], [ 4.7950309, 52.2977658 ], [ 4.7954121, 52.2987238 ], [ 4.7956278, 52.2992588 ], [ 4.7956634, 52.2993239 ], [ 4.7957128, 52.2993817 ], [ 4.7957616, 52.299428 ], [ 4.7958072, 52.2994612 ], [ 4.7965289, 52.2999251 ], [ 4.7977116, 52.3006985 ], [ 4.7988358, 52.3014211 ], [ 4.7988405, 52.3014236 ], [ 4.7989813, 52.3014878 ], [ 4.7991987, 52.3015832 ], [ 4.7993828, 52.3016642 ], [ 4.7997725, 52.301836 ], [ 4.8001731, 52.3020147 ], [ 4.8005158, 52.3021675 ], [ 4.8007623, 52.3022824 ], [ 4.8012883, 52.3025276 ], [ 4.8015381, 52.3026363 ], [ 4.801868, 52.3027798 ], [ 4.8021213, 52.3028901 ], [ 4.8023838, 52.3030064 ], [ 4.8025753, 52.3030923 ], [ 4.8029162, 52.3032451 ], [ 4.8031367, 52.3033412 ], [ 4.8034142, 52.3034603 ], [ 4.8036166, 52.3035472 ], [ 4.8037023, 52.303584 ], [ 4.8037498, 52.3036044 ], [ 4.8037842, 52.3036161 ], [ 4.8038556, 52.3036404 ], [ 4.8039503, 52.3036726 ], [ 4.8040045, 52.303694 ], [ 4.804109, 52.3037333 ], [ 4.8042364, 52.3037813 ], [ 4.8042996, 52.303803 ], [ 4.8044915, 52.3038685 ], [ 4.804799, 52.3039726 ], [ 4.8050156, 52.3040459 ], [ 4.8052808, 52.304138 ], [ 4.8054791, 52.3042072 ], [ 4.8057486, 52.3043007 ], [ 4.8060318, 52.3043985 ], [ 4.8062866, 52.3044866 ], [ 4.8066105, 52.3045996 ], [ 4.8069131, 52.3047052 ], [ 4.8072458, 52.3048217 ], [ 4.8074535, 52.3048944 ], [ 4.8076753, 52.3049674 ], [ 4.8079641, 52.3050639 ], [ 4.8082731, 52.3051697 ], [ 4.8084997, 52.3052481 ], [ 4.8087185, 52.3053248 ], [ 4.8088584, 52.3053764 ], [ 4.8090637, 52.3054514 ], [ 4.8092573, 52.3055204 ], [ 4.8094501, 52.3055803 ], [ 4.8095463, 52.3056153 ], [ 4.8096201, 52.3056468 ], [ 4.8096701, 52.3056605 ], [ 4.809711, 52.3056846 ], [ 4.8097488, 52.3057036 ], [ 4.8097932, 52.3057258 ], [ 4.8098783, 52.3057724 ], [ 4.8098838, 52.3057761 ], [ 4.8099487, 52.3058198 ], [ 4.8101311, 52.3059186 ], [ 4.8101895, 52.3059562 ], [ 4.8104166, 52.3061102 ], [ 4.8105951, 52.3062436 ], [ 4.8108483, 52.3064328 ], [ 4.8110229, 52.306562 ], [ 4.8111428, 52.3066507 ], [ 4.811392, 52.306835 ], [ 4.8115714, 52.3069722 ], [ 4.8117263, 52.3070953 ], [ 4.8119108, 52.3072419 ], [ 4.8120596, 52.3073602 ], [ 4.8122046, 52.3074755 ], [ 4.8123624, 52.3076009 ], [ 4.8124948, 52.3077055 ], [ 4.8126617, 52.3078359 ], [ 4.8127984, 52.3079428 ], [ 4.8129279, 52.3080441 ], [ 4.8130659, 52.3081534 ], [ 4.8131876, 52.3082589 ], [ 4.8132662, 52.3083417 ], [ 4.8134021, 52.3084914 ], [ 4.8135203, 52.3086252 ], [ 4.8135745, 52.3086779 ], [ 4.8136823, 52.3088121 ], [ 4.8138269, 52.308992 ], [ 4.8139388, 52.3091315 ], [ 4.8140386, 52.3092561 ], [ 4.8141503, 52.3093956 ], [ 4.8142801, 52.3095577 ], [ 4.8143804, 52.3096829 ], [ 4.8144823, 52.3098102 ], [ 4.8145982, 52.3099519 ], [ 4.8146364, 52.3099987 ], [ 4.8147095, 52.3100879 ], [ 4.8148192, 52.3102231 ], [ 4.8148894, 52.3102952 ], [ 4.8149623, 52.310368 ], [ 4.8150465, 52.310406 ], [ 4.815133, 52.310445 ], [ 4.8152059, 52.3104779 ], [ 4.8152744, 52.3105048 ], [ 4.815337, 52.3105264 ], [ 4.8154127, 52.3105505 ], [ 4.815489, 52.31057 ], [ 4.8155244, 52.3105758 ], [ 4.8155596, 52.3105822 ], [ 4.8155945, 52.3105893 ], [ 4.8156291, 52.3105969 ], [ 4.8156632, 52.3106052 ], [ 4.8156969, 52.3106141 ], [ 4.8157302, 52.3106236 ], [ 4.815782, 52.3106368 ], [ 4.8160795, 52.3107156 ], [ 4.8164232, 52.3108284 ], [ 4.8164651, 52.3108421 ], [ 4.8164868, 52.3108494 ], [ 4.816508, 52.3108573 ], [ 4.8165286, 52.3108657 ], [ 4.8165486, 52.3108746 ], [ 4.8165664, 52.3108833 ], [ 4.8165836, 52.3108923 ], [ 4.8166002, 52.3109018 ], [ 4.816619, 52.3109129 ], [ 4.816637, 52.3109246 ], [ 4.8166542, 52.3109367 ], [ 4.8166705, 52.3109492 ], [ 4.816686, 52.3109622 ], [ 4.8167005, 52.3109755 ], [ 4.816714, 52.3109892 ], [ 4.8167266, 52.3110033 ], [ 4.8167381, 52.3110177 ], [ 4.8167487, 52.3110324 ], [ 4.8167582, 52.3110473 ], [ 4.8167667, 52.3110625 ], [ 4.816774, 52.3110779 ], [ 4.8167803, 52.3110934 ], [ 4.8167855, 52.3111092 ], [ 4.8167896, 52.311125 ], [ 4.8168439, 52.3112413 ], [ 4.8168598, 52.3112745 ], [ 4.8168816, 52.3113214 ], [ 4.8169025, 52.3113685 ], [ 4.8169225, 52.3114158 ], [ 4.8169417, 52.3114632 ], [ 4.8169601, 52.3115107 ], [ 4.8170012, 52.3116425 ], [ 4.8170319, 52.3117409 ], [ 4.8170755, 52.3118206 ], [ 4.8170884, 52.3118442 ], [ 4.8171168, 52.3118942 ], [ 4.8171455, 52.3119565 ], [ 4.8171534, 52.3119679 ], [ 4.8171547, 52.3119697 ], [ 4.81716, 52.3119774 ], [ 4.8171814, 52.3121066 ], [ 4.8171811, 52.3121281 ], [ 4.8171681, 52.3121502 ], [ 4.8171577, 52.3121673 ], [ 4.8171405, 52.3122097 ], [ 4.8171249, 52.3122464 ], [ 4.8171025, 52.3122773 ], [ 4.8170845, 52.3123022 ], [ 4.817059, 52.3123429 ], [ 4.8170318, 52.3123775 ], [ 4.8170024, 52.3124021 ], [ 4.8169759, 52.3124243 ], [ 4.8169341, 52.3124592 ], [ 4.8169125, 52.3124768 ], [ 4.816878, 52.3125048 ], [ 4.8168665, 52.3125143 ], [ 4.8168476, 52.3125405 ], [ 4.8168383, 52.3125576 ], [ 4.8168186, 52.3125743 ], [ 4.8165515, 52.3127985 ], [ 4.8164872, 52.3128559 ], [ 4.8164815, 52.312862 ], [ 4.8164763, 52.3128682 ], [ 4.8164718, 52.3128747 ], [ 4.8164627, 52.3128832 ], [ 4.8164545, 52.3128921 ], [ 4.816447, 52.3129012 ], [ 4.8164404, 52.3129105 ], [ 4.8164347, 52.3129201 ], [ 4.8164028, 52.3129598 ], [ 4.8163719, 52.3129998 ], [ 4.8163421, 52.3130401 ], [ 4.8163132, 52.3130806 ], [ 4.8162855, 52.3131214 ], [ 4.8162587, 52.3131625 ], [ 4.816233, 52.3132039 ], [ 4.8162084, 52.3132454 ], [ 4.8161968, 52.3132651 ], [ 4.8161861, 52.313285 ], [ 4.8161765, 52.313305 ], [ 4.8161678, 52.3133253 ], [ 4.8161601, 52.3133457 ], [ 4.8161535, 52.3133662 ], [ 4.8161479, 52.3133868 ], [ 4.8161432, 52.3134075 ], [ 4.8161396, 52.3134283 ], [ 4.816137, 52.3134492 ], [ 4.8161322, 52.3134687 ], [ 4.8161242, 52.3134912 ], [ 4.8164211, 52.3145148 ], [ 4.8165898, 52.3150753 ], [ 4.816741, 52.3155776 ], [ 4.8173123, 52.3174758 ], [ 4.8179812, 52.3197079 ], [ 4.8180931, 52.320078 ], [ 4.8184341, 52.3212056 ], [ 4.818795, 52.3224158 ], [ 4.8189031, 52.3227766 ], [ 4.8190133, 52.3231443 ], [ 4.8190618, 52.3233183 ], [ 4.8191352, 52.3237164 ], [ 4.8191567, 52.3239156 ], [ 4.8191588, 52.3241079 ], [ 4.8191473, 52.3243173 ], [ 4.8191111, 52.3245107 ], [ 4.8190984, 52.3245768 ], [ 4.8190598, 52.3247776 ], [ 4.81899, 52.3250539 ], [ 4.8188914, 52.3252878 ], [ 4.8187526, 52.3255603 ], [ 4.8184259, 52.3255572 ], [ 4.818136, 52.3259692 ], [ 4.8177113, 52.326438 ], [ 4.8171288, 52.3269203 ], [ 4.8171216, 52.3269251 ], [ 4.8164041, 52.3274058 ], [ 4.8154359, 52.3278927 ], [ 4.8126681, 52.3290508 ], [ 4.8077187, 52.3310905 ], [ 4.8047405, 52.3323292 ], [ 4.7997874, 52.3343884 ], [ 4.7987932, 52.3348018 ], [ 4.7982163, 52.3350417 ], [ 4.7977656, 52.3352825 ], [ 4.7973263, 52.3355964 ], [ 4.7960853, 52.3367984 ], [ 4.7923193, 52.3405038 ], [ 4.7917815, 52.3410274 ], [ 4.7914375, 52.341296 ], [ 4.7905413, 52.3418417 ], [ 4.7901574, 52.3420079 ], [ 4.7881503, 52.3428411 ], [ 4.7861685, 52.3436501 ], [ 4.78329, 52.34483 ], [ 4.7814579, 52.3455797 ], [ 4.7787366, 52.3466896 ], [ 4.7751726, 52.3481538 ], [ 4.773304, 52.3489285 ], [ 4.7717404, 52.3495584 ], [ 4.7691334, 52.3505845 ], [ 4.7649377, 52.3522334 ], [ 4.7621227, 52.3533399 ], [ 4.7580805, 52.3549156 ], [ 4.7573302, 52.3552029 ], [ 4.756653, 52.3555196 ], [ 4.7561061, 52.3558294 ], [ 4.7556839, 52.35615 ], [ 4.7553141, 52.3565371 ], [ 4.755104, 52.3568318 ], [ 4.754941, 52.3572189 ], [ 4.7548372, 52.3579073 ], [ 4.7549019, 52.3583838 ], [ 4.7550968, 52.3590343 ], [ 4.7554729, 52.3603912 ], [ 4.7564836, 52.3638992 ], [ 4.7578265, 52.3687135 ], [ 4.7579835, 52.3692394 ], [ 4.7584414, 52.3709576 ], [ 4.7585108, 52.3712412 ], [ 4.7585748, 52.3715944 ], [ 4.7585964, 52.3722176 ], [ 4.7585676, 52.3727554 ], [ 4.758517, 52.3732593 ], [ 4.7583805, 52.3740153 ], [ 4.758047, 52.3750653 ], [ 4.7575305, 52.3761888 ], [ 4.756986, 52.3770463 ], [ 4.7564339, 52.3777635 ], [ 4.7567179, 52.3778378 ], [ 4.7567834, 52.3778549 ], [ 4.7572565, 52.3779785 ], [ 4.7575521, 52.3781922 ], [ 4.7578876, 52.3784348 ], [ 4.7585202, 52.3788921 ], [ 4.7591176, 52.379324 ], [ 4.7591248, 52.3793292 ], [ 4.7591243, 52.3793435 ], [ 4.7591125, 52.3797112 ], [ 4.7591028, 52.3800137 ], [ 4.7591024, 52.3800254 ], [ 4.7591021, 52.3800388 ], [ 4.7590926, 52.3803957 ], [ 4.7590922, 52.3804074 ], [ 4.7590915, 52.3804416 ], [ 4.7590902, 52.3805027 ], [ 4.7590851, 52.3807378 ], [ 4.7590846, 52.3807575 ], [ 4.759082, 52.3808298 ], [ 4.7590781, 52.3809407 ], [ 4.7590735, 52.3810692 ], [ 4.759072, 52.3811089 ], [ 4.7590665, 52.3812603 ], [ 4.7590653, 52.3812939 ], [ 4.7590651, 52.3813006 ], [ 4.7590644, 52.3813183 ], [ 4.7590555, 52.3815217 ], [ 4.759055, 52.3815533 ], [ 4.759053, 52.3816724 ], [ 4.759053, 52.3816734 ], [ 4.7590471, 52.3817943 ], [ 4.7590414, 52.381918 ], [ 4.7590268, 52.3823736 ], [ 4.7590165, 52.3826939 ], [ 4.7590142, 52.3827658 ], [ 4.7590082, 52.3829706 ], [ 4.7589964, 52.3833621 ], [ 4.7589947, 52.3834202 ], [ 4.758987, 52.3836633 ], [ 4.7589868, 52.3836683 ], [ 4.7589812, 52.3837429 ], [ 4.7589693, 52.3839002 ], [ 4.7589658, 52.3839473 ], [ 4.7589656, 52.3839605 ], [ 4.7589623, 52.3840079 ], [ 4.7589527, 52.3841176 ], [ 4.7589466, 52.3841876 ], [ 4.7589465, 52.3841915 ], [ 4.7589451, 52.3842678 ], [ 4.7589435, 52.3843507 ], [ 4.7589435, 52.3844197 ], [ 4.7589351, 52.3844741 ], [ 4.7586888, 52.3860626 ], [ 4.7585135, 52.3871938 ], [ 4.7581098, 52.3884759 ], [ 4.7581041, 52.388688 ], [ 4.7578928, 52.3965543 ], [ 4.7578294, 52.396681 ], [ 4.7576926, 52.3967963 ], [ 4.7574915, 52.3969013 ], [ 4.7565841, 52.3970292 ], [ 4.75603, 52.397097 ], [ 4.7560693, 52.3972092 ], [ 4.7287776, 52.4007083 ], [ 4.7385667, 52.4292246 ], [ 4.7386837, 52.4295546 ], [ 4.7387587, 52.4297704 ], [ 4.7387621, 52.4297803 ], [ 4.7387844, 52.4298446 ], [ 4.7392082, 52.4310638 ], [ 4.7249423, 52.4329341 ], [ 4.7227331, 52.4332235 ], [ 4.7219832, 52.4333362 ], [ 4.7191749, 52.4319086 ], [ 4.7191621, 52.4319021 ], [ 4.716618, 52.4306086 ], [ 4.7161424, 52.4303486 ], [ 4.7157123, 52.4301292 ], [ 4.7149625, 52.4297439 ], [ 4.7142588, 52.4293867 ], [ 4.7136107, 52.4290554 ], [ 4.7126792, 52.4285877 ], [ 4.7120625, 52.4282832 ], [ 4.7116953, 52.4281284 ], [ 4.7108837, 52.4277885 ], [ 4.710655, 52.4276928 ], [ 4.7097727, 52.4273859 ], [ 4.7096912, 52.4273609 ], [ 4.7092987, 52.42724 ], [ 4.7086022, 52.427032 ], [ 4.7081339, 52.4268971 ], [ 4.7075966, 52.4267647 ], [ 4.7010919, 52.4256113 ], [ 4.7005373, 52.4255129 ], [ 4.6969804, 52.4227936 ], [ 4.6962672, 52.4222483 ], [ 4.6941165, 52.4206038 ], [ 4.691486, 52.418814 ], [ 4.6909932, 52.4184968 ], [ 4.6906525, 52.4182889 ], [ 4.6906085, 52.4182625 ], [ 4.6902738, 52.4180611 ], [ 4.6899959, 52.4179014 ], [ 4.6894639, 52.4176131 ], [ 4.6891569, 52.4174461 ], [ 4.6887096, 52.4172187 ], [ 4.688071, 52.4169027 ], [ 4.6877928, 52.4167676 ], [ 4.6876641, 52.4167102 ], [ 4.6875332, 52.4166547 ], [ 4.687359, 52.4165854 ], [ 4.6871813, 52.4165195 ], [ 4.6868193, 52.4163828 ], [ 4.686371, 52.4161586 ], [ 4.6857868, 52.4158533 ], [ 4.6850381, 52.4154267 ], [ 4.6843749, 52.4150201 ], [ 4.6824762, 52.4138487 ], [ 4.682496, 52.4133688 ], [ 4.6824325, 52.4133388 ], [ 4.6823518, 52.4133691 ], [ 4.682276, 52.4134026 ], [ 4.6821342, 52.4133833 ], [ 4.6820169, 52.4132925 ], [ 4.6819449, 52.4132367 ], [ 4.6819862, 52.413218 ], [ 4.6820741, 52.4131783 ], [ 4.6820909, 52.4131708 ], [ 4.6821893, 52.4131263 ], [ 4.682183, 52.4131215 ], [ 4.6821822, 52.4131209 ], [ 4.6818189, 52.412842 ], [ 4.6816304, 52.4126973 ], [ 4.6811306, 52.4123171 ], [ 4.6807769, 52.4121347 ], [ 4.6802902, 52.4118878 ], [ 4.6799443, 52.4117102 ], [ 4.6795466, 52.411509 ], [ 4.6765187, 52.4099634 ], [ 4.6764339, 52.4099326 ], [ 4.6762166, 52.4098537 ], [ 4.6759841, 52.4097758 ], [ 4.6755501, 52.4096379 ], [ 4.6753417, 52.4095765 ], [ 4.6749349, 52.409469 ], [ 4.6747634, 52.4094322 ], [ 4.6745866, 52.4094081 ], [ 4.674394, 52.4093967 ], [ 4.6742535, 52.4093912 ], [ 4.6740814, 52.4093905 ], [ 4.673889, 52.4093932 ], [ 4.6719623, 52.4094471 ], [ 4.6721543, 52.4093131 ], [ 4.6723889, 52.4091423 ], [ 4.6725733, 52.408995 ], [ 4.6727, 52.408882 ], [ 4.673037, 52.4085676 ], [ 4.673231, 52.4083711 ], [ 4.6733571, 52.4082345 ], [ 4.6735279, 52.4080421 ], [ 4.6736243, 52.4079285 ], [ 4.673718, 52.4078027 ], [ 4.6738781, 52.4075724 ], [ 4.6740062, 52.4073785 ], [ 4.6741145, 52.4072055 ], [ 4.6741393, 52.4071622 ], [ 4.6741849, 52.4070723 ], [ 4.6742057, 52.4070255 ], [ 4.6742846, 52.4068171 ], [ 4.6743193, 52.4066999 ], [ 4.6743794, 52.4064693 ], [ 4.6730492, 52.4059164 ], [ 4.6703704, 52.4048057 ], [ 4.6688162, 52.4041628 ], [ 4.6688009, 52.4039086 ], [ 4.6687609, 52.4031024 ], [ 4.6687072, 52.4021274 ], [ 4.6686876, 52.4017574 ], [ 4.6686646, 52.4013994 ], [ 4.6693815, 52.4012647 ], [ 4.6744108, 52.4002712 ], [ 4.6761003, 52.3999586 ], [ 4.6780851, 52.3995856 ], [ 4.6786857, 52.3994775 ], [ 4.6785703, 52.3985147 ], [ 4.6772723, 52.3979535 ], [ 4.6756304, 52.3972493 ], [ 4.6734579, 52.3940673 ], [ 4.6731989, 52.3936879 ], [ 4.6736644, 52.3926927 ], [ 4.6738952, 52.3921987 ], [ 4.6744485, 52.3910033 ], [ 4.6744288, 52.3909914 ], [ 4.6744477, 52.3909756 ], [ 4.6744561, 52.3909791 ], [ 4.6745068, 52.3909322 ], [ 4.674491, 52.390923 ], [ 4.6745207, 52.3909054 ], [ 4.6745415, 52.3909112 ], [ 4.6755965, 52.3905219 ], [ 4.6768682, 52.3900523 ], [ 4.6777163, 52.3897376 ], [ 4.6811904, 52.3902867 ], [ 4.6817648, 52.3894336 ], [ 4.6825959, 52.3882161 ], [ 4.6848442, 52.3878133 ], [ 4.6869211, 52.3874437 ], [ 4.6863637, 52.3857783 ], [ 4.6861316, 52.3850776 ], [ 4.6857699, 52.3840016 ], [ 4.6859707, 52.3840179 ], [ 4.6859467, 52.383916 ], [ 4.6859508, 52.3838039 ], [ 4.6859749, 52.3836622 ], [ 4.6859777, 52.3836336 ], [ 4.6860026, 52.3834728 ], [ 4.6859515, 52.3834078 ], [ 4.6858667, 52.3832799 ], [ 4.6857791, 52.3831757 ], [ 4.6855972, 52.3829774 ], [ 4.6853693, 52.3827595 ], [ 4.6850711, 52.3825331 ], [ 4.6847628, 52.3823199 ], [ 4.6839725, 52.3818069 ], [ 4.6836919, 52.3816385 ], [ 4.6830086, 52.3812737 ], [ 4.6814885, 52.3804881 ], [ 4.6809088, 52.3801927 ], [ 4.680772, 52.380119 ], [ 4.6804793, 52.3799492 ], [ 4.680364, 52.3798722 ], [ 4.6802547, 52.3797909 ], [ 4.6797522, 52.3793821 ], [ 4.679552, 52.3792058 ], [ 4.6794385, 52.3790943 ], [ 4.6790368, 52.3787131 ], [ 4.6789253, 52.3786111 ], [ 4.6787415, 52.378454 ], [ 4.6780055, 52.3778034 ], [ 4.6779068, 52.3777116 ], [ 4.6776806, 52.3774768 ], [ 4.6775815, 52.3773669 ], [ 4.6774491, 52.3771907 ], [ 4.6773835, 52.3770881 ], [ 4.6769988, 52.3769473 ], [ 4.6766474, 52.3768142 ], [ 4.6765067, 52.376757 ], [ 4.676254, 52.3766461 ], [ 4.6757633, 52.3764115 ], [ 4.6753825, 52.3762218 ], [ 4.675225, 52.3761478 ], [ 4.6750926, 52.3760768 ], [ 4.6749024, 52.3759688 ], [ 4.6746758, 52.3758261 ], [ 4.6746283, 52.3757943 ], [ 4.6744236, 52.3756692 ], [ 4.6742759, 52.3755686 ], [ 4.6739559, 52.375354 ], [ 4.6737938, 52.3752167 ], [ 4.6735046, 52.3749757 ], [ 4.6732293, 52.3747375 ], [ 4.6728313, 52.3743541 ], [ 4.6727145, 52.3742247 ], [ 4.6725825, 52.3740486 ], [ 4.6723026, 52.3736808 ], [ 4.6721609, 52.3734759 ], [ 4.6719162, 52.3730629 ], [ 4.6719023, 52.3730116 ], [ 4.6717971, 52.372877 ], [ 4.6717337, 52.3727577 ], [ 4.6715902, 52.3724245 ], [ 4.6714712, 52.3720732 ], [ 4.6713857, 52.3717268 ], [ 4.6713661, 52.3715397 ], [ 4.6713318, 52.3713341 ], [ 4.6713321, 52.3711408 ], [ 4.6713404, 52.371043 ], [ 4.6713568, 52.3707028 ], [ 4.6713569, 52.3705521 ], [ 4.6713797, 52.3703577 ], [ 4.6714379, 52.3700749 ], [ 4.671477, 52.3699185 ], [ 4.6715489, 52.3696427 ], [ 4.6719025, 52.3686692 ], [ 4.6720712, 52.3682141 ], [ 4.6721126, 52.3681017 ], [ 4.6721775, 52.3679273 ], [ 4.6722455, 52.3677415 ], [ 4.6725296, 52.3669808 ], [ 4.6726747, 52.366586 ], [ 4.6728643, 52.3660643 ], [ 4.6729625, 52.3657906 ], [ 4.6729838, 52.3657396 ], [ 4.6730419, 52.3655752 ], [ 4.6731705, 52.3652224 ], [ 4.6733663, 52.3646749 ], [ 4.6735262, 52.3642338 ], [ 4.6736167, 52.3639846 ], [ 4.6737907, 52.3634969 ], [ 4.6739252, 52.3631298 ], [ 4.6741342, 52.3625541 ], [ 4.6743429, 52.3619741 ], [ 4.6744225, 52.3617577 ], [ 4.6744951, 52.3615529 ], [ 4.6747497, 52.360853 ], [ 4.674848, 52.3605776 ], [ 4.6749112, 52.3604096 ], [ 4.6750378, 52.3600403 ], [ 4.6751421, 52.3597496 ], [ 4.6752401, 52.3594805 ], [ 4.6753395, 52.3592138 ], [ 4.6754043, 52.3590528 ], [ 4.6755745, 52.3586072 ], [ 4.6756404, 52.3584183 ], [ 4.67566, 52.3583546 ], [ 4.675672, 52.3583219 ], [ 4.6756841, 52.3582881 ], [ 4.6756959, 52.3582555 ], [ 4.6759516, 52.3575384 ], [ 4.6760273, 52.3573283 ], [ 4.6760951, 52.3571321 ], [ 4.6761129, 52.35708 ], [ 4.6762994, 52.3566972 ], [ 4.676421, 52.3563676 ], [ 4.6764525, 52.3562562 ], [ 4.6764671, 52.3561808 ], [ 4.6765049, 52.3559468 ], [ 4.6765398, 52.3556449 ], [ 4.6765527, 52.3554794 ], [ 4.676555, 52.3553523 ], [ 4.6765529, 52.3552641 ], [ 4.6765479, 52.3551813 ], [ 4.6765271, 52.354897 ], [ 4.6765164, 52.3547845 ], [ 4.6764874, 52.3545388 ], [ 4.6764458, 52.3542871 ], [ 4.6764213, 52.354217 ], [ 4.6763939, 52.3541377 ], [ 4.6763718, 52.3540782 ], [ 4.6762542, 52.3538148 ], [ 4.6761067, 52.3535487 ], [ 4.6758756, 52.3532013 ], [ 4.6756335, 52.3528794 ], [ 4.6754776, 52.3526924 ], [ 4.6752853, 52.3524777 ], [ 4.6751402, 52.3523287 ], [ 4.6749756, 52.3521788 ], [ 4.6746938, 52.3519129 ], [ 4.6743554, 52.3516444 ], [ 4.6742782, 52.3515889 ], [ 4.6740103, 52.3514021 ], [ 4.6738718, 52.3513128 ], [ 4.6736665, 52.3511779 ], [ 4.6734814, 52.351071 ], [ 4.6730881, 52.3508622 ], [ 4.6728558, 52.3507479 ], [ 4.6725465, 52.3506095 ], [ 4.6721427, 52.350433 ], [ 4.6714751, 52.3501436 ], [ 4.6709443, 52.3499062 ], [ 4.6706407, 52.3497736 ], [ 4.6703462, 52.3496465 ], [ 4.6696447, 52.349342 ], [ 4.6688366, 52.3489901 ], [ 4.6682568, 52.3487427 ], [ 4.6680596, 52.3486568 ], [ 4.6672638, 52.3483121 ], [ 4.6668652, 52.3481409 ], [ 4.6660857, 52.3477993 ], [ 4.6656938, 52.3476305 ], [ 4.6653196, 52.3474674 ], [ 4.664464, 52.3470922 ], [ 4.6632687, 52.346571 ], [ 4.6626171, 52.3462833 ], [ 4.6624137, 52.3461944 ], [ 4.661964, 52.3460085 ], [ 4.6602513, 52.3453065 ], [ 4.6590554, 52.3447921 ], [ 4.6564651, 52.343662 ], [ 4.6564119, 52.343639 ], [ 4.6546182, 52.3428628 ], [ 4.6530185, 52.342162 ], [ 4.6525218, 52.3419513 ], [ 4.6521236, 52.3417754 ], [ 4.6518294, 52.3416312 ], [ 4.6510696, 52.3413149 ], [ 4.6507041, 52.3411555 ], [ 4.6505681, 52.3410962 ], [ 4.6495517, 52.3406544 ], [ 4.6494109, 52.3405999 ], [ 4.6492458, 52.3405381 ], [ 4.6490461, 52.340465 ], [ 4.6488325, 52.3403942 ], [ 4.6485901, 52.3403177 ], [ 4.6483552, 52.3402468 ], [ 4.6481213, 52.3401852 ], [ 4.6479057, 52.3401315 ], [ 4.6476285, 52.3400688 ], [ 4.6473479, 52.3400106 ], [ 4.6470304, 52.3399527 ], [ 4.6467956, 52.3399145 ], [ 4.6464841, 52.3398659 ], [ 4.6461219, 52.3398135 ], [ 4.6458934, 52.3397824 ], [ 4.6456821, 52.3397513 ], [ 4.645567, 52.339736 ], [ 4.6454265, 52.3397156 ], [ 4.6452392, 52.3396836 ], [ 4.6446449, 52.3395956 ], [ 4.6444758, 52.3395693 ], [ 4.6441101, 52.3395137 ], [ 4.6438908, 52.3394786 ], [ 4.6437623, 52.3394606 ], [ 4.6436844, 52.3394483 ], [ 4.6436323, 52.3394422 ], [ 4.6435759, 52.339441 ], [ 4.6435106, 52.3394298 ], [ 4.6426833, 52.3393018 ], [ 4.642504, 52.3392861 ], [ 4.6422525, 52.3392502 ], [ 4.6421174, 52.3392308 ], [ 4.6419288, 52.3392062 ], [ 4.6417902, 52.3391851 ], [ 4.6414893, 52.3391443 ], [ 4.641169, 52.3391044 ], [ 4.6410584, 52.3390893 ], [ 4.6409243, 52.3390713 ], [ 4.6408302, 52.3390622 ], [ 4.6405405, 52.33902 ], [ 4.639648, 52.3389061 ], [ 4.6388722, 52.3388071 ], [ 4.638829, 52.3388015 ], [ 4.6385578, 52.3387669 ], [ 4.6385341, 52.3387635 ], [ 4.6382494, 52.3387256 ], [ 4.6381666, 52.3387147 ], [ 4.6381512, 52.3387128 ], [ 4.638102, 52.3387045 ], [ 4.6380575, 52.3386992 ], [ 4.6379318, 52.3386822 ], [ 4.6378737, 52.3386739 ], [ 4.6375882, 52.3386354 ], [ 4.6372258, 52.3385873 ], [ 4.6370049, 52.3385572 ], [ 4.6368225, 52.3385324 ], [ 4.636185, 52.3384456 ], [ 4.6357582, 52.3383875 ], [ 4.6348038, 52.3382575 ], [ 4.6331286, 52.3380234 ], [ 4.6328554, 52.3379727 ], [ 4.632383, 52.3379042 ], [ 4.6319344, 52.3378254 ], [ 4.6317533, 52.3377935 ], [ 4.6316301, 52.3377765 ], [ 4.6315532, 52.3377605 ], [ 4.631488, 52.3377469 ], [ 4.6313448, 52.3377176 ], [ 4.6310577, 52.3376583 ], [ 4.6305844, 52.3375343 ], [ 4.6303121, 52.337462 ], [ 4.6299236, 52.3373583 ], [ 4.6297409, 52.3373102 ], [ 4.62963, 52.3372684 ], [ 4.6290708, 52.3370514 ], [ 4.6289173, 52.3369926 ], [ 4.6289168, 52.3369924 ], [ 4.628637, 52.3368908 ], [ 4.6281916, 52.3367251 ], [ 4.6279863, 52.3366503 ], [ 4.6277463, 52.3365625 ], [ 4.627464, 52.3364577 ], [ 4.6269065, 52.3362508 ], [ 4.6266634, 52.3361627 ], [ 4.6259712, 52.3359071 ], [ 4.6251707, 52.3356105 ], [ 4.6245528, 52.3353831 ], [ 4.6242593, 52.3352771 ], [ 4.6241975, 52.3352548 ], [ 4.6240704, 52.3352088 ], [ 4.6239662, 52.3351712 ], [ 4.6238643, 52.335135 ], [ 4.6238094, 52.3351117 ], [ 4.6234595, 52.3349645 ], [ 4.6227564, 52.334706 ], [ 4.6227414, 52.3347004 ], [ 4.6225455, 52.3346294 ], [ 4.6220527, 52.3344448 ], [ 4.6213495, 52.3341865 ], [ 4.6211963, 52.33413 ], [ 4.6211228, 52.3341031 ], [ 4.6209513, 52.3340399 ], [ 4.6206114, 52.3339169 ], [ 4.6203512, 52.3338183 ], [ 4.6201013, 52.3337186 ], [ 4.619778, 52.3335867 ], [ 4.6196126, 52.333516 ], [ 4.6195112, 52.3334709 ], [ 4.6194302, 52.3334339 ], [ 4.6192463, 52.3333468 ], [ 4.6191902, 52.3333201 ], [ 4.6190941, 52.3332749 ], [ 4.6189038, 52.333176 ], [ 4.6188143, 52.3331289 ], [ 4.6187392, 52.3330884 ], [ 4.6185519, 52.3329856 ], [ 4.6183992, 52.3328973 ], [ 4.6183433, 52.3328631 ], [ 4.6182809, 52.3328259 ], [ 4.6182113, 52.3327839 ], [ 4.6179729, 52.3326254 ], [ 4.6179267, 52.3325927 ], [ 4.61788, 52.3325618 ], [ 4.6177198, 52.3324505 ], [ 4.6176854, 52.3324261 ], [ 4.6176689, 52.3324143 ], [ 4.6176194, 52.3323793 ], [ 4.6174643, 52.3322558 ], [ 4.6174419, 52.332239 ], [ 4.6173109, 52.3321493 ], [ 4.6173005, 52.3321322 ], [ 4.6172051, 52.3320567 ], [ 4.6171157, 52.3319809 ], [ 4.6169992, 52.33188 ], [ 4.6169823, 52.3318646 ], [ 4.6169156, 52.3318043 ], [ 4.6166638, 52.331574 ], [ 4.6165919, 52.331504 ], [ 4.6165882, 52.3315137 ], [ 4.6164438, 52.33134 ], [ 4.6163947, 52.3312866 ], [ 4.6162997, 52.3311834 ], [ 4.6155495, 52.3303539 ], [ 4.6153774, 52.3301641 ], [ 4.6147671, 52.3294903 ], [ 4.6145789, 52.3292834 ], [ 4.6140073, 52.3286552 ], [ 4.6135994, 52.3282015 ], [ 4.6135495, 52.3281498 ], [ 4.6134951, 52.3280933 ], [ 4.6134044, 52.3279993 ], [ 4.613317, 52.3279036 ], [ 4.6130455, 52.3276063 ], [ 4.6126614, 52.3272007 ], [ 4.6125653, 52.3270696 ], [ 4.612362, 52.3267629 ], [ 4.6123064, 52.3266765 ], [ 4.612227, 52.3265516 ], [ 4.6121443, 52.3264179 ], [ 4.612082, 52.3263059 ], [ 4.6120328, 52.3262171 ], [ 4.6119938, 52.3261414 ], [ 4.6119518, 52.3260664 ], [ 4.6118913, 52.3259382 ], [ 4.6118441, 52.3258452 ], [ 4.611816, 52.3257861 ], [ 4.6116982, 52.3255011 ], [ 4.6116882, 52.3254813 ], [ 4.6116619, 52.3254199 ], [ 4.6115889, 52.3252041 ], [ 4.6115666, 52.3251227 ], [ 4.6115586, 52.3250933 ], [ 4.6115531, 52.3250691 ], [ 4.6115359, 52.3249965 ], [ 4.6114755, 52.3247896 ], [ 4.6114528, 52.3246827 ], [ 4.6114286, 52.3245202 ], [ 4.6114167, 52.3244377 ], [ 4.6113877, 52.3241393 ], [ 4.6113831, 52.3240599 ], [ 4.6113771, 52.3239212 ], [ 4.6113706, 52.3237686 ], [ 4.6113666, 52.3236768 ], [ 4.6113652, 52.3235246 ], [ 4.6113715, 52.3234938 ], [ 4.6113655, 52.3233968 ], [ 4.6113655, 52.3233925 ], [ 4.611367, 52.3232514 ], [ 4.6113691, 52.3231603 ], [ 4.611378, 52.3227676 ], [ 4.6113816, 52.3225776 ], [ 4.6113852, 52.3224717 ], [ 4.6113875, 52.3223812 ], [ 4.6113866, 52.3222713 ], [ 4.6113855, 52.3222306 ], [ 4.6113839, 52.3222046 ], [ 4.6113889, 52.3220341 ], [ 4.6113974, 52.321986 ], [ 4.6114011, 52.3219066 ], [ 4.611403, 52.3218763 ], [ 4.611405, 52.321843 ], [ 4.6114104, 52.3217548 ], [ 4.6114078, 52.3216903 ], [ 4.6114174, 52.3216157 ], [ 4.6114183, 52.3215667 ], [ 4.6114255, 52.3211509 ], [ 4.6114318, 52.3207788 ], [ 4.6114348, 52.3206741 ], [ 4.611437, 52.32063 ], [ 4.6114401, 52.3205671 ], [ 4.6114544, 52.3202817 ], [ 4.6114746, 52.3197796 ], [ 4.6114879, 52.3194504 ], [ 4.6114927, 52.3193604 ], [ 4.6114961, 52.319333 ], [ 4.6114995, 52.3193052 ], [ 4.6115119, 52.3189048 ], [ 4.6115145, 52.3188661 ], [ 4.611532, 52.3182755 ], [ 4.6115708, 52.318014 ], [ 4.6115727, 52.3179812 ], [ 4.6115766, 52.317916 ], [ 4.611581, 52.3178482 ], [ 4.6115729, 52.3177295 ], [ 4.6115653, 52.3175934 ], [ 4.6115655, 52.3175039 ], [ 4.6115657, 52.3174124 ], [ 4.611566, 52.3173093 ], [ 4.6115657, 52.3171826 ], [ 4.6115643, 52.3170646 ], [ 4.6115632, 52.3169712 ], [ 4.6115627, 52.3169375 ], [ 4.6115687, 52.3167989 ], [ 4.6115741, 52.3166747 ], [ 4.6115772, 52.3165356 ], [ 4.6115798, 52.3164036 ], [ 4.6115831, 52.3162365 ], [ 4.6115861, 52.3160974 ], [ 4.6115898, 52.3159686 ], [ 4.6115919, 52.315869 ], [ 4.6115971, 52.3155469 ], [ 4.6116023, 52.3152078 ], [ 4.6116094, 52.3149196 ], [ 4.6116129, 52.3147429 ], [ 4.6116203, 52.3146015 ], [ 4.6116281, 52.3144218 ], [ 4.611648, 52.3140532 ], [ 4.6116534, 52.3139194 ], [ 4.611659, 52.3137787 ], [ 4.611676, 52.3135599 ], [ 4.6117013, 52.3130969 ], [ 4.6116969, 52.3130322 ], [ 4.6116797, 52.3127775 ], [ 4.6116229, 52.3124987 ], [ 4.6115331, 52.3122401 ], [ 4.61142, 52.3120517 ], [ 4.6113251, 52.3118935 ], [ 4.6111078, 52.3116074 ], [ 4.6105496, 52.311103 ], [ 4.6100995, 52.3107503 ], [ 4.609951, 52.310627 ], [ 4.6098985, 52.3105835 ], [ 4.6091889, 52.3099943 ], [ 4.6091184, 52.3099358 ], [ 4.6083149, 52.3092686 ], [ 4.6074268, 52.3085152 ], [ 4.6069225, 52.3080926 ], [ 4.6063913, 52.3076721 ], [ 4.6055739, 52.3070002 ], [ 4.6054378, 52.3068883 ], [ 4.6054201, 52.3068711 ], [ 4.6053117, 52.30678 ], [ 4.6051969, 52.3066723 ], [ 4.6051048, 52.3065923 ], [ 4.6050735, 52.3065655 ], [ 4.6049389, 52.3064586 ], [ 4.6048247, 52.3063586 ], [ 4.6047378, 52.3062789 ], [ 4.6046046, 52.3061318 ], [ 4.6044461, 52.3059872 ], [ 4.6043272, 52.3058432 ], [ 4.6042277, 52.3057371 ], [ 4.6041529, 52.3056502 ], [ 4.6040243, 52.3054953 ], [ 4.603904, 52.3053573 ], [ 4.6036665, 52.3050489 ], [ 4.6036582, 52.3050381 ], [ 4.6036573, 52.3050368 ], [ 4.6036558, 52.3050349 ], [ 4.6035769, 52.304928 ], [ 4.6034945, 52.3048163 ], [ 4.6034545, 52.3047581 ], [ 4.6034122, 52.3047052 ], [ 4.6032883, 52.3045434 ], [ 4.6031637, 52.3043817 ], [ 4.602986, 52.3041195 ], [ 4.602333, 52.303243 ], [ 4.6020297, 52.302836 ], [ 4.6013869, 52.3019731 ], [ 4.6004304, 52.3006884 ], [ 4.5994912, 52.2994116 ], [ 4.5987605, 52.2984181 ], [ 4.5986652, 52.2982884 ], [ 4.5985822, 52.2981756 ], [ 4.5985654, 52.2981528 ], [ 4.5985334, 52.2981093 ], [ 4.5985026, 52.2980674 ], [ 4.5985004, 52.2980645 ], [ 4.5984708, 52.2980242 ], [ 4.5984688, 52.2980214 ], [ 4.5984444, 52.2979883 ], [ 4.5983936, 52.2979225 ], [ 4.5983646, 52.297885 ], [ 4.5983094, 52.2978214 ], [ 4.598298, 52.297807 ], [ 4.5981383, 52.2975967 ], [ 4.5979703, 52.2973756 ], [ 4.5974758, 52.2966762 ], [ 4.5970873, 52.2960842 ], [ 4.5967763, 52.2953024 ], [ 4.5967226, 52.2950857 ], [ 4.5965354, 52.2946077 ], [ 4.5964148, 52.2942756 ], [ 4.5963788, 52.2941846 ], [ 4.5963753, 52.2941753 ], [ 4.5963388, 52.2940295 ], [ 4.5963065, 52.2939033 ], [ 4.5963031, 52.2938604 ], [ 4.5962879, 52.293723 ], [ 4.5962705, 52.2935571 ], [ 4.5962649, 52.2934971 ], [ 4.5962651, 52.2934414 ], [ 4.5962647, 52.2934191 ], [ 4.5962647, 52.2934186 ], [ 4.5962624, 52.2932934 ], [ 4.5962618, 52.2932479 ], [ 4.5962618, 52.2932477 ], [ 4.5962588, 52.2930178 ], [ 4.596259, 52.2930037 ], [ 4.596259, 52.2930035 ], [ 4.5962592, 52.2929904 ], [ 4.5962573, 52.2927949 ], [ 4.5962515, 52.2923606 ], [ 4.596251, 52.2923303 ], [ 4.5962481, 52.2921541 ], [ 4.5962461, 52.2919901 ], [ 4.5962371, 52.291945 ], [ 4.5962278, 52.2918958 ], [ 4.5962193, 52.29184 ], [ 4.5961954, 52.2917507 ], [ 4.5961777, 52.2916813 ], [ 4.5961712, 52.2916667 ], [ 4.5961495, 52.2916048 ], [ 4.5961264, 52.2915448 ], [ 4.5961172, 52.2915219 ], [ 4.5960789, 52.2914258 ], [ 4.5960481, 52.2913687 ], [ 4.5959651, 52.2912248 ], [ 4.5958838, 52.2911225 ], [ 4.5956971, 52.2909112 ], [ 4.5955343, 52.2907299 ], [ 4.5953944, 52.2905714 ], [ 4.5950328, 52.2901625 ], [ 4.5948892, 52.29 ], [ 4.5948108, 52.2899109 ], [ 4.5946181, 52.2896946 ], [ 4.5945086, 52.2895688 ], [ 4.5941798, 52.2892003 ], [ 4.5939929, 52.2889875 ], [ 4.5937746, 52.2887417 ], [ 4.5936992, 52.2886581 ], [ 4.5937252, 52.2886489 ], [ 4.5936889, 52.2886102 ], [ 4.5936061, 52.2885221 ], [ 4.5935463, 52.2884439 ], [ 4.5934703, 52.28836 ], [ 4.5933487, 52.2882332 ], [ 4.5933132, 52.2881928 ], [ 4.5922797, 52.2870484 ], [ 4.5922599, 52.2870265 ], [ 4.5921788, 52.2869366 ], [ 4.5920849, 52.2868324 ], [ 4.5916323, 52.2863297 ], [ 4.5914868, 52.2861681 ], [ 4.5911727, 52.2857275 ], [ 4.5911572, 52.285696 ], [ 4.5910563, 52.2855199 ], [ 4.5909397, 52.2853106 ], [ 4.590901, 52.2852243 ], [ 4.5908593, 52.2851383 ], [ 4.5908022, 52.2850236 ], [ 4.5907658, 52.2849479 ], [ 4.590722, 52.2848594 ], [ 4.5906922, 52.2847959 ], [ 4.5906614, 52.2847334 ], [ 4.5906191, 52.2846533 ], [ 4.5904906, 52.2843818 ], [ 4.5904222, 52.2842376 ], [ 4.5903902, 52.284171 ], [ 4.5903662, 52.2841209 ], [ 4.5903495, 52.284086 ], [ 4.5903429, 52.284072 ], [ 4.5903211, 52.2840256 ], [ 4.5902987, 52.2839781 ], [ 4.5902976, 52.2839758 ], [ 4.5902777, 52.2839351 ], [ 4.5902583, 52.2838954 ], [ 4.5902566, 52.2838919 ], [ 4.590236, 52.2838491 ], [ 4.5902191, 52.2838139 ], [ 4.5902158, 52.2838072 ], [ 4.590192, 52.2837584 ], [ 4.5901637, 52.2837039 ], [ 4.5901593, 52.2836947 ], [ 4.5901295, 52.2836331 ], [ 4.5900645, 52.2834998 ], [ 4.5900025, 52.2833711 ], [ 4.5899823, 52.2833278 ], [ 4.5899491, 52.2832571 ], [ 4.5898884, 52.2831297 ], [ 4.5898491, 52.2830501 ], [ 4.5898118, 52.2829715 ], [ 4.5897689, 52.2828924 ], [ 4.5897049, 52.2827888 ], [ 4.5896591, 52.2827129 ], [ 4.5895963, 52.2826086 ], [ 4.5895761, 52.2825736 ], [ 4.5895695, 52.2825595 ], [ 4.5895498, 52.2825134 ], [ 4.5895243, 52.282448 ], [ 4.5894977, 52.2823971 ], [ 4.589435, 52.2822743 ], [ 4.5893665, 52.2821394 ], [ 4.5893261, 52.2820581 ], [ 4.5892266, 52.281862 ], [ 4.589137, 52.2816795 ], [ 4.589095, 52.28159 ], [ 4.5890026, 52.2813891 ], [ 4.5889354, 52.2812448 ], [ 4.5889201, 52.2812118 ], [ 4.5888911, 52.2811479 ], [ 4.5888498, 52.28106 ], [ 4.5888261, 52.28102 ], [ 4.5888008, 52.2809802 ], [ 4.5887168, 52.2808509 ], [ 4.5886825, 52.2807978 ], [ 4.5886639, 52.2807726 ], [ 4.5886444, 52.2807472 ], [ 4.5885986, 52.2806807 ], [ 4.5884397, 52.2805016 ], [ 4.5884182, 52.2804827 ], [ 4.5883687, 52.2804378 ], [ 4.5882957, 52.2803741 ], [ 4.5882549, 52.2803399 ], [ 4.5882159, 52.2803082 ], [ 4.588173, 52.2802745 ], [ 4.5881334, 52.2802414 ], [ 4.5880932, 52.2802103 ], [ 4.588041, 52.2801686 ], [ 4.5879998, 52.2801355 ], [ 4.5879434, 52.2800988 ], [ 4.5878934, 52.2800727 ], [ 4.5878287, 52.2800364 ], [ 4.5877737, 52.2800057 ], [ 4.5876046, 52.2799132 ], [ 4.5875188, 52.279867 ], [ 4.5874142, 52.2798045 ], [ 4.587327, 52.2797574 ], [ 4.5872716, 52.2797243 ], [ 4.5871817, 52.2796713 ], [ 4.5870545, 52.279599 ], [ 4.5869318, 52.2795253 ], [ 4.586838, 52.2794701 ], [ 4.586652, 52.2793602 ], [ 4.5864811, 52.2792589 ], [ 4.5863217, 52.2791636 ], [ 4.5861672, 52.279073 ], [ 4.5860042, 52.2789766 ], [ 4.585861, 52.278891 ], [ 4.5857528, 52.2788268 ], [ 4.585668, 52.2787792 ], [ 4.5856241, 52.278752 ], [ 4.5853077, 52.2785751 ], [ 4.5851693, 52.2784969 ], [ 4.5848946, 52.2783441 ], [ 4.5848743, 52.2783326 ], [ 4.5847838, 52.2782814 ], [ 4.5847012, 52.2782334 ], [ 4.5842606, 52.2779813 ], [ 4.5841939, 52.2779442 ], [ 4.5840532, 52.2778629 ], [ 4.5811392, 52.2761559 ], [ 4.5799106, 52.2754361 ], [ 4.5776582, 52.2741165 ], [ 4.5776191, 52.2740936 ], [ 4.5771913, 52.273843 ], [ 4.5770565, 52.273764 ], [ 4.5756875, 52.2729619 ], [ 4.5745975, 52.2723232 ], [ 4.5740889, 52.2720252 ], [ 4.573842, 52.2718805 ], [ 4.573143, 52.2714709 ], [ 4.572998, 52.2713859 ], [ 4.5729258, 52.2713436 ], [ 4.572749, 52.27124 ], [ 4.571612, 52.2705605 ], [ 4.5707867, 52.2700726 ], [ 4.5700154, 52.2696141 ], [ 4.5695893, 52.26937 ], [ 4.5693025, 52.2692059 ], [ 4.5689792, 52.2690185 ], [ 4.5687071, 52.2688509 ], [ 4.5684676, 52.2686702 ], [ 4.5683358, 52.2685534 ], [ 4.5682234, 52.2684164 ], [ 4.5680981, 52.2682621 ], [ 4.5680399, 52.2681755 ], [ 4.567972, 52.2680722 ], [ 4.5679224, 52.2679768 ], [ 4.5678686, 52.2677954 ], [ 4.5678459, 52.2676145 ], [ 4.5678454, 52.2674504 ], [ 4.5678594, 52.2673475 ], [ 4.5678686, 52.2672936 ], [ 4.5678901, 52.2671838 ], [ 4.5679137, 52.2670728 ], [ 4.5679426, 52.2669288 ], [ 4.5679649, 52.2667936 ], [ 4.5680186, 52.2666141 ], [ 4.5680309, 52.2665517 ], [ 4.5680476, 52.2664746 ], [ 4.5680536, 52.2664467 ], [ 4.5680776, 52.2663303 ], [ 4.568095, 52.2662615 ], [ 4.5681334, 52.2660852 ], [ 4.568162, 52.2659556 ], [ 4.5681926, 52.2658191 ], [ 4.568225, 52.2656756 ], [ 4.568243, 52.2655918 ], [ 4.5683081, 52.2653206 ], [ 4.5683325, 52.26521 ], [ 4.5683596, 52.2650765 ], [ 4.5683975, 52.2649301 ], [ 4.5684099, 52.264877 ], [ 4.5684468, 52.2647134 ], [ 4.5685589, 52.2642393 ], [ 4.5686088, 52.2640437 ], [ 4.5686678, 52.2638233 ], [ 4.5687183, 52.263655 ], [ 4.5687548, 52.2635358 ], [ 4.5687853, 52.2634009 ], [ 4.5688238, 52.2632275 ], [ 4.5688634, 52.2630678 ], [ 4.5688978, 52.262926 ], [ 4.5689469, 52.2627177 ], [ 4.5689926, 52.2625179 ], [ 4.5690402, 52.2623043 ], [ 4.5690858, 52.2621092 ], [ 4.5691376, 52.2618695 ], [ 4.5691935, 52.2616384 ], [ 4.5692471, 52.2613995 ], [ 4.5692853, 52.2612353 ], [ 4.569326, 52.261059 ], [ 4.5693688, 52.2608596 ], [ 4.5694097, 52.2606842 ], [ 4.5694558, 52.2604807 ], [ 4.5694921, 52.2603149 ], [ 4.569499, 52.2602621 ], [ 4.5695091, 52.2601796 ], [ 4.5695235, 52.260051 ], [ 4.5695296, 52.2599653 ], [ 4.5695356, 52.2599043 ], [ 4.5695376, 52.2598602 ], [ 4.5695344, 52.259814 ], [ 4.5695325, 52.2597767 ], [ 4.5695227, 52.2597048 ], [ 4.5695208, 52.2596912 ], [ 4.569501, 52.2595727 ], [ 4.5694583, 52.2593507 ], [ 4.5694099, 52.2591092 ], [ 4.5693665, 52.2588745 ], [ 4.5693297, 52.258683 ], [ 4.5692944, 52.2585168 ], [ 4.5692597, 52.2583168 ], [ 4.5691994, 52.2579789 ], [ 4.5691173, 52.2575309 ], [ 4.5691061, 52.257474 ], [ 4.5690334, 52.2571023 ], [ 4.568941, 52.2566088 ], [ 4.5689409, 52.2566086 ], [ 4.5689347, 52.2565752 ], [ 4.5689248, 52.2565231 ], [ 4.5689245, 52.2565212 ], [ 4.5689147, 52.2564695 ], [ 4.5689142, 52.2564668 ], [ 4.5689142, 52.2564665 ], [ 4.5688847, 52.2563101 ], [ 4.5688824, 52.2562981 ], [ 4.568882, 52.2562961 ], [ 4.568802, 52.2558716 ], [ 4.5687877, 52.2557961 ], [ 4.5687876, 52.2557955 ], [ 4.5687742, 52.2557241 ], [ 4.5687154, 52.2554269 ], [ 4.5687149, 52.2554245 ], [ 4.5686985, 52.2553414 ], [ 4.5686982, 52.25534 ], [ 4.5685775, 52.2547075 ], [ 4.5685754, 52.2546967 ], [ 4.5685525, 52.2545768 ], [ 4.5685522, 52.2545753 ], [ 4.5685286, 52.2544515 ], [ 4.5685278, 52.2544475 ], [ 4.5683657, 52.2535891 ], [ 4.5683474, 52.2534879 ], [ 4.568342, 52.2534583 ], [ 4.5683036, 52.2532568 ], [ 4.568303, 52.2532539 ], [ 4.5682672, 52.2530664 ], [ 4.5682323, 52.2528834 ], [ 4.5681974, 52.2527004 ], [ 4.5681625, 52.2525174 ], [ 4.5681583, 52.2524955 ], [ 4.5681582, 52.2524951 ], [ 4.5681575, 52.2524914 ], [ 4.5681279, 52.2523344 ], [ 4.5681237, 52.2523121 ], [ 4.5680933, 52.2521514 ], [ 4.5680891, 52.2521291 ], [ 4.5680588, 52.2519684 ], [ 4.5680545, 52.2519461 ], [ 4.5680242, 52.2517854 ], [ 4.56802, 52.251763 ], [ 4.5679993, 52.2516537 ], [ 4.5679975, 52.2516443 ], [ 4.5679847, 52.2515763 ], [ 4.5679805, 52.251554 ], [ 4.5679804, 52.2515533 ], [ 4.5678631, 52.2509359 ], [ 4.5678433, 52.2508069 ], [ 4.5678183, 52.2506742 ], [ 4.5677908, 52.2505457 ], [ 4.5677676, 52.250408 ], [ 4.5677305, 52.2502109 ], [ 4.5676991, 52.2500414 ], [ 4.5676706, 52.2498782 ], [ 4.5676326, 52.2496921 ], [ 4.5676316, 52.2496862 ], [ 4.5676108, 52.2495709 ], [ 4.5675866, 52.249422 ], [ 4.5675675, 52.2493221 ], [ 4.5675507, 52.249216 ], [ 4.5675255, 52.2491237 ], [ 4.567497, 52.2490264 ], [ 4.5674595, 52.2489186 ], [ 4.567422, 52.2488024 ], [ 4.5673784, 52.2486684 ], [ 4.5673383, 52.2485394 ], [ 4.5672908, 52.2483931 ], [ 4.5672384, 52.2482455 ], [ 4.5672119, 52.2481654 ], [ 4.5671929, 52.2480825 ], [ 4.5671681, 52.2480007 ], [ 4.5671591, 52.2479449 ], [ 4.5671186, 52.2478068 ], [ 4.5670704, 52.247654 ], [ 4.5670154, 52.247513 ], [ 4.5670103, 52.247454 ], [ 4.5669918, 52.2473811 ], [ 4.5669799, 52.2473339 ], [ 4.5669301, 52.2472189 ], [ 4.5668721, 52.2470728 ], [ 4.5667951, 52.2469041 ], [ 4.5667677, 52.2468222 ], [ 4.5667431, 52.2467582 ], [ 4.566712, 52.2466785 ], [ 4.5666235, 52.2463555 ], [ 4.5665326, 52.2460245 ], [ 4.5664857, 52.2458542 ], [ 4.5664718, 52.2458036 ], [ 4.5664304, 52.2456774 ], [ 4.5663628, 52.245472 ], [ 4.5662392, 52.2451037 ], [ 4.5661253, 52.2447617 ], [ 4.5660055, 52.2443911 ], [ 4.5657565, 52.2436299 ], [ 4.565646, 52.2432939 ], [ 4.5653876, 52.2424743 ], [ 4.5653163, 52.2422482 ], [ 4.565267, 52.2420919 ], [ 4.5651706, 52.2417908 ], [ 4.5651249, 52.2416485 ], [ 4.56512, 52.2416332 ], [ 4.5651037, 52.2415823 ], [ 4.5651005, 52.2415726 ], [ 4.5649998, 52.241259 ], [ 4.5648374, 52.2407355 ], [ 4.56471, 52.2403149 ], [ 4.5645652, 52.2398674 ], [ 4.5644623, 52.2395494 ], [ 4.5643904, 52.2393337 ], [ 4.5642698, 52.238917 ], [ 4.564269, 52.2389145 ], [ 4.5642009, 52.2386857 ], [ 4.564196, 52.2386692 ], [ 4.5640946, 52.2383342 ], [ 4.5640408, 52.2381575 ], [ 4.5639029, 52.2377589 ], [ 4.5637765, 52.237377 ], [ 4.56368, 52.2370999 ], [ 4.5635942, 52.2368273 ], [ 4.5635462, 52.2366548 ], [ 4.5635132, 52.2365361 ], [ 4.5635124, 52.236533 ], [ 4.5634383, 52.2363036 ], [ 4.5633887, 52.236142 ], [ 4.5633716, 52.2360862 ], [ 4.5633478, 52.236012 ], [ 4.5629977, 52.2349202 ], [ 4.5629682, 52.234842 ], [ 4.5629369, 52.2347582 ], [ 4.5629097, 52.2346976 ], [ 4.562875, 52.2346211 ], [ 4.5628489, 52.2345581 ], [ 4.5628177, 52.2344968 ], [ 4.5627568, 52.2343984 ], [ 4.5626612, 52.234246 ], [ 4.5626155, 52.2341835 ], [ 4.5625663, 52.2341282 ], [ 4.562492, 52.2340486 ], [ 4.5624209, 52.2339761 ], [ 4.5623321, 52.2338952 ], [ 4.5622726, 52.2338434 ], [ 4.5621917, 52.2337825 ], [ 4.5621013, 52.2337185 ], [ 4.5619887, 52.2336333 ], [ 4.5618796, 52.2335633 ], [ 4.5617788, 52.2334988 ], [ 4.5616727, 52.233436 ], [ 4.5616159, 52.2334059 ], [ 4.5615022, 52.2333456 ], [ 4.5614128, 52.2332977 ], [ 4.5613159, 52.2332565 ], [ 4.5612205, 52.2332167 ], [ 4.5611185, 52.2331772 ], [ 4.5610286, 52.2331438 ], [ 4.5608894, 52.2330962 ], [ 4.5607837, 52.23306 ], [ 4.5606756, 52.2330286 ], [ 4.5605692, 52.2330028 ], [ 4.560452, 52.2329725 ], [ 4.5602106, 52.2329264 ], [ 4.5600357, 52.2328949 ], [ 4.5598512, 52.2328564 ], [ 4.5595249, 52.2327937 ], [ 4.5592129, 52.2327283 ], [ 4.5589849, 52.2326859 ], [ 4.5587299, 52.2326321 ], [ 4.5584304, 52.2325768 ], [ 4.5571857, 52.2323516 ], [ 4.5569421, 52.2323016 ], [ 4.5568302, 52.2322788 ], [ 4.5565492, 52.2322191 ], [ 4.5561715, 52.232143 ], [ 4.5559209, 52.2320873 ], [ 4.5557839, 52.2320558 ], [ 4.5556118, 52.2320173 ], [ 4.555583, 52.2320109 ], [ 4.5554308, 52.231964 ], [ 4.5552722, 52.2319087 ], [ 4.5551499, 52.2318592 ], [ 4.555003, 52.2317986 ], [ 4.5548556, 52.2317315 ], [ 4.5546573, 52.2316406 ], [ 4.5544871, 52.2315547 ], [ 4.5544139, 52.2315186 ], [ 4.5543034, 52.2314548 ], [ 4.5542081, 52.2313975 ], [ 4.554107, 52.2313294 ], [ 4.5539983, 52.231249 ], [ 4.5539381, 52.2312025 ], [ 4.5537225, 52.2310252 ], [ 4.5536746, 52.2309798 ], [ 4.553625, 52.230933 ], [ 4.5534581, 52.2307356 ], [ 4.5530695, 52.2302717 ], [ 4.5528846, 52.2300445 ], [ 4.5526868, 52.2298096 ], [ 4.5525235, 52.2296151 ], [ 4.5524876, 52.2295733 ], [ 4.5523315, 52.2293911 ], [ 4.5521563, 52.2291812 ], [ 4.5520124, 52.2290016 ], [ 4.5519605, 52.2289368 ], [ 4.5518269, 52.2287699 ], [ 4.551774, 52.2287039 ], [ 4.551344, 52.228167 ], [ 4.5511864, 52.2279675 ], [ 4.551025, 52.2277632 ], [ 4.550998, 52.2277296 ], [ 4.5509551, 52.2276763 ], [ 4.5509326, 52.2276484 ], [ 4.5508535, 52.22755 ], [ 4.5507672, 52.2274279 ], [ 4.5507177, 52.2273541 ], [ 4.5506938, 52.227307 ], [ 4.5506235, 52.2271684 ], [ 4.550566, 52.2270309 ], [ 4.5504981, 52.2268487 ], [ 4.5504704, 52.2267447 ], [ 4.550459, 52.2266602 ], [ 4.5504551, 52.2265968 ] ] ] } }
]
}
