{
"type": "FeatureCollection",
"name": "hildesheim_de",
"crs": { "type": "name", "properties": { "name": "urn:ogc:def:crs:OGC:1.3:CRS84" } },
"features": [
{ "type": "Feature", "properties": { }, "geometry": { "type": "Polygon", "coordinates": [ [ [ 9.8465506, 52.1273899 ], [ 9.8489123, 52.1248489 ], [ 9.8503753, 52.1238688 ], [ 9.8521246, 52.1235385 ], [ 9.8559966, 52.1217299 ], [ 9.8593147, 52.1187151 ], [ 9.8597479, 52.1170757 ], [ 9.8616928, 52.1156911 ], [ 9.8618819, 52.1156639 ], [ 9.8618642, 52.1155723 ], [ 9.8617967, 52.1154978 ], [ 9.8617958, 52.115482 ], [ 9.8618213, 52.1154734 ], [ 9.8618742, 52.1154715 ], [ 9.8619295, 52.1154627 ], [ 9.8619902, 52.1154246 ], [ 9.8620124, 52.1153536 ], [ 9.8620576, 52.1153202 ], [ 9.8620321, 52.115286 ], [ 9.861943, 52.1152811 ], [ 9.8619423, 52.1152459 ], [ 9.8619021, 52.1152158 ], [ 9.8618377, 52.1152179 ], [ 9.861777, 52.1152245 ], [ 9.8616838, 52.115195 ], [ 9.8616677, 52.1151724 ], [ 9.861661, 52.1151421 ], [ 9.8616885, 52.1151211 ], [ 9.8617907, 52.1151022 ], [ 9.8618575, 52.1150651 ], [ 9.8619329, 52.1150635 ], [ 9.8620053, 52.1149706 ], [ 9.8620026, 52.1149331 ], [ 9.8620606, 52.114872 ], [ 9.8621072, 52.1148586 ], [ 9.8621746, 52.1148611 ], [ 9.8622927, 52.1149095 ], [ 9.8623543, 52.1148709 ], [ 9.862357, 52.1148311 ], [ 9.8623731, 52.1148322 ], [ 9.8623867, 52.1148081 ], [ 9.8661013, 52.1120159 ], [ 9.8676833, 52.1110547 ], [ 9.870254, 52.1094928 ], [ 9.8710138, 52.1075581 ], [ 9.8719776, 52.1071858 ], [ 9.8732863, 52.1070839 ], [ 9.8741016, 52.1060664 ], [ 9.8742034, 52.1054002 ], [ 9.8744912, 52.1053241 ], [ 9.8747081, 52.10546 ], [ 9.8748439, 52.1048789 ], [ 9.8748111, 52.1045997 ], [ 9.8750147, 52.1045562 ], [ 9.8751099, 52.1047673 ], [ 9.8753103, 52.1048308 ], [ 9.8755538, 52.1046891 ], [ 9.8754752, 52.1045256 ], [ 9.8735714, 52.1035826 ], [ 9.8701446, 52.1011487 ], [ 9.8650753, 52.097945 ], [ 9.8662308, 52.0968841 ], [ 9.8668634, 52.0958241 ], [ 9.8702908, 52.09818 ], [ 9.871083, 52.10092 ], [ 9.8728397, 52.1023561 ], [ 9.8807093, 52.0999336 ], [ 9.8829769, 52.101138 ], [ 9.8834099, 52.1008969 ], [ 9.8837341, 52.1007433 ], [ 9.8839773, 52.1009514 ], [ 9.8842729, 52.1009412 ], [ 9.8880963, 52.09933 ], [ 9.8892845, 52.0989842 ], [ 9.8931321, 52.0978369 ], [ 9.8962648, 52.0973308 ], [ 9.8969462, 52.0977418 ], [ 9.8973326, 52.0978181 ], [ 9.8976622, 52.0978033 ], [ 9.8978878, 52.0977369 ], [ 9.8981247, 52.0975686 ], [ 9.8979029, 52.0968088 ], [ 9.8976315, 52.0953442 ], [ 9.8977251, 52.0951533 ], [ 9.8993665, 52.0948434 ], [ 9.9014464, 52.0947608 ], [ 9.903659, 52.0945028 ], [ 9.9102313, 52.0935785 ], [ 9.9116154, 52.0953271 ], [ 9.9135188, 52.0971338 ], [ 9.9134159, 52.0979831 ], [ 9.9142348, 52.0981613 ], [ 9.915292, 52.0976896 ], [ 9.9163938, 52.0978095 ], [ 9.9141423, 52.099865 ], [ 9.9182722, 52.1030369 ], [ 9.917286, 52.1042099 ], [ 9.9223798, 52.1067633 ], [ 9.9230209, 52.1057288 ], [ 9.9234656, 52.1061313 ], [ 9.9237714, 52.1063031 ], [ 9.9252018, 52.1067762 ], [ 9.9254157, 52.1066366 ], [ 9.9256722, 52.1067693 ], [ 9.9259433, 52.1069608 ], [ 9.9263776, 52.1073227 ], [ 9.9275834, 52.1084038 ], [ 9.9278962, 52.1086333 ], [ 9.9283275, 52.1089126 ], [ 9.9286814, 52.1091535 ], [ 9.9290005, 52.1093389 ], [ 9.9281761, 52.1100582 ], [ 9.929451, 52.1105061 ], [ 9.9300945, 52.1099896 ], [ 9.9307183, 52.1103923 ], [ 9.9310638, 52.1106553 ], [ 9.9313693, 52.1109442 ], [ 9.932123, 52.1116918 ], [ 9.9328921, 52.1124347 ], [ 9.9336475, 52.1131738 ], [ 9.9340275, 52.1135469 ], [ 9.9344128, 52.1139104 ], [ 9.9351228, 52.11463 ], [ 9.9356282, 52.1150478 ], [ 9.9358875, 52.1152611 ], [ 9.9361672, 52.1154773 ], [ 9.9370992, 52.1160641 ], [ 9.9380677, 52.1166255 ], [ 9.9389677, 52.117096 ], [ 9.9394407, 52.1172942 ], [ 9.9399492, 52.1174975 ], [ 9.9400568, 52.1175442 ], [ 9.9408677, 52.1178422 ], [ 9.9411987, 52.1179498 ], [ 9.9418253, 52.1181389 ], [ 9.9426752, 52.1183667 ], [ 9.9437304, 52.118587 ], [ 9.9446873, 52.1187545 ], [ 9.945592, 52.1188985 ], [ 9.9474106, 52.1191142 ], [ 9.947685, 52.1191487 ], [ 9.9477733, 52.1191459 ], [ 9.9478585, 52.119118 ], [ 9.9479157, 52.1190729 ], [ 9.9479619, 52.1190187 ], [ 9.9480002, 52.1189362 ], [ 9.9480634, 52.1187999 ], [ 9.948233, 52.1188099 ], [ 9.9482694, 52.1188335 ], [ 9.9483415, 52.1188575 ], [ 9.9484099, 52.1188802 ], [ 9.9484381, 52.118922 ], [ 9.9484907, 52.1190378 ], [ 9.9485569, 52.119093 ], [ 9.9486869, 52.1191233 ], [ 9.9497182, 52.1192676 ], [ 9.9514984, 52.1194753 ], [ 9.9526862, 52.1196709 ], [ 9.9533295, 52.1198011 ], [ 9.9536483, 52.1198689 ], [ 9.9542814, 52.1200037 ], [ 9.9546538, 52.1200757 ], [ 9.9587773, 52.1174938 ], [ 9.9604911, 52.1206237 ], [ 9.9648305, 52.1178467 ], [ 9.9754373, 52.1110622 ], [ 9.9770242, 52.1100954 ], [ 9.9772895, 52.109953 ], [ 9.9792945, 52.1088747 ], [ 9.9810531, 52.1078716 ], [ 9.9822022, 52.1068961 ], [ 9.9841829, 52.1041528 ], [ 9.9856951, 52.1072023 ], [ 9.9863117, 52.1075483 ], [ 9.9871484, 52.1062509 ], [ 9.9881226, 52.1057962 ], [ 9.9887533, 52.1057212 ], [ 9.9892879, 52.1054652 ], [ 9.9904992, 52.1049413 ], [ 9.9927401, 52.1040683 ], [ 9.9958534, 52.1033373 ], [ 9.9965555, 52.1033585 ], [ 9.9980066, 52.1036909 ], [ 9.9986076, 52.1036761 ], [ 9.9996372, 52.1033215 ], [ 10.0000365, 52.1030872 ], [ 10.0003647, 52.1026372 ], [ 10.0006187, 52.1024598 ], [ 10.0008952, 52.1023699 ], [ 10.0015754, 52.1023609 ], [ 10.0020652, 52.1024431 ], [ 10.0029818, 52.1025995 ], [ 10.0037702, 52.1027658 ], [ 10.0046584, 52.1030291 ], [ 10.0057145, 52.1036026 ], [ 10.0060581, 52.1040513 ], [ 10.0025794, 52.1062919 ], [ 10.0016944, 52.1069561 ], [ 10.0019173, 52.1071244 ], [ 10.0027377, 52.1065873 ], [ 10.0033609, 52.1080197 ], [ 10.0050636, 52.1076433 ], [ 10.006545, 52.110184 ], [ 10.0057544, 52.1103853 ], [ 10.0054504, 52.1104627 ], [ 10.0038653, 52.1107699 ], [ 10.0045203, 52.1128935 ], [ 10.0057946, 52.1133865 ], [ 10.0060038, 52.115603 ], [ 10.0072268, 52.1156621 ], [ 10.0079011, 52.119252 ], [ 10.0085013, 52.1207742 ], [ 10.0094853, 52.1209689 ], [ 10.0116212, 52.1206665 ], [ 10.0116997, 52.1223006 ], [ 10.0106917, 52.1223721 ], [ 10.0116082, 52.128125 ], [ 10.0129682, 52.1305261 ], [ 10.0134698, 52.1311544 ], [ 10.0139915, 52.1307585 ], [ 10.0147995, 52.1305741 ], [ 10.0161256, 52.1302943 ], [ 10.0188804, 52.1297285 ], [ 10.0256461, 52.1283333 ], [ 10.0269487, 52.1280602 ], [ 10.0285357, 52.1279104 ], [ 10.0301729, 52.1279154 ], [ 10.0314423, 52.1281223 ], [ 10.0329402, 52.1283232 ], [ 10.0335783, 52.1282859 ], [ 10.0335563, 52.1283111 ], [ 10.0331535, 52.1287712 ], [ 10.032664, 52.1293151 ], [ 10.0322419, 52.1297896 ], [ 10.0318671, 52.1302004 ], [ 10.0320819, 52.1305389 ], [ 10.0324603, 52.1311634 ], [ 10.0326491, 52.131475 ], [ 10.0330822, 52.1321902 ], [ 10.0333702, 52.1326658 ], [ 10.03341, 52.1327389 ], [ 10.0334997, 52.1327584 ], [ 10.0342218, 52.1329159 ], [ 10.0352424, 52.1331383 ], [ 10.0357534, 52.1332502 ], [ 10.0358413, 52.1332519 ], [ 10.0362092, 52.1332576 ], [ 10.0363305, 52.1332595 ], [ 10.0366716, 52.133265 ], [ 10.0371268, 52.1329114 ], [ 10.0371261, 52.1331379 ], [ 10.0371284, 52.1331829 ], [ 10.0371288, 52.1331907 ], [ 10.0371562, 52.1337384 ], [ 10.0371786, 52.1341843 ], [ 10.0371808, 52.1342282 ], [ 10.0372055, 52.1347163 ], [ 10.0372235, 52.1350704 ], [ 10.0375551, 52.1348456 ], [ 10.037933, 52.1346442 ], [ 10.0382919, 52.1344898 ], [ 10.038529, 52.1343588 ], [ 10.0387588, 52.134271 ], [ 10.0396568, 52.1340513 ], [ 10.0403689, 52.1338611 ], [ 10.0403783, 52.1338776 ], [ 10.0403869, 52.1338929 ], [ 10.0404002, 52.1339164 ], [ 10.0404354, 52.1339784 ], [ 10.0404703, 52.1340393 ], [ 10.0404141, 52.1357756 ], [ 10.0412557, 52.1358574 ], [ 10.042006, 52.1359324 ], [ 10.042293, 52.135961 ], [ 10.042585, 52.1359902 ], [ 10.0426364, 52.1361551 ], [ 10.0427951, 52.1366638 ], [ 10.0422009, 52.1366665 ], [ 10.0420265, 52.1366673 ], [ 10.0414886, 52.136583 ], [ 10.0415029, 52.1366458 ], [ 10.0415152, 52.136684 ], [ 10.0368508, 52.1373067 ], [ 10.0368633, 52.1373176 ], [ 10.0375085, 52.1378764 ], [ 10.0374771, 52.1378807 ], [ 10.0373618, 52.1378815 ], [ 10.0372202, 52.1378933 ], [ 10.0366863, 52.1379474 ], [ 10.036657, 52.1379552 ], [ 10.0366122, 52.1379687 ], [ 10.0366094, 52.1379873 ], [ 10.0365348, 52.1380104 ], [ 10.0340646, 52.138774 ], [ 10.0337032, 52.1388857 ], [ 10.033012, 52.1390993 ], [ 10.0320904, 52.1393844 ], [ 10.0320651, 52.1394594 ], [ 10.0320908, 52.1394514 ], [ 10.0319451, 52.1399845 ], [ 10.0319328, 52.1400295 ], [ 10.0319023, 52.14014 ], [ 10.0318585, 52.1402982 ], [ 10.0316612, 52.1409295 ], [ 10.0314125, 52.1417252 ], [ 10.0312493, 52.1422557 ], [ 10.0309613, 52.1431105 ], [ 10.0299791, 52.1431143 ], [ 10.0297716, 52.1432561 ], [ 10.0297673, 52.1434786 ], [ 10.0297884, 52.1435848 ], [ 10.0298358, 52.1438235 ], [ 10.0300185, 52.1442542 ], [ 10.0300837, 52.1444079 ], [ 10.0303959, 52.1449888 ], [ 10.0305563, 52.1452759 ], [ 10.0307, 52.1454893 ], [ 10.0308289, 52.1456527 ], [ 10.0311657, 52.1458932 ], [ 10.0312615, 52.1459617 ], [ 10.031775, 52.1463468 ], [ 10.0319791, 52.1465278 ], [ 10.0319917, 52.1465402 ], [ 10.0320163, 52.1465647 ], [ 10.0320665, 52.146616 ], [ 10.0320966, 52.1466447 ], [ 10.0321177, 52.1466648 ], [ 10.0325844, 52.1469972 ], [ 10.0328301, 52.1473004 ], [ 10.0331297, 52.1478283 ], [ 10.0331716, 52.1479421 ], [ 10.0332911, 52.1482672 ], [ 10.0333025, 52.1482998 ], [ 10.0333158, 52.148327 ], [ 10.0333771, 52.1484751 ], [ 10.033459, 52.1486728 ], [ 10.0334957, 52.1487616 ], [ 10.0336826, 52.1491632 ], [ 10.0338789, 52.1496859 ], [ 10.0340162, 52.1502653 ], [ 10.0340647, 52.1505976 ], [ 10.034093, 52.1507915 ], [ 10.0341213, 52.1511277 ], [ 10.0341428, 52.1512246 ], [ 10.0341525, 52.1512461 ], [ 10.0342114, 52.151472 ], [ 10.0346448, 52.1523853 ], [ 10.0348942, 52.1529178 ], [ 10.035053, 52.1532752 ], [ 10.0351807, 52.1535724 ], [ 10.0353252, 52.1540258 ], [ 10.0354333, 52.1543438 ], [ 10.0355415, 52.1547197 ], [ 10.0357221, 52.155134 ], [ 10.0358979, 52.1555372 ], [ 10.0361993, 52.1562483 ], [ 10.0362177, 52.1563044 ], [ 10.0364543, 52.1568295 ], [ 10.0365147, 52.1569749 ], [ 10.0367507, 52.1575087 ], [ 10.0370397, 52.1581626 ], [ 10.037078, 52.1589268 ], [ 10.0370906, 52.1591665 ], [ 10.0371077, 52.1595286 ], [ 10.0371083, 52.1596716 ], [ 10.0370629, 52.1596697 ], [ 10.037044, 52.1598423 ], [ 10.0370374, 52.1599025 ], [ 10.0369911, 52.1603317 ], [ 10.0369458, 52.1607524 ], [ 10.0367875, 52.1622151 ], [ 10.0365599, 52.163179 ], [ 10.0364769, 52.163446 ], [ 10.0362756, 52.1640938 ], [ 10.036118, 52.1646276 ], [ 10.0360238, 52.1649466 ], [ 10.0347529, 52.1648253 ], [ 10.031034, 52.1644703 ], [ 10.028294, 52.1642087 ], [ 10.02826, 52.1642055 ], [ 10.0270535, 52.1668565 ], [ 10.0270413, 52.1668728 ], [ 10.0269917, 52.1668594 ], [ 10.0269176, 52.1668395 ], [ 10.0267859, 52.1668039 ], [ 10.0266935, 52.1667791 ], [ 10.0262268, 52.1666503 ], [ 10.0257906, 52.1665308 ], [ 10.0253401, 52.1662943 ], [ 10.0249004, 52.1660368 ], [ 10.0247727, 52.1659667 ], [ 10.0233609, 52.1651316 ], [ 10.0233589, 52.1651404 ], [ 10.0232787, 52.1654964 ], [ 10.0232139, 52.1657841 ], [ 10.0231755, 52.1659546 ], [ 10.0231716, 52.1659723 ], [ 10.0231627, 52.1660128 ], [ 10.0230936, 52.1663367 ], [ 10.0229682, 52.1669251 ], [ 10.0228239, 52.1676009 ], [ 10.0226547, 52.1683932 ], [ 10.0226538, 52.1683975 ], [ 10.0226458, 52.1684384 ], [ 10.0225275, 52.1689943 ], [ 10.021995, 52.1714886 ], [ 10.0219059, 52.171907 ], [ 10.0218562, 52.1721403 ], [ 10.0218447, 52.1721945 ], [ 10.0218249, 52.1722873 ], [ 10.0218188, 52.172316 ], [ 10.019545, 52.1725297 ], [ 10.0174948, 52.1729438 ], [ 10.0173827, 52.1729652 ], [ 10.0173649, 52.1729687 ], [ 10.0171952, 52.1730012 ], [ 10.0171379, 52.1730122 ], [ 10.0169825, 52.173042 ], [ 10.0169546, 52.1730477 ], [ 10.0125523, 52.1739456 ], [ 10.0125551, 52.1739671 ], [ 10.0126144, 52.1744026 ], [ 10.0143496, 52.1743968 ], [ 10.0144406, 52.1743965 ], [ 10.0144862, 52.17439 ], [ 10.0146378, 52.1743681 ], [ 10.0146343, 52.1744603 ], [ 10.0146017, 52.1753396 ], [ 10.0145847, 52.1757983 ], [ 10.0145684, 52.176238 ], [ 10.0145041, 52.1779693 ], [ 10.0144978, 52.1781442 ], [ 10.0138634, 52.1781029 ], [ 9.9920275, 52.1831875 ], [ 9.9926102, 52.1851909 ], [ 9.9910186, 52.1852211 ], [ 9.9909078, 52.1852217 ], [ 9.990814, 52.1854279 ], [ 9.989975, 52.189153 ], [ 9.9896384, 52.1906764 ], [ 9.9889828, 52.1935745 ], [ 9.9885746, 52.1935765 ], [ 9.9874431, 52.1938772 ], [ 9.9871711, 52.1939078 ], [ 9.9865779, 52.1938748 ], [ 9.9865475, 52.1938731 ], [ 9.985936, 52.1939008 ], [ 9.9848816, 52.1937229 ], [ 9.9838707, 52.1935781 ], [ 9.9830851, 52.1934202 ], [ 9.9826825, 52.1934753 ], [ 9.9822223, 52.1934808 ], [ 9.9817925, 52.1934389 ], [ 9.9815931, 52.1933919 ], [ 9.9814407, 52.1933749 ], [ 9.9794794, 52.1931274 ], [ 9.9783123, 52.1930835 ], [ 9.9774072, 52.193082 ], [ 9.978558, 52.1878244 ], [ 9.977541, 52.1876657 ], [ 9.9724044, 52.1868252 ], [ 9.9679407, 52.186088 ], [ 9.9677305, 52.186111 ], [ 9.9631337, 52.1852927 ], [ 9.9629377, 52.1854211 ], [ 9.9522307, 52.1840644 ], [ 9.9511136, 52.1869222 ], [ 9.9507316, 52.1878149 ], [ 9.9507043, 52.1878879 ], [ 9.9486981, 52.1914124 ], [ 9.947981, 52.1926939 ], [ 9.9444525, 52.1923055 ], [ 9.9407732, 52.1919028 ], [ 9.93802, 52.1915614 ], [ 9.937505, 52.191489 ], [ 9.936255, 52.1911864 ], [ 9.9358741, 52.1910976 ], [ 9.9354825, 52.1910746 ], [ 9.9350908, 52.1910713 ], [ 9.9345651, 52.1911207 ], [ 9.9328925, 52.1916463 ], [ 9.9320935, 52.1908193 ], [ 9.9286912, 52.1904798 ], [ 9.924187, 52.1900666 ], [ 9.9237968, 52.1900068 ], [ 9.9245252, 52.1889461 ], [ 9.9243041, 52.188986 ], [ 9.9240114, 52.1893289 ], [ 9.9231534, 52.1892692 ], [ 9.9233892, 52.1886561 ], [ 9.9235762, 52.1881178 ], [ 9.923568, 52.1876144 ], [ 9.9235567, 52.1873783 ], [ 9.9235729, 52.1871215 ], [ 9.9238119, 52.1866773 ], [ 9.9238201, 52.186448 ], [ 9.9237794, 52.1861689 ], [ 9.9236168, 52.1859745 ], [ 9.9233079, 52.1857303 ], [ 9.9226493, 52.1853863 ], [ 9.9213973, 52.1846835 ], [ 9.9205437, 52.1842199 ], [ 9.9198526, 52.1839308 ], [ 9.919625, 52.1838162 ], [ 9.9197713, 52.1835171 ], [ 9.920171, 52.1828542 ], [ 9.9206864, 52.1826931 ], [ 9.9211011, 52.1827804 ], [ 9.9219502, 52.1831133 ], [ 9.9221534, 52.1831233 ], [ 9.9224136, 52.1830036 ], [ 9.9225437, 52.1827544 ], [ 9.922503, 52.1824403 ], [ 9.922755, 52.1821761 ], [ 9.9231907, 52.1820101 ], [ 9.9233507, 52.1816584 ], [ 9.9193168, 52.1807569 ], [ 9.9188118, 52.1806529 ], [ 9.9183504, 52.1816214 ], [ 9.9147218, 52.180952 ], [ 9.9083356, 52.1829284 ], [ 9.9073471, 52.183258 ], [ 9.9084279, 52.1835609 ], [ 9.9101029, 52.1837313 ], [ 9.9097055, 52.1843577 ], [ 9.909673, 52.184597 ], [ 9.9095053, 52.1845665 ], [ 9.9071945, 52.1840339 ], [ 9.907133, 52.1838894 ], [ 9.9046242, 52.1832417 ], [ 9.9033173, 52.1836675 ], [ 9.9025448, 52.1840416 ], [ 9.9019267, 52.1837394 ], [ 9.9029444, 52.1825878 ], [ 9.9028447, 52.1824671 ], [ 9.9026849, 52.182424 ], [ 9.9022565, 52.1823377 ], [ 9.9019219, 52.1823194 ], [ 9.9015084, 52.1826187 ], [ 9.9008001, 52.1833543 ], [ 9.9007694, 52.183378 ], [ 9.9000505, 52.183933 ], [ 9.8997306, 52.1844214 ], [ 9.8992713, 52.1847581 ], [ 9.8988051, 52.1850663 ], [ 9.8980258, 52.1859048 ], [ 9.8977591, 52.1858406 ], [ 9.8969853, 52.1855638 ], [ 9.8972608, 52.184472 ], [ 9.8985876, 52.1828011 ], [ 9.8974299, 52.1822308 ], [ 9.8972283, 52.1830882 ], [ 9.8966885, 52.1834073 ], [ 9.8958494, 52.182825 ], [ 9.8962462, 52.182163 ], [ 9.8959535, 52.1815967 ], [ 9.894199, 52.1816705 ], [ 9.892631, 52.1813053 ], [ 9.8934646, 52.178859 ], [ 9.8918767, 52.1782504 ], [ 9.8924889, 52.1771689 ], [ 9.8938575, 52.174833 ], [ 9.8947442, 52.172856 ], [ 9.8947821, 52.1724343 ], [ 9.8958607, 52.1698925 ], [ 9.8960689, 52.1682598 ], [ 9.8960697, 52.1666845 ], [ 9.8957248, 52.1664369 ], [ 9.8956797, 52.1650119 ], [ 9.8945308, 52.1646662 ], [ 9.8937284, 52.1639016 ], [ 9.8937486, 52.1635642 ], [ 9.8931077, 52.1633568 ], [ 9.8935026, 52.1618215 ], [ 9.8945309, 52.1598321 ], [ 9.8920135, 52.1598421 ], [ 9.8903357, 52.1598512 ], [ 9.8886935, 52.1598613 ], [ 9.8843681, 52.1598891 ], [ 9.8823051, 52.1599292 ], [ 9.8789286, 52.1600978 ], [ 9.8772278, 52.1602727 ], [ 9.8783541, 52.1577802 ], [ 9.875812, 52.1575172 ], [ 9.8757191, 52.1578984 ], [ 9.8732588, 52.1581278 ], [ 9.8735662, 52.1586014 ], [ 9.8730943, 52.1589681 ], [ 9.8727062, 52.1590323 ], [ 9.8721766, 52.158956 ], [ 9.8715462, 52.1590351 ], [ 9.8687343, 52.159475 ], [ 9.8673221, 52.1597101 ], [ 9.8667938, 52.1598227 ], [ 9.866534, 52.159953 ], [ 9.8663577, 52.1599881 ], [ 9.8660472, 52.1599302 ], [ 9.8656002, 52.1599036 ], [ 9.8631165, 52.1601211 ], [ 9.8629356, 52.1595891 ], [ 9.8612506, 52.1597353 ], [ 9.8641185, 52.1564165 ], [ 9.8638502, 52.1564017 ], [ 9.8621711, 52.1563161 ], [ 9.8584892, 52.1559189 ], [ 9.858295, 52.1560169 ], [ 9.8578431, 52.1559683 ], [ 9.8578191, 52.1558541 ], [ 9.8584141, 52.1551774 ], [ 9.859733, 52.1535373 ], [ 9.8613711, 52.1511641 ], [ 9.8613123, 52.1510345 ], [ 9.8555002, 52.1507252 ], [ 9.8568886, 52.1471219 ], [ 9.8553787, 52.1467409 ], [ 9.8549537, 52.1461995 ], [ 9.8523341, 52.1447441 ], [ 9.8561027, 52.1433566 ], [ 9.8565559, 52.1432633 ], [ 9.8572874, 52.1432015 ], [ 9.858044, 52.1430268 ], [ 9.8570275, 52.1410994 ], [ 9.858222, 52.1408397 ], [ 9.8561073, 52.138596 ], [ 9.8551001, 52.1374032 ], [ 9.8516786, 52.1331671 ], [ 9.8465506, 52.1273899 ] ] ] } }
]
}
