{
"type": "FeatureCollection",
"name": "ivano-frankivsk_ua",
"crs": { "type": "name", "properties": { "name": "urn:ogc:def:crs:OGC:1.3:CRS84" } },
"features": [
{ "type": "Feature", "properties": { "bbox_west": 24.6417506, "bbox_south": 48.8611451, "bbox_east": 24.7589659, "bbox_north": 48.956705, "place_id": 190343583, "osm_type": "relation", "osm_id": 2362670, "lat": 48.9224763, "lon": 24.710334, "class": "boundary", "type": "administrative", "place_rank": 18, "importance": 0.62175821197006054, "addresstype": "city", "name": "Ivano-Frankivsk", "display_name": "Ivano-Frankivsk, Ivano-Frankivsk Urban Hromada, Ivano-Frankivsk Raion, Ivano-Frankivsk Oblast, Ukraine" }, "geometry": { "type": "Polygon", "coordinates": [ [ [ 24.6417506, 48.95199 ], [ 24.6418807, 48.9519196 ], [ 24.6423259, 48.9517064 ], [ 24.6439272, 48.951377 ], [ 24.6435544, 48.9509103 ], [ 24.6440425, 48.950565 ], [ 24.6445173, 48.9502515 ], [ 24.6449357, 48.9495998 ], [ 24.6452442, 48.948446 ], [ 24.6456921, 48.9484548 ], [ 24.6457565, 48.9468483 ], [ 24.646368, 48.9463515 ], [ 24.646832, 48.9460858 ], [ 24.6475428, 48.9452558 ], [ 24.6484736, 48.9453985 ], [ 24.6495438, 48.9451307 ], [ 24.6500587, 48.9447978 ], [ 24.6502492, 48.9439328 ], [ 24.6508259, 48.943628 ], [ 24.6514696, 48.9434748 ], [ 24.6517834, 48.9431277 ], [ 24.6522796, 48.9430379 ], [ 24.6526685, 48.9429005 ], [ 24.6529528, 48.9426168 ], [ 24.6535295, 48.9424036 ], [ 24.6542135, 48.9422521 ], [ 24.6546909, 48.9421676 ], [ 24.6549538, 48.9420883 ], [ 24.6553481, 48.9418381 ], [ 24.6560132, 48.9415985 ], [ 24.6567401, 48.9413484 ], [ 24.6571478, 48.9411722 ], [ 24.6573812, 48.9409009 ], [ 24.657695, 48.9406507 ], [ 24.658033, 48.940582 ], [ 24.6583629, 48.9405626 ], [ 24.6585989, 48.9404957 ], [ 24.6586364, 48.9404745 ], [ 24.658682, 48.9403424 ], [ 24.6586525, 48.9402173 ], [ 24.6587491, 48.9400288 ], [ 24.6597844, 48.9400446 ], [ 24.6600822, 48.9397698 ], [ 24.6608412, 48.9395372 ], [ 24.6614099, 48.9395284 ], [ 24.6620724, 48.939347 ], [ 24.6627885, 48.9394174 ], [ 24.6634537, 48.9394491 ], [ 24.6638185, 48.9393769 ], [ 24.6640921, 48.9392448 ], [ 24.6647492, 48.9389752 ], [ 24.6654063, 48.9387145 ], [ 24.6659589, 48.938348 ], [ 24.6660233, 48.9383709 ], [ 24.665983, 48.9385154 ], [ 24.6663344, 48.9387356 ], [ 24.6667126, 48.9386898 ], [ 24.6667421, 48.9385383 ], [ 24.6668413, 48.9385277 ], [ 24.666954, 48.938614 ], [ 24.667021, 48.9387356 ], [ 24.6673295, 48.9387885 ], [ 24.6681154, 48.938466 ], [ 24.6682924, 48.9384784 ], [ 24.6684587, 48.9385629 ], [ 24.6688771, 48.938947 ], [ 24.6690676, 48.9389734 ], [ 24.6692634, 48.9388114 ], [ 24.6694726, 48.9387409 ], [ 24.6698508, 48.938718 ], [ 24.670178, 48.938799 ], [ 24.670406, 48.9390245 ], [ 24.6707091, 48.9391373 ], [ 24.6712643, 48.9391866 ], [ 24.6717632, 48.9391673 ], [ 24.6722433, 48.939243 ], [ 24.6726349, 48.9393857 ], [ 24.6729594, 48.9394262 ], [ 24.6731874, 48.9395108 ], [ 24.6734449, 48.9397134 ], [ 24.6746305, 48.9387585 ], [ 24.6793994, 48.9362566 ], [ 24.6824598, 48.9396923 ], [ 24.6825376, 48.9396958 ], [ 24.6845761, 48.9385717 ], [ 24.6839324, 48.9381101 ], [ 24.6842301, 48.9379392 ], [ 24.6848845, 48.9384061 ], [ 24.6854264, 48.9381066 ], [ 24.6845654, 48.9374353 ], [ 24.6843347, 48.9372239 ], [ 24.6850777, 48.9368698 ], [ 24.6845224, 48.9363271 ], [ 24.6845412, 48.9363007 ], [ 24.684568, 48.9362302 ], [ 24.6846539, 48.9360716 ], [ 24.6847343, 48.9359553 ], [ 24.6848041, 48.9358056 ], [ 24.6848014, 48.9356611 ], [ 24.6847612, 48.9352752 ], [ 24.6849784, 48.9352453 ], [ 24.6850992, 48.9352435 ], [ 24.6850106, 48.9344453 ], [ 24.6860191, 48.9342955 ], [ 24.6856704, 48.9338304 ], [ 24.6852306, 48.9332172 ], [ 24.685075, 48.9329476 ], [ 24.6849704, 48.9326886 ], [ 24.6847075, 48.9320436 ], [ 24.684729, 48.9317899 ], [ 24.6848604, 48.9316172 ], [ 24.6852225, 48.9314058 ], [ 24.6856302, 48.9312666 ], [ 24.6861908, 48.9312172 ], [ 24.6868265, 48.9312877 ], [ 24.6877143, 48.9310992 ], [ 24.6868801, 48.9303256 ], [ 24.6859145, 48.9299961 ], [ 24.6851421, 48.9293 ], [ 24.6845386, 48.9286921 ], [ 24.6838573, 48.9280576 ], [ 24.6826744, 48.9270884 ], [ 24.6825215, 48.9270972 ], [ 24.6816418, 48.9269685 ], [ 24.6803194, 48.9262231 ], [ 24.6794906, 48.9255288 ], [ 24.6791553, 48.9250424 ], [ 24.6784607, 48.9246617 ], [ 24.6780959, 48.9244167 ], [ 24.6772242, 48.9238281 ], [ 24.6765536, 48.9235356 ], [ 24.6790749, 48.9225134 ], [ 24.677479, 48.9211721 ], [ 24.677192, 48.9209501 ], [ 24.6768379, 48.9205218 ], [ 24.6775594, 48.9200864 ], [ 24.6768808, 48.9195348 ], [ 24.6763363, 48.9190748 ], [ 24.6757597, 48.9185213 ], [ 24.6759796, 48.9184156 ], [ 24.675875, 48.9183204 ], [ 24.6763578, 48.9180771 ], [ 24.6761164, 48.9177387 ], [ 24.6760896, 48.9176365 ], [ 24.6758482, 48.917291 ], [ 24.6755075, 48.9166301 ], [ 24.6754754, 48.9164714 ], [ 24.6754754, 48.9162916 ], [ 24.6756524, 48.9155055 ], [ 24.6757659, 48.9150902 ], [ 24.6762517, 48.9138435 ], [ 24.6768165, 48.9125423 ], [ 24.6771196, 48.9118989 ], [ 24.677424, 48.9112423 ], [ 24.6776667, 48.9108183 ], [ 24.6779636, 48.9103613 ], [ 24.6784273, 48.9096935 ], [ 24.6786671, 48.9093322 ], [ 24.6789998, 48.9088051 ], [ 24.6790856, 48.9086711 ], [ 24.6793056, 48.9083362 ], [ 24.6796543, 48.9078144 ], [ 24.6800163, 48.9072926 ], [ 24.6800723, 48.9072425 ], [ 24.6802892, 48.9069165 ], [ 24.6806782, 48.906511 ], [ 24.6807912, 48.9063931 ], [ 24.6808368, 48.9062826 ], [ 24.68062, 48.9056922 ], [ 24.6806991, 48.9055064 ], [ 24.678902, 48.9046298 ], [ 24.680593, 48.9023472 ], [ 24.6801692, 48.9017741 ], [ 24.6787515, 48.900983 ], [ 24.6793245, 48.9004361 ], [ 24.681595, 48.8979132 ], [ 24.6861094, 48.89837 ], [ 24.6868246, 48.8972266 ], [ 24.686062, 48.8966016 ], [ 24.6850185, 48.8959958 ], [ 24.6834147, 48.895624 ], [ 24.6831185, 48.8949047 ], [ 24.6821927, 48.8945617 ], [ 24.680389, 48.8943207 ], [ 24.6794632, 48.8942851 ], [ 24.6770034, 48.8951083 ], [ 24.6743316, 48.8927476 ], [ 24.6724249, 48.8924775 ], [ 24.670563, 48.890987 ], [ 24.6714644, 48.8903606 ], [ 24.6692719, 48.8883056 ], [ 24.6681916, 48.8882809 ], [ 24.6675592, 48.8879176 ], [ 24.6623212, 48.8885516 ], [ 24.6610579, 48.8859161 ], [ 24.6653805, 48.885231 ], [ 24.6663469, 48.8850778 ], [ 24.6664272, 48.8850651 ], [ 24.6679458, 48.8848244 ], [ 24.6682597, 48.8847746 ], [ 24.6693422, 48.8846031 ], [ 24.6729604, 48.8840296 ], [ 24.6750598, 48.8836968 ], [ 24.6758909, 48.8835651 ], [ 24.6789324, 48.883083 ], [ 24.6787042, 48.8825709 ], [ 24.6786016, 48.8823722 ], [ 24.6781858, 48.8815489 ], [ 24.6780271, 48.8813761 ], [ 24.6778024, 48.8809439 ], [ 24.7001098, 48.8764305 ], [ 24.7019232, 48.8760636 ], [ 24.7020084, 48.8760905 ], [ 24.7020726, 48.8761001 ], [ 24.7021317, 48.876098 ], [ 24.7021857, 48.8760856 ], [ 24.7022094, 48.8760599 ], [ 24.7022167, 48.8760222 ], [ 24.7022155, 48.8759593 ], [ 24.7023481, 48.8752319 ], [ 24.7023566, 48.8751853 ], [ 24.7027184, 48.8736645 ], [ 24.702472, 48.8735581 ], [ 24.7021832, 48.8733964 ], [ 24.7020559, 48.8733251 ], [ 24.7018925, 48.8732336 ], [ 24.7013924, 48.8729565 ], [ 24.7008734, 48.872669 ], [ 24.7007419, 48.8726071 ], [ 24.700453, 48.8724709 ], [ 24.7002296, 48.8723656 ], [ 24.7000324, 48.8723041 ], [ 24.69994, 48.8722753 ], [ 24.6991602, 48.8721267 ], [ 24.6992781, 48.8720229 ], [ 24.6996048, 48.8719121 ], [ 24.6998677, 48.8717811 ], [ 24.7001511, 48.8717425 ], [ 24.7010546, 48.8713015 ], [ 24.7006223, 48.8709816 ], [ 24.7004782, 48.8709305 ], [ 24.7002954, 48.8708868 ], [ 24.7000239, 48.8707884 ], [ 24.6998576, 48.8708139 ], [ 24.6995917, 48.8707702 ], [ 24.6993313, 48.8707191 ], [ 24.6990376, 48.8706025 ], [ 24.6986478, 48.8704683 ], [ 24.6986693, 48.8703733 ], [ 24.6987258, 48.869211 ], [ 24.6987391, 48.8689363 ], [ 24.6987136, 48.868917 ], [ 24.6971437, 48.8677268 ], [ 24.6971135, 48.8677039 ], [ 24.6967341, 48.8674163 ], [ 24.6954514, 48.8664438 ], [ 24.6953248, 48.8663479 ], [ 24.6946753, 48.8658554 ], [ 24.6946345, 48.8658245 ], [ 24.6944532, 48.8656871 ], [ 24.6942852, 48.8655597 ], [ 24.6948896, 48.8654501 ], [ 24.6951856, 48.865017 ], [ 24.6955516, 48.8644813 ], [ 24.6956273, 48.8643704 ], [ 24.6957567, 48.8641995 ], [ 24.6960248, 48.8637887 ], [ 24.6962866, 48.8634056 ], [ 24.6963176, 48.8633602 ], [ 24.6964028, 48.8632355 ], [ 24.6971032, 48.8622104 ], [ 24.6973551, 48.8618642 ], [ 24.6984056, 48.8611451 ], [ 24.6984753, 48.8612881 ], [ 24.6988884, 48.8618633 ], [ 24.6989286, 48.8619851 ], [ 24.6989661, 48.8620009 ], [ 24.6992451, 48.862465 ], [ 24.6994087, 48.8626574 ], [ 24.699693, 48.8628409 ], [ 24.6998781, 48.8629997 ], [ 24.700141, 48.8632185 ], [ 24.7007149, 48.8635537 ], [ 24.7009376, 48.863986 ], [ 24.7011414, 48.8644907 ], [ 24.7019058, 48.8654788 ], [ 24.7014552, 48.8661581 ], [ 24.7025228, 48.8674708 ], [ 24.7033033, 48.868143 ], [ 24.7039229, 48.8687799 ], [ 24.7039953, 48.8689211 ], [ 24.7040999, 48.8691187 ], [ 24.7045371, 48.8696832 ], [ 24.7058943, 48.869865 ], [ 24.7062993, 48.870052 ], [ 24.7073054, 48.8707345 ], [ 24.7096789, 48.8710558 ], [ 24.7106081, 48.8711696 ], [ 24.7124281, 48.8715075 ], [ 24.7171032, 48.8711123 ], [ 24.7177255, 48.8713258 ], [ 24.7177604, 48.8713243 ], [ 24.71869, 48.8718659 ], [ 24.7190162, 48.8730578 ], [ 24.719029, 48.8743781 ], [ 24.7187919, 48.8766171 ], [ 24.7188306, 48.8770398 ], [ 24.7188199, 48.8771121 ], [ 24.7188939, 48.8774187 ], [ 24.7194415, 48.8776628 ], [ 24.7195467, 48.8776713 ], [ 24.7198864, 48.877658 ], [ 24.7206533, 48.877589 ], [ 24.7210155, 48.8776953 ], [ 24.7212756, 48.8777856 ], [ 24.7213862, 48.8779596 ], [ 24.7217616, 48.8784153 ], [ 24.7216943, 48.8788897 ], [ 24.721978, 48.8795222 ], [ 24.7222348, 48.8802241 ], [ 24.7221301, 48.8814256 ], [ 24.7222081, 48.8817657 ], [ 24.7224429, 48.8819462 ], [ 24.7227857, 48.8821224 ], [ 24.7236854, 48.8821982 ], [ 24.7243996, 48.8821446 ], [ 24.725064, 48.8819178 ], [ 24.7255913, 48.8819703 ], [ 24.7257823, 48.8824924 ], [ 24.7259591, 48.8829071 ], [ 24.7261884, 48.8836378 ], [ 24.7260006, 48.8843247 ], [ 24.7251545, 48.8851114 ], [ 24.7247009, 48.8858831 ], [ 24.7245277, 48.8863164 ], [ 24.7245232, 48.8866941 ], [ 24.7245207, 48.8870149 ], [ 24.724512, 48.887446 ], [ 24.7238987, 48.8884169 ], [ 24.7244208, 48.8891811 ], [ 24.7254411, 48.8900291 ], [ 24.7269721, 48.8905423 ], [ 24.7288183, 48.8910476 ], [ 24.7293142, 48.8914008 ], [ 24.7296915, 48.8921782 ], [ 24.7313069, 48.8928216 ], [ 24.7317609, 48.8932929 ], [ 24.731927, 48.8938694 ], [ 24.7319068, 48.8945154 ], [ 24.7317567, 48.8949572 ], [ 24.7321285, 48.8952696 ], [ 24.7332262, 48.8957034 ], [ 24.7340716, 48.8958903 ], [ 24.7349335, 48.8960478 ], [ 24.735794, 48.8961559 ], [ 24.7363895, 48.896308 ], [ 24.7369442, 48.8968193 ], [ 24.7388341, 48.898334 ], [ 24.7394489, 48.8982688 ], [ 24.7398889, 48.8985225 ], [ 24.7402599, 48.8996254 ], [ 24.7400931, 48.9007788 ], [ 24.7393759, 48.9014225 ], [ 24.739039, 48.9015764 ], [ 24.738891, 48.9018558 ], [ 24.7389153, 48.9019858 ], [ 24.7389681, 48.9022398 ], [ 24.739096, 48.9030016 ], [ 24.7388974, 48.9035968 ], [ 24.7387847, 48.9041875 ], [ 24.7388973, 48.9045913 ], [ 24.7390153, 48.9049124 ], [ 24.7389667, 48.9051458 ], [ 24.738814, 48.9056275 ], [ 24.7388284, 48.9063304 ], [ 24.7390252, 48.9065573 ], [ 24.7396069, 48.9069913 ], [ 24.7413902, 48.9061739 ], [ 24.7415569, 48.9065071 ], [ 24.7418332, 48.9070801 ], [ 24.7421034, 48.9074953 ], [ 24.7422892, 48.9078302 ], [ 24.7430134, 48.9092829 ], [ 24.7433031, 48.9092247 ], [ 24.743818, 48.9091542 ], [ 24.7446455, 48.9091639 ], [ 24.7449186, 48.9095648 ], [ 24.7449922, 48.9096786 ], [ 24.7458082, 48.9096531 ], [ 24.7459155, 48.909572 ], [ 24.7465432, 48.9095015 ], [ 24.7481525, 48.9094415 ], [ 24.7482169, 48.9096707 ], [ 24.74841, 48.909706 ], [ 24.7488123, 48.9098699 ], [ 24.7491947, 48.9100382 ], [ 24.7494482, 48.9105438 ], [ 24.7505729, 48.91025 ], [ 24.7534153, 48.9093066 ], [ 24.7534862, 48.9094204 ], [ 24.7535286, 48.9098256 ], [ 24.7535568, 48.9103777 ], [ 24.753767, 48.9105917 ], [ 24.7543215, 48.9110566 ], [ 24.754839, 48.9113284 ], [ 24.7555445, 48.911639 ], [ 24.7572482, 48.9123782 ], [ 24.7576035, 48.9124926 ], [ 24.7577503, 48.9126006 ], [ 24.7536276, 48.9131904 ], [ 24.7480432, 48.9140153 ], [ 24.750766, 48.9182515 ], [ 24.7496105, 48.9185111 ], [ 24.7464063, 48.9192308 ], [ 24.7468753, 48.9197579 ], [ 24.7486851, 48.9210403 ], [ 24.7499432, 48.9223254 ], [ 24.7508211, 48.922881 ], [ 24.7518585, 48.9233317 ], [ 24.7540473, 48.9242182 ], [ 24.754846, 48.9255464 ], [ 24.7553594, 48.9260983 ], [ 24.7561857, 48.9262619 ], [ 24.7569635, 48.9265458 ], [ 24.7573296, 48.9269722 ], [ 24.7575354, 48.9274699 ], [ 24.7573994, 48.9279676 ], [ 24.7576018, 48.9284585 ], [ 24.7578043, 48.9287921 ], [ 24.7580312, 48.9292172 ], [ 24.7584286, 48.9297427 ], [ 24.7587398, 48.9302568 ], [ 24.7589659, 48.9306403 ], [ 24.7588491, 48.9312577 ], [ 24.7585825, 48.9317338 ], [ 24.7570278, 48.9317471 ], [ 24.7550392, 48.9329324 ], [ 24.754157, 48.9331668 ], [ 24.7539864, 48.9332167 ], [ 24.7534984, 48.9334263 ], [ 24.7538166, 48.9338025 ], [ 24.7540776, 48.934401 ], [ 24.7550883, 48.9364721 ], [ 24.7526296, 48.9376263 ], [ 24.7519522, 48.9379443 ], [ 24.7497797, 48.9389641 ], [ 24.7464653, 48.9406366 ], [ 24.7464635, 48.9407685 ], [ 24.7464603, 48.9409969 ], [ 24.7481379, 48.942511 ], [ 24.7486173, 48.9425224 ], [ 24.7495812, 48.9422945 ], [ 24.7501649, 48.9429664 ], [ 24.7496163, 48.9432696 ], [ 24.749084, 48.9434302 ], [ 24.7493881, 48.9440937 ], [ 24.7463516, 48.944879 ], [ 24.7460828, 48.9450153 ], [ 24.7455027, 48.945461 ], [ 24.7454104, 48.945385 ], [ 24.7426585, 48.9429721 ], [ 24.7425763, 48.9429001 ], [ 24.7425221, 48.9428525 ], [ 24.7424798, 48.9428154 ], [ 24.7420582, 48.9424457 ], [ 24.7418531, 48.9422659 ], [ 24.7412835, 48.9417653 ], [ 24.7411942, 48.9416868 ], [ 24.7403631, 48.9409578 ], [ 24.7402648, 48.9408715 ], [ 24.7399782, 48.9406201 ], [ 24.739941, 48.9405857 ], [ 24.7396574, 48.9403341 ], [ 24.7391166, 48.9398619 ], [ 24.73884, 48.9396203 ], [ 24.7387839, 48.9395712 ], [ 24.7386012, 48.9394114 ], [ 24.7383555, 48.9391957 ], [ 24.7383271, 48.9391785 ], [ 24.7381874, 48.9390942 ], [ 24.7381216, 48.9390937 ], [ 24.7380938, 48.9390747 ], [ 24.7380733, 48.9390606 ], [ 24.738017, 48.9390529 ], [ 24.737872, 48.9390331 ], [ 24.7376038, 48.9391714 ], [ 24.7365456, 48.9396899 ], [ 24.7355985, 48.9401539 ], [ 24.7343353, 48.9407728 ], [ 24.7326177, 48.9416143 ], [ 24.7319403, 48.9419462 ], [ 24.7315605, 48.9421323 ], [ 24.7311296, 48.9423434 ], [ 24.7303119, 48.942744 ], [ 24.7301905, 48.9428035 ], [ 24.7299473, 48.9429226 ], [ 24.7299023, 48.9429447 ], [ 24.730381, 48.9433751 ], [ 24.7275933, 48.944713 ], [ 24.7234339, 48.9463353 ], [ 24.7225749, 48.945927 ], [ 24.7219982, 48.9458741 ], [ 24.7213572, 48.9458248 ], [ 24.7207537, 48.9456504 ], [ 24.7200644, 48.9453967 ], [ 24.7194153, 48.9451695 ], [ 24.7189352, 48.9450074 ], [ 24.7186509, 48.9449405 ], [ 24.7181493, 48.9448453 ], [ 24.7169557, 48.9442851 ], [ 24.7164595, 48.945092 ], [ 24.7153276, 48.9468271 ], [ 24.7142386, 48.9467355 ], [ 24.7141555, 48.9470244 ], [ 24.7140366, 48.9469943 ], [ 24.7139329, 48.9469681 ], [ 24.7138685, 48.9471671 ], [ 24.7137129, 48.9476603 ], [ 24.7135439, 48.9480796 ], [ 24.713265, 48.9487912 ], [ 24.71297, 48.9494307 ], [ 24.7127098, 48.9500947 ], [ 24.712227, 48.951215 ], [ 24.7123021, 48.9512326 ], [ 24.7120848, 48.9517434 ], [ 24.7114116, 48.9533392 ], [ 24.7109878, 48.9543432 ], [ 24.710623, 48.9543308 ], [ 24.7109288, 48.9536333 ], [ 24.7107679, 48.9534713 ], [ 24.7098479, 48.9525413 ], [ 24.7099337, 48.9524938 ], [ 24.7098532, 48.9524339 ], [ 24.7108004, 48.9519858 ], [ 24.7112411, 48.9517773 ], [ 24.7119829, 48.9514264 ], [ 24.7121412, 48.9511093 ], [ 24.7125864, 48.9501264 ], [ 24.7131631, 48.9488987 ], [ 24.7136834, 48.9476885 ], [ 24.7138926, 48.9469681 ], [ 24.7127393, 48.9467408 ], [ 24.7124147, 48.9474842 ], [ 24.7123209, 48.9474842 ], [ 24.7123075, 48.9475229 ], [ 24.7123718, 48.9475441 ], [ 24.7116503, 48.9493197 ], [ 24.7115672, 48.9494606 ], [ 24.7116289, 48.9494853 ], [ 24.7119319, 48.9493831 ], [ 24.7120821, 48.9490255 ], [ 24.7120339, 48.9490167 ], [ 24.7124067, 48.9480708 ], [ 24.7133213, 48.9482187 ], [ 24.7130531, 48.9488494 ], [ 24.7128975, 48.9491365 ], [ 24.7128627, 48.9491418 ], [ 24.7126159, 48.9497336 ], [ 24.7125354, 48.949864 ], [ 24.7115672, 48.94948 ], [ 24.7113311, 48.9494236 ], [ 24.7112162, 48.9495678 ], [ 24.709473, 48.9493046 ], [ 24.7094438, 48.9492708 ], [ 24.707381, 48.9487732 ], [ 24.7070111, 48.9486559 ], [ 24.7068975, 48.9486181 ], [ 24.7066104, 48.9484935 ], [ 24.7060418, 48.9482822 ], [ 24.7054088, 48.947995 ], [ 24.7048455, 48.9477114 ], [ 24.7041026, 48.947308 ], [ 24.7031584, 48.9466968 ], [ 24.703027, 48.9466985 ], [ 24.7025721, 48.9469417 ], [ 24.7000954, 48.948217 ], [ 24.6984082, 48.9490906 ], [ 24.6968633, 48.9498745 ], [ 24.6964127, 48.9495187 ], [ 24.6960667, 48.9491805 ], [ 24.6959808, 48.9492316 ], [ 24.6958642, 48.9491255 ], [ 24.6954157, 48.9485408 ], [ 24.6949965, 48.9480303 ], [ 24.6947899, 48.9481747 ], [ 24.6953586, 48.9488899 ], [ 24.6951064, 48.9490484 ], [ 24.6955812, 48.9494888 ], [ 24.6955302, 48.949524 ], [ 24.6949536, 48.9491365 ], [ 24.6949214, 48.9491576 ], [ 24.6946639, 48.9489938 ], [ 24.6945807, 48.9490484 ], [ 24.694342, 48.9489233 ], [ 24.6938834, 48.9492246 ], [ 24.693827, 48.9492563 ], [ 24.6937144, 48.9493355 ], [ 24.6935507, 48.9494412 ], [ 24.69398, 48.9497266 ], [ 24.6949804, 48.9502779 ], [ 24.6926818, 48.9517962 ], [ 24.6910563, 48.9507253 ], [ 24.6904689, 48.9510706 ], [ 24.6897286, 48.9505685 ], [ 24.6895355, 48.9504999 ], [ 24.6891734, 48.9503026 ], [ 24.6887556, 48.950041 ], [ 24.6890936, 48.9498107 ], [ 24.6891211, 48.9497913 ], [ 24.6892143, 48.9497314 ], [ 24.6890634, 48.9496473 ], [ 24.6889481, 48.9495804 ], [ 24.6880254, 48.9489735 ], [ 24.6879409, 48.9490264 ], [ 24.6878658, 48.9489718 ], [ 24.6878202, 48.94897 ], [ 24.6877679, 48.9489322 ], [ 24.6877679, 48.9489022 ], [ 24.6875882, 48.9487745 ], [ 24.686628, 48.9492307 ], [ 24.6866333, 48.9492739 ], [ 24.6874407, 48.9498904 ], [ 24.686341, 48.9503889 ], [ 24.6856061, 48.9498147 ], [ 24.6854022, 48.949827 ], [ 24.6842542, 48.9503431 ], [ 24.684273, 48.9504118 ], [ 24.6846324, 48.9508715 ], [ 24.6847826, 48.9510001 ], [ 24.6841094, 48.9513066 ], [ 24.6833557, 48.9516465 ], [ 24.6827629, 48.9510353 ], [ 24.6841845, 48.9503801 ], [ 24.6840946, 48.9502938 ], [ 24.6853955, 48.9497063 ], [ 24.6855055, 48.9497882 ], [ 24.6856624, 48.9497081 ], [ 24.6855631, 48.9496279 ], [ 24.6864496, 48.9492475 ], [ 24.6864952, 48.9492897 ], [ 24.6865851, 48.9492475 ], [ 24.6865529, 48.9492175 ], [ 24.6867943, 48.9491118 ], [ 24.6865851, 48.9489163 ], [ 24.6864751, 48.9489674 ], [ 24.6863303, 48.9488546 ], [ 24.685598, 48.9491999 ], [ 24.683699, 48.9500524 ], [ 24.6814567, 48.9510864 ], [ 24.6790963, 48.9521503 ], [ 24.6788898, 48.9517399 ], [ 24.6785679, 48.9514087 ], [ 24.6778142, 48.95075 ], [ 24.6773288, 48.9503642 ], [ 24.6773422, 48.9501194 ], [ 24.6767709, 48.9498235 ], [ 24.6767494, 48.9497319 ], [ 24.6754029, 48.9495399 ], [ 24.6749684, 48.9499291 ], [ 24.6745473, 48.9500366 ], [ 24.6741718, 48.9502673 ], [ 24.6741208, 48.9504664 ], [ 24.6736729, 48.9505175 ], [ 24.6734181, 48.9504681 ], [ 24.6732894, 48.9505368 ], [ 24.6732679, 48.9507095 ], [ 24.6731016, 48.9509332 ], [ 24.6737561, 48.9513682 ], [ 24.6725222, 48.952411 ], [ 24.6712053, 48.9533956 ], [ 24.6702397, 48.9528495 ], [ 24.6673697, 48.9510565 ], [ 24.669022, 48.950181 ], [ 24.6676862, 48.9490748 ], [ 24.6667099, 48.9481589 ], [ 24.6663478, 48.9477378 ], [ 24.665747, 48.9476198 ], [ 24.6654493, 48.9476709 ], [ 24.664945, 48.9481677 ], [ 24.6646634, 48.9483526 ], [ 24.6643683, 48.94849 ], [ 24.6639499, 48.948483 ], [ 24.6620187, 48.9490995 ], [ 24.6613803, 48.9493232 ], [ 24.6610638, 48.9495134 ], [ 24.6606562, 48.9496227 ], [ 24.6605059, 48.9497988 ], [ 24.6601143, 48.9500278 ], [ 24.6597415, 48.9500472 ], [ 24.6592158, 48.9500137 ], [ 24.6590629, 48.9501564 ], [ 24.6587679, 48.9503184 ], [ 24.6584058, 48.9504488 ], [ 24.6583629, 48.9508733 ], [ 24.6581644, 48.9512027 ], [ 24.6579578, 48.9514457 ], [ 24.657813, 48.9517011 ], [ 24.6578506, 48.9519072 ], [ 24.6575448, 48.9522806 ], [ 24.6575662, 48.9524532 ], [ 24.6574616, 48.9524973 ], [ 24.6574348, 48.9525959 ], [ 24.6574402, 48.9528337 ], [ 24.6571827, 48.9528989 ], [ 24.6569306, 48.9532142 ], [ 24.6568233, 48.9534044 ], [ 24.6565068, 48.9537197 ], [ 24.6559945, 48.9540825 ], [ 24.6560293, 48.9542392 ], [ 24.656032, 48.9543537 ], [ 24.6559516, 48.9547183 ], [ 24.6556538, 48.9551445 ], [ 24.6554151, 48.9554404 ], [ 24.6551093, 48.955997 ], [ 24.6549166, 48.9561944 ], [ 24.654707, 48.9564091 ], [ 24.6543771, 48.9566293 ], [ 24.6541384, 48.9566663 ], [ 24.6530655, 48.9566803 ], [ 24.6506703, 48.956705 ], [ 24.6501473, 48.9566275 ], [ 24.6499756, 48.9563316 ], [ 24.6495545, 48.9563528 ], [ 24.6489778, 48.9562894 ], [ 24.6487069, 48.9563299 ], [ 24.6458302, 48.9558103 ], [ 24.6435946, 48.9537161 ], [ 24.6417506, 48.95199 ] ] ] } }
]
}
