{
"type": "FeatureCollection",
"name": "jyvaskyla_fi",
"crs": { "type": "name", "properties": { "name": "urn:ogc:def:crs:OGC:1.3:CRS84" } },
"features": [
{ "type": "Feature", "properties": { "bbox_west": 25.2607866, "bbox_south": 61.8392056, "bbox_east": 26.051348, "bbox_north": 62.428747, "place_id": 168951492, "osm_type": "relation", "osm_id": 569407, "lat": 62.241672, "lon": 25.7495806, "class": "boundary", "type": "administrative", "place_rank": 16, "importance": 0.62075423936801633, "addresstype": "city", "name": "Jyväskylä", "display_name": "Jyväskylä, Jyväskylä sub-region, Central Finland, Mainland Finland, Finland" }, "geometry": { "type": "Polygon", "coordinates": [ [ [ 25.2607866, 62.048339 ], [ 25.280724, 62.0465512 ], [ 25.2825914, 62.0464131 ], [ 25.2954681, 62.0452622 ], [ 25.3018071, 62.0447832 ], [ 25.3366325, 62.0419124 ], [ 25.3388872, 62.0287394 ], [ 25.3432774, 62.0214918 ], [ 25.3432737, 62.0164291 ], [ 25.371182, 62.0059824 ], [ 25.3679215, 62.0046934 ], [ 25.3506331, 61.9979206 ], [ 25.3307241, 61.990257 ], [ 25.3277185, 61.9890513 ], [ 25.3240744, 61.987723 ], [ 25.3302623, 61.9780997 ], [ 25.3384977, 61.9796632 ], [ 25.3398227, 61.9779929 ], [ 25.3399391, 61.9764998 ], [ 25.3425028, 61.9747199 ], [ 25.3456791, 61.9747171 ], [ 25.3447977, 61.9735639 ], [ 25.3453432, 61.9735609 ], [ 25.3434469, 61.9692579 ], [ 25.3417764, 61.9694271 ], [ 25.3375268, 61.9667237 ], [ 25.3335973, 61.9642138 ], [ 25.3408919, 61.9634291 ], [ 25.3356787, 61.9507818 ], [ 25.3512173, 61.9462776 ], [ 25.3661642, 61.9557165 ], [ 25.4064295, 61.9363807 ], [ 25.4111872, 61.9363807 ], [ 25.4122885, 61.9351746 ], [ 25.4119154, 61.9350229 ], [ 25.4112719, 61.9347612 ], [ 25.4093214, 61.9340772 ], [ 25.4089797, 61.9340126 ], [ 25.4069455, 61.9331775 ], [ 25.4077947, 61.9308086 ], [ 25.4083607, 61.9297454 ], [ 25.4121319, 61.9302594 ], [ 25.4247323, 61.9310805 ], [ 25.4294976, 61.928536 ], [ 25.4426023, 61.9314477 ], [ 25.4465859, 61.9169329 ], [ 25.525542, 61.8759453 ], [ 25.5962253, 61.8392056 ], [ 25.606332, 61.854257 ], [ 25.618812, 61.857759 ], [ 25.622112, 61.859193 ], [ 25.660457, 61.859033 ], [ 25.6626291, 61.8589422 ], [ 25.6684906, 61.8583401 ], [ 25.6798293, 61.857141 ], [ 25.6981729, 61.8552011 ], [ 25.7122058, 61.853714 ], [ 25.7516511, 61.8495334 ], [ 25.7532551, 61.8511447 ], [ 25.7629663, 61.8608982 ], [ 25.7667208, 61.8647654 ], [ 25.7718069, 61.8698654 ], [ 25.778296, 61.876371 ], [ 25.793947, 61.892319 ], [ 25.8501917, 61.8906326 ], [ 25.888827, 61.907284 ], [ 25.9284462, 61.934864 ], [ 25.929228, 61.935408 ], [ 25.930419, 61.935687 ], [ 25.9315149, 61.9362928 ], [ 25.9794675, 61.9627871 ], [ 25.984867, 61.965769 ], [ 25.982696, 61.97026 ], [ 25.978946, 61.974002 ], [ 25.97909, 61.974273 ], [ 25.979067, 61.974398 ], [ 25.978867, 61.974666 ], [ 25.978758, 61.975078 ], [ 25.978557, 61.975391 ], [ 25.9784373, 61.9755074 ], [ 25.9780751, 61.9756553 ], [ 25.9773943, 61.9759089 ], [ 25.9771872, 61.9760145 ], [ 25.9770719, 61.9761462 ], [ 25.9768989, 61.9763285 ], [ 25.9768417, 61.9764622 ], [ 25.9766609, 61.9766099 ], [ 25.9763892, 61.9767191 ], [ 25.9761156, 61.9767203 ], [ 25.9756739, 61.976699 ], [ 25.9753729, 61.9767178 ], [ 25.9751129, 61.9768003 ], [ 25.9749286, 61.9768705 ], [ 25.9746553, 61.9770543 ], [ 25.9745176, 61.9772272 ], [ 25.9745168, 61.977343 ], [ 25.9745476, 61.9774616 ], [ 25.9745297, 61.9775706 ], [ 25.9744272, 61.9776807 ], [ 25.9743145, 61.9778431 ], [ 25.9741594, 61.977871 ], [ 25.9740292, 61.9779098 ], [ 25.9738693, 61.9779263 ], [ 25.9736966, 61.9779589 ], [ 25.9736638, 61.9780405 ], [ 25.9735268, 61.9781168 ], [ 25.9734742, 61.978171 ], [ 25.9733385, 61.9783066 ], [ 25.973077, 61.978384 ], [ 25.9727605, 61.978384 ], [ 25.9723887, 61.9783345 ], [ 25.9721468, 61.9783595 ], [ 25.9718604, 61.9785482 ], [ 25.9711445, 61.9788314 ], [ 25.9704286, 61.9788905 ], [ 25.9700323, 61.9790841 ], [ 25.9695509, 61.9791976 ], [ 25.9688946, 61.9791368 ], [ 25.9681042, 61.9794748 ], [ 25.9680801, 61.9796608 ], [ 25.9670613, 61.9798969 ], [ 25.9667268, 61.9796969 ], [ 25.9666198, 61.979717 ], [ 25.9665564, 61.9797934 ], [ 25.9663733, 61.9797726 ], [ 25.9662165, 61.9797188 ], [ 25.9660705, 61.9797519 ], [ 25.9652402, 61.9798171 ], [ 25.9650597, 61.9798611 ], [ 25.9649291, 61.9799987 ], [ 25.9648623, 61.9800082 ], [ 25.9645536, 61.9799507 ], [ 25.9644342, 61.9799797 ], [ 25.9642882, 61.9801094 ], [ 25.9641789, 61.9802221 ], [ 25.9641463, 61.9803649 ], [ 25.9641342, 61.9804766 ], [ 25.9640972, 61.9805375 ], [ 25.9639978, 61.9806282 ], [ 25.9640194, 61.980672 ], [ 25.964128, 61.9807206 ], [ 25.9641405, 61.9807662 ], [ 25.9640334, 61.9808537 ], [ 25.9639019, 61.9809459 ], [ 25.9637083, 61.9810164 ], [ 25.9636402, 61.9811083 ], [ 25.9636538, 61.9811842 ], [ 25.9638, 61.9813243 ], [ 25.9638681, 61.9814242 ], [ 25.9638926, 61.9815217 ], [ 25.9640945, 61.9816908 ], [ 25.9641777, 61.9817509 ], [ 25.9643306, 61.9818126 ], [ 25.9644732, 61.9818555 ], [ 25.9647522, 61.9819229 ], [ 25.9649944, 61.9819144 ], [ 25.9650239, 61.9824546 ], [ 25.9649201, 61.9825505 ], [ 25.9648603, 61.9826629 ], [ 25.9648332, 61.9827437 ], [ 25.9647417, 61.9828167 ], [ 25.964716, 61.982916 ], [ 25.9644979, 61.9831689 ], [ 25.9642825, 61.983242 ], [ 25.9641482, 61.983249 ], [ 25.9640006, 61.9832113 ], [ 25.9638054, 61.9831625 ], [ 25.9637174, 61.9831841 ], [ 25.9635739, 61.9833114 ], [ 25.963484, 61.9833883 ], [ 25.9635136, 61.9834584 ], [ 25.9636045, 61.9835091 ], [ 25.9638113, 61.9835864 ], [ 25.9638542, 61.9836439 ], [ 25.9638217, 61.9837193 ], [ 25.9636858, 61.9837956 ], [ 25.963439, 61.9839192 ], [ 25.9632724, 61.9840124 ], [ 25.9631407, 61.9841047 ], [ 25.9630042, 61.9842365 ], [ 25.9629055, 61.9843783 ], [ 25.9627883, 61.9845524 ], [ 25.9627615, 61.984661 ], [ 25.9627931, 61.9847354 ], [ 25.9628658, 61.9848173 ], [ 25.9629986, 61.9849412 ], [ 25.9630468, 61.9850343 ], [ 25.9630423, 61.9851713 ], [ 25.9629291, 61.9853066 ], [ 25.9627505, 61.9854644 ], [ 25.9624898, 61.9855602 ], [ 25.951413, 61.997469 ], [ 25.835942, 62.044466 ], [ 25.770355, 62.049114 ], [ 25.767973, 62.063555 ], [ 25.692748, 62.075712 ], [ 25.673379, 62.075635 ], [ 25.672691, 62.075619 ], [ 25.6716883, 62.07548 ], [ 25.671319, 62.07548 ], [ 25.670589, 62.075536 ], [ 25.669824, 62.07552 ], [ 25.669041, 62.075476 ], [ 25.668616, 62.075562 ], [ 25.668405, 62.075578 ], [ 25.667256, 62.075576 ], [ 25.666647, 62.075507 ], [ 25.665166, 62.075233 ], [ 25.664696, 62.075022 ], [ 25.664535, 62.074778 ], [ 25.664312, 62.074614 ], [ 25.6470541, 62.0714297 ], [ 25.6435582, 62.0707876 ], [ 25.6418891, 62.070481 ], [ 25.6393141, 62.070008 ], [ 25.633576, 62.068954 ], [ 25.63408, 62.06667 ], [ 25.6285021, 62.0676795 ], [ 25.624043, 62.0684865 ], [ 25.6212053, 62.069 ], [ 25.608201, 62.071403 ], [ 25.604517, 62.071168 ], [ 25.6043106, 62.071153 ], [ 25.59093, 62.070303 ], [ 25.582744, 62.06977 ], [ 25.580804, 62.069903 ], [ 25.5752783, 62.0700917 ], [ 25.5710745, 62.0702847 ], [ 25.53949, 62.071735 ], [ 25.5350557, 62.0722644 ], [ 25.5326706, 62.0725492 ], [ 25.531347, 62.072699 ], [ 25.5315266, 62.0736453 ], [ 25.533642, 62.083848 ], [ 25.5252779, 62.0842157 ], [ 25.507104, 62.084982 ], [ 25.4797015, 62.0861091 ], [ 25.480964, 62.087678 ], [ 25.497286, 62.109261 ], [ 25.50615, 62.121136 ], [ 25.508571, 62.121414 ], [ 25.520456, 62.127745 ], [ 25.526681, 62.139357 ], [ 25.526938, 62.1394028 ], [ 25.5270659, 62.1394255 ], [ 25.53387, 62.140637 ], [ 25.5339048, 62.140546 ], [ 25.5339714, 62.1403721 ], [ 25.5340183, 62.1402646 ], [ 25.5341895, 62.1401677 ], [ 25.5342281, 62.1400527 ], [ 25.5342646, 62.139924 ], [ 25.5344416, 62.1398108 ], [ 25.5347445, 62.1397338 ], [ 25.5349729, 62.1396556 ], [ 25.5353195, 62.1396209 ], [ 25.5355397, 62.1395377 ], [ 25.5356558, 62.139429 ], [ 25.5356995, 62.1392552 ], [ 25.5356553, 62.139106 ], [ 25.5354227, 62.1390334 ], [ 25.5351588, 62.1390328 ], [ 25.5351258, 62.1389906 ], [ 25.5352366, 62.1389027 ], [ 25.5354807, 62.1388939 ], [ 25.5357706, 62.138789 ], [ 25.5359329, 62.1387013 ], [ 25.5361716, 62.1386886 ], [ 25.5363199, 62.1387301 ], [ 25.5362985, 62.1387896 ], [ 25.536523, 62.1388132 ], [ 25.5367437, 62.1389268 ], [ 25.5367427, 62.1390826 ], [ 25.5368373, 62.1391518 ], [ 25.5368223, 62.1392968 ], [ 25.5368322, 62.1394545 ], [ 25.5368371, 62.1399308 ], [ 25.5368288, 62.1401144 ], [ 25.5369653, 62.1402108 ], [ 25.5372702, 62.1403725 ], [ 25.5373944, 62.1405406 ], [ 25.5373056, 62.140658 ], [ 25.5371793, 62.1407595 ], [ 25.5369572, 62.1408225 ], [ 25.536721, 62.140792 ], [ 25.541823, 62.15996 ], [ 25.526231, 62.157686 ], [ 25.509579, 62.15828 ], [ 25.501461, 62.166012 ], [ 25.501117, 62.17645 ], [ 25.493005, 62.17734 ], [ 25.479358, 62.184428 ], [ 25.479379, 62.186681 ], [ 25.4793255, 62.1869532 ], [ 25.4792501, 62.1871223 ], [ 25.4791412, 62.1872758 ], [ 25.4789909, 62.1874735 ], [ 25.4788085, 62.1876512 ], [ 25.4785618, 62.187884 ], [ 25.4783311, 62.1880867 ], [ 25.478184, 62.1882596 ], [ 25.4780523, 62.1883289 ], [ 25.4778953, 62.1883741 ], [ 25.477788, 62.1884632 ], [ 25.4778, 62.1885823 ], [ 25.4778052, 62.1886833 ], [ 25.4778425, 62.1888251 ], [ 25.4779049, 62.1889659 ], [ 25.4780336, 62.1891428 ], [ 25.4782251, 62.1893333 ], [ 25.4784076, 62.1895066 ], [ 25.4786552, 62.1896906 ], [ 25.479004, 62.189927 ], [ 25.479046, 62.189917 ], [ 25.479147, 62.1898932 ], [ 25.481902, 62.189241 ], [ 25.480174, 62.193047 ], [ 25.479888, 62.192998 ], [ 25.479498, 62.193102 ], [ 25.479227, 62.193144 ], [ 25.4790467, 62.1932067 ], [ 25.4788989, 62.1932581 ], [ 25.478832, 62.193355 ], [ 25.4785256, 62.1933333 ], [ 25.4785071, 62.1933547 ], [ 25.4784164, 62.1934591 ], [ 25.4783041, 62.1935475 ], [ 25.4781972, 62.1936367 ], [ 25.4781345, 62.1937472 ], [ 25.4782195, 62.1938686 ], [ 25.478297, 62.1940337 ], [ 25.4783308, 62.1941555 ], [ 25.4783053, 62.1942235 ], [ 25.4782748, 62.1943049 ], [ 25.4783145, 62.194401 ], [ 25.4783566, 62.1944404 ], [ 25.4783445, 62.1945202 ], [ 25.4782809, 62.1945669 ], [ 25.4781433, 62.1947255 ], [ 25.478083, 62.1948301 ], [ 25.4779451, 62.1950044 ], [ 25.4777364, 62.1951502 ], [ 25.4775887, 62.1953298 ], [ 25.4771952, 62.1956158 ], [ 25.4769216, 62.1958074 ], [ 25.4764291, 62.1961472 ], [ 25.4760021, 62.1963484 ], [ 25.4759806, 62.1963602 ], [ 25.4759404, 62.1963822 ], [ 25.4758044, 62.1964351 ], [ 25.4757554, 62.1964551 ], [ 25.4753815, 62.1965692 ], [ 25.4752216, 62.1966625 ], [ 25.4750749, 62.1967839 ], [ 25.474985, 62.1968997 ], [ 25.4749469, 62.1970167 ], [ 25.4749067, 62.1971693 ], [ 25.4749738, 62.1973043 ], [ 25.4751154, 62.1974054 ], [ 25.475298, 62.1975155 ], [ 25.47547, 62.197641 ], [ 25.4755467, 62.1977733 ], [ 25.4755574, 62.1978872 ], [ 25.4754676, 62.1979104 ], [ 25.476128, 62.198973 ], [ 25.473627, 62.200157 ], [ 25.473575, 62.201952 ], [ 25.470566, 62.203284 ], [ 25.473032, 62.20508 ], [ 25.471763, 62.205461 ], [ 25.473955, 62.208896 ], [ 25.477678, 62.210176 ], [ 25.488687, 62.223055 ], [ 25.488447, 62.223618 ], [ 25.489135, 62.224864 ], [ 25.4893008, 62.2250247 ], [ 25.489557, 62.225273 ], [ 25.489568, 62.225434 ], [ 25.4883808, 62.2255712 ], [ 25.4876301, 62.225658 ], [ 25.48744, 62.22568 ], [ 25.4887032, 62.2266816 ], [ 25.489177, 62.2270922 ], [ 25.4893643, 62.2272795 ], [ 25.4894864, 62.227464 ], [ 25.4896006, 62.2276492 ], [ 25.4897138, 62.2280472 ], [ 25.4897993, 62.2282463 ], [ 25.4899474, 62.2285651 ], [ 25.4902038, 62.2289335 ], [ 25.4906175, 62.2295239 ], [ 25.4909313, 62.2297592 ], [ 25.4911826, 62.2299363 ], [ 25.4914328, 62.2301161 ], [ 25.4919736, 62.2307195 ], [ 25.4920245, 62.230779 ], [ 25.4926111, 62.2314656 ], [ 25.4934609, 62.2325555 ], [ 25.493884, 62.233032 ], [ 25.4941655, 62.232974 ], [ 25.4944077, 62.2328764 ], [ 25.4944796, 62.232775 ], [ 25.4944753, 62.2326231 ], [ 25.4945525, 62.2325139 ], [ 25.4946941, 62.2324722 ], [ 25.4948851, 62.2324455 ], [ 25.4951254, 62.2323727 ], [ 25.4953116, 62.2322761 ], [ 25.4954055, 62.2321654 ], [ 25.4955833, 62.2320178 ], [ 25.4957842, 62.2319137 ], [ 25.4961635, 62.2317935 ], [ 25.4968099, 62.2316926 ], [ 25.4971392, 62.2316105 ], [ 25.4973372, 62.2314705 ], [ 25.4977301, 62.2312217 ], [ 25.4977816, 62.2311382 ], [ 25.4977717, 62.2310409 ], [ 25.4977363, 62.2308837 ], [ 25.4978219, 62.230734 ], [ 25.4980423, 62.2306019 ], [ 25.4982837, 62.2305444 ], [ 25.4985447, 62.2305283 ], [ 25.4988175, 62.2305161 ], [ 25.4990846, 62.2304536 ], [ 25.499251, 62.230352 ], [ 25.499585, 62.230598 ], [ 25.503517, 62.231242 ], [ 25.505365, 62.231217 ], [ 25.5170828, 62.2310356 ], [ 25.5291495, 62.2307817 ], [ 25.5351797, 62.2325439 ], [ 25.5399299, 62.2339197 ], [ 25.5476643, 62.2361893 ], [ 25.5692888, 62.2424047 ], [ 25.570777, 62.242832 ], [ 25.5734857, 62.239688 ], [ 25.573962, 62.2390647 ], [ 25.5768537, 62.2352804 ], [ 25.5789276, 62.2326468 ], [ 25.579636, 62.231674 ], [ 25.586024, 62.223452 ], [ 25.5860163, 62.2233203 ], [ 25.5859826, 62.2227453 ], [ 25.5859612, 62.2223798 ], [ 25.5859363, 62.2219555 ], [ 25.5859169, 62.2216248 ], [ 25.5858896, 62.2211595 ], [ 25.5858729, 62.2208745 ], [ 25.5858501, 62.2204855 ], [ 25.5858454, 62.2204049 ], [ 25.5858234, 62.2200299 ], [ 25.5858011, 62.2196494 ], [ 25.5857789, 62.21927 ], [ 25.5857665, 62.2190593 ], [ 25.5857559, 62.2188778 ], [ 25.585725, 62.21835 ], [ 25.5854659, 62.212036 ], [ 25.584998, 62.200189 ], [ 25.5895472, 62.1900934 ], [ 25.590398, 62.188241 ], [ 25.5997388, 62.1863335 ], [ 25.600407, 62.186197 ], [ 25.610398, 62.1887763 ], [ 25.612237, 62.189251 ], [ 25.657434, 62.200856 ], [ 25.666044, 62.203067 ], [ 25.666481, 62.201877 ], [ 25.6669041, 62.2005886 ], [ 25.6678481, 62.1977141 ], [ 25.6678596, 62.1976792 ], [ 25.6678641, 62.1976653 ], [ 25.669787, 62.191809 ], [ 25.6752842, 62.1879828 ], [ 25.6834338, 62.1821961 ], [ 25.6836342, 62.1820544 ], [ 25.6840107, 62.1818166 ], [ 25.688944, 62.1783999 ], [ 25.692751, 62.175777 ], [ 25.6994704, 62.1747366 ], [ 25.7047583, 62.173935 ], [ 25.7059695, 62.1737514 ], [ 25.7094934, 62.1732172 ], [ 25.7107925, 62.1730202 ], [ 25.7129773, 62.1726741 ], [ 25.7209743, 62.1714074 ], [ 25.7354413, 62.169169 ], [ 25.736981, 62.1689389 ], [ 25.7389788, 62.1710247 ], [ 25.7417339, 62.1739512 ], [ 25.7423336, 62.174742 ], [ 25.7445604, 62.1777152 ], [ 25.7475277, 62.1816303 ], [ 25.7476383, 62.1816176 ], [ 25.7560088, 62.1806899 ], [ 25.7615828, 62.1800617 ], [ 25.7621493, 62.1798424 ], [ 25.7675758, 62.175185 ], [ 25.7939843, 62.1523976 ], [ 25.7732239, 62.152117 ], [ 25.7634589, 62.151985 ], [ 25.7502307, 62.1442817 ], [ 25.7482282, 62.1448632 ], [ 25.7472837, 62.1451335 ], [ 25.7455088, 62.1456391 ], [ 25.7446865, 62.1458726 ], [ 25.7419992, 62.1466072 ], [ 25.7401341, 62.1471168 ], [ 25.737391, 62.1478098 ], [ 25.734437, 62.1485551 ], [ 25.7314851, 62.1493006 ], [ 25.7285422, 62.1500553 ], [ 25.7238418, 62.1511748 ], [ 25.7198951, 62.1520462 ], [ 25.713489, 62.1473363 ], [ 25.7124587, 62.1465776 ], [ 25.709984, 62.1472784 ], [ 25.7075396, 62.1454895 ], [ 25.7052467, 62.1438136 ], [ 25.7066408, 62.142845 ], [ 25.7046974, 62.14195 ], [ 25.7108551, 62.1399127 ], [ 25.7104647, 62.1397066 ], [ 25.7113668, 62.139453 ], [ 25.7111597, 62.1393672 ], [ 25.7103352, 62.1396394 ], [ 25.7101286, 62.1395276 ], [ 25.7108686, 62.1392329 ], [ 25.7292696, 62.1331721 ], [ 25.7307256, 62.1228311 ], [ 25.7328614, 62.1076557 ], [ 25.7551476, 62.1039026 ], [ 25.7571461, 62.1035657 ], [ 25.7622305, 62.1027225 ], [ 25.7618959, 62.1004863 ], [ 25.7616255, 62.0988306 ], [ 25.7695945, 62.0977095 ], [ 25.7723621, 62.0973361 ], [ 25.775392, 62.0969635 ], [ 25.7952048, 62.0944411 ], [ 25.7953482, 62.113457 ], [ 25.8039228, 62.1282027 ], [ 25.820096, 62.1274771 ], [ 25.8222723, 62.1280371 ], [ 25.828616, 62.1295537 ], [ 25.8321974, 62.1312623 ], [ 25.8334956, 62.1313877 ], [ 25.8335023, 62.1313664 ], [ 25.8335003, 62.1313413 ], [ 25.833501, 62.1313 ], [ 25.8335144, 62.1312636 ], [ 25.8335406, 62.1312388 ], [ 25.8335915, 62.1311993 ], [ 25.833621, 62.1311868 ], [ 25.8336827, 62.1311724 ], [ 25.8337471, 62.1311664 ], [ 25.8338108, 62.1311671 ], [ 25.8339027, 62.1311777 ], [ 25.8339945, 62.1311962 ], [ 25.8340488, 62.1312122 ], [ 25.8341032, 62.1312354 ], [ 25.8341957, 62.1312821 ], [ 25.8342648, 62.1313297 ], [ 25.8343144, 62.1313677 ], [ 25.8343305, 62.1313937 ], [ 25.8343338, 62.1314175 ], [ 25.8343298, 62.1314344 ], [ 25.8342936, 62.1314852 ], [ 25.8342808, 62.1315062 ], [ 25.8342668, 62.13153 ], [ 25.8342507, 62.131556 ], [ 25.8342507, 62.1315749 ], [ 25.8342621, 62.1315902 ], [ 25.8342869, 62.1316021 ], [ 25.8343452, 62.1316212 ], [ 25.8344002, 62.1316388 ], [ 25.8344592, 62.131657 ], [ 25.8345323, 62.1316692 ], [ 25.8346168, 62.131678 ], [ 25.8346738, 62.1316846 ], [ 25.834761, 62.1316996 ], [ 25.8348589, 62.1317068 ], [ 25.8349179, 62.1317059 ], [ 25.8349655, 62.1316993 ], [ 25.8350325, 62.1316858 ], [ 25.835058, 62.131682 ], [ 25.8351023, 62.1316839 ], [ 25.8351713, 62.1316927 ], [ 25.835278, 62.1317143 ], [ 25.835349, 62.1317231 ], [ 25.8354054, 62.1317244 ], [ 25.8354724, 62.131719 ], [ 25.8356313, 62.1316921 ], [ 25.8357373, 62.1316764 ], [ 25.8358157, 62.1316573 ], [ 25.8359499, 62.1316263 ], [ 25.836027, 62.1316128 ], [ 25.8360712, 62.1316078 ], [ 25.8361396, 62.1316074 ], [ 25.8362335, 62.1316131 ], [ 25.8364018, 62.1316259 ], [ 25.8364756, 62.131625 ], [ 25.8365379, 62.1316197 ], [ 25.8366097, 62.1315987 ], [ 25.8366539, 62.1315805 ], [ 25.8367237, 62.1315404 ], [ 25.8369121, 62.1314153 ], [ 25.8369966, 62.1313683 ], [ 25.8370663, 62.1313438 ], [ 25.8371609, 62.1313238 ], [ 25.8372568, 62.1313097 ], [ 25.8373238, 62.1313056 ], [ 25.8373902, 62.1313075 ], [ 25.837468, 62.131315 ], [ 25.8375505, 62.1313291 ], [ 25.8376155, 62.1313338 ], [ 25.837765, 62.1313332 ], [ 25.8380708, 62.1313388 ], [ 25.8385234, 62.1313451 ], [ 25.8389278, 62.131342 ], [ 25.8439576, 62.1327772 ], [ 25.8440615, 62.1328004 ], [ 25.8440957, 62.1328183 ], [ 25.8441447, 62.1328741 ], [ 25.8442044, 62.132912 ], [ 25.8442701, 62.1329399 ], [ 25.8443706, 62.132974 ], [ 25.8444779, 62.1330004 ], [ 25.8446268, 62.1330279 ], [ 25.8448776, 62.1330612 ], [ 25.8449668, 62.1330678 ], [ 25.8450754, 62.1330681 ], [ 25.8452759, 62.1330668 ], [ 25.8453497, 62.1330728 ], [ 25.8454341, 62.1330859 ], [ 25.8454932, 62.1331047 ], [ 25.8455622, 62.1331314 ], [ 25.8456132, 62.1331458 ], [ 25.8457272, 62.1331721 ], [ 25.8458371, 62.1332003 ], [ 25.8459029, 62.1332254 ], [ 25.8459578, 62.1332514 ], [ 25.845986, 62.1332715 ], [ 25.8460142, 62.1333016 ], [ 25.8460484, 62.1333577 ], [ 25.8461007, 62.1334696 ], [ 25.8461087, 62.1335091 ], [ 25.8461127, 62.1335742 ], [ 25.8461349, 62.133625 ], [ 25.8461764, 62.1336642 ], [ 25.8462442, 62.1337062 ], [ 25.8463085, 62.1337294 ], [ 25.8463991, 62.1337482 ], [ 25.8465184, 62.133767 ], [ 25.8522014, 62.134995 ], [ 25.8582669, 62.1339926 ], [ 25.8620987, 62.1333774 ], [ 25.8622033, 62.1335219 ], [ 25.8621537, 62.133542 ], [ 25.8620886, 62.1335583 ], [ 25.8620337, 62.1335614 ], [ 25.8619257, 62.1335837 ], [ 25.8617634, 62.1335946 ], [ 25.8616421, 62.1336282 ], [ 25.8616997, 62.1336404 ], [ 25.8617675, 62.1336448 ], [ 25.8618707, 62.1336633 ], [ 25.8620464, 62.1337212 ], [ 25.8622275, 62.1337968 ], [ 25.8624682, 62.1339403 ], [ 25.8627947, 62.1341039 ], [ 25.8628858, 62.1341664 ], [ 25.8630371, 62.1343037 ], [ 25.8630632, 62.1343146 ], [ 25.8635136, 62.1341216 ], [ 25.8635225, 62.1335377 ], [ 25.8629104, 62.1327669 ], [ 25.8653469, 62.1306795 ], [ 25.8670834, 62.1291832 ], [ 25.8672895, 62.1290154 ], [ 25.8673311, 62.1289815 ], [ 25.8711905, 62.1256322 ], [ 25.8724288, 62.1245432 ], [ 25.8726571, 62.1243449 ], [ 25.8728861, 62.1241662 ], [ 25.8724262, 62.1240291 ], [ 25.8715689, 62.1238649 ], [ 25.8704793, 62.1238211 ], [ 25.8689417, 62.1238879 ], [ 25.8686427, 62.1232545 ], [ 25.8701621, 62.123077 ], [ 25.8707604, 62.1222322 ], [ 25.8723431, 62.1223343 ], [ 25.8724842, 62.1234976 ], [ 25.8732941, 62.1238038 ], [ 25.8749643, 62.122398 ], [ 25.8767124, 62.1208919 ], [ 25.8778627, 62.1213335 ], [ 25.8787582, 62.1206252 ], [ 25.8771348, 62.1205275 ], [ 25.8778708, 62.1198899 ], [ 25.8757485, 62.119597 ], [ 25.8767228, 62.1193863 ], [ 25.8786151, 62.1192464 ], [ 25.8826869, 62.1157473 ], [ 25.8843533, 62.1143382 ], [ 25.8851467, 62.1136561 ], [ 25.8855584, 62.113297 ], [ 25.8875121, 62.1116099 ], [ 25.8877687, 62.111417 ], [ 25.8890171, 62.1103478 ], [ 25.8916329, 62.1080618 ], [ 25.900579, 62.1005455 ], [ 25.9011202, 62.1000623 ], [ 25.9019047, 62.0993657 ], [ 25.9023473, 62.0989691 ], [ 25.9047331, 62.0968419 ], [ 25.9080244, 62.0940177 ], [ 25.9081516, 62.0939086 ], [ 25.9087638, 62.093382 ], [ 25.9114007, 62.0911196 ], [ 25.9127619, 62.0899519 ], [ 25.916506, 62.0887475 ], [ 25.9178826, 62.0883055 ], [ 25.9222953, 62.0868878 ], [ 25.9285095, 62.0848987 ], [ 25.929746, 62.0844906 ], [ 25.9304045, 62.0842909 ], [ 25.933996, 62.0831265 ], [ 25.9389561, 62.0815293 ], [ 25.9466815, 62.0790587 ], [ 25.9491384, 62.078275 ], [ 25.9498866, 62.0779917 ], [ 25.9510837, 62.0776265 ], [ 25.9513968, 62.0775311 ], [ 25.9577758, 62.0756022 ], [ 25.9608991, 62.0746556 ], [ 25.9596413, 62.0775883 ], [ 25.9589796, 62.0791312 ], [ 25.9581359, 62.0812001 ], [ 25.9575829, 62.0824274 ], [ 25.9567311, 62.0844463 ], [ 25.956611, 62.084701 ], [ 25.9557095, 62.0867148 ], [ 25.9552337, 62.0878774 ], [ 25.9551982, 62.0879292 ], [ 25.9541964, 62.0900413 ], [ 25.9518434, 62.0954969 ], [ 25.9507471, 62.0979929 ], [ 25.9489379, 62.1022326 ], [ 25.9481688, 62.1040777 ], [ 25.9473762, 62.1059142 ], [ 25.9453437, 62.1154802 ], [ 25.9434699, 62.1243334 ], [ 25.943024, 62.1264425 ], [ 25.9429267, 62.126895 ], [ 25.9426442, 62.1282044 ], [ 25.9426384, 62.1283249 ], [ 25.9408244, 62.1369879 ], [ 25.9777936, 62.1696721 ], [ 26.0381425, 62.1705687 ], [ 26.0383779, 62.1705722 ], [ 26.0490519, 62.1707308 ], [ 26.0489992, 62.17173 ], [ 26.0485798, 62.1796849 ], [ 26.0377368, 62.1796697 ], [ 26.0348528, 62.1840076 ], [ 26.0266818, 62.1841037 ], [ 26.0213381, 62.1807613 ], [ 26.0164998, 62.1828433 ], [ 26.0165777, 62.1837771 ], [ 26.0163182, 62.1845091 ], [ 26.0154416, 62.1849989 ], [ 26.0145362, 62.1851011 ], [ 26.0122812, 62.1849827 ], [ 26.0111561, 62.1859199 ], [ 26.0048121, 62.1922571 ], [ 26.0115069, 62.1947395 ], [ 26.0145625, 62.2002641 ], [ 26.0132922, 62.2023216 ], [ 26.0175408, 62.2033823 ], [ 26.0353678, 62.1858499 ], [ 26.0502279, 62.1806728 ], [ 26.0465378, 62.1837036 ], [ 26.0423535, 62.191813 ], [ 26.0403402, 62.1914607 ], [ 26.0193975, 62.223629 ], [ 26.0233114, 62.2265608 ], [ 26.0281179, 62.2320796 ], [ 26.0349737, 62.2331695 ], [ 26.0390957, 62.2302614 ], [ 26.0379306, 62.226802 ], [ 26.038063, 62.2264697 ], [ 26.0382964, 62.2258839 ], [ 26.0393167, 62.2233233 ], [ 26.0427434, 62.223557 ], [ 26.0421663, 62.2243332 ], [ 26.045179, 62.2352337 ], [ 26.0456982, 62.2358165 ], [ 26.0501228, 62.2365512 ], [ 26.051348, 62.237074 ], [ 26.050699, 62.2397213 ], [ 26.0503356, 62.2412037 ], [ 26.0490689, 62.2463697 ], [ 26.0454587, 62.2610888 ], [ 26.0452106, 62.2610885 ], [ 26.0445311, 62.264352 ], [ 26.047917, 62.2645179 ], [ 26.0510008, 62.2676018 ], [ 25.9964327, 62.2795698 ], [ 25.9620505, 62.2986245 ], [ 25.9511396, 62.2868303 ], [ 25.9368723, 62.271401 ], [ 25.9259347, 62.2712324 ], [ 25.9217474, 62.2798049 ], [ 25.9010949, 62.2807367 ], [ 25.8937003, 62.280967 ], [ 25.8938975, 62.2821717 ], [ 25.8940432, 62.282964 ], [ 25.8941968, 62.2838237 ], [ 25.8937582, 62.2834954 ], [ 25.8933601, 62.2831988 ], [ 25.8927831, 62.2827777 ], [ 25.8897722, 62.2806181 ], [ 25.8842957, 62.2766897 ], [ 25.878648, 62.2726379 ], [ 25.8792546, 62.2775386 ], [ 25.8811286, 62.2925381 ], [ 25.8682175, 62.291634 ], [ 25.8650168, 62.2877036 ], [ 25.8629101, 62.2851163 ], [ 25.8567665, 62.2882053 ], [ 25.8557953, 62.291973 ], [ 25.8552494, 62.2919204 ], [ 25.8552677, 62.2916063 ], [ 25.8554685, 62.2913558 ], [ 25.8554046, 62.2912157 ], [ 25.8554594, 62.2906893 ], [ 25.8553407, 62.2903115 ], [ 25.8553225, 62.2898445 ], [ 25.8548314, 62.2898335 ], [ 25.8552432, 62.2876937 ], [ 25.8546236, 62.2869777 ], [ 25.8544867, 62.28688 ], [ 25.8544684, 62.2867569 ], [ 25.8542036, 62.2867272 ], [ 25.8540941, 62.2865658 ], [ 25.8540849, 62.2864554 ], [ 25.8539462, 62.286295 ], [ 25.8536558, 62.2863153 ], [ 25.8533636, 62.2862092 ], [ 25.8530076, 62.286137 ], [ 25.8524647, 62.2861252 ], [ 25.8499796, 62.2874753 ], [ 25.8556664, 62.2958926 ], [ 25.8311772, 62.302001 ], [ 25.8256032, 62.3033722 ], [ 25.8254927, 62.3034054 ], [ 25.8252572, 62.3034644 ], [ 25.8167178, 62.3056028 ], [ 25.8167448, 62.3056657 ], [ 25.8168118, 62.3058218 ], [ 25.8172977, 62.3069538 ], [ 25.8178064, 62.3081393 ], [ 25.8183413, 62.3093855 ], [ 25.8184286, 62.3095888 ], [ 25.8196396, 62.31241 ], [ 25.8227754, 62.3197328 ], [ 25.8230068, 62.3202527 ], [ 25.8233854, 62.3211344 ], [ 25.8238632, 62.3222528 ], [ 25.824388, 62.323481 ], [ 25.8248835, 62.3246447 ], [ 25.8254075, 62.3258752 ], [ 25.8256435, 62.3263927 ], [ 25.8256745, 62.3264649 ], [ 25.826504, 62.3283684 ], [ 25.8282639, 62.3324858 ], [ 25.828934, 62.3340534 ], [ 25.8318321, 62.3366242 ], [ 25.8334988, 62.3381025 ], [ 25.8341908, 62.3386676 ], [ 25.8342768, 62.338743 ], [ 25.837776, 62.3416238 ], [ 25.8382953, 62.3420513 ], [ 25.8396159, 62.3434291 ], [ 25.8402532, 62.344094 ], [ 25.8430065, 62.3465438 ], [ 25.84332, 62.3468227 ], [ 25.8460216, 62.34926 ], [ 25.8462291, 62.3494471 ], [ 25.8462486, 62.3494647 ], [ 25.846054, 62.3504053 ], [ 25.8459034, 62.3511326 ], [ 25.8456861, 62.352183 ], [ 25.8456831, 62.35234 ], [ 25.8455479, 62.3529681 ], [ 25.8454842, 62.3532639 ], [ 25.8449131, 62.3559176 ], [ 25.8448887, 62.3560355 ], [ 25.8448101, 62.3564151 ], [ 25.8423122, 62.3684808 ], [ 25.8360145, 62.3718843 ], [ 25.8342528, 62.3728363 ], [ 25.8185328, 62.3813299 ], [ 25.7862049, 62.3899456 ], [ 25.7766718, 62.3876064 ], [ 25.776585, 62.3875851 ], [ 25.7760149, 62.3874452 ], [ 25.7708033, 62.3861663 ], [ 25.7706727, 62.3861343 ], [ 25.7696331, 62.3858792 ], [ 25.7686319, 62.3856335 ], [ 25.76751, 62.3853581 ], [ 25.7595627, 62.3834078 ], [ 25.7440871, 62.3796096 ], [ 25.7382047, 62.3817793 ], [ 25.7315697, 62.3842257 ], [ 25.7319584, 62.3844136 ], [ 25.7323673, 62.3844511 ], [ 25.7325972, 62.384521 ], [ 25.7331364, 62.3846753 ], [ 25.7334143, 62.3846544 ], [ 25.7335342, 62.3846913 ], [ 25.7295557, 62.3863255 ], [ 25.7281679, 62.385529 ], [ 25.7049516, 62.394144 ], [ 25.7044534, 62.3943322 ], [ 25.7040468, 62.3944867 ], [ 25.6972153, 62.3969744 ], [ 25.6958629, 62.3974737 ], [ 25.6955636, 62.4010879 ], [ 25.6878356, 62.4039483 ], [ 25.6873875, 62.4037134 ], [ 25.6869665, 62.4031393 ], [ 25.6866854, 62.4028976 ], [ 25.6863604, 62.4052961 ], [ 25.6863157, 62.4054118 ], [ 25.6856176, 62.4059719 ], [ 25.6853422, 62.4062438 ], [ 25.6832979, 62.4070702 ], [ 25.6826289, 62.4073406 ], [ 25.6758761, 62.4100537 ], [ 25.6755103, 62.4102013 ], [ 25.6715236, 62.410669 ], [ 25.6687211, 62.4102137 ], [ 25.66809, 62.4105314 ], [ 25.6672557, 62.4104909 ], [ 25.6673447, 62.4113155 ], [ 25.6583118, 62.4123367 ], [ 25.6583332, 62.4124384 ], [ 25.6556934, 62.4141795 ], [ 25.6490298, 62.4185742 ], [ 25.6487334, 62.4191947 ], [ 25.6479625, 62.4192715 ], [ 25.6463331, 62.4203821 ], [ 25.6300347, 62.4217811 ], [ 25.6230261, 62.4243883 ], [ 25.6170291, 62.426619 ], [ 25.5975718, 62.4277156 ], [ 25.5925298, 62.4279997 ], [ 25.5908545, 62.4280715 ], [ 25.5880318, 62.4282629 ], [ 25.579132, 62.428747 ], [ 25.5643871, 62.4158275 ], [ 25.5643481, 62.4157933 ], [ 25.5638071, 62.4153191 ], [ 25.5634454, 62.4150022 ], [ 25.5623305, 62.414025 ], [ 25.5622687, 62.4139709 ], [ 25.5614927, 62.4132908 ], [ 25.5609164, 62.4127856 ], [ 25.5607798, 62.4126659 ], [ 25.5561991, 62.4086507 ], [ 25.5497742, 62.4030181 ], [ 25.5482535, 62.4032495 ], [ 25.5450855, 62.4014054 ], [ 25.5280349, 62.3914782 ], [ 25.5059015, 62.3785868 ], [ 25.5050741, 62.3781048 ], [ 25.4957362, 62.3835911 ], [ 25.4990062, 62.3847581 ], [ 25.4987494, 62.3851132 ], [ 25.4987662, 62.3854902 ], [ 25.4983888, 62.3860849 ], [ 25.4982798, 62.3863376 ], [ 25.4983637, 62.3869051 ], [ 25.4982039, 62.3871925 ], [ 25.4939529, 62.3868583 ], [ 25.493715, 62.3874826 ], [ 25.4936132, 62.3877498 ], [ 25.4935937, 62.3878008 ], [ 25.4898572, 62.3976048 ], [ 25.4482032, 62.3941703 ], [ 25.4395923, 62.3924244 ], [ 25.4394925, 62.3924042 ], [ 25.4078279, 62.3900776 ], [ 25.4051159, 62.3984101 ], [ 25.3866649, 62.3968009 ], [ 25.3859244, 62.3978795 ], [ 25.3614412, 62.3956418 ], [ 25.3629174, 62.3922714 ], [ 25.3666118, 62.3838352 ], [ 25.3411024, 62.3796638 ], [ 25.3245586, 62.3770554 ], [ 25.3220427, 62.3801813 ], [ 25.3122891, 62.3922966 ], [ 25.3058792, 62.3915542 ], [ 25.2927318, 62.3900313 ], [ 25.2854162, 62.3891839 ], [ 25.2857098, 62.388774 ], [ 25.2862125, 62.3880724 ], [ 25.3024519, 62.365395 ], [ 25.3695949, 62.3774662 ], [ 25.3747399, 62.3741507 ], [ 25.37908, 62.3720703 ], [ 25.3823525, 62.3713004 ], [ 25.4008932, 62.3669382 ], [ 25.4425376, 62.357138 ], [ 25.4445089, 62.3451776 ], [ 25.4886441, 62.3462975 ], [ 25.4857213, 62.3430481 ], [ 25.4852537, 62.342457 ], [ 25.4746414, 62.3293204 ], [ 25.4635148, 62.315541 ], [ 25.4581922, 62.3094177 ], [ 25.4555712, 62.3068046 ], [ 25.4433399, 62.2951441 ], [ 25.4189988, 62.2719256 ], [ 25.4132259, 62.2664163 ], [ 25.4234076, 62.244889 ], [ 25.3847525, 62.2438221 ], [ 25.335314, 62.2329877 ], [ 25.3467105, 62.1990351 ], [ 25.3471587, 62.1976989 ], [ 25.3457854, 62.1972985 ], [ 25.3303358, 62.1821619 ], [ 25.3182337, 62.1745507 ], [ 25.2852095, 62.1523537 ], [ 25.2904623, 62.1470813 ], [ 25.313957, 62.1234875 ], [ 25.3146157, 62.1230414 ], [ 25.3371119, 62.1140087 ], [ 25.3379951, 62.1136528 ], [ 25.3415196, 62.1122327 ], [ 25.344293, 62.1111151 ], [ 25.3475994, 62.1097827 ], [ 25.3452208, 62.1083076 ], [ 25.3429463, 62.1087864 ], [ 25.3427837, 62.1077227 ], [ 25.3438277, 62.1074637 ], [ 25.3125844, 62.088257 ], [ 25.3167915, 62.0820562 ], [ 25.2825774, 62.0707342 ], [ 25.2767944, 62.0647027 ], [ 25.2607866, 62.048339 ] ] ] } }
]
}
