{
"type": "FeatureCollection",
"name": "kallithea_gr",
"crs": { "type": "name", "properties": { "name": "urn:ogc:def:crs:OGC:1.3:CRS84" } },
"features": [
{ "type": "Feature", "properties": { }, "geometry": { "type": "Polygon", "coordinates": [ [ [ 23.6811579, 37.9397055 ], [ 23.6813588, 37.939619 ], [ 23.6818729, 37.9393835 ], [ 23.6823979, 37.9391231 ], [ 23.6824129, 37.9391149 ], [ 23.6828943, 37.9388505 ], [ 23.683363, 37.9385639 ], [ 23.6838367, 37.9382493 ], [ 23.6846383, 37.9376691 ], [ 23.6843274, 37.9373507 ], [ 23.6843759, 37.937323 ], [ 23.6843612, 37.9373076 ], [ 23.6844142, 37.9372794 ], [ 23.6847298, 37.9376069 ], [ 23.6864125, 37.9364112 ], [ 23.6864477, 37.936391 ], [ 23.686484, 37.9363863 ], [ 23.6865159, 37.9363875 ], [ 23.6865516, 37.9363997 ], [ 23.6865763, 37.9364211 ], [ 23.6865909, 37.9364546 ], [ 23.6865926, 37.9364923 ], [ 23.6865718, 37.9365231 ], [ 23.684937, 37.9378493 ], [ 23.6853129, 37.938252 ], [ 23.685632, 37.9385988 ], [ 23.6859433, 37.9389345 ], [ 23.6860418, 37.9388841 ], [ 23.6860543, 37.9388976 ], [ 23.6862713, 37.939132 ], [ 23.6863137, 37.9391778 ], [ 23.6866342, 37.938991 ], [ 23.686711, 37.9390701 ], [ 23.6874234, 37.9386084 ], [ 23.6881813, 37.9380667 ], [ 23.6880165, 37.9378207 ], [ 23.687836, 37.9375512 ], [ 23.6876323, 37.9372471 ], [ 23.6874639, 37.9369958 ], [ 23.6874166, 37.9369253 ], [ 23.6866741, 37.9372367 ], [ 23.686631, 37.9371821 ], [ 23.6873334, 37.9366149 ], [ 23.6874823, 37.9364947 ], [ 23.6875752, 37.9364196 ], [ 23.6876325, 37.9365014 ], [ 23.6876746, 37.9364833 ], [ 23.6877164, 37.9364653 ], [ 23.6876593, 37.936384 ], [ 23.6876725, 37.9363796 ], [ 23.6877819, 37.9365329 ], [ 23.6877337, 37.9366623 ], [ 23.6878625, 37.9368473 ], [ 23.6879038, 37.9368312 ], [ 23.6879513, 37.9368126 ], [ 23.6879003, 37.936733 ], [ 23.6879114, 37.9367285 ], [ 23.687984, 37.9368351 ], [ 23.6880794, 37.9369754 ], [ 23.6880276, 37.9370969 ], [ 23.6881558, 37.9372871 ], [ 23.6881939, 37.9372702 ], [ 23.688239, 37.9372502 ], [ 23.6881911, 37.9371686 ], [ 23.6882025, 37.9371664 ], [ 23.6883693, 37.9374128 ], [ 23.6883215, 37.9375371 ], [ 23.6884469, 37.9377237 ], [ 23.6884908, 37.9377078 ], [ 23.6885352, 37.9376898 ], [ 23.6884858, 37.9376074 ], [ 23.6884996, 37.9376012 ], [ 23.6885851, 37.9377315 ], [ 23.6886115, 37.9377693 ], [ 23.6889084, 37.9381984 ], [ 23.6891432, 37.9380061 ], [ 23.6888474, 37.9375623 ], [ 23.6883245, 37.9367729 ], [ 23.6879017, 37.9361347 ], [ 23.6886628, 37.9354888 ], [ 23.6887726, 37.9353964 ], [ 23.6888785, 37.9353105 ], [ 23.6913973, 37.9372038 ], [ 23.69647, 37.9409875 ], [ 23.6975708, 37.9418437 ], [ 23.6994992, 37.9433494 ], [ 23.700701, 37.9442854 ], [ 23.7007241, 37.9443031 ], [ 23.7019862, 37.9452835 ], [ 23.7028025, 37.9459177 ], [ 23.703879, 37.9467481 ], [ 23.7046712, 37.9473577 ], [ 23.7073654, 37.9494383 ], [ 23.7121591, 37.9531897 ], [ 23.7128861, 37.9537488 ], [ 23.7130238, 37.9538541 ], [ 23.7135094, 37.9542256 ], [ 23.7140746, 37.954668 ], [ 23.714638, 37.9550956 ], [ 23.714865, 37.9552878 ], [ 23.7162173, 37.9563382 ], [ 23.7166489, 37.9566735 ], [ 23.7171212, 37.9570403 ], [ 23.7188741, 37.9584019 ], [ 23.7196256, 37.9589855 ], [ 23.7201281, 37.9593758 ], [ 23.7202631, 37.9594807 ], [ 23.7197004, 37.9599321 ], [ 23.7193557, 37.9602083 ], [ 23.7186547, 37.9607417 ], [ 23.7182549, 37.9610575 ], [ 23.7181409, 37.9611475 ], [ 23.7180407, 37.9612353 ], [ 23.7179593, 37.9613108 ], [ 23.7179007, 37.9613715 ], [ 23.717846, 37.9614342 ], [ 23.7177881, 37.9615073 ], [ 23.717751, 37.961556 ], [ 23.7177098, 37.9616092 ], [ 23.7176585, 37.9616832 ], [ 23.717578, 37.9618055 ], [ 23.7175328, 37.9618851 ], [ 23.7174373, 37.9620358 ], [ 23.7173713, 37.9621455 ], [ 23.7173054, 37.962252 ], [ 23.7172387, 37.9623523 ], [ 23.7171688, 37.9624497 ], [ 23.717113, 37.9625193 ], [ 23.7170457, 37.9625929 ], [ 23.71698, 37.9626606 ], [ 23.716887, 37.9627463 ], [ 23.7167713, 37.9628415 ], [ 23.7166654, 37.9629333 ], [ 23.716012, 37.963459 ], [ 23.7159289, 37.9635162 ], [ 23.7158156, 37.9635867 ], [ 23.7156773, 37.9636642 ], [ 23.7155771, 37.9637126 ], [ 23.7154561, 37.9637631 ], [ 23.715355, 37.9638004 ], [ 23.7152491, 37.9638334 ], [ 23.7151379, 37.9638642 ], [ 23.715021, 37.9638913 ], [ 23.7148951, 37.9639128 ], [ 23.7147738, 37.9639287 ], [ 23.7146495, 37.9639398 ], [ 23.7145475, 37.9639444 ], [ 23.7144237, 37.9639477 ], [ 23.7142478, 37.9639429 ], [ 23.7141219, 37.9639323 ], [ 23.713948, 37.9639082 ], [ 23.7138163, 37.9638892 ], [ 23.7136534, 37.9638637 ], [ 23.7132992, 37.9638047 ], [ 23.7124151, 37.9636616 ], [ 23.711972, 37.9635935 ], [ 23.7116597, 37.9635467 ], [ 23.7113039, 37.9635107 ], [ 23.7107367, 37.9634746 ], [ 23.7101537, 37.9634454 ], [ 23.7093821, 37.9634102 ], [ 23.7087272, 37.9633793 ], [ 23.7084859, 37.9633777 ], [ 23.7084173, 37.9633809 ], [ 23.7083505, 37.9633881 ], [ 23.7082712, 37.9634035 ], [ 23.7081886, 37.9634236 ], [ 23.7081152, 37.9634457 ], [ 23.7080691, 37.9634652 ], [ 23.7080241, 37.9634863 ], [ 23.7079776, 37.9635096 ], [ 23.7078277, 37.9635939 ], [ 23.7077622, 37.9636349 ], [ 23.7068626, 37.964185 ], [ 23.7063238, 37.9644885 ], [ 23.7062921, 37.964505 ], [ 23.7049132, 37.9633041 ], [ 23.7045986, 37.9630444 ], [ 23.704459, 37.9629397 ], [ 23.7043087, 37.9628316 ], [ 23.7041086, 37.9626949 ], [ 23.7040267, 37.962645 ], [ 23.7039438, 37.9625918 ], [ 23.7038495, 37.9625346 ], [ 23.7036727, 37.9624499 ], [ 23.703183, 37.9622366 ], [ 23.7030361, 37.9621807 ], [ 23.7028784, 37.9621288 ], [ 23.7027599, 37.9620959 ], [ 23.7024235, 37.9620067 ], [ 23.702078, 37.9619052 ], [ 23.7014492, 37.9617196 ], [ 23.7000771, 37.9612956 ], [ 23.6993924, 37.9610784 ], [ 23.6989607, 37.9609478 ], [ 23.6978461, 37.9606016 ], [ 23.697171, 37.9603765 ], [ 23.6970906, 37.960559 ], [ 23.6970559, 37.9606483 ], [ 23.6963134, 37.9620666 ], [ 23.6962904, 37.9621046 ], [ 23.6957573, 37.9619404 ], [ 23.6951286, 37.9617341 ], [ 23.6941316, 37.9613865 ], [ 23.6948122, 37.9599399 ], [ 23.6949639, 37.9596339 ], [ 23.6953669, 37.959066 ], [ 23.6958065, 37.9584157 ], [ 23.6958435, 37.9583741 ], [ 23.6959709, 37.9582318 ], [ 23.6957013, 37.9580932 ], [ 23.6953249, 37.9578876 ], [ 23.694764, 37.9575767 ], [ 23.6941812, 37.9572322 ], [ 23.6938937, 37.9570583 ], [ 23.6934467, 37.9567734 ], [ 23.6931771, 37.9565931 ], [ 23.6929343, 37.956429 ], [ 23.6921428, 37.9558914 ], [ 23.6917116, 37.9555675 ], [ 23.6913789, 37.9553144 ], [ 23.6903285, 37.9544818 ], [ 23.6899033, 37.9541246 ], [ 23.6894956, 37.9537507 ], [ 23.68903, 37.953304 ], [ 23.6884724, 37.9527518 ], [ 23.6879965, 37.9522534 ], [ 23.6877502, 37.9519798 ], [ 23.6869051, 37.9510106 ], [ 23.6862383, 37.9501359 ], [ 23.6854283, 37.9489206 ], [ 23.6848573, 37.9479995 ], [ 23.6843004, 37.9470007 ], [ 23.68269, 37.9434225 ], [ 23.682285, 37.9425455 ], [ 23.6820921, 37.9421646 ], [ 23.6821953, 37.9421293 ], [ 23.6822303, 37.9421179 ], [ 23.6823764, 37.9420684 ], [ 23.6822139, 37.9417521 ], [ 23.6819127, 37.9418497 ], [ 23.6818497, 37.9417268 ], [ 23.6821503, 37.9416294 ], [ 23.6811579, 37.9397055 ] ] ] } }
]
}
