{
"type": "FeatureCollection",
"name": "kecskemet_hu",
"crs": { "type": "name", "properties": { "name": "urn:ogc:def:crs:OGC:1.3:CRS84" } },
"features": [
{ "type": "Feature", "properties": { }, "geometry": { "type": "Polygon", "coordinates": [ [ [ 19.5068013, 46.9550725 ], [ 19.5095634, 46.9531586 ], [ 19.5151036, 46.9512271 ], [ 19.5173199, 46.9500776 ], [ 19.5222907, 46.9462515 ], [ 19.5278058, 46.9416544 ], [ 19.5311137, 46.9382192 ], [ 19.5382904, 46.9324741 ], [ 19.548766, 46.9236709 ], [ 19.5553854, 46.9186895 ], [ 19.5581492, 46.9163901 ], [ 19.5603432, 46.9140994 ], [ 19.5641878, 46.909508 ], [ 19.5651822, 46.8973184 ], [ 19.5645865, 46.8927533 ], [ 19.5628664, 46.8878089 ], [ 19.5695486, 46.8889251 ], [ 19.5700962, 46.8885383 ], [ 19.5706604, 46.88892 ], [ 19.5712118, 46.8889175 ], [ 19.6098047, 46.8639964 ], [ 19.6103388, 46.8644129 ], [ 19.6118033, 46.8655542 ], [ 19.6119412, 46.8654515 ], [ 19.6125549, 46.8650031 ], [ 19.6126349, 46.8649556 ], [ 19.6128326, 46.8648382 ], [ 19.6131117, 46.8646724 ], [ 19.6137537, 46.8642553 ], [ 19.615441, 46.8627404 ], [ 19.6163331, 46.8621143 ], [ 19.6167615, 46.8618671 ], [ 19.6173997, 46.8615063 ], [ 19.6197803, 46.8600734 ], [ 19.6201725, 46.8598293 ], [ 19.6211188, 46.8591054 ], [ 19.6224134, 46.8599064 ], [ 19.6242309, 46.8612416 ], [ 19.6242779, 46.8612072 ], [ 19.6330412, 46.8547197 ], [ 19.6357978, 46.853187 ], [ 19.6363537, 46.8527999 ], [ 19.6363495, 46.8524218 ], [ 19.6379948, 46.8508886 ], [ 19.6318345, 46.8459682 ], [ 19.6467465, 46.83942 ], [ 19.651702, 46.8359663 ], [ 19.6516977, 46.835582 ], [ 19.6461105, 46.831806 ], [ 19.6455421, 46.8310467 ], [ 19.6449828, 46.8302872 ], [ 19.6439396, 46.8266265 ], [ 19.6415158, 46.8181202 ], [ 19.6536348, 46.8104389 ], [ 19.6569222, 46.8066158 ], [ 19.6363312, 46.8006316 ], [ 19.6285288, 46.79686 ], [ 19.624857, 46.7911036 ], [ 19.6301147, 46.7899969 ], [ 19.6433556, 46.7838357 ], [ 19.6510928, 46.781892 ], [ 19.6698545, 46.7745578 ], [ 19.6825458, 46.7699196 ], [ 19.6932041, 46.7801359 ], [ 19.695992, 46.7816447 ], [ 19.6965607, 46.7831662 ], [ 19.6965745, 46.7843066 ], [ 19.697157, 46.7862122 ], [ 19.6971754, 46.7877306 ], [ 19.6949881, 46.7904083 ], [ 19.6950893, 46.7987874 ], [ 19.6940022, 46.8006964 ], [ 19.6945849, 46.8033582 ], [ 19.6918829, 46.8090882 ], [ 19.6924975, 46.8136526 ], [ 19.6898313, 46.8231879 ], [ 19.6983267, 46.8284169 ], [ 19.708837, 46.8348862 ], [ 19.7083003, 46.8360297 ], [ 19.7083473, 46.8398412 ], [ 19.7083707, 46.8417439 ], [ 19.707349, 46.8489829 ], [ 19.7246186, 46.8538337 ], [ 19.7267884, 46.8503933 ], [ 19.7361297, 46.8427197 ], [ 19.7395066, 46.8461268 ], [ 19.7406135, 46.8465043 ], [ 19.7445419, 46.8499078 ], [ 19.7440008, 46.8506673 ], [ 19.7490359, 46.8536858 ], [ 19.7479347, 46.854455 ], [ 19.7473787, 46.8540741 ], [ 19.7446212, 46.856 ], [ 19.7491107, 46.8593999 ], [ 19.7562737, 46.8551657 ], [ 19.7573949, 46.8559211 ], [ 19.7513631, 46.8616669 ], [ 19.7659601, 46.8741454 ], [ 19.7693357, 46.8771672 ], [ 19.7709831, 46.8760164 ], [ 19.7720844, 46.875247 ], [ 19.774292, 46.8740925 ], [ 19.7766878, 46.8730814 ], [ 19.7770507, 46.8729282 ], [ 19.7807687, 46.8709329 ], [ 19.7833446, 46.8694472 ], [ 19.7863502, 46.8677455 ], [ 19.7934703, 46.8639458 ], [ 19.7968851, 46.8617606 ], [ 19.7974255, 46.8609947 ], [ 19.7985572, 46.8602803 ], [ 19.8029334, 46.8575308 ], [ 19.804014, 46.8559989 ], [ 19.8045526, 46.8544706 ], [ 19.806737, 46.8517908 ], [ 19.8094885, 46.8502477 ], [ 19.8117377, 46.8521417 ], [ 19.8146144, 46.8593555 ], [ 19.8197256, 46.8673165 ], [ 19.8265178, 46.8764124 ], [ 19.8282028, 46.8779255 ], [ 19.8383162, 46.8858513 ], [ 19.8484098, 46.8922516 ], [ 19.8517741, 46.8941369 ], [ 19.8491071, 46.9013889 ], [ 19.8447949, 46.9105613 ], [ 19.8393665, 46.9189727 ], [ 19.8366685, 46.9243218 ], [ 19.836691, 46.9258463 ], [ 19.8361527, 46.9273748 ], [ 19.8345387, 46.9308135 ], [ 19.832921, 46.9346302 ], [ 19.8302105, 46.939223 ], [ 19.8291421, 46.9422736 ], [ 19.8280681, 46.9449461 ], [ 19.8020895, 46.9554035 ], [ 19.7875689, 46.9513088 ], [ 19.7797496, 46.9486941 ], [ 19.7670499, 46.9552519 ], [ 19.7598693, 46.9591025 ], [ 19.7493816, 46.9648821 ], [ 19.741661, 46.9698753 ], [ 19.7372316, 46.9718111 ], [ 19.7355804, 46.9729615 ], [ 19.7256301, 46.9779732 ], [ 19.7200946, 46.9799088 ], [ 19.7101273, 46.9837726 ], [ 19.7029295, 46.9868636 ], [ 19.699054, 46.9884105 ], [ 19.6963015, 46.990707 ], [ 19.689668, 46.9941719 ], [ 19.6841478, 46.9983926 ], [ 19.6824947, 46.9995423 ], [ 19.6808145, 46.9984112 ], [ 19.6796959, 46.9980393 ], [ 19.6785682, 46.996899 ], [ 19.6746467, 46.9946397 ], [ 19.6690454, 46.9920053 ], [ 19.6645765, 46.9901206 ], [ 19.6545124, 46.9859848 ], [ 19.6455509, 46.980702 ], [ 19.6449986, 46.9807049 ], [ 19.6116932, 46.9896142 ], [ 19.5945166, 46.995052 ], [ 19.5878438, 46.9962242 ], [ 19.5828579, 46.9985347 ], [ 19.5795283, 46.9989284 ], [ 19.5778563, 46.9993142 ], [ 19.5761934, 46.9997062 ], [ 19.5711992, 47.0012539 ], [ 19.5436679, 46.9728174 ], [ 19.5352648, 46.9667611 ], [ 19.524765, 46.9740384 ], [ 19.517484, 46.9687385 ], [ 19.5157982, 46.9664585 ], [ 19.5124313, 46.9634291 ], [ 19.5121336, 46.9631412 ], [ 19.5085061, 46.9596334 ], [ 19.5083486, 46.9594559 ], [ 19.5068242, 46.9577375 ], [ 19.5068013, 46.9550725 ] ] ] } }
]
}
