{
"type": "FeatureCollection",
"name": "koszalin_pl",
"crs": { "type": "name", "properties": { "name": "urn:ogc:def:crs:OGC:1.3:CRS84" } },
"features": [
{ "type": "Feature", "properties": { "bbox_west": 16.0805294, "bbox_south": 54.1373682, "bbox_east": 16.3233087, "bbox_north": 54.2769908, "place_id": 174504164, "osm_type": "relation", "osm_id": 2106899, "lat": 54.19092, "lon": 16.17707, "class": "boundary", "type": "administrative", "place_rank": 12, "importance": 0.59451987197830569, "addresstype": "city", "name": "Koszalin", "display_name": "Koszalin, West Pomeranian Voivodeship, Poland" }, "geometry": { "type": "Polygon", "coordinates": [ [ [ 16.0805294, 54.1959305 ], [ 16.0807204, 54.1956213 ], [ 16.0807542, 54.1955657 ], [ 16.0807235, 54.1950305 ], [ 16.0808406, 54.1950413 ], [ 16.0818101, 54.1951294 ], [ 16.0821923, 54.1951743 ], [ 16.0822148, 54.1951318 ], [ 16.0823872, 54.1950727 ], [ 16.0825265, 54.1950148 ], [ 16.0826393, 54.1949456 ], [ 16.0827363, 54.1948979 ], [ 16.0829091, 54.1948424 ], [ 16.0831469, 54.1947601 ], [ 16.0832626, 54.1946735 ], [ 16.0835073, 54.1945582 ], [ 16.0835102, 54.1945392 ], [ 16.0834311, 54.1944844 ], [ 16.0834331, 54.1944716 ], [ 16.0834939, 54.1944026 ], [ 16.0835228, 54.194353 ], [ 16.0836299, 54.1942742 ], [ 16.083788, 54.1942865 ], [ 16.0838756, 54.1942422 ], [ 16.0839349, 54.1942133 ], [ 16.084041, 54.194206 ], [ 16.0840575, 54.1941857 ], [ 16.0839936, 54.1941141 ], [ 16.0840005, 54.1940967 ], [ 16.0844729, 54.1939109 ], [ 16.0844376, 54.1938558 ], [ 16.0844477, 54.1938476 ], [ 16.0845892, 54.1939615 ], [ 16.0847187, 54.1939571 ], [ 16.0847802, 54.1939485 ], [ 16.0848494, 54.1939678 ], [ 16.0848913, 54.1939954 ], [ 16.0850206, 54.1939658 ], [ 16.0850969, 54.1939666 ], [ 16.0851394, 54.193967 ], [ 16.085147, 54.1939592 ], [ 16.0853553, 54.1937444 ], [ 16.0853366, 54.1932961 ], [ 16.0853823, 54.1928333 ], [ 16.0854018, 54.1926355 ], [ 16.0853346, 54.1918623 ], [ 16.0852822, 54.191272 ], [ 16.0852877, 54.1904321 ], [ 16.0854239, 54.1897734 ], [ 16.0855098, 54.1889228 ], [ 16.0855205, 54.1887111 ], [ 16.0868464, 54.1885424 ], [ 16.0868973, 54.1886321 ], [ 16.0884278, 54.188421 ], [ 16.0888154, 54.1883205 ], [ 16.0893391, 54.1882579 ], [ 16.0899188, 54.1882133 ], [ 16.0903884, 54.188204 ], [ 16.0908708, 54.1881714 ], [ 16.0919718, 54.1880755 ], [ 16.0922466, 54.1880788 ], [ 16.0929002, 54.1881422 ], [ 16.0929341, 54.1880407 ], [ 16.0929937, 54.1880475 ], [ 16.0929571, 54.1881573 ], [ 16.0928587, 54.1882776 ], [ 16.0929154, 54.1882906 ], [ 16.0930676, 54.1881458 ], [ 16.0933105, 54.1881169 ], [ 16.0936257, 54.188116 ], [ 16.0939262, 54.1881309 ], [ 16.0942805, 54.1881273 ], [ 16.0945415, 54.1881131 ], [ 16.0954811, 54.1881493 ], [ 16.0963956, 54.1882293 ], [ 16.0967075, 54.1882393 ], [ 16.0968488, 54.1882473 ], [ 16.0969609, 54.1882816 ], [ 16.0970494, 54.1882768 ], [ 16.0971032, 54.1885217 ], [ 16.0971318, 54.1885201 ], [ 16.0971892, 54.1885173 ], [ 16.0975604, 54.1885222 ], [ 16.0984436, 54.1885386 ], [ 16.0985071, 54.1884998 ], [ 16.0985267, 54.188333 ], [ 16.1001457, 54.1884395 ], [ 16.100698, 54.1884788 ], [ 16.1007886, 54.1884849 ], [ 16.1012542, 54.1885224 ], [ 16.1014136, 54.1885334 ], [ 16.1016014, 54.1885333 ], [ 16.1029645, 54.1886371 ], [ 16.1040641, 54.1887067 ], [ 16.1044485, 54.1887235 ], [ 16.1046064, 54.1887566 ], [ 16.1048213, 54.1887714 ], [ 16.1050946, 54.1887715 ], [ 16.1051628, 54.1887818 ], [ 16.1057926, 54.1888277 ], [ 16.1074796, 54.188998 ], [ 16.1076874, 54.189028 ], [ 16.1079617, 54.1890466 ], [ 16.1094197, 54.1893717 ], [ 16.1095041, 54.1891637 ], [ 16.109966, 54.1892426 ], [ 16.1100104, 54.1891741 ], [ 16.1102211, 54.1892189 ], [ 16.1106951, 54.1892939 ], [ 16.1107364, 54.1893167 ], [ 16.1106417, 54.1896443 ], [ 16.1106504, 54.1896462 ], [ 16.1105817, 54.1897774 ], [ 16.1107266, 54.1898028 ], [ 16.1110031, 54.1892914 ], [ 16.1110692, 54.1892892 ], [ 16.1112082, 54.1893088 ], [ 16.111332, 54.1893262 ], [ 16.111566, 54.189341 ], [ 16.1126688, 54.1895023 ], [ 16.1131018, 54.1895847 ], [ 16.1134392, 54.1896609 ], [ 16.1140996, 54.1898428 ], [ 16.1147024, 54.1900523 ], [ 16.1152613, 54.1902884 ], [ 16.1156569, 54.1905007 ], [ 16.1157924, 54.1905855 ], [ 16.116807, 54.1911503 ], [ 16.1174659, 54.1915451 ], [ 16.1177113, 54.1916329 ], [ 16.1180157, 54.1917428 ], [ 16.1182622, 54.1917869 ], [ 16.1187161, 54.1918908 ], [ 16.1205815, 54.1923706 ], [ 16.1212612, 54.1925472 ], [ 16.1213217, 54.1925633 ], [ 16.1214023, 54.192587 ], [ 16.121613, 54.1926607 ], [ 16.1216226, 54.1927021 ], [ 16.1216452, 54.1927001 ], [ 16.1217123, 54.1925803 ], [ 16.122175, 54.1926804 ], [ 16.1230833, 54.1928449 ], [ 16.1234877, 54.1928852 ], [ 16.123773, 54.1929342 ], [ 16.1241693, 54.1930232 ], [ 16.124636, 54.1931506 ], [ 16.1251463, 54.1933134 ], [ 16.1256867, 54.1935378 ], [ 16.1260923, 54.1937687 ], [ 16.1263044, 54.1938971 ], [ 16.1265538, 54.1939592 ], [ 16.126816, 54.1933564 ], [ 16.1269001, 54.1932075 ], [ 16.126547, 54.1930262 ], [ 16.1259637, 54.192666 ], [ 16.1254787, 54.1922598 ], [ 16.1251784, 54.1919793 ], [ 16.1248366, 54.1915653 ], [ 16.1247478, 54.1914246 ], [ 16.124997, 54.1913706 ], [ 16.1248799, 54.1911251 ], [ 16.1247347, 54.1910772 ], [ 16.1246648, 54.1909343 ], [ 16.1245329, 54.1906988 ], [ 16.124452, 54.1903972 ], [ 16.1244137, 54.1898716 ], [ 16.12439, 54.1896591 ], [ 16.1244103, 54.1896193 ], [ 16.1243918, 54.1893977 ], [ 16.1243679, 54.1893638 ], [ 16.1243592, 54.1892491 ], [ 16.124346, 54.1890386 ], [ 16.1242835, 54.1883614 ], [ 16.1243972, 54.1881534 ], [ 16.1244309, 54.1879722 ], [ 16.1244721, 54.1877514 ], [ 16.1245352, 54.1874872 ], [ 16.124527, 54.1874329 ], [ 16.1245854, 54.1872514 ], [ 16.124683, 54.1871401 ], [ 16.1247762, 54.1869086 ], [ 16.1250567, 54.1864644 ], [ 16.1250281, 54.1864582 ], [ 16.1251726, 54.1860984 ], [ 16.1252054, 54.1860629 ], [ 16.1252546, 54.1858492 ], [ 16.1252395, 54.185812 ], [ 16.1253085, 54.1855036 ], [ 16.1256145, 54.1849473 ], [ 16.1259184, 54.18445 ], [ 16.1266692, 54.183653 ], [ 16.1268442, 54.1834023 ], [ 16.1269428, 54.1833795 ], [ 16.1274119, 54.183505 ], [ 16.127425, 54.1834841 ], [ 16.1279161, 54.1836401 ], [ 16.1287733, 54.1839125 ], [ 16.1289929, 54.1839453 ], [ 16.1293807, 54.1840545 ], [ 16.1294029, 54.1840188 ], [ 16.1294167, 54.1839685 ], [ 16.1294298, 54.1839606 ], [ 16.1294676, 54.183938 ], [ 16.1295118, 54.1838682 ], [ 16.1295747, 54.1837691 ], [ 16.129496, 54.1837989 ], [ 16.1289836, 54.1836747 ], [ 16.128392, 54.1835015 ], [ 16.1284603, 54.1833951 ], [ 16.1280651, 54.1832889 ], [ 16.1279729, 54.183228 ], [ 16.1275469, 54.1831328 ], [ 16.127132, 54.18304 ], [ 16.1270464, 54.1829639 ], [ 16.1269772, 54.1828307 ], [ 16.1270047, 54.1827137 ], [ 16.1272058, 54.1824385 ], [ 16.1272672, 54.1822328 ], [ 16.1272727, 54.1822146 ], [ 16.127266, 54.1821764 ], [ 16.1274318, 54.1817691 ], [ 16.1274508, 54.1817227 ], [ 16.1275483, 54.1814834 ], [ 16.1280469, 54.1805902 ], [ 16.1281706, 54.1805089 ], [ 16.1283211, 54.1804828 ], [ 16.1294765, 54.1804207 ], [ 16.1294856, 54.1802979 ], [ 16.1295055, 54.1800287 ], [ 16.1295255, 54.1797594 ], [ 16.1295454, 54.1794901 ], [ 16.1295653, 54.1792209 ], [ 16.1295757, 54.1790803 ], [ 16.1293695, 54.1789617 ], [ 16.1296259, 54.1783484 ], [ 16.1298701, 54.1777642 ], [ 16.1300995, 54.1772753 ], [ 16.1301305, 54.1772092 ], [ 16.1307325, 54.1759263 ], [ 16.130975, 54.1756083 ], [ 16.130761, 54.1755506 ], [ 16.1305535, 54.1754936 ], [ 16.1305499, 54.1753569 ], [ 16.1305443, 54.175142 ], [ 16.1304683, 54.1750363 ], [ 16.1305432, 54.1747302 ], [ 16.1305881, 54.1746337 ], [ 16.1306502, 54.1745012 ], [ 16.1307288, 54.1743337 ], [ 16.1307891, 54.1742093 ], [ 16.1308838, 54.1740146 ], [ 16.1309341, 54.173911 ], [ 16.1310178, 54.1737384 ], [ 16.1310639, 54.1736433 ], [ 16.1312051, 54.1733525 ], [ 16.1313427, 54.1730689 ], [ 16.1314161, 54.1729188 ], [ 16.1314561, 54.172837 ], [ 16.1314862, 54.1727756 ], [ 16.1315598, 54.1726242 ], [ 16.131572, 54.1725994 ], [ 16.13163, 54.1724806 ], [ 16.1316882, 54.1723617 ], [ 16.1316362, 54.1723474 ], [ 16.1314134, 54.1722857 ], [ 16.1309152, 54.1721479 ], [ 16.1308424, 54.1721278 ], [ 16.1307168, 54.172093 ], [ 16.1307404, 54.1719648 ], [ 16.13089, 54.1719001 ], [ 16.1309143, 54.1718895 ], [ 16.1309744, 54.1718635 ], [ 16.1312783, 54.1717319 ], [ 16.1317165, 54.1715422 ], [ 16.1322243, 54.1713223 ], [ 16.1326004, 54.1711593 ], [ 16.1334925, 54.170773 ], [ 16.1336554, 54.1708665 ], [ 16.1342205, 54.171179 ], [ 16.134343, 54.1713137 ], [ 16.1343598, 54.1713322 ], [ 16.1344368, 54.1714167 ], [ 16.1346324, 54.1716304 ], [ 16.1348207, 54.1718362 ], [ 16.1350089, 54.172042 ], [ 16.1351971, 54.1722478 ], [ 16.1353855, 54.1724537 ], [ 16.1356752, 54.1727703 ], [ 16.1357999, 54.1729065 ], [ 16.1359759, 54.1730988 ], [ 16.136331, 54.1734866 ], [ 16.13661, 54.1737913 ], [ 16.1367303, 54.1737356 ], [ 16.1367524, 54.1735896 ], [ 16.1375164, 54.173905 ], [ 16.1376681, 54.1739676 ], [ 16.1378284, 54.1740338 ], [ 16.1378685, 54.1740504 ], [ 16.1381725, 54.1741852 ], [ 16.1386681, 54.1744049 ], [ 16.1388977, 54.1745021 ], [ 16.1391535, 54.1746068 ], [ 16.1392295, 54.1746385 ], [ 16.1392604, 54.1746533 ], [ 16.139399, 54.1747653 ], [ 16.1394503, 54.1748067 ], [ 16.1396112, 54.1749374 ], [ 16.1398544, 54.1751343 ], [ 16.1404115, 54.1756255 ], [ 16.1406205, 54.1758109 ], [ 16.1408588, 54.1760225 ], [ 16.1412641, 54.1763818 ], [ 16.1415497, 54.176495 ], [ 16.1419241, 54.1766434 ], [ 16.1420098, 54.1766773 ], [ 16.1426396, 54.1769263 ], [ 16.1426897, 54.1769461 ], [ 16.1435497, 54.1773005 ], [ 16.1435663, 54.1773068 ], [ 16.143961, 54.177457 ], [ 16.1442733, 54.1775757 ], [ 16.1444661, 54.177649 ], [ 16.1446162, 54.1777127 ], [ 16.144884, 54.1778266 ], [ 16.1450585, 54.1779019 ], [ 16.1454021, 54.1780467 ], [ 16.1454578, 54.1780704 ], [ 16.1459285, 54.1782554 ], [ 16.1460255, 54.1782946 ], [ 16.1461598, 54.1783512 ], [ 16.1462886, 54.1784045 ], [ 16.1463546, 54.1784319 ], [ 16.1463639, 54.1784358 ], [ 16.1464163, 54.1784575 ], [ 16.1468253, 54.1786268 ], [ 16.1473392, 54.1788403 ], [ 16.1477782, 54.1790225 ], [ 16.147908, 54.1790765 ], [ 16.1480755, 54.1791461 ], [ 16.148181, 54.1791893 ], [ 16.1483152, 54.1792444 ], [ 16.1484265, 54.17929 ], [ 16.1485575, 54.1793438 ], [ 16.1492769, 54.1796386 ], [ 16.1496746, 54.1793312 ], [ 16.1501174, 54.1789891 ], [ 16.1506606, 54.1785686 ], [ 16.1506934, 54.1785431 ], [ 16.1518595, 54.1776498 ], [ 16.1521303, 54.1774609 ], [ 16.152302, 54.1773909 ], [ 16.1532463, 54.1770072 ], [ 16.1542331, 54.1765914 ], [ 16.1547087, 54.1762413 ], [ 16.1553906, 54.1757392 ], [ 16.156577, 54.1748752 ], [ 16.1566386, 54.1748303 ], [ 16.1567842, 54.1747243 ], [ 16.1574161, 54.1742287 ], [ 16.1579734, 54.1737943 ], [ 16.1580092, 54.1737663 ], [ 16.1588096, 54.173142 ], [ 16.1589292, 54.1730486 ], [ 16.1590688, 54.1729146 ], [ 16.1610114, 54.1712866 ], [ 16.1603816, 54.1706109 ], [ 16.1606669, 54.1703135 ], [ 16.1609497, 54.1694798 ], [ 16.1615, 54.1688808 ], [ 16.1611956, 54.1685704 ], [ 16.1609073, 54.1682793 ], [ 16.1608438, 54.168215 ], [ 16.161365, 54.1677632 ], [ 16.1618604, 54.1673336 ], [ 16.1622008, 54.167457 ], [ 16.1624989, 54.1674288 ], [ 16.162529, 54.1673184 ], [ 16.1623517, 54.1669148 ], [ 16.1626254, 54.1666269 ], [ 16.162673, 54.1665228 ], [ 16.1640002, 54.1636171 ], [ 16.1645629, 54.1628814 ], [ 16.1646073, 54.1626682 ], [ 16.1646053, 54.1619508 ], [ 16.1646487, 54.1619781 ], [ 16.1655434, 54.162541 ], [ 16.1658449, 54.1627307 ], [ 16.1667988, 54.1633308 ], [ 16.1674712, 54.162756 ], [ 16.1679386, 54.1623565 ], [ 16.168218, 54.1621177 ], [ 16.1686059, 54.1617862 ], [ 16.1696247, 54.1610484 ], [ 16.1707041, 54.1602667 ], [ 16.1715047, 54.1606786 ], [ 16.1715596, 54.1606342 ], [ 16.1729625, 54.1595011 ], [ 16.1742491, 54.1584617 ], [ 16.1754145, 54.1575204 ], [ 16.1757432, 54.1572549 ], [ 16.1768812, 54.1563355 ], [ 16.1769424, 54.1563702 ], [ 16.1776151, 54.1567512 ], [ 16.1776303, 54.1567403 ], [ 16.1780127, 54.1564631 ], [ 16.17815, 54.1563631 ], [ 16.1783742, 54.1562007 ], [ 16.1784225, 54.1561656 ], [ 16.1787268, 54.1559449 ], [ 16.178992, 54.1557526 ], [ 16.1791129, 54.1556649 ], [ 16.1791771, 54.1557171 ], [ 16.1792329, 54.1557618 ], [ 16.1795296, 54.1559985 ], [ 16.1795315, 54.156 ], [ 16.1795677, 54.1560292 ], [ 16.1797618, 54.1561855 ], [ 16.1798159, 54.1562291 ], [ 16.1798701, 54.1562727 ], [ 16.1801001, 54.156458 ], [ 16.1802969, 54.1566166 ], [ 16.1804413, 54.1567329 ], [ 16.1806626, 54.1569111 ], [ 16.1822849, 54.1561065 ], [ 16.1830951, 54.1557048 ], [ 16.1840568, 54.1552318 ], [ 16.1841264, 54.1551971 ], [ 16.1841475, 54.1551905 ], [ 16.184379, 54.1551598 ], [ 16.1844944, 54.1551048 ], [ 16.1850415, 54.1548261 ], [ 16.1854373, 54.1546217 ], [ 16.185886, 54.1543897 ], [ 16.1865427, 54.1540503 ], [ 16.1865882, 54.1540265 ], [ 16.1867818, 54.1539279 ], [ 16.1869787, 54.1538277 ], [ 16.1871726, 54.1537289 ], [ 16.1873708, 54.1536279 ], [ 16.1875649, 54.1535291 ], [ 16.1877598, 54.1534298 ], [ 16.1879523, 54.1533317 ], [ 16.1879633, 54.153326 ], [ 16.1882104, 54.1531958 ], [ 16.1886137, 54.1531364 ], [ 16.1886828, 54.1531263 ], [ 16.188739, 54.1531117 ], [ 16.1888391, 54.1530857 ], [ 16.1893814, 54.1529719 ], [ 16.1902246, 54.1527952 ], [ 16.1928961, 54.1522268 ], [ 16.1929606, 54.1521996 ], [ 16.1923018, 54.1517502 ], [ 16.1920491, 54.1515996 ], [ 16.191917, 54.1515837 ], [ 16.1918209, 54.1515722 ], [ 16.1915797, 54.1515979 ], [ 16.19155, 54.1515936 ], [ 16.191331, 54.1515615 ], [ 16.1912777, 54.1515413 ], [ 16.1911452, 54.1514909 ], [ 16.1910714, 54.1514259 ], [ 16.1910058, 54.1512664 ], [ 16.190998, 54.1512477 ], [ 16.1908459, 54.1508646 ], [ 16.1908156, 54.1507881 ], [ 16.1908738, 54.1505664 ], [ 16.1908182, 54.1504647 ], [ 16.1907109, 54.1503256 ], [ 16.1905783, 54.1501537 ], [ 16.1902925, 54.1500285 ], [ 16.1901239, 54.1499999 ], [ 16.1898838, 54.1499592 ], [ 16.1894742, 54.1498601 ], [ 16.1891821, 54.1499123 ], [ 16.1891004, 54.1499023 ], [ 16.1890266, 54.1498381 ], [ 16.1891101, 54.1496998 ], [ 16.1891356, 54.1496575 ], [ 16.1890616, 54.149537 ], [ 16.1886531, 54.1494613 ], [ 16.1883605, 54.1494206 ], [ 16.1882844, 54.1493633 ], [ 16.1881604, 54.149169 ], [ 16.1880779, 54.1490522 ], [ 16.1880642, 54.1490329 ], [ 16.1879849, 54.14901 ], [ 16.1875964, 54.1491548 ], [ 16.1875733, 54.1491248 ], [ 16.1873809, 54.1488886 ], [ 16.1873678, 54.1488724 ], [ 16.1870996, 54.148498 ], [ 16.186732, 54.1480301 ], [ 16.1873864, 54.1477388 ], [ 16.1874719, 54.1476705 ], [ 16.1877077, 54.1473064 ], [ 16.1877745, 54.1470999 ], [ 16.1879687, 54.1468472 ], [ 16.1880121, 54.146736 ], [ 16.1880174, 54.1466663 ], [ 16.1880102, 54.1465974 ], [ 16.1878671, 54.1462873 ], [ 16.1877769, 54.1461615 ], [ 16.1876166, 54.1460858 ], [ 16.1863848, 54.1458477 ], [ 16.1861446, 54.1455369 ], [ 16.1857675, 54.1450491 ], [ 16.1855142, 54.1447369 ], [ 16.1854244, 54.1446262 ], [ 16.1851695, 54.1443235 ], [ 16.1848937, 54.1439958 ], [ 16.1847753, 54.1438646 ], [ 16.18442, 54.1434708 ], [ 16.1842174, 54.1432461 ], [ 16.184055, 54.1430693 ], [ 16.1835906, 54.1425634 ], [ 16.1833924, 54.14238 ], [ 16.1818506, 54.1411618 ], [ 16.1817029, 54.1409569 ], [ 16.1804963, 54.1384201 ], [ 16.1802792, 54.1379548 ], [ 16.1801418, 54.1376579 ], [ 16.1800916, 54.137555 ], [ 16.1800928, 54.1374624 ], [ 16.1800874, 54.137392 ], [ 16.1801526, 54.1373941 ], [ 16.1803663, 54.1373682 ], [ 16.1804473, 54.1373907 ], [ 16.1804891, 54.1374144 ], [ 16.1805227, 54.1374291 ], [ 16.1808138, 54.1375601 ], [ 16.1809771, 54.1376073 ], [ 16.1810763, 54.1376413 ], [ 16.1810927, 54.1376488 ], [ 16.181109, 54.1376563 ], [ 16.1811865, 54.1376903 ], [ 16.1812363, 54.1377521 ], [ 16.1812398, 54.1377988 ], [ 16.1812341, 54.137825 ], [ 16.1811239, 54.1380076 ], [ 16.1811112, 54.1380468 ], [ 16.1811177, 54.1381123 ], [ 16.1811456, 54.1381902 ], [ 16.1811706, 54.1382389 ], [ 16.1812207, 54.138263 ], [ 16.1812896, 54.1382763 ], [ 16.1813895, 54.1382641 ], [ 16.1814025, 54.1382599 ], [ 16.1814732, 54.1382379 ], [ 16.1815037, 54.1381945 ], [ 16.1816942, 54.1381379 ], [ 16.1817807, 54.1381539 ], [ 16.1818989, 54.1382094 ], [ 16.182126, 54.1383509 ], [ 16.1822405, 54.1384636 ], [ 16.1822541, 54.1384782 ], [ 16.1822711, 54.1384964 ], [ 16.1823676, 54.1386233 ], [ 16.1823939, 54.1386608 ], [ 16.182471, 54.1387173 ], [ 16.1825056, 54.1387391 ], [ 16.1825927, 54.1388001 ], [ 16.1827552, 54.1388977 ], [ 16.182826, 54.1389102 ], [ 16.1828768, 54.1389059 ], [ 16.1829505, 54.1388809 ], [ 16.1830065, 54.138839 ], [ 16.1830412, 54.1387833 ], [ 16.1830785, 54.1386651 ], [ 16.1831236, 54.1386205 ], [ 16.1832075, 54.1385825 ], [ 16.1834572, 54.1385058 ], [ 16.1836432, 54.1384765 ], [ 16.1838572, 54.1384861 ], [ 16.1839096, 54.1384941 ], [ 16.1839788, 54.1384975 ], [ 16.1840299, 54.1384926 ], [ 16.1840649, 54.1384757 ], [ 16.184225, 54.1383425 ], [ 16.1843238, 54.1382915 ], [ 16.1843515, 54.1382661 ], [ 16.1846259, 54.1381811 ], [ 16.1846875, 54.1381686 ], [ 16.184741, 54.1381569 ], [ 16.1850048, 54.1381459 ], [ 16.1851549, 54.1381479 ], [ 16.1852398, 54.1381433 ], [ 16.1853158, 54.1381406 ], [ 16.1853743, 54.1381435 ], [ 16.1854698, 54.1381647 ], [ 16.1855495, 54.1382222 ], [ 16.1855631, 54.1382309 ], [ 16.1855975, 54.138253 ], [ 16.1856352, 54.1382878 ], [ 16.1856966, 54.1383473 ], [ 16.1861347, 54.1390688 ], [ 16.1861516, 54.1390894 ], [ 16.186167, 54.1391081 ], [ 16.1862206, 54.1391447 ], [ 16.1864854, 54.1393038 ], [ 16.1865473, 54.1393557 ], [ 16.1865951, 54.1393886 ], [ 16.1866661, 54.1394081 ], [ 16.1867904, 54.1394105 ], [ 16.1869477, 54.1393835 ], [ 16.1869966, 54.139361 ], [ 16.1870092, 54.1393404 ], [ 16.1869818, 54.1392586 ], [ 16.1868828, 54.1390454 ], [ 16.1869159, 54.1390039 ], [ 16.1869587, 54.1389719 ], [ 16.1870297, 54.1389432 ], [ 16.1871406, 54.1389116 ], [ 16.1872986, 54.1388878 ], [ 16.187512, 54.1388428 ], [ 16.1875561, 54.1388373 ], [ 16.1876876, 54.1388115 ], [ 16.1877827, 54.1388088 ], [ 16.1878833, 54.1388583 ], [ 16.1879369, 54.1388805 ], [ 16.1881492, 54.1390372 ], [ 16.1881954, 54.1390584 ], [ 16.1883085, 54.1390748 ], [ 16.1885423, 54.1391442 ], [ 16.1886664, 54.1391817 ], [ 16.1890508, 54.1392019 ], [ 16.1891174, 54.1392466 ], [ 16.1891809, 54.1393099 ], [ 16.1892835, 54.1393882 ], [ 16.1893622, 54.1394175 ], [ 16.1894067, 54.1394207 ], [ 16.1894162, 54.1394197 ], [ 16.1895333, 54.1393996 ], [ 16.1898259, 54.139294 ], [ 16.1899084, 54.1393042 ], [ 16.1899413, 54.139312 ], [ 16.1905712, 54.1395472 ], [ 16.1906392, 54.1395331 ], [ 16.1906379, 54.1393363 ], [ 16.1906837, 54.1392605 ], [ 16.1908473, 54.1391388 ], [ 16.1910092, 54.1390665 ], [ 16.1912035, 54.1390514 ], [ 16.1926079, 54.1389998 ], [ 16.1927785, 54.1389998 ], [ 16.192851, 54.1390035 ], [ 16.1932102, 54.13903 ], [ 16.1934165, 54.1390564 ], [ 16.1937023, 54.1391213 ], [ 16.1937712, 54.1391246 ], [ 16.1938251, 54.1390624 ], [ 16.1938405, 54.1390447 ], [ 16.1939111, 54.1388341 ], [ 16.1939604, 54.1387919 ], [ 16.1940139, 54.1387653 ], [ 16.1943252, 54.1385799 ], [ 16.194381, 54.1385608 ], [ 16.1944526, 54.1385502 ], [ 16.1946903, 54.1385645 ], [ 16.1947364, 54.1385745 ], [ 16.1947959, 54.1386001 ], [ 16.1949065, 54.1386734 ], [ 16.1950028, 54.1387568 ], [ 16.1950812, 54.1387875 ], [ 16.1951905, 54.1387906 ], [ 16.1952333, 54.1387992 ], [ 16.1954553, 54.1387813 ], [ 16.1955787, 54.1387875 ], [ 16.1956278, 54.1388037 ], [ 16.1959193, 54.1389001 ], [ 16.1959821, 54.1389336 ], [ 16.1960623, 54.1389706 ], [ 16.196136, 54.1390309 ], [ 16.1962419, 54.1390806 ], [ 16.1963678, 54.1390989 ], [ 16.1963946, 54.1390961 ], [ 16.1966201, 54.1390719 ], [ 16.1967405, 54.1390716 ], [ 16.1969599, 54.1391289 ], [ 16.19704, 54.1391256 ], [ 16.1982434, 54.1388958 ], [ 16.1982713, 54.1388811 ], [ 16.198353, 54.1388384 ], [ 16.1986275, 54.1384665 ], [ 16.1987529, 54.1382964 ], [ 16.1988207, 54.1382046 ], [ 16.1988916, 54.1381016 ], [ 16.1989266, 54.1380505 ], [ 16.1990161, 54.1379928 ], [ 16.1996091, 54.137745 ], [ 16.1997246, 54.137708 ], [ 16.2001723, 54.1377464 ], [ 16.2005084, 54.1378547 ], [ 16.2013814, 54.1383808 ], [ 16.2018395, 54.1386568 ], [ 16.2019829, 54.1386906 ], [ 16.2038334, 54.1388971 ], [ 16.203991, 54.1389096 ], [ 16.2043828, 54.1389408 ], [ 16.2047994, 54.13895 ], [ 16.2052112, 54.1390114 ], [ 16.2055957, 54.1390332 ], [ 16.2059512, 54.1390812 ], [ 16.2062207, 54.1391277 ], [ 16.206323, 54.1391821 ], [ 16.2063367, 54.1392052 ], [ 16.2063653, 54.1392533 ], [ 16.20628, 54.1394497 ], [ 16.2062142, 54.1395796 ], [ 16.206363, 54.139728 ], [ 16.2064754, 54.139731 ], [ 16.2066628, 54.139749 ], [ 16.2068409, 54.1398067 ], [ 16.2070002, 54.1398268 ], [ 16.2072039, 54.1398523 ], [ 16.2074014, 54.1398559 ], [ 16.2075001, 54.1398352 ], [ 16.2076273, 54.1397373 ], [ 16.2076863, 54.1396185 ], [ 16.2078957, 54.1394778 ], [ 16.2080885, 54.1394355 ], [ 16.2085067, 54.139508 ], [ 16.2087189, 54.1395492 ], [ 16.2088042, 54.139615 ], [ 16.2089022, 54.1397737 ], [ 16.2089706, 54.1398846 ], [ 16.2091277, 54.1400239 ], [ 16.2092623, 54.1401569 ], [ 16.2093504, 54.1401877 ], [ 16.2094818, 54.1402016 ], [ 16.2098529, 54.140242 ], [ 16.2100791, 54.1402969 ], [ 16.2102891, 54.1403349 ], [ 16.2104459, 54.1403479 ], [ 16.2105983, 54.1403381 ], [ 16.2108886, 54.1403643 ], [ 16.2109766, 54.1403415 ], [ 16.2110196, 54.1402694 ], [ 16.2112385, 54.1400308 ], [ 16.2113563, 54.1399819 ], [ 16.2114565, 54.1400051 ], [ 16.2118177, 54.1401716 ], [ 16.2119084, 54.140248 ], [ 16.2118909, 54.1403861 ], [ 16.2119, 54.1404454 ], [ 16.211979, 54.1404704 ], [ 16.2122714, 54.1405511 ], [ 16.2125145, 54.140618 ], [ 16.2126775, 54.140663 ], [ 16.2133416, 54.1408461 ], [ 16.2135668, 54.1409061 ], [ 16.2138907, 54.1409341 ], [ 16.214234, 54.1410319 ], [ 16.2142967, 54.1411239 ], [ 16.2141973, 54.1412827 ], [ 16.2142198, 54.1413457 ], [ 16.2145661, 54.1414717 ], [ 16.2148971, 54.1416248 ], [ 16.2149895, 54.1416677 ], [ 16.215087, 54.141648 ], [ 16.2152601, 54.1415649 ], [ 16.2155898, 54.1413293 ], [ 16.2157164, 54.1412886 ], [ 16.215758, 54.1412823 ], [ 16.2158023, 54.1412755 ], [ 16.2159757, 54.1412953 ], [ 16.2161776, 54.1412998 ], [ 16.2162781, 54.1413344 ], [ 16.2163755, 54.1413555 ], [ 16.2165206, 54.1414467 ], [ 16.2166147, 54.1415407 ], [ 16.2166018, 54.1416067 ], [ 16.2165274, 54.1417608 ], [ 16.2166296, 54.1417715 ], [ 16.2168442, 54.1417939 ], [ 16.2171411, 54.1418249 ], [ 16.2171951, 54.1418305 ], [ 16.2173955, 54.1418798 ], [ 16.2175239, 54.1419113 ], [ 16.2178092, 54.1419879 ], [ 16.217869, 54.1419825 ], [ 16.2179009, 54.1419794 ], [ 16.2179445, 54.1419363 ], [ 16.2179764, 54.1419048 ], [ 16.2180754, 54.1418092 ], [ 16.2182105, 54.1417554 ], [ 16.2184177, 54.1417297 ], [ 16.2185326, 54.141756 ], [ 16.2185918, 54.1417696 ], [ 16.2187572, 54.1418469 ], [ 16.2187768, 54.1418846 ], [ 16.2188088, 54.1419464 ], [ 16.2189743, 54.1422662 ], [ 16.2191016, 54.1425055 ], [ 16.219124, 54.1425475 ], [ 16.2192203, 54.1427408 ], [ 16.2192305, 54.1427614 ], [ 16.2192598, 54.1428101 ], [ 16.2193256, 54.1428375 ], [ 16.2193988, 54.1428583 ], [ 16.2196428, 54.142917 ], [ 16.2196813, 54.1429243 ], [ 16.2198956, 54.1429646 ], [ 16.2199485, 54.1429767 ], [ 16.2199643, 54.143001 ], [ 16.2200068, 54.1430692 ], [ 16.2200539, 54.1431465 ], [ 16.2201305, 54.1431852 ], [ 16.2204385, 54.1432898 ], [ 16.220505, 54.1433067 ], [ 16.2205596, 54.1432903 ], [ 16.2206623, 54.1432596 ], [ 16.2208586, 54.1431676 ], [ 16.2210803, 54.143079 ], [ 16.2211765, 54.1431709 ], [ 16.2212099, 54.1432019 ], [ 16.2210498, 54.1437832 ], [ 16.2210129, 54.1438822 ], [ 16.220515, 54.1442917 ], [ 16.2197204, 54.145505 ], [ 16.2212251, 54.146246 ], [ 16.2228308, 54.1470364 ], [ 16.2228857, 54.1470635 ], [ 16.2242803, 54.1465965 ], [ 16.2255209, 54.1474693 ], [ 16.226991, 54.1485084 ], [ 16.2281787, 54.1493754 ], [ 16.2290872, 54.1504806 ], [ 16.2300177, 54.1516125 ], [ 16.2300708, 54.151677 ], [ 16.2317504, 54.1536903 ], [ 16.2317953, 54.153744 ], [ 16.2333499, 54.1555796 ], [ 16.2333555, 54.1555883 ], [ 16.2334052, 54.1556455 ], [ 16.2335261, 54.1557549 ], [ 16.2335812, 54.1558047 ], [ 16.2335889, 54.1558127 ], [ 16.233626, 54.1558454 ], [ 16.2352445, 54.1572732 ], [ 16.2372839, 54.1589825 ], [ 16.2377503, 54.1593763 ], [ 16.2377651, 54.1593987 ], [ 16.2381233, 54.1597087 ], [ 16.2383777, 54.1599288 ], [ 16.2391631, 54.1606082 ], [ 16.2403339, 54.1616581 ], [ 16.2404519, 54.1617362 ], [ 16.2397457, 54.1620672 ], [ 16.2392696, 54.1622978 ], [ 16.238995, 54.1624491 ], [ 16.2383873, 54.1627823 ], [ 16.2379753, 54.1630047 ], [ 16.2375227, 54.1632572 ], [ 16.2391137, 54.1645749 ], [ 16.2405188, 54.165774 ], [ 16.2415631, 54.1656207 ], [ 16.2423125, 54.1655123 ], [ 16.2426975, 54.1654397 ], [ 16.2430344, 54.1653307 ], [ 16.2464619, 54.164158 ], [ 16.2465187, 54.1641387 ], [ 16.2465434, 54.1641301 ], [ 16.249346, 54.1631688 ], [ 16.252418, 54.162083 ], [ 16.2555051, 54.1610226 ], [ 16.2580442, 54.1597973 ], [ 16.2603956, 54.1586605 ], [ 16.261237, 54.158433 ], [ 16.2614608, 54.1584299 ], [ 16.2617148, 54.1584651 ], [ 16.2620757, 54.1585071 ], [ 16.262292, 54.1584878 ], [ 16.2623681, 54.1585029 ], [ 16.262555, 54.1585399 ], [ 16.2632218, 54.1588655 ], [ 16.264455, 54.1595247 ], [ 16.2658615, 54.1602722 ], [ 16.2661391, 54.1603966 ], [ 16.2666961, 54.1606975 ], [ 16.2668082, 54.1607031 ], [ 16.2676505, 54.160745 ], [ 16.2687547, 54.1611207 ], [ 16.268821, 54.1611431 ], [ 16.2684008, 54.1612761 ], [ 16.2679614, 54.1613897 ], [ 16.267933, 54.161397 ], [ 16.2688485, 54.1623271 ], [ 16.2689597, 54.1624404 ], [ 16.2815367, 54.1658669 ], [ 16.2824579, 54.1661018 ], [ 16.2828113, 54.1657693 ], [ 16.2830209, 54.1656616 ], [ 16.2833157, 54.1654984 ], [ 16.2846009, 54.165009 ], [ 16.2851354, 54.1647998 ], [ 16.2853181, 54.1647253 ], [ 16.2849916, 54.1640126 ], [ 16.284954, 54.163926 ], [ 16.2852476, 54.1638935 ], [ 16.2855303, 54.1637976 ], [ 16.2859513, 54.1635113 ], [ 16.2861829, 54.1632006 ], [ 16.2863601, 54.162782 ], [ 16.2863533, 54.1625133 ], [ 16.2863414, 54.1620417 ], [ 16.2862227, 54.1613567 ], [ 16.287368, 54.1604277 ], [ 16.2873789, 54.1603546 ], [ 16.2886158, 54.1597206 ], [ 16.2896183, 54.1589366 ], [ 16.2901125, 54.1587036 ], [ 16.2916775, 54.1586309 ], [ 16.2936789, 54.158538 ], [ 16.2942484, 54.1585134 ], [ 16.2952119, 54.1589833 ], [ 16.295411, 54.1590106 ], [ 16.295976, 54.158865 ], [ 16.2960265, 54.1589152 ], [ 16.2962838, 54.1591708 ], [ 16.2964575, 54.1590571 ], [ 16.2972648, 54.1585292 ], [ 16.2980106, 54.1580413 ], [ 16.298092, 54.1579548 ], [ 16.2981733, 54.1578682 ], [ 16.2985517, 54.1574653 ], [ 16.2992748, 54.1569903 ], [ 16.3000134, 54.1560111 ], [ 16.3004597, 54.1561729 ], [ 16.3005484, 54.1561836 ], [ 16.3008177, 54.156216 ], [ 16.301102, 54.1562641 ], [ 16.3011812, 54.1563226 ], [ 16.3014005, 54.1563306 ], [ 16.3015427, 54.1564285 ], [ 16.3017289, 54.156478 ], [ 16.3018171, 54.1565403 ], [ 16.3022864, 54.1566689 ], [ 16.3023892, 54.1568327 ], [ 16.3024564, 54.1568337 ], [ 16.3026099, 54.1568363 ], [ 16.3031071, 54.157238 ], [ 16.3031419, 54.1572661 ], [ 16.3033386, 54.1573096 ], [ 16.303506, 54.1572613 ], [ 16.3038277, 54.1573205 ], [ 16.304046, 54.1574334 ], [ 16.3044457, 54.1575187 ], [ 16.3041048, 54.1577604 ], [ 16.3040196, 54.1578236 ], [ 16.3032374, 54.1583812 ], [ 16.3018289, 54.1596288 ], [ 16.3011296, 54.160242 ], [ 16.2999765, 54.1609777 ], [ 16.2988461, 54.1616915 ], [ 16.2984597, 54.1619354 ], [ 16.2963088, 54.1632838 ], [ 16.2952393, 54.1639462 ], [ 16.2943355, 54.164506 ], [ 16.29429, 54.1644821 ], [ 16.293176, 54.1638973 ], [ 16.2929398, 54.1641147 ], [ 16.2928988, 54.1641519 ], [ 16.2931864, 54.1646437 ], [ 16.2935976, 54.1648073 ], [ 16.2929412, 54.1652709 ], [ 16.2919603, 54.1660412 ], [ 16.2917592, 54.1662143 ], [ 16.2919511, 54.1665285 ], [ 16.2920121, 54.1670766 ], [ 16.2921494, 54.1675269 ], [ 16.2922283, 54.1675269 ], [ 16.2922373, 54.1682937 ], [ 16.292414, 54.168914 ], [ 16.2924822, 54.16935 ], [ 16.2926546, 54.1701438 ], [ 16.2927522, 54.1704004 ], [ 16.2927429, 54.1707373 ], [ 16.2925759, 54.1711326 ], [ 16.2925472, 54.1713904 ], [ 16.2925731, 54.1718569 ], [ 16.2924787, 54.1722333 ], [ 16.2925066, 54.1724366 ], [ 16.2922764, 54.1729866 ], [ 16.2917344, 54.173291 ], [ 16.291349, 54.1734368 ], [ 16.2911174, 54.1739371 ], [ 16.2909814, 54.1743068 ], [ 16.2909793, 54.1743128 ], [ 16.2909647, 54.1743519 ], [ 16.2905199, 54.1744635 ], [ 16.290095, 54.1746336 ], [ 16.2896565, 54.1749002 ], [ 16.2894823, 54.1751014 ], [ 16.2894296, 54.1753911 ], [ 16.2893662, 54.1754583 ], [ 16.2882679, 54.1758206 ], [ 16.2880782, 54.1759319 ], [ 16.2879218, 54.1760992 ], [ 16.2878344, 54.176307 ], [ 16.2877159, 54.1767531 ], [ 16.2877771, 54.1770648 ], [ 16.2878623, 54.1771703 ], [ 16.2880146, 54.1772715 ], [ 16.288326, 54.1774369 ], [ 16.2883791, 54.1775649 ], [ 16.2881758, 54.1778792 ], [ 16.2878198, 54.1781345 ], [ 16.2871, 54.1784979 ], [ 16.2879284, 54.1789814 ], [ 16.2885619, 54.1793501 ], [ 16.289155, 54.1796952 ], [ 16.2897849, 54.1800641 ], [ 16.2901802, 54.180289 ], [ 16.2909533, 54.1807455 ], [ 16.2916426, 54.1811527 ], [ 16.2920053, 54.1813684 ], [ 16.2923844, 54.1815939 ], [ 16.2939235, 54.1826036 ], [ 16.2944307, 54.1828797 ], [ 16.2954111, 54.1833053 ], [ 16.295966, 54.1834529 ], [ 16.2966042, 54.1836228 ], [ 16.2977401, 54.1827625 ], [ 16.2988299, 54.1833766 ], [ 16.2997509, 54.1832657 ], [ 16.3007497, 54.1831455 ], [ 16.3008257, 54.1832979 ], [ 16.3008077, 54.1846491 ], [ 16.3010958, 54.1847617 ], [ 16.3008679, 54.184876 ], [ 16.300762, 54.1849291 ], [ 16.3006008, 54.185027 ], [ 16.30045, 54.1851509 ], [ 16.2996897, 54.1857763 ], [ 16.2995509, 54.1858903 ], [ 16.2993489, 54.1868647 ], [ 16.2992383, 54.1873985 ], [ 16.2989733, 54.188093 ], [ 16.2999113, 54.1882541 ], [ 16.3009106, 54.1884412 ], [ 16.3018728, 54.1885981 ], [ 16.3018284, 54.1887285 ], [ 16.3016437, 54.1892708 ], [ 16.3016363, 54.1892929 ], [ 16.3013375, 54.190133 ], [ 16.3011235, 54.1907273 ], [ 16.3023974, 54.1909196 ], [ 16.3037776, 54.1907717 ], [ 16.3041225, 54.1902132 ], [ 16.3045691, 54.1900694 ], [ 16.3046594, 54.1900962 ], [ 16.3050365, 54.190208 ], [ 16.3057054, 54.1901454 ], [ 16.3057205, 54.190144 ], [ 16.3062718, 54.1903897 ], [ 16.3064693, 54.1903704 ], [ 16.3073505, 54.1902621 ], [ 16.3075398, 54.1902389 ], [ 16.3075628, 54.1902361 ], [ 16.3083915, 54.1901684 ], [ 16.3091206, 54.1910748 ], [ 16.3097195, 54.1910483 ], [ 16.3102694, 54.1908449 ], [ 16.3108519, 54.1906297 ], [ 16.311804, 54.1902776 ], [ 16.3119675, 54.1902706 ], [ 16.3120421, 54.1902675 ], [ 16.3121515, 54.1902628 ], [ 16.3121751, 54.1902618 ], [ 16.3127491, 54.190927 ], [ 16.3133339, 54.1916053 ], [ 16.313786, 54.1922223 ], [ 16.3145284, 54.1923902 ], [ 16.3147917, 54.1923782 ], [ 16.315635, 54.1923398 ], [ 16.3157181, 54.1923359 ], [ 16.3158241, 54.1923965 ], [ 16.3165227, 54.1927974 ], [ 16.3167769, 54.1929313 ], [ 16.3172216, 54.1931658 ], [ 16.3172386, 54.1931748 ], [ 16.317636, 54.1934937 ], [ 16.3178619, 54.1940062 ], [ 16.3180952, 54.1945352 ], [ 16.3180985, 54.1945414 ], [ 16.3187068, 54.19571 ], [ 16.3191812, 54.1966711 ], [ 16.3209535, 54.1963554 ], [ 16.3210618, 54.1963391 ], [ 16.3211318, 54.1963286 ], [ 16.3217962, 54.1973623 ], [ 16.3221453, 54.1981311 ], [ 16.3223205, 54.1984821 ], [ 16.3225315, 54.1989279 ], [ 16.3227941, 54.1995086 ], [ 16.3226424, 54.1998007 ], [ 16.3225275, 54.2000122 ], [ 16.3225819, 54.2002041 ], [ 16.322996, 54.2007278 ], [ 16.3231418, 54.2010739 ], [ 16.3231492, 54.2013408 ], [ 16.3231333, 54.2014049 ], [ 16.3231677, 54.2014534 ], [ 16.323267, 54.2015931 ], [ 16.323279, 54.2015973 ], [ 16.3233087, 54.2016082 ], [ 16.3232055, 54.2016117 ], [ 16.3230769, 54.2017245 ], [ 16.3229574, 54.2018401 ], [ 16.3228694, 54.2019071 ], [ 16.3227401, 54.2020483 ], [ 16.3226201, 54.2021351 ], [ 16.3225728, 54.2021864 ], [ 16.3225567, 54.2022172 ], [ 16.3224715, 54.2023016 ], [ 16.3224051, 54.2023506 ], [ 16.3223628, 54.202409 ], [ 16.3222724, 54.2024771 ], [ 16.3222405, 54.2025097 ], [ 16.3222214, 54.2025445 ], [ 16.3221594, 54.2025965 ], [ 16.3221216, 54.2026397 ], [ 16.3220768, 54.2027081 ], [ 16.32201, 54.2027744 ], [ 16.3219835, 54.2028051 ], [ 16.3219542, 54.202832 ], [ 16.3219088, 54.2028607 ], [ 16.3218837, 54.2028768 ], [ 16.32186, 54.2028919 ], [ 16.3218378, 54.2029248 ], [ 16.321769, 54.2030379 ], [ 16.3217278, 54.2030912 ], [ 16.3217038, 54.2031265 ], [ 16.3216915, 54.203148 ], [ 16.3216603, 54.2032242 ], [ 16.3216601, 54.2032632 ], [ 16.3216345, 54.2033313 ], [ 16.3215576, 54.203473 ], [ 16.3215529, 54.2034825 ], [ 16.3215529, 54.2035506 ], [ 16.3215365, 54.2036069 ], [ 16.3215289, 54.2036395 ], [ 16.3215312, 54.203686 ], [ 16.3215232, 54.2037263 ], [ 16.3215218, 54.2037872 ], [ 16.3215003, 54.2038812 ], [ 16.3214955, 54.2039087 ], [ 16.3214745, 54.2039514 ], [ 16.3214288, 54.2040411 ], [ 16.3214119, 54.204121 ], [ 16.3214045, 54.2041733 ], [ 16.3214197, 54.2041892 ], [ 16.3214275, 54.2041993 ], [ 16.3214227, 54.2042393 ], [ 16.3213837, 54.2043784 ], [ 16.3213749, 54.2044529 ], [ 16.3213751, 54.2045062 ], [ 16.3213761, 54.2045265 ], [ 16.321397, 54.2045287 ], [ 16.3214179, 54.2045511 ], [ 16.3214185, 54.2045989 ], [ 16.3214292, 54.2046253 ], [ 16.3214095, 54.2046899 ], [ 16.3213784, 54.2047858 ], [ 16.3213405, 54.2048501 ], [ 16.3212719, 54.2049355 ], [ 16.3212035, 54.2049992 ], [ 16.3211794, 54.2050206 ], [ 16.3211485, 54.2050616 ], [ 16.3210381, 54.2051211 ], [ 16.3209438, 54.2051659 ], [ 16.3208859, 54.2051933 ], [ 16.3207894, 54.205258 ], [ 16.3207696, 54.2052823 ], [ 16.3207749, 54.2053001 ], [ 16.3207533, 54.205334 ], [ 16.3206545, 54.2054178 ], [ 16.3206052, 54.2054573 ], [ 16.3205551, 54.2055252 ], [ 16.3205353, 54.205549 ], [ 16.320525, 54.2055661 ], [ 16.3205156, 54.2055943 ], [ 16.3205402, 54.2056265 ], [ 16.3205367, 54.2056351 ], [ 16.3205609, 54.2056837 ], [ 16.3205496, 54.2057176 ], [ 16.3205523, 54.20573 ], [ 16.3205192, 54.2057547 ], [ 16.3204739, 54.2057814 ], [ 16.3204206, 54.2058058 ], [ 16.3204002, 54.2058261 ], [ 16.3203753, 54.2058383 ], [ 16.3203683, 54.2058628 ], [ 16.320306, 54.2059383 ], [ 16.3203065, 54.20595 ], [ 16.3202825, 54.2059899 ], [ 16.3202717, 54.2060217 ], [ 16.3202626, 54.2060475 ], [ 16.3202278, 54.2060477 ], [ 16.3202147, 54.2060735 ], [ 16.3201523, 54.2061538 ], [ 16.3201166, 54.2062133 ], [ 16.3200756, 54.2063112 ], [ 16.3200707, 54.2063358 ], [ 16.3200678, 54.2064101 ], [ 16.320146, 54.2067712 ], [ 16.3201552, 54.2067804 ], [ 16.320202, 54.2068114 ], [ 16.3202083, 54.2068202 ], [ 16.320225, 54.2068208 ], [ 16.3202962, 54.2068226 ], [ 16.3203883, 54.2068367 ], [ 16.320454, 54.2068482 ], [ 16.3205124, 54.2068548 ], [ 16.3205483, 54.2068641 ], [ 16.320576, 54.2068825 ], [ 16.3205896, 54.2069007 ], [ 16.3205866, 54.2069069 ], [ 16.3205577, 54.2069437 ], [ 16.3205151, 54.2069771 ], [ 16.3204835, 54.2069848 ], [ 16.3204421, 54.2070041 ], [ 16.3203788, 54.2070426 ], [ 16.3202566, 54.2071138 ], [ 16.3201057, 54.2072088 ], [ 16.3199991, 54.207224 ], [ 16.319764, 54.2072116 ], [ 16.3196821, 54.2071995 ], [ 16.3196699, 54.2071962 ], [ 16.3195295, 54.2071776 ], [ 16.3193795, 54.2071513 ], [ 16.3192515, 54.207146 ], [ 16.3192139, 54.2071682 ], [ 16.3192017, 54.2071821 ], [ 16.319201, 54.2072348 ], [ 16.3192073, 54.2073133 ], [ 16.3192289, 54.2073419 ], [ 16.3192474, 54.2073595 ], [ 16.3193031, 54.2073703 ], [ 16.3194195, 54.2073934 ], [ 16.3194927, 54.2073996 ], [ 16.3194959, 54.2074237 ], [ 16.3194879, 54.2074758 ], [ 16.3193384, 54.2076216 ], [ 16.3190965, 54.2076908 ], [ 16.3188799, 54.2076882 ], [ 16.3182954, 54.2074994 ], [ 16.3182042, 54.2075087 ], [ 16.3180083, 54.2075614 ], [ 16.3177883, 54.2076006 ], [ 16.3170852, 54.2077727 ], [ 16.3166736, 54.2079757 ], [ 16.3164727, 54.2080981 ], [ 16.3159516, 54.2084271 ], [ 16.3156289, 54.2085678 ], [ 16.3154796, 54.2086098 ], [ 16.3147784, 54.2086861 ], [ 16.3144911, 54.208685 ], [ 16.3141636, 54.2087343 ], [ 16.3140349, 54.2087712 ], [ 16.3130167, 54.2093144 ], [ 16.3125865, 54.209611 ], [ 16.3125148, 54.2096852 ], [ 16.3123524, 54.209842 ], [ 16.3122797, 54.209963 ], [ 16.3121968, 54.210079 ], [ 16.3121703, 54.2101279 ], [ 16.3117216, 54.2106699 ], [ 16.31131, 54.2112897 ], [ 16.3111393, 54.2115067 ], [ 16.3109662, 54.2116172 ], [ 16.3105599, 54.2119584 ], [ 16.3102782, 54.2123178 ], [ 16.3096047, 54.2129132 ], [ 16.3094098, 54.2130042 ], [ 16.3093675, 54.2130521 ], [ 16.3092986, 54.2131324 ], [ 16.3090738, 54.2134121 ], [ 16.3090408, 54.2134641 ], [ 16.3090232, 54.2134984 ], [ 16.3089735, 54.2136034 ], [ 16.3088969, 54.2137657 ], [ 16.3089561, 54.2140031 ], [ 16.3088336, 54.2141501 ], [ 16.3088419, 54.2141989 ], [ 16.3086644, 54.2143268 ], [ 16.3081807, 54.2145491 ], [ 16.3075841, 54.2147751 ], [ 16.3066887, 54.2151211 ], [ 16.3063808, 54.2153056 ], [ 16.3059973, 54.2156171 ], [ 16.3059098, 54.2156541 ], [ 16.3057578, 54.2157689 ], [ 16.3056099, 54.2159718 ], [ 16.3054211, 54.2160621 ], [ 16.3052704, 54.2161764 ], [ 16.3049655, 54.2164037 ], [ 16.3047273, 54.2167036 ], [ 16.3045529, 54.2168676 ], [ 16.3044387, 54.2169898 ], [ 16.3041219, 54.2172802 ], [ 16.3038008, 54.2175021 ], [ 16.3033379, 54.217845 ], [ 16.3032194, 54.2178998 ], [ 16.3021339, 54.2181821 ], [ 16.3012983, 54.2184661 ], [ 16.3009482, 54.2185967 ], [ 16.3005798, 54.218734 ], [ 16.2986571, 54.2194772 ], [ 16.2985612, 54.2194983 ], [ 16.2977234, 54.2195802 ], [ 16.2957897, 54.2198193 ], [ 16.2957049, 54.2198289 ], [ 16.2956895, 54.2197867 ], [ 16.2950109, 54.2194695 ], [ 16.2945539, 54.21926 ], [ 16.293594, 54.2188172 ], [ 16.2926475, 54.2183743 ], [ 16.2916325, 54.2179019 ], [ 16.2914933, 54.2178371 ], [ 16.2904725, 54.2173704 ], [ 16.2904121, 54.2173428 ], [ 16.2898198, 54.2170719 ], [ 16.2893509, 54.2165631 ], [ 16.2886855, 54.2157933 ], [ 16.2883683, 54.2154188 ], [ 16.287823, 54.2147747 ], [ 16.2877552, 54.2147207 ], [ 16.2865556, 54.2141249 ], [ 16.2853925, 54.2135222 ], [ 16.285229, 54.213516 ], [ 16.2851983, 54.2135149 ], [ 16.2840809, 54.213473 ], [ 16.2835134, 54.2134432 ], [ 16.2827111, 54.213175 ], [ 16.2823485, 54.2132566 ], [ 16.2820816, 54.2133463 ], [ 16.2820042, 54.2136107 ], [ 16.2818023, 54.2138612 ], [ 16.2817234, 54.2143005 ], [ 16.2815254, 54.2145704 ], [ 16.2813249, 54.214836 ], [ 16.2812867, 54.2149541 ], [ 16.2812293, 54.2151319 ], [ 16.2811636, 54.2153354 ], [ 16.2808563, 54.2155339 ], [ 16.2807809, 54.2158157 ], [ 16.2807706, 54.2158542 ], [ 16.2807903, 54.2160423 ], [ 16.2808026, 54.2161574 ], [ 16.2808848, 54.2162799 ], [ 16.2810463, 54.2165208 ], [ 16.2811408, 54.2166617 ], [ 16.2812536, 54.2168172 ], [ 16.2813156, 54.2169446 ], [ 16.2811971, 54.2171284 ], [ 16.2806477, 54.217129 ], [ 16.2803936, 54.2171224 ], [ 16.2798601, 54.2171086 ], [ 16.2789507, 54.2170817 ], [ 16.2785154, 54.2173864 ], [ 16.2779891, 54.2177593 ], [ 16.2774406, 54.2181595 ], [ 16.2774118, 54.2185312 ], [ 16.2770634, 54.2188177 ], [ 16.2769088, 54.2189457 ], [ 16.2766509, 54.2191595 ], [ 16.2765933, 54.2192072 ], [ 16.2765621, 54.2192331 ], [ 16.2762306, 54.2195079 ], [ 16.2765399, 54.2197608 ], [ 16.2766325, 54.2198364 ], [ 16.2768824, 54.2200678 ], [ 16.2771636, 54.2203306 ], [ 16.2773121, 54.220542 ], [ 16.2774614, 54.2207543 ], [ 16.2776461, 54.2209552 ], [ 16.2778968, 54.221228 ], [ 16.27695, 54.2213187 ], [ 16.2747608, 54.2216254 ], [ 16.2733584, 54.2218294 ], [ 16.2714791, 54.2217897 ], [ 16.2709836, 54.2211043 ], [ 16.2705141, 54.2208383 ], [ 16.2696414, 54.2207405 ], [ 16.2689471, 54.2207846 ], [ 16.2687267, 54.2207993 ], [ 16.2680477, 54.2209313 ], [ 16.2674833, 54.2212694 ], [ 16.2671581, 54.2216154 ], [ 16.2670113, 54.2217184 ], [ 16.2669159, 54.2215515 ], [ 16.2664776, 54.221119 ], [ 16.2663859, 54.2210678 ], [ 16.2660981, 54.2206666 ], [ 16.265873, 54.2202546 ], [ 16.2658572, 54.2202258 ], [ 16.2655715, 54.2198542 ], [ 16.2654139, 54.2196494 ], [ 16.2651828, 54.2193813 ], [ 16.2651777, 54.2193751 ], [ 16.2650128, 54.2191806 ], [ 16.2638606, 54.2194851 ], [ 16.2637819, 54.2195044 ], [ 16.2628168, 54.2197404 ], [ 16.2629197, 54.2199029 ], [ 16.2616097, 54.2202661 ], [ 16.2614232, 54.2203664 ], [ 16.2613329, 54.2204164 ], [ 16.261283, 54.2206063 ], [ 16.2612237, 54.221118 ], [ 16.2612022, 54.221316 ], [ 16.2614912, 54.2217097 ], [ 16.260726, 54.2217135 ], [ 16.2601287, 54.2216168 ], [ 16.2600103, 54.2215962 ], [ 16.2595131, 54.2215101 ], [ 16.2589725, 54.2215133 ], [ 16.2590014, 54.22157 ], [ 16.2586925, 54.2216181 ], [ 16.2581112, 54.2217085 ], [ 16.2579244, 54.2217376 ], [ 16.2573523, 54.2218946 ], [ 16.2573348, 54.2218993 ], [ 16.2569683, 54.2220538 ], [ 16.2567429, 54.2222056 ], [ 16.2566607, 54.2222617 ], [ 16.2566277, 54.2222841 ], [ 16.2565904, 54.2223093 ], [ 16.2562075, 54.2225416 ], [ 16.2561443, 54.2225595 ], [ 16.2555582, 54.2227247 ], [ 16.2555001, 54.2227414 ], [ 16.2547794, 54.2228936 ], [ 16.2545141, 54.2228709 ], [ 16.2541528, 54.2228404 ], [ 16.2534291, 54.2227801 ], [ 16.2526963, 54.2227201 ], [ 16.251892, 54.2228213 ], [ 16.2518242, 54.2228297 ], [ 16.2512029, 54.2229078 ], [ 16.2507966, 54.2229602 ], [ 16.2504896, 54.2229998 ], [ 16.2493779, 54.2231433 ], [ 16.2493558, 54.2231763 ], [ 16.2491648, 54.2234977 ], [ 16.2489477, 54.2238767 ], [ 16.2487701, 54.2241839 ], [ 16.2482273, 54.2246169 ], [ 16.2478248, 54.2249436 ], [ 16.2476504, 54.2250432 ], [ 16.2472345, 54.2252766 ], [ 16.2469932, 54.2254072 ], [ 16.2465645, 54.2250875 ], [ 16.2463213, 54.2252128 ], [ 16.2462404, 54.2252071 ], [ 16.2459037, 54.2251835 ], [ 16.2454649, 54.2251619 ], [ 16.2449706, 54.2251004 ], [ 16.2443615, 54.224864 ], [ 16.2437558, 54.2246107 ], [ 16.2432573, 54.224474 ], [ 16.2431876, 54.2244549 ], [ 16.2431614, 54.224451 ], [ 16.242385, 54.2243367 ], [ 16.2420456, 54.2243099 ], [ 16.2416985, 54.224303 ], [ 16.2411236, 54.2243674 ], [ 16.2405026, 54.2243071 ], [ 16.2398023, 54.2243044 ], [ 16.2385179, 54.2243393 ], [ 16.2377316, 54.2243526 ], [ 16.237525, 54.2243562 ], [ 16.2364971, 54.2243648 ], [ 16.235869, 54.2243939 ], [ 16.2354478, 54.2244133 ], [ 16.2345883, 54.2244268 ], [ 16.2334941, 54.2244202 ], [ 16.2326069, 54.2244148 ], [ 16.2317572, 54.2244188 ], [ 16.2311308, 54.2243894 ], [ 16.2302611, 54.224335 ], [ 16.2294774, 54.2244174 ], [ 16.2285302, 54.2244719 ], [ 16.2272267, 54.2244069 ], [ 16.2263163, 54.2246079 ], [ 16.2263721, 54.2247489 ], [ 16.226402, 54.2248244 ], [ 16.2266598, 54.2250056 ], [ 16.2267784, 54.2251029 ], [ 16.2268688, 54.2252089 ], [ 16.2269305, 54.2253396 ], [ 16.2270632, 54.2255533 ], [ 16.2271125, 54.2257939 ], [ 16.2271168, 54.2259528 ], [ 16.2270436, 54.226004 ], [ 16.2269469, 54.2260479 ], [ 16.2267515, 54.2264389 ], [ 16.2259002, 54.22631 ], [ 16.225297, 54.2262426 ], [ 16.22451, 54.2261247 ], [ 16.2238255, 54.2260232 ], [ 16.2234136, 54.2259669 ], [ 16.2229336, 54.2259012 ], [ 16.2228469, 54.2258891 ], [ 16.222633, 54.2258591 ], [ 16.2217659, 54.2257374 ], [ 16.2209681, 54.2256593 ], [ 16.2207713, 54.2256401 ], [ 16.2203171, 54.2258692 ], [ 16.2198219, 54.2260824 ], [ 16.2192999, 54.2262423 ], [ 16.219275, 54.226253 ], [ 16.2181294, 54.2266936 ], [ 16.2173497, 54.2270857 ], [ 16.2174708, 54.2271381 ], [ 16.2179296, 54.227317 ], [ 16.2177222, 54.2275257 ], [ 16.218072, 54.2276392 ], [ 16.2180422, 54.2276876 ], [ 16.2180104, 54.2277389 ], [ 16.2177136, 54.2281161 ], [ 16.2174773, 54.2283892 ], [ 16.2173965, 54.2284565 ], [ 16.2171378, 54.2286722 ], [ 16.216692, 54.2289947 ], [ 16.2164069, 54.2288971 ], [ 16.2161642, 54.2288142 ], [ 16.2158323, 54.2283874 ], [ 16.2155865, 54.2281411 ], [ 16.2151471, 54.2276566 ], [ 16.2150782, 54.2275762 ], [ 16.2145931, 54.2270101 ], [ 16.2139947, 54.2266924 ], [ 16.2134618, 54.2264094 ], [ 16.2131415, 54.2262548 ], [ 16.2127032, 54.2260378 ], [ 16.2126213, 54.2259972 ], [ 16.2125275, 54.2259508 ], [ 16.2119928, 54.225685 ], [ 16.2114315, 54.2254066 ], [ 16.2113732, 54.2253776 ], [ 16.2112672, 54.2253256 ], [ 16.2111516, 54.2252688 ], [ 16.2103289, 54.2243105 ], [ 16.2098394, 54.2237528 ], [ 16.2096954, 54.2235942 ], [ 16.209304, 54.2231634 ], [ 16.2091416, 54.2229845 ], [ 16.2090868, 54.2229226 ], [ 16.2088705, 54.2226783 ], [ 16.2086877, 54.2224718 ], [ 16.2085971, 54.2223698 ], [ 16.2084999, 54.2222601 ], [ 16.208092, 54.2220745 ], [ 16.2080215, 54.2220391 ], [ 16.2070398, 54.2215972 ], [ 16.2069927, 54.2215757 ], [ 16.2069045, 54.2215353 ], [ 16.2063258, 54.2214296 ], [ 16.2056495, 54.2213068 ], [ 16.2054, 54.2212615 ], [ 16.2048989, 54.2206682 ], [ 16.2048546, 54.2206158 ], [ 16.2052827, 54.220048 ], [ 16.2047489, 54.2199009 ], [ 16.2042507, 54.2197318 ], [ 16.2039311, 54.2196234 ], [ 16.2035137, 54.2194738 ], [ 16.2025114, 54.2191147 ], [ 16.2024438, 54.2190905 ], [ 16.2017559, 54.2188432 ], [ 16.201607, 54.2187901 ], [ 16.2012299, 54.2186558 ], [ 16.2010737, 54.2186002 ], [ 16.2007141, 54.2184734 ], [ 16.2002851, 54.2183221 ], [ 16.1998475, 54.2181516 ], [ 16.1995716, 54.218044 ], [ 16.1989226, 54.2178055 ], [ 16.1988121, 54.2177649 ], [ 16.1979836, 54.2174683 ], [ 16.1976756, 54.2173582 ], [ 16.1976013, 54.2173279 ], [ 16.1972342, 54.2171784 ], [ 16.1971563, 54.2171467 ], [ 16.1963448, 54.21686 ], [ 16.1961712, 54.2167984 ], [ 16.1959859, 54.2167268 ], [ 16.1954778, 54.2165303 ], [ 16.1954655, 54.2165184 ], [ 16.1954188, 54.2164735 ], [ 16.195339, 54.2163967 ], [ 16.1942975, 54.2159945 ], [ 16.1942325, 54.2159694 ], [ 16.1935054, 54.2156886 ], [ 16.1927581, 54.2154001 ], [ 16.1925334, 54.2155498 ], [ 16.1916424, 54.2161439 ], [ 16.1911135, 54.2164969 ], [ 16.1901122, 54.2171619 ], [ 16.190092, 54.2171755 ], [ 16.1899898, 54.2173051 ], [ 16.1894629, 54.2180161 ], [ 16.1889416, 54.2187158 ], [ 16.1884149, 54.2194133 ], [ 16.1879426, 54.2200367 ], [ 16.1876823, 54.2203805 ], [ 16.1872997, 54.2208869 ], [ 16.1872748, 54.2209197 ], [ 16.187129, 54.2211129 ], [ 16.1865946, 54.221819 ], [ 16.1860681, 54.2225143 ], [ 16.185671, 54.2230449 ], [ 16.1855274, 54.2232366 ], [ 16.1852956, 54.2235474 ], [ 16.1852928, 54.223551 ], [ 16.1852606, 54.2235944 ], [ 16.1849545, 54.2240049 ], [ 16.1844277, 54.2247059 ], [ 16.1842917, 54.2248891 ], [ 16.1842671, 54.2249223 ], [ 16.1839214, 54.2253876 ], [ 16.1836403, 54.2257635 ], [ 16.1836157, 54.2257964 ], [ 16.1831678, 54.2263947 ], [ 16.1829984, 54.2266208 ], [ 16.1829632, 54.2266677 ], [ 16.1829077, 54.226742 ], [ 16.1828384, 54.2268346 ], [ 16.1826542, 54.2270806 ], [ 16.1821258, 54.2277894 ], [ 16.1819693, 54.2279978 ], [ 16.1819444, 54.2280309 ], [ 16.1815672, 54.2285344 ], [ 16.1810341, 54.2292477 ], [ 16.18101, 54.2292798 ], [ 16.1809851, 54.2293131 ], [ 16.1801863, 54.2303751 ], [ 16.1806954, 54.2303174 ], [ 16.1816349, 54.2302109 ], [ 16.1830533, 54.2300491 ], [ 16.1844268, 54.2298911 ], [ 16.1845645, 54.2298755 ], [ 16.1857252, 54.2297434 ], [ 16.1870351, 54.2295932 ], [ 16.1870791, 54.2295882 ], [ 16.1883899, 54.2294376 ], [ 16.1895455, 54.2293044 ], [ 16.1903693, 54.2292098 ], [ 16.1903057, 54.2293844 ], [ 16.1898848, 54.2299761 ], [ 16.189291, 54.2308081 ], [ 16.1886932, 54.2316512 ], [ 16.1881764, 54.2323788 ], [ 16.1877214, 54.2330124 ], [ 16.1872509, 54.2336672 ], [ 16.1869318, 54.2341215 ], [ 16.1867567, 54.2343603 ], [ 16.187703, 54.234535 ], [ 16.1877308, 54.2345402 ], [ 16.187804, 54.2345537 ], [ 16.187967, 54.2342856 ], [ 16.1880459, 54.2342028 ], [ 16.1882138, 54.2341682 ], [ 16.1893508, 54.2340776 ], [ 16.1899645, 54.2339707 ], [ 16.1908052, 54.2338971 ], [ 16.1910519, 54.2338996 ], [ 16.1912335, 54.2339162 ], [ 16.1927849, 54.2345804 ], [ 16.1934299, 54.2349865 ], [ 16.1942444, 54.2353173 ], [ 16.1952182, 54.235698 ], [ 16.1953116, 54.2357345 ], [ 16.1961516, 54.2359113 ], [ 16.1953032, 54.236763 ], [ 16.1928834, 54.2392115 ], [ 16.1933669, 54.2395038 ], [ 16.1934638, 54.2395622 ], [ 16.1935836, 54.2396349 ], [ 16.1937578, 54.2397403 ], [ 16.1955294, 54.2404015 ], [ 16.1973656, 54.2412984 ], [ 16.1973152, 54.241359 ], [ 16.197253, 54.2414337 ], [ 16.1964947, 54.2424167 ], [ 16.1964853, 54.2424291 ], [ 16.1963525, 54.2426009 ], [ 16.1966396, 54.2426357 ], [ 16.1977367, 54.2428127 ], [ 16.1983691, 54.2428221 ], [ 16.1985786, 54.242743 ], [ 16.2011699, 54.2426581 ], [ 16.2018375, 54.242589 ], [ 16.2022925, 54.2424461 ], [ 16.2030596, 54.242405 ], [ 16.2034315, 54.2423855 ], [ 16.2037781, 54.2424238 ], [ 16.2045797, 54.2425624 ], [ 16.2057893, 54.2426237 ], [ 16.2059992, 54.2427395 ], [ 16.2065562, 54.2430472 ], [ 16.2068278, 54.2431311 ], [ 16.206952, 54.2432319 ], [ 16.2071987, 54.2436221 ], [ 16.2074855, 54.2443892 ], [ 16.20761, 54.2447919 ], [ 16.2076356, 54.244875 ], [ 16.204938, 54.2455499 ], [ 16.2048046, 54.2455935 ], [ 16.2047029, 54.2456746 ], [ 16.204663, 54.2457481 ], [ 16.204247, 54.2483099 ], [ 16.2040933, 54.2492446 ], [ 16.2039943, 54.2504912 ], [ 16.2039014, 54.2505989 ], [ 16.2030376, 54.251488 ], [ 16.2021292, 54.2520895 ], [ 16.2014316, 54.2525518 ], [ 16.1990206, 54.2535179 ], [ 16.1987878, 54.2536331 ], [ 16.1985793, 54.2538489 ], [ 16.1978061, 54.2550233 ], [ 16.197169, 54.2559968 ], [ 16.1971607, 54.2569605 ], [ 16.1970915, 54.2570977 ], [ 16.1969198, 54.2572638 ], [ 16.1968132, 54.2573376 ], [ 16.1965792, 54.2574625 ], [ 16.1959361, 54.2577315 ], [ 16.1958903, 54.2577538 ], [ 16.1956879, 54.2590269 ], [ 16.1955517, 54.2598372 ], [ 16.1954314, 54.260553 ], [ 16.1954724, 54.260561 ], [ 16.1954545, 54.2605935 ], [ 16.1941093, 54.2630184 ], [ 16.194058, 54.2631371 ], [ 16.1940264, 54.2631795 ], [ 16.1935233, 54.2641554 ], [ 16.1935348, 54.2643727 ], [ 16.1935909, 54.2645138 ], [ 16.1936076, 54.2645443 ], [ 16.1939542, 54.2650116 ], [ 16.1940665, 54.2651699 ], [ 16.1941341, 54.2654467 ], [ 16.1941924, 54.2658455 ], [ 16.1941622, 54.265938 ], [ 16.1941489, 54.2659789 ], [ 16.1939537, 54.2663376 ], [ 16.1937657, 54.2666831 ], [ 16.1937335, 54.2667426 ], [ 16.1936301, 54.2669964 ], [ 16.1929823, 54.2681524 ], [ 16.1923485, 54.2692926 ], [ 16.1921895, 54.2696977 ], [ 16.1919382, 54.2702094 ], [ 16.1918974, 54.2702793 ], [ 16.1917403, 54.2707877 ], [ 16.1917665, 54.2709189 ], [ 16.1918516, 54.2713471 ], [ 16.1918795, 54.2714876 ], [ 16.1919273, 54.2717813 ], [ 16.192, 54.2722285 ], [ 16.1920756, 54.2726918 ], [ 16.1921905, 54.2728602 ], [ 16.1918202, 54.2730657 ], [ 16.1917268, 54.2733421 ], [ 16.1916826, 54.27354 ], [ 16.1916934, 54.2736526 ], [ 16.1916973, 54.2736919 ], [ 16.1915441, 54.2737029 ], [ 16.1914953, 54.2737103 ], [ 16.1914115, 54.2737217 ], [ 16.1912543, 54.2737467 ], [ 16.1899923, 54.2741678 ], [ 16.1885886, 54.2744514 ], [ 16.1875268, 54.2746655 ], [ 16.1866601, 54.2746174 ], [ 16.1866819, 54.2746633 ], [ 16.1868239, 54.2749637 ], [ 16.1851994, 54.275334 ], [ 16.1840293, 54.2756008 ], [ 16.1826737, 54.2759099 ], [ 16.1822902, 54.2759967 ], [ 16.1814965, 54.2761792 ], [ 16.1807619, 54.2763479 ], [ 16.1806022, 54.2763848 ], [ 16.1798796, 54.2765505 ], [ 16.1796781, 54.2765974 ], [ 16.179186, 54.2766678 ], [ 16.1788464, 54.276717 ], [ 16.178622, 54.2767496 ], [ 16.1783974, 54.2767821 ], [ 16.1783221, 54.2767929 ], [ 16.177683, 54.2768855 ], [ 16.17722, 54.276942 ], [ 16.1768206, 54.2769908 ], [ 16.1767145, 54.276504 ], [ 16.1766804, 54.2763483 ], [ 16.1766348, 54.2761384 ], [ 16.1765926, 54.2759458 ], [ 16.1761265, 54.2758807 ], [ 16.1758443, 54.2758414 ], [ 16.1755905, 54.2758054 ], [ 16.1749875, 54.2757208 ], [ 16.1746906, 54.2756791 ], [ 16.1743983, 54.275638 ], [ 16.1733574, 54.2754917 ], [ 16.1721934, 54.2753281 ], [ 16.1718349, 54.2752777 ], [ 16.1708649, 54.275139 ], [ 16.170171, 54.2750398 ], [ 16.1686707, 54.2748252 ], [ 16.1688587, 54.2737773 ], [ 16.1690291, 54.2736144 ], [ 16.1693494, 54.2733084 ], [ 16.1694341, 54.2733149 ], [ 16.169584, 54.2731386 ], [ 16.169741, 54.2729536 ], [ 16.1699215, 54.2727412 ], [ 16.1703452, 54.2723504 ], [ 16.1709946, 54.2717334 ], [ 16.1711486, 54.2715865 ], [ 16.1713883, 54.2713575 ], [ 16.1719983, 54.2706979 ], [ 16.1722458, 54.2678712 ], [ 16.1708802, 54.2666078 ], [ 16.1709992, 54.2644689 ], [ 16.1715126, 54.2630451 ], [ 16.1701424, 54.2617837 ], [ 16.166451, 54.2600856 ], [ 16.1667186, 54.2597829 ], [ 16.1667583, 54.259738 ], [ 16.1668118, 54.2596773 ], [ 16.1666566, 54.2596553 ], [ 16.1666301, 54.2596513 ], [ 16.1652678, 54.2594422 ], [ 16.1642527, 54.2593977 ], [ 16.1631749, 54.2593692 ], [ 16.1613973, 54.259313 ], [ 16.1596706, 54.2592687 ], [ 16.1591757, 54.2591779 ], [ 16.1584447, 54.2590412 ], [ 16.1578617, 54.2589286 ], [ 16.1572933, 54.25882 ], [ 16.1566901, 54.2585771 ], [ 16.155929, 54.2582734 ], [ 16.1556012, 54.2581367 ], [ 16.1532391, 54.2572653 ], [ 16.153312, 54.2571813 ], [ 16.1532113, 54.2570701 ], [ 16.1524785, 54.2564772 ], [ 16.1522089, 54.2563441 ], [ 16.1520276, 54.2560973 ], [ 16.1519452, 54.2559985 ], [ 16.1519168, 54.2559644 ], [ 16.1517149, 54.2557223 ], [ 16.1516828, 54.2556838 ], [ 16.1515813, 54.2555828 ], [ 16.1512969, 54.2553444 ], [ 16.1512435, 54.2552598 ], [ 16.151218, 54.2551677 ], [ 16.1510897, 54.2550888 ], [ 16.1508345, 54.2547798 ], [ 16.1507932, 54.25473 ], [ 16.1507016, 54.2546192 ], [ 16.1506358, 54.2545337 ], [ 16.150581, 54.2544874 ], [ 16.15052, 54.2544356 ], [ 16.1504837, 54.2543953 ], [ 16.1504237, 54.2543662 ], [ 16.1502984, 54.2542823 ], [ 16.1502478, 54.2542485 ], [ 16.1501973, 54.2542146 ], [ 16.1501274, 54.2541679 ], [ 16.1500875, 54.2541258 ], [ 16.1499811, 54.2540226 ], [ 16.14996, 54.2539884 ], [ 16.1499597, 54.2539783 ], [ 16.1499713, 54.2539144 ], [ 16.1499187, 54.2537956 ], [ 16.1496802, 54.2535161 ], [ 16.1494992, 54.253304 ], [ 16.1494785, 54.2533 ], [ 16.1492226, 54.2530964 ], [ 16.1489377, 54.2528237 ], [ 16.1488378, 54.2527749 ], [ 16.1485412, 54.2526297 ], [ 16.1484726, 54.2526078 ], [ 16.1483274, 54.2525834 ], [ 16.1478592, 54.2523235 ], [ 16.1477029, 54.2522367 ], [ 16.1475352, 54.2521721 ], [ 16.1471194, 54.2519452 ], [ 16.1470613, 54.2519192 ], [ 16.1466958, 54.2517561 ], [ 16.1465051, 54.2516689 ], [ 16.1464284, 54.2516172 ], [ 16.1463993, 54.2515977 ], [ 16.1462497, 54.2514834 ], [ 16.1461635, 54.2513844 ], [ 16.1461019, 54.2512609 ], [ 16.1460157, 54.251162 ], [ 16.1458704, 54.2510574 ], [ 16.1456688, 54.2509696 ], [ 16.145471, 54.2508913 ], [ 16.1454663, 54.2508755 ], [ 16.1454272, 54.2508069 ], [ 16.1453931, 54.2507915 ], [ 16.1449776, 54.2506056 ], [ 16.1445895, 54.2504319 ], [ 16.1442115, 54.2502627 ], [ 16.143829, 54.2500914 ], [ 16.1438083, 54.2500822 ], [ 16.1435689, 54.2499093 ], [ 16.1433275, 54.2497349 ], [ 16.1430863, 54.2495607 ], [ 16.1428411, 54.2493835 ], [ 16.1428185, 54.2493668 ], [ 16.1427961, 54.2493494 ], [ 16.1426213, 54.2493533 ], [ 16.1425291, 54.249164 ], [ 16.1422029, 54.2489486 ], [ 16.1417585, 54.2485954 ], [ 16.1415275, 54.2485841 ], [ 16.1404439, 54.2483522 ], [ 16.1399776, 54.2482622 ], [ 16.1393146, 54.2481874 ], [ 16.1393712, 54.2480114 ], [ 16.139294, 54.2478915 ], [ 16.1390638, 54.2477193 ], [ 16.1390193, 54.247686 ], [ 16.1388602, 54.2476793 ], [ 16.1381442, 54.2476492 ], [ 16.1372292, 54.2476107 ], [ 16.1371773, 54.2476085 ], [ 16.1360827, 54.247568 ], [ 16.1343111, 54.2475023 ], [ 16.1336167, 54.2474765 ], [ 16.133563, 54.2474746 ], [ 16.1335094, 54.2474726 ], [ 16.1330119, 54.24826 ], [ 16.1329973, 54.2483041 ], [ 16.1325284, 54.2500948 ], [ 16.1324813, 54.2501902 ], [ 16.1324574, 54.250215 ], [ 16.1324352, 54.2502307 ], [ 16.1323659, 54.2502229 ], [ 16.1317713, 54.2484179 ], [ 16.1311872, 54.246695 ], [ 16.130812, 54.2456882 ], [ 16.1304429, 54.2450136 ], [ 16.1294959, 54.2438358 ], [ 16.1293944, 54.2432369 ], [ 16.129263, 54.243048 ], [ 16.1289739, 54.2428471 ], [ 16.128875, 54.2427768 ], [ 16.1287914, 54.2427278 ], [ 16.1286415, 54.2425408 ], [ 16.1285623, 54.2423941 ], [ 16.1285153, 54.2422786 ], [ 16.1284881, 54.24217 ], [ 16.1284723, 54.2421148 ], [ 16.1284765, 54.2420135 ], [ 16.1285156, 54.2419081 ], [ 16.1286526, 54.2417153 ], [ 16.1287289, 54.2416457 ], [ 16.1287722, 54.2415955 ], [ 16.1288923, 54.2415181 ], [ 16.1290312, 54.2414287 ], [ 16.1298511, 54.2408006 ], [ 16.1299289, 54.2407218 ], [ 16.1303912, 54.2401292 ], [ 16.1305931, 54.239869 ], [ 16.1306993, 54.2398058 ], [ 16.1304918, 54.2396973 ], [ 16.1304504, 54.2396688 ], [ 16.130072, 54.2394074 ], [ 16.1305566, 54.2392557 ], [ 16.130706, 54.239177 ], [ 16.1307759, 54.2391305 ], [ 16.1312195, 54.2387927 ], [ 16.1312663, 54.2387772 ], [ 16.131579, 54.2386737 ], [ 16.1321174, 54.238587 ], [ 16.1324981, 54.2385258 ], [ 16.1325721, 54.2384232 ], [ 16.1325845, 54.2384057 ], [ 16.1327842, 54.2381284 ], [ 16.1329677, 54.2378734 ], [ 16.1331045, 54.2376834 ], [ 16.13317, 54.2375925 ], [ 16.1333145, 54.2373917 ], [ 16.1333983, 54.2373136 ], [ 16.1334846, 54.2372461 ], [ 16.1336962, 54.2370901 ], [ 16.1338743, 54.2369587 ], [ 16.1340489, 54.2368299 ], [ 16.1342299, 54.2366921 ], [ 16.1343537, 54.236598 ], [ 16.1346696, 54.2363576 ], [ 16.1349812, 54.2361205 ], [ 16.1353482, 54.2358409 ], [ 16.1355601, 54.2357038 ], [ 16.1357921, 54.2355538 ], [ 16.1358566, 54.2355178 ], [ 16.1359501, 54.2353165 ], [ 16.1360755, 54.2350454 ], [ 16.136207, 54.2347614 ], [ 16.1362548, 54.2346586 ], [ 16.1363445, 54.2344644 ], [ 16.136455, 54.2342261 ], [ 16.1366108, 54.2338899 ], [ 16.1367316, 54.2336293 ], [ 16.1368122, 54.2334832 ], [ 16.1366946, 54.2335285 ], [ 16.135933, 54.2334587 ], [ 16.1352847, 54.2336565 ], [ 16.134916, 54.2340755 ], [ 16.1344658, 54.2345083 ], [ 16.1335906, 54.2350518 ], [ 16.1320915, 54.2345901 ], [ 16.1312198, 54.234335 ], [ 16.1302566, 54.2340533 ], [ 16.130198, 54.2345087 ], [ 16.1299405, 54.2349096 ], [ 16.1296569, 54.2352282 ], [ 16.1289979, 54.2349296 ], [ 16.1290792, 54.2347225 ], [ 16.1288657, 54.2344691 ], [ 16.128721, 54.2342638 ], [ 16.1280884, 54.2337648 ], [ 16.1267672, 54.2331983 ], [ 16.1263003, 54.2332077 ], [ 16.1256525, 54.2329048 ], [ 16.1246767, 54.2323853 ], [ 16.1237074, 54.2318706 ], [ 16.1256313, 54.2314124 ], [ 16.1253724, 54.2312342 ], [ 16.1252814, 54.2309273 ], [ 16.1246712, 54.2304833 ], [ 16.1244071, 54.2302914 ], [ 16.1241177, 54.2300826 ], [ 16.1228392, 54.2293473 ], [ 16.1224883, 54.2290769 ], [ 16.1224474, 54.2290553 ], [ 16.1218251, 54.2287234 ], [ 16.121702, 54.2286627 ], [ 16.1212573, 54.228444 ], [ 16.120887, 54.2282245 ], [ 16.1207665, 54.2280933 ], [ 16.1205049, 54.2279372 ], [ 16.1198306, 54.2275345 ], [ 16.1194613, 54.2272679 ], [ 16.1191479, 54.2270387 ], [ 16.118083, 54.226615 ], [ 16.1178406, 54.2274916 ], [ 16.117625, 54.2281676 ], [ 16.1178513, 54.2284497 ], [ 16.1179616, 54.2286169 ], [ 16.1179464, 54.2287284 ], [ 16.1173749, 54.2286138 ], [ 16.1172648, 54.2285233 ], [ 16.1171621, 54.2283135 ], [ 16.1162437, 54.228231 ], [ 16.1154304, 54.2281951 ], [ 16.1155312, 54.227672 ], [ 16.1156406, 54.2270207 ], [ 16.1155302, 54.2267038 ], [ 16.1152924, 54.2264837 ], [ 16.114989, 54.2262028 ], [ 16.1153325, 54.2259329 ], [ 16.1159396, 54.2255688 ], [ 16.1155728, 54.2251145 ], [ 16.1150883, 54.2248543 ], [ 16.1145693, 54.2246666 ], [ 16.1140536, 54.2243803 ], [ 16.1136571, 54.2242615 ], [ 16.113374, 54.2241294 ], [ 16.1129417, 54.2238942 ], [ 16.1127703, 54.2239247 ], [ 16.1127606, 54.2242576 ], [ 16.112682, 54.2245691 ], [ 16.1125816, 54.2250222 ], [ 16.1122194, 54.2251309 ], [ 16.1119238, 54.2246566 ], [ 16.111649, 54.2243777 ], [ 16.1112339, 54.2238989 ], [ 16.11114, 54.2237866 ], [ 16.1106482, 54.2231988 ], [ 16.1102716, 54.2224019 ], [ 16.1101498, 54.2221726 ], [ 16.1099047, 54.2217113 ], [ 16.1103561, 54.2212095 ], [ 16.1103733, 54.2211929 ], [ 16.1104524, 54.2211169 ], [ 16.1109234, 54.2206645 ], [ 16.1112918, 54.2203684 ], [ 16.1113835, 54.2203848 ], [ 16.112039, 54.2200113 ], [ 16.1129164, 54.2196744 ], [ 16.1131785, 54.219376 ], [ 16.1132988, 54.2191526 ], [ 16.1134812, 54.2188428 ], [ 16.1136709, 54.2185411 ], [ 16.1140418, 54.2179509 ], [ 16.1140265, 54.2178885 ], [ 16.1139823, 54.2177094 ], [ 16.1139546, 54.2175973 ], [ 16.1132925, 54.2176639 ], [ 16.1131093, 54.2170436 ], [ 16.1132376, 54.2170315 ], [ 16.1137988, 54.2169641 ], [ 16.1138235, 54.2169595 ], [ 16.1147586, 54.2168652 ], [ 16.1147113, 54.216646 ], [ 16.1142251, 54.215973 ], [ 16.1140659, 54.2157804 ], [ 16.1138124, 54.2154744 ], [ 16.1137913, 54.2154486 ], [ 16.1134246, 54.2149844 ], [ 16.1132924, 54.2148171 ], [ 16.1130172, 54.2145321 ], [ 16.112791, 54.2142978 ], [ 16.1126691, 54.2141092 ], [ 16.1122497, 54.2134611 ], [ 16.1120255, 54.2132183 ], [ 16.1115403, 54.2129351 ], [ 16.1121595, 54.2123704 ], [ 16.1122531, 54.2122067 ], [ 16.1122996, 54.2121253 ], [ 16.112505, 54.2118206 ], [ 16.1127953, 54.2115322 ], [ 16.1131805, 54.211265 ], [ 16.1137212, 54.2109072 ], [ 16.1142392, 54.210602 ], [ 16.1142567, 54.2105917 ], [ 16.1147468, 54.2103009 ], [ 16.1148082, 54.2102645 ], [ 16.1152184, 54.210015 ], [ 16.1156838, 54.2093486 ], [ 16.1154828, 54.209074 ], [ 16.1153884, 54.2089085 ], [ 16.115274, 54.2087081 ], [ 16.1154347, 54.2082555 ], [ 16.1155521, 54.2080182 ], [ 16.1159398, 54.2070224 ], [ 16.1159182, 54.2068983 ], [ 16.1158804, 54.2064281 ], [ 16.1157385, 54.2055878 ], [ 16.1156255, 54.2047746 ], [ 16.1143941, 54.2040595 ], [ 16.1147979, 54.2035758 ], [ 16.1154347, 54.2028456 ], [ 16.1158856, 54.2023068 ], [ 16.1162183, 54.2019619 ], [ 16.1166291, 54.2016697 ], [ 16.1172141, 54.2012286 ], [ 16.1166974, 54.2009334 ], [ 16.1165646, 54.200806 ], [ 16.1165163, 54.2008173 ], [ 16.1162068, 54.2009039 ], [ 16.1157227, 54.2010047 ], [ 16.1140344, 54.2013388 ], [ 16.1138979, 54.2013004 ], [ 16.1124475, 54.201591 ], [ 16.112021, 54.2016764 ], [ 16.1118498, 54.2017788 ], [ 16.1107752, 54.2019864 ], [ 16.1098896, 54.2021669 ], [ 16.109212, 54.2022738 ], [ 16.1090925, 54.2023227 ], [ 16.109007, 54.2023463 ], [ 16.1081591, 54.2025803 ], [ 16.1079701, 54.2025648 ], [ 16.1076441, 54.2026275 ], [ 16.107621, 54.2020399 ], [ 16.1064382, 54.2000517 ], [ 16.1063454, 54.2000494 ], [ 16.1049355, 54.2000159 ], [ 16.1036355, 54.199969 ], [ 16.1018072, 54.1998296 ], [ 16.1003071, 54.1996827 ], [ 16.0992983, 54.1995838 ], [ 16.0965819, 54.1991812 ], [ 16.094301, 54.1989623 ], [ 16.0923011, 54.1985503 ], [ 16.0912772, 54.1981756 ], [ 16.0908584, 54.1980223 ], [ 16.0896642, 54.1975582 ], [ 16.088138, 54.1968966 ], [ 16.0874818, 54.1965653 ], [ 16.0861632, 54.1957285 ], [ 16.085793, 54.1957579 ], [ 16.0853408, 54.1958181 ], [ 16.0849107, 54.1958355 ], [ 16.0847965, 54.1958334 ], [ 16.084731, 54.1958144 ], [ 16.0845419, 54.1957688 ], [ 16.0842365, 54.1957136 ], [ 16.0839472, 54.1957214 ], [ 16.083624, 54.195756 ], [ 16.0833325, 54.1958177 ], [ 16.0830873, 54.1958526 ], [ 16.0830108, 54.1958613 ], [ 16.0827451, 54.1959093 ], [ 16.0824816, 54.1959432 ], [ 16.0821777, 54.1959858 ], [ 16.0816048, 54.1961121 ], [ 16.0815306, 54.1961239 ], [ 16.0811589, 54.1961236 ], [ 16.0809812, 54.1960428 ], [ 16.0808877, 54.1960195 ], [ 16.0805294, 54.1959305 ] ] ] } }
]
}
