{
"type": "FeatureCollection",
"name": "kramatorsk_ua",
"crs": { "type": "name", "properties": { "name": "urn:ogc:def:crs:OGC:1.3:CRS84" } },
"features": [
{ "type": "Feature", "properties": { }, "geometry": { "type": "Polygon", "coordinates": [ [ [ 37.4569748, 48.6953021 ], [ 37.4587704, 48.6951155 ], [ 37.459859, 48.6954141 ], [ 37.4608204, 48.6955074 ], [ 37.4630259, 48.6962633 ], [ 37.4649345, 48.6967672 ], [ 37.4661504, 48.6962913 ], [ 37.4683417, 48.6956194 ], [ 37.47001, 48.6954514 ], [ 37.4724135, 48.6963846 ], [ 37.4748876, 48.6962353 ], [ 37.4771638, 48.6967299 ], [ 37.47814, 48.69587 ], [ 37.4896204, 48.6980202 ], [ 37.49019, 48.6999435 ], [ 37.4939336, 48.7004741 ], [ 37.4942901, 48.6993053 ], [ 37.50852, 48.69776 ], [ 37.5192366, 48.6964092 ], [ 37.5210731, 48.6963159 ], [ 37.5214584, 48.6979391 ], [ 37.5319452, 48.6966024 ], [ 37.5344803, 48.7034285 ], [ 37.534943, 48.7035967 ], [ 37.5363656, 48.7077038 ], [ 37.5450068, 48.7098257 ], [ 37.5460127, 48.7055404 ], [ 37.5470926, 48.7043983 ], [ 37.547847, 48.7034806 ], [ 37.548202, 48.7030316 ], [ 37.5487789, 48.7016355 ], [ 37.5481576, 48.7007276 ], [ 37.546708, 48.7002687 ], [ 37.5441045, 48.6999758 ], [ 37.5427288, 48.6994486 ], [ 37.5425069, 48.6986773 ], [ 37.5430986, 48.6976717 ], [ 37.5441489, 48.6971347 ], [ 37.54921, 48.6973728 ], [ 37.5602274, 48.6927255 ], [ 37.5626058, 48.6923392 ], [ 37.5628037, 48.6923071 ], [ 37.5633836, 48.6896372 ], [ 37.5646029, 48.6897648 ], [ 37.564365, 48.6921696 ], [ 37.5720256, 48.6928962 ], [ 37.5724224, 48.6912943 ], [ 37.58388, 48.6854 ], [ 37.57908, 48.6763 ], [ 37.58715, 48.67733 ], [ 37.59144, 48.68814 ], [ 37.6082456, 48.6784942 ], [ 37.6046457, 48.6757027 ], [ 37.6068909, 48.673518 ], [ 37.6076248, 48.6718882 ], [ 37.6097044, 48.6707305 ], [ 37.6128777, 48.6731794 ], [ 37.6144643, 48.6724362 ], [ 37.6166228, 48.6741296 ], [ 37.6201211, 48.6725998 ], [ 37.6216226, 48.6738251 ], [ 37.6244453, 48.6742393 ], [ 37.6256193, 48.6755159 ], [ 37.621844, 48.678369 ], [ 37.6197592, 48.6794532 ], [ 37.6179512, 48.6799648 ], [ 37.6134648, 48.6814131 ], [ 37.6112098, 48.6797568 ], [ 37.5947, 48.68883 ], [ 37.59418, 48.69364 ], [ 37.5942514, 48.6936431 ], [ 37.5943388, 48.6936468 ], [ 37.5952467, 48.6936857 ], [ 37.5956311, 48.6937022 ], [ 37.5959615, 48.6937163 ], [ 37.6010742, 48.6939354 ], [ 37.60551, 48.69518 ], [ 37.612465, 48.7040114 ], [ 37.60689, 48.70411 ], [ 37.6038, 48.70067 ], [ 37.60294, 48.69999 ], [ 37.60191, 48.69999 ], [ 37.59968, 48.70033 ], [ 37.59848, 48.70188 ], [ 37.5954122, 48.7033485 ], [ 37.5980883, 48.7051389 ], [ 37.5953851, 48.7062149 ], [ 37.5933563, 48.7070641 ], [ 37.5931267, 48.7071602 ], [ 37.5897498, 48.7085856 ], [ 37.5896382, 48.7086327 ], [ 37.59006, 48.7096 ], [ 37.58886, 48.71063 ], [ 37.58886, 48.71149 ], [ 37.58955, 48.71218 ], [ 37.5900821, 48.7118919 ], [ 37.5912702, 48.7112485 ], [ 37.594932, 48.7143461 ], [ 37.6034202, 48.7113327 ], [ 37.6064786, 48.7142922 ], [ 37.6121774, 48.7125761 ], [ 37.61633, 48.71647 ], [ 37.6235746, 48.7125822 ], [ 37.62367, 48.712531 ], [ 37.6269474, 48.7155819 ], [ 37.6365696, 48.717396 ], [ 37.6383462, 48.717731 ], [ 37.6360845, 48.7197427 ], [ 37.6351094, 48.72061 ], [ 37.6345354, 48.7229838 ], [ 37.6326926, 48.7230196 ], [ 37.6320422, 48.7244498 ], [ 37.6263512, 48.726166 ], [ 37.6199965, 48.7313459 ], [ 37.6198213, 48.7321032 ], [ 37.6185748, 48.7374889 ], [ 37.6184851, 48.7378767 ], [ 37.6227011, 48.7429655 ], [ 37.623858, 48.7426814 ], [ 37.6270234, 48.7456053 ], [ 37.6251268, 48.7480823 ], [ 37.6251697, 48.7482238 ], [ 37.6256311, 48.7484714 ], [ 37.6257598, 48.7483582 ], [ 37.6269507, 48.7486624 ], [ 37.6278305, 48.7489878 ], [ 37.6281845, 48.7493557 ], [ 37.62797, 48.7496386 ], [ 37.6289356, 48.7496528 ], [ 37.6296759, 48.7498013 ], [ 37.6309848, 48.750438 ], [ 37.6312423, 48.7504521 ], [ 37.6312315, 48.7505936 ], [ 37.631489, 48.7554178 ], [ 37.6313925, 48.7555875 ], [ 37.6312745, 48.7557219 ], [ 37.6310491, 48.7557432 ], [ 37.6309097, 48.7557007 ], [ 37.6295686, 48.7554673 ], [ 37.6219296, 48.7539748 ], [ 37.621243, 48.7538121 ], [ 37.6227772, 48.7515344 ], [ 37.6228201, 48.7512798 ], [ 37.6226485, 48.7507634 ], [ 37.6220584, 48.7498791 ], [ 37.6103693, 48.7538511 ], [ 37.6101212, 48.7538304 ], [ 37.6096443, 48.7536949 ], [ 37.6093157, 48.7531163 ], [ 37.6089117, 48.7531859 ], [ 37.6088593, 48.7530372 ], [ 37.6087498, 48.7531227 ], [ 37.6085079, 48.7531614 ], [ 37.6084649, 48.7529138 ], [ 37.6081538, 48.7529633 ], [ 37.6077139, 48.7521286 ], [ 37.6071882, 48.7522135 ], [ 37.6068127, 48.7522277 ], [ 37.6062548, 48.7523055 ], [ 37.606287, 48.7527087 ], [ 37.6059008, 48.7528218 ], [ 37.6060402, 48.7530906 ], [ 37.6055896, 48.7531826 ], [ 37.604785, 48.7534655 ], [ 37.6021993, 48.7540526 ], [ 37.602092, 48.7540951 ], [ 37.6019418, 48.7540597 ], [ 37.6005147, 48.7550299 ], [ 37.5988412, 48.7561676 ], [ 37.5987124, 48.7561746 ], [ 37.5971997, 48.7572073 ], [ 37.5955152, 48.7578368 ], [ 37.595408, 48.7579004 ], [ 37.5950324, 48.7579924 ], [ 37.5949359, 48.7580914 ], [ 37.5945604, 48.7582258 ], [ 37.5928974, 48.7588977 ], [ 37.5928008, 48.7590179 ], [ 37.5929403, 48.7593009 ], [ 37.5932944, 48.759315 ], [ 37.5935733, 48.7594352 ], [ 37.5936699, 48.7595908 ], [ 37.5938737, 48.7597181 ], [ 37.5942171, 48.7599162 ], [ 37.5948393, 48.7614721 ], [ 37.5949573, 48.7615358 ], [ 37.5952148, 48.7621723 ], [ 37.5952041, 48.7622784 ], [ 37.595247, 48.7623915 ], [ 37.5955582, 48.7631483 ], [ 37.5963092, 48.7647607 ], [ 37.5918352, 48.7656588 ], [ 37.5918652, 48.7657087 ], [ 37.5923824, 48.766564 ], [ 37.5926506, 48.7669247 ], [ 37.5926077, 48.7670024 ], [ 37.5928438, 48.7674267 ], [ 37.592361, 48.7675328 ], [ 37.5922, 48.7675045 ], [ 37.5888741, 48.7682612 ], [ 37.5897939, 48.7705045 ], [ 37.5906165, 48.7725666 ], [ 37.5886543, 48.7743268 ], [ 37.5876239, 48.7763288 ], [ 37.5871265, 48.7771248 ], [ 37.5851901, 48.777956 ], [ 37.5839111, 48.7783775 ], [ 37.5827386, 48.7791735 ], [ 37.5804114, 48.7801568 ], [ 37.5766274, 48.7818308 ], [ 37.5760412, 48.7824278 ], [ 37.5757392, 48.7825682 ], [ 37.5747799, 48.7829428 ], [ 37.5741773, 48.7829663 ], [ 37.5733314, 48.7832953 ], [ 37.5719386, 48.7838371 ], [ 37.5699426, 48.7827175 ], [ 37.5641166, 48.7826108 ], [ 37.5611426, 48.7813456 ], [ 37.5605238, 48.7809033 ], [ 37.5601138, 48.7792255 ], [ 37.5601891, 48.7784042 ], [ 37.5607607, 48.7780117 ], [ 37.5629922, 48.7771068 ], [ 37.5638791, 48.7764846 ], [ 37.564518, 48.7758499 ], [ 37.5649824, 48.7752633 ], [ 37.565977, 48.774505 ], [ 37.5669116, 48.7740525 ], [ 37.5682276, 48.7732795 ], [ 37.568759, 48.7727744 ], [ 37.5690286, 48.7723557 ], [ 37.5685873, 48.7716431 ], [ 37.5671347, 48.7711256 ], [ 37.5614759, 48.7697725 ], [ 37.5605319, 48.7692697 ], [ 37.5600264, 48.7687166 ], [ 37.5598357, 48.7680441 ], [ 37.5598834, 48.7674721 ], [ 37.560427, 48.7661521 ], [ 37.5610087, 48.764235 ], [ 37.5611994, 48.7633801 ], [ 37.5613424, 48.7622486 ], [ 37.5615236, 48.7617017 ], [ 37.5619718, 48.7613183 ], [ 37.5623533, 48.7610857 ], [ 37.5641842, 48.7605513 ], [ 37.5646772, 48.760204 ], [ 37.5647755, 48.7599101 ], [ 37.5646706, 48.7593443 ], [ 37.5635945, 48.7572847 ], [ 37.5635262, 48.7570372 ], [ 37.5636693, 48.7557798 ], [ 37.563612, 48.755434 ], [ 37.5628301, 48.7546293 ], [ 37.5618574, 48.7538685 ], [ 37.5608199, 48.7532171 ], [ 37.5602172, 48.7527243 ], [ 37.5593017, 48.7518 ], [ 37.5582146, 48.750574 ], [ 37.5577568, 48.7501778 ], [ 37.5568434, 48.7490942 ], [ 37.5566325, 48.7488878 ], [ 37.5539338, 48.7441329 ], [ 37.552675, 48.7436298 ], [ 37.5485224, 48.737828 ], [ 37.5470119, 48.7382371 ], [ 37.5455015, 48.7394823 ], [ 37.5424999, 48.7406186 ], [ 37.5420953, 48.7400761 ], [ 37.5412996, 48.7402273 ], [ 37.5401097, 48.739296 ], [ 37.5399915, 48.7385641 ], [ 37.5396004, 48.7381728 ], [ 37.5399106, 48.7376035 ], [ 37.5390475, 48.7365629 ], [ 37.5386294, 48.7367942 ], [ 37.5374696, 48.7381728 ], [ 37.5369031, 48.738742 ], [ 37.53604, 48.7392934 ], [ 37.5342742, 48.7398807 ], [ 37.5326626, 48.7404098 ], [ 37.5311994, 48.7406544 ], [ 37.5280976, 48.7413214 ], [ 37.5260075, 48.7418263 ], [ 37.5252627, 48.7421495 ], [ 37.5241402, 48.7410735 ], [ 37.5231221, 48.7400709 ], [ 37.5228113, 48.7397074 ], [ 37.5226664, 48.7393392 ], [ 37.5225061, 48.7393314 ], [ 37.5222068, 48.7392975 ], [ 37.5218146, 48.7392443 ], [ 37.5212979, 48.7392057 ], [ 37.5205465, 48.7391533 ], [ 37.5201116, 48.7391074 ], [ 37.51959, 48.7391324 ], [ 37.5187604, 48.7393112 ], [ 37.5178955, 48.7396101 ], [ 37.5169365, 48.7398977 ], [ 37.5163855, 48.7400645 ], [ 37.5158614, 48.7402224 ], [ 37.5155157, 48.7403264 ], [ 37.5135282, 48.7387339 ], [ 37.5130742, 48.7383348 ], [ 37.5124185, 48.7389003 ], [ 37.5101824, 48.7390555 ], [ 37.5090559, 48.7389779 ], [ 37.5091399, 48.737736 ], [ 37.5095603, 48.7376251 ], [ 37.5105356, 48.7294234 ], [ 37.510939, 48.7293635 ], [ 37.511023, 48.7290198 ], [ 37.5111407, 48.7285983 ], [ 37.5110062, 48.7282102 ], [ 37.5102496, 48.7282212 ], [ 37.5086187, 48.7280992 ], [ 37.508501, 48.7291972 ], [ 37.50708, 48.7291548 ], [ 37.5067454, 48.7271678 ], [ 37.5080718, 48.7264927 ], [ 37.506433, 48.7262915 ], [ 37.5063658, 48.7254596 ], [ 37.5065339, 48.725382 ], [ 37.5065507, 48.7251824 ], [ 37.5062313, 48.7250493 ], [ 37.5062649, 48.7247942 ], [ 37.5052311, 48.7244357 ], [ 37.5054747, 48.7219547 ], [ 37.4912704, 48.7205399 ], [ 37.4915534, 48.7181057 ], [ 37.4929321, 48.7182166 ], [ 37.4936214, 48.7123482 ], [ 37.4975389, 48.7127698 ], [ 37.4977742, 48.7110502 ], [ 37.4971522, 48.7108949 ], [ 37.4973539, 48.7101072 ], [ 37.4950169, 48.7099741 ], [ 37.4921923, 48.7102958 ], [ 37.4918896, 48.7122151 ], [ 37.4910658, 48.7118712 ], [ 37.4859546, 48.7113054 ], [ 37.4863077, 48.710196 ], [ 37.4868793, 48.7092307 ], [ 37.4889137, 48.708565 ], [ 37.4904437, 48.7073224 ], [ 37.4923268, 48.7074001 ], [ 37.4924949, 48.7076996 ], [ 37.4975893, 48.7082211 ], [ 37.4977742, 48.7071338 ], [ 37.4943948, 48.7067122 ], [ 37.4945125, 48.7062129 ], [ 37.4918934, 48.7055894 ], [ 37.491856, 48.7055805 ], [ 37.4916038, 48.7042934 ], [ 37.490522, 48.70382 ], [ 37.4865236, 48.7020701 ], [ 37.4862828, 48.7019647 ], [ 37.4843318, 48.7034016 ], [ 37.4820371, 48.7030284 ], [ 37.4772911, 48.702114 ], [ 37.4770931, 48.7012742 ], [ 37.4716076, 48.7013675 ], [ 37.47042, 48.7019647 ], [ 37.4658393, 48.7012182 ], [ 37.4659242, 48.7003411 ], [ 37.4623048, 48.6986988 ], [ 37.4570738, 48.6972711 ], [ 37.4569748, 48.6953021 ] ] ] } }
]
}
