{
"type": "FeatureCollection",
"name": "kryvyi-rih_ua",
"crs": { "type": "name", "properties": { "name": "urn:ogc:def:crs:OGC:1.3:CRS84" } },
"features": [
{ "type": "Feature", "properties": { }, "geometry": { "type": "Polygon", "coordinates": [ [ [ 33.1543858, 47.6984215 ], [ 33.1548511, 47.6978996 ], [ 33.1594564, 47.6927334 ], [ 33.1648791, 47.6889246 ], [ 33.1687626, 47.6874135 ], [ 33.1709065, 47.6896756 ], [ 33.1738405, 47.6913321 ], [ 33.1757995, 47.6960185 ], [ 33.1769691, 47.6958107 ], [ 33.1777438, 47.6990289 ], [ 33.1796337, 47.6996637 ], [ 33.1796509, 47.7020123 ], [ 33.17831, 47.7018503 ], [ 33.1776223, 47.703551 ], [ 33.1768865, 47.7042017 ], [ 33.1888654, 47.7034238 ], [ 33.1935737, 47.705492 ], [ 33.1997724, 47.7091954 ], [ 33.2017175, 47.7112182 ], [ 33.203132, 47.7118527 ], [ 33.2056717, 47.7126159 ], [ 33.2063745, 47.7157367 ], [ 33.2078757, 47.7202495 ], [ 33.2077874, 47.7202844 ], [ 33.2076935, 47.7203412 ], [ 33.2076184, 47.7204242 ], [ 33.2076064, 47.7205072 ], [ 33.2076211, 47.7205839 ], [ 33.207664, 47.7206769 ], [ 33.20777, 47.7208465 ], [ 33.2078277, 47.720971 ], [ 33.2080275, 47.7214735 ], [ 33.2084486, 47.7229513 ], [ 33.2084995, 47.723222 ], [ 33.2084566, 47.7233844 ], [ 33.2083601, 47.7235413 ], [ 33.2082018, 47.7236857 ], [ 33.2078424, 47.7237741 ], [ 33.2075179, 47.7238102 ], [ 33.2071424, 47.7237831 ], [ 33.2068232, 47.7237019 ], [ 33.206673, 47.7236334 ], [ 33.2061151, 47.7235016 ], [ 33.2054231, 47.7232707 ], [ 33.2044172, 47.7233266 ], [ 33.2039317, 47.723913 ], [ 33.2037386, 47.724716 ], [ 33.2037038, 47.7251941 ], [ 33.2040229, 47.7257733 ], [ 33.2047364, 47.726062 ], [ 33.2061365, 47.7261341 ], [ 33.2069177, 47.726155 ], [ 33.2133777, 47.7278469 ], [ 33.2139122, 47.7277778 ], [ 33.2142502, 47.7277164 ], [ 33.2145479, 47.7276028 ], [ 33.2155269, 47.7271535 ], [ 33.2159092, 47.7269956 ], [ 33.2165153, 47.7268215 ], [ 33.2171007, 47.7267422 ], [ 33.2176372, 47.7267047 ], [ 33.2178973, 47.7267205 ], [ 33.2180878, 47.7268103 ], [ 33.2181984, 47.726937 ], [ 33.2182588, 47.7271102 ], [ 33.2184224, 47.7277778 ], [ 33.2184814, 47.7278824 ], [ 33.2185699, 47.7279383 ], [ 33.2187644, 47.7279474 ], [ 33.2192364, 47.7279257 ], [ 33.2195382, 47.7279609 ], [ 33.2198212, 47.7280331 ], [ 33.2200572, 47.7282108 ], [ 33.2212159, 47.7294818 ], [ 33.2218972, 47.7301538 ], [ 33.2219911, 47.7302062 ], [ 33.2221359, 47.7302188 ], [ 33.2232517, 47.7301385 ], [ 33.2234837, 47.7301548 ], [ 33.2237399, 47.7302098 ], [ 33.2238579, 47.7303198 ], [ 33.2239196, 47.7306554 ], [ 33.2239276, 47.7313175 ], [ 33.2239383, 47.7325406 ], [ 33.2239652, 47.7331865 ], [ 33.2239196, 47.7334156 ], [ 33.2239035, 47.7336898 ], [ 33.2246044, 47.7339396 ], [ 33.2253277, 47.7356724 ], [ 33.2262962, 47.7370166 ], [ 33.22676, 47.7376602 ], [ 33.2275965, 47.7373469 ], [ 33.2290014, 47.7391724 ], [ 33.2299684, 47.7388246 ], [ 33.2313898, 47.7406934 ], [ 33.2332742, 47.7403974 ], [ 33.2334092, 47.7395505 ], [ 33.2353432, 47.739732 ], [ 33.2369604, 47.7394107 ], [ 33.2383117, 47.7391422 ], [ 33.2380193, 47.7387641 ], [ 33.2372997, 47.738386 ], [ 33.236715, 47.7380381 ], [ 33.2364226, 47.7375542 ], [ 33.2362427, 47.7369794 ], [ 33.2359504, 47.7365106 ], [ 33.2354332, 47.7362081 ], [ 33.2346685, 47.7359056 ], [ 33.2339489, 47.7355728 ], [ 33.2331393, 47.7348771 ], [ 33.2326895, 47.7341813 ], [ 33.2323747, 47.7334705 ], [ 33.2321948, 47.7328201 ], [ 33.2321273, 47.7320033 ], [ 33.2322173, 47.7313982 ], [ 33.2324647, 47.7308083 ], [ 33.2336786, 47.7299975 ], [ 33.2321638, 47.7250752 ], [ 33.2321062, 47.7225125 ], [ 33.2287203, 47.7215768 ], [ 33.2278418, 47.7204657 ], [ 33.227414, 47.7192492 ], [ 33.2458541, 47.7163335 ], [ 33.2542924, 47.714031 ], [ 33.2698383, 47.7132295 ], [ 33.2718772, 47.721283 ], [ 33.279326, 47.7324105 ], [ 33.2824027, 47.7372349 ], [ 33.282919, 47.7383286 ], [ 33.2830633, 47.7389772 ], [ 33.2828296, 47.7397477 ], [ 33.2822749, 47.7404568 ], [ 33.2818047, 47.7409784 ], [ 33.2777854, 47.7455222 ], [ 33.277232, 47.7462362 ], [ 33.276829, 47.746957 ], [ 33.2767906, 47.7476335 ], [ 33.2769379, 47.7483061 ], [ 33.2773459, 47.7489486 ], [ 33.2778313, 47.7494325 ], [ 33.283784, 47.7569571 ], [ 33.2842015, 47.7575006 ], [ 33.2998383, 47.7681867 ], [ 33.3073359, 47.7734299 ], [ 33.3087429, 47.7745019 ], [ 33.3095959, 47.7761609 ], [ 33.3096453, 47.776257 ], [ 33.3099428, 47.7768354 ], [ 33.3101074, 47.7771556 ], [ 33.3128392, 47.7836394 ], [ 33.3162539, 47.7912582 ], [ 33.3238356, 47.8081707 ], [ 33.3238188, 47.8131201 ], [ 33.3215637, 47.8171992 ], [ 33.3176178, 47.8176023 ], [ 33.3162864, 47.8157964 ], [ 33.3108278, 47.8155997 ], [ 33.3072308, 47.8157741 ], [ 33.3039934, 47.8147023 ], [ 33.3011851, 47.8118042 ], [ 33.2962793, 47.8075496 ], [ 33.2912888, 47.803474 ], [ 33.2914878, 47.798187 ], [ 33.2910946, 47.793293 ], [ 33.2883445, 47.7923805 ], [ 33.2852838, 47.7920205 ], [ 33.2804607, 47.7918121 ], [ 33.2764684, 47.7913311 ], [ 33.2726536, 47.790856 ], [ 33.2702442, 47.7909784 ], [ 33.267742, 47.7918254 ], [ 33.2655161, 47.7941918 ], [ 33.2637383, 47.7965884 ], [ 33.2625067, 47.7991154 ], [ 33.2618046, 47.8039265 ], [ 33.2615179, 47.8085513 ], [ 33.2612864, 47.8116216 ], [ 33.2615721, 47.8120455 ], [ 33.2594853, 47.8129533 ], [ 33.258351, 47.8121978 ], [ 33.2545541, 47.8079455 ], [ 33.2535403, 47.8063471 ], [ 33.2497876, 47.7983102 ], [ 33.2486744, 47.7957709 ], [ 33.2486847, 47.7944266 ], [ 33.2486251, 47.7933861 ], [ 33.2486578, 47.7930857 ], [ 33.2487341, 47.7926827 ], [ 33.2485339, 47.7921298 ], [ 33.2480353, 47.791688 ], [ 33.2480025, 47.7911164 ], [ 33.2468792, 47.7873207 ], [ 33.2413407, 47.7876785 ], [ 33.2401903, 47.788895 ], [ 33.2368715, 47.7900572 ], [ 33.2372635, 47.7933774 ], [ 33.2365477, 47.7939612 ], [ 33.2351503, 47.7950488 ], [ 33.2341448, 47.7961364 ], [ 33.2331905, 47.7974873 ], [ 33.2329008, 47.7987351 ], [ 33.233378, 47.8002003 ], [ 33.2336336, 47.8012305 ], [ 33.2347924, 47.8019059 ], [ 33.2355082, 47.8025813 ], [ 33.2359513, 47.8039434 ], [ 33.2361046, 47.8106276 ], [ 33.23549, 47.8111018 ], [ 33.2343561, 47.812458 ], [ 33.2333507, 47.8135795 ], [ 33.2318304, 47.8136151 ], [ 33.230589, 47.8138916 ], [ 33.2292436, 47.8142547 ], [ 33.2246424, 47.8176535 ], [ 33.2233473, 47.817848 ], [ 33.2206547, 47.81826 ], [ 33.2195811, 47.8196332 ], [ 33.219138, 47.8221734 ], [ 33.2193766, 47.8228142 ], [ 33.2286605, 47.8237402 ], [ 33.230722, 47.8217094 ], [ 33.2323785, 47.8211056 ], [ 33.234985, 47.8208702 ], [ 33.2366973, 47.820384 ], [ 33.238041, 47.8197811 ], [ 33.2385438, 47.8195238 ], [ 33.2388061, 47.8192687 ], [ 33.2391234, 47.8186682 ], [ 33.2376206, 47.8161563 ], [ 33.2363346, 47.8141697 ], [ 33.2349696, 47.8134537 ], [ 33.2360769, 47.8122067 ], [ 33.2374442, 47.8125575 ], [ 33.2391872, 47.8128075 ], [ 33.2533456, 47.8107902 ], [ 33.2553822, 47.8144159 ], [ 33.2566869, 47.8180814 ], [ 33.2619799, 47.8267061 ], [ 33.265467, 47.8295141 ], [ 33.269181, 47.8320274 ], [ 33.2679504, 47.8338492 ], [ 33.2651279, 47.8348501 ], [ 33.2593231, 47.8362264 ], [ 33.2560941, 47.8374934 ], [ 33.2550716, 47.8386372 ], [ 33.2577472, 47.8409592 ], [ 33.2610422, 47.8449476 ], [ 33.2627159, 47.8472013 ], [ 33.265694, 47.8587412 ], [ 33.2635204, 47.8617601 ], [ 33.2603694, 47.8633841 ], [ 33.2497319, 47.866881 ], [ 33.2434442, 47.8691933 ], [ 33.2339328, 47.8751782 ], [ 33.2281345, 47.8798287 ], [ 33.2261014, 47.8809602 ], [ 33.225234, 47.8820053 ], [ 33.2247628, 47.8828714 ], [ 33.2245708, 47.8836262 ], [ 33.2246106, 47.8843828 ], [ 33.2249082, 47.8849826 ], [ 33.2250921, 47.8861422 ], [ 33.2278181, 47.8867478 ], [ 33.2304561, 47.8874115 ], [ 33.2319917, 47.8879025 ], [ 33.2332382, 47.888148 ], [ 33.2347235, 47.8884906 ], [ 33.2369068, 47.8891094 ], [ 33.237344, 47.8894025 ], [ 33.2377893, 47.8901777 ], [ 33.2378161, 47.8903828 ], [ 33.2387093, 47.8904691 ], [ 33.2403213, 47.8917353 ], [ 33.2423812, 47.8936165 ], [ 33.2430169, 47.8941578 ], [ 33.24435, 47.8953843 ], [ 33.2449213, 47.8958483 ], [ 33.2454389, 47.8964831 ], [ 33.2463133, 47.8973499 ], [ 33.2469302, 47.8979847 ], [ 33.2481801, 47.8984379 ], [ 33.2495669, 47.8983695 ], [ 33.2512727, 47.8983066 ], [ 33.2534829, 47.8982473 ], [ 33.2546845, 47.8982886 ], [ 33.256318, 47.8984055 ], [ 33.2573721, 47.898517 ], [ 33.2586569, 47.8987274 ], [ 33.2623288, 47.8993658 ], [ 33.2646865, 47.8998567 ], [ 33.2651103, 47.9000006 ], [ 33.2654603, 47.9001435 ], [ 33.2655904, 47.9001309 ], [ 33.2656655, 47.900095 ], [ 33.2657433, 47.9000869 ], [ 33.2664782, 47.9001372 ], [ 33.2689753, 47.9005616 ], [ 33.2701233, 47.9008205 ], [ 33.2707912, 47.9010085 ], [ 33.2713518, 47.9012161 ], [ 33.2718909, 47.9014877 ], [ 33.2725266, 47.9018347 ], [ 33.2731301, 47.9021872 ], [ 33.2738154, 47.9025477 ], [ 33.274093, 47.9027104 ], [ 33.2745932, 47.9030521 ], [ 33.2748038, 47.903302 ], [ 33.274899, 47.9034144 ], [ 33.2749178, 47.9035618 ], [ 33.2748842, 47.9038127 ], [ 33.2751605, 47.9048088 ], [ 33.2754287, 47.9051702 ], [ 33.2756755, 47.9055028 ], [ 33.2764506, 47.9061915 ], [ 33.2773894, 47.9064342 ], [ 33.278127, 47.9067291 ], [ 33.278406, 47.9069197 ], [ 33.2785159, 47.9070779 ], [ 33.2783201, 47.9075238 ], [ 33.2779151, 47.9077341 ], [ 33.2774913, 47.9079103 ], [ 33.2779366, 47.9079877 ], [ 33.2783255, 47.9081746 ], [ 33.2787171, 47.9082717 ], [ 33.2791758, 47.9080416 ], [ 33.2794064, 47.9078762 ], [ 33.2798651, 47.907887 ], [ 33.2802433, 47.9077881 ], [ 33.2807448, 47.9074375 ], [ 33.2805303, 47.9070995 ], [ 33.2804445, 47.9067357 ], [ 33.2809406, 47.9067471 ], [ 33.2809541, 47.9068819 ], [ 33.2813832, 47.9068927 ], [ 33.2813805, 47.9066733 ], [ 33.2833922, 47.9066895 ], [ 33.2833868, 47.9068891 ], [ 33.2836765, 47.9068891 ], [ 33.2836765, 47.9067902 ], [ 33.2840884, 47.9067895 ], [ 33.2836236, 47.9074531 ], [ 33.2835094, 47.9081562 ], [ 33.2837164, 47.9087637 ], [ 33.284227, 47.909221 ], [ 33.2851708, 47.9100776 ], [ 33.2871937, 47.9145675 ], [ 33.2872075, 47.9180283 ], [ 33.2872111, 47.9189287 ], [ 33.2881772, 47.9207138 ], [ 33.2884171, 47.9228426 ], [ 33.2884991, 47.9236832 ], [ 33.2884455, 47.9241792 ], [ 33.2881772, 47.9255452 ], [ 33.2878339, 47.9259299 ], [ 33.2873189, 47.9263001 ], [ 33.2872546, 47.9265409 ], [ 33.2872707, 47.9267279 ], [ 33.2871956, 47.9268573 ], [ 33.2891099, 47.9274157 ], [ 33.2903061, 47.9278719 ], [ 33.2904008, 47.9276247 ], [ 33.2900763, 47.9262354 ], [ 33.290246, 47.9231983 ], [ 33.2961813, 47.9240757 ], [ 33.2968249, 47.9241331 ], [ 33.2985509, 47.9260017 ], [ 33.3007008, 47.9272254 ], [ 33.3031521, 47.9285278 ], [ 33.3040963, 47.9291711 ], [ 33.3047878, 47.9298768 ], [ 33.305452, 47.9310762 ], [ 33.305734, 47.9325961 ], [ 33.3065316, 47.9327161 ], [ 33.3061279, 47.9356336 ], [ 33.3074905, 47.9356282 ], [ 33.3074838, 47.9367414 ], [ 33.3099635, 47.9367252 ], [ 33.3099595, 47.9356309 ], [ 33.3183032, 47.9355969 ], [ 33.3187276, 47.9355087 ], [ 33.3188939, 47.9353721 ], [ 33.3198058, 47.9355734 ], [ 33.321861, 47.9363813 ], [ 33.3233196, 47.9346786 ], [ 33.3275884, 47.9376904 ], [ 33.3287024, 47.9382507 ], [ 33.329467, 47.9403256 ], [ 33.3335236, 47.9405938 ], [ 33.339389, 47.9449556 ], [ 33.3451376, 47.9451757 ], [ 33.3465335, 47.9452181 ], [ 33.348463, 47.9452849 ], [ 33.3526178, 47.9454261 ], [ 33.3520951, 47.9458978 ], [ 33.3523893, 47.9460524 ], [ 33.3534357, 47.9454544 ], [ 33.3543414, 47.945442 ], [ 33.3567023, 47.9455996 ], [ 33.3571958, 47.9458799 ], [ 33.3578288, 47.9458296 ], [ 33.3620579, 47.9457793 ], [ 33.3618825, 47.9483371 ], [ 33.3618565, 47.9508892 ], [ 33.3617321, 47.9543976 ], [ 33.3615548, 47.956904 ], [ 33.3613924, 47.9579058 ], [ 33.3600223, 47.9594504 ], [ 33.3670112, 47.9624861 ], [ 33.3822586, 47.9690702 ], [ 33.3711077, 47.9814036 ], [ 33.3735124, 47.9872337 ], [ 33.3775189, 47.995181 ], [ 33.3746409, 47.9965272 ], [ 33.3714223, 47.9996717 ], [ 33.3718085, 48.0001599 ], [ 33.3702188, 48.0022149 ], [ 33.3976995, 48.002174 ], [ 33.400067, 47.9994908 ], [ 33.4025574, 48.0028376 ], [ 33.4043169, 48.0037205 ], [ 33.4051752, 48.0047901 ], [ 33.4063017, 48.0056874 ], [ 33.4068617, 48.0084221 ], [ 33.4065914, 48.0100516 ], [ 33.4056258, 48.0115014 ], [ 33.4041881, 48.0128508 ], [ 33.4041452, 48.0131666 ], [ 33.404907, 48.0135613 ], [ 33.4045744, 48.0141139 ], [ 33.4027934, 48.0140135 ], [ 33.4026003, 48.016712 ], [ 33.401463, 48.019439 ], [ 33.4018171, 48.0195933 ], [ 33.4014845, 48.0200131 ], [ 33.4005886, 48.020458 ], [ 33.4002399, 48.0208814 ], [ 33.4001541, 48.0211828 ], [ 33.3986807, 48.0226081 ], [ 33.4017849, 48.02274 ], [ 33.4030791, 48.0209393 ], [ 33.405894, 48.021965 ], [ 33.4072029, 48.0222233 ], [ 33.4081363, 48.0221085 ], [ 33.4097299, 48.0198085 ], [ 33.4120953, 48.0198266 ], [ 33.4124708, 48.0200705 ], [ 33.4125566, 48.0219363 ], [ 33.412165, 48.0232997 ], [ 33.4107971, 48.0259977 ], [ 33.4137797, 48.0267153 ], [ 33.4190583, 48.0271745 ], [ 33.4200239, 48.0241178 ], [ 33.432465, 48.026125 ], [ 33.4379868, 48.0288746 ], [ 33.439725, 48.029515 ], [ 33.4520387, 48.0467878 ], [ 33.45517, 48.0519386 ], [ 33.4477785, 48.0563032 ], [ 33.4059948, 48.068901 ], [ 33.402214, 48.0707813 ], [ 33.4008193, 48.0694622 ], [ 33.4002935, 48.0653182 ], [ 33.3965385, 48.0651245 ], [ 33.3960235, 48.0651891 ], [ 33.3945537, 48.0651962 ], [ 33.3939099, 48.0652679 ], [ 33.3932447, 48.0654472 ], [ 33.3928692, 48.0654472 ], [ 33.392601, 48.0653109 ], [ 33.3923864, 48.0639773 ], [ 33.3917212, 48.0630882 ], [ 33.3914637, 48.062909 ], [ 33.391099, 48.0629018 ], [ 33.3898973, 48.0637981 ], [ 33.3756065, 48.0708243 ], [ 33.3698988, 48.0753263 ], [ 33.3716154, 48.079914 ], [ 33.3716047, 48.0803154 ], [ 33.3704674, 48.0811396 ], [ 33.3787823, 48.086508 ], [ 33.3819365, 48.0901917 ], [ 33.3846939, 48.0918542 ], [ 33.386507, 48.0934093 ], [ 33.3857882, 48.0937246 ], [ 33.3848333, 48.094563 ], [ 33.3857345, 48.0954945 ], [ 33.388803, 48.0977947 ], [ 33.3904982, 48.0972429 ], [ 33.3957338, 48.1022442 ], [ 33.3959913, 48.1026096 ], [ 33.396163, 48.1032401 ], [ 33.3961093, 48.103892 ], [ 33.3961737, 48.104107 ], [ 33.3963776, 48.1044222 ], [ 33.3967423, 48.1046157 ], [ 33.3972251, 48.1047303 ], [ 33.3998215, 48.1048879 ], [ 33.4023535, 48.1074527 ], [ 33.402611, 48.107553 ], [ 33.4032333, 48.1074455 ], [ 33.4039628, 48.1071518 ], [ 33.4049284, 48.1064569 ], [ 33.4048962, 48.1063064 ], [ 33.4006369, 48.1022585 ], [ 33.4008407, 48.1007969 ], [ 33.4010768, 48.1006106 ], [ 33.4122133, 48.0952796 ], [ 33.4104108, 48.0936744 ], [ 33.4106254, 48.0931012 ], [ 33.4093809, 48.0925852 ], [ 33.3928155, 48.0770181 ], [ 33.3958625, 48.0766453 ], [ 33.3967638, 48.0774482 ], [ 33.3983087, 48.0768747 ], [ 33.3969354, 48.075269 ], [ 33.4116983, 48.0680426 ], [ 33.4484848, 48.057056 ], [ 33.4531599, 48.0542932 ], [ 33.4555243, 48.0530256 ], [ 33.4561092, 48.0540442 ], [ 33.4562683, 48.0541596 ], [ 33.4564418, 48.0544644 ], [ 33.4567981, 48.0550501 ], [ 33.4572307, 48.0557612 ], [ 33.4575378, 48.0566849 ], [ 33.4577124, 48.0571441 ], [ 33.457834, 48.057573 ], [ 33.457893, 48.0578893 ], [ 33.4579768, 48.058203 ], [ 33.4580738, 48.0583726 ], [ 33.4582627, 48.0585244 ], [ 33.458278, 48.0585368 ], [ 33.458361, 48.0586716 ], [ 33.4584707, 48.0588307 ], [ 33.4585217, 48.0588773 ], [ 33.4586424, 48.0590279 ], [ 33.4588355, 48.0591498 ], [ 33.4592137, 48.0593201 ], [ 33.4595329, 48.0594465 ], [ 33.4597065, 48.0594999 ], [ 33.4599003, 48.0595335 ], [ 33.4599915, 48.0595146 ], [ 33.4600559, 48.0594662 ], [ 33.4600948, 48.0594107 ], [ 33.4601113, 48.0593406 ], [ 33.4604057, 48.0595359 ], [ 33.4606614, 48.0597376 ], [ 33.4612101, 48.060285 ], [ 33.4617588, 48.0606993 ], [ 33.4612226, 48.0613889 ], [ 33.4589481, 48.0726883 ], [ 33.4632825, 48.0731757 ], [ 33.4621667, 48.0764733 ], [ 33.4801912, 48.0797133 ], [ 33.4766292, 48.0873394 ], [ 33.4783887, 48.0873394 ], [ 33.4755992, 48.0923272 ], [ 33.4720158, 48.1000947 ], [ 33.4682178, 48.1019289 ], [ 33.4702563, 48.1031326 ], [ 33.4718442, 48.1043649 ], [ 33.4725737, 48.104064 ], [ 33.4739041, 48.1077178 ], [ 33.4816932, 48.1085058 ], [ 33.4816718, 48.1094801 ], [ 33.4821653, 48.1118297 ], [ 33.4872508, 48.1124744 ], [ 33.4875941, 48.1121879 ], [ 33.4886241, 48.1085918 ], [ 33.4885812, 48.1065572 ], [ 33.4896111, 48.1063566 ], [ 33.4902334, 48.1060557 ], [ 33.495512, 48.1050813 ], [ 33.4968424, 48.1051816 ], [ 33.4972715, 48.1042216 ], [ 33.504889, 48.1053966 ], [ 33.5080218, 48.1056975 ], [ 33.5102534, 48.1064999 ], [ 33.5075927, 48.1095087 ], [ 33.5074639, 48.1102394 ], [ 33.5065841, 48.1106836 ], [ 33.5053611, 48.1152108 ], [ 33.5051465, 48.117288 ], [ 33.5062408, 48.1175458 ], [ 33.5098457, 48.1207975 ], [ 33.5146737, 48.1219578 ], [ 33.5215831, 48.1265842 ], [ 33.5211539, 48.1270426 ], [ 33.5182142, 48.1287899 ], [ 33.5154032, 48.1320266 ], [ 33.5131502, 48.1350483 ], [ 33.5091805, 48.139244 ], [ 33.5091805, 48.1395876 ], [ 33.5098886, 48.1400458 ], [ 33.50667, 48.1434966 ], [ 33.5188579, 48.1466035 ], [ 33.5199094, 48.1466178 ], [ 33.5222912, 48.1473766 ], [ 33.5234284, 48.1474339 ], [ 33.5276341, 48.1472764 ], [ 33.5362601, 48.150741 ], [ 33.5370111, 48.1512993 ], [ 33.5373115, 48.1519865 ], [ 33.5374617, 48.1537186 ], [ 33.5376334, 48.1539334 ], [ 33.5377192, 48.1556368 ], [ 33.5369682, 48.1577267 ], [ 33.5369253, 48.1584854 ], [ 33.5385775, 48.1596161 ], [ 33.5397362, 48.1598595 ], [ 33.5400367, 48.1600527 ], [ 33.5401869, 48.1604463 ], [ 33.5396719, 48.1615341 ], [ 33.5389423, 48.1656704 ], [ 33.5392856, 48.1736271 ], [ 33.5384702, 48.173713 ], [ 33.5379982, 48.1738704 ], [ 33.5367322, 48.1762744 ], [ 33.5331487, 48.1792076 ], [ 33.5301447, 48.1783205 ], [ 33.5294151, 48.1794222 ], [ 33.5288787, 48.1818402 ], [ 33.5282779, 48.1826414 ], [ 33.5285139, 48.1829418 ], [ 33.5275483, 48.1839147 ], [ 33.5269475, 48.1843582 ], [ 33.52669, 48.1850306 ], [ 33.524394, 48.1871622 ], [ 33.5222482, 48.1896228 ], [ 33.5211968, 48.1932848 ], [ 33.5249519, 48.1954303 ], [ 33.530252, 48.1911391 ], [ 33.5341357, 48.1909246 ], [ 33.5398006, 48.1856029 ], [ 33.5490703, 48.1856029 ], [ 33.5566234, 48.1827416 ], [ 33.5587692, 48.1801662 ], [ 33.5623097, 48.1696919 ], [ 33.5628247, 48.1696632 ], [ 33.563447, 48.1702929 ], [ 33.5646486, 48.170665 ], [ 33.5699701, 48.1705219 ], [ 33.5734463, 48.1681606 ], [ 33.5750341, 48.1678744 ], [ 33.5771155, 48.1669871 ], [ 33.5774588, 48.1664575 ], [ 33.5813212, 48.1643394 ], [ 33.5818147, 48.1621639 ], [ 33.5794329, 48.1618633 ], [ 33.5778451, 48.1614912 ], [ 33.5758495, 48.161162 ], [ 33.5768151, 48.1583565 ], [ 33.5765791, 48.1582563 ], [ 33.5756779, 48.1588861 ], [ 33.5737896, 48.1588718 ], [ 33.5716653, 48.1585856 ], [ 33.569498, 48.158743 ], [ 33.567481, 48.1585856 ], [ 33.5659361, 48.1589863 ], [ 33.5640907, 48.1585856 ], [ 33.5625672, 48.1596161 ], [ 33.5591125, 48.1584567 ], [ 33.559649, 48.1579271 ], [ 33.5587477, 48.1573402 ], [ 33.558104, 48.1565243 ], [ 33.5632324, 48.1535755 ], [ 33.5667085, 48.1518719 ], [ 33.569777, 48.1523587 ], [ 33.5717726, 48.1524875 ], [ 33.5745406, 48.153146 ], [ 33.5762357, 48.1532462 ], [ 33.5783815, 48.153189 ], [ 33.578918, 48.1535325 ], [ 33.5919642, 48.1554078 ], [ 33.5917389, 48.1548853 ], [ 33.5917711, 48.1539262 ], [ 33.5922003, 48.1528955 ], [ 33.5924792, 48.1520187 ], [ 33.5959768, 48.1444129 ], [ 33.5983372, 48.1443986 ], [ 33.6001181, 48.1399886 ], [ 33.597908, 48.1397308 ], [ 33.5970926, 48.1400315 ], [ 33.5945821, 48.1395447 ], [ 33.5986698, 48.1334265 ], [ 33.5964489, 48.1325135 ], [ 33.5934663, 48.1321412 ], [ 33.5904193, 48.1316399 ], [ 33.5886812, 48.1310384 ], [ 33.58778, 48.1303223 ], [ 33.5869002, 48.1284318 ], [ 33.5870933, 48.1280165 ], [ 33.5867071, 48.127415 ], [ 33.5864944, 48.1272068 ], [ 33.5856289, 48.1264912 ], [ 33.5861921, 48.1262262 ], [ 33.5860848, 48.1258968 ], [ 33.5831666, 48.123204 ], [ 33.5821581, 48.121614 ], [ 33.5811925, 48.1211557 ], [ 33.579905, 48.1202246 ], [ 33.5791325, 48.1193508 ], [ 33.572073, 48.1129329 ], [ 33.5714936, 48.1123025 ], [ 33.5715687, 48.1122094 ], [ 33.5727703, 48.1115432 ], [ 33.5749376, 48.1112781 ], [ 33.5755491, 48.111536 ], [ 33.5762143, 48.111622 ], [ 33.5765254, 48.1117581 ], [ 33.5777807, 48.1104185 ], [ 33.5775447, 48.1102824 ], [ 33.5783064, 48.1092652 ], [ 33.5782313, 48.1090287 ], [ 33.5787785, 48.1083482 ], [ 33.5791111, 48.1082407 ], [ 33.5801411, 48.1081691 ], [ 33.5803234, 48.1075673 ], [ 33.5799587, 48.1074742 ], [ 33.5783601, 48.1066503 ], [ 33.5772657, 48.1064282 ], [ 33.5754204, 48.1067291 ], [ 33.5742831, 48.1072449 ], [ 33.5717726, 48.1074599 ], [ 33.5710859, 48.1076748 ], [ 33.5701418, 48.106944 ], [ 33.5683822, 48.1063996 ], [ 33.5692191, 48.1036055 ], [ 33.5718584, 48.1020579 ], [ 33.5729527, 48.1015994 ], [ 33.5724592, 48.1010405 ], [ 33.5714507, 48.1009402 ], [ 33.5681677, 48.1000804 ], [ 33.5673952, 48.0994928 ], [ 33.5670733, 48.0986903 ], [ 33.5653138, 48.0974006 ], [ 33.5649919, 48.0974722 ], [ 33.5646057, 48.0969707 ], [ 33.5627603, 48.0955089 ], [ 33.5623956, 48.0956665 ], [ 33.5607433, 48.0952796 ], [ 33.5544133, 48.09098 ], [ 33.5532117, 48.0920262 ], [ 33.5514092, 48.0913813 ], [ 33.5494995, 48.0900913 ], [ 33.5472679, 48.0893173 ], [ 33.5465812, 48.0895897 ], [ 33.5443711, 48.0895467 ], [ 33.5428905, 48.0899623 ], [ 33.5411954, 48.0895467 ], [ 33.5405731, 48.0889447 ], [ 33.5393071, 48.0881993 ], [ 33.539629, 48.0867517 ], [ 33.5393929, 48.0854043 ], [ 33.5392642, 48.0850459 ], [ 33.5399508, 48.0845729 ], [ 33.5410023, 48.0843578 ], [ 33.5419464, 48.0843578 ], [ 33.542141, 48.083885 ], [ 33.5421824, 48.0837845 ], [ 33.5412812, 48.0835121 ], [ 33.5405946, 48.0821646 ], [ 33.5408735, 48.0808028 ], [ 33.5372257, 48.08043 ], [ 33.5346293, 48.087712 ], [ 33.5305524, 48.0819353 ], [ 33.5252738, 48.0793262 ], [ 33.522141, 48.0786381 ], [ 33.5218513, 48.0780216 ], [ 33.5214972, 48.0779069 ], [ 33.521229, 48.0775055 ], [ 33.5212397, 48.0771758 ], [ 33.5214758, 48.0767743 ], [ 33.5220551, 48.0765019 ], [ 33.5227954, 48.0763299 ], [ 33.523525, 48.0763586 ], [ 33.5236001, 48.0761292 ], [ 33.5240936, 48.0761292 ], [ 33.5240936, 48.0759571 ], [ 33.523761, 48.075484 ], [ 33.523761, 48.0751041 ], [ 33.5232246, 48.0742152 ], [ 33.5232246, 48.0740216 ], [ 33.5237503, 48.0733621 ], [ 33.5234284, 48.0730682 ], [ 33.5230422, 48.0726596 ], [ 33.5221517, 48.0725377 ], [ 33.5215187, 48.0719929 ], [ 33.5216689, 48.0711684 ], [ 33.5223555, 48.0707956 ], [ 33.5223663, 48.0701791 ], [ 33.5224521, 48.0699998 ], [ 33.5229885, 48.0698493 ], [ 33.5232675, 48.0698421 ], [ 33.5240078, 48.0700357 ], [ 33.5242331, 48.0699855 ], [ 33.5249948, 48.0693761 ], [ 33.5222697, 48.0678419 ], [ 33.5207569, 48.0670962 ], [ 33.5209393, 48.066494 ], [ 33.5210574, 48.0663291 ], [ 33.5209823, 48.0660925 ], [ 33.5207891, 48.0651962 ], [ 33.5207677, 48.0645294 ], [ 33.520875, 48.0640849 ], [ 33.5210681, 48.0637192 ], [ 33.5207569, 48.0635543 ], [ 33.5206175, 48.0626293 ], [ 33.5203385, 48.0627297 ], [ 33.520242, 48.0626508 ], [ 33.520242, 48.0625218 ], [ 33.520199, 48.0623282 ], [ 33.5199523, 48.0621418 ], [ 33.5193515, 48.0618406 ], [ 33.5191369, 48.0618478 ], [ 33.5188043, 48.0617546 ], [ 33.5185468, 48.0616183 ], [ 33.518343, 48.0614104 ], [ 33.5180211, 48.0612813 ], [ 33.5174632, 48.061353 ], [ 33.5172379, 48.0611164 ], [ 33.5158646, 48.0593094 ], [ 33.5178387, 48.058076 ], [ 33.519448, 48.0573087 ], [ 33.5207569, 48.0569573 ], [ 33.5202634, 48.0551 ], [ 33.5185468, 48.0553438 ], [ 33.518182, 48.0553725 ], [ 33.5182571, 48.0550641 ], [ 33.5184932, 48.0548992 ], [ 33.518697, 48.054849 ], [ 33.5187507, 48.0544904 ], [ 33.5198235, 48.0532211 ], [ 33.5199416, 48.0527621 ], [ 33.5197914, 48.0526115 ], [ 33.5191369, 48.0526043 ], [ 33.5189009, 48.0516935 ], [ 33.5187185, 48.0514497 ], [ 33.5184368, 48.0513069 ], [ 33.5181687, 48.0512486 ], [ 33.5179677, 48.0511105 ], [ 33.517828, 48.0508544 ], [ 33.5177516, 48.0506122 ], [ 33.5179782, 48.0503022 ], [ 33.5180855, 48.0500583 ], [ 33.5178709, 48.0499579 ], [ 33.5175342, 48.0494606 ], [ 33.5171689, 48.049079 ], [ 33.5167808, 48.0489159 ], [ 33.5166071, 48.0487042 ], [ 33.51645, 48.0484082 ], [ 33.5156848, 48.0477294 ], [ 33.515036, 48.0468905 ], [ 33.514584, 48.0462984 ], [ 33.514032, 48.045429 ], [ 33.513777, 48.0450782 ], [ 33.5129923, 48.0432837 ], [ 33.51293, 48.0427369 ], [ 33.5129893, 48.0424267 ], [ 33.5131931, 48.0421828 ], [ 33.5133755, 48.042147 ], [ 33.5137725, 48.0410495 ], [ 33.5142016, 48.0393565 ], [ 33.5149419, 48.0392274 ], [ 33.5152638, 48.0390696 ], [ 33.5158646, 48.0390911 ], [ 33.5164225, 48.0390122 ], [ 33.5169268, 48.037434 ], [ 33.5152638, 48.037226 ], [ 33.5143392, 48.036188 ], [ 33.5150309, 48.0358327 ], [ 33.516673, 48.0359535 ], [ 33.5187936, 48.0350594 ], [ 33.5190273, 48.0348581 ], [ 33.5197377, 48.0350236 ], [ 33.5208538, 48.0354548 ], [ 33.5209517, 48.0332965 ], [ 33.5207638, 48.0327434 ], [ 33.5206031, 48.0324688 ], [ 33.5204254, 48.0321652 ], [ 33.5190344, 48.0309584 ], [ 33.5183201, 48.0304807 ], [ 33.5172674, 48.0301539 ], [ 33.5161396, 48.0298773 ], [ 33.5086736, 48.028885 ], [ 33.5019976, 48.0281503 ], [ 33.501775, 48.0281862 ], [ 33.5017106, 48.0280588 ], [ 33.5015872, 48.0279817 ], [ 33.5014397, 48.0279207 ], [ 33.5008013, 48.0278418 ], [ 33.4997445, 48.0277736 ], [ 33.4975344, 48.0278364 ], [ 33.4956573, 48.0278385 ], [ 33.4955737, 48.0275601 ], [ 33.4948924, 48.026509 ], [ 33.4933358, 48.0249214 ], [ 33.4909796, 48.0231337 ], [ 33.4912687, 48.0215703 ], [ 33.4914249, 48.0212738 ], [ 33.4921431, 48.0211254 ], [ 33.4934803, 48.0206737 ], [ 33.4937772, 48.0199693 ], [ 33.493951, 48.0195969 ], [ 33.4950721, 48.0189582 ], [ 33.4964615, 48.018463 ], [ 33.4968907, 48.0183518 ], [ 33.4973318, 48.0183745 ], [ 33.4980923, 48.0186496 ], [ 33.4983766, 48.0184128 ], [ 33.4988272, 48.0174727 ], [ 33.498897, 48.0168286 ], [ 33.4996634, 48.0164672 ], [ 33.5002008, 48.0164056 ], [ 33.5006833, 48.0159907 ], [ 33.5009623, 48.0156247 ], [ 33.5010325, 48.0152851 ], [ 33.5005281, 48.0146667 ], [ 33.4998947, 48.0143436 ], [ 33.4995408, 48.0142104 ], [ 33.4990624, 48.0137182 ], [ 33.4984874, 48.0127524 ], [ 33.4985563, 48.0123997 ], [ 33.498382, 48.0117096 ], [ 33.4986553, 48.0112136 ], [ 33.498869, 48.0103253 ], [ 33.4991913, 48.0095061 ], [ 33.5000563, 48.009395 ], [ 33.5006136, 48.0092333 ], [ 33.5019386, 48.0086986 ], [ 33.5023463, 48.0084653 ], [ 33.5034567, 48.008546 ], [ 33.5039849, 48.0083571 ], [ 33.5039502, 48.0082284 ], [ 33.5039636, 48.0080131 ], [ 33.5061291, 48.001002 ], [ 33.5064476, 48.0001151 ], [ 33.5072457, 47.997893 ], [ 33.5088036, 47.9976968 ], [ 33.5108573, 47.9975022 ], [ 33.5144658, 47.9971601 ], [ 33.5233416, 47.9963189 ], [ 33.5227711, 47.993624 ], [ 33.5222431, 47.9911301 ], [ 33.5249936, 47.9890779 ], [ 33.5260876, 47.9874873 ], [ 33.523447, 47.9811246 ], [ 33.5219565, 47.977966 ], [ 33.5208837, 47.9785054 ], [ 33.5180845, 47.9799127 ], [ 33.5154965, 47.9745471 ], [ 33.5091422, 47.9699309 ], [ 33.5012185, 47.964345 ], [ 33.4920609, 47.9578885 ], [ 33.4886668, 47.9544488 ], [ 33.4764867, 47.9576904 ], [ 33.4746337, 47.9577291 ], [ 33.4742582, 47.9579949 ], [ 33.471923, 47.9578169 ], [ 33.4708519, 47.9561521 ], [ 33.4674054, 47.9563793 ], [ 33.4662084, 47.9563814 ], [ 33.466653, 47.9528291 ], [ 33.4668098, 47.9514277 ], [ 33.4671746, 47.945711 ], [ 33.4682333, 47.9456809 ], [ 33.4695205, 47.9454602 ], [ 33.4696008, 47.950769 ], [ 33.4723559, 47.9501254 ], [ 33.4803415, 47.947972 ], [ 33.4805075, 47.9477969 ], [ 33.4771648, 47.9421754 ], [ 33.4745249, 47.9428504 ], [ 33.471023, 47.9370663 ], [ 33.4742896, 47.9362515 ], [ 33.4745992, 47.936063 ], [ 33.4767265, 47.9354815 ], [ 33.4789031, 47.9350623 ], [ 33.4803433, 47.9349535 ], [ 33.4818127, 47.935064 ], [ 33.4825235, 47.9352017 ], [ 33.4829832, 47.9353063 ], [ 33.4842966, 47.9356512 ], [ 33.4864343, 47.9328852 ], [ 33.4827327, 47.9322517 ], [ 33.4825476, 47.9322779 ], [ 33.4817029, 47.9321827 ], [ 33.4770482, 47.9290488 ], [ 33.4770447, 47.9283781 ], [ 33.477211, 47.9280511 ], [ 33.4775435, 47.9274652 ], [ 33.4780961, 47.9271201 ], [ 33.4788203, 47.9267391 ], [ 33.4800111, 47.9262718 ], [ 33.4802794, 47.926243 ], [ 33.481143, 47.9259231 ], [ 33.4822052, 47.9255492 ], [ 33.4834068, 47.9249022 ], [ 33.4842041, 47.9243548 ], [ 33.485338, 47.9231875 ], [ 33.4861588, 47.9217639 ], [ 33.486545, 47.9205452 ], [ 33.4865452, 47.917828 ], [ 33.4865419, 47.9146493 ], [ 33.4864002, 47.9119991 ], [ 33.4862863, 47.9091942 ], [ 33.4862822, 47.9076662 ], [ 33.486224, 47.9060907 ], [ 33.4861515, 47.9030267 ], [ 33.5206673, 47.9066385 ], [ 33.5271796, 47.9067305 ], [ 33.5275347, 47.9067355 ], [ 33.5275635, 47.9044262 ], [ 33.5353651, 47.904538 ], [ 33.5373595, 47.9047354 ], [ 33.5451839, 47.9052177 ], [ 33.5459928, 47.9020661 ], [ 33.5466448, 47.9001389 ], [ 33.5472635, 47.8996645 ], [ 33.5485505, 47.8986248 ], [ 33.5498299, 47.8975809 ], [ 33.5510982, 47.8965324 ], [ 33.5523529, 47.8954809 ], [ 33.553614, 47.8944302 ], [ 33.5548901, 47.893393 ], [ 33.5561419, 47.8923502 ], [ 33.5572176, 47.8914812 ], [ 33.5583276, 47.8906223 ], [ 33.5593577, 47.8897311 ], [ 33.560447, 47.8888718 ], [ 33.5615407, 47.8880141 ], [ 33.5625877, 47.8871299 ], [ 33.5636727, 47.8862476 ], [ 33.5647483, 47.8853612 ], [ 33.5656418, 47.8842488 ], [ 33.5682761, 47.880127 ], [ 33.5678819, 47.8799847 ], [ 33.5645288, 47.878957 ], [ 33.5611801, 47.8779374 ], [ 33.5578576, 47.8769191 ], [ 33.5545383, 47.8759122 ], [ 33.5512183, 47.8749183 ], [ 33.549497, 47.8744071 ], [ 33.5479627, 47.8739431 ], [ 33.5463315, 47.8734561 ], [ 33.5446727, 47.8729633 ], [ 33.5429827, 47.8724098 ], [ 33.5405526, 47.871742 ], [ 33.5400357, 47.8714323 ], [ 33.5386763, 47.8709749 ], [ 33.5282983, 47.8673282 ], [ 33.5173727, 47.8673444 ], [ 33.5185706, 47.8615782 ], [ 33.5067127, 47.8602065 ], [ 33.5075958, 47.8594989 ], [ 33.5098537, 47.857553 ], [ 33.5104098, 47.8562357 ], [ 33.5103927, 47.8549633 ], [ 33.5099384, 47.8495975 ], [ 33.5087571, 47.8451155 ], [ 33.507167, 47.8453899 ], [ 33.5053043, 47.8459083 ], [ 33.499807, 47.848439 ], [ 33.4916291, 47.8477987 ], [ 33.4892939, 47.8462355 ], [ 33.4880727, 47.8467038 ], [ 33.4860664, 47.8473478 ], [ 33.4838565, 47.8489089 ], [ 33.4830424, 47.8503723 ], [ 33.4828098, 47.8518943 ], [ 33.4839438, 47.8532796 ], [ 33.4804329, 47.861091 ], [ 33.472838, 47.8782212 ], [ 33.4684929, 47.8767354 ], [ 33.4526085, 47.8688434 ], [ 33.4462773, 47.8655331 ], [ 33.4415219, 47.864836 ], [ 33.4418212, 47.8616841 ], [ 33.4377061, 47.8602926 ], [ 33.4365892, 47.8603975 ], [ 33.4332847, 47.8617508 ], [ 33.4301948, 47.858094 ], [ 33.4272122, 47.8577197 ], [ 33.4264612, 47.856971 ], [ 33.4250235, 47.8547825 ], [ 33.425045, 47.8540482 ], [ 33.4261608, 47.8516867 ], [ 33.4266865, 47.8515787 ], [ 33.4277165, 47.8516867 ], [ 33.4281242, 47.8516219 ], [ 33.4283495, 47.8513483 ], [ 33.4284675, 47.8510604 ], [ 33.4278023, 47.8507004 ], [ 33.4278023, 47.850542 ], [ 33.4262359, 47.8497284 ], [ 33.4260213, 47.849534 ], [ 33.4240794, 47.8486772 ], [ 33.4250128, 47.8457179 ], [ 33.4254956, 47.8447386 ], [ 33.4283924, 47.8458979 ], [ 33.4339928, 47.8483604 ], [ 33.4341859, 47.8481588 ], [ 33.4353447, 47.848562 ], [ 33.4413957, 47.8493396 ], [ 33.4434986, 47.8499156 ], [ 33.44558, 47.8510676 ], [ 33.4460416, 47.8508793 ], [ 33.4471029, 47.8497141 ], [ 33.44738, 47.8491332 ], [ 33.4469274, 47.8475333 ], [ 33.4472593, 47.845994 ], [ 33.4495227, 47.8387631 ], [ 33.4499753, 47.8361095 ], [ 33.4499497, 47.8317537 ], [ 33.447109, 47.8308045 ], [ 33.4439523, 47.8304387 ], [ 33.4393072, 47.8297546 ], [ 33.433576, 47.8304977 ], [ 33.4290922, 47.8312273 ], [ 33.4212112, 47.8314982 ], [ 33.4107325, 47.8311748 ], [ 33.4048076, 47.8291612 ], [ 33.3999397, 47.8271301 ], [ 33.3892967, 47.8243729 ], [ 33.3876392, 47.8216286 ], [ 33.389692, 47.8166046 ], [ 33.3914089, 47.8142749 ], [ 33.3926596, 47.8108005 ], [ 33.3918618, 47.8088805 ], [ 33.3903927, 47.8069894 ], [ 33.3897685, 47.8043926 ], [ 33.3886527, 47.7907856 ], [ 33.3563804, 47.7866624 ], [ 33.3470678, 47.7902089 ], [ 33.3457374, 47.7900071 ], [ 33.3451366, 47.7888538 ], [ 33.3371973, 47.7891133 ], [ 33.3248229, 47.7903265 ], [ 33.3171987, 47.7910739 ], [ 33.314382, 47.7852619 ], [ 33.3096443, 47.7751706 ], [ 33.3093274, 47.7744962 ], [ 33.3088683, 47.7740104 ], [ 33.305134, 47.7712509 ], [ 33.2870468, 47.7589641 ], [ 33.2853745, 47.757779 ], [ 33.2851208, 47.7575427 ], [ 33.2843596, 47.7567535 ], [ 33.2776073, 47.7485107 ], [ 33.2773867, 47.7478614 ], [ 33.2773784, 47.7471507 ], [ 33.277711, 47.7464443 ], [ 33.2782824, 47.7456814 ], [ 33.2825751, 47.7409719 ], [ 33.2830414, 47.7402481 ], [ 33.2835462, 47.7395273 ], [ 33.2838175, 47.7388699 ], [ 33.2836408, 47.7381071 ], [ 33.2829528, 47.7371221 ], [ 33.2798191, 47.7321791 ], [ 33.2727005, 47.7210706 ], [ 33.2705023, 47.7127487 ], [ 33.2601929, 47.7134164 ], [ 33.2542368, 47.7137464 ], [ 33.245538, 47.7160082 ], [ 33.226883, 47.7186779 ], [ 33.2258384, 47.7173192 ], [ 33.2251746, 47.7164558 ], [ 33.2251526, 47.7164272 ], [ 33.2246747, 47.7159165 ], [ 33.2243374, 47.715368 ], [ 33.2241969, 47.7148952 ], [ 33.2236346, 47.7146304 ], [ 33.2228194, 47.7143845 ], [ 33.2224259, 47.713836 ], [ 33.2216107, 47.7115285 ], [ 33.221366, 47.7112815 ], [ 33.2203176, 47.7102234 ], [ 33.2179888, 47.7086274 ], [ 33.215747, 47.707243 ], [ 33.2155994, 47.7071519 ], [ 33.2147841, 47.7063007 ], [ 33.2138284, 47.7050143 ], [ 33.2138284, 47.7039928 ], [ 33.2141938, 47.7030659 ], [ 33.2150934, 47.7025551 ], [ 33.2159367, 47.7017227 ], [ 33.2174547, 47.698374 ], [ 33.2183542, 47.696028 ], [ 33.2192256, 47.6951198 ], [ 33.2205187, 47.6950441 ], [ 33.2216151, 47.6954036 ], [ 33.2228238, 47.6955171 ], [ 33.2246229, 47.6953847 ], [ 33.225916, 47.6950252 ], [ 33.2268437, 47.6942873 ], [ 33.22794, 47.69266 ], [ 33.2282211, 47.6919221 ], [ 33.2290363, 47.6914301 ], [ 33.2316255, 47.6908436 ], [ 33.2391149, 47.689873 ], [ 33.2402341, 47.6898291 ], [ 33.2435131, 47.689717 ], [ 33.2442855, 47.6887637 ], [ 33.2439422, 47.6869436 ], [ 33.2429552, 47.6850369 ], [ 33.2429552, 47.6843435 ], [ 33.2438564, 47.6836212 ], [ 33.2454443, 47.6830434 ], [ 33.2512807, 47.6826967 ], [ 33.254199, 47.6830145 ], [ 33.2578468, 47.6820032 ], [ 33.2594776, 47.6807897 ], [ 33.2591342, 47.6789983 ], [ 33.2571172, 47.6768023 ], [ 33.2554864, 47.6765423 ], [ 33.253684, 47.6768312 ], [ 33.2523107, 47.6759643 ], [ 33.2508516, 47.6755887 ], [ 33.2475471, 47.6758199 ], [ 33.2435989, 47.6754731 ], [ 33.241024, 47.6756465 ], [ 33.2402086, 47.6754153 ], [ 33.2402086, 47.6735948 ], [ 33.2368273, 47.6700396 ], [ 33.2326555, 47.665214 ], [ 33.232913, 47.6581615 ], [ 33.2305097, 47.6555888 ], [ 33.226819, 47.6546348 ], [ 33.2107687, 47.6537676 ], [ 33.1919705, 47.6523931 ], [ 33.1788157, 47.6508202 ], [ 33.1741535, 47.6503431 ], [ 33.1735543, 47.6511704 ], [ 33.1569663, 47.65353 ], [ 33.155013, 47.6539687 ], [ 33.1533805, 47.6549988 ], [ 33.1519073, 47.6580434 ], [ 33.1403962, 47.6827325 ], [ 33.1399195, 47.6845285 ], [ 33.139351, 47.6857793 ], [ 33.1400199, 47.6882674 ], [ 33.1497502, 47.6958063 ], [ 33.1531394, 47.6980883 ], [ 33.1543858, 47.6984215 ] ] ] } }
]
}
