{
"type": "FeatureCollection",
"name": "lahti_fi",
"crs": { "type": "name", "properties": { "name": "urn:ogc:def:crs:OGC:1.3:CRS84" } },
"features": [
{ "type": "Feature", "properties": { "bbox_west": 25.5403066, "bbox_south": 60.8866528, "bbox_east": 26.1689723, "bbox_north": 61.1026648, "place_id": 167940205, "osm_type": "relation", "osm_id": 345901, "lat": 60.982628, "lon": 25.6613418, "class": "boundary", "type": "administrative", "place_rank": 16, "importance": 0.65818612723037417, "addresstype": "city", "name": "Lahti", "display_name": "Lahti, Lahti sub-region, Päijät-Häme, Mainland Finland, Finland" }, "geometry": { "type": "Polygon", "coordinates": [ [ [ 25.5403066, 60.9982644 ], [ 25.540835, 60.997118 ], [ 25.541303, 60.996181 ], [ 25.5417464, 60.9952473 ], [ 25.5421847, 60.9943402 ], [ 25.5422214, 60.9942632 ], [ 25.5422277, 60.99425 ], [ 25.5423173, 60.9940602 ], [ 25.5424524, 60.9937746 ], [ 25.542734, 60.99318 ], [ 25.543818, 60.990903 ], [ 25.544206, 60.9901 ], [ 25.544716, 60.989037 ], [ 25.5447479, 60.9889771 ], [ 25.5447617, 60.9889496 ], [ 25.544779, 60.988885 ], [ 25.545208, 60.987983 ], [ 25.5452581, 60.9878849 ], [ 25.545391, 60.9876362 ], [ 25.5454372, 60.9875373 ], [ 25.545533, 60.987332 ], [ 25.5455964, 60.987199 ], [ 25.545718, 60.986939 ], [ 25.545942, 60.986474 ], [ 25.545963, 60.986421 ], [ 25.5462795, 60.985763 ], [ 25.547024, 60.984215 ], [ 25.548786, 60.984485 ], [ 25.548949, 60.984137 ], [ 25.549235, 60.983548 ], [ 25.549705, 60.982565 ], [ 25.549749, 60.982404 ], [ 25.550098, 60.982444 ], [ 25.550577, 60.982476 ], [ 25.550755, 60.982218 ], [ 25.550929, 60.982058 ], [ 25.5507943, 60.9820021 ], [ 25.550729, 60.981975 ], [ 25.550769, 60.981904 ], [ 25.550887, 60.981752 ], [ 25.551418, 60.981049 ], [ 25.552463, 60.979606 ], [ 25.552679, 60.97933 ], [ 25.552255, 60.97929 ], [ 25.548297, 60.979005 ], [ 25.548402, 60.978728 ], [ 25.548482, 60.978585 ], [ 25.548467, 60.978522 ], [ 25.548437, 60.978369 ], [ 25.548377, 60.978063 ], [ 25.548476, 60.977912 ], [ 25.548789, 60.977538 ], [ 25.548886, 60.977422 ], [ 25.549172, 60.977228 ], [ 25.550127, 60.976951 ], [ 25.550464, 60.976838 ], [ 25.551696, 60.97616 ], [ 25.551659, 60.976151 ], [ 25.551533, 60.976087 ], [ 25.548679, 60.974674 ], [ 25.551055, 60.973604 ], [ 25.552715, 60.97285 ], [ 25.555995, 60.971368 ], [ 25.5562386, 60.9706042 ], [ 25.5560504, 60.9705817 ], [ 25.556507, 60.969866 ], [ 25.556785, 60.969429 ], [ 25.5572959, 60.9686434 ], [ 25.5574296, 60.9684378 ], [ 25.558242, 60.9671715 ], [ 25.5611072, 60.9679328 ], [ 25.5614146, 60.9676754 ], [ 25.5618502, 60.9673107 ], [ 25.5621859, 60.9670296 ], [ 25.5623591, 60.9668869 ], [ 25.5627754, 60.9665439 ], [ 25.562681, 60.966045 ], [ 25.563754, 60.964773 ], [ 25.564429, 60.96496 ], [ 25.564179, 60.964347 ], [ 25.564068, 60.964364 ], [ 25.563801, 60.964136 ], [ 25.563808, 60.963993 ], [ 25.563488, 60.963711 ], [ 25.563076, 60.963429 ], [ 25.56271, 60.963362 ], [ 25.562098, 60.963005 ], [ 25.562119, 60.962961 ], [ 25.562119, 60.962952 ], [ 25.561715, 60.962499 ], [ 25.561735, 60.962463 ], [ 25.561589, 60.962416 ], [ 25.560753, 60.962138 ], [ 25.560462, 60.962036 ], [ 25.560855, 60.961502 ], [ 25.561291, 60.961246 ], [ 25.56162, 60.961331 ], [ 25.561866, 60.96119 ], [ 25.562048, 60.961263 ], [ 25.562103, 60.961273 ], [ 25.562176, 60.961283 ], [ 25.562249, 60.961292 ], [ 25.562979, 60.961489 ], [ 25.563144, 60.961517 ], [ 25.563236, 60.961527 ], [ 25.563364, 60.961556 ], [ 25.563474, 60.961566 ], [ 25.563695, 60.961586 ], [ 25.563768, 60.961587 ], [ 25.563861, 60.961579 ], [ 25.563899, 60.961552 ], [ 25.563938, 60.961517 ], [ 25.564013, 60.961491 ], [ 25.564087, 60.961483 ], [ 25.564124, 60.961474 ], [ 25.564217, 60.961457 ], [ 25.564366, 60.961441 ], [ 25.564753, 60.961445 ], [ 25.564809, 60.961445 ], [ 25.564865, 60.961437 ], [ 25.564883, 60.961428 ], [ 25.564921, 60.961411 ], [ 25.565, 60.961304 ], [ 25.565171, 60.961198 ], [ 25.565226, 60.96119 ], [ 25.565282, 60.96119 ], [ 25.565336, 60.961209 ], [ 25.565355, 60.961209 ], [ 25.565372, 60.961236 ], [ 25.565426, 60.961264 ], [ 25.565444, 60.961282 ], [ 25.565498, 60.9613 ], [ 25.565553, 60.96131 ], [ 25.565609, 60.96131 ], [ 25.565646, 60.961293 ], [ 25.565666, 60.961275 ], [ 25.565654, 60.961131 ], [ 25.565638, 60.961077 ], [ 25.565639, 60.961041 ], [ 25.565661, 60.960979 ], [ 25.565702, 60.960881 ], [ 25.565703, 60.960854 ], [ 25.565762, 60.960782 ], [ 25.565838, 60.960738 ], [ 25.565988, 60.960686 ], [ 25.566156, 60.960634 ], [ 25.566642, 60.960514 ], [ 25.566772, 60.960479 ], [ 25.566958, 60.960445 ], [ 25.567106, 60.960438 ], [ 25.567181, 60.96043 ], [ 25.5673208, 60.9604316 ], [ 25.567531, 60.960442 ], [ 25.567658, 60.960479 ], [ 25.567713, 60.960498 ], [ 25.567786, 60.960508 ], [ 25.56786, 60.960509 ], [ 25.567898, 60.9605 ], [ 25.567971, 60.960501 ], [ 25.568027, 60.960501 ], [ 25.568138, 60.960485 ], [ 25.568213, 60.960467 ], [ 25.568251, 60.960441 ], [ 25.568271, 60.960414 ], [ 25.568309, 60.960388 ], [ 25.568365, 60.960379 ], [ 25.56842, 60.960371 ], [ 25.568494, 60.960381 ], [ 25.56864, 60.9604 ], [ 25.568695, 60.960419 ], [ 25.56875, 60.960428 ], [ 25.568805, 60.960447 ], [ 25.5689676, 60.9604767 ], [ 25.5690468, 60.9604774 ], [ 25.569099, 60.960459 ], [ 25.569138, 60.960432 ], [ 25.569176, 60.960397 ], [ 25.569177, 60.96037 ], [ 25.5691459, 60.9603101 ], [ 25.5690433, 60.960247 ], [ 25.5689678, 60.9602182 ], [ 25.56889, 60.960187 ], [ 25.568872, 60.960169 ], [ 25.5688009, 60.9601171 ], [ 25.5687613, 60.9600617 ], [ 25.5687392, 60.9600187 ], [ 25.568679, 60.959952 ], [ 25.568643, 60.959924 ], [ 25.568554, 60.959861 ], [ 25.568518, 60.959833 ], [ 25.568501, 60.959797 ], [ 25.568449, 60.959725 ], [ 25.568451, 60.959698 ], [ 25.568451, 60.95968 ], [ 25.568471, 60.959653 ], [ 25.568509, 60.959636 ], [ 25.568528, 60.959618 ], [ 25.568565, 60.959609 ], [ 25.568603, 60.959592 ], [ 25.568641, 60.959574 ], [ 25.5689, 60.959559 ], [ 25.568991, 60.959587 ], [ 25.569137, 60.959625 ], [ 25.569246, 60.959653 ], [ 25.569355, 60.95969 ], [ 25.5694856, 60.9597457 ], [ 25.5695885, 60.9597791 ], [ 25.5696676, 60.9597786 ], [ 25.56975, 60.9597556 ], [ 25.5699599, 60.9596862 ], [ 25.5700291, 60.9596617 ], [ 25.570171, 60.959627 ], [ 25.5702625, 60.9595993 ], [ 25.5703666, 60.9595946 ], [ 25.5704688, 60.9596077 ], [ 25.570539, 60.959648 ], [ 25.570556, 60.959675 ], [ 25.570554, 60.95972 ], [ 25.570571, 60.959756 ], [ 25.570589, 60.959766 ], [ 25.570624, 60.959811 ], [ 25.570622, 60.959856 ], [ 25.570639, 60.959892 ], [ 25.570637, 60.959937 ], [ 25.570617, 60.959963 ], [ 25.570552, 60.960178 ], [ 25.570569, 60.960214 ], [ 25.570585, 60.960268 ], [ 25.570601, 60.960322 ], [ 25.570581, 60.960358 ], [ 25.570562, 60.9604142 ], [ 25.5706299, 60.9604719 ], [ 25.5707993, 60.9605586 ], [ 25.5708153, 60.9606208 ], [ 25.5708415, 60.9606673 ], [ 25.570879, 60.960711 ], [ 25.570915, 60.960729 ], [ 25.570952, 60.96073 ], [ 25.5709888, 60.9607315 ], [ 25.570992, 60.960667 ], [ 25.571032, 60.960587 ], [ 25.57109, 60.960525 ], [ 25.571129, 60.96048 ], [ 25.571151, 60.960409 ], [ 25.571171, 60.960364 ], [ 25.571217, 60.960167 ], [ 25.571241, 60.960051 ], [ 25.571227, 60.959943 ], [ 25.571159, 60.959825 ], [ 25.57108, 60.959519 ], [ 25.571027, 60.959456 ], [ 25.570938, 60.959392 ], [ 25.57083, 60.959328 ], [ 25.570721, 60.959282 ], [ 25.570649, 60.959255 ], [ 25.570026, 60.95914 ], [ 25.569953, 60.959122 ], [ 25.569862, 60.959094 ], [ 25.569789, 60.959075 ], [ 25.569644, 60.959029 ], [ 25.569535, 60.958991 ], [ 25.569499, 60.958955 ], [ 25.569464, 60.958919 ], [ 25.569448, 60.958874 ], [ 25.56945, 60.95882 ], [ 25.569472, 60.958748 ], [ 25.569493, 60.958686 ], [ 25.56957, 60.958624 ], [ 25.569664, 60.958571 ], [ 25.56974, 60.958518 ], [ 25.5698, 60.958429 ], [ 25.569805, 60.958321 ], [ 25.569825, 60.958268 ], [ 25.569847, 60.958196 ], [ 25.569886, 60.958143 ], [ 25.569908, 60.958071 ], [ 25.569911, 60.957999 ], [ 25.569915, 60.957927 ], [ 25.569899, 60.957855 ], [ 25.569885, 60.957757 ], [ 25.569834, 60.957657 ], [ 25.569727, 60.957575 ], [ 25.569656, 60.957521 ], [ 25.569583, 60.957502 ], [ 25.569473, 60.957483 ], [ 25.569325, 60.957481 ], [ 25.569177, 60.957498 ], [ 25.568992, 60.957514 ], [ 25.568824, 60.957539 ], [ 25.568711, 60.957591 ], [ 25.568617, 60.957626 ], [ 25.568487, 60.957661 ], [ 25.568376, 60.95766 ], [ 25.568173, 60.957658 ], [ 25.568045, 60.957638 ], [ 25.568008, 60.957638 ], [ 25.567953, 60.957619 ], [ 25.567807, 60.957591 ], [ 25.567661, 60.957553 ], [ 25.567515, 60.957507 ], [ 25.567425, 60.957452 ], [ 25.567318, 60.957388 ], [ 25.567246, 60.957343 ], [ 25.56721, 60.957306 ], [ 25.567121, 60.957242 ], [ 25.567032, 60.957179 ], [ 25.566943, 60.957106 ], [ 25.566908, 60.957061 ], [ 25.566836, 60.957006 ], [ 25.566801, 60.956961 ], [ 25.566749, 60.956897 ], [ 25.566733, 60.956834 ], [ 25.566718, 60.956762 ], [ 25.56672, 60.956709 ], [ 25.566761, 60.956637 ], [ 25.5668, 60.956575 ], [ 25.56684, 60.956521 ], [ 25.566934, 60.956469 ], [ 25.567065, 60.956434 ], [ 25.567142, 60.956372 ], [ 25.567201, 60.956292 ], [ 25.567223, 60.956202 ], [ 25.567246, 60.956104 ], [ 25.567248, 60.956059 ], [ 25.567232, 60.956005 ], [ 25.567198, 60.955942 ], [ 25.567109, 60.955869 ], [ 25.567018, 60.955841 ], [ 25.566926, 60.955822 ], [ 25.566799, 60.955785 ], [ 25.566616, 60.955756 ], [ 25.566432, 60.955736 ], [ 25.566211, 60.955716 ], [ 25.566065, 60.955696 ], [ 25.5659, 60.955668 ], [ 25.5657, 60.955603 ], [ 25.565373, 60.955474 ], [ 25.565265, 60.95541 ], [ 25.565214, 60.95531 ], [ 25.565217, 60.955256 ], [ 25.565219, 60.955203 ], [ 25.565241, 60.95514 ], [ 25.565263, 60.955051 ], [ 25.56532, 60.955006 ], [ 25.56536, 60.954953 ], [ 25.565401, 60.954855 ], [ 25.565442, 60.954765 ], [ 25.565444, 60.95472 ], [ 25.565445, 60.954693 ], [ 25.565428, 60.954657 ], [ 25.565394, 60.954594 ], [ 25.565322, 60.954558 ], [ 25.565233, 60.954494 ], [ 25.565163, 60.954412 ], [ 25.565092, 60.954331 ], [ 25.565039, 60.954276 ], [ 25.565007, 60.954186 ], [ 25.565048, 60.954088 ], [ 25.565108, 60.953981 ], [ 25.56513, 60.9539 ], [ 25.565154, 60.953793 ], [ 25.565158, 60.953685 ], [ 25.565125, 60.953613 ], [ 25.565076, 60.95346 ], [ 25.565045, 60.953343 ], [ 25.565013, 60.953235 ], [ 25.564962, 60.953118 ], [ 25.564872, 60.953072 ], [ 25.564819, 60.953035 ], [ 25.564709, 60.953007 ], [ 25.564581, 60.952979 ], [ 25.564434, 60.952977 ], [ 25.564267, 60.952984 ], [ 25.564063, 60.953018 ], [ 25.563895, 60.953043 ], [ 25.563766, 60.953051 ], [ 25.5636, 60.953031 ], [ 25.563454, 60.953003 ], [ 25.563345, 60.952975 ], [ 25.563254, 60.952938 ], [ 25.563218, 60.952919 ], [ 25.563165, 60.952856 ], [ 25.563168, 60.952793 ], [ 25.563265, 60.952696 ], [ 25.563361, 60.952607 ], [ 25.563458, 60.952509 ], [ 25.563554, 60.952429 ], [ 25.563596, 60.952322 ], [ 25.56362, 60.952197 ], [ 25.56355, 60.952115 ], [ 25.563385, 60.952077 ], [ 25.563183, 60.952066 ], [ 25.562962, 60.952055 ], [ 25.562797, 60.952026 ], [ 25.562596, 60.951979 ], [ 25.562488, 60.951924 ], [ 25.562398, 60.951861 ], [ 25.562291, 60.951779 ], [ 25.562204, 60.95167 ], [ 25.562134, 60.95157 ], [ 25.562138, 60.95149 ], [ 25.562125, 60.951382 ], [ 25.562092, 60.951274 ], [ 25.56208, 60.951148 ], [ 25.562085, 60.951031 ], [ 25.562071, 60.950924 ], [ 25.56211, 60.950879 ], [ 25.562133, 60.95079 ], [ 25.562154, 60.950718 ], [ 25.562159, 60.950628 ], [ 25.562144, 60.950538 ], [ 25.562075, 60.950439 ], [ 25.561986, 60.950357 ], [ 25.561915, 60.950294 ], [ 25.561881, 60.950239 ], [ 25.561846, 60.950203 ], [ 25.561793, 60.95014 ], [ 25.561759, 60.950085 ], [ 25.56167, 60.950004 ], [ 25.561618, 60.949931 ], [ 25.5614983, 60.9497156 ], [ 25.5614888, 60.9496732 ], [ 25.561484, 60.949634 ], [ 25.561469, 60.949544 ], [ 25.561473, 60.949463 ], [ 25.561497, 60.949329 ], [ 25.561519, 60.949266 ], [ 25.561503, 60.949194 ], [ 25.561471, 60.949104 ], [ 25.561227, 60.948778 ], [ 25.561072, 60.948534 ], [ 25.561076, 60.948436 ], [ 25.561062, 60.948337 ], [ 25.561049, 60.948229 ], [ 25.561014, 60.948175 ], [ 25.560998, 60.948139 ], [ 25.560981, 60.948093 ], [ 25.560964, 60.948057 ], [ 25.560911, 60.948012 ], [ 25.560856, 60.947993 ], [ 25.560783, 60.947975 ], [ 25.560692, 60.947956 ], [ 25.560601, 60.947937 ], [ 25.560436, 60.947899 ], [ 25.56029, 60.947871 ], [ 25.560144, 60.947842 ], [ 25.56007, 60.947832 ], [ 25.55996, 60.947822 ], [ 25.559868, 60.947803 ], [ 25.559704, 60.947757 ], [ 25.55967, 60.947711 ], [ 25.559672, 60.947658 ], [ 25.559713, 60.947568 ], [ 25.559752, 60.947515 ], [ 25.559811, 60.947435 ], [ 25.559908, 60.947328 ], [ 25.560024, 60.947222 ], [ 25.560101, 60.947142 ], [ 25.56016, 60.94707 ], [ 25.5602, 60.94699 ], [ 25.560203, 60.946945 ], [ 25.560189, 60.946837 ], [ 25.560119, 60.946747 ], [ 25.560049, 60.946665 ], [ 25.559961, 60.946584 ], [ 25.559746, 60.946438 ], [ 25.559585, 60.946319 ], [ 25.55946, 60.946228 ], [ 25.559336, 60.94611 ], [ 25.559247, 60.946037 ], [ 25.559142, 60.94592 ], [ 25.559089, 60.945865 ], [ 25.559054, 60.94582 ], [ 25.559037, 60.945784 ], [ 25.559003, 60.945721 ], [ 25.558988, 60.945649 ], [ 25.558918, 60.945567 ], [ 25.558865, 60.945513 ], [ 25.55883, 60.945459 ], [ 25.558832, 60.945414 ], [ 25.558852, 60.945387 ], [ 25.558872, 60.94536 ], [ 25.558947, 60.945325 ], [ 25.559098, 60.945255 ], [ 25.559211, 60.945202 ], [ 25.559418, 60.945124 ], [ 25.559474, 60.945097 ], [ 25.559531, 60.945071 ], [ 25.559569, 60.945036 ], [ 25.559627, 60.944991 ], [ 25.559645, 60.944983 ], [ 25.559665, 60.944956 ], [ 25.559685, 60.944929 ], [ 25.559724, 60.944876 ], [ 25.559707, 60.944849 ], [ 25.55969, 60.944812 ], [ 25.559672, 60.944794 ], [ 25.559492, 60.944703 ], [ 25.559437, 60.944684 ], [ 25.55931, 60.944656 ], [ 25.559164, 60.944618 ], [ 25.558999, 60.94459 ], [ 25.558834, 60.944561 ], [ 25.558706, 60.944533 ], [ 25.558633, 60.944514 ], [ 25.558579, 60.944495 ], [ 25.558507, 60.944459 ], [ 25.558452, 60.944431 ], [ 25.558398, 60.944404 ], [ 25.558345, 60.944367 ], [ 25.558309, 60.944331 ], [ 25.558274, 60.944286 ], [ 25.558294, 60.944259 ], [ 25.558297, 60.944196 ], [ 25.558374, 60.944116 ], [ 25.558432, 60.944063 ], [ 25.558489, 60.944028 ], [ 25.558583, 60.943993 ], [ 25.55864, 60.943966 ], [ 25.558733, 60.943932 ], [ 25.558864, 60.943897 ], [ 25.558957, 60.943871 ], [ 25.559051, 60.943845 ], [ 25.559182, 60.943802 ], [ 25.559314, 60.943749 ], [ 25.559444, 60.943715 ], [ 25.559577, 60.943644 ], [ 25.559616, 60.943582 ], [ 25.559692, 60.943547 ], [ 25.559693, 60.94352 ], [ 25.559695, 60.943475 ], [ 25.559698, 60.943403 ], [ 25.559682, 60.943358 ], [ 25.559667, 60.943277 ], [ 25.559651, 60.943214 ], [ 25.559654, 60.943161 ], [ 25.559621, 60.943079 ], [ 25.559586, 60.943025 ], [ 25.55957, 60.942971 ], [ 25.559571, 60.942953 ], [ 25.559591, 60.942926 ], [ 25.55961, 60.9429 ], [ 25.55963, 60.942882 ], [ 25.559649, 60.942864 ], [ 25.559705, 60.942838 ], [ 25.559799, 60.942812 ], [ 25.559855, 60.942804 ], [ 25.560041, 60.942752 ], [ 25.560134, 60.942735 ], [ 25.560246, 60.942709 ], [ 25.560358, 60.942683 ], [ 25.560507, 60.942658 ], [ 25.560619, 60.942632 ], [ 25.560768, 60.942607 ], [ 25.560824, 60.942572 ], [ 25.560844, 60.942554 ], [ 25.560882, 60.942518 ], [ 25.56092, 60.942501 ], [ 25.560939, 60.942483 ], [ 25.56096, 60.942438 ], [ 25.560944, 60.942375 ], [ 25.560928, 60.94233 ], [ 25.56086, 60.942204 ], [ 25.560791, 60.942078 ], [ 25.560757, 60.942014 ], [ 25.560723, 60.941951 ], [ 25.560707, 60.941906 ], [ 25.56069, 60.94187 ], [ 25.56071, 60.941843 ], [ 25.56071, 60.941834 ], [ 25.560768, 60.941781 ], [ 25.560824, 60.941764 ], [ 25.561158, 60.941714 ], [ 25.561233, 60.941696 ], [ 25.56129, 60.941661 ], [ 25.561347, 60.941626 ], [ 25.561404, 60.941582 ], [ 25.561443, 60.941546 ], [ 25.561463, 60.941501 ], [ 25.561521, 60.941448 ], [ 25.561578, 60.941413 ], [ 25.561672, 60.941369 ], [ 25.56173, 60.941325 ], [ 25.561806, 60.941272 ], [ 25.561825, 60.941245 ], [ 25.561827, 60.941218 ], [ 25.561793, 60.941155 ], [ 25.561758, 60.941101 ], [ 25.561722, 60.941073 ], [ 25.561668, 60.941046 ], [ 25.56165, 60.941037 ], [ 25.561485, 60.941026 ], [ 25.561356, 60.941025 ], [ 25.561171, 60.941023 ], [ 25.560913, 60.941029 ], [ 25.560765, 60.941036 ], [ 25.560654, 60.941026 ], [ 25.5606, 60.941016 ], [ 25.560581, 60.941007 ], [ 25.560546, 60.94098 ], [ 25.560529, 60.940944 ], [ 25.560531, 60.940899 ], [ 25.560535, 60.940818 ], [ 25.560519, 60.940746 ], [ 25.560505, 60.940656 ], [ 25.560469, 60.940629 ], [ 25.560246, 60.940663 ], [ 25.560173, 60.940662 ], [ 25.560062, 60.940661 ], [ 25.559951, 60.940659 ], [ 25.559842, 60.940631 ], [ 25.559769, 60.940613 ], [ 25.559734, 60.940576 ], [ 25.559662, 60.940531 ], [ 25.559609, 60.940476 ], [ 25.559503, 60.940385 ], [ 25.559448, 60.940376 ], [ 25.559375, 60.940357 ], [ 25.559283, 60.940347 ], [ 25.559228, 60.940338 ], [ 25.559175, 60.940292 ], [ 25.559103, 60.940246 ], [ 25.559031, 60.94021 ], [ 25.558996, 60.940174 ], [ 25.558942, 60.940128 ], [ 25.558945, 60.940074 ], [ 25.558911, 60.939993 ], [ 25.558897, 60.939912 ], [ 25.558844, 60.939849 ], [ 25.558792, 60.939785 ], [ 25.558738, 60.93974 ], [ 25.558702, 60.939722 ], [ 25.558684, 60.939721 ], [ 25.558666, 60.939712 ], [ 25.558556, 60.939693 ], [ 25.558296, 60.939726 ], [ 25.558238, 60.939779 ], [ 25.558182, 60.939797 ], [ 25.558126, 60.939814 ], [ 25.55807, 60.939832 ], [ 25.557884, 60.939874 ], [ 25.557846, 60.939883 ], [ 25.557681, 60.939872 ], [ 25.557626, 60.939863 ], [ 25.557479, 60.939843 ], [ 25.557352, 60.939806 ], [ 25.557297, 60.939796 ], [ 25.557205, 60.939777 ], [ 25.557114, 60.939758 ], [ 25.557059, 60.93974 ], [ 25.556987, 60.939721 ], [ 25.55695, 60.939712 ], [ 25.556879, 60.939657 ], [ 25.55688, 60.939639 ], [ 25.556936, 60.939622 ], [ 25.556992, 60.939605 ], [ 25.556991, 60.939614 ], [ 25.557047, 60.939605 ], [ 25.557102, 60.939606 ], [ 25.557158, 60.939597 ], [ 25.557195, 60.939589 ], [ 25.557233, 60.93958 ], [ 25.55727, 60.939572 ], [ 25.557308, 60.939554 ], [ 25.557345, 60.939537 ], [ 25.557364, 60.939528 ], [ 25.557346, 60.939519 ], [ 25.55733, 60.939474 ], [ 25.557296, 60.939401 ], [ 25.557315, 60.939393 ], [ 25.557353, 60.939366 ], [ 25.557391, 60.939349 ], [ 25.557428, 60.93934 ], [ 25.557465, 60.93934 ], [ 25.557521, 60.939332 ], [ 25.557594, 60.939333 ], [ 25.557667, 60.939351 ], [ 25.557704, 60.939361 ], [ 25.557796, 60.939371 ], [ 25.557869, 60.939372 ], [ 25.557906, 60.939372 ], [ 25.558, 60.939346 ], [ 25.558037, 60.939329 ], [ 25.558076, 60.939302 ], [ 25.558132, 60.939285 ], [ 25.55817, 60.939249 ], [ 25.558189, 60.939231 ], [ 25.558246, 60.939205 ], [ 25.558283, 60.939197 ], [ 25.558302, 60.939197 ], [ 25.558376, 60.939189 ], [ 25.558431, 60.939189 ], [ 25.558505, 60.939181 ], [ 25.558542, 60.939181 ], [ 25.558579, 60.939191 ], [ 25.558704, 60.939273 ], [ 25.558722, 60.939282 ], [ 25.558759, 60.939282 ], [ 25.558814, 60.939283 ], [ 25.558852, 60.939274 ], [ 25.558889, 60.939275 ], [ 25.558926, 60.939257 ], [ 25.558982, 60.93924 ], [ 25.55902, 60.939213 ], [ 25.559077, 60.939187 ], [ 25.559115, 60.939169 ], [ 25.559134, 60.939143 ], [ 25.559172, 60.939116 ], [ 25.559192, 60.939099 ], [ 25.559292, 60.93892 ], [ 25.559256, 60.938893 ], [ 25.559257, 60.938884 ], [ 25.559221, 60.938856 ], [ 25.559167, 60.938838 ], [ 25.558928, 60.938799 ], [ 25.558911, 60.938781 ], [ 25.558405, 60.938543 ], [ 25.558351, 60.938524 ], [ 25.558314, 60.938515 ], [ 25.558259, 60.938505 ], [ 25.558223, 60.938487 ], [ 25.558168, 60.938477 ], [ 25.558132, 60.938459 ], [ 25.558042, 60.938404 ], [ 25.558007, 60.938377 ], [ 25.557989, 60.93835 ], [ 25.557954, 60.938322 ], [ 25.557937, 60.938286 ], [ 25.557902, 60.93825 ], [ 25.557885, 60.938223 ], [ 25.557868, 60.938178 ], [ 25.557833, 60.938133 ], [ 25.557816, 60.938105 ], [ 25.557781, 60.938069 ], [ 25.557764, 60.938033 ], [ 25.557746, 60.938015 ], [ 25.557729, 60.937997 ], [ 25.557729, 60.937988 ], [ 25.557859, 60.937962 ], [ 25.56004, 60.937465 ], [ 25.559052, 60.936476 ], [ 25.558822, 60.936249 ], [ 25.558629, 60.936041 ], [ 25.558311, 60.935723 ], [ 25.556337, 60.933691 ], [ 25.5640061, 60.9321205 ], [ 25.564232, 60.932052 ], [ 25.564996, 60.93189 ], [ 25.571245, 60.936076 ], [ 25.572329, 60.935765 ], [ 25.572666, 60.93567 ], [ 25.573675, 60.935384 ], [ 25.577709, 60.934269 ], [ 25.576592, 60.932022 ], [ 25.575811, 60.930497 ], [ 25.580755, 60.929652 ], [ 25.582948, 60.929271 ], [ 25.583338, 60.929212 ], [ 25.58397, 60.929102 ], [ 25.584881, 60.928941 ], [ 25.586832, 60.928612 ], [ 25.589385, 60.92845 ], [ 25.590032, 60.928412 ], [ 25.591068, 60.928342 ], [ 25.592344, 60.928265 ], [ 25.592954, 60.928227 ], [ 25.594933, 60.928095 ], [ 25.598774, 60.926304 ], [ 25.599579, 60.927712 ], [ 25.600779, 60.929798 ], [ 25.60227, 60.932381 ], [ 25.606523, 60.932982 ], [ 25.606721, 60.932678 ], [ 25.607548, 60.931475 ], [ 25.607823, 60.931092 ], [ 25.608709, 60.9298 ], [ 25.6090818, 60.9291279 ], [ 25.60913, 60.929041 ], [ 25.60919, 60.928934 ], [ 25.610842, 60.929104 ], [ 25.61211, 60.929225 ], [ 25.613964, 60.929414 ], [ 25.618794, 60.929904 ], [ 25.621144, 60.930143 ], [ 25.622613, 60.930293 ], [ 25.622962, 60.930323 ], [ 25.623017, 60.930333 ], [ 25.623091, 60.930334 ], [ 25.623129, 60.930316 ], [ 25.623205, 60.930254 ], [ 25.623243, 60.930227 ], [ 25.623281, 60.930201 ], [ 25.623301, 60.930174 ], [ 25.623339, 60.930148 ], [ 25.623376, 60.93013 ], [ 25.623452, 60.930095 ], [ 25.623527, 60.930069 ], [ 25.623583, 60.930033 ], [ 25.62364, 60.930007 ], [ 25.623678, 60.929981 ], [ 25.623754, 60.929936 ], [ 25.62381, 60.929901 ], [ 25.623904, 60.929866 ], [ 25.623961, 60.92984 ], [ 25.624092, 60.929796 ], [ 25.624185, 60.929761 ], [ 25.624261, 60.929726 ], [ 25.624354, 60.9297 ], [ 25.624392, 60.929674 ], [ 25.62443, 60.929656 ], [ 25.624505, 60.929621 ], [ 25.624542, 60.929612 ], [ 25.624636, 60.929586 ], [ 25.62471, 60.929569 ], [ 25.624821, 60.929552 ], [ 25.624896, 60.929544 ], [ 25.62497, 60.929536 ], [ 25.625044, 60.929528 ], [ 25.625138, 60.929493 ], [ 25.625194, 60.929475 ], [ 25.625231, 60.929458 ], [ 25.625288, 60.929432 ], [ 25.625326, 60.929405 ], [ 25.625364, 60.929369 ], [ 25.625384, 60.929343 ], [ 25.625403, 60.929316 ], [ 25.625423, 60.929298 ], [ 25.625423, 60.92928 ], [ 25.625462, 60.929236 ], [ 25.625634, 60.929094 ], [ 25.625691, 60.929059 ], [ 25.625729, 60.929041 ], [ 25.625804, 60.929015 ], [ 25.625879, 60.928989 ], [ 25.625972, 60.928954 ], [ 25.626047, 60.928937 ], [ 25.626103, 60.92891 ], [ 25.626141, 60.928884 ], [ 25.626218, 60.928804 ], [ 25.62624, 60.928732 ], [ 25.626243, 60.92866 ], [ 25.626247, 60.92858 ], [ 25.626212, 60.928534 ], [ 25.626196, 60.928462 ], [ 25.626161, 60.928417 ], [ 25.626108, 60.928363 ], [ 25.626073, 60.928327 ], [ 25.62602, 60.928272 ], [ 25.625967, 60.928227 ], [ 25.625913, 60.928181 ], [ 25.625897, 60.928136 ], [ 25.625845, 60.928064 ], [ 25.625792, 60.928001 ], [ 25.625721, 60.927928 ], [ 25.625668, 60.927883 ], [ 25.625632, 60.927855 ], [ 25.625578, 60.927837 ], [ 25.625488, 60.927791 ], [ 25.62536, 60.927745 ], [ 25.625288, 60.927708 ], [ 25.625198, 60.927671 ], [ 25.625143, 60.927644 ], [ 25.625108, 60.927617 ], [ 25.625003, 60.927472 ], [ 25.625005, 60.927436 ], [ 25.625025, 60.9274 ], [ 25.625044, 60.927374 ], [ 25.62512, 60.927338 ], [ 25.625195, 60.927312 ], [ 25.625232, 60.927304 ], [ 25.625842, 60.927265 ], [ 25.625879, 60.927265 ], [ 25.625935, 60.927257 ], [ 25.626083, 60.92725 ], [ 25.626194, 60.927233 ], [ 25.626268, 60.927234 ], [ 25.626342, 60.927225 ], [ 25.626397, 60.927226 ], [ 25.626416, 60.927226 ], [ 25.626471, 60.927227 ], [ 25.626545, 60.927218 ], [ 25.626638, 60.92721 ], [ 25.626675, 60.927202 ], [ 25.62673, 60.927202 ], [ 25.626786, 60.927185 ], [ 25.626842, 60.927168 ], [ 25.626879, 60.927159 ], [ 25.626936, 60.927142 ], [ 25.626955, 60.927124 ], [ 25.626992, 60.927106 ], [ 25.62703, 60.92708 ], [ 25.627068, 60.927062 ], [ 25.627087, 60.927044 ], [ 25.627106, 60.927036 ], [ 25.627125, 60.927027 ], [ 25.627391, 60.926841 ], [ 25.627467, 60.926797 ], [ 25.627542, 60.926762 ], [ 25.627712, 60.926674 ], [ 25.627863, 60.926586 ], [ 25.627941, 60.926497 ], [ 25.62798, 60.926443 ], [ 25.628, 60.926407 ], [ 25.628002, 60.926354 ], [ 25.628004, 60.926309 ], [ 25.627988, 60.926264 ], [ 25.627972, 60.92621 ], [ 25.627973, 60.926165 ], [ 25.627957, 60.926129 ], [ 25.627958, 60.926102 ], [ 25.627906, 60.92603 ], [ 25.627873, 60.925939 ], [ 25.627821, 60.925858 ], [ 25.627805, 60.925795 ], [ 25.62777, 60.925759 ], [ 25.627752, 60.925732 ], [ 25.627736, 60.925687 ], [ 25.627719, 60.92566 ], [ 25.627721, 60.925615 ], [ 25.62774, 60.925579 ], [ 25.627798, 60.925526 ], [ 25.627837, 60.92549 ], [ 25.627912, 60.925446 ], [ 25.628007, 60.925384 ], [ 25.628083, 60.92534 ], [ 25.628178, 60.925278 ], [ 25.62829, 60.925226 ], [ 25.628365, 60.925199 ], [ 25.628478, 60.925156 ], [ 25.628534, 60.925138 ], [ 25.628627, 60.925112 ], [ 25.628683, 60.925095 ], [ 25.628813, 60.925078 ], [ 25.628888, 60.925052 ], [ 25.628963, 60.925035 ], [ 25.629112, 60.925001 ], [ 25.629241, 60.924984 ], [ 25.629369, 60.925012 ], [ 25.629459, 60.925058 ], [ 25.629496, 60.925076 ], [ 25.629513, 60.925094 ], [ 25.629584, 60.925158 ], [ 25.629637, 60.925221 ], [ 25.629689, 60.925294 ], [ 25.629724, 60.925339 ], [ 25.629757, 60.92542 ], [ 25.629827, 60.92552 ], [ 25.62988, 60.925574 ], [ 25.629898, 60.925592 ], [ 25.629987, 60.925647 ], [ 25.630042, 60.925674 ], [ 25.630096, 60.925693 ], [ 25.630133, 60.925702 ], [ 25.630224, 60.925712 ], [ 25.630318, 60.925686 ], [ 25.630374, 60.925669 ], [ 25.630412, 60.925642 ], [ 25.630488, 60.925589 ], [ 25.630563, 60.925554 ], [ 25.630582, 60.925536 ], [ 25.630678, 60.925456 ], [ 25.630736, 60.925403 ], [ 25.63085, 60.925315 ], [ 25.630869, 60.925297 ], [ 25.630908, 60.925252 ], [ 25.630928, 60.925208 ], [ 25.63093, 60.925163 ], [ 25.630933, 60.925109 ], [ 25.630934, 60.925064 ], [ 25.630956, 60.924983 ], [ 25.630978, 60.924903 ], [ 25.630981, 60.924849 ], [ 25.631, 60.924822 ], [ 25.631003, 60.92476 ], [ 25.630987, 60.924706 ], [ 25.630988, 60.924679 ], [ 25.630936, 60.924606 ], [ 25.630919, 60.92457 ], [ 25.630902, 60.924543 ], [ 25.630902, 60.924534 ], [ 25.630885, 60.924507 ], [ 25.630815, 60.924417 ], [ 25.630762, 60.924353 ], [ 25.63071, 60.92429 ], [ 25.630674, 60.924254 ], [ 25.630658, 60.924209 ], [ 25.630659, 60.924173 ], [ 25.630642, 60.924137 ], [ 25.630644, 60.924101 ], [ 25.630646, 60.924056 ], [ 25.630649, 60.923984 ], [ 25.630652, 60.923912 ], [ 25.630673, 60.92385 ], [ 25.630694, 60.923796 ], [ 25.630732, 60.923761 ], [ 25.63077, 60.923743 ], [ 25.630808, 60.923707 ], [ 25.630847, 60.923672 ], [ 25.630903, 60.923655 ], [ 25.630959, 60.923628 ], [ 25.631016, 60.923602 ], [ 25.631072, 60.923584 ], [ 25.631147, 60.923558 ], [ 25.631203, 60.923541 ], [ 25.631297, 60.923497 ], [ 25.631409, 60.923453 ], [ 25.631541, 60.923401 ], [ 25.631635, 60.923348 ], [ 25.63171, 60.923313 ], [ 25.631748, 60.923295 ], [ 25.631766, 60.923295 ], [ 25.631823, 60.92326 ], [ 25.631899, 60.923225 ], [ 25.631993, 60.923181 ], [ 25.632068, 60.923137 ], [ 25.632125, 60.923093 ], [ 25.63222, 60.923031 ], [ 25.632316, 60.92296 ], [ 25.63243, 60.92288 ], [ 25.632488, 60.922809 ], [ 25.632508, 60.922782 ], [ 25.632527, 60.922756 ], [ 25.63253, 60.922684 ], [ 25.632515, 60.922621 ], [ 25.632447, 60.922476 ], [ 25.632395, 60.922395 ], [ 25.632344, 60.922305 ], [ 25.63231, 60.922233 ], [ 25.632312, 60.922188 ], [ 25.632334, 60.922089 ], [ 25.632412, 60.922 ], [ 25.632508, 60.921921 ], [ 25.632676, 60.921859 ], [ 25.632974, 60.921791 ], [ 25.633253, 60.921749 ], [ 25.633792, 60.921646 ], [ 25.633978, 60.921603 ], [ 25.634127, 60.921569 ], [ 25.634314, 60.921517 ], [ 25.634444, 60.921474 ], [ 25.634614, 60.921394 ], [ 25.634727, 60.921333 ], [ 25.634747, 60.921288 ], [ 25.63475, 60.921225 ], [ 25.634734, 60.921171 ], [ 25.634681, 60.921108 ], [ 25.634685, 60.921027 ], [ 25.634725, 60.920947 ], [ 25.634765, 60.920866 ], [ 25.634825, 60.920759 ], [ 25.634884, 60.920688 ], [ 25.634961, 60.920617 ], [ 25.635055, 60.920564 ], [ 25.635222, 60.92053 ], [ 25.635427, 60.920478 ], [ 25.635669, 60.920436 ], [ 25.635818, 60.920392 ], [ 25.63595, 60.920331 ], [ 25.636137, 60.920261 ], [ 25.63627, 60.920182 ], [ 25.636365, 60.920111 ], [ 25.636479, 60.920022 ], [ 25.636537, 60.919969 ], [ 25.636596, 60.919889 ], [ 25.63658, 60.919817 ], [ 25.636547, 60.919745 ], [ 25.636514, 60.919654 ], [ 25.636463, 60.919555 ], [ 25.636393, 60.919447 ], [ 25.636306, 60.919329 ], [ 25.6362, 60.919238 ], [ 25.636111, 60.919157 ], [ 25.635968, 60.919039 ], [ 25.635917, 60.918948 ], [ 25.635883, 60.918876 ], [ 25.635886, 60.918813 ], [ 25.635907, 60.91876 ], [ 25.635984, 60.91868 ], [ 25.636116, 60.9186 ], [ 25.636269, 60.918485 ], [ 25.636383, 60.918406 ], [ 25.636534, 60.918317 ], [ 25.636703, 60.918247 ], [ 25.636834, 60.918204 ], [ 25.637058, 60.918125 ], [ 25.637283, 60.918047 ], [ 25.637489, 60.917959 ], [ 25.637583, 60.917924 ], [ 25.637658, 60.917889 ], [ 25.637808, 60.917846 ], [ 25.637976, 60.917793 ], [ 25.638106, 60.917759 ], [ 25.638292, 60.917725 ], [ 25.638496, 60.9177 ], [ 25.63868, 60.917711 ], [ 25.638863, 60.91774 ], [ 25.638973, 60.917768 ], [ 25.6391, 60.917796 ], [ 25.639228, 60.917833 ], [ 25.639337, 60.917861 ], [ 25.639466, 60.91788 ], [ 25.639576, 60.917881 ], [ 25.639669, 60.917864 ], [ 25.639763, 60.91782 ], [ 25.639767, 60.917731 ], [ 25.639697, 60.917649 ], [ 25.639571, 60.917567 ], [ 25.639444, 60.917512 ], [ 25.639299, 60.917457 ], [ 25.639191, 60.917393 ], [ 25.639138, 60.917338 ], [ 25.639104, 60.917284 ], [ 25.639124, 60.917248 ], [ 25.639163, 60.917195 ], [ 25.639275, 60.917151 ], [ 25.639462, 60.917099 ], [ 25.639647, 60.917074 ], [ 25.639814, 60.917067 ], [ 25.639979, 60.917087 ], [ 25.640125, 60.917124 ], [ 25.640271, 60.917161 ], [ 25.640434, 60.917208 ], [ 25.640617, 60.917246 ], [ 25.640801, 60.917256 ], [ 25.640948, 60.917267 ], [ 25.641133, 60.91726 ], [ 25.641318, 60.917244 ], [ 25.641484, 60.917236 ], [ 25.641669, 60.917229 ], [ 25.641834, 60.917249 ], [ 25.64198, 60.917277 ], [ 25.642089, 60.917314 ], [ 25.642252, 60.917388 ], [ 25.642414, 60.917479 ], [ 25.642558, 60.917561 ], [ 25.642666, 60.917616 ], [ 25.642793, 60.917663 ], [ 25.642939, 60.917718 ], [ 25.643066, 60.917755 ], [ 25.643158, 60.917765 ], [ 25.643305, 60.917766 ], [ 25.643418, 60.917723 ], [ 25.643458, 60.917633 ], [ 25.643444, 60.917534 ], [ 25.643392, 60.917453 ], [ 25.643232, 60.917317 ], [ 25.643034, 60.917207 ], [ 25.642762, 60.917106 ], [ 25.642581, 60.917023 ], [ 25.642473, 60.916959 ], [ 25.64242, 60.916896 ], [ 25.642387, 60.916824 ], [ 25.642408, 60.916761 ], [ 25.642521, 60.916699 ], [ 25.64265, 60.916692 ], [ 25.642853, 60.916703 ], [ 25.643035, 60.916749 ], [ 25.643144, 60.916777 ], [ 25.643272, 60.916824 ], [ 25.6434, 60.916843 ], [ 25.643547, 60.916853 ], [ 25.643824, 60.916838 ], [ 25.644028, 60.916813 ], [ 25.644233, 60.916761 ], [ 25.644346, 60.916709 ], [ 25.644441, 60.916638 ], [ 25.644462, 60.916575 ], [ 25.644447, 60.916494 ], [ 25.644415, 60.916377 ], [ 25.644384, 60.916251 ], [ 25.644351, 60.916143 ], [ 25.644338, 60.916027 ], [ 25.644344, 60.915892 ], [ 25.64435, 60.91573 ], [ 25.644355, 60.915632 ], [ 25.644338, 60.915596 ], [ 25.644302, 60.915559 ], [ 25.644249, 60.915505 ], [ 25.644178, 60.91545 ], [ 25.64407, 60.915387 ], [ 25.643962, 60.915323 ], [ 25.643781, 60.91524 ], [ 25.643728, 60.915195 ], [ 25.643711, 60.91515 ], [ 25.643695, 60.915096 ], [ 25.643716, 60.915051 ], [ 25.64381, 60.915007 ], [ 25.643903, 60.914981 ], [ 25.643995, 60.914982 ], [ 25.644105, 60.914992 ], [ 25.644252, 60.91502 ], [ 25.644452, 60.915085 ], [ 25.64467, 60.91515 ], [ 25.644816, 60.915197 ], [ 25.644979, 60.915261 ], [ 25.645142, 60.915317 ], [ 25.645305, 60.91539 ], [ 25.645487, 60.915455 ], [ 25.645613, 60.91551 ], [ 25.645759, 60.915547 ], [ 25.645886, 60.915602 ], [ 25.645976, 60.915657 ], [ 25.646047, 60.915712 ], [ 25.6461, 60.915775 ], [ 25.646153, 60.915829 ], [ 25.646206, 60.915893 ], [ 25.64624, 60.915956 ], [ 25.646256, 60.91601 ], [ 25.64627, 60.916109 ], [ 25.646304, 60.916181 ], [ 25.646338, 60.916244 ], [ 25.646391, 60.916299 ], [ 25.646426, 60.916353 ], [ 25.646461, 60.916398 ], [ 25.646532, 60.916444 ], [ 25.646605, 60.91648 ], [ 25.646696, 60.916508 ], [ 25.646806, 60.916518 ], [ 25.646916, 60.916519 ], [ 25.647028, 60.916502 ], [ 25.647122, 60.916458 ], [ 25.647161, 60.916414 ], [ 25.647163, 60.916351 ], [ 25.64713, 60.916261 ], [ 25.647078, 60.916189 ], [ 25.647044, 60.916117 ], [ 25.64703, 60.916009 ], [ 25.647017, 60.915892 ], [ 25.647001, 60.915829 ], [ 25.64695, 60.915721 ], [ 25.646918, 60.915604 ], [ 25.646849, 60.915495 ], [ 25.646816, 60.915405 ], [ 25.646764, 60.915324 ], [ 25.64673, 60.91527 ], [ 25.646677, 60.915197 ], [ 25.646588, 60.915125 ], [ 25.646518, 60.915043 ], [ 25.646484, 60.91498 ], [ 25.646487, 60.914908 ], [ 25.646526, 60.914855 ], [ 25.646602, 60.914811 ], [ 25.646695, 60.914794 ], [ 25.646804, 60.914822 ], [ 25.646895, 60.91485 ], [ 25.646984, 60.914922 ], [ 25.647, 60.914994 ], [ 25.647033, 60.915066 ], [ 25.647068, 60.915121 ], [ 25.647102, 60.915175 ], [ 25.647192, 60.915247 ], [ 25.647245, 60.915284 ], [ 25.647299, 60.915311 ], [ 25.647372, 60.915339 ], [ 25.6475, 60.915358 ], [ 25.647574, 60.915359 ], [ 25.647741, 60.915343 ], [ 25.647981, 60.915327 ], [ 25.648241, 60.915285 ], [ 25.648408, 60.915251 ], [ 25.648576, 60.915208 ], [ 25.648725, 60.915164 ], [ 25.648931, 60.915103 ], [ 25.649099, 60.915042 ], [ 25.649268, 60.914981 ], [ 25.649398, 60.914938 ], [ 25.649549, 60.914867 ], [ 25.649663, 60.914797 ], [ 25.649794, 60.914735 ], [ 25.649871, 60.914673 ], [ 25.649948, 60.914593 ], [ 25.649988, 60.914513 ], [ 25.649991, 60.91445 ], [ 25.649919, 60.914404 ], [ 25.64981, 60.914358 ], [ 25.649665, 60.914312 ], [ 25.649501, 60.914256 ], [ 25.649356, 60.914201 ], [ 25.649193, 60.914137 ], [ 25.649048, 60.914063 ], [ 25.64894, 60.914008 ], [ 25.648833, 60.913936 ], [ 25.648707, 60.913862 ], [ 25.648599, 60.913799 ], [ 25.648545, 60.913762 ], [ 25.648492, 60.913708 ], [ 25.648439, 60.913662 ], [ 25.648404, 60.913617 ], [ 25.648369, 60.913563 ], [ 25.648335, 60.913491 ], [ 25.648319, 60.913446 ], [ 25.648321, 60.913401 ], [ 25.648322, 60.913365 ], [ 25.648306, 60.91332 ], [ 25.648307, 60.913284 ], [ 25.648291, 60.913239 ], [ 25.648274, 60.913194 ], [ 25.648221, 60.913149 ], [ 25.648204, 60.913103 ], [ 25.64815, 60.913076 ], [ 25.648096, 60.91304 ], [ 25.648042, 60.913012 ], [ 25.647951, 60.912984 ], [ 25.647878, 60.912966 ], [ 25.647805, 60.912956 ], [ 25.647713, 60.912955 ], [ 25.647601, 60.912972 ], [ 25.647527, 60.91298 ], [ 25.647452, 60.913006 ], [ 25.647396, 60.913024 ], [ 25.64734, 60.913059 ], [ 25.647283, 60.913094 ], [ 25.647263, 60.913121 ], [ 25.647225, 60.913165 ], [ 25.647187, 60.913192 ], [ 25.647129, 60.913245 ], [ 25.647072, 60.91329 ], [ 25.647015, 60.913334 ], [ 25.646975, 60.913387 ], [ 25.646919, 60.913423 ], [ 25.646843, 60.913458 ], [ 25.646751, 60.913475 ], [ 25.646658, 60.913483 ], [ 25.646584, 60.913482 ], [ 25.646493, 60.913472 ], [ 25.646365, 60.913444 ], [ 25.646292, 60.913416 ], [ 25.646238, 60.91338 ], [ 25.646203, 60.913353 ], [ 25.646168, 60.913307 ], [ 25.64617, 60.913254 ], [ 25.646154, 60.9132 ], [ 25.646174, 60.913155 ], [ 25.646176, 60.91311 ], [ 25.646179, 60.913038 ], [ 25.646199, 60.913003 ], [ 25.64622, 60.912949 ], [ 25.646258, 60.912913 ], [ 25.646297, 60.912869 ], [ 25.646317, 60.912824 ], [ 25.646374, 60.912789 ], [ 25.646413, 60.912744 ], [ 25.64647, 60.9127 ], [ 25.646508, 60.912665 ], [ 25.646584, 60.912629 ], [ 25.64666, 60.912576 ], [ 25.646717, 60.912523 ], [ 25.646812, 60.912452 ], [ 25.646907, 60.912399 ], [ 25.647001, 60.912355 ], [ 25.647094, 60.91232 ], [ 25.647188, 60.912285 ], [ 25.647301, 60.912242 ], [ 25.647431, 60.912198 ], [ 25.647525, 60.912154 ], [ 25.647656, 60.912111 ], [ 25.64775, 60.912067 ], [ 25.647863, 60.912014 ], [ 25.647939, 60.91197 ], [ 25.647978, 60.911916 ], [ 25.648017, 60.911872 ], [ 25.648019, 60.911827 ], [ 25.648002, 60.911782 ], [ 25.647948, 60.911746 ], [ 25.647839, 60.911718 ], [ 25.64771, 60.911725 ], [ 25.647598, 60.911742 ], [ 25.64745, 60.911767 ], [ 25.647225, 60.911846 ], [ 25.647094, 60.91189 ], [ 25.646963, 60.911933 ], [ 25.646851, 60.911977 ], [ 25.646757, 60.912021 ], [ 25.646644, 60.912082 ], [ 25.64653, 60.912153 ], [ 25.646435, 60.912215 ], [ 25.646341, 60.912277 ], [ 25.646265, 60.91233 ], [ 25.646189, 60.912374 ], [ 25.646039, 60.912435 ], [ 25.645909, 60.912452 ], [ 25.645835, 60.91246 ], [ 25.645743, 60.91245 ], [ 25.64567, 60.912432 ], [ 25.645616, 60.912413 ], [ 25.645544, 60.912359 ], [ 25.645492, 60.912286 ], [ 25.64544, 60.912223 ], [ 25.645388, 60.912133 ], [ 25.645355, 60.912052 ], [ 25.645322, 60.911953 ], [ 25.645307, 60.911863 ], [ 25.64533, 60.911773 ], [ 25.64537, 60.911684 ], [ 25.645412, 60.911576 ], [ 25.645453, 60.911478 ], [ 25.645456, 60.911397 ], [ 25.645459, 60.911326 ], [ 25.645462, 60.911263 ], [ 25.645462, 60.911254 ], [ 25.645446, 60.911209 ], [ 25.64543, 60.911155 ], [ 25.645469, 60.911092 ], [ 25.645508, 60.911048 ], [ 25.645583, 60.911004 ], [ 25.645659, 60.910969 ], [ 25.645733, 60.910951 ], [ 25.645789, 60.910943 ], [ 25.645881, 60.910944 ], [ 25.645972, 60.910963 ], [ 25.646082, 60.910991 ], [ 25.646154, 60.911018 ], [ 25.646227, 60.911046 ], [ 25.646373, 60.911083 ], [ 25.646464, 60.911102 ], [ 25.646538, 60.911103 ], [ 25.646631, 60.911086 ], [ 25.646742, 60.91106 ], [ 25.64678, 60.911043 ], [ 25.646819, 60.910998 ], [ 25.64682, 60.910962 ], [ 25.646803, 60.910926 ], [ 25.646768, 60.91089 ], [ 25.646696, 60.910844 ], [ 25.646587, 60.910807 ], [ 25.646459, 60.910779 ], [ 25.646332, 60.910751 ], [ 25.646222, 60.910732 ], [ 25.646039, 60.910703 ], [ 25.645873, 60.910701 ], [ 25.645707, 60.910709 ], [ 25.645596, 60.910717 ], [ 25.645447, 60.910733 ], [ 25.645336, 60.910759 ], [ 25.645223, 60.910803 ], [ 25.645111, 60.910837 ], [ 25.645036, 60.910882 ], [ 25.644941, 60.910934 ], [ 25.644847, 60.910987 ], [ 25.644734, 60.911049 ], [ 25.644621, 60.911102 ], [ 25.644564, 60.911128 ], [ 25.64447, 60.911172 ], [ 25.644396, 60.911189 ], [ 25.644285, 60.911206 ], [ 25.644156, 60.911205 ], [ 25.644027, 60.911186 ], [ 25.6439, 60.911148 ], [ 25.643809, 60.911129 ], [ 25.643773, 60.911111 ], [ 25.643682, 60.911074 ], [ 25.64361, 60.911038 ], [ 25.643538, 60.910992 ], [ 25.643503, 60.910938 ], [ 25.643487, 60.910884 ], [ 25.643453, 60.91083 ], [ 25.643437, 60.910767 ], [ 25.64342, 60.910722 ], [ 25.643405, 60.910659 ], [ 25.6434055, 60.9106462 ], [ 25.643407, 60.910605 ], [ 25.643427, 60.91056 ], [ 25.643503, 60.910507 ], [ 25.643579, 60.910463 ], [ 25.643673, 60.91041 ], [ 25.643767, 60.910366 ], [ 25.643935, 60.910323 ], [ 25.644047, 60.910297 ], [ 25.644214, 60.910263 ], [ 25.644345, 60.910228 ], [ 25.644512, 60.910194 ], [ 25.64466, 60.910178 ], [ 25.644846, 60.910144 ], [ 25.645032, 60.91011 ], [ 25.64518, 60.910093 ], [ 25.645347, 60.910068 ], [ 25.64555, 60.910061 ], [ 25.645753, 60.910045 ], [ 25.645975, 60.910029 ], [ 25.646086, 60.910012 ], [ 25.646291, 60.909979 ], [ 25.646476, 60.909954 ], [ 25.646643, 60.909919 ], [ 25.646793, 60.909867 ], [ 25.646868, 60.909832 ], [ 25.646907, 60.909778 ], [ 25.646929, 60.909698 ], [ 25.646895, 60.909644 ], [ 25.646859, 60.909607 ], [ 25.646787, 60.909571 ], [ 25.646679, 60.909516 ], [ 25.646626, 60.909452 ], [ 25.646592, 60.909389 ], [ 25.646576, 60.909326 ], [ 25.646578, 60.909281 ], [ 25.646617, 60.909237 ], [ 25.646655, 60.90921 ], [ 25.646785, 60.909185 ], [ 25.646914, 60.909177 ], [ 25.647007, 60.909169 ], [ 25.647154, 60.909171 ], [ 25.64732, 60.909181 ], [ 25.64754, 60.90921 ], [ 25.64776, 60.909239 ], [ 25.647979, 60.909278 ], [ 25.648089, 60.909288 ], [ 25.648217, 60.909307 ], [ 25.648328, 60.909317 ], [ 25.648456, 60.909327 ], [ 25.648567, 60.909328 ], [ 25.648677, 60.909329 ], [ 25.648826, 60.909304 ], [ 25.648974, 60.909279 ], [ 25.649123, 60.909253 ], [ 25.649253, 60.909228 ], [ 25.649365, 60.909202 ], [ 25.649513, 60.909176 ], [ 25.649643, 60.909151 ], [ 25.649773, 60.909134 ], [ 25.64992, 60.909135 ], [ 25.650068, 60.909137 ], [ 25.650215, 60.909147 ], [ 25.650362, 60.909149 ], [ 25.650529, 60.909133 ], [ 25.650622, 60.909107 ], [ 25.650679, 60.909062 ], [ 25.6507, 60.909 ], [ 25.65061, 60.908945 ], [ 25.650483, 60.908899 ], [ 25.650282, 60.908879 ], [ 25.650116, 60.908868 ], [ 25.649859, 60.908848 ], [ 25.649657, 60.908828 ], [ 25.649546, 60.908827 ], [ 25.649381, 60.908807 ], [ 25.649197, 60.908805 ], [ 25.649049, 60.908813 ], [ 25.648884, 60.908811 ], [ 25.648737, 60.908791 ], [ 25.648664, 60.908764 ], [ 25.648611, 60.908718 ], [ 25.648576, 60.908673 ], [ 25.648579, 60.90861 ], [ 25.648601, 60.90853 ], [ 25.648641, 60.908449 ], [ 25.648681, 60.908378 ], [ 25.648757, 60.908307 ], [ 25.648871, 60.908236 ], [ 25.648966, 60.908174 ], [ 25.649117, 60.908077 ], [ 25.64925, 60.907998 ], [ 25.649344, 60.907945 ], [ 25.649419, 60.907919 ], [ 25.649531, 60.907875 ], [ 25.649644, 60.907831 ], [ 25.64983, 60.907779 ], [ 25.649942, 60.907744 ], [ 25.650129, 60.907701 ], [ 25.650295, 60.907685 ], [ 25.650443, 60.907678 ], [ 25.650553, 60.907679 ], [ 25.650663, 60.907698 ], [ 25.650791, 60.907735 ], [ 25.650899, 60.907799 ], [ 25.650988, 60.907872 ], [ 25.651041, 60.907926 ], [ 25.651093, 60.907989 ], [ 25.651146, 60.908053 ], [ 25.651217, 60.908116 ], [ 25.651306, 60.908189 ], [ 25.651377, 60.908244 ], [ 25.651485, 60.908307 ], [ 25.651611, 60.908381 ], [ 25.651828, 60.90849 ], [ 25.651936, 60.908554 ], [ 25.652062, 60.908627 ], [ 25.652169, 60.908709 ], [ 25.652277, 60.908773 ], [ 25.652384, 60.908837 ], [ 25.652474, 60.908901 ], [ 25.652545, 60.908955 ], [ 25.652617, 60.90901 ], [ 25.652707, 60.909047 ], [ 25.652817, 60.909075 ], [ 25.652908, 60.909094 ], [ 25.653018, 60.909104 ], [ 25.653111, 60.909096 ], [ 25.653186, 60.90906 ], [ 25.653243, 60.909016 ], [ 25.653283, 60.908954 ], [ 25.653323, 60.908873 ], [ 25.653363, 60.908793 ], [ 25.653458, 60.908722 ], [ 25.653534, 60.908669 ], [ 25.653629, 60.908616 ], [ 25.653742, 60.908545 ], [ 25.653836, 60.908502 ], [ 25.653912, 60.908448 ], [ 25.653951, 60.908413 ], [ 25.654009, 60.908342 ], [ 25.654029, 60.908306 ], [ 25.65405, 60.908252 ], [ 25.654052, 60.90819 ], [ 25.654074, 60.908118 ], [ 25.654113, 60.908056 ], [ 25.654171, 60.908002 ], [ 25.654229, 60.90794 ], [ 25.654305, 60.907878 ], [ 25.654344, 60.907815 ], [ 25.654367, 60.907726 ], [ 25.654351, 60.907663 ], [ 25.654297, 60.907618 ], [ 25.654208, 60.907563 ], [ 25.654117, 60.907526 ], [ 25.653971, 60.907489 ], [ 25.653844, 60.907451 ], [ 25.653698, 60.907405 ], [ 25.653572, 60.907341 ], [ 25.653521, 60.907233 ], [ 25.653541, 60.907188 ], [ 25.653599, 60.907135 ], [ 25.653712, 60.907082 ], [ 25.65388, 60.907021 ], [ 25.653992, 60.906995 ], [ 25.654103, 60.906987 ], [ 25.654269, 60.906989 ], [ 25.654434, 60.906991 ], [ 25.654546, 60.906974 ], [ 25.654695, 60.906939 ], [ 25.654899, 60.906897 ], [ 25.655086, 60.906845 ], [ 25.65529, 60.906802 ], [ 25.655494, 60.906768 ], [ 25.655736, 60.906725 ], [ 25.65594, 60.906692 ], [ 25.65618, 60.906676 ], [ 25.656365, 60.906669 ], [ 25.656494, 60.906661 ], [ 25.656643, 60.906636 ], [ 25.656885, 60.906566 ], [ 25.657071, 60.906523 ], [ 25.657294, 60.906481 ], [ 25.657499, 60.906438 ], [ 25.657515, 60.906492 ], [ 25.657563, 60.906672 ], [ 25.658104, 60.906516 ], [ 25.659667, 60.905705 ], [ 25.660458, 60.9053 ], [ 25.661987, 60.904894 ], [ 25.66307, 60.905434 ], [ 25.663686, 60.905243 ], [ 25.66561, 60.905953 ], [ 25.6658684, 60.9060461 ], [ 25.666064, 60.906119 ], [ 25.680187, 60.911321 ], [ 25.6871311, 60.9138888 ], [ 25.6872836, 60.913947 ], [ 25.6874909, 60.9140261 ], [ 25.688847, 60.914538 ], [ 25.696564, 60.917413 ], [ 25.696752, 60.917343 ], [ 25.696884, 60.917264 ], [ 25.697035, 60.917175 ], [ 25.69724, 60.917132 ], [ 25.69739, 60.917053 ], [ 25.697559, 60.916983 ], [ 25.697728, 60.916913 ], [ 25.697897, 60.916843 ], [ 25.698065, 60.916772 ], [ 25.698252, 60.916711 ], [ 25.698403, 60.916632 ], [ 25.698554, 60.916553 ], [ 25.69874, 60.91651 ], [ 25.698814, 60.916492 ], [ 25.698926, 60.916467 ], [ 25.69913, 60.916424 ], [ 25.699335, 60.916381 ], [ 25.699521, 60.916338 ], [ 25.699707, 60.916295 ], [ 25.700116, 60.916209 ], [ 25.700321, 60.916175 ], [ 25.700507, 60.916132 ], [ 25.700711, 60.916089 ], [ 25.700897, 60.916046 ], [ 25.701083, 60.916003 ], [ 25.701269, 60.91596 ], [ 25.701474, 60.915926 ], [ 25.701678, 60.915883 ], [ 25.701753, 60.915866 ], [ 25.701863, 60.915867 ], [ 25.701973, 60.915877 ], [ 25.702101, 60.915914 ], [ 25.702174, 60.915924 ], [ 25.702249, 60.915897 ], [ 25.702304, 60.915898 ], [ 25.70236, 60.915889 ], [ 25.702453, 60.915872 ], [ 25.7026, 60.915874 ], [ 25.702692, 60.915875 ], [ 25.702747, 60.915893 ], [ 25.702801, 60.915921 ], [ 25.702856, 60.915939 ], [ 25.702948, 60.915949 ], [ 25.703059, 60.915932 ], [ 25.703115, 60.915915 ], [ 25.703189, 60.915915 ], [ 25.703298, 60.915943 ], [ 25.703333, 60.91598 ], [ 25.703387, 60.916016 ], [ 25.703441, 60.916052 ], [ 25.703496, 60.916071 ], [ 25.703549, 60.916107 ], [ 25.703604, 60.916135 ], [ 25.703658, 60.916153 ], [ 25.703711, 60.916208 ], [ 25.703747, 60.916244 ], [ 25.703764, 60.91628 ], [ 25.703818, 60.916316 ], [ 25.703853, 60.916344 ], [ 25.703926, 60.916371 ], [ 25.703999, 60.91639 ], [ 25.704091, 60.9164 ], [ 25.704146, 60.9164 ], [ 25.70422, 60.916383 ], [ 25.704275, 60.916393 ], [ 25.70431, 60.916447 ], [ 25.704364, 60.916474 ], [ 25.704436, 60.916511 ], [ 25.704528, 60.916521 ], [ 25.704547, 60.916512 ], [ 25.704567, 60.916476 ], [ 25.704641, 60.916459 ], [ 25.704715, 60.91646 ], [ 25.704789, 60.916442 ], [ 25.704826, 60.916452 ], [ 25.704881, 60.916452 ], [ 25.704918, 60.916462 ], [ 25.704991, 60.916462 ], [ 25.705028, 60.916481 ], [ 25.705008, 60.916507 ], [ 25.70497, 60.916543 ], [ 25.704968, 60.916579 ], [ 25.705041, 60.916606 ], [ 25.705169, 60.916635 ], [ 25.705223, 60.916653 ], [ 25.705259, 60.91668 ], [ 25.705294, 60.916726 ], [ 25.705367, 60.916744 ], [ 25.705441, 60.916745 ], [ 25.705532, 60.916764 ], [ 25.705643, 60.916774 ], [ 25.705716, 60.916783 ], [ 25.705808, 60.916793 ], [ 25.705917, 60.916812 ], [ 25.705972, 60.91684 ], [ 25.706026, 60.916867 ], [ 25.706099, 60.916877 ], [ 25.706155, 60.916877 ], [ 25.706229, 60.916869 ], [ 25.706321, 60.916861 ], [ 25.706376, 60.916871 ], [ 25.706412, 60.916898 ], [ 25.706429, 60.916916 ], [ 25.706446, 60.916952 ], [ 25.706519, 60.916989 ], [ 25.706593, 60.91698 ], [ 25.706685, 60.916972 ], [ 25.70674, 60.917 ], [ 25.706775, 60.917027 ], [ 25.706774, 60.917063 ], [ 25.70681, 60.917081 ], [ 25.706846, 60.917091 ], [ 25.706901, 60.917109 ], [ 25.706936, 60.917154 ], [ 25.706953, 60.91719 ], [ 25.706988, 60.917235 ], [ 25.707042, 60.917263 ], [ 25.707116, 60.917273 ], [ 25.70717, 60.9173 ], [ 25.707205, 60.917336 ], [ 25.707204, 60.917372 ], [ 25.707221, 60.917399 ], [ 25.70722, 60.917426 ], [ 25.707199, 60.91748 ], [ 25.707198, 60.917507 ], [ 25.707234, 60.917534 ], [ 25.707307, 60.917562 ], [ 25.707361, 60.91758 ], [ 25.707434, 60.917617 ], [ 25.707524, 60.917654 ], [ 25.70756, 60.917672 ], [ 25.707615, 60.917699 ], [ 25.707595, 60.917726 ], [ 25.707594, 60.917753 ], [ 25.707627, 60.917843 ], [ 25.707663, 60.917861 ], [ 25.707698, 60.917915 ], [ 25.707677, 60.917969 ], [ 25.707675, 60.918023 ], [ 25.707691, 60.918077 ], [ 25.707745, 60.918122 ], [ 25.70778, 60.918177 ], [ 25.707796, 60.918222 ], [ 25.707849, 60.918285 ], [ 25.707884, 60.91833 ], [ 25.707863, 60.918393 ], [ 25.707842, 60.918446 ], [ 25.707859, 60.9185 ], [ 25.707875, 60.918545 ], [ 25.707872, 60.918617 ], [ 25.70789, 60.918635 ], [ 25.707982, 60.918645 ], [ 25.708055, 60.918664 ], [ 25.708128, 60.918683 ], [ 25.708144, 60.918728 ], [ 25.708199, 60.918755 ], [ 25.708252, 60.918791 ], [ 25.708306, 60.918846 ], [ 25.708286, 60.918873 ], [ 25.708265, 60.918926 ], [ 25.708283, 60.918953 ], [ 25.708336, 60.918999 ], [ 25.708389, 60.919053 ], [ 25.708407, 60.91908 ], [ 25.708479, 60.919108 ], [ 25.708552, 60.919135 ], [ 25.708642, 60.919181 ], [ 25.708696, 60.919218 ], [ 25.708695, 60.919253 ], [ 25.708694, 60.91928 ], [ 25.708692, 60.919307 ], [ 25.708707, 60.919415 ], [ 25.708761, 60.919443 ], [ 25.708796, 60.919479 ], [ 25.708795, 60.919497 ], [ 25.708758, 60.919514 ], [ 25.708739, 60.919532 ], [ 25.708719, 60.919568 ], [ 25.708737, 60.919586 ], [ 25.708791, 60.919604 ], [ 25.708827, 60.919632 ], [ 25.708844, 60.919668 ], [ 25.708898, 60.919695 ], [ 25.709005, 60.919795 ], [ 25.709074, 60.919903 ], [ 25.709125, 60.920003 ], [ 25.709142, 60.920057 ], [ 25.709158, 60.920111 ], [ 25.709193, 60.920147 ], [ 25.709249, 60.920147 ], [ 25.709286, 60.920139 ], [ 25.709342, 60.920121 ], [ 25.709436, 60.920077 ], [ 25.709511, 60.920051 ], [ 25.709567, 60.920034 ], [ 25.709604, 60.920025 ], [ 25.709677, 60.920044 ], [ 25.709713, 60.920062 ], [ 25.70975, 60.920062 ], [ 25.709824, 60.920054 ], [ 25.709879, 60.920055 ], [ 25.709934, 60.920073 ], [ 25.70997, 60.920091 ], [ 25.710024, 60.920119 ], [ 25.710078, 60.920155 ], [ 25.710132, 60.920183 ], [ 25.710205, 60.920201 ], [ 25.71026, 60.92022 ], [ 25.710296, 60.920238 ], [ 25.710369, 60.920257 ], [ 25.710423, 60.920293 ], [ 25.710441, 60.920302 ], [ 25.710459, 60.920303 ], [ 25.710497, 60.920285 ], [ 25.710534, 60.920276 ], [ 25.710589, 60.920277 ], [ 25.710626, 60.920268 ], [ 25.710772, 60.920306 ], [ 25.71081, 60.920279 ], [ 25.710867, 60.920235 ], [ 25.710923, 60.920226 ], [ 25.711124, 60.920264 ], [ 25.711344, 60.920302 ], [ 25.711545, 60.92034 ], [ 25.711764, 60.920396 ], [ 25.71191, 60.920451 ], [ 25.712091, 60.920525 ], [ 25.712254, 60.920589 ], [ 25.712417, 60.920662 ], [ 25.712562, 60.920727 ], [ 25.714237, 60.922188 ], [ 25.71429, 60.922233 ], [ 25.714574, 60.922505 ], [ 25.716231, 60.923948 ], [ 25.718083, 60.925581 ], [ 25.719436, 60.926779 ], [ 25.71949, 60.926824 ], [ 25.719543, 60.92687 ], [ 25.722038, 60.929047 ], [ 25.722483, 60.929438 ], [ 25.722769, 60.929683 ], [ 25.722875, 60.929782 ], [ 25.726938, 60.933357 ], [ 25.728292, 60.934555 ], [ 25.7323494, 60.9298361 ], [ 25.740915, 60.9186585 ], [ 25.746675, 60.9138907 ], [ 25.7533789, 60.9157956 ], [ 25.7539005, 60.9161644 ], [ 25.7544384, 60.9166723 ], [ 25.7554222, 60.917079 ], [ 25.756364, 60.9174326 ], [ 25.7566472, 60.9175762 ], [ 25.7577775, 60.9182383 ], [ 25.7608228, 60.9188301 ], [ 25.7628212, 60.9195505 ], [ 25.7656512, 60.9203199 ], [ 25.7667237, 60.9206416 ], [ 25.767736, 60.9210611 ], [ 25.7676957, 60.9211109 ], [ 25.7682852, 60.9212806 ], [ 25.7684052, 60.921248 ], [ 25.7778028, 60.9234968 ], [ 25.7809247, 60.9189214 ], [ 25.7796202, 60.9066668 ], [ 25.780035, 60.9062229 ], [ 25.7795172, 60.9061364 ], [ 25.7791179, 60.9028732 ], [ 25.7790347, 60.9021931 ], [ 25.7789679, 60.9016475 ], [ 25.7788183, 60.9004246 ], [ 25.7786054, 60.8986847 ], [ 25.7776714, 60.8910501 ], [ 25.7976633, 60.8936629 ], [ 25.7992251, 60.893867 ], [ 25.8057773, 60.8947233 ], [ 25.8092704, 60.8951798 ], [ 25.810433, 60.8953317 ], [ 25.8120217, 60.8955393 ], [ 25.8157587, 60.8960276 ], [ 25.8196052, 60.8963822 ], [ 25.8232052, 60.896714 ], [ 25.8262793, 60.8969974 ], [ 25.876387, 60.8924646 ], [ 25.9186551, 60.8866528 ], [ 25.9195343, 60.8874119 ], [ 25.9205044, 60.8885391 ], [ 25.9446177, 60.9136474 ], [ 25.946609, 60.9192623 ], [ 25.9501223, 60.9285658 ], [ 25.9592023, 60.9285332 ], [ 25.9645854, 60.9258114 ], [ 25.9689047, 60.925199 ], [ 25.9774302, 60.9237583 ], [ 25.9848854, 60.9198719 ], [ 26.0120098, 60.9057168 ], [ 26.0123345, 60.9055487 ], [ 26.0137184, 60.9048322 ], [ 26.0145723, 60.9043901 ], [ 26.014908, 60.9042163 ], [ 26.0514604, 60.8984888 ], [ 26.0740633, 60.8967917 ], [ 26.0745208, 60.8967856 ], [ 26.0803754, 60.8963161 ], [ 26.0831852, 60.8961472 ], [ 26.0837495, 60.896104 ], [ 26.0857474, 60.8917372 ], [ 26.1026823, 60.888235 ], [ 26.1032461, 60.8887696 ], [ 26.1034625, 60.8886985 ], [ 26.1037756, 60.8885528 ], [ 26.1131841, 60.8967773 ], [ 26.1125495, 60.898308 ], [ 26.1224377, 60.9081146 ], [ 26.1399228, 60.9072316 ], [ 26.1423621, 60.9085447 ], [ 26.1470144, 60.9111192 ], [ 26.1497469, 60.9126907 ], [ 26.1532621, 60.9147747 ], [ 26.1542313, 60.9153455 ], [ 26.1547938, 60.9156768 ], [ 26.1602291, 60.9188392 ], [ 26.1602128, 60.9194708 ], [ 26.1602052, 60.9197679 ], [ 26.1689723, 60.9293759 ], [ 26.1490379, 60.9305342 ], [ 26.1316911, 60.931736 ], [ 26.1048775, 60.9334283 ], [ 26.0664129, 60.9357188 ], [ 26.0635949, 60.9358681 ], [ 26.0601971, 60.9360859 ], [ 26.0592961, 60.9378341 ], [ 26.058199, 60.9401191 ], [ 26.0579953, 60.9404661 ], [ 26.0577958, 60.9410292 ], [ 26.056621, 60.9432689 ], [ 26.0552898, 60.9460495 ], [ 26.0535329, 60.9496453 ], [ 26.0521685, 60.9523275 ], [ 26.0493764, 60.9581343 ], [ 26.0488035, 60.959159 ], [ 26.047871, 60.9611609 ], [ 26.0468954, 60.9631465 ], [ 26.0457842, 60.9652191 ], [ 26.0449852, 60.9669934 ], [ 26.0422018, 60.9729245 ], [ 26.0470628, 60.9743322 ], [ 26.0481255, 60.974902 ], [ 26.0482636, 60.9750003 ], [ 26.0483583, 60.9753495 ], [ 26.0485713, 60.9756074 ], [ 26.0490466, 60.9758458 ], [ 26.0493939, 60.9760817 ], [ 26.0495517, 60.9763482 ], [ 26.0496843, 60.9765382 ], [ 26.0497521, 60.9767034 ], [ 26.0497348, 60.9768139 ], [ 26.0495833, 60.9768966 ], [ 26.049457, 60.977013 ], [ 26.0492297, 60.9771386 ], [ 26.0490087, 60.9772887 ], [ 26.0489582, 60.9773867 ], [ 26.0489392, 60.97769 ], [ 26.0490235, 60.9777912 ], [ 26.0492865, 60.9779871 ], [ 26.0495138, 60.9782475 ], [ 26.0499649, 60.9789787 ], [ 26.049341, 60.9800356 ], [ 26.0477672, 60.9827017 ], [ 26.0477057, 60.9828058 ], [ 26.0490717, 60.9828929 ], [ 26.0493306, 60.9829297 ], [ 26.0495579, 60.9829726 ], [ 26.0497852, 60.9830522 ], [ 26.049956, 60.9831523 ], [ 26.0501136, 60.9832237 ], [ 26.0503661, 60.9833187 ], [ 26.0505871, 60.9834259 ], [ 26.0507387, 60.9835759 ], [ 26.0509155, 60.9838301 ], [ 26.0510733, 60.9839833 ], [ 26.0513575, 60.9841762 ], [ 26.0518689, 60.9844029 ], [ 26.0526203, 60.9846632 ], [ 26.0534727, 60.9849664 ], [ 26.0537883, 60.9850488 ], [ 26.0540915, 60.9850583 ], [ 26.0543883, 60.9850368 ], [ 26.0551081, 60.9849205 ], [ 26.0554364, 60.9848163 ], [ 26.0556607, 60.9847052 ], [ 26.0560742, 60.9842191 ], [ 26.0563833, 60.9840768 ], [ 26.0568382, 60.9839894 ], [ 26.0576906, 60.9839312 ], [ 26.0580641, 60.9839615 ], [ 26.0586693, 60.9840874 ], [ 26.0591853, 60.9843077 ], [ 26.0594207, 60.9845223 ], [ 26.0596354, 60.9848408 ], [ 26.0599304, 60.9850451 ], [ 26.0601876, 60.9851658 ], [ 26.0605269, 60.9852832 ], [ 26.0611799, 60.9853755 ], [ 26.0619574, 60.9854479 ], [ 26.0624085, 60.9854193 ], [ 26.0629174, 60.985298 ], [ 26.0633639, 60.9851421 ], [ 26.0639265, 60.9848346 ], [ 26.0643372, 60.984696 ], [ 26.0648016, 60.9845487 ], [ 26.0654088, 60.9843971 ], [ 26.0658731, 60.9842585 ], [ 26.0659207, 60.9842342 ], [ 26.0662079, 60.9840879 ], [ 26.0663821, 60.983886 ], [ 26.0663464, 60.9835309 ], [ 26.0662839, 60.9832537 ], [ 26.0663107, 60.9828292 ], [ 26.0663018, 60.9826776 ], [ 26.0664178, 60.982474 ], [ 26.0664522, 60.9822768 ], [ 26.0664029, 60.981911 ], [ 26.0663006, 60.9815233 ], [ 26.0662814, 60.9813375 ], [ 26.0661915, 60.9811913 ], [ 26.0659613, 60.9810728 ], [ 26.0652112, 60.9808302 ], [ 26.0646218, 60.9805963 ], [ 26.0642468, 60.9803017 ], [ 26.0638985, 60.9800158 ], [ 26.0636396, 60.9798556 ], [ 26.063202, 60.9796693 ], [ 26.0630323, 60.979574 ], [ 26.0627912, 60.9793227 ], [ 26.0624519, 60.9790282 ], [ 26.0622788, 60.9787729 ], [ 26.0623419, 60.9785183 ], [ 26.0624681, 60.978276 ], [ 26.062736, 60.9779034 ], [ 26.0628789, 60.9776305 ], [ 26.0629057, 60.9774312 ], [ 26.0628521, 60.9772146 ], [ 26.062861, 60.9767727 ], [ 26.0630111, 60.9766068 ], [ 26.0634683, 60.9763178 ], [ 26.0643255, 60.9758066 ], [ 26.0649756, 60.975281 ], [ 26.0652452, 60.9749921 ], [ 26.0655489, 60.9746065 ], [ 26.0657274, 60.9742165 ], [ 26.0660846, 60.9738049 ], [ 26.0664061, 60.9735796 ], [ 26.0667397, 60.973406 ], [ 26.0674934, 60.9731751 ], [ 26.0680439, 60.9731212 ], [ 26.0683912, 60.973109 ], [ 26.069407, 60.9731067 ], [ 26.0698393, 60.9729878 ], [ 26.0704099, 60.972685 ], [ 26.0708916, 60.9725422 ], [ 26.0711757, 60.9724993 ], [ 26.0721607, 60.9724809 ], [ 26.0728373, 60.9723422 ], [ 26.0744149, 60.9718283 ], [ 26.0748059, 60.9717302 ], [ 26.0755388, 60.9716291 ], [ 26.0761296, 60.971424 ], [ 26.0795233, 60.9725063 ], [ 26.1167138, 60.9845494 ], [ 26.1211224, 61.0079231 ], [ 26.1291705, 61.0214315 ], [ 26.1329232, 61.0277283 ], [ 26.1270228, 61.0314256 ], [ 26.126945, 61.0314796 ], [ 26.1267758, 61.0315972 ], [ 26.1267758, 61.0318144 ], [ 26.1267284, 61.0319872 ], [ 26.1266107, 61.0321162 ], [ 26.1264474, 61.0322104 ], [ 26.1261917, 61.0323205 ], [ 26.1261497, 61.0323846 ], [ 26.1261854, 61.0324489 ], [ 26.1262801, 61.032504 ], [ 26.1265327, 61.0325697 ], [ 26.1266076, 61.032625 ], [ 26.1265832, 61.0326737 ], [ 26.1265074, 61.0327242 ], [ 26.1261897, 61.0328472 ], [ 26.1261223, 61.0329 ], [ 26.1260907, 61.0329627 ], [ 26.1261002, 61.0331079 ], [ 26.1260781, 61.0331721 ], [ 26.1259713, 61.0332176 ], [ 26.1257939, 61.0332547 ], [ 26.1254656, 61.0332593 ], [ 26.1253461, 61.0332813 ], [ 26.1252983, 61.0333342 ], [ 26.1253172, 61.0335315 ], [ 26.1252471, 61.0335808 ], [ 26.1251341, 61.0335957 ], [ 26.124951, 61.0335804 ], [ 26.1246542, 61.0335253 ], [ 26.1245532, 61.0335437 ], [ 26.1244719, 61.0336095 ], [ 26.1244553, 61.0337149 ], [ 26.12449, 61.0338327 ], [ 26.1248765, 61.0341806 ], [ 26.1249745, 61.0343659 ], [ 26.1246285, 61.0345142 ], [ 26.1245254, 61.0346134 ], [ 26.1243502, 61.0347519 ], [ 26.1238869, 61.0350862 ], [ 26.1233175, 61.0352699 ], [ 26.1224759, 61.0354334 ], [ 26.1222634, 61.0355565 ], [ 26.1222201, 61.0357787 ], [ 26.1223771, 61.0358922 ], [ 26.12273, 61.0359749 ], [ 26.1228857, 61.0360824 ], [ 26.1230999, 61.0364165 ], [ 26.122981, 61.0366476 ], [ 26.1221723, 61.0368632 ], [ 26.1216067, 61.0370015 ], [ 26.1213097, 61.0371329 ], [ 26.1212285, 61.0372821 ], [ 26.1212348, 61.0376735 ], [ 26.1213864, 61.0381382 ], [ 26.1212854, 61.0383125 ], [ 26.1212412, 61.0384348 ], [ 26.1212412, 61.03871 ], [ 26.121103, 61.0388466 ], [ 26.1209318, 61.0389179 ], [ 26.1206161, 61.0389423 ], [ 26.1200857, 61.0389362 ], [ 26.1199243, 61.0389541 ], [ 26.1198078, 61.0390616 ], [ 26.1198205, 61.0392664 ], [ 26.1198801, 61.0394677 ], [ 26.1197727, 61.0395656 ], [ 26.1193434, 61.0397612 ], [ 26.1192781, 61.0398191 ], [ 26.1192404, 61.0398976 ], [ 26.1193074, 61.04001 ], [ 26.1192929, 61.0400609 ], [ 26.119169, 61.0401441 ], [ 26.1187688, 61.0403421 ], [ 26.1185325, 61.0405163 ], [ 26.1184783, 61.0407426 ], [ 26.1183457, 61.0408588 ], [ 26.1181752, 61.0409597 ], [ 26.1180742, 61.0412624 ], [ 26.1179353, 61.0414275 ], [ 26.1179101, 61.0415008 ], [ 26.1179669, 61.0416017 ], [ 26.1179353, 61.0417485 ], [ 26.1178595, 61.0419197 ], [ 26.1177143, 61.0421367 ], [ 26.1176827, 61.0422621 ], [ 26.1177648, 61.0423813 ], [ 26.1179921, 61.0425372 ], [ 26.1180777, 61.0426471 ], [ 26.1180805, 61.0427756 ], [ 26.1179164, 61.0430172 ], [ 26.1179037, 61.0431272 ], [ 26.11827, 61.0435491 ], [ 26.1186335, 61.0437896 ], [ 26.1187625, 61.0439923 ], [ 26.1190024, 61.0441666 ], [ 26.1198108, 61.0445816 ], [ 26.1199331, 61.044695 ], [ 26.1198485, 61.0447932 ], [ 26.1197475, 61.044998 ], [ 26.1198382, 61.0451107 ], [ 26.1197923, 61.0453047 ], [ 26.1196878, 61.0454622 ], [ 26.1194444, 61.0456461 ], [ 26.1194362, 61.045796 ], [ 26.1195459, 61.0458926 ], [ 26.1197041, 61.045945 ], [ 26.1198878, 61.045991 ], [ 26.1200855, 61.046003 ], [ 26.1201467, 61.046037 ], [ 26.1201553, 61.0460879 ], [ 26.1199033, 61.0463235 ], [ 26.1197983, 61.0465218 ], [ 26.119577, 61.0465998 ], [ 26.1192929, 61.0466548 ], [ 26.1190024, 61.0466762 ], [ 26.1186252, 61.0466544 ], [ 26.118251, 61.0465601 ], [ 26.1178848, 61.046447 ], [ 26.1175473, 61.0463458 ], [ 26.11721, 61.0462853 ], [ 26.1166662, 61.0462605 ], [ 26.1159694, 61.0462123 ], [ 26.1157378, 61.0462089 ], [ 26.1156167, 61.0462318 ], [ 26.1155326, 61.0462752 ], [ 26.1153179, 61.0464281 ], [ 26.1150779, 61.046532 ], [ 26.1142066, 61.0468071 ], [ 26.1129564, 61.047015 ], [ 26.1124613, 61.0472594 ], [ 26.1122116, 61.047347 ], [ 26.1119082, 61.0473909 ], [ 26.1116058, 61.0474803 ], [ 26.1111442, 61.0476813 ], [ 26.1107148, 61.0478372 ], [ 26.1105885, 61.0479442 ], [ 26.1105001, 61.0481123 ], [ 26.1104812, 61.0483385 ], [ 26.1102795, 61.0485794 ], [ 26.110115, 61.0486319 ], [ 26.1097614, 61.0486349 ], [ 26.1095278, 61.0486594 ], [ 26.1091173, 61.048748 ], [ 26.1087953, 61.0488 ], [ 26.1086438, 61.0487939 ], [ 26.1082712, 61.0486838 ], [ 26.1078103, 61.048638 ], [ 26.107148, 61.04868 ], [ 26.1068127, 61.0486349 ], [ 26.1065096, 61.0485494 ], [ 26.1063075, 61.0485035 ], [ 26.1058846, 61.0484351 ], [ 26.1054264, 61.0483964 ], [ 26.1047353, 61.0483568 ], [ 26.104167, 61.0484057 ], [ 26.1036808, 61.0484057 ], [ 26.1031455, 61.0485095 ], [ 26.1029736, 61.0486135 ], [ 26.1028371, 61.0487748 ], [ 26.1028663, 61.0489131 ], [ 26.1029736, 61.0490353 ], [ 26.1031504, 61.0491331 ], [ 26.1033516, 61.0491814 ], [ 26.1034307, 61.0492251 ], [ 26.1037755, 61.0494174 ], [ 26.1039334, 61.0494816 ], [ 26.1040569, 61.0495328 ], [ 26.1041039, 61.0496772 ], [ 26.1040976, 61.0498208 ], [ 26.104008, 61.0499215 ], [ 26.1039722, 61.0499618 ], [ 26.1039018, 61.0500409 ], [ 26.1039269, 61.0500826 ], [ 26.1041247, 61.0502277 ], [ 26.1042521, 61.0503819 ], [ 26.1046744, 61.0507278 ], [ 26.1047324, 61.0508532 ], [ 26.104719, 61.0509915 ], [ 26.1048083, 61.051106 ], [ 26.1049467, 61.0511709 ], [ 26.104974, 61.0511977 ], [ 26.1050095, 61.0512326 ], [ 26.1053887, 61.0559561 ], [ 26.10553, 61.0584406 ], [ 26.1060553, 61.0632951 ], [ 26.1065037, 61.0675295 ], [ 26.1072456, 61.0759464 ], [ 26.1072991, 61.0765373 ], [ 26.0694385, 61.0872523 ], [ 26.0651135, 61.0885191 ], [ 26.0584342, 61.0903751 ], [ 26.0459054, 61.09392 ], [ 26.0510311, 61.1009871 ], [ 26.0282217, 61.0950708 ], [ 26.0122058, 61.0749662 ], [ 26.0106377, 61.073044 ], [ 26.009244, 61.0712975 ], [ 26.0066225, 61.0735148 ], [ 25.996027, 61.0824381 ], [ 25.9919327, 61.0859371 ], [ 25.9368491, 61.0709221 ], [ 25.9224303, 61.0778138 ], [ 25.9153177, 61.078582 ], [ 25.9063416, 61.0793559 ], [ 25.8944866, 61.0852383 ], [ 25.858059, 61.1026648 ], [ 25.7940946, 61.0975969 ], [ 25.7903552, 61.0971348 ], [ 25.7844305, 61.0964027 ], [ 25.7834679, 61.0962837 ], [ 25.7522916, 61.0884089 ], [ 25.7459919, 61.0853629 ], [ 25.7214335, 61.0659488 ], [ 25.7165227, 61.0634518 ], [ 25.7151641, 61.0627345 ], [ 25.7167153, 61.0611299 ], [ 25.7205426, 61.0623947 ], [ 25.7210196, 61.0650371 ], [ 25.7242374, 61.065606 ], [ 25.7250154, 61.0647969 ], [ 25.7237146, 61.0634998 ], [ 25.7304355, 61.0656285 ], [ 25.7467497, 61.0631547 ], [ 25.7470136, 61.0630869 ], [ 25.7497692, 61.0626847 ], [ 25.7875879, 61.0567978 ], [ 25.822195, 61.0513703 ], [ 25.8196716, 61.0495425 ], [ 25.8194212, 61.0495009 ], [ 25.8191532, 61.0494325 ], [ 25.8189192, 61.0493287 ], [ 25.8187243, 61.0492556 ], [ 25.8184514, 61.0491942 ], [ 25.8182564, 61.0491211 ], [ 25.8181394, 61.0490338 ], [ 25.8181053, 61.0489678 ], [ 25.8180858, 61.0488569 ], [ 25.8180371, 61.0487885 ], [ 25.8179542, 61.0487106 ], [ 25.8178178, 61.0485832 ], [ 25.8176764, 61.0485006 ], [ 25.8170867, 61.0482576 ], [ 25.8169454, 61.0482175 ], [ 25.8168772, 61.0481609 ], [ 25.8168041, 61.0480878 ], [ 25.816692, 61.0480264 ], [ 25.8164873, 61.0479769 ], [ 25.8162923, 61.047958 ], [ 25.8160486, 61.0479627 ], [ 25.8158732, 61.0480099 ], [ 25.8157172, 61.0481114 ], [ 25.8155759, 61.0481774 ], [ 25.8153615, 61.0482364 ], [ 25.8150788, 61.0482576 ], [ 25.8148156, 61.0482293 ], [ 25.8146294, 61.0481619 ], [ 25.8145183, 61.0480807 ], [ 25.8144452, 61.0479887 ], [ 25.8144696, 61.0478943 ], [ 25.8145476, 61.0478165 ], [ 25.8146596, 61.0477575 ], [ 25.8148351, 61.0476891 ], [ 25.815069, 61.047649 ], [ 25.8152494, 61.0475971 ], [ 25.8155759, 61.0474649 ], [ 25.8159853, 61.0472196 ], [ 25.8160876, 61.0471488 ], [ 25.8161422, 61.0470668 ], [ 25.8161596, 61.0469985 ], [ 25.8079829, 61.0410748 ], [ 25.7952547, 61.0384679 ], [ 25.795165, 61.0384495 ], [ 25.7928535, 61.0379761 ], [ 25.7879067, 61.0369628 ], [ 25.7817699, 61.0357058 ], [ 25.7768807, 61.0346387 ], [ 25.7748884, 61.0342038 ], [ 25.7724131, 61.0336636 ], [ 25.7667882, 61.0324358 ], [ 25.7512975, 61.0316799 ], [ 25.743403, 61.0313 ], [ 25.742553, 61.031265 ], [ 25.7385124, 61.0311009 ], [ 25.7379334, 61.031074 ], [ 25.737011, 61.031043 ], [ 25.7369, 61.031042 ], [ 25.7358873, 61.0309728 ], [ 25.734593, 61.030912 ], [ 25.733754, 61.0308726 ], [ 25.7326674, 61.030825 ], [ 25.71655, 61.030069 ], [ 25.716089, 61.030046 ], [ 25.714038, 61.029964 ], [ 25.713154, 61.030314 ], [ 25.712722, 61.030481 ], [ 25.712121, 61.030717 ], [ 25.711274, 61.03105 ], [ 25.707175, 61.032663 ], [ 25.697886, 61.036298 ], [ 25.6975583, 61.0360776 ], [ 25.6970858, 61.0357598 ], [ 25.6956382, 61.0347862 ], [ 25.6940055, 61.0336816 ], [ 25.691998, 61.032328 ], [ 25.691008, 61.031654 ], [ 25.689874, 61.030889 ], [ 25.6874271, 61.0287236 ], [ 25.686162, 61.027604 ], [ 25.685269, 61.026823 ], [ 25.6836754, 61.0275739 ], [ 25.6836603, 61.0275819 ], [ 25.6833359, 61.0277328 ], [ 25.6801463, 61.0292284 ], [ 25.679909, 61.0293584 ], [ 25.678269, 61.030094 ], [ 25.677624, 61.0304036 ], [ 25.676872, 61.030322 ], [ 25.675545, 61.030193 ], [ 25.674385, 61.030074 ], [ 25.674035, 61.030043 ], [ 25.673922, 61.0300311 ], [ 25.6736628, 61.0300063 ], [ 25.6734629, 61.029988 ], [ 25.6733338, 61.0299729 ], [ 25.6726171, 61.0299019 ], [ 25.672543, 61.029867 ], [ 25.671837, 61.02951 ], [ 25.671674, 61.029419 ], [ 25.671347, 61.029263 ], [ 25.671329, 61.029254 ], [ 25.670985, 61.029071 ], [ 25.670623, 61.028897 ], [ 25.670333, 61.02875 ], [ 25.67026, 61.028714 ], [ 25.669898, 61.028531 ], [ 25.669536, 61.028348 ], [ 25.669499, 61.028329 ], [ 25.6694715, 61.0283174 ], [ 25.6694178, 61.0282947 ], [ 25.66939, 61.028283 ], [ 25.669373, 61.028265 ], [ 25.66892, 61.028036 ], [ 25.668648, 61.027908 ], [ 25.668086, 61.027615 ], [ 25.6653025, 61.0260873 ], [ 25.6603864, 61.0279953 ], [ 25.6531745, 61.0301439 ], [ 25.6504993, 61.0293379 ], [ 25.6503242, 61.0292859 ], [ 25.6502128, 61.0292519 ], [ 25.6501142, 61.0292219 ], [ 25.6499446, 61.0291688 ], [ 25.649836, 61.029139 ], [ 25.648429, 61.028712 ], [ 25.648392, 61.02873 ], [ 25.6483142, 61.0287677 ], [ 25.6482542, 61.0287982 ], [ 25.6481858, 61.028831 ], [ 25.6481044, 61.0288642 ], [ 25.6480436, 61.0288893 ], [ 25.647962, 61.0289212 ], [ 25.647883, 61.028949 ], [ 25.6478113, 61.0289764 ], [ 25.6477281, 61.0290045 ], [ 25.6476321, 61.0290326 ], [ 25.647547, 61.029052 ], [ 25.6474998, 61.0290356 ], [ 25.6419382, 61.0271547 ], [ 25.6402947, 61.0288443 ], [ 25.6408509, 61.0291298 ], [ 25.640731, 61.030493 ], [ 25.640712, 61.030502 ], [ 25.640708, 61.030582 ], [ 25.640706, 61.030645 ], [ 25.6406649, 61.0312195 ], [ 25.6406512, 61.0313639 ], [ 25.64063, 61.031542 ], [ 25.640598, 61.031865 ], [ 25.640597, 61.031883 ], [ 25.6405803, 61.0321745 ], [ 25.6405675, 61.0323724 ], [ 25.6405167, 61.0327562 ], [ 25.6405129, 61.032809 ], [ 25.6405111, 61.032827 ], [ 25.640445, 61.0329184 ], [ 25.6404133, 61.0329627 ], [ 25.640242, 61.0332016 ], [ 25.6402187, 61.0332358 ], [ 25.640043, 61.0334812 ], [ 25.6399247, 61.0336473 ], [ 25.6397755, 61.0338551 ], [ 25.6394071, 61.0343704 ], [ 25.639261, 61.034562 ], [ 25.6390166, 61.0349149 ], [ 25.638296, 61.034633 ], [ 25.636929, 61.0340982 ], [ 25.636917, 61.03356 ], [ 25.636914, 61.033192 ], [ 25.6369183, 61.0327414 ], [ 25.636273, 61.032629 ], [ 25.635703, 61.032533 ], [ 25.635538, 61.032505 ], [ 25.633168, 61.032104 ], [ 25.6318271, 61.0318699 ], [ 25.6315156, 61.0315871 ], [ 25.622212, 61.032998 ], [ 25.622415, 61.033027 ], [ 25.622543, 61.033046 ], [ 25.622616, 61.033082 ], [ 25.622651, 61.033137 ], [ 25.622667, 61.033191 ], [ 25.622646, 61.033235 ], [ 25.6223898, 61.0333405 ], [ 25.624232, 61.033359 ], [ 25.624198, 61.034149 ], [ 25.621978, 61.034126 ], [ 25.62194, 61.034153 ], [ 25.621847, 61.034161 ], [ 25.621808, 61.034205 ], [ 25.621733, 61.034249 ], [ 25.621693, 61.034303 ], [ 25.621617, 61.034365 ], [ 25.621558, 61.034436 ], [ 25.621519, 61.034489 ], [ 25.621443, 61.034533 ], [ 25.621348, 61.034586 ], [ 25.621272, 61.03463 ], [ 25.621215, 61.034666 ], [ 25.621232, 61.034693 ], [ 25.621175, 61.034728 ], [ 25.621137, 61.034764 ], [ 25.621117, 61.034781 ], [ 25.621042, 61.034817 ], [ 25.621003, 61.034852 ], [ 25.620982, 61.034924 ], [ 25.620943, 61.03495 ], [ 25.620907, 61.034932 ], [ 25.620909, 61.034896 ], [ 25.620873, 61.034878 ], [ 25.6208, 61.03485 ], [ 25.620726, 61.03484 ], [ 25.620669, 61.034876 ], [ 25.620595, 61.034875 ], [ 25.620539, 61.034883 ], [ 25.620519, 61.034919 ], [ 25.62048, 61.034972 ], [ 25.620405, 61.03499 ], [ 25.620331, 61.034998 ], [ 25.620202, 61.034979 ], [ 25.620166, 61.03496 ], [ 25.620092, 61.034959 ], [ 25.619982, 61.03494 ], [ 25.619872, 61.034912 ], [ 25.619799, 61.034876 ], [ 25.619728, 61.034821 ], [ 25.619655, 61.034784 ], [ 25.619636, 61.034802 ], [ 25.619616, 61.034847 ], [ 25.619579, 61.034838 ], [ 25.619506, 61.03481 ], [ 25.619414, 61.034809 ], [ 25.6178677, 61.0370388 ], [ 25.5996486, 61.0340071 ], [ 25.599423, 61.034091 ], [ 25.599309, 61.034162 ], [ 25.599267, 61.0342124 ], [ 25.5989638, 61.0349296 ], [ 25.598257, 61.036619 ], [ 25.598312, 61.036638 ], [ 25.598329, 61.036656 ], [ 25.598309, 61.036692 ], [ 25.598308, 61.03671 ], [ 25.598345, 61.036728 ], [ 25.598362, 61.036755 ], [ 25.598417, 61.036756 ], [ 25.598435, 61.036774 ], [ 25.59849, 61.036783 ], [ 25.598509, 61.036774 ], [ 25.598546, 61.036775 ], [ 25.598601, 61.036784 ], [ 25.598637, 61.036821 ], [ 25.598652, 61.036884 ], [ 25.59865, 61.036938 ], [ 25.598667, 61.036974 ], [ 25.598702, 61.037019 ], [ 25.598663, 61.037054 ], [ 25.598663, 61.037063 ], [ 25.598642, 61.037108 ], [ 25.598603, 61.037161 ], [ 25.5986, 61.037233 ], [ 25.598615, 61.037305 ], [ 25.598559, 61.037323 ], [ 25.598539, 61.037349 ], [ 25.598501, 61.037376 ], [ 25.598444, 61.037411 ], [ 25.598387, 61.037446 ], [ 25.598329, 61.0375 ], [ 25.598308, 61.037562 ], [ 25.598233, 61.037588 ], [ 25.598194, 61.037633 ], [ 25.598173, 61.037678 ], [ 25.598115, 61.037731 ], [ 25.598057, 61.037784 ], [ 25.598001, 61.037801 ], [ 25.597964, 61.037801 ], [ 25.5979406, 61.0378231 ], [ 25.597926, 61.037837 ], [ 25.597868, 61.03789 ], [ 25.597828, 61.037943 ], [ 25.597788, 61.038015 ], [ 25.597712, 61.038068 ], [ 25.597692, 61.038085 ], [ 25.597655, 61.038094 ], [ 25.59694, 61.039621 ], [ 25.5919713, 61.0391376 ], [ 25.5850939, 61.0389707 ], [ 25.591829, 61.034255 ], [ 25.591738, 61.034236 ], [ 25.591629, 61.034181 ], [ 25.591558, 61.034117 ], [ 25.591467, 61.034071 ], [ 25.591377, 61.034025 ], [ 25.591268, 61.033979 ], [ 25.591196, 61.033934 ], [ 25.591123, 61.033906 ], [ 25.591051, 61.033869 ], [ 25.590978, 61.033833 ], [ 25.590961, 61.033797 ], [ 25.590981, 61.03377 ], [ 25.590925, 61.033778 ], [ 25.590852, 61.033751 ], [ 25.590817, 61.033714 ], [ 25.590782, 61.033678 ], [ 25.590747, 61.033624 ], [ 25.59073, 61.033579 ], [ 25.590621, 61.033542 ], [ 25.590549, 61.033505 ], [ 25.590494, 61.033478 ], [ 25.590422, 61.033441 ], [ 25.590387, 61.033405 ], [ 25.590351, 61.033368 ], [ 25.589401, 61.033511 ], [ 25.5892245, 61.032706 ], [ 25.586383, 61.032726 ], [ 25.586142, 61.031072 ], [ 25.590944, 61.031274 ], [ 25.590982, 61.031248 ], [ 25.59102, 61.031212 ], [ 25.591042, 61.03115 ], [ 25.591062, 61.031105 ], [ 25.591082, 61.031069 ], [ 25.591157, 61.031043 ], [ 25.591214, 61.031017 ], [ 25.591216, 61.030981 ], [ 25.591162, 61.030945 ], [ 25.591182, 61.030909 ], [ 25.591202, 61.030864 ], [ 25.5913856, 61.0307553 ], [ 25.591429, 61.030759 ], [ 25.591504, 61.030733 ], [ 25.591562, 61.030688 ], [ 25.5916, 61.030662 ], [ 25.591748, 61.030654 ], [ 25.591879, 61.030638 ], [ 25.59199, 61.030621 ], [ 25.592104, 61.030568 ], [ 25.592162, 61.030497 ], [ 25.592201, 61.030453 ], [ 25.592295, 61.030436 ], [ 25.592408, 61.030383 ], [ 25.592484, 61.03033 ], [ 25.59256, 61.030286 ], [ 25.592692, 61.030225 ], [ 25.592787, 61.030172 ], [ 25.592881, 61.030137 ], [ 25.593031, 61.030111 ], [ 25.593235, 61.030087 ], [ 25.593384, 61.030061 ], [ 25.593478, 61.030035 ], [ 25.593591, 61.030001 ], [ 25.593703, 61.029975 ], [ 25.593796, 61.029949 ], [ 25.593927, 61.029914 ], [ 25.594132, 61.029889 ], [ 25.594337, 61.029865 ], [ 25.594542, 61.029831 ], [ 25.59469, 61.029823 ], [ 25.594876, 61.029798 ], [ 25.595007, 61.029773 ], [ 25.595137, 61.029765 ], [ 25.595192, 61.029757 ], [ 25.595249, 61.02974 ], [ 25.59536, 61.029732 ], [ 25.595471, 61.029724 ], [ 25.595601, 61.029725 ], [ 25.595749, 61.029718 ], [ 25.595897, 61.029719 ], [ 25.596045, 61.029721 ], [ 25.596175, 61.029713 ], [ 25.596268, 61.029705 ], [ 25.59636, 61.029706 ], [ 25.596489, 61.029717 ], [ 25.596601, 61.029709 ], [ 25.596749, 61.029701 ], [ 25.596879, 61.029703 ], [ 25.597045, 61.029704 ], [ 25.597193, 61.029715 ], [ 25.597303, 61.029716 ], [ 25.597451, 61.029718 ], [ 25.597599, 61.029719 ], [ 25.597728, 61.029729 ], [ 25.597876, 61.02974 ], [ 25.598005, 61.02975 ], [ 25.598134, 61.029752 ], [ 25.598264, 61.029762 ], [ 25.598393, 61.029772 ], [ 25.598485, 61.029773 ], [ 25.598632, 61.02979 ], [ 25.595083, 61.02595 ], [ 25.577558, 61.021126 ], [ 25.576652, 61.018226 ], [ 25.576654, 61.018181 ], [ 25.576748, 61.018164 ], [ 25.576989, 61.01814 ], [ 25.577194, 61.018115 ], [ 25.577435, 61.018091 ], [ 25.57764, 61.018057 ], [ 25.577826, 61.018032 ], [ 25.57805, 61.01799 ], [ 25.578292, 61.017947 ], [ 25.578553, 61.017905 ], [ 25.57887, 61.017846 ], [ 25.579094, 61.017812 ], [ 25.579262, 61.017778 ], [ 25.579486, 61.017727 ], [ 25.579729, 61.017675 ], [ 25.579879, 61.017632 ], [ 25.58001, 61.017588 ], [ 25.580272, 61.01751 ], [ 25.580498, 61.017423 ], [ 25.580705, 61.017344 ], [ 25.580876, 61.017239 ], [ 25.581029, 61.017132 ], [ 25.581221, 61.016982 ], [ 25.581171, 61.0169705 ], [ 25.5810496, 61.0169388 ], [ 25.581173, 61.016802 ], [ 25.582575, 61.015641 ], [ 25.582502, 61.015622 ], [ 25.582338, 61.015575 ], [ 25.581882, 61.015436 ], [ 25.582286, 61.015072 ], [ 25.582886, 61.014899 ], [ 25.583223, 61.014795 ], [ 25.583972, 61.013762 ], [ 25.583195, 61.012928 ], [ 25.5829462, 61.0126484 ], [ 25.582896, 61.012592 ], [ 25.582596, 61.012266 ], [ 25.582296, 61.01194 ], [ 25.581997, 61.011614 ], [ 25.581697, 61.011278 ], [ 25.579846, 61.009248 ], [ 25.579476, 61.00884 ], [ 25.578965, 61.008288 ], [ 25.5784043, 61.0076727 ], [ 25.5778104, 61.0070209 ], [ 25.5774075, 61.0065787 ], [ 25.5773069, 61.0064683 ], [ 25.5772236, 61.0063769 ], [ 25.5768129, 61.0059261 ], [ 25.5767721, 61.0058813 ], [ 25.576726, 61.0058307 ], [ 25.5766811, 61.0057815 ], [ 25.5766413, 61.0057378 ], [ 25.5766016, 61.0056942 ], [ 25.5765352, 61.0056213 ], [ 25.5764963, 61.0055786 ], [ 25.5764706, 61.0055504 ], [ 25.5761093, 61.0051539 ], [ 25.5760332, 61.0050703 ], [ 25.5759999, 61.0050338 ], [ 25.5758937, 61.0049174 ], [ 25.5758657, 61.0048866 ], [ 25.5758368, 61.0048548 ], [ 25.5757654, 61.0047764 ], [ 25.5754759, 61.0044587 ], [ 25.5753362, 61.0043053 ], [ 25.5751684, 61.0041211 ], [ 25.5751016, 61.0040478 ], [ 25.5749543, 61.0038862 ], [ 25.5747576, 61.0036703 ], [ 25.5742487, 61.0031117 ], [ 25.5731262, 61.0018796 ], [ 25.5730505, 61.0017965 ], [ 25.5729049, 61.0017811 ], [ 25.5602444, 61.0004416 ], [ 25.5586555, 61.0002735 ], [ 25.5573476, 61.0001351 ], [ 25.5492712, 60.9992621 ], [ 25.5458593, 60.9988708 ], [ 25.5449454, 60.998769 ], [ 25.5405794, 60.9982941 ], [ 25.5403066, 60.9982644 ] ] ] } }
]
}
