{
"type": "FeatureCollection",
"name": "le-mans_fr",
"crs": { "type": "name", "properties": { "name": "urn:ogc:def:crs:OGC:1.3:CRS84" } },
"features": [
{ "type": "Feature", "properties": { "bbox_west": 0.1362825, "bbox_south": 47.927977, "bbox_east": 0.2550938, "bbox_north": 48.0358733, "place_id": 96232687, "osm_type": "relation", "osm_id": 107435, "lat": 48.0073849, "lon": 0.1967849, "class": "boundary", "type": "administrative", "place_rank": 16, "importance": 0.65432757516049167, "addresstype": "city", "name": "Le Mans", "display_name": "Le Mans, Sarthe, Pays de la Loire, Metropolitan France, France" }, "geometry": { "type": "Polygon", "coordinates": [ [ [ 0.1362825, 48.0176587 ], [ 0.136291, 48.017639 ], [ 0.1409872, 48.017083 ], [ 0.1409374, 48.0167927 ], [ 0.1409201, 48.0164466 ], [ 0.1408894, 48.0163505 ], [ 0.1407598, 48.0161565 ], [ 0.1402052, 48.015559 ], [ 0.1401095, 48.0154061 ], [ 0.13988, 48.0149026 ], [ 0.139863, 48.0147678 ], [ 0.1400237, 48.0147845 ], [ 0.1402829, 48.0148029 ], [ 0.140426, 48.0147831 ], [ 0.1420069, 48.0146441 ], [ 0.1421253, 48.0146415 ], [ 0.142449, 48.0146538 ], [ 0.1428241, 48.0147052 ], [ 0.1431556, 48.0147685 ], [ 0.1433749, 48.0148292 ], [ 0.1442102, 48.0151355 ], [ 0.1442675, 48.015192 ], [ 0.1455327, 48.0156664 ], [ 0.1455724, 48.0156711 ], [ 0.1457487, 48.015693 ], [ 0.1458459, 48.0156886 ], [ 0.145934, 48.0156749 ], [ 0.145963, 48.0156674 ], [ 0.1459993, 48.0156581 ], [ 0.1471757, 48.015157 ], [ 0.147354, 48.015055 ], [ 0.1475176, 48.0149443 ], [ 0.1477029, 48.014817 ], [ 0.1482182, 48.0144598 ], [ 0.1488668, 48.0139804 ], [ 0.1491611, 48.0137628 ], [ 0.1496901, 48.0134367 ], [ 0.1499273, 48.013324 ], [ 0.1499465, 48.0133107 ], [ 0.1504294, 48.0130586 ], [ 0.1504204, 48.013044 ], [ 0.1504158, 48.0130263 ], [ 0.1504181, 48.0130084 ], [ 0.1504282, 48.0129918 ], [ 0.1504429, 48.0129795 ], [ 0.1504704, 48.0129663 ], [ 0.1505015, 48.0129616 ], [ 0.1505307, 48.0129632 ], [ 0.1505595, 48.012972 ], [ 0.1505784, 48.012981 ], [ 0.1510559, 48.0127573 ], [ 0.151444, 48.0126067 ], [ 0.1515108, 48.0125805 ], [ 0.1528832, 48.012038 ], [ 0.1532107, 48.0119115 ], [ 0.1536893, 48.0117159 ], [ 0.1538747, 48.011652 ], [ 0.1539776, 48.0116208 ], [ 0.1540774, 48.0116032 ], [ 0.1541724, 48.0115939 ], [ 0.1542084, 48.0115926 ], [ 0.1542223, 48.011592 ], [ 0.1551004, 48.0111877 ], [ 0.1555926, 48.0109639 ], [ 0.1557526, 48.010896 ], [ 0.1560999, 48.0107457 ], [ 0.156721, 48.0104753 ], [ 0.1578866, 48.0100276 ], [ 0.1582948, 48.0098269 ], [ 0.15847, 48.0097418 ], [ 0.1594991, 48.009216 ], [ 0.1595591, 48.0091898 ], [ 0.1598077, 48.0090807 ], [ 0.1605013, 48.0087422 ], [ 0.1610008, 48.0084844 ], [ 0.1621115, 48.0079126 ], [ 0.1623226, 48.0078362 ], [ 0.1627894, 48.0077032 ], [ 0.1626309, 48.0068272 ], [ 0.1627101, 48.0066829 ], [ 0.162686, 48.006639 ], [ 0.1625567, 48.0066481 ], [ 0.1622123, 48.0061509 ], [ 0.1626364, 48.0059433 ], [ 0.1627678, 48.005908 ], [ 0.1633205, 48.005833 ], [ 0.1635877, 48.0057774 ], [ 0.1639571, 48.0056194 ], [ 0.1639848, 48.0055879 ], [ 0.1639692, 48.0055538 ], [ 0.1629821, 48.0046529 ], [ 0.1627554, 48.0043243 ], [ 0.1627643, 48.004297 ], [ 0.1628503, 48.0042743 ], [ 0.1627115, 48.003929 ], [ 0.1626893, 48.0039172 ], [ 0.162546, 48.0032672 ], [ 0.162529, 48.0032669 ], [ 0.1625132, 48.0031258 ], [ 0.16258, 48.0029389 ], [ 0.16258, 48.0028673 ], [ 0.1623693, 48.0022527 ], [ 0.1623985, 48.002214 ], [ 0.1626511, 48.0021551 ], [ 0.1631191, 48.0020923 ], [ 0.1637667, 48.0020521 ], [ 0.165224, 48.0020647 ], [ 0.165715, 48.0020277 ], [ 0.1651475, 48.0013547 ], [ 0.1648719, 48.000807 ], [ 0.1647995, 48.0006961 ], [ 0.1647445, 48.0003657 ], [ 0.1646725, 48.0002197 ], [ 0.1644912, 47.9999833 ], [ 0.164228, 47.9994891 ], [ 0.1641786, 47.9993439 ], [ 0.1641779, 47.9992213 ], [ 0.1642161, 47.9991485 ], [ 0.164283, 47.9991098 ], [ 0.1652235, 47.9988821 ], [ 0.1657377, 47.9987233 ], [ 0.1653047, 47.9984735 ], [ 0.1649555, 47.998301 ], [ 0.1647258, 47.9982077 ], [ 0.1646743, 47.9982002 ], [ 0.1639851, 47.9979255 ], [ 0.1639566, 47.9978979 ], [ 0.1640638, 47.9977899 ], [ 0.1641551, 47.9975886 ], [ 0.1639058, 47.9975151 ], [ 0.1637794, 47.9974617 ], [ 0.1637464, 47.9974223 ], [ 0.1638599, 47.9972694 ], [ 0.1639392, 47.9970832 ], [ 0.1642694, 47.9966895 ], [ 0.164186, 47.9966233 ], [ 0.1644711, 47.9964454 ], [ 0.165369, 47.9959515 ], [ 0.1655256, 47.9958912 ], [ 0.16633, 47.9954888 ], [ 0.166617, 47.9953708 ], [ 0.1675948, 47.9948384 ], [ 0.1684334, 47.9943277 ], [ 0.1690041, 47.9940192 ], [ 0.1691971, 47.9938473 ], [ 0.1689705, 47.9931775 ], [ 0.168952, 47.9930641 ], [ 0.1689702, 47.9930386 ], [ 0.1689227, 47.9927792 ], [ 0.1688755, 47.9927707 ], [ 0.1686646, 47.9927911 ], [ 0.1685866, 47.9926161 ], [ 0.1685518, 47.9925964 ], [ 0.1676204, 47.9926599 ], [ 0.1674687, 47.9926372 ], [ 0.1672623, 47.9925706 ], [ 0.1670654, 47.9924839 ], [ 0.1670258, 47.9924866 ], [ 0.1664264, 47.9927717 ], [ 0.1662532, 47.9928744 ], [ 0.1654446, 47.9934522 ], [ 0.1653744, 47.9934058 ], [ 0.1652965, 47.9933543 ], [ 0.1651918, 47.9932377 ], [ 0.1650776, 47.992974 ], [ 0.1649778, 47.9928408 ], [ 0.1649177, 47.9927974 ], [ 0.1648092, 47.9927638 ], [ 0.1647172, 47.9927598 ], [ 0.1646223, 47.9927696 ], [ 0.1645129, 47.9927808 ], [ 0.1644245, 47.9927354 ], [ 0.1643634, 47.9926698 ], [ 0.1642416, 47.9925389 ], [ 0.1642072, 47.9925215 ], [ 0.1640292, 47.9925883 ], [ 0.1639719, 47.9925537 ], [ 0.1638658, 47.9925662 ], [ 0.1637612, 47.9924445 ], [ 0.1637019, 47.9923755 ], [ 0.1634472, 47.9919314 ], [ 0.1633193, 47.9918353 ], [ 0.1631022, 47.9916154 ], [ 0.1627769, 47.9912427 ], [ 0.1623659, 47.9909746 ], [ 0.1616682, 47.9904751 ], [ 0.1613369, 47.9902869 ], [ 0.1614407, 47.9901609 ], [ 0.1614449, 47.9901039 ], [ 0.1616757, 47.9898382 ], [ 0.1616599, 47.9897637 ], [ 0.1613333, 47.9894169 ], [ 0.1613202, 47.9893744 ], [ 0.161518, 47.9890593 ], [ 0.1614814, 47.9889974 ], [ 0.1614517, 47.9889896 ], [ 0.1611023, 47.9890231 ], [ 0.1610674, 47.989014 ], [ 0.1609617, 47.9887886 ], [ 0.1608766, 47.9886655 ], [ 0.1606689, 47.9884785 ], [ 0.1605763, 47.9882411 ], [ 0.1604932, 47.9881524 ], [ 0.1604014, 47.9881111 ], [ 0.1597837, 47.9879283 ], [ 0.1586471, 47.98732 ], [ 0.1582507, 47.9871969 ], [ 0.1579256, 47.9869779 ], [ 0.1575915, 47.9867528 ], [ 0.157448, 47.9866306 ], [ 0.1573242, 47.9864905 ], [ 0.1572798, 47.9864131 ], [ 0.1571753, 47.9863156 ], [ 0.1560507, 47.9858286 ], [ 0.1557683, 47.9856756 ], [ 0.1556137, 47.9856115 ], [ 0.1555026, 47.9855915 ], [ 0.1551822, 47.9855699 ], [ 0.1548341, 47.9855771 ], [ 0.1544895, 47.9856209 ], [ 0.1540904, 47.9856992 ], [ 0.1539979, 47.9856971 ], [ 0.1539374, 47.9856655 ], [ 0.1536583, 47.9854101 ], [ 0.1535307, 47.9852503 ], [ 0.153479, 47.9851856 ], [ 0.1533221, 47.9847627 ], [ 0.1530754, 47.9844687 ], [ 0.1530115, 47.9843658 ], [ 0.1529823, 47.9842576 ], [ 0.1530062, 47.9841643 ], [ 0.1533705, 47.9837801 ], [ 0.1534111, 47.9836712 ], [ 0.1533832, 47.9836524 ], [ 0.1517327, 47.9837231 ], [ 0.1516905, 47.9837249 ], [ 0.1514276, 47.9837221 ], [ 0.1513265, 47.9837232 ], [ 0.1513336, 47.9836799 ], [ 0.1513466, 47.983614 ], [ 0.1514571, 47.9836502 ], [ 0.1518006, 47.9836797 ], [ 0.1517764, 47.9834528 ], [ 0.1520808, 47.9833851 ], [ 0.152299, 47.9833733 ], [ 0.1523365, 47.9831182 ], [ 0.1522877, 47.982509 ], [ 0.1522639, 47.9823313 ], [ 0.1521685, 47.9823494 ], [ 0.1517862, 47.9823561 ], [ 0.1515438, 47.9823253 ], [ 0.1512016, 47.9821442 ], [ 0.1508754, 47.9818477 ], [ 0.1508582, 47.9818286 ], [ 0.1507142, 47.9816014 ], [ 0.1505583, 47.9813439 ], [ 0.1504969, 47.9811659 ], [ 0.1504824, 47.9810462 ], [ 0.1504131, 47.9805856 ], [ 0.1504372, 47.9798922 ], [ 0.1504803, 47.9795719 ], [ 0.150524, 47.9792467 ], [ 0.150602, 47.979035 ], [ 0.1507362, 47.9788239 ], [ 0.1508544, 47.9787177 ], [ 0.1510656, 47.9785991 ], [ 0.1512736, 47.9785423 ], [ 0.1515448, 47.9785056 ], [ 0.1518838, 47.9785537 ], [ 0.1521799, 47.97865 ], [ 0.1526569, 47.9788052 ], [ 0.152854, 47.9788386 ], [ 0.1531411, 47.978834 ], [ 0.1533843, 47.9788188 ], [ 0.1536354, 47.9787799 ], [ 0.1540929, 47.9786198 ], [ 0.154534, 47.9784106 ], [ 0.1548868, 47.9781947 ], [ 0.1551718, 47.9779359 ], [ 0.1555214, 47.9777434 ], [ 0.1566037, 47.9773626 ], [ 0.1574703, 47.977038 ], [ 0.158335, 47.9767628 ], [ 0.1587584, 47.9765731 ], [ 0.1590669, 47.9764011 ], [ 0.159401, 47.9761504 ], [ 0.1600263, 47.9755453 ], [ 0.1605954, 47.9749261 ], [ 0.1608045, 47.974676 ], [ 0.1617141, 47.9734373 ], [ 0.162019, 47.9730705 ], [ 0.1622609, 47.9728248 ], [ 0.1625352, 47.9726019 ], [ 0.1627906, 47.9724289 ], [ 0.1628586, 47.9723855 ], [ 0.1633322, 47.9723443 ], [ 0.1641111, 47.9725256 ], [ 0.1649227, 47.9727241 ], [ 0.1653545, 47.9727933 ], [ 0.1658415, 47.9728301 ], [ 0.1662719, 47.9728325 ], [ 0.1666788, 47.9728012 ], [ 0.1669704, 47.9727565 ], [ 0.167296, 47.9726903 ], [ 0.1675065, 47.9726052 ], [ 0.1677858, 47.9724548 ], [ 0.1679674, 47.9722692 ], [ 0.1680803, 47.9721378 ], [ 0.168119, 47.9720657 ], [ 0.1683352, 47.971581 ], [ 0.1685228, 47.9712316 ], [ 0.1704949, 47.9691541 ], [ 0.1720081, 47.9680513 ], [ 0.1727563, 47.9673937 ], [ 0.1735724, 47.9665873 ], [ 0.1738624, 47.9662344 ], [ 0.1745261, 47.9653273 ], [ 0.1750329, 47.9645551 ], [ 0.1752231, 47.9642158 ], [ 0.1753303, 47.9639524 ], [ 0.1754688, 47.9633812 ], [ 0.175501, 47.9628302 ], [ 0.175392, 47.9618792 ], [ 0.1752292, 47.9612174 ], [ 0.175123, 47.9609438 ], [ 0.1748857, 47.9604961 ], [ 0.1748174, 47.9600442 ], [ 0.174795, 47.9593183 ], [ 0.1748077, 47.9590371 ], [ 0.1749465, 47.9584308 ], [ 0.1752417, 47.9579361 ], [ 0.1757778, 47.9574845 ], [ 0.1764382, 47.9567497 ], [ 0.1767617, 47.9565181 ], [ 0.1771866, 47.9563181 ], [ 0.177306, 47.9562805 ], [ 0.1773719, 47.9562092 ], [ 0.1776699, 47.9559916 ], [ 0.1778218, 47.9558391 ], [ 0.1779519, 47.9555417 ], [ 0.1782326, 47.9547336 ], [ 0.1782756, 47.9542836 ], [ 0.1800708, 47.9545414 ], [ 0.1804778, 47.9545411 ], [ 0.1810991, 47.9545094 ], [ 0.1814549, 47.9544739 ], [ 0.1815263, 47.9542586 ], [ 0.1817772, 47.9541979 ], [ 0.1834406, 47.9536857 ], [ 0.1835801, 47.9538748 ], [ 0.183658, 47.9538181 ], [ 0.1837034, 47.9537511 ], [ 0.1837871, 47.9534264 ], [ 0.1839887, 47.9530295 ], [ 0.1841145, 47.9528613 ], [ 0.1842741, 47.9527053 ], [ 0.1847227, 47.9523356 ], [ 0.1848953, 47.9521685 ], [ 0.18526, 47.9517507 ], [ 0.1853975, 47.9516545 ], [ 0.1857061, 47.9514936 ], [ 0.1862429, 47.9512807 ], [ 0.186388, 47.9512663 ], [ 0.1865728, 47.9512975 ], [ 0.1865968, 47.9513037 ], [ 0.1869103, 47.9513845 ], [ 0.1876161, 47.9515664 ], [ 0.1876638, 47.9515493 ], [ 0.1876895, 47.9515197 ], [ 0.1877108, 47.9513515 ], [ 0.1877607, 47.9512308 ], [ 0.1878933, 47.9510339 ], [ 0.1883701, 47.9510171 ], [ 0.1895124, 47.9508865 ], [ 0.1904257, 47.9507148 ], [ 0.19043, 47.9509715 ], [ 0.1917537, 47.9509039 ], [ 0.1928144, 47.9508005 ], [ 0.1927857, 47.9505881 ], [ 0.1928009, 47.9505766 ], [ 0.1950274, 47.9503487 ], [ 0.1953057, 47.9503397 ], [ 0.1939012, 47.9473015 ], [ 0.192895, 47.9446805 ], [ 0.1929347, 47.9446549 ], [ 0.1935289, 47.9445982 ], [ 0.194198, 47.9444628 ], [ 0.1944359, 47.9444295 ], [ 0.1955181, 47.9443664 ], [ 0.1959952, 47.9443711 ], [ 0.1968347, 47.9444616 ], [ 0.196978, 47.9444606 ], [ 0.1973286, 47.944404 ], [ 0.198167, 47.9442129 ], [ 0.1988647, 47.9441149 ], [ 0.1992755, 47.9440222 ], [ 0.1994112, 47.9440559 ], [ 0.2000413, 47.9440184 ], [ 0.2000429, 47.9439777 ], [ 0.2000803, 47.9439638 ], [ 0.2011299, 47.9438718 ], [ 0.2011659, 47.9438913 ], [ 0.2013095, 47.944106 ], [ 0.2017787, 47.9440333 ], [ 0.2019035, 47.944014 ], [ 0.2020657, 47.9439889 ], [ 0.2020947, 47.943999 ], [ 0.2022005, 47.9441149 ], [ 0.2023533, 47.9440606 ], [ 0.204687, 47.9430468 ], [ 0.2047583, 47.943034 ], [ 0.205187, 47.9430717 ], [ 0.2074452, 47.9432702 ], [ 0.2074752, 47.9432586 ], [ 0.2076087, 47.9411841 ], [ 0.207661, 47.9408418 ], [ 0.2077645, 47.9404371 ], [ 0.2078996, 47.9400003 ], [ 0.2080275, 47.9395865 ], [ 0.2077647, 47.9386626 ], [ 0.207682, 47.9382995 ], [ 0.2076663, 47.9378751 ], [ 0.2077748, 47.9369115 ], [ 0.2077864, 47.9367287 ], [ 0.2078592, 47.9355766 ], [ 0.2080539, 47.9344526 ], [ 0.208219, 47.9337716 ], [ 0.2082958, 47.9335375 ], [ 0.2084468, 47.9331909 ], [ 0.2086111, 47.9329068 ], [ 0.209093, 47.9322144 ], [ 0.2096262, 47.9315425 ], [ 0.2100853, 47.9310946 ], [ 0.2101209, 47.931081 ], [ 0.2107184, 47.9310752 ], [ 0.2108279, 47.9310983 ], [ 0.2115148, 47.9313315 ], [ 0.211967, 47.9315323 ], [ 0.2120092, 47.9315375 ], [ 0.2130495, 47.9306278 ], [ 0.2150375, 47.9287458 ], [ 0.2150902, 47.9287309 ], [ 0.2158683, 47.9279894 ], [ 0.2159215, 47.927977 ], [ 0.216001, 47.9279833 ], [ 0.2165539, 47.9281333 ], [ 0.217507, 47.9284715 ], [ 0.2178634, 47.9286187 ], [ 0.2186947, 47.9288795 ], [ 0.2189151, 47.9289318 ], [ 0.2203999, 47.9294793 ], [ 0.2213636, 47.9298945 ], [ 0.2229589, 47.9303129 ], [ 0.2246387, 47.9307571 ], [ 0.2248245, 47.9308225 ], [ 0.2248478, 47.9308536 ], [ 0.224833, 47.9309018 ], [ 0.2236892, 47.931409 ], [ 0.2228922, 47.9318865 ], [ 0.2226528, 47.9320055 ], [ 0.2213386, 47.9325619 ], [ 0.2208924, 47.932759 ], [ 0.2183143, 47.9338184 ], [ 0.217873, 47.9340078 ], [ 0.2168589, 47.9344705 ], [ 0.2165186, 47.9349244 ], [ 0.2163245, 47.9351149 ], [ 0.2162574, 47.9351297 ], [ 0.2161527, 47.9352004 ], [ 0.2160864, 47.9352692 ], [ 0.2160386, 47.9353574 ], [ 0.2159551, 47.9355944 ], [ 0.215843, 47.9359125 ], [ 0.2158206, 47.935981 ], [ 0.2157799, 47.9360913 ], [ 0.215728, 47.9364297 ], [ 0.2156358, 47.9366647 ], [ 0.2152666, 47.9373163 ], [ 0.2164956, 47.937764 ], [ 0.2164994, 47.9377991 ], [ 0.2166395, 47.9378602 ], [ 0.216663, 47.9378957 ], [ 0.2165558, 47.9383952 ], [ 0.2166072, 47.9384403 ], [ 0.2166154, 47.9385314 ], [ 0.2165786, 47.9389135 ], [ 0.2176764, 47.9394509 ], [ 0.2177991, 47.9392495 ], [ 0.217987, 47.939173 ], [ 0.2181633, 47.9391389 ], [ 0.2184591, 47.939141 ], [ 0.2192675, 47.9390787 ], [ 0.2193616, 47.9390933 ], [ 0.2196545, 47.9392356 ], [ 0.2197301, 47.9392533 ], [ 0.2200567, 47.9392592 ], [ 0.2201581, 47.9393261 ], [ 0.2203175, 47.9393416 ], [ 0.2203366, 47.9395679 ], [ 0.2204957, 47.9397424 ], [ 0.2204992, 47.939787 ], [ 0.2201746, 47.9402937 ], [ 0.2201387, 47.9403219 ], [ 0.2199257, 47.9402758 ], [ 0.219849, 47.9402748 ], [ 0.2194296, 47.9404019 ], [ 0.219262, 47.9404343 ], [ 0.2189739, 47.9404485 ], [ 0.2192132, 47.9405593 ], [ 0.2190379, 47.9407084 ], [ 0.21869, 47.9411769 ], [ 0.2186376, 47.9412228 ], [ 0.2185521, 47.9412528 ], [ 0.2178389, 47.9409979 ], [ 0.2170807, 47.9408327 ], [ 0.2170332, 47.9408341 ], [ 0.2170172, 47.9408563 ], [ 0.2170652, 47.9414058 ], [ 0.2171548, 47.9414299 ], [ 0.217347, 47.9414494 ], [ 0.2180168, 47.9415605 ], [ 0.2183064, 47.941466 ], [ 0.2183709, 47.9414809 ], [ 0.2187287, 47.941689 ], [ 0.2189342, 47.9417692 ], [ 0.219154, 47.9417995 ], [ 0.2197265, 47.9417558 ], [ 0.2198068, 47.9417687 ], [ 0.2198399, 47.9418796 ], [ 0.2199187, 47.9419039 ], [ 0.219997, 47.9418962 ], [ 0.2202341, 47.941832 ], [ 0.2203127, 47.941833 ], [ 0.2203589, 47.9418491 ], [ 0.2205722, 47.9420188 ], [ 0.2206178, 47.9420208 ], [ 0.2209653, 47.9419308 ], [ 0.2212514, 47.9419881 ], [ 0.2212807, 47.9420126 ], [ 0.2212958, 47.942073 ], [ 0.2212811, 47.9422002 ], [ 0.2213562, 47.942221 ], [ 0.2217308, 47.9421794 ], [ 0.2218204, 47.9422088 ], [ 0.2218944, 47.9422695 ], [ 0.2219212, 47.9423202 ], [ 0.2218747, 47.9423867 ], [ 0.221587, 47.9425136 ], [ 0.2216913, 47.9426931 ], [ 0.2216385, 47.9428257 ], [ 0.2216639, 47.9428753 ], [ 0.2217306, 47.9429313 ], [ 0.2220304, 47.9430939 ], [ 0.2221986, 47.9431426 ], [ 0.2224845, 47.943158 ], [ 0.2225423, 47.9432013 ], [ 0.2225408, 47.9432557 ], [ 0.2223958, 47.943632 ], [ 0.2224208, 47.9436842 ], [ 0.2225245, 47.9437261 ], [ 0.2227597, 47.9437128 ], [ 0.2230513, 47.9436298 ], [ 0.2232088, 47.9436395 ], [ 0.2232689, 47.9436843 ], [ 0.223309, 47.9437673 ], [ 0.2233844, 47.9438086 ], [ 0.2234414, 47.9438001 ], [ 0.2235717, 47.9437313 ], [ 0.2236496, 47.9437376 ], [ 0.2238103, 47.9439278 ], [ 0.2239212, 47.9439613 ], [ 0.2241513, 47.9439704 ], [ 0.2242827, 47.9439355 ], [ 0.224392, 47.9438724 ], [ 0.2248372, 47.9435418 ], [ 0.2249064, 47.9435686 ], [ 0.2249572, 47.943662 ], [ 0.225002, 47.9436978 ], [ 0.2251711, 47.9437001 ], [ 0.2252418, 47.9437246 ], [ 0.225409, 47.9439505 ], [ 0.2254125, 47.9440389 ], [ 0.2255231, 47.9443635 ], [ 0.2258985, 47.9444529 ], [ 0.2261754, 47.9445762 ], [ 0.2262566, 47.9445632 ], [ 0.2263493, 47.944482 ], [ 0.2264165, 47.9442929 ], [ 0.2264497, 47.944252 ], [ 0.2265367, 47.9442133 ], [ 0.2269164, 47.9442696 ], [ 0.2272015, 47.9442687 ], [ 0.2274428, 47.9442391 ], [ 0.2274783, 47.9442139 ], [ 0.2276066, 47.9440115 ], [ 0.2277052, 47.9439227 ], [ 0.2277564, 47.9439202 ], [ 0.2279498, 47.9439549 ], [ 0.2282162, 47.9438992 ], [ 0.2287105, 47.9438431 ], [ 0.2289163, 47.943873 ], [ 0.22919, 47.9438658 ], [ 0.2292866, 47.9438896 ], [ 0.2293475, 47.9438892 ], [ 0.2294489, 47.9438594 ], [ 0.2296112, 47.9438829 ], [ 0.2298371, 47.9438839 ], [ 0.230389, 47.9438509 ], [ 0.2306177, 47.943863 ], [ 0.2308016, 47.9438736 ], [ 0.2308112, 47.9439026 ], [ 0.2312276, 47.9440902 ], [ 0.2314683, 47.9441705 ], [ 0.2318397, 47.9442914 ], [ 0.2321901, 47.9443734 ], [ 0.2328183, 47.9444768 ], [ 0.232992, 47.9444647 ], [ 0.2334742, 47.944556 ], [ 0.2326422, 47.9463146 ], [ 0.2315967, 47.948507 ], [ 0.2314157, 47.9488866 ], [ 0.2307774, 47.9502138 ], [ 0.2300759, 47.9516723 ], [ 0.229512, 47.9528296 ], [ 0.2292423, 47.9533971 ], [ 0.2285383, 47.9548785 ], [ 0.2277861, 47.9564456 ], [ 0.2275283, 47.9569159 ], [ 0.2272823, 47.9573039 ], [ 0.2270244, 47.9576767 ], [ 0.2269898, 47.9577365 ], [ 0.2268522, 47.9578887 ], [ 0.2270458, 47.9579917 ], [ 0.2275217, 47.9576833 ], [ 0.2276476, 47.9576617 ], [ 0.2277129, 47.9576763 ], [ 0.2278365, 47.9577126 ], [ 0.2284057, 47.9579898 ], [ 0.2298678, 47.9588795 ], [ 0.2302073, 47.9590919 ], [ 0.231325, 47.9597067 ], [ 0.2315083, 47.9597964 ], [ 0.2326305, 47.9603776 ], [ 0.2329783, 47.9605854 ], [ 0.2340462, 47.9611746 ], [ 0.2342085, 47.9612786 ], [ 0.2344401, 47.9615304 ], [ 0.2364691, 47.9619687 ], [ 0.2368191, 47.961359 ], [ 0.2368885, 47.961376 ], [ 0.2381959, 47.9619192 ], [ 0.238536, 47.9620022 ], [ 0.2391751, 47.9622913 ], [ 0.2392362, 47.9622657 ], [ 0.2395509, 47.9623372 ], [ 0.2403602, 47.9625625 ], [ 0.2411451, 47.9628372 ], [ 0.2413463, 47.9628821 ], [ 0.2416589, 47.9629983 ], [ 0.2424494, 47.9632057 ], [ 0.2425509, 47.9631562 ], [ 0.2426059, 47.9631686 ], [ 0.2428449, 47.9633807 ], [ 0.2427155, 47.9634771 ], [ 0.2422037, 47.9638998 ], [ 0.2420365, 47.9640855 ], [ 0.2414795, 47.9647039 ], [ 0.2412531, 47.964947 ], [ 0.2410338, 47.9651599 ], [ 0.2403658, 47.9657612 ], [ 0.2399676, 47.9660951 ], [ 0.2397515, 47.9662651 ], [ 0.2393999, 47.9665311 ], [ 0.2388349, 47.9669059 ], [ 0.2386001, 47.9671078 ], [ 0.2372381, 47.9680659 ], [ 0.2370158, 47.9682184 ], [ 0.2367821, 47.968354 ], [ 0.2364221, 47.9685181 ], [ 0.2355875, 47.9688473 ], [ 0.2356398, 47.9688996 ], [ 0.2361515, 47.9692656 ], [ 0.2387475, 47.9714279 ], [ 0.2392038, 47.9718492 ], [ 0.2394134, 47.9719771 ], [ 0.2422272, 47.9734971 ], [ 0.2423816, 47.9736309 ], [ 0.2427435, 47.9738366 ], [ 0.2435488, 47.9742575 ], [ 0.2443276, 47.9746621 ], [ 0.2446616, 47.9748613 ], [ 0.2452078, 47.9751141 ], [ 0.2463625, 47.975642 ], [ 0.2466952, 47.9758097 ], [ 0.2477505, 47.9762039 ], [ 0.2481598, 47.9763999 ], [ 0.2484159, 47.9764991 ], [ 0.2498615, 47.9772865 ], [ 0.2501842, 47.9774451 ], [ 0.2504849, 47.9776203 ], [ 0.2514926, 47.978249 ], [ 0.2530596, 47.9792569 ], [ 0.2533704, 47.9794568 ], [ 0.2537448, 47.9796952 ], [ 0.255058, 47.9806212 ], [ 0.2550938, 47.9806647 ], [ 0.2546361, 47.9808639 ], [ 0.2527095, 47.9814483 ], [ 0.2508701, 47.9819219 ], [ 0.2508111, 47.9819521 ], [ 0.2508556, 47.9821455 ], [ 0.2507677, 47.9824481 ], [ 0.2506355, 47.9826381 ], [ 0.2504979, 47.9827643 ], [ 0.2503943, 47.9828196 ], [ 0.2500335, 47.9829607 ], [ 0.2492604, 47.9832754 ], [ 0.2486943, 47.9834772 ], [ 0.2484601, 47.9835256 ], [ 0.2481778, 47.9835563 ], [ 0.2475882, 47.9835911 ], [ 0.2475708, 47.9836167 ], [ 0.2475459, 47.9841314 ], [ 0.2475294, 47.9841452 ], [ 0.2475118, 47.9841555 ], [ 0.2474001, 47.9841637 ], [ 0.2473478, 47.9841668 ], [ 0.2469557, 47.984189 ], [ 0.2468474, 47.9841973 ], [ 0.2464083, 47.9842101 ], [ 0.2460097, 47.9842056 ], [ 0.2447201, 47.984191 ], [ 0.2444266, 47.9842093 ], [ 0.2428032, 47.9843551 ], [ 0.2426077, 47.984376 ], [ 0.2426028, 47.9844045 ], [ 0.2426118, 47.9844163 ], [ 0.2426151, 47.9850961 ], [ 0.2425883, 47.985503 ], [ 0.2425849, 47.9856336 ], [ 0.2425778, 47.9857435 ], [ 0.2425916, 47.9858002 ], [ 0.2426754, 47.9862915 ], [ 0.2427915, 47.9868836 ], [ 0.2428158, 47.9869415 ], [ 0.2428837, 47.9870592 ], [ 0.2429409, 47.9871275 ], [ 0.2430087, 47.9872086 ], [ 0.2430863, 47.9872806 ], [ 0.2431911, 47.9873671 ], [ 0.2435534, 47.9875448 ], [ 0.2436449, 47.9875897 ], [ 0.2437767, 47.9876807 ], [ 0.2438334, 47.9877556 ], [ 0.2438786, 47.9878371 ], [ 0.2439014, 47.9880818 ], [ 0.2451573, 47.9884051 ], [ 0.2459687, 47.9889289 ], [ 0.2458606, 47.9889295 ], [ 0.2457596, 47.9889513 ], [ 0.2455185, 47.9889445 ], [ 0.2454174, 47.9889324 ], [ 0.245107, 47.9888952 ], [ 0.2449265, 47.9888518 ], [ 0.2440586, 47.9886432 ], [ 0.2438074, 47.9885761 ], [ 0.243477, 47.9885201 ], [ 0.2432004, 47.9884918 ], [ 0.2428201, 47.9884778 ], [ 0.2427496, 47.9884752 ], [ 0.2425366, 47.9884815 ], [ 0.2421669, 47.9885562 ], [ 0.2420217, 47.9886058 ], [ 0.2414456, 47.9890331 ], [ 0.2413804, 47.9891072 ], [ 0.2413248, 47.9892383 ], [ 0.2411017, 47.9896347 ], [ 0.2419387, 47.9894575 ], [ 0.2424932, 47.9897748 ], [ 0.2438822, 47.9907655 ], [ 0.244202, 47.990915 ], [ 0.244767, 47.9911792 ], [ 0.2450776, 47.9915282 ], [ 0.2446618, 47.9917893 ], [ 0.2431937, 47.9924602 ], [ 0.2426258, 47.9926087 ], [ 0.2419909, 47.9925749 ], [ 0.2412847, 47.9924135 ], [ 0.2404164, 47.9921832 ], [ 0.2403664, 47.9921944 ], [ 0.2402848, 47.9924352 ], [ 0.2402512, 47.9926874 ], [ 0.240218, 47.9927388 ], [ 0.2400119, 47.9926561 ], [ 0.2396838, 47.9924874 ], [ 0.2394497, 47.9924204 ], [ 0.2394376, 47.992248 ], [ 0.2394092, 47.992225 ], [ 0.2390888, 47.992168 ], [ 0.23899, 47.9922111 ], [ 0.2388814, 47.9922772 ], [ 0.2387702, 47.992223 ], [ 0.2385636, 47.9922116 ], [ 0.2381927, 47.9922989 ], [ 0.2381599, 47.9923113 ], [ 0.2378464, 47.9924302 ], [ 0.2375828, 47.9925806 ], [ 0.2373714, 47.9928238 ], [ 0.2372042, 47.9930161 ], [ 0.2370174, 47.9931839 ], [ 0.2369521, 47.9932206 ], [ 0.2364696, 47.993399 ], [ 0.2363622, 47.9934588 ], [ 0.2362826, 47.9935324 ], [ 0.2362158, 47.9936705 ], [ 0.2362109, 47.993792 ], [ 0.2361725, 47.9937939 ], [ 0.2361774, 47.9939192 ], [ 0.2362058, 47.9939184 ], [ 0.2363429, 47.9939779 ], [ 0.2361925, 47.9941085 ], [ 0.2361932, 47.9942148 ], [ 0.2354795, 47.9949624 ], [ 0.235398, 47.9950536 ], [ 0.2353851, 47.9950981 ], [ 0.2354703, 47.9950965 ], [ 0.2354626, 47.9952919 ], [ 0.2355587, 47.9956066 ], [ 0.2356712, 47.9966386 ], [ 0.2356802, 47.9968676 ], [ 0.2355364, 47.9969721 ], [ 0.2357156, 47.9972541 ], [ 0.2358616, 47.9975541 ], [ 0.23601, 47.9981638 ], [ 0.2361055, 47.9983891 ], [ 0.2361576, 47.9984016 ], [ 0.236176, 47.9983903 ], [ 0.2361855, 47.9984233 ], [ 0.2362047, 47.9984876 ], [ 0.2361989, 47.9985857 ], [ 0.2361744, 47.9989755 ], [ 0.2360715, 47.9990013 ], [ 0.2360066, 47.9990732 ], [ 0.2359109, 47.9994433 ], [ 0.235653, 48.0010048 ], [ 0.2356749, 48.0010522 ], [ 0.2363458, 48.001281 ], [ 0.2364683, 48.0013261 ], [ 0.2370398, 48.0015367 ], [ 0.2373752, 48.0016659 ], [ 0.2378038, 48.001831 ], [ 0.2379272, 48.0018823 ], [ 0.2385207, 48.0021288 ], [ 0.2386232, 48.0021663 ], [ 0.2398481, 48.002615 ], [ 0.2403532, 48.0027579 ], [ 0.2406379, 48.0028991 ], [ 0.2406858, 48.0029068 ], [ 0.2414511, 48.0032244 ], [ 0.2416739, 48.0032877 ], [ 0.2420377, 48.0034452 ], [ 0.2423577, 48.0035596 ], [ 0.242636, 48.0036582 ], [ 0.2433275, 48.0038767 ], [ 0.2436302, 48.0039865 ], [ 0.2447348, 48.0044958 ], [ 0.2457984, 48.0049381 ], [ 0.2462411, 48.0051718 ], [ 0.2465418, 48.0053763 ], [ 0.2465645, 48.0053918 ], [ 0.2465851, 48.0054072 ], [ 0.2467451, 48.0055297 ], [ 0.2470686, 48.0057724 ], [ 0.2474012, 48.0060306 ], [ 0.24722, 48.0062107 ], [ 0.2469623, 48.006639 ], [ 0.2467734, 48.0068747 ], [ 0.2457256, 48.0081334 ], [ 0.2456422, 48.0082133 ], [ 0.2444745, 48.0090865 ], [ 0.244255, 48.009244 ], [ 0.2440554, 48.0094327 ], [ 0.2436724, 48.0097652 ], [ 0.2427634, 48.0106191 ], [ 0.2426441, 48.0107919 ], [ 0.242568, 48.0109709 ], [ 0.2425277, 48.011151 ], [ 0.2425402, 48.0116385 ], [ 0.2439326, 48.0115409 ], [ 0.2439935, 48.0115477 ], [ 0.2449508, 48.0114857 ], [ 0.2451976, 48.0114378 ], [ 0.2456059, 48.0113745 ], [ 0.2463122, 48.0112971 ], [ 0.2468512, 48.0112102 ], [ 0.2476776, 48.0110831 ], [ 0.2488219, 48.010858 ], [ 0.2493437, 48.0106683 ], [ 0.249498, 48.0106371 ], [ 0.2500889, 48.0105944 ], [ 0.2503451, 48.0106019 ], [ 0.2506525, 48.0106473 ], [ 0.2514832, 48.0107462 ], [ 0.2516513, 48.0107425 ], [ 0.2520039, 48.0108011 ], [ 0.2520474, 48.0108194 ], [ 0.2520499, 48.0108534 ], [ 0.2518772, 48.0111574 ], [ 0.2518418, 48.0111732 ], [ 0.2515668, 48.011569 ], [ 0.2515703, 48.0115885 ], [ 0.252066, 48.0117979 ], [ 0.251901, 48.0120234 ], [ 0.2518259, 48.0121904 ], [ 0.2515936, 48.0124941 ], [ 0.2516019, 48.0125345 ], [ 0.2519025, 48.0128966 ], [ 0.2520291, 48.0131325 ], [ 0.2520886, 48.0134647 ], [ 0.2522697, 48.0138486 ], [ 0.2525901, 48.0137782 ], [ 0.2526194, 48.013857 ], [ 0.2526441, 48.0140532 ], [ 0.2527047, 48.0142255 ], [ 0.2526916, 48.0144228 ], [ 0.2524533, 48.0149972 ], [ 0.2523729, 48.0150277 ], [ 0.2522501, 48.0151923 ], [ 0.2522126, 48.0153055 ], [ 0.2522058, 48.0154539 ], [ 0.2522321, 48.0156549 ], [ 0.2523318, 48.0160054 ], [ 0.2523346, 48.0161063 ], [ 0.2521893, 48.0161592 ], [ 0.2521919, 48.0162515 ], [ 0.2522593, 48.0165135 ], [ 0.2522404, 48.0165553 ], [ 0.2517135, 48.0167114 ], [ 0.2516816, 48.0167358 ], [ 0.2518934, 48.0172091 ], [ 0.2518913, 48.0172396 ], [ 0.2516471, 48.0172929 ], [ 0.2513512, 48.0173872 ], [ 0.2510175, 48.0175284 ], [ 0.2507635, 48.017657 ], [ 0.2504949, 48.0177958 ], [ 0.2499675, 48.0180918 ], [ 0.2496215, 48.0182469 ], [ 0.2494324, 48.0183037 ], [ 0.2492277, 48.0183407 ], [ 0.2489503, 48.0183524 ], [ 0.2484799, 48.0183245 ], [ 0.2479023, 48.0183321 ], [ 0.2473746, 48.0183967 ], [ 0.2472079, 48.0184003 ], [ 0.2469051, 48.0183734 ], [ 0.246705, 48.018338 ], [ 0.2459367, 48.0181443 ], [ 0.2459265, 48.0181275 ], [ 0.2459638, 48.0180321 ], [ 0.2454332, 48.0177319 ], [ 0.245267, 48.0179405 ], [ 0.2450408, 48.0178878 ], [ 0.2443556, 48.018879 ], [ 0.24422, 48.0189648 ], [ 0.2441408, 48.0189639 ], [ 0.2435338, 48.0184804 ], [ 0.2430389, 48.017982 ], [ 0.242838, 48.017929 ], [ 0.2425566, 48.0178562 ], [ 0.2422068, 48.0177904 ], [ 0.2412664, 48.0176607 ], [ 0.2406781, 48.0176072 ], [ 0.2401599, 48.0175781 ], [ 0.2399356, 48.0175795 ], [ 0.2394222, 48.0176131 ], [ 0.2389144, 48.0176758 ], [ 0.2380375, 48.0178389 ], [ 0.2379527, 48.0178677 ], [ 0.2378681, 48.0179133 ], [ 0.2378856, 48.0179644 ], [ 0.2385773, 48.01876 ], [ 0.2385806, 48.0187824 ], [ 0.2380528, 48.0190793 ], [ 0.2378396, 48.0191825 ], [ 0.2376784, 48.0193359 ], [ 0.2374488, 48.0192679 ], [ 0.2373749, 48.0192595 ], [ 0.2369253, 48.019464 ], [ 0.2371552, 48.0196697 ], [ 0.2365314, 48.0200678 ], [ 0.2364947, 48.0201058 ], [ 0.2367916, 48.0203448 ], [ 0.2368035, 48.0203716 ], [ 0.23661, 48.0205563 ], [ 0.236528, 48.0206056 ], [ 0.2362991, 48.0206543 ], [ 0.2361774, 48.0206379 ], [ 0.2358472, 48.0206633 ], [ 0.2350796, 48.0208816 ], [ 0.234947, 48.02089 ], [ 0.2345817, 48.0206034 ], [ 0.234099, 48.0206153 ], [ 0.2342797, 48.0208229 ], [ 0.2342934, 48.0208622 ], [ 0.2341599, 48.0208754 ], [ 0.2329622, 48.0211736 ], [ 0.2329356, 48.0211955 ], [ 0.2329545, 48.0212668 ], [ 0.2329139, 48.0212832 ], [ 0.2323082, 48.0213619 ], [ 0.2320816, 48.0214105 ], [ 0.2320047, 48.0214145 ], [ 0.2319327, 48.0213559 ], [ 0.2307867, 48.0215038 ], [ 0.2305177, 48.021552 ], [ 0.2305044, 48.0215679 ], [ 0.2305269, 48.0217784 ], [ 0.2300398, 48.0219785 ], [ 0.2297112, 48.022073 ], [ 0.2294772, 48.0222247 ], [ 0.2292159, 48.0221136 ], [ 0.2291146, 48.0222162 ], [ 0.2287005, 48.0222204 ], [ 0.2286603, 48.0222335 ], [ 0.2285465, 48.0224235 ], [ 0.2283997, 48.0225959 ], [ 0.2283805, 48.0226476 ], [ 0.2283154, 48.0227242 ], [ 0.2282395, 48.0227624 ], [ 0.2280097, 48.0231387 ], [ 0.228009, 48.0231751 ], [ 0.2278273, 48.0235285 ], [ 0.2277441, 48.0237901 ], [ 0.2276783, 48.0240256 ], [ 0.2276225, 48.0241177 ], [ 0.2275666, 48.0241444 ], [ 0.2274986, 48.0242458 ], [ 0.2274422, 48.0244418 ], [ 0.2274505, 48.0245293 ], [ 0.227687, 48.0248286 ], [ 0.227505, 48.024912 ], [ 0.2271421, 48.0246146 ], [ 0.2270198, 48.0245205 ], [ 0.2269715, 48.0244801 ], [ 0.226904, 48.0244313 ], [ 0.2265433, 48.0242323 ], [ 0.2264844, 48.0242005 ], [ 0.2261124, 48.0239916 ], [ 0.226016, 48.0239347 ], [ 0.225727, 48.0237759 ], [ 0.225363, 48.0235717 ], [ 0.2250439, 48.0233938 ], [ 0.224853, 48.0232882 ], [ 0.2246222, 48.0231552 ], [ 0.224523, 48.0230976 ], [ 0.2244031, 48.0230346 ], [ 0.224201, 48.0229285 ], [ 0.2239559, 48.0227902 ], [ 0.2232426, 48.0222904 ], [ 0.2225871, 48.0219053 ], [ 0.222484, 48.0218028 ], [ 0.2222484, 48.0215514 ], [ 0.2221445, 48.0214355 ], [ 0.2221091, 48.0214023 ], [ 0.2217707, 48.0210977 ], [ 0.2214492, 48.0208547 ], [ 0.2212053, 48.0206928 ], [ 0.2202666, 48.0201279 ], [ 0.2199885, 48.0199429 ], [ 0.2197228, 48.0197427 ], [ 0.219706, 48.0197331 ], [ 0.2194663, 48.0195965 ], [ 0.2193768, 48.0195505 ], [ 0.2192949, 48.0194915 ], [ 0.218803, 48.019221 ], [ 0.2185632, 48.0193939 ], [ 0.2184422, 48.0194809 ], [ 0.218078, 48.0197293 ], [ 0.218045, 48.0198352 ], [ 0.2178121, 48.0202661 ], [ 0.2177653, 48.0202884 ], [ 0.2176928, 48.0205196 ], [ 0.2177414, 48.0205539 ], [ 0.2176071, 48.0207423 ], [ 0.2173919, 48.0209664 ], [ 0.2173325, 48.0209631 ], [ 0.2171061, 48.0212274 ], [ 0.2174138, 48.0213623 ], [ 0.2174249, 48.0213873 ], [ 0.2173888, 48.0214366 ], [ 0.2171246, 48.0216651 ], [ 0.2165907, 48.0221139 ], [ 0.2168893, 48.022435 ], [ 0.217293, 48.0222748 ], [ 0.2174018, 48.0222482 ], [ 0.2175573, 48.0222352 ], [ 0.2182254, 48.0222857 ], [ 0.2183036, 48.0227114 ], [ 0.2182876, 48.022746 ], [ 0.2181098, 48.0229012 ], [ 0.217876, 48.0230012 ], [ 0.2186541, 48.023635 ], [ 0.2186456, 48.0236901 ], [ 0.2181247, 48.0240549 ], [ 0.2180102, 48.0240603 ], [ 0.2169696, 48.0240586 ], [ 0.2169455, 48.0240379 ], [ 0.2170184, 48.0234659 ], [ 0.2170059, 48.0234105 ], [ 0.2168321, 48.0234301 ], [ 0.2167564, 48.0234657 ], [ 0.2166599, 48.0238344 ], [ 0.2166776, 48.0239174 ], [ 0.2165154, 48.0241844 ], [ 0.2164754, 48.024205 ], [ 0.2150208, 48.0242313 ], [ 0.2146783, 48.0242169 ], [ 0.2145996, 48.0242292 ], [ 0.2143117, 48.0242111 ], [ 0.2138665, 48.0241824 ], [ 0.213393, 48.0241678 ], [ 0.2133757, 48.0240608 ], [ 0.2120153, 48.0240167 ], [ 0.2118557, 48.0239948 ], [ 0.211983, 48.023538 ], [ 0.2119384, 48.0234899 ], [ 0.2119214, 48.0234051 ], [ 0.2115234, 48.0233754 ], [ 0.2109282, 48.0232347 ], [ 0.2106685, 48.023184 ], [ 0.2106478, 48.0231642 ], [ 0.21073, 48.0228558 ], [ 0.2107579, 48.022669 ], [ 0.2107139, 48.0225932 ], [ 0.2104944, 48.0225667 ], [ 0.2104704, 48.0225419 ], [ 0.2103455, 48.0225183 ], [ 0.2100578, 48.0224945 ], [ 0.2100214, 48.0222292 ], [ 0.2099041, 48.0219758 ], [ 0.209906, 48.0218445 ], [ 0.2099331, 48.0217479 ], [ 0.2099501, 48.0217482 ], [ 0.2100676, 48.0214792 ], [ 0.2100001, 48.0212122 ], [ 0.2100124, 48.0211896 ], [ 0.2099598, 48.0208963 ], [ 0.2098103, 48.0206625 ], [ 0.2097365, 48.0206172 ], [ 0.2085179, 48.0208286 ], [ 0.2086121, 48.0210938 ], [ 0.2082434, 48.0211819 ], [ 0.2077834, 48.0213227 ], [ 0.2045367, 48.0216219 ], [ 0.2045174, 48.0216976 ], [ 0.2040114, 48.0216779 ], [ 0.2031387, 48.0215965 ], [ 0.2031076, 48.0215803 ], [ 0.2030805, 48.0209849 ], [ 0.2030671, 48.0203665 ], [ 0.2030957, 48.0203473 ], [ 0.2030724, 48.0201979 ], [ 0.2029999, 48.020178 ], [ 0.2029888, 48.0201054 ], [ 0.2029317, 48.0197332 ], [ 0.2028965, 48.0197204 ], [ 0.202545, 48.019706 ], [ 0.2025822, 48.0193055 ], [ 0.201694, 48.0192663 ], [ 0.2016933, 48.0193109 ], [ 0.2014194, 48.0192924 ], [ 0.201411, 48.0192514 ], [ 0.2009259, 48.0192021 ], [ 0.2008778, 48.0191973 ], [ 0.2008507, 48.0191945 ], [ 0.2005966, 48.0191674 ], [ 0.2006428, 48.0189554 ], [ 0.2006136, 48.0188736 ], [ 0.20062, 48.018843 ], [ 0.2006286, 48.0187955 ], [ 0.200644, 48.0187061 ], [ 0.2007336, 48.0187034 ], [ 0.2008482, 48.0181872 ], [ 0.2005481, 48.0181121 ], [ 0.2004985, 48.0180991 ], [ 0.1999475, 48.0179443 ], [ 0.1998969, 48.0179308 ], [ 0.1997341, 48.0178855 ], [ 0.199695, 48.0178744 ], [ 0.1995545, 48.0178358 ], [ 0.1995056, 48.0179195 ], [ 0.1989308, 48.017756 ], [ 0.1989136, 48.0177589 ], [ 0.1986064, 48.0182032 ], [ 0.1983913, 48.0185718 ], [ 0.1982377, 48.0185137 ], [ 0.1975464, 48.0181863 ], [ 0.1972339, 48.0180402 ], [ 0.1969781, 48.0183617 ], [ 0.1964021, 48.0192796 ], [ 0.196139, 48.0195472 ], [ 0.1960125, 48.0197503 ], [ 0.1958601, 48.0199711 ], [ 0.1955397, 48.0203115 ], [ 0.1950587, 48.0207807 ], [ 0.1948107, 48.0210114 ], [ 0.194394, 48.0213449 ], [ 0.1940014, 48.0215806 ], [ 0.1937378, 48.0217153 ], [ 0.1934335, 48.0218461 ], [ 0.1933685, 48.0218685 ], [ 0.1933509, 48.0218746 ], [ 0.1929496, 48.0220242 ], [ 0.192721, 48.0221311 ], [ 0.1925265, 48.0222455 ], [ 0.192192, 48.022483 ], [ 0.1919342, 48.022677 ], [ 0.1916429, 48.0228961 ], [ 0.1912065, 48.0232645 ], [ 0.1904872, 48.0239234 ], [ 0.1902826, 48.0240902 ], [ 0.1900599, 48.0243359 ], [ 0.1897353, 48.024636 ], [ 0.1892466, 48.0251762 ], [ 0.189031, 48.0254119 ], [ 0.1887754, 48.0257192 ], [ 0.1886441, 48.0259246 ], [ 0.1885473, 48.0261342 ], [ 0.1884265, 48.0263687 ], [ 0.1883466, 48.0265837 ], [ 0.1882618, 48.0268135 ], [ 0.1881962, 48.0270939 ], [ 0.188156, 48.0272695 ], [ 0.1881281, 48.0275321 ], [ 0.1881529, 48.0276079 ], [ 0.1882213, 48.0276744 ], [ 0.1884038, 48.0277888 ], [ 0.1885273, 48.0278771 ], [ 0.1885615, 48.0279606 ], [ 0.1885382, 48.0280613 ], [ 0.1882714, 48.0286098 ], [ 0.1879917, 48.029375 ], [ 0.1876762, 48.0301493 ], [ 0.1874878, 48.0305018 ], [ 0.1873379, 48.0306963 ], [ 0.1872864, 48.0307488 ], [ 0.1871055, 48.0309718 ], [ 0.1868832, 48.0312413 ], [ 0.1862461, 48.0319323 ], [ 0.1859568, 48.0322158 ], [ 0.1847612, 48.0331947 ], [ 0.1846149, 48.0333211 ], [ 0.1838491, 48.0338293 ], [ 0.183576, 48.0340512 ], [ 0.1834075, 48.0342274 ], [ 0.1832901, 48.0343275 ], [ 0.1831553, 48.034427 ], [ 0.1828759, 48.0345502 ], [ 0.1827564, 48.034586 ], [ 0.1825329, 48.0346403 ], [ 0.1824343, 48.0346906 ], [ 0.1823562, 48.0347623 ], [ 0.1822718, 48.034869 ], [ 0.1821195, 48.0350441 ], [ 0.1817825, 48.0354894 ], [ 0.1816259, 48.0356031 ], [ 0.1814685, 48.035837 ], [ 0.1813923, 48.035871 ], [ 0.1812933, 48.0358733 ], [ 0.1809879, 48.0358102 ], [ 0.1805107, 48.0357558 ], [ 0.1802095, 48.0356958 ], [ 0.1800008, 48.0356116 ], [ 0.1798886, 48.0355278 ], [ 0.1798189, 48.0354417 ], [ 0.179053, 48.0349225 ], [ 0.1789848, 48.034879 ], [ 0.178944, 48.0348523 ], [ 0.178888, 48.0348778 ], [ 0.1788064, 48.0348462 ], [ 0.1788124, 48.0348337 ], [ 0.1788086, 48.0348047 ], [ 0.1787935, 48.0347731 ], [ 0.1787649, 48.0347375 ], [ 0.1787011, 48.034658 ], [ 0.1786663, 48.0346227 ], [ 0.1786414, 48.0345839 ], [ 0.1784997, 48.0345614 ], [ 0.1783481, 48.034542 ], [ 0.1775741, 48.0344074 ], [ 0.1773123, 48.0343882 ], [ 0.1771663, 48.0343775 ], [ 0.1758862, 48.0342837 ], [ 0.1754497, 48.0342517 ], [ 0.1748786, 48.0342158 ], [ 0.1749897, 48.0336983 ], [ 0.1733015, 48.0335703 ], [ 0.1734055, 48.0328111 ], [ 0.1733816, 48.0327943 ], [ 0.1720489, 48.0327092 ], [ 0.1720093, 48.032694 ], [ 0.1716792, 48.0323106 ], [ 0.1716837, 48.0322653 ], [ 0.1715368, 48.0320791 ], [ 0.1714772, 48.0319196 ], [ 0.1714338, 48.031345 ], [ 0.1714678, 48.0311682 ], [ 0.1718903, 48.0296672 ], [ 0.1721395, 48.0286335 ], [ 0.1721929, 48.0286201 ], [ 0.1748882, 48.0289036 ], [ 0.1750823, 48.0280961 ], [ 0.1743301, 48.0279581 ], [ 0.1748073, 48.0269919 ], [ 0.1750041, 48.0266286 ], [ 0.1750788, 48.0265899 ], [ 0.1751416, 48.0265382 ], [ 0.1753506, 48.0263764 ], [ 0.1754571, 48.0262642 ], [ 0.1764049, 48.0249735 ], [ 0.1769967, 48.0241692 ], [ 0.1770939, 48.0240359 ], [ 0.1771218, 48.0239706 ], [ 0.1771928, 48.0238023 ], [ 0.1774988, 48.0230863 ], [ 0.1775267, 48.0230208 ], [ 0.1775512, 48.0228484 ], [ 0.1775504, 48.0227111 ], [ 0.177515, 48.0226868 ], [ 0.176646, 48.0231634 ], [ 0.1761627, 48.0233562 ], [ 0.1758987, 48.0234824 ], [ 0.1756969, 48.0236116 ], [ 0.1754768, 48.0236846 ], [ 0.1752188, 48.0237878 ], [ 0.1749862, 48.0239038 ], [ 0.173436, 48.0250245 ], [ 0.1731556, 48.025161 ], [ 0.1729471, 48.0251982 ], [ 0.1726928, 48.0252034 ], [ 0.1720762, 48.0251631 ], [ 0.171841, 48.0251761 ], [ 0.1717126, 48.0251934 ], [ 0.1713401, 48.0252901 ], [ 0.1712208, 48.0253192 ], [ 0.1708512, 48.025449 ], [ 0.1707036, 48.0255087 ], [ 0.1704937, 48.0255961 ], [ 0.1702755, 48.025707 ], [ 0.1696647, 48.0261419 ], [ 0.169479, 48.0259672 ], [ 0.1692628, 48.0261017 ], [ 0.1692123, 48.0261134 ], [ 0.1669663, 48.0256564 ], [ 0.1669145, 48.0256817 ], [ 0.1665873, 48.0260887 ], [ 0.1658102, 48.0258448 ], [ 0.1655161, 48.0262277 ], [ 0.1654962, 48.0262334 ], [ 0.1648537, 48.0260817 ], [ 0.1648263, 48.0261029 ], [ 0.1645872, 48.0265226 ], [ 0.1645505, 48.0265368 ], [ 0.1625483, 48.0261189 ], [ 0.1627671, 48.0254571 ], [ 0.1627754, 48.0252326 ], [ 0.1627416, 48.0251977 ], [ 0.1627352, 48.025016 ], [ 0.1626588, 48.0250324 ], [ 0.160934, 48.0257261 ], [ 0.1604723, 48.0258557 ], [ 0.1602855, 48.0258859 ], [ 0.1598722, 48.0259527 ], [ 0.1594754, 48.0259941 ], [ 0.1588021, 48.0260185 ], [ 0.15871, 48.0260197 ], [ 0.158451, 48.0260465 ], [ 0.1583951, 48.0260581 ], [ 0.1581175, 48.0261127 ], [ 0.1578547, 48.0261908 ], [ 0.1575872, 48.0263054 ], [ 0.1568528, 48.0266923 ], [ 0.1567922, 48.026722 ], [ 0.1562206, 48.0270308 ], [ 0.155838, 48.0266749 ], [ 0.1557749, 48.026641 ], [ 0.1557356, 48.0266418 ], [ 0.1550173, 48.0268831 ], [ 0.1542162, 48.0270978 ], [ 0.1541535, 48.0270928 ], [ 0.1533963, 48.0273014 ], [ 0.1521807, 48.0275712 ], [ 0.1520554, 48.0275768 ], [ 0.1513829, 48.0274809 ], [ 0.1509847, 48.0274426 ], [ 0.1504381, 48.0274435 ], [ 0.1499444, 48.0273874 ], [ 0.1498184, 48.0273386 ], [ 0.1495505, 48.0271954 ], [ 0.1494759, 48.0270684 ], [ 0.1494436, 48.0269166 ], [ 0.1494312, 48.0264659 ], [ 0.1494453, 48.0263474 ], [ 0.1494799, 48.0262613 ], [ 0.1495418, 48.0262011 ], [ 0.1499603, 48.0259089 ], [ 0.1487067, 48.0261589 ], [ 0.1483731, 48.0262867 ], [ 0.1482476, 48.0263171 ], [ 0.147908, 48.0263606 ], [ 0.1476197, 48.0264645 ], [ 0.1473023, 48.0266824 ], [ 0.1468435, 48.0268448 ], [ 0.1456901, 48.0274069 ], [ 0.1454279, 48.0275802 ], [ 0.1433172, 48.0285953 ], [ 0.1429619, 48.0287805 ], [ 0.1425864, 48.0290275 ], [ 0.1423275, 48.0292499 ], [ 0.1419335, 48.0296461 ], [ 0.1415495, 48.0299747 ], [ 0.1414247, 48.0299956 ], [ 0.1408902, 48.0302026 ], [ 0.140773, 48.0302693 ], [ 0.1403198, 48.0306009 ], [ 0.1374385, 48.0214855 ], [ 0.1362825, 48.0176587 ] ] ] } }
]
}
