{
"type": "FeatureCollection",
"name": "leeuwarden_nl",
"crs": { "type": "name", "properties": { "name": "urn:ogc:def:crs:OGC:1.3:CRS84" } },
"features": [
{ "type": "Feature", "properties": { "bbox_west": 5.7297688, "bbox_south": 53.1583048, "bbox_east": 5.9070999, "bbox_north": 53.2410981, "place_id": 159034890, "osm_type": "relation", "osm_id": 162081, "lat": 53.2005936, "lon": 5.7918548, "class": "boundary", "type": "administrative", "place_rank": 16, "importance": 0.60736354015298055, "addresstype": "city", "name": "Leeuwarden", "display_name": "Leeuwarden, Frisia, Netherlands" }, "geometry": { "type": "Polygon", "coordinates": [ [ [ 5.7297688, 53.2352544 ], [ 5.7298168, 53.2352324 ], [ 5.7301398, 53.2350785 ], [ 5.7302269, 53.2350367 ], [ 5.7308274, 53.2347567 ], [ 5.7311983, 53.2345875 ], [ 5.7314755, 53.2344599 ], [ 5.7316591, 53.2343813 ], [ 5.7318118, 53.234316 ], [ 5.7335694, 53.2334932 ], [ 5.7336013, 53.2334868 ], [ 5.7336394, 53.233475 ], [ 5.7336555, 53.2334587 ], [ 5.7336657, 53.2334511 ], [ 5.7336782, 53.2334336 ], [ 5.7336777, 53.2334206 ], [ 5.7337995, 53.233308 ], [ 5.7339349, 53.2333607 ], [ 5.7339696, 53.2333598 ], [ 5.7339963, 53.2333558 ], [ 5.734033, 53.2333386 ], [ 5.7344085, 53.2331299 ], [ 5.7344113, 53.2331283 ], [ 5.7344455, 53.2330905 ], [ 5.734553, 53.2329714 ], [ 5.7345813, 53.23295 ], [ 5.7353285, 53.2325304 ], [ 5.7359362, 53.2321986 ], [ 5.7359715, 53.2321793 ], [ 5.7360883, 53.2321203 ], [ 5.7363116, 53.2319939 ], [ 5.7364417, 53.2319351 ], [ 5.7365829, 53.2318811 ], [ 5.7367343, 53.2318383 ], [ 5.7369497, 53.2317922 ], [ 5.7371685, 53.2317398 ], [ 5.7373327, 53.2316956 ], [ 5.7374577, 53.2316601 ], [ 5.7375329, 53.2316221 ], [ 5.7378734, 53.2314368 ], [ 5.7379765, 53.2313776 ], [ 5.7381476, 53.2312834 ], [ 5.7372878, 53.2312123 ], [ 5.7367213, 53.2311625 ], [ 5.7362606, 53.2311231 ], [ 5.7357358, 53.2310635 ], [ 5.7353739, 53.2310186 ], [ 5.7348189, 53.2309691 ], [ 5.7336251, 53.2308947 ], [ 5.7335027, 53.2307471 ], [ 5.7337219, 53.2306774 ], [ 5.7336921, 53.2306685 ], [ 5.7326667, 53.2303619 ], [ 5.7325518, 53.2303229 ], [ 5.7327444, 53.2293636 ], [ 5.7327447, 53.2293619 ], [ 5.7328689, 53.2286369 ], [ 5.7329256, 53.2286543 ], [ 5.7329352, 53.228602 ], [ 5.7329825, 53.2283449 ], [ 5.7329896, 53.2283078 ], [ 5.7330814, 53.2278293 ], [ 5.7331096, 53.2276825 ], [ 5.733169, 53.2273642 ], [ 5.7332095, 53.2271467 ], [ 5.7332981, 53.2266374 ], [ 5.733395, 53.2261972 ], [ 5.7333734, 53.2261926 ], [ 5.7333758, 53.2261817 ], [ 5.733338, 53.2261723 ], [ 5.7333438, 53.2261479 ], [ 5.7333606, 53.2260775 ], [ 5.7333283, 53.2260712 ], [ 5.733234, 53.2260529 ], [ 5.7333251, 53.2254254 ], [ 5.733393, 53.2248643 ], [ 5.7333946, 53.2248507 ], [ 5.7333932, 53.2247921 ], [ 5.7334386, 53.2242799 ], [ 5.7334518, 53.2241663 ], [ 5.7334586, 53.2241077 ], [ 5.7334717, 53.223995 ], [ 5.7334819, 53.2237368 ], [ 5.7334806, 53.2237007 ], [ 5.7334943, 53.2235158 ], [ 5.7334946, 53.2234638 ], [ 5.733538, 53.2228288 ], [ 5.7335683, 53.2225689 ], [ 5.7335965, 53.2223167 ], [ 5.7335972, 53.2223109 ], [ 5.7336483, 53.221776 ], [ 5.7336765, 53.2214087 ], [ 5.733677, 53.2214031 ], [ 5.7336789, 53.2213874 ], [ 5.7336894, 53.2213046 ], [ 5.7336904, 53.2212965 ], [ 5.7337625, 53.2204684 ], [ 5.733783, 53.2202336 ], [ 5.7337935, 53.2201129 ], [ 5.7338065, 53.2199148 ], [ 5.7338263, 53.2196139 ], [ 5.733844, 53.2194142 ], [ 5.7338814, 53.21903 ], [ 5.7338931, 53.2189121 ], [ 5.7339005, 53.2188588 ], [ 5.7339098, 53.2188045 ], [ 5.7339234, 53.2186027 ], [ 5.7339253, 53.2185251 ], [ 5.733932, 53.2184833 ], [ 5.7339307, 53.2184613 ], [ 5.7339292, 53.2184369 ], [ 5.7339289, 53.2184192 ], [ 5.7339285, 53.2183956 ], [ 5.7339728, 53.2180016 ], [ 5.734017, 53.2175714 ], [ 5.7340323, 53.2173876 ], [ 5.7340393, 53.2173434 ], [ 5.7340384, 53.2172441 ], [ 5.7340384, 53.2172416 ], [ 5.7340532, 53.2171223 ], [ 5.734072, 53.2169186 ], [ 5.7340869, 53.2167041 ], [ 5.7340916, 53.2166365 ], [ 5.7340986, 53.2164925 ], [ 5.7341198, 53.2162797 ], [ 5.7341391, 53.2160814 ], [ 5.7341524, 53.2158926 ], [ 5.7341907, 53.2158928 ], [ 5.7358048, 53.2159043 ], [ 5.7365726, 53.2159097 ], [ 5.7371712, 53.2159139 ], [ 5.7373513, 53.2159152 ], [ 5.7374398, 53.2159158 ], [ 5.7374407, 53.215861 ], [ 5.7374413, 53.2158269 ], [ 5.7379348, 53.2158301 ], [ 5.7387132, 53.2158346 ], [ 5.739731, 53.215842 ], [ 5.7398102, 53.2158426 ], [ 5.7411454, 53.2158517 ], [ 5.7412279, 53.2158523 ], [ 5.7419773, 53.2158581 ], [ 5.7433238, 53.2158647 ], [ 5.7446704, 53.215871 ], [ 5.7456117, 53.2158763 ], [ 5.7455937, 53.2158511 ], [ 5.7455895, 53.2158447 ], [ 5.7455635, 53.2158044 ], [ 5.7453695, 53.2155211 ], [ 5.7454659, 53.2154992 ], [ 5.7460432, 53.2153744 ], [ 5.7464765, 53.2152807 ], [ 5.7471072, 53.2151444 ], [ 5.7470558, 53.2150821 ], [ 5.7468273, 53.2148054 ], [ 5.7467076, 53.2146828 ], [ 5.7466142, 53.2145936 ], [ 5.7464694, 53.2144274 ], [ 5.7464636, 53.2144207 ], [ 5.7462907, 53.214249 ], [ 5.7461176, 53.2141142 ], [ 5.7460199, 53.2140337 ], [ 5.7453492, 53.2135235 ], [ 5.7449232, 53.2131963 ], [ 5.7448755, 53.2131654 ], [ 5.7447948, 53.2131258 ], [ 5.744502, 53.2129221 ], [ 5.7440225, 53.2126123 ], [ 5.7439428, 53.2125535 ], [ 5.7439746, 53.2125451 ], [ 5.7440507, 53.2125171 ], [ 5.7441671, 53.2124758 ], [ 5.7442164, 53.2124538 ], [ 5.7442481, 53.2124387 ], [ 5.7442432, 53.2124332 ], [ 5.7442238, 53.2124014 ], [ 5.7441295, 53.2122783 ], [ 5.7440985, 53.2122415 ], [ 5.744009, 53.2121385 ], [ 5.743983, 53.2121063 ], [ 5.7438677, 53.2119636 ], [ 5.7438425, 53.2118814 ], [ 5.7438414, 53.2118609 ], [ 5.7440044, 53.2118491 ], [ 5.7439501, 53.2115923 ], [ 5.743905, 53.2113791 ], [ 5.7432562, 53.2114276 ], [ 5.7428649, 53.2114535 ], [ 5.7426835, 53.2114653 ], [ 5.7423915, 53.2114903 ], [ 5.7421174, 53.2115144 ], [ 5.7418343, 53.211534 ], [ 5.7416069, 53.2115477 ], [ 5.7414687, 53.2115571 ], [ 5.7412561, 53.2115639 ], [ 5.7410569, 53.2115699 ], [ 5.7408893, 53.2115694 ], [ 5.7407767, 53.2115691 ], [ 5.7407536, 53.211569 ], [ 5.7406242, 53.211564 ], [ 5.740382, 53.2115518 ], [ 5.7398779, 53.2115195 ], [ 5.7393901, 53.2114938 ], [ 5.7388684, 53.211462 ], [ 5.7384694, 53.2114426 ], [ 5.7382959, 53.2114319 ], [ 5.7380937, 53.2114194 ], [ 5.7376378, 53.2113899 ], [ 5.7360587, 53.2112979 ], [ 5.7348, 53.2112247 ], [ 5.7347406, 53.2112197 ], [ 5.7347687, 53.2111494 ], [ 5.7348424, 53.2108406 ], [ 5.7348994, 53.2106251 ], [ 5.7349263, 53.2105232 ], [ 5.7349449, 53.2104291 ], [ 5.7349401, 53.2104174 ], [ 5.7349406, 53.2103906 ], [ 5.7349408, 53.2103794 ], [ 5.7349942, 53.2102307 ], [ 5.7351032, 53.2098415 ], [ 5.73514, 53.209701 ], [ 5.7352148, 53.2094366 ], [ 5.7352323, 53.2093896 ], [ 5.7352344, 53.2093837 ], [ 5.7352529, 53.2093224 ], [ 5.735224, 53.2093156 ], [ 5.735333, 53.2089666 ], [ 5.7353701, 53.2088481 ], [ 5.7353764, 53.2088277 ], [ 5.735392, 53.2087778 ], [ 5.7353969, 53.2087437 ], [ 5.7354984, 53.2083753 ], [ 5.7355206, 53.2082777 ], [ 5.7355444, 53.2082531 ], [ 5.7355394, 53.2082103 ], [ 5.7355644, 53.2080756 ], [ 5.7356326, 53.2078092 ], [ 5.735707, 53.2075254 ], [ 5.735758, 53.2073141 ], [ 5.7357657, 53.2072824 ], [ 5.7357826, 53.2072211 ], [ 5.7358007, 53.2071558 ], [ 5.7358644, 53.2069652 ], [ 5.7359026, 53.2068073 ], [ 5.7359994, 53.2064414 ], [ 5.7360111, 53.2063915 ], [ 5.7360611, 53.2061771 ], [ 5.736075, 53.2061289 ], [ 5.7360771, 53.2061218 ], [ 5.7360793, 53.2061155 ], [ 5.7360902, 53.2060847 ], [ 5.7364972, 53.2061259 ], [ 5.7365142, 53.2061276 ], [ 5.7374003, 53.2062173 ], [ 5.7374136, 53.2061745 ], [ 5.7374375, 53.2061249 ], [ 5.7375425, 53.2059072 ], [ 5.7378488, 53.2052815 ], [ 5.7378697, 53.205229 ], [ 5.7378836, 53.2052034 ], [ 5.7381338, 53.2047076 ], [ 5.7383437, 53.2042751 ], [ 5.7383823, 53.2042032 ], [ 5.7384236, 53.2041263 ], [ 5.7386716, 53.2041762 ], [ 5.7386821, 53.2041603 ], [ 5.738721, 53.2041014 ], [ 5.7390966, 53.2035328 ], [ 5.739504, 53.2028502 ], [ 5.7396838, 53.2028778 ], [ 5.7397047, 53.202857 ], [ 5.739735, 53.2028269 ], [ 5.7406422, 53.2019261 ], [ 5.7409487, 53.2016218 ], [ 5.7410113, 53.2015596 ], [ 5.7410621, 53.2015287 ], [ 5.7410815, 53.2015162 ], [ 5.7410844, 53.2014992 ], [ 5.7410934, 53.2014806 ], [ 5.7411134, 53.2014459 ], [ 5.7413834, 53.2011759 ], [ 5.7416919, 53.2008633 ], [ 5.7418023, 53.2007393 ], [ 5.7418504, 53.2006931 ], [ 5.741953, 53.2005876 ], [ 5.74213, 53.2003792 ], [ 5.7422158, 53.2002925 ], [ 5.7422641, 53.2002438 ], [ 5.7422862, 53.2002214 ], [ 5.7424112, 53.2000951 ], [ 5.7426003, 53.1999041 ], [ 5.7433951, 53.1991014 ], [ 5.7436637, 53.198805 ], [ 5.7438572, 53.198597 ], [ 5.7439908, 53.1984597 ], [ 5.7442851, 53.1981476 ], [ 5.7442938, 53.1981392 ], [ 5.7444681, 53.1979715 ], [ 5.744529, 53.1979033 ], [ 5.744563, 53.1978502 ], [ 5.7445748, 53.1978215 ], [ 5.7445742, 53.1978048 ], [ 5.7445718, 53.1977934 ], [ 5.7445615, 53.1977713 ], [ 5.7445512, 53.1977518 ], [ 5.7444844, 53.1976408 ], [ 5.7444462, 53.1975851 ], [ 5.7444226, 53.1975539 ], [ 5.7443424, 53.197445 ], [ 5.7442573, 53.1973558 ], [ 5.7442343, 53.1973085 ], [ 5.7442321, 53.1973041 ], [ 5.7441603, 53.1971845 ], [ 5.7441157, 53.1971196 ], [ 5.7440975, 53.197093 ], [ 5.7439487, 53.1968773 ], [ 5.7438166, 53.1967012 ], [ 5.7438031, 53.1966732 ], [ 5.7437864, 53.1966366 ], [ 5.7437765, 53.1966227 ], [ 5.7436795, 53.1964866 ], [ 5.7432863, 53.1959347 ], [ 5.7432412, 53.1958727 ], [ 5.7431667, 53.1957473 ], [ 5.743076, 53.1956357 ], [ 5.7429729, 53.1954787 ], [ 5.7429655, 53.1954675 ], [ 5.7428647, 53.1953498 ], [ 5.7425581, 53.1948989 ], [ 5.7424346, 53.1947333 ], [ 5.7421168, 53.1942779 ], [ 5.7420949, 53.1942453 ], [ 5.7419393, 53.1940384 ], [ 5.7418352, 53.1938842 ], [ 5.7416468, 53.1936172 ], [ 5.7414225, 53.1932971 ], [ 5.7413436, 53.193175 ], [ 5.7412545, 53.1930635 ], [ 5.7411152, 53.1928565 ], [ 5.7409657, 53.1926464 ], [ 5.7409575, 53.1926361 ], [ 5.7408974, 53.1925611 ], [ 5.740848, 53.1924817 ], [ 5.7406608, 53.1922328 ], [ 5.740348, 53.1917986 ], [ 5.7402804, 53.1916911 ], [ 5.740054, 53.1913602 ], [ 5.7399899, 53.1912611 ], [ 5.7399868, 53.1912563 ], [ 5.739972, 53.1912335 ], [ 5.740134, 53.1912397 ], [ 5.7408139, 53.1912876 ], [ 5.7414399, 53.1913488 ], [ 5.7419955, 53.1913836 ], [ 5.7420604, 53.1913887 ], [ 5.7423888, 53.1914113 ], [ 5.7423813, 53.1913881 ], [ 5.7423784, 53.1913791 ], [ 5.7423629, 53.191331 ], [ 5.7421355, 53.190935 ], [ 5.7419604, 53.1906162 ], [ 5.7419213, 53.190545 ], [ 5.7418631, 53.1904549 ], [ 5.7418483, 53.190432 ], [ 5.7418397, 53.1904186 ], [ 5.741748, 53.1902767 ], [ 5.7416967, 53.1901972 ], [ 5.7416935, 53.1901923 ], [ 5.7416524, 53.1901287 ], [ 5.7416244, 53.1900774 ], [ 5.7415094, 53.1898868 ], [ 5.7413374, 53.1896035 ], [ 5.7412544, 53.1894887 ], [ 5.7411584, 53.1891519 ], [ 5.7411197, 53.1890137 ], [ 5.7410443, 53.1887729 ], [ 5.7409525, 53.1884279 ], [ 5.7409082, 53.1883051 ], [ 5.7408499, 53.1881436 ], [ 5.7408214, 53.1880646 ], [ 5.7408221, 53.1880078 ], [ 5.7407847, 53.187873 ], [ 5.7407383, 53.1876405 ], [ 5.7407007, 53.18752 ], [ 5.7407004, 53.187447 ], [ 5.7407003, 53.1874353 ], [ 5.74078, 53.187436 ], [ 5.7408358, 53.1874329 ], [ 5.7408779, 53.1874332 ], [ 5.7408802, 53.1873833 ], [ 5.7408708, 53.1873424 ], [ 5.7407994, 53.1870601 ], [ 5.7405438, 53.1861265 ], [ 5.7405243, 53.186058 ], [ 5.740422, 53.1856819 ], [ 5.7404138, 53.1856498 ], [ 5.7403515, 53.185407 ], [ 5.7403425, 53.1853719 ], [ 5.7449733, 53.185415 ], [ 5.7450017, 53.1854153 ], [ 5.745074, 53.1854159 ], [ 5.7449708, 53.1853197 ], [ 5.745038, 53.1853107 ], [ 5.7451523, 53.1852953 ], [ 5.7452346, 53.1852801 ], [ 5.745409, 53.1852313 ], [ 5.744921, 53.184809 ], [ 5.7448564, 53.1847432 ], [ 5.7446752, 53.1845584 ], [ 5.7442721, 53.1841474 ], [ 5.7438302, 53.1836419 ], [ 5.7436713, 53.18346 ], [ 5.743439, 53.1831793 ], [ 5.7434376, 53.1831197 ], [ 5.7433491, 53.1830058 ], [ 5.7426079, 53.1819472 ], [ 5.7425603, 53.1819099 ], [ 5.742559, 53.1819089 ], [ 5.7425506, 53.181896 ], [ 5.7425294, 53.1818609 ], [ 5.7424384, 53.1817374 ], [ 5.7421917, 53.1813116 ], [ 5.742151, 53.1812164 ], [ 5.7420621, 53.181251 ], [ 5.741858, 53.1810614 ], [ 5.741468, 53.1809738 ], [ 5.7414558, 53.1809525 ], [ 5.741423, 53.1808951 ], [ 5.7413832, 53.1808257 ], [ 5.7413711, 53.1808044 ], [ 5.7419645, 53.1808712 ], [ 5.7419875, 53.1808313 ], [ 5.7417331, 53.1803868 ], [ 5.7412597, 53.179547 ], [ 5.741188, 53.1795586 ], [ 5.7411839, 53.1795666 ], [ 5.7409902, 53.1792232 ], [ 5.7410167, 53.1792279 ], [ 5.7410701, 53.1792101 ], [ 5.7410402, 53.1791573 ], [ 5.7403535, 53.1779438 ], [ 5.7403003, 53.1778496 ], [ 5.7397944, 53.1769598 ], [ 5.73967, 53.1767411 ], [ 5.7395248, 53.1764851 ], [ 5.7395163, 53.1764703 ], [ 5.739418, 53.176297 ], [ 5.739508, 53.1762786 ], [ 5.7394235, 53.1761288 ], [ 5.7393338, 53.1761472 ], [ 5.7392786, 53.1760496 ], [ 5.7392646, 53.1760248 ], [ 5.7392643, 53.1760244 ], [ 5.7387014, 53.1750303 ], [ 5.7385396, 53.1747445 ], [ 5.7384985, 53.1746719 ], [ 5.7382419, 53.1742189 ], [ 5.7381894, 53.1742098 ], [ 5.7377689, 53.1734674 ], [ 5.7375448, 53.1730704 ], [ 5.7376922, 53.1730403 ], [ 5.7378908, 53.1729999 ], [ 5.7380263, 53.1729723 ], [ 5.7377861, 53.1725467 ], [ 5.7380795, 53.17259 ], [ 5.7381042, 53.1725937 ], [ 5.7383345, 53.1726277 ], [ 5.7390515, 53.1727431 ], [ 5.7403357, 53.1729405 ], [ 5.7407506, 53.1730019 ], [ 5.7408801, 53.1727647 ], [ 5.7411215, 53.1722645 ], [ 5.7412676, 53.1719747 ], [ 5.7414349, 53.1719995 ], [ 5.7415052, 53.1720162 ], [ 5.7420277, 53.1721016 ], [ 5.7429938, 53.1722653 ], [ 5.7438783, 53.172415 ], [ 5.7447269, 53.1725582 ], [ 5.7447911, 53.1724276 ], [ 5.7449419, 53.1721132 ], [ 5.7449647, 53.1720651 ], [ 5.7449867, 53.1720149 ], [ 5.7450034, 53.1720168 ], [ 5.7451669, 53.172035 ], [ 5.7454197, 53.1720631 ], [ 5.7457503, 53.1721017 ], [ 5.7458172, 53.172111 ], [ 5.7461183, 53.1721459 ], [ 5.7463903, 53.1721736 ], [ 5.7468233, 53.1722261 ], [ 5.7470592, 53.1722581 ], [ 5.7471752, 53.172277 ], [ 5.7471139, 53.1723881 ], [ 5.7469888, 53.1725885 ], [ 5.7468402, 53.172842 ], [ 5.7473511, 53.1729036 ], [ 5.7480407, 53.1729857 ], [ 5.7487048, 53.1730633 ], [ 5.7494658, 53.1731571 ], [ 5.7504574, 53.1732686 ], [ 5.751191, 53.1733525 ], [ 5.7514733, 53.1733884 ], [ 5.7514805, 53.1733788 ], [ 5.751606, 53.1731891 ], [ 5.7517609, 53.1729373 ], [ 5.7518439, 53.1728086 ], [ 5.7518983, 53.1728124 ], [ 5.7520179, 53.172818 ], [ 5.7521337, 53.1728282 ], [ 5.7524092, 53.1728579 ], [ 5.7528561, 53.1729071 ], [ 5.7528603, 53.1729076 ], [ 5.7535656, 53.1729898 ], [ 5.7542368, 53.1730639 ], [ 5.7547936, 53.1731266 ], [ 5.7553395, 53.1731904 ], [ 5.7555293, 53.1732098 ], [ 5.7558338, 53.1732454 ], [ 5.7561611, 53.1732836 ], [ 5.7561982, 53.173288 ], [ 5.7563745, 53.1733073 ], [ 5.7578401, 53.1724232 ], [ 5.7607432, 53.1706727 ], [ 5.7636137, 53.1689735 ], [ 5.7679282, 53.1664327 ], [ 5.7726514, 53.1637037 ], [ 5.7772031, 53.1611034 ], [ 5.7782187, 53.1605509 ], [ 5.7790223, 53.1601702 ], [ 5.7797611, 53.1598504 ], [ 5.7805297, 53.1595555 ], [ 5.781346, 53.1592818 ], [ 5.782151, 53.159058 ], [ 5.7829324, 53.15887 ], [ 5.7837319, 53.1587033 ], [ 5.7845613, 53.1585686 ], [ 5.7854325, 53.1584516 ], [ 5.7862922, 53.1583845 ], [ 5.7870452, 53.1583321 ], [ 5.7877392, 53.1583048 ], [ 5.7884623, 53.1583124 ], [ 5.7890716, 53.158327 ], [ 5.7895068, 53.1583398 ], [ 5.7899699, 53.1583625 ], [ 5.7916225, 53.1585362 ], [ 5.7972472, 53.1596157 ], [ 5.8009315, 53.160363 ], [ 5.8016103, 53.1605007 ], [ 5.8046243, 53.1611151 ], [ 5.8069864, 53.1615409 ], [ 5.8079432, 53.1617162 ], [ 5.8095226, 53.1620268 ], [ 5.811024, 53.1623452 ], [ 5.8123933, 53.1626608 ], [ 5.8137097, 53.1629642 ], [ 5.8158584, 53.1634832 ], [ 5.8172884, 53.1638323 ], [ 5.8191412, 53.1642845 ], [ 5.8220573, 53.1649817 ], [ 5.8239298, 53.1654372 ], [ 5.8271213, 53.1662074 ], [ 5.8291439, 53.1666932 ], [ 5.829647, 53.1668244 ], [ 5.8317023, 53.1673127 ], [ 5.8327787, 53.1675753 ], [ 5.8338435, 53.1678107 ], [ 5.8349937, 53.1680373 ], [ 5.8361482, 53.1682296 ], [ 5.8375825, 53.1684209 ], [ 5.8393728, 53.1685915 ], [ 5.841472, 53.168788 ], [ 5.8414917, 53.1690623 ], [ 5.8414936, 53.1690885 ], [ 5.8415664, 53.1692211 ], [ 5.8416704, 53.1693647 ], [ 5.8418024, 53.1695206 ], [ 5.8420164, 53.1697448 ], [ 5.8421005, 53.1698307 ], [ 5.8421629, 53.1698892 ], [ 5.8421876, 53.1699196 ], [ 5.8419902, 53.1700341 ], [ 5.8419502, 53.1700773 ], [ 5.8418552, 53.1701454 ], [ 5.8417726, 53.1702057 ], [ 5.8416914, 53.1702597 ], [ 5.8415888, 53.1703214 ], [ 5.8414807, 53.1703944 ], [ 5.8413507, 53.1704841 ], [ 5.841205, 53.1705867 ], [ 5.8410534, 53.1706871 ], [ 5.8409662, 53.1707461 ], [ 5.8408729, 53.1707976 ], [ 5.8408428, 53.1708125 ], [ 5.8408248, 53.1708311 ], [ 5.840774, 53.1708729 ], [ 5.8407017, 53.1709227 ], [ 5.840666, 53.1709416 ], [ 5.8406251, 53.170962 ], [ 5.8405576, 53.1710121 ], [ 5.8404287, 53.1711049 ], [ 5.8403574, 53.1711595 ], [ 5.8403333, 53.171178 ], [ 5.8402349, 53.1712495 ], [ 5.8401638, 53.1713064 ], [ 5.8400961, 53.1713679 ], [ 5.8400458, 53.1714251 ], [ 5.8399677, 53.1715271 ], [ 5.8398881, 53.1716413 ], [ 5.8398123, 53.1717643 ], [ 5.839742, 53.1718833 ], [ 5.8396965, 53.1719873 ], [ 5.8396507, 53.1720709 ], [ 5.8396125, 53.172149 ], [ 5.8395637, 53.1722273 ], [ 5.8395004, 53.1723152 ], [ 5.8394317, 53.1724091 ], [ 5.8393786, 53.1724741 ], [ 5.8393239, 53.1725604 ], [ 5.8392877, 53.1726177 ], [ 5.8391988, 53.1727074 ], [ 5.8391248, 53.1727835 ], [ 5.839071, 53.1728558 ], [ 5.838982, 53.172964 ], [ 5.8389316, 53.1730075 ], [ 5.8388903, 53.1730526 ], [ 5.8388215, 53.1731513 ], [ 5.8388213, 53.1731516 ], [ 5.8388189, 53.1731696 ], [ 5.8388164, 53.1731855 ], [ 5.8388027, 53.1731963 ], [ 5.8387744, 53.173212 ], [ 5.8387207, 53.1732809 ], [ 5.8386609, 53.1733642 ], [ 5.8386122, 53.1734371 ], [ 5.838563, 53.1735117 ], [ 5.8385092, 53.1735758 ], [ 5.8384867, 53.1735972 ], [ 5.8384473, 53.1737606 ], [ 5.8384385, 53.1737817 ], [ 5.8384138, 53.1738164 ], [ 5.8383421, 53.1739398 ], [ 5.8382102, 53.1741984 ], [ 5.8381422, 53.1743318 ], [ 5.8381388, 53.1743385 ], [ 5.8380419, 53.1745296 ], [ 5.8379635, 53.1746732 ], [ 5.8378746, 53.1748255 ], [ 5.8378622, 53.1748467 ], [ 5.8377793, 53.174981 ], [ 5.8376953, 53.1750962 ], [ 5.8376163, 53.1752105 ], [ 5.8375335, 53.1753258 ], [ 5.8374512, 53.1754286 ], [ 5.8374142, 53.1754795 ], [ 5.8373976, 53.1754839 ], [ 5.8373643, 53.1755251 ], [ 5.8373376, 53.1755583 ], [ 5.8373372, 53.1755656 ], [ 5.8373307, 53.175583 ], [ 5.8372857, 53.1756571 ], [ 5.8372445, 53.1757282 ], [ 5.8371927, 53.1758095 ], [ 5.8371447, 53.1758913 ], [ 5.8370712, 53.1760078 ], [ 5.8370639, 53.1760206 ], [ 5.8364518, 53.1759842 ], [ 5.8359099, 53.1769815 ], [ 5.8354446, 53.1781668 ], [ 5.8352239, 53.1784725 ], [ 5.834627, 53.1791228 ], [ 5.8337759, 53.1799912 ], [ 5.8336026, 53.1800487 ], [ 5.8333719, 53.1801405 ], [ 5.8331292, 53.1802358 ], [ 5.8328221, 53.1803554 ], [ 5.8326353, 53.1804258 ], [ 5.8325098, 53.1804691 ], [ 5.832299, 53.1805474 ], [ 5.8322181, 53.180983 ], [ 5.8336675, 53.1812084 ], [ 5.8338621, 53.1812389 ], [ 5.8339966, 53.18126 ], [ 5.8340791, 53.1812729 ], [ 5.8343914, 53.1813222 ], [ 5.8352611, 53.1814582 ], [ 5.8353655, 53.1818111 ], [ 5.8354273, 53.1819705 ], [ 5.8363857, 53.1820991 ], [ 5.8378669, 53.1822954 ], [ 5.8379276, 53.1817516 ], [ 5.8379549, 53.1817485 ], [ 5.8379862, 53.1817443 ], [ 5.8380046, 53.1817418 ], [ 5.8380576, 53.1817377 ], [ 5.8381054, 53.1817364 ], [ 5.8381668, 53.1817364 ], [ 5.8381952, 53.1817371 ], [ 5.8382265, 53.1817395 ], [ 5.8382376, 53.1817411 ], [ 5.8382731, 53.1817462 ], [ 5.8383035, 53.1817542 ], [ 5.8383271, 53.1817686 ], [ 5.8383369, 53.1817814 ], [ 5.8383374, 53.1817917 ], [ 5.8383326, 53.181802 ], [ 5.8383218, 53.1818083 ], [ 5.8383076, 53.1818136 ], [ 5.8382768, 53.1818203 ], [ 5.8382731, 53.1818209 ], [ 5.8382622, 53.1818205 ], [ 5.8384765, 53.1820709 ], [ 5.8385557, 53.1821635 ], [ 5.8389832, 53.1820062 ], [ 5.8391814, 53.1817828 ], [ 5.8392372, 53.1817002 ], [ 5.8392533, 53.1817065 ], [ 5.8393451, 53.1817427 ], [ 5.8395932, 53.1817975 ], [ 5.8398219, 53.1818408 ], [ 5.8402134, 53.1819241 ], [ 5.840508, 53.1819857 ], [ 5.8407968, 53.1820497 ], [ 5.8410597, 53.1821095 ], [ 5.841101, 53.1820473 ], [ 5.8420101, 53.1822746 ], [ 5.8420692, 53.1822171 ], [ 5.8423154, 53.181977 ], [ 5.8429969, 53.1820805 ], [ 5.8432957, 53.1820911 ], [ 5.8440566, 53.1821974 ], [ 5.8447262, 53.1822651 ], [ 5.846788, 53.1823617 ], [ 5.8467023, 53.1821403 ], [ 5.846556, 53.1817237 ], [ 5.846408, 53.1812286 ], [ 5.8463022, 53.1807653 ], [ 5.8462559, 53.1805336 ], [ 5.8461807, 53.1800417 ], [ 5.8461603, 53.1797651 ], [ 5.8461218, 53.1787157 ], [ 5.8461197, 53.1785137 ], [ 5.8461425, 53.1780631 ], [ 5.8461804, 53.1777791 ], [ 5.8462504, 53.1773586 ], [ 5.8463012, 53.1770799 ], [ 5.8463367, 53.1769132 ], [ 5.8464317, 53.1765095 ], [ 5.8465919, 53.1759761 ], [ 5.8467653, 53.1754849 ], [ 5.8469085, 53.1751508 ], [ 5.8471276, 53.1746597 ], [ 5.8473927, 53.1741528 ], [ 5.8478419, 53.1734054 ], [ 5.8496342, 53.1698739 ], [ 5.8497264, 53.1698396 ], [ 5.8498028, 53.1698012 ], [ 5.8498143, 53.1697954 ], [ 5.8498878, 53.1697543 ], [ 5.8501019, 53.1697652 ], [ 5.8504639, 53.1697809 ], [ 5.8504658, 53.1697809 ], [ 5.8507764, 53.1697944 ], [ 5.8508414, 53.1697972 ], [ 5.8527323, 53.1699424 ], [ 5.8533866, 53.1699923 ], [ 5.8537335, 53.1700186 ], [ 5.8545019, 53.1700757 ], [ 5.8550116, 53.1701603 ], [ 5.8558182, 53.1702949 ], [ 5.8561513, 53.1703511 ], [ 5.8569442, 53.170486 ], [ 5.8571238, 53.1705169 ], [ 5.857731, 53.1706151 ], [ 5.8582088, 53.1706943 ], [ 5.8587278, 53.1707798 ], [ 5.8588754, 53.1708025 ], [ 5.8589149, 53.170807 ], [ 5.8591219, 53.1708352 ], [ 5.859303, 53.1708497 ], [ 5.8597473, 53.1708887 ], [ 5.8605537, 53.1709586 ], [ 5.8610528, 53.1710003 ], [ 5.8614155, 53.1710322 ], [ 5.8619369, 53.1715187 ], [ 5.8613672, 53.1725981 ], [ 5.8609409, 53.1734138 ], [ 5.860856, 53.173567 ], [ 5.8607725, 53.1737057 ], [ 5.8604346, 53.1742526 ], [ 5.8603535, 53.1744212 ], [ 5.8603006, 53.1745312 ], [ 5.8601958, 53.1747597 ], [ 5.8601265, 53.1749178 ], [ 5.8600917, 53.1750411 ], [ 5.8600497, 53.1751945 ], [ 5.8600468, 53.1752019 ], [ 5.8598828, 53.1754443 ], [ 5.8598141, 53.1755395 ], [ 5.8597075, 53.1757534 ], [ 5.8595818, 53.1760094 ], [ 5.8595328, 53.1760999 ], [ 5.8594634, 53.1762508 ], [ 5.8593705, 53.1764637 ], [ 5.8591017, 53.1769402 ], [ 5.8588953, 53.1773078 ], [ 5.8588078, 53.1774651 ], [ 5.8586694, 53.1777986 ], [ 5.8586014, 53.1779476 ], [ 5.8583868, 53.1783773 ], [ 5.8581951, 53.1787543 ], [ 5.8580479, 53.1790079 ], [ 5.8579283, 53.1792269 ], [ 5.8577812, 53.1795118 ], [ 5.857729, 53.1796317 ], [ 5.8576599, 53.1797901 ], [ 5.8575048, 53.1801827 ], [ 5.8573632, 53.1805697 ], [ 5.8572366, 53.1809511 ], [ 5.8570793, 53.1813792 ], [ 5.8570141, 53.1815569 ], [ 5.8569691, 53.1816793 ], [ 5.8569649, 53.181693 ], [ 5.8569503, 53.1817196 ], [ 5.8568275, 53.181935 ], [ 5.8566099, 53.182329 ], [ 5.8564459, 53.1826678 ], [ 5.8563067, 53.1829645 ], [ 5.8562614, 53.1830513 ], [ 5.856155, 53.1832552 ], [ 5.8559235, 53.1836714 ], [ 5.8556962, 53.1840763 ], [ 5.855462, 53.1845213 ], [ 5.8554021, 53.1846394 ], [ 5.8553724, 53.1847214 ], [ 5.8552108, 53.1851671 ], [ 5.8550399, 53.1856509 ], [ 5.8549793, 53.1858228 ], [ 5.8549322, 53.1859563 ], [ 5.8546573, 53.1866351 ], [ 5.8544215, 53.1872222 ], [ 5.8543883, 53.1873048 ], [ 5.8542107, 53.1877557 ], [ 5.8540868, 53.1881106 ], [ 5.853961, 53.188368 ], [ 5.853777, 53.1887317 ], [ 5.8536727, 53.188937 ], [ 5.8535915, 53.1890927 ], [ 5.8534205, 53.1893715 ], [ 5.8531719, 53.1897641 ], [ 5.8530006, 53.1900283 ], [ 5.8529599, 53.1900911 ], [ 5.8529359, 53.1901174 ], [ 5.8528695, 53.1901992 ], [ 5.8527022, 53.1903858 ], [ 5.8524857, 53.1906076 ], [ 5.8523119, 53.1907761 ], [ 5.8522525, 53.190834 ], [ 5.8521678, 53.1909142 ], [ 5.8520814, 53.190987 ], [ 5.8520053, 53.1910488 ], [ 5.8519173, 53.191118 ], [ 5.851871, 53.191154 ], [ 5.8518157, 53.1911937 ], [ 5.8517634, 53.1912297 ], [ 5.8517259, 53.1912529 ], [ 5.8516764, 53.1912816 ], [ 5.8516419, 53.1913011 ], [ 5.8515893, 53.1913289 ], [ 5.8515443, 53.1913521 ], [ 5.8514932, 53.1913772 ], [ 5.851445, 53.1913986 ], [ 5.8513968, 53.1914182 ], [ 5.8513652, 53.1914312 ], [ 5.8513079, 53.1914537 ], [ 5.8512625, 53.1914659 ], [ 5.8512095, 53.1914764 ], [ 5.8511503, 53.1914824 ], [ 5.8510835, 53.1914876 ], [ 5.8510103, 53.1916172 ], [ 5.8509559, 53.1917135 ], [ 5.850973, 53.1917208 ], [ 5.8510116, 53.1917374 ], [ 5.8511811, 53.1918103 ], [ 5.851414, 53.1919105 ], [ 5.8515135, 53.1918133 ], [ 5.8519765, 53.1918826 ], [ 5.8523314, 53.1919496 ], [ 5.8526924, 53.1920193 ], [ 5.8529388, 53.1920708 ], [ 5.8533491, 53.1921592 ], [ 5.8537726, 53.1922502 ], [ 5.8541167, 53.1923233 ], [ 5.8544901, 53.1924022 ], [ 5.8551879, 53.1925505 ], [ 5.8556485, 53.1926455 ], [ 5.8559691, 53.1927149 ], [ 5.8561665, 53.1927556 ], [ 5.8564572, 53.1928124 ], [ 5.8567462, 53.1928674 ], [ 5.8570919, 53.1929338 ], [ 5.8572716, 53.1929669 ], [ 5.8573305, 53.1929774 ], [ 5.8574406, 53.1929965 ], [ 5.8574734, 53.1930017 ], [ 5.857517, 53.1930068 ], [ 5.8575467, 53.1930098 ], [ 5.857591, 53.1930135 ], [ 5.857668, 53.1930192 ], [ 5.8576787, 53.1930191 ], [ 5.8576985, 53.1930194 ], [ 5.8577212, 53.1930169 ], [ 5.8577539, 53.1930148 ], [ 5.8577706, 53.1930129 ], [ 5.8578545, 53.1929866 ], [ 5.8579437, 53.1929576 ], [ 5.8580336, 53.1929295 ], [ 5.8581288, 53.1928986 ], [ 5.8581613, 53.1928883 ], [ 5.8581742, 53.1928854 ], [ 5.8582294, 53.1928717 ], [ 5.8582817, 53.1928617 ], [ 5.8583371, 53.1928544 ], [ 5.8583804, 53.192849 ], [ 5.8583925, 53.192848 ], [ 5.8585045, 53.1928497 ], [ 5.8586484, 53.1928549 ], [ 5.8587048, 53.1928581 ], [ 5.8587719, 53.1928631 ], [ 5.858807, 53.1928665 ], [ 5.8588681, 53.1928752 ], [ 5.8594611, 53.1929856 ], [ 5.8600374, 53.193097 ], [ 5.8605999, 53.1932076 ], [ 5.8610219, 53.1932911 ], [ 5.861138, 53.1933121 ], [ 5.8613015, 53.19334 ], [ 5.8615293, 53.1933839 ], [ 5.8616822, 53.1934174 ], [ 5.8617664, 53.1934386 ], [ 5.8618705, 53.1934652 ], [ 5.8619011, 53.1934732 ], [ 5.8619226, 53.1934803 ], [ 5.8619425, 53.1934884 ], [ 5.8619625, 53.1934982 ], [ 5.8619872, 53.1935126 ], [ 5.8620304, 53.1935406 ], [ 5.8620567, 53.1935586 ], [ 5.8620614, 53.1935649 ], [ 5.8620697, 53.1935959 ], [ 5.8620752, 53.1936387 ], [ 5.8620757, 53.1936642 ], [ 5.8620744, 53.1936733 ], [ 5.8620702, 53.1936934 ], [ 5.8620659, 53.1937062 ], [ 5.8620616, 53.1937181 ], [ 5.8620514, 53.1937383 ], [ 5.8620264, 53.1937786 ], [ 5.8620057, 53.1938079 ], [ 5.8619879, 53.1938308 ], [ 5.861939, 53.1938923 ], [ 5.8618618, 53.1939831 ], [ 5.8617433, 53.1941345 ], [ 5.8615672, 53.1943692 ], [ 5.8613424, 53.1946772 ], [ 5.8612007, 53.1948834 ], [ 5.8610547, 53.1951052 ], [ 5.8608659, 53.1953883 ], [ 5.860739, 53.1955771 ], [ 5.8606491, 53.1957118 ], [ 5.8606313, 53.1957375 ], [ 5.8606182, 53.1957613 ], [ 5.8606094, 53.1957796 ], [ 5.8605164, 53.1959863 ], [ 5.8603971, 53.1962425 ], [ 5.8602808, 53.1964996 ], [ 5.8601783, 53.196718 ], [ 5.8600993, 53.1969003 ], [ 5.8599809, 53.1971767 ], [ 5.859835, 53.1975144 ], [ 5.8597144, 53.1977644 ], [ 5.8596124, 53.1979622 ], [ 5.8595322, 53.1981125 ], [ 5.859465, 53.1982334 ], [ 5.8594342, 53.1982847 ], [ 5.8594062, 53.198326 ], [ 5.8593663, 53.1983783 ], [ 5.8593278, 53.1984261 ], [ 5.8592907, 53.1984665 ], [ 5.8592565, 53.1985005 ], [ 5.8592281, 53.1985245 ], [ 5.8592041, 53.1985411 ], [ 5.8591771, 53.1985577 ], [ 5.8591458, 53.1985853 ], [ 5.859122, 53.1986093 ], [ 5.8591042, 53.1986322 ], [ 5.8590947, 53.1986478 ], [ 5.8590837, 53.1986661 ], [ 5.8590735, 53.1986863 ], [ 5.8590693, 53.1987 ], [ 5.8590639, 53.1987292 ], [ 5.8590543, 53.1987776 ], [ 5.8590417, 53.1988242 ], [ 5.8590332, 53.1988508 ], [ 5.8590088, 53.1989088 ], [ 5.8589986, 53.1989331 ], [ 5.8589521, 53.1990311 ], [ 5.858904, 53.1991236 ], [ 5.8588426, 53.1992326 ], [ 5.8587324, 53.199405 ], [ 5.8586547, 53.1995324 ], [ 5.8585787, 53.1996582 ], [ 5.8585499, 53.1997113 ], [ 5.8585258, 53.1997575 ], [ 5.858512, 53.1997873 ], [ 5.8584966, 53.1998129 ], [ 5.8584848, 53.1998313 ], [ 5.8584508, 53.1998753 ], [ 5.8584345, 53.1998978 ], [ 5.8584148, 53.1999322 ], [ 5.858389, 53.1999711 ], [ 5.8583291, 53.2000537 ], [ 5.8582793, 53.200138 ], [ 5.8582507, 53.200187 ], [ 5.8581584, 53.2003497 ], [ 5.8580837, 53.2004834 ], [ 5.8580258, 53.2005824 ], [ 5.8579744, 53.2006676 ], [ 5.8579428, 53.2007176 ], [ 5.8579046, 53.2007795 ], [ 5.8578409, 53.2008912 ], [ 5.8577803, 53.2010107 ], [ 5.8577342, 53.2010941 ], [ 5.8576651, 53.2012208 ], [ 5.8575721, 53.2013982 ], [ 5.8574651, 53.2015996 ], [ 5.8575943, 53.2016132 ], [ 5.8575787, 53.2016442 ], [ 5.8575577, 53.2016889 ], [ 5.857539, 53.2017333 ], [ 5.8575189, 53.2017836 ], [ 5.8575089, 53.2018129 ], [ 5.8574955, 53.2018536 ], [ 5.8574854, 53.2018806 ], [ 5.8574804, 53.201892 ], [ 5.8574673, 53.2019172 ], [ 5.857407, 53.2020368 ], [ 5.8573796, 53.2020897 ], [ 5.8572942, 53.2022548 ], [ 5.8572018, 53.2024371 ], [ 5.857151, 53.2025379 ], [ 5.8570965, 53.202646 ], [ 5.8570782, 53.2026808 ], [ 5.8570702, 53.2026964 ], [ 5.8570554, 53.2027229 ], [ 5.857052, 53.2027289 ], [ 5.8570359, 53.2027583 ], [ 5.8570316, 53.2027679 ], [ 5.8570245, 53.2027871 ], [ 5.8570094, 53.2028265 ], [ 5.8570001, 53.2028521 ], [ 5.8569923, 53.2028736 ], [ 5.8569895, 53.2028864 ], [ 5.8569856, 53.2029115 ], [ 5.8569857, 53.202917 ], [ 5.8569873, 53.2029215 ], [ 5.8569921, 53.202932 ], [ 5.8570001, 53.2029451 ], [ 5.8570048, 53.2029524 ], [ 5.8570126, 53.2029601 ], [ 5.8570344, 53.2029795 ], [ 5.8570414, 53.2029849 ], [ 5.8570476, 53.202989 ], [ 5.8570584, 53.2029948 ], [ 5.8570663, 53.2029987 ], [ 5.8570676, 53.2029993 ], [ 5.8570768, 53.2030028 ], [ 5.8570945, 53.20301 ], [ 5.8571214, 53.2030198 ], [ 5.8571368, 53.2030256 ], [ 5.857179, 53.2030389 ], [ 5.857225, 53.2030531 ], [ 5.8572634, 53.2030656 ], [ 5.8573478, 53.2030926 ], [ 5.8573608, 53.2030966 ], [ 5.8573693, 53.2031007 ], [ 5.8573786, 53.2031065 ], [ 5.8573926, 53.2031178 ], [ 5.8574158, 53.2031354 ], [ 5.8574259, 53.2031435 ], [ 5.8574337, 53.2031508 ], [ 5.8574368, 53.2031539 ], [ 5.8574876, 53.2032055 ], [ 5.8575976, 53.2033181 ], [ 5.8576226, 53.2033425 ], [ 5.8576351, 53.2033565 ], [ 5.8576446, 53.2033701 ], [ 5.8576635, 53.203396 ], [ 5.8576659, 53.203401 ], [ 5.8576659, 53.2034028 ], [ 5.8576732, 53.2034228 ], [ 5.8576772, 53.2034301 ], [ 5.8576796, 53.2034337 ], [ 5.8576821, 53.2034442 ], [ 5.8576905, 53.2034671 ], [ 5.8577278, 53.2035607 ], [ 5.8577457, 53.2036294 ], [ 5.8577022, 53.2037562 ], [ 5.8576811, 53.2038167 ], [ 5.8576639, 53.2038666 ], [ 5.8576543, 53.2038943 ], [ 5.8577382, 53.2039548 ], [ 5.8577366, 53.2039789 ], [ 5.8577324, 53.2040445 ], [ 5.8577276, 53.2040633 ], [ 5.8578207, 53.2040757 ], [ 5.8584626, 53.2041611 ], [ 5.8586279, 53.2041797 ], [ 5.8588834, 53.2042092 ], [ 5.8598388, 53.204322 ], [ 5.8614773, 53.2045154 ], [ 5.8617257, 53.2045455 ], [ 5.8617918, 53.2045542 ], [ 5.8618516, 53.2045594 ], [ 5.861881, 53.2045592 ], [ 5.8619063, 53.2045569 ], [ 5.8619246, 53.2045531 ], [ 5.8619422, 53.2045423 ], [ 5.8619561, 53.204526 ], [ 5.8619687, 53.2045148 ], [ 5.8619772, 53.2045088 ], [ 5.861996, 53.204502 ], [ 5.8620059, 53.2045025 ], [ 5.8620999, 53.2045135 ], [ 5.8624207, 53.2045557 ], [ 5.8633303, 53.2046616 ], [ 5.8658631, 53.2049561 ], [ 5.8661198, 53.2049857 ], [ 5.8665022, 53.2050341 ], [ 5.8671205, 53.2051024 ], [ 5.8671691, 53.2051443 ], [ 5.8673248, 53.2051676 ], [ 5.8673993, 53.2051661 ], [ 5.867444, 53.2051716 ], [ 5.8674766, 53.2051756 ], [ 5.8676457, 53.2052035 ], [ 5.867785, 53.2052208 ], [ 5.8680292, 53.2052471 ], [ 5.8683156, 53.2052815 ], [ 5.8685273, 53.2053052 ], [ 5.8688447, 53.2053424 ], [ 5.8700882, 53.2054875 ], [ 5.870353, 53.2055193 ], [ 5.8706313, 53.2055537 ], [ 5.8713123, 53.2056203 ], [ 5.8713998, 53.2056237 ], [ 5.871666, 53.2056579 ], [ 5.871719, 53.2056647 ], [ 5.8717168, 53.2058198 ], [ 5.8719802, 53.2058165 ], [ 5.8732046, 53.2058055 ], [ 5.8732259, 53.2058062 ], [ 5.8732381, 53.2058061 ], [ 5.8732474, 53.2058115 ], [ 5.8733093, 53.2058511 ], [ 5.8733951, 53.2059016 ], [ 5.8734314, 53.205923 ], [ 5.8735444, 53.2059941 ], [ 5.8735551, 53.2059967 ], [ 5.8735674, 53.2059984 ], [ 5.873578, 53.2059974 ], [ 5.8735917, 53.2059955 ], [ 5.8736053, 53.2059908 ], [ 5.8736158, 53.2059852 ], [ 5.8736216, 53.205976 ], [ 5.8736347, 53.2058892 ], [ 5.8736988, 53.205896 ], [ 5.8756297, 53.2061194 ], [ 5.8756764, 53.206122 ], [ 5.8757441, 53.2061257 ], [ 5.8759748, 53.2061537 ], [ 5.8761414, 53.2061732 ], [ 5.8762895, 53.2061892 ], [ 5.8764423, 53.2062079 ], [ 5.8766027, 53.2062265 ], [ 5.8767891, 53.2062485 ], [ 5.8770182, 53.2062748 ], [ 5.8770319, 53.2062766 ], [ 5.8772627, 53.2063045 ], [ 5.8775988, 53.2063434 ], [ 5.8777347, 53.2063577 ], [ 5.8777652, 53.2063601 ], [ 5.8777945, 53.2063626 ], [ 5.8778125, 53.2063634 ], [ 5.8778915, 53.2063732 ], [ 5.8779745, 53.2063838 ], [ 5.8782205, 53.2064135 ], [ 5.8784925, 53.2064466 ], [ 5.8787491, 53.2064772 ], [ 5.8790577, 53.2065136 ], [ 5.879099, 53.2065172 ], [ 5.8794336, 53.2065595 ], [ 5.8796032, 53.2065798 ], [ 5.8797835, 53.2066019 ], [ 5.8799928, 53.2066265 ], [ 5.8803609, 53.2066669 ], [ 5.8807734, 53.2067124 ], [ 5.8811061, 53.2067491 ], [ 5.8814635, 53.206789 ], [ 5.8815209, 53.2067956 ], [ 5.8818655, 53.2068357 ], [ 5.8822226, 53.2068765 ], [ 5.8826037, 53.2069198 ], [ 5.8827157, 53.2069335 ], [ 5.8827777, 53.2069394 ], [ 5.8829248, 53.2069573 ], [ 5.8831393, 53.2069819 ], [ 5.8833149, 53.2070023 ], [ 5.8835449, 53.2070292 ], [ 5.883735, 53.2070508 ], [ 5.883798, 53.2070585 ], [ 5.8838505, 53.2070653 ], [ 5.8838655, 53.2070679 ], [ 5.8839071, 53.2070769 ], [ 5.8839214, 53.2070808 ], [ 5.8840321, 53.2070866 ], [ 5.8840575, 53.2070891 ], [ 5.8841086, 53.2070951 ], [ 5.8841971, 53.2071053 ], [ 5.8843201, 53.2071206 ], [ 5.8844597, 53.2071368 ], [ 5.8845722, 53.2071504 ], [ 5.8846637, 53.2071606 ], [ 5.8847853, 53.207176 ], [ 5.8849008, 53.2071896 ], [ 5.8850434, 53.2072066 ], [ 5.8850658, 53.2072091 ], [ 5.8851225, 53.2072221 ], [ 5.8852277, 53.2072189 ], [ 5.8852682, 53.2072222 ], [ 5.8852997, 53.2072256 ], [ 5.8853552, 53.2072324 ], [ 5.8854618, 53.2072452 ], [ 5.8855713, 53.2072579 ], [ 5.8858204, 53.2072877 ], [ 5.885969, 53.2073065 ], [ 5.886149, 53.2073287 ], [ 5.8862976, 53.2073466 ], [ 5.8863247, 53.2073593 ], [ 5.8865481, 53.2073755 ], [ 5.8866952, 53.2073925 ], [ 5.8868452, 53.2074095 ], [ 5.8869922, 53.2074274 ], [ 5.8870703, 53.2074367 ], [ 5.8872788, 53.2074596 ], [ 5.8873868, 53.2074724 ], [ 5.8874664, 53.2074826 ], [ 5.8875253, 53.2074903 ], [ 5.8876044, 53.2074979 ], [ 5.8878355, 53.2075251 ], [ 5.888023, 53.2075472 ], [ 5.8882961, 53.2075805 ], [ 5.8884704, 53.2076016 ], [ 5.8886353, 53.2076232 ], [ 5.888693, 53.2076335 ], [ 5.8887406, 53.2076387 ], [ 5.888786, 53.2076428 ], [ 5.888798, 53.2076436 ], [ 5.8889626, 53.2076612 ], [ 5.8891334, 53.2076801 ], [ 5.8892579, 53.2076945 ], [ 5.8894455, 53.2077175 ], [ 5.8896495, 53.2077404 ], [ 5.8897276, 53.2077498 ], [ 5.8897606, 53.2077532 ], [ 5.8898375, 53.2077598 ], [ 5.8898784, 53.2077667 ], [ 5.8898934, 53.2077693 ], [ 5.8899435, 53.2077775 ], [ 5.889994, 53.207783 ], [ 5.8902077, 53.2078077 ], [ 5.8903683, 53.2078291 ], [ 5.8905844, 53.2078564 ], [ 5.8908259, 53.2078818 ], [ 5.8909835, 53.2078987 ], [ 5.8910715, 53.2079088 ], [ 5.8911471, 53.2079188 ], [ 5.8912141, 53.2079276 ], [ 5.8914216, 53.2079506 ], [ 5.8917307, 53.2079854 ], [ 5.8920683, 53.2080245 ], [ 5.8923338, 53.2080542 ], [ 5.8925423, 53.2080761 ], [ 5.8926758, 53.2080905 ], [ 5.8927884, 53.2081033 ], [ 5.8928451, 53.2081108 ], [ 5.8929209, 53.2081207 ], [ 5.8930073, 53.2081321 ], [ 5.8931346, 53.2081358 ], [ 5.8933791, 53.2081593 ], [ 5.8934587, 53.2081695 ], [ 5.8936118, 53.2081883 ], [ 5.8937289, 53.2082028 ], [ 5.8938519, 53.2082163 ], [ 5.8939254, 53.2082239 ], [ 5.8940664, 53.2082391 ], [ 5.8941108, 53.2082449 ], [ 5.8941985, 53.2082562 ], [ 5.8945511, 53.2082952 ], [ 5.8946877, 53.2083113 ], [ 5.8948828, 53.2083325 ], [ 5.8952745, 53.2083784 ], [ 5.8953233, 53.2083846 ], [ 5.8954021, 53.2083946 ], [ 5.8954106, 53.2083956 ], [ 5.8957727, 53.2084379 ], [ 5.8960474, 53.208472 ], [ 5.8960933, 53.2084779 ], [ 5.8963185, 53.2085072 ], [ 5.8964602, 53.2085276 ], [ 5.8964751, 53.2085303 ], [ 5.8965289, 53.2085348 ], [ 5.8966533, 53.2085463 ], [ 5.8966803, 53.2085472 ], [ 5.8967177, 53.2085526 ], [ 5.8967881, 53.2085624 ], [ 5.8970726, 53.2086044 ], [ 5.8971879, 53.2086196 ], [ 5.8972838, 53.2086303 ], [ 5.8973377, 53.2086365 ], [ 5.8974185, 53.2086446 ], [ 5.8975353, 53.2086552 ], [ 5.8976521, 53.2086659 ], [ 5.8977261, 53.2086761 ], [ 5.8978304, 53.2086905 ], [ 5.8978393, 53.2086909 ], [ 5.8978917, 53.2086972 ], [ 5.8981508, 53.2087365 ], [ 5.8982676, 53.2087553 ], [ 5.8983934, 53.208774 ], [ 5.8985746, 53.2088035 ], [ 5.8987453, 53.2088304 ], [ 5.8989235, 53.2088581 ], [ 5.8991212, 53.2088912 ], [ 5.899232, 53.2089099 ], [ 5.8993893, 53.2089386 ], [ 5.8995016, 53.2089591 ], [ 5.899536, 53.2089645 ], [ 5.899575, 53.2089708 ], [ 5.8995912, 53.2089737 ], [ 5.8996094, 53.208977 ], [ 5.8996651, 53.2089891 ], [ 5.8997697, 53.2090119 ], [ 5.8998371, 53.2090271 ], [ 5.9000258, 53.2090674 ], [ 5.9001935, 53.209105 ], [ 5.9003568, 53.2091435 ], [ 5.9005425, 53.2091883 ], [ 5.9006384, 53.2092116 ], [ 5.9006908, 53.2092241 ], [ 5.9011297, 53.2093262 ], [ 5.9013888, 53.2093871 ], [ 5.9015596, 53.2094292 ], [ 5.9018516, 53.2095044 ], [ 5.9018943, 53.2095151 ], [ 5.9019086, 53.2095187 ], [ 5.9020228, 53.2095456 ], [ 5.9020502, 53.209552 ], [ 5.9021855, 53.2095838 ], [ 5.9022078, 53.2095891 ], [ 5.9022576, 53.2096002 ], [ 5.9023025, 53.2096154 ], [ 5.9023939, 53.2096441 ], [ 5.9025961, 53.2097041 ], [ 5.9028972, 53.209792 ], [ 5.9032478, 53.2098968 ], [ 5.9032671, 53.2099032 ], [ 5.9032867, 53.2099093 ], [ 5.9033856, 53.209938 ], [ 5.9034949, 53.2099658 ], [ 5.9035998, 53.2099944 ], [ 5.9036043, 53.2099971 ], [ 5.9036879, 53.2100172 ], [ 5.9037934, 53.2100399 ], [ 5.903851, 53.21006 ], [ 5.9038848, 53.2100719 ], [ 5.9039199, 53.2100843 ], [ 5.9039425, 53.2100924 ], [ 5.9039517, 53.2100951 ], [ 5.9040441, 53.2101325 ], [ 5.9040686, 53.2101396 ], [ 5.904102, 53.2101493 ], [ 5.9043158, 53.2102131 ], [ 5.904563, 53.2102857 ], [ 5.9047595, 53.2103432 ], [ 5.9049928, 53.2104114 ], [ 5.9055563, 53.2105805 ], [ 5.9060322, 53.2107222 ], [ 5.9064497, 53.2108397 ], [ 5.9066722, 53.2109016 ], [ 5.9068471, 53.2109493 ], [ 5.9069438, 53.2109758 ], [ 5.906953, 53.2109802 ], [ 5.9069891, 53.2109959 ], [ 5.9070999, 53.2110542 ], [ 5.9070892, 53.211062 ], [ 5.9070802, 53.2110685 ], [ 5.9070754, 53.2110744 ], [ 5.9070728, 53.2110777 ], [ 5.9070447, 53.2111117 ], [ 5.907011, 53.2111622 ], [ 5.9069668, 53.2112228 ], [ 5.9069506, 53.2112466 ], [ 5.9069329, 53.2112669 ], [ 5.9068764, 53.211323 ], [ 5.906866, 53.2113332 ], [ 5.9068331, 53.211359 ], [ 5.9067868, 53.2113932 ], [ 5.9067703, 53.2114052 ], [ 5.9067328, 53.2114283 ], [ 5.9066803, 53.2114598 ], [ 5.9066783, 53.2114608 ], [ 5.9066562, 53.211471 ], [ 5.906617, 53.2114896 ], [ 5.9065884, 53.2115017 ], [ 5.9065627, 53.2115093 ], [ 5.9065369, 53.211515 ], [ 5.9065066, 53.2115216 ], [ 5.9064764, 53.2115328 ], [ 5.9064622, 53.2115394 ], [ 5.9064539, 53.2115433 ], [ 5.9064299, 53.2115558 ], [ 5.9064134, 53.2115642 ], [ 5.9064073, 53.2115683 ], [ 5.9063637, 53.211588 ], [ 5.9063565, 53.2115903 ], [ 5.9063457, 53.2115951 ], [ 5.9063223, 53.2116031 ], [ 5.9063037, 53.2116094 ], [ 5.9062692, 53.2116192 ], [ 5.9062091, 53.2116388 ], [ 5.90599, 53.2117129 ], [ 5.9059022, 53.2117399 ], [ 5.9058999, 53.2117405 ], [ 5.9058504, 53.2117575 ], [ 5.9057858, 53.2117798 ], [ 5.9057558, 53.2117923 ], [ 5.9057468, 53.2117977 ], [ 5.9057288, 53.2118048 ], [ 5.9057107, 53.2118138 ], [ 5.9056897, 53.2118245 ], [ 5.9056506, 53.2118424 ], [ 5.9056175, 53.2118603 ], [ 5.9055995, 53.2118719 ], [ 5.905592, 53.2118773 ], [ 5.9055649, 53.2118952 ], [ 5.9054956, 53.2119436 ], [ 5.905449, 53.2119803 ], [ 5.9054384, 53.2119866 ], [ 5.9054264, 53.2119946 ], [ 5.9054083, 53.2120054 ], [ 5.9053948, 53.2120125 ], [ 5.9053738, 53.212026 ], [ 5.9053497, 53.2120421 ], [ 5.905315, 53.212069 ], [ 5.9052779, 53.2121084 ], [ 5.9052675, 53.2121212 ], [ 5.9052639, 53.2121266 ], [ 5.9052264, 53.2121774 ], [ 5.9051942, 53.2122206 ], [ 5.9051837, 53.2122311 ], [ 5.9051628, 53.2122594 ], [ 5.905046, 53.2124206 ], [ 5.9050265, 53.2124478 ], [ 5.9050112, 53.2124691 ], [ 5.9050036, 53.2124762 ], [ 5.9050036, 53.2124825 ], [ 5.9049959, 53.2125113 ], [ 5.9049958, 53.2125203 ], [ 5.9049972, 53.212532 ], [ 5.9050002, 53.2125419 ], [ 5.9050075, 53.2125572 ], [ 5.9050445, 53.2126274 ], [ 5.9050814, 53.2126975 ], [ 5.9050933, 53.2127216 ], [ 5.905136, 53.2128082 ], [ 5.9051626, 53.2128595 ], [ 5.9051685, 53.2128712 ], [ 5.9051714, 53.212882 ], [ 5.9051728, 53.2128982 ], [ 5.9051742, 53.2129108 ], [ 5.9051756, 53.2129297 ], [ 5.9051769, 53.2129548 ], [ 5.9051751, 53.2129908 ], [ 5.9051735, 53.2130079 ], [ 5.9051687, 53.2130386 ], [ 5.9051672, 53.2130483 ], [ 5.905161, 53.2130806 ], [ 5.9051549, 53.2130986 ], [ 5.905132, 53.213157 ], [ 5.9051213, 53.2131902 ], [ 5.9051152, 53.2132064 ], [ 5.9051, 53.2132423 ], [ 5.9050956, 53.2132514 ], [ 5.9050817, 53.21328 ], [ 5.9050574, 53.2133302 ], [ 5.9050392, 53.2133671 ], [ 5.905033, 53.2133859 ], [ 5.9049871, 53.2135206 ], [ 5.9049826, 53.2135278 ], [ 5.9049643, 53.213579 ], [ 5.9049551, 53.213605 ], [ 5.9049535, 53.2136104 ], [ 5.904955, 53.213614 ], [ 5.9049565, 53.2136149 ], [ 5.9049591, 53.2136196 ], [ 5.9049595, 53.2136203 ], [ 5.9049594, 53.2136239 ], [ 5.9049609, 53.2136293 ], [ 5.9049471, 53.2136814 ], [ 5.9049439, 53.2136958 ], [ 5.9049423, 53.2137137 ], [ 5.904939, 53.213765 ], [ 5.9049389, 53.2137731 ], [ 5.9049433, 53.2137848 ], [ 5.9049505, 53.2138198 ], [ 5.9049593, 53.2138576 ], [ 5.9049665, 53.2138936 ], [ 5.9049723, 53.2139179 ], [ 5.9049826, 53.2139484 ], [ 5.9049928, 53.2139772 ], [ 5.9050046, 53.2140006 ], [ 5.9050209, 53.2140312 ], [ 5.9050237, 53.2140368 ], [ 5.9050342, 53.2140573 ], [ 5.905055, 53.214087 ], [ 5.9050712, 53.2141122 ], [ 5.9050831, 53.2141275 ], [ 5.905089, 53.2141392 ], [ 5.9050994, 53.2141572 ], [ 5.9051082, 53.214177 ], [ 5.9051245, 53.2141986 ], [ 5.9051542, 53.2142383 ], [ 5.9051869, 53.2142734 ], [ 5.9052033, 53.2142878 ], [ 5.9052152, 53.2142977 ], [ 5.9052572, 53.214332 ], [ 5.905266, 53.214339 ], [ 5.9053624, 53.2144158 ], [ 5.9053626, 53.2144158 ], [ 5.9053698, 53.2144217 ], [ 5.9054086, 53.2144726 ], [ 5.905422, 53.2144888 ], [ 5.9054363, 53.2145025 ], [ 5.9054744, 53.214538 ], [ 5.9055324, 53.2145936 ], [ 5.9055784, 53.2146356 ], [ 5.9055969, 53.2146516 ], [ 5.9056241, 53.2146868 ], [ 5.9056345, 53.2146999 ], [ 5.9057965, 53.2148616 ], [ 5.9058588, 53.214934 ], [ 5.9058966, 53.2149744 ], [ 5.9059321, 53.2150139 ], [ 5.905811, 53.2150071 ], [ 5.9056238, 53.2150032 ], [ 5.9055744, 53.2149994 ], [ 5.9053585, 53.214987 ], [ 5.9052583, 53.2149817 ], [ 5.9042642, 53.2149403 ], [ 5.9041498, 53.2149361 ], [ 5.9028339, 53.2148792 ], [ 5.902664, 53.2148718 ], [ 5.9019724, 53.2148415 ], [ 5.9015046, 53.2148159 ], [ 5.9014637, 53.2148147 ], [ 5.9014581, 53.2148134 ], [ 5.9013918, 53.2148052 ], [ 5.9007938, 53.2147813 ], [ 5.9000369, 53.2147476 ], [ 5.8978638, 53.2146581 ], [ 5.8978706, 53.2148045 ], [ 5.8978856, 53.2150881 ], [ 5.8978961, 53.2152972 ], [ 5.8978998, 53.2153882 ], [ 5.8977174, 53.2153943 ], [ 5.8965941, 53.2154264 ], [ 5.8964378, 53.2154315 ], [ 5.8961753, 53.2154413 ], [ 5.8955724, 53.2154603 ], [ 5.8951309, 53.2154758 ], [ 5.8948536, 53.2154838 ], [ 5.8941593, 53.2155069 ], [ 5.8939465, 53.215514 ], [ 5.8938213, 53.2155183 ], [ 5.89387, 53.2158116 ], [ 5.8939844, 53.2164994 ], [ 5.8940191, 53.2167018 ], [ 5.8941314, 53.2173492 ], [ 5.8941875, 53.2176443 ], [ 5.8942092, 53.2177732 ], [ 5.8941165, 53.2177776 ], [ 5.8933622, 53.2177804 ], [ 5.8921971, 53.2177824 ], [ 5.8919704, 53.2177841 ], [ 5.891716, 53.2177865 ], [ 5.891408, 53.2177775 ], [ 5.8911091, 53.2177703 ], [ 5.8909312, 53.2177637 ], [ 5.8908996, 53.2177636 ], [ 5.8908173, 53.2177616 ], [ 5.8907578, 53.2177586 ], [ 5.8906867, 53.2177553 ], [ 5.8906159, 53.2177526 ], [ 5.8903215, 53.2177399 ], [ 5.8900942, 53.2177312 ], [ 5.8898547, 53.2177207 ], [ 5.889635, 53.2177091 ], [ 5.8893756, 53.2176961 ], [ 5.8891711, 53.2176844 ], [ 5.889072, 53.2176826 ], [ 5.8890162, 53.2176819 ], [ 5.8890154, 53.2178219 ], [ 5.8890144, 53.2179004 ], [ 5.8890024, 53.2182757 ], [ 5.8889971, 53.2185811 ], [ 5.888995, 53.2186689 ], [ 5.888998, 53.2187216 ], [ 5.8889939, 53.2187957 ], [ 5.8889887, 53.2189679 ], [ 5.8889863, 53.2190653 ], [ 5.8889848, 53.219129 ], [ 5.8889841, 53.2191577 ], [ 5.8889818, 53.2192164 ], [ 5.8889997, 53.2192538 ], [ 5.8890015, 53.2192979 ], [ 5.8890007, 53.2193399 ], [ 5.8889997, 53.2193638 ], [ 5.8889945, 53.2194447 ], [ 5.8889878, 53.2195388 ], [ 5.8889848, 53.2196267 ], [ 5.8889801, 53.2197068 ], [ 5.8889784, 53.2197698 ], [ 5.8889779, 53.2198038 ], [ 5.8889787, 53.2198236 ], [ 5.8889757, 53.2198604 ], [ 5.8889739, 53.2198917 ], [ 5.888971, 53.219934 ], [ 5.8889621, 53.2200277 ], [ 5.8889517, 53.2201561 ], [ 5.888941, 53.2202936 ], [ 5.8889441, 53.2203223 ], [ 5.888944, 53.2203725 ], [ 5.8889404, 53.22047 ], [ 5.8889326, 53.2206115 ], [ 5.8889296, 53.2207308 ], [ 5.8889293, 53.220741 ], [ 5.8889294, 53.220754 ], [ 5.8889296, 53.2207747 ], [ 5.8889381, 53.2208586 ], [ 5.888948, 53.2209397 ], [ 5.8889527, 53.2209524 ], [ 5.8889649, 53.2209533 ], [ 5.8889937, 53.2209556 ], [ 5.889207, 53.2209548 ], [ 5.8893464, 53.2209548 ], [ 5.8900922, 53.2209551 ], [ 5.8906149, 53.220954 ], [ 5.891199, 53.2209528 ], [ 5.8916521, 53.2209518 ], [ 5.8916932, 53.2209506 ], [ 5.8919994, 53.2209501 ], [ 5.8921575, 53.2209489 ], [ 5.8923219, 53.2209487 ], [ 5.892584, 53.2209497 ], [ 5.8926751, 53.2209514 ], [ 5.8931359, 53.2209524 ], [ 5.8936686, 53.2209543 ], [ 5.8940909, 53.220956 ], [ 5.8941168, 53.2209579 ], [ 5.894126, 53.22096 ], [ 5.8941948, 53.2209619 ], [ 5.8943253, 53.2209624 ], [ 5.894361, 53.2209595 ], [ 5.8944756, 53.22096 ], [ 5.8947973, 53.2209613 ], [ 5.8951042, 53.2209652 ], [ 5.8954, 53.2209672 ], [ 5.8958721, 53.2209625 ], [ 5.8962403, 53.2209634 ], [ 5.8962429, 53.2209634 ], [ 5.8965603, 53.2209651 ], [ 5.8970014, 53.2209683 ], [ 5.8971165, 53.2209701 ], [ 5.8971084, 53.2210266 ], [ 5.8971044, 53.2210867 ], [ 5.8970952, 53.2211706 ], [ 5.8970885, 53.2212345 ], [ 5.8970832, 53.2212849 ], [ 5.8970737, 53.2213151 ], [ 5.8970626, 53.2213402 ], [ 5.8970473, 53.2213596 ], [ 5.8970149, 53.2213929 ], [ 5.8969713, 53.2214367 ], [ 5.8969525, 53.2214563 ], [ 5.8969285, 53.2214814 ], [ 5.8969112, 53.2215062 ], [ 5.896878, 53.221557 ], [ 5.8968572, 53.2215854 ], [ 5.8968068, 53.2216577 ], [ 5.8967929, 53.2216878 ], [ 5.8967859, 53.2217143 ], [ 5.8967876, 53.2217403 ], [ 5.8967931, 53.2217632 ], [ 5.8968111, 53.2217975 ], [ 5.8968467, 53.2218321 ], [ 5.896869, 53.2218612 ], [ 5.8969136, 53.2219939 ], [ 5.8969414, 53.2220657 ], [ 5.8969793, 53.2221363 ], [ 5.8969967, 53.2221812 ], [ 5.897003, 53.2222133 ], [ 5.8970047, 53.2222394 ], [ 5.8970012, 53.2222899 ], [ 5.8970007, 53.2222978 ], [ 5.8969984, 53.2223302 ], [ 5.896964, 53.2226689 ], [ 5.8969397, 53.2228593 ], [ 5.896939, 53.2228645 ], [ 5.8969266, 53.2229622 ], [ 5.8967083, 53.2229614 ], [ 5.8962639, 53.2229666 ], [ 5.8960028, 53.2229528 ], [ 5.8957589, 53.2229408 ], [ 5.8955852, 53.2229341 ], [ 5.8954739, 53.2229299 ], [ 5.8954083, 53.2229247 ], [ 5.8952315, 53.2229125 ], [ 5.8950562, 53.2228985 ], [ 5.8949815, 53.2228933 ], [ 5.8946553, 53.2228779 ], [ 5.8946202, 53.2228771 ], [ 5.8938537, 53.2228514 ], [ 5.8937943, 53.2228498 ], [ 5.8937668, 53.2228499 ], [ 5.893418, 53.2228565 ], [ 5.8933297, 53.2228586 ], [ 5.8932825, 53.2228588 ], [ 5.8929854, 53.2228561 ], [ 5.8925496, 53.2228511 ], [ 5.8921733, 53.2228497 ], [ 5.8917406, 53.2228474 ], [ 5.8911525, 53.2228448 ], [ 5.8908417, 53.2228431 ], [ 5.890537, 53.2228395 ], [ 5.8900569, 53.2228256 ], [ 5.8893393, 53.2228179 ], [ 5.8891702, 53.2228157 ], [ 5.8892007, 53.2229725 ], [ 5.8892042, 53.222991 ], [ 5.8892243, 53.2231001 ], [ 5.8892379, 53.2231673 ], [ 5.8892568, 53.2232687 ], [ 5.8893111, 53.2235567 ], [ 5.8893273, 53.2236509 ], [ 5.8893523, 53.2237978 ], [ 5.8893647, 53.2238645 ], [ 5.8893725, 53.2239091 ], [ 5.88937, 53.2239457 ], [ 5.8893768, 53.2240022 ], [ 5.8893912, 53.2241408 ], [ 5.8894048, 53.2242153 ], [ 5.8894259, 53.2243649 ], [ 5.8894322, 53.2244145 ], [ 5.8894349, 53.2244482 ], [ 5.8894424, 53.2244729 ], [ 5.8894544, 53.2244894 ], [ 5.8894681, 53.2244995 ], [ 5.889472, 53.224501 ], [ 5.8894909, 53.2245086 ], [ 5.8895198, 53.2245196 ], [ 5.8895532, 53.2245243 ], [ 5.8896237, 53.224527 ], [ 5.8897056, 53.2245265 ], [ 5.8897614, 53.2245236 ], [ 5.889913, 53.2245258 ], [ 5.8899965, 53.2245308 ], [ 5.8899985, 53.2246667 ], [ 5.8899952, 53.2247333 ], [ 5.8900004, 53.2247791 ], [ 5.890001, 53.2248267 ], [ 5.8900006, 53.2248761 ], [ 5.8899993, 53.2249284 ], [ 5.889992, 53.2249987 ], [ 5.8899148, 53.2249984 ], [ 5.889477, 53.2250038 ], [ 5.8891753, 53.2250067 ], [ 5.888959, 53.2250089 ], [ 5.8888371, 53.2250105 ], [ 5.8886497, 53.22501 ], [ 5.8884944, 53.225006 ], [ 5.8882171, 53.2249962 ], [ 5.8881273, 53.2249905 ], [ 5.8880329, 53.2249839 ], [ 5.8879138, 53.2249757 ], [ 5.8878547, 53.2249716 ], [ 5.8877618, 53.2249759 ], [ 5.887652, 53.224982 ], [ 5.8875606, 53.2249845 ], [ 5.887166, 53.2249881 ], [ 5.8869466, 53.2249894 ], [ 5.8868218, 53.2249896 ], [ 5.8866922, 53.2249897 ], [ 5.8863418, 53.2249879 ], [ 5.8860371, 53.2249872 ], [ 5.8857933, 53.2249893 ], [ 5.8855602, 53.2249915 ], [ 5.8853393, 53.2249955 ], [ 5.8852144, 53.2249934 ], [ 5.8850971, 53.2249903 ], [ 5.8850218, 53.224988 ], [ 5.8850011, 53.2249874 ], [ 5.8849067, 53.2249871 ], [ 5.8848183, 53.224986 ], [ 5.8846125, 53.2249884 ], [ 5.8845014, 53.2249898 ], [ 5.8840124, 53.2249922 ], [ 5.8836361, 53.2249922 ], [ 5.8832034, 53.2249911 ], [ 5.8831577, 53.2249919 ], [ 5.8831196, 53.2249909 ], [ 5.8830846, 53.224989 ], [ 5.8830389, 53.2249834 ], [ 5.8829963, 53.2249806 ], [ 5.8829924, 53.2249804 ], [ 5.8829597, 53.2249786 ], [ 5.8828196, 53.2249746 ], [ 5.8825728, 53.2249722 ], [ 5.8823519, 53.2249726 ], [ 5.8820624, 53.2249728 ], [ 5.8816206, 53.2249753 ], [ 5.8813144, 53.2249748 ], [ 5.881205, 53.224974 ], [ 5.8809764, 53.2249734 ], [ 5.8806565, 53.2249757 ], [ 5.8806566, 53.2250177 ], [ 5.8806585, 53.2250897 ], [ 5.8806573, 53.2251545 ], [ 5.8806576, 53.2252384 ], [ 5.8806592, 53.2252485 ], [ 5.8806596, 53.2253439 ], [ 5.8806602, 53.225461 ], [ 5.8806626, 53.2256736 ], [ 5.8806632, 53.2257908 ], [ 5.8806635, 53.2258633 ], [ 5.8806658, 53.2260457 ], [ 5.8806714, 53.2266049 ], [ 5.880671, 53.2266294 ], [ 5.8806569, 53.22676 ], [ 5.8805829, 53.2272509 ], [ 5.8805614, 53.22739 ], [ 5.8805044, 53.2277601 ], [ 5.8804674, 53.2280009 ], [ 5.8804578, 53.2280677 ], [ 5.8804551, 53.2280863 ], [ 5.8804549, 53.2280876 ], [ 5.8804447, 53.2281497 ], [ 5.8804097, 53.2283878 ], [ 5.8803879, 53.2285401 ], [ 5.8803397, 53.2288567 ], [ 5.8802771, 53.2292763 ], [ 5.8802567, 53.2294046 ], [ 5.8802515, 53.2294376 ], [ 5.880223, 53.2296175 ], [ 5.8801748, 53.229935 ], [ 5.8801399, 53.2301785 ], [ 5.8801034, 53.2304066 ], [ 5.880093, 53.2304504 ], [ 5.880093, 53.2304508 ], [ 5.8800889, 53.2305206 ], [ 5.8800751, 53.2307295 ], [ 5.8800641, 53.2309046 ], [ 5.8800476, 53.2311773 ], [ 5.8800313, 53.2314546 ], [ 5.8800255, 53.2315444 ], [ 5.8800078, 53.2318203 ], [ 5.8799812, 53.2321578 ], [ 5.8799658, 53.2323694 ], [ 5.8799435, 53.2325812 ], [ 5.8799273, 53.2328409 ], [ 5.8799082, 53.233033 ], [ 5.8798977, 53.2331762 ], [ 5.8798855, 53.233341 ], [ 5.8798321, 53.2333396 ], [ 5.8797009, 53.2333361 ], [ 5.8795973, 53.233333 ], [ 5.879527, 53.233331 ], [ 5.8794508, 53.2333289 ], [ 5.8793242, 53.2333262 ], [ 5.8792296, 53.2333233 ], [ 5.8791808, 53.2333218 ], [ 5.8791137, 53.2333187 ], [ 5.8791, 53.2333179 ], [ 5.8790539, 53.2333155 ], [ 5.8787246, 53.2332988 ], [ 5.8786086, 53.2332906 ], [ 5.8784589, 53.2332799 ], [ 5.8783582, 53.2332734 ], [ 5.8782422, 53.2332642 ], [ 5.8781659, 53.2332602 ], [ 5.8781155, 53.2332561 ], [ 5.878088, 53.2332545 ], [ 5.8780727, 53.2332518 ], [ 5.8780589, 53.2332492 ], [ 5.8780405, 53.2332457 ], [ 5.8780286, 53.2332425 ], [ 5.8780206, 53.2332404 ], [ 5.8779961, 53.2332324 ], [ 5.8779761, 53.233227 ], [ 5.8779532, 53.2332245 ], [ 5.8779257, 53.2332201 ], [ 5.8779073, 53.2332166 ], [ 5.8778905, 53.233214 ], [ 5.8778798, 53.2332112 ], [ 5.8778736, 53.2332096 ], [ 5.8778583, 53.2332024 ], [ 5.8778291, 53.2331935 ], [ 5.8778091, 53.2331873 ], [ 5.8777876, 53.2331801 ], [ 5.8777338, 53.2331596 ], [ 5.8777123, 53.2331497 ], [ 5.8776831, 53.233139 ], [ 5.8776431, 53.2331256 ], [ 5.8776001, 53.2331095 ], [ 5.8775602, 53.2330961 ], [ 5.8775432, 53.2330902 ], [ 5.8775372, 53.2330881 ], [ 5.8775157, 53.2330819 ], [ 5.8775098, 53.2330805 ], [ 5.877485, 53.2330748 ], [ 5.8774544, 53.2330668 ], [ 5.8774222, 53.2330607 ], [ 5.8773854, 53.2330491 ], [ 5.8773501, 53.2330384 ], [ 5.8773255, 53.2330304 ], [ 5.8773055, 53.2330215 ], [ 5.8772855, 53.2330134 ], [ 5.8772609, 53.2330035 ], [ 5.8772471, 53.2329964 ], [ 5.877227, 53.2329847 ], [ 5.8772129, 53.2329715 ], [ 5.8771929, 53.2329575 ], [ 5.8771738, 53.2329412 ], [ 5.8771538, 53.2329141 ], [ 5.877135, 53.2328887 ], [ 5.87712, 53.232871 ], [ 5.8770131, 53.2327441 ], [ 5.876991, 53.2327174 ], [ 5.8769594, 53.2326847 ], [ 5.8769551, 53.2326803 ], [ 5.8769115, 53.2326359 ], [ 5.8768897, 53.2326135 ], [ 5.8768705, 53.2325938 ], [ 5.8767887, 53.2325624 ], [ 5.8766297, 53.2324934 ], [ 5.8766129, 53.2324844 ], [ 5.8765854, 53.2324735 ], [ 5.8765318, 53.2324562 ], [ 5.8764891, 53.2324427 ], [ 5.8764509, 53.2324273 ], [ 5.8764478, 53.2324258 ], [ 5.8764012, 53.2324033 ], [ 5.8763637, 53.2323847 ], [ 5.8762304, 53.2323103 ], [ 5.8760422, 53.2323012 ], [ 5.8755622, 53.2322793 ], [ 5.8749538, 53.2322459 ], [ 5.8745211, 53.2322305 ], [ 5.87339, 53.2321963 ], [ 5.8725532, 53.2321559 ], [ 5.8725523, 53.2321218 ], [ 5.8722603, 53.2320919 ], [ 5.8718402, 53.2320503 ], [ 5.8715838, 53.232043 ], [ 5.8708838, 53.2320216 ], [ 5.8706336, 53.2320147 ], [ 5.8704252, 53.2320117 ], [ 5.870111, 53.2319894 ], [ 5.869893, 53.2319631 ], [ 5.8697894, 53.231945 ], [ 5.8697188, 53.2319272 ], [ 5.8692583, 53.2317591 ], [ 5.8691747, 53.231711 ], [ 5.8689639, 53.2316244 ], [ 5.8687994, 53.2315791 ], [ 5.8686914, 53.2315245 ], [ 5.8686144, 53.2315427 ], [ 5.8686214, 53.2314604 ], [ 5.8682804, 53.2314475 ], [ 5.8677931, 53.2314309 ], [ 5.8672246, 53.2314182 ], [ 5.8664125, 53.2313956 ], [ 5.8657506, 53.2313773 ], [ 5.8644161, 53.2313362 ], [ 5.8637269, 53.2313193 ], [ 5.8619336, 53.2312616 ], [ 5.8602557, 53.2312121 ], [ 5.8602823, 53.2305976 ], [ 5.8596068, 53.2305761 ], [ 5.8595517, 53.2305751 ], [ 5.8590345, 53.2305701 ], [ 5.8578574, 53.2305628 ], [ 5.8569731, 53.2305497 ], [ 5.8560449, 53.2305366 ], [ 5.8560136, 53.2305367 ], [ 5.8546548, 53.2305112 ], [ 5.8535689, 53.2304926 ], [ 5.8528133, 53.2304771 ], [ 5.8527277, 53.2304809 ], [ 5.8527114, 53.2304822 ], [ 5.8527098, 53.2304794 ], [ 5.8525538, 53.2304767 ], [ 5.8523386, 53.2300483 ], [ 5.8522456, 53.2298584 ], [ 5.852124, 53.2296717 ], [ 5.8520396, 53.2295566 ], [ 5.8519662, 53.2295007 ], [ 5.8518694, 53.2294434 ], [ 5.8518405, 53.2294226 ], [ 5.8517385, 53.2293492 ], [ 5.8516457, 53.2292759 ], [ 5.8515878, 53.2291894 ], [ 5.8515371, 53.2289556 ], [ 5.8515131, 53.2287611 ], [ 5.8514755, 53.2285272 ], [ 5.8513475, 53.2280852 ], [ 5.8512599, 53.2278229 ], [ 5.8511624, 53.2275097 ], [ 5.8510732, 53.2270207 ], [ 5.8510057, 53.2267296 ], [ 5.8509384, 53.2264595 ], [ 5.8508484, 53.2262457 ], [ 5.8507164, 53.2259373 ], [ 5.8506822, 53.2258126 ], [ 5.8506767, 53.2257271 ], [ 5.8506985, 53.2256194 ], [ 5.8507345, 53.2255448 ], [ 5.8508887, 53.2253456 ], [ 5.8509384, 53.2252682 ], [ 5.8509516, 53.2252102 ], [ 5.8509368, 53.2251192 ], [ 5.8509037, 53.2250366 ], [ 5.8507319, 53.2248718 ], [ 5.8505697, 53.2247185 ], [ 5.8505251, 53.2246658 ], [ 5.850504, 53.2246165 ], [ 5.8504887, 53.2245548 ], [ 5.8504876, 53.2244561 ], [ 5.8505225, 53.2240099 ], [ 5.8505759, 53.2237113 ], [ 5.850636, 53.2234467 ], [ 5.8507797, 53.2227626 ], [ 5.8508081, 53.2226693 ], [ 5.8508631, 53.2225479 ], [ 5.8509242, 53.2224545 ], [ 5.8510004, 53.2224057 ], [ 5.8507967, 53.2223113 ], [ 5.8507108, 53.2222869 ], [ 5.8506312, 53.2222624 ], [ 5.8505517, 53.2222513 ], [ 5.8504533, 53.2222421 ], [ 5.8502977, 53.2222351 ], [ 5.8499264, 53.2222385 ], [ 5.8488932, 53.2222562 ], [ 5.8478027, 53.2222486 ], [ 5.846677, 53.2222368 ], [ 5.8457949, 53.2222372 ], [ 5.8448431, 53.2222394 ], [ 5.8446738, 53.2222428 ], [ 5.8434719, 53.2222445 ], [ 5.8432236, 53.2222455 ], [ 5.8422405, 53.2222451 ], [ 5.8402932, 53.2222397 ], [ 5.8395849, 53.2222369 ], [ 5.8383708, 53.2222396 ], [ 5.8380275, 53.2222445 ], [ 5.8370806, 53.222267 ], [ 5.8362132, 53.2222761 ], [ 5.8360351, 53.2222847 ], [ 5.8342411, 53.2223511 ], [ 5.8332418, 53.2223811 ], [ 5.8327092, 53.2223978 ], [ 5.8322883, 53.2224116 ], [ 5.8320574, 53.2224104 ], [ 5.831453, 53.2224147 ], [ 5.8303392, 53.2224025 ], [ 5.8300267, 53.2223996 ], [ 5.8295719, 53.2224196 ], [ 5.8293712, 53.222439 ], [ 5.8290187, 53.222454 ], [ 5.828776, 53.2224577 ], [ 5.8284646, 53.2224726 ], [ 5.8282953, 53.2224924 ], [ 5.8280208, 53.2225237 ], [ 5.8277831, 53.2225727 ], [ 5.827614, 53.2226049 ], [ 5.8274653, 53.2226219 ], [ 5.8273463, 53.2226293 ], [ 5.8269476, 53.2226115 ], [ 5.8263436, 53.2225973 ], [ 5.8260609, 53.2201046 ], [ 5.8243232, 53.2201378 ], [ 5.8240333, 53.2197446 ], [ 5.8239763, 53.2196136 ], [ 5.8239571, 53.2194836 ], [ 5.8239593, 53.2189729 ], [ 5.8239576, 53.2188041 ], [ 5.823926, 53.2185999 ], [ 5.8239032, 53.2183246 ], [ 5.823442, 53.2183263 ], [ 5.823232, 53.2180207 ], [ 5.823102, 53.2173902 ], [ 5.8228249, 53.2173904 ], [ 5.8221455, 53.2173683 ], [ 5.8215402, 53.217375 ], [ 5.82088, 53.2174113 ], [ 5.8205494, 53.2173812 ], [ 5.8194508, 53.2173391 ], [ 5.8177681, 53.2173584 ], [ 5.8164494, 53.217394 ], [ 5.8151379, 53.2174207 ], [ 5.8149871, 53.2174058 ], [ 5.8147412, 53.217427 ], [ 5.8144547, 53.2174518 ], [ 5.814043, 53.2174334 ], [ 5.8134621, 53.2173927 ], [ 5.8129269, 53.2173946 ], [ 5.8123401, 53.2174413 ], [ 5.8119213, 53.2174979 ], [ 5.811865, 53.2175055 ], [ 5.8113523, 53.217534 ], [ 5.8105676, 53.2174855 ], [ 5.8097682, 53.2174571 ], [ 5.8093667, 53.217454 ], [ 5.8090766, 53.2174305 ], [ 5.8089482, 53.2174187 ], [ 5.8087732, 53.2173836 ], [ 5.8086409, 53.2173484 ], [ 5.8085367, 53.2173387 ], [ 5.8084625, 53.2173468 ], [ 5.8083976, 53.2173693 ], [ 5.8083533, 53.2174007 ], [ 5.8082445, 53.2174881 ], [ 5.8080105, 53.2175531 ], [ 5.8081692, 53.2176869 ], [ 5.8084534, 53.2179789 ], [ 5.8086412, 53.2182162 ], [ 5.808755, 53.2184599 ], [ 5.8087875, 53.2186561 ], [ 5.8088001, 53.2188953 ], [ 5.8087627, 53.2192573 ], [ 5.8087179, 53.2196994 ], [ 5.8086755, 53.2200029 ], [ 5.8085685, 53.2203183 ], [ 5.8084759, 53.2204645 ], [ 5.8081656, 53.220874 ], [ 5.8078895, 53.2212147 ], [ 5.8078723, 53.2212359 ], [ 5.8076276, 53.2215108 ], [ 5.8075248, 53.2216995 ], [ 5.807557, 53.2220762 ], [ 5.8076642, 53.2224893 ], [ 5.8079626, 53.2235063 ], [ 5.8080823, 53.2240015 ], [ 5.8079562, 53.2240245 ], [ 5.8078464, 53.2240569 ], [ 5.8078318, 53.2240612 ], [ 5.8078135, 53.2240666 ], [ 5.8076774, 53.2240998 ], [ 5.8074874, 53.2241188 ], [ 5.8072609, 53.2241204 ], [ 5.8068653, 53.2241332 ], [ 5.8067636, 53.2241453 ], [ 5.8067142, 53.2241512 ], [ 5.8066978, 53.2241531 ], [ 5.8066381, 53.2241605 ], [ 5.8064362, 53.2241856 ], [ 5.8060986, 53.2242217 ], [ 5.8057017, 53.2242508 ], [ 5.8052019, 53.224299 ], [ 5.8043929, 53.2243808 ], [ 5.8039599, 53.2244399 ], [ 5.8034598, 53.2245157 ], [ 5.8031407, 53.2245704 ], [ 5.8029484, 53.2245908 ], [ 5.8028512, 53.2245911 ], [ 5.8026961, 53.2245854 ], [ 5.8024979, 53.2245798 ], [ 5.8022868, 53.2245844 ], [ 5.8019573, 53.2246163 ], [ 5.8013303, 53.2246893 ], [ 5.8008969, 53.2247341 ], [ 5.8006894, 53.2247555 ], [ 5.8001909, 53.2248155 ], [ 5.7994239, 53.2249229 ], [ 5.7992417, 53.2249488 ], [ 5.7989072, 53.2249964 ], [ 5.7983538, 53.2250769 ], [ 5.7979036, 53.225126 ], [ 5.7972739, 53.2251698 ], [ 5.7964748, 53.2252347 ], [ 5.7962527, 53.2252607 ], [ 5.7958895, 53.225289 ], [ 5.795678, 53.225306 ], [ 5.7954837, 53.2253364 ], [ 5.7953956, 53.225354 ], [ 5.795249, 53.2253832 ], [ 5.7950056, 53.2254255 ], [ 5.7949286, 53.225424 ], [ 5.7948216, 53.225409 ], [ 5.7945904, 53.2253818 ], [ 5.794357, 53.225342 ], [ 5.7941624, 53.2253355 ], [ 5.7939252, 53.2253516 ], [ 5.7935965, 53.2254023 ], [ 5.7931972, 53.2254641 ], [ 5.7927829, 53.2255106 ], [ 5.7924689, 53.2255423 ], [ 5.7922786, 53.2255412 ], [ 5.7920027, 53.2255322 ], [ 5.7916649, 53.2255324 ], [ 5.7913936, 53.2255487 ], [ 5.7911459, 53.2255874 ], [ 5.7910752, 53.2256004 ], [ 5.7908919, 53.2256342 ], [ 5.790316, 53.2257077 ], [ 5.7896199, 53.2257813 ], [ 5.7885398, 53.2258761 ], [ 5.7882571, 53.2259064 ], [ 5.7880951, 53.2259148 ], [ 5.787953, 53.2259271 ], [ 5.7872041, 53.225992 ], [ 5.7867659, 53.2260511 ], [ 5.7863274, 53.2261094 ], [ 5.7857507, 53.22617 ], [ 5.7850102, 53.2262271 ], [ 5.7842285, 53.226329 ], [ 5.7837981, 53.2263683 ], [ 5.7837487, 53.2263717 ], [ 5.7824287, 53.2265025 ], [ 5.7819089, 53.2265366 ], [ 5.7813272, 53.2265716 ], [ 5.7810649, 53.22658 ], [ 5.7807697, 53.226598 ], [ 5.7807198, 53.2266007 ], [ 5.7806368, 53.2266044 ], [ 5.7805804, 53.226606 ], [ 5.7805262, 53.2266046 ], [ 5.7804574, 53.226595 ], [ 5.7803923, 53.2265851 ], [ 5.7803244, 53.2265694 ], [ 5.780141, 53.2265003 ], [ 5.7800687, 53.2264767 ], [ 5.7800175, 53.2264659 ], [ 5.779953, 53.226453 ], [ 5.779878, 53.226442 ], [ 5.7798661, 53.2264417 ], [ 5.7797455, 53.2264386 ], [ 5.7797264, 53.2263758 ], [ 5.7797266, 53.2263739 ], [ 5.7797366, 53.2262853 ], [ 5.7797621, 53.226173 ], [ 5.7797727, 53.2261018 ], [ 5.7796433, 53.226095 ], [ 5.7794325, 53.226084 ], [ 5.779201, 53.2261172 ], [ 5.7788171, 53.2261444 ], [ 5.7786058, 53.2261593 ], [ 5.7778695, 53.2261997 ], [ 5.7772905, 53.226231 ], [ 5.7769351, 53.2262532 ], [ 5.7767858, 53.2262618 ], [ 5.7765148, 53.2262774 ], [ 5.776443, 53.2262816 ], [ 5.7759212, 53.2263123 ], [ 5.7754745, 53.2263423 ], [ 5.7753703, 53.2263505 ], [ 5.775167, 53.2263665 ], [ 5.7751042, 53.2263714 ], [ 5.7751177, 53.2264902 ], [ 5.7752351, 53.2264826 ], [ 5.7752332, 53.2266612 ], [ 5.7752317, 53.2268013 ], [ 5.7752306, 53.2269109 ], [ 5.7752272, 53.2270803 ], [ 5.7752368, 53.2272623 ], [ 5.7752373, 53.2273625 ], [ 5.7752357, 53.2280299 ], [ 5.7752376, 53.2282577 ], [ 5.7752422, 53.2283399 ], [ 5.7752461, 53.2284727 ], [ 5.7752555, 53.2287954 ], [ 5.7752759, 53.2288897 ], [ 5.7752904, 53.2289448 ], [ 5.7753436, 53.2292116 ], [ 5.775365, 53.229297 ], [ 5.7753976, 53.2294114 ], [ 5.7754651, 53.2295951 ], [ 5.7755087, 53.2297223 ], [ 5.7755784, 53.2298775 ], [ 5.7757824, 53.2302465 ], [ 5.7749591, 53.2302955 ], [ 5.7746626, 53.2303138 ], [ 5.7742303, 53.2303407 ], [ 5.7742143, 53.2304074 ], [ 5.7741119, 53.230835 ], [ 5.7740955, 53.2309035 ], [ 5.7740707, 53.2309907 ], [ 5.773943, 53.2313867 ], [ 5.7737453, 53.231908 ], [ 5.7736292, 53.2321887 ], [ 5.773529, 53.2324739 ], [ 5.7734926, 53.2325685 ], [ 5.7732215, 53.2333244 ], [ 5.7729913, 53.2339664 ], [ 5.7729198, 53.2339707 ], [ 5.7722277, 53.2340117 ], [ 5.7705666, 53.2341088 ], [ 5.7696436, 53.2341619 ], [ 5.7695955, 53.2341647 ], [ 5.7694915, 53.2341707 ], [ 5.7694456, 53.2341733 ], [ 5.7688512, 53.2342075 ], [ 5.7676584, 53.2342773 ], [ 5.7665009, 53.2343451 ], [ 5.7660265, 53.2343774 ], [ 5.7658376, 53.2343825 ], [ 5.7657926, 53.2343837 ], [ 5.7657203, 53.2343856 ], [ 5.7653793, 53.2344036 ], [ 5.7642813, 53.2344691 ], [ 5.763057, 53.2345404 ], [ 5.7627682, 53.2355959 ], [ 5.7624981, 53.2365833 ], [ 5.7624819, 53.2366425 ], [ 5.7624652, 53.2367035 ], [ 5.7624139, 53.2368975 ], [ 5.7622633, 53.2374302 ], [ 5.7622436, 53.2374996 ], [ 5.7620458, 53.2381925 ], [ 5.7620435, 53.2382604 ], [ 5.7618626, 53.2382674 ], [ 5.7617162, 53.2387678 ], [ 5.7616516, 53.2390021 ], [ 5.7616293, 53.2390833 ], [ 5.7615622, 53.2393041 ], [ 5.761462, 53.2396843 ], [ 5.7614364, 53.2398106 ], [ 5.7614429, 53.239863 ], [ 5.7605603, 53.239913 ], [ 5.76035, 53.2399189 ], [ 5.7598397, 53.2399433 ], [ 5.7578675, 53.2400334 ], [ 5.7567918, 53.2400875 ], [ 5.7559015, 53.2401225 ], [ 5.7539548, 53.240214 ], [ 5.7538492, 53.2402115 ], [ 5.7537456, 53.2402162 ], [ 5.7536938, 53.2402211 ], [ 5.7514606, 53.2404325 ], [ 5.7511581, 53.2404613 ], [ 5.7510264, 53.2404532 ], [ 5.7501701, 53.2404679 ], [ 5.7494263, 53.2404944 ], [ 5.7477688, 53.2405346 ], [ 5.7477306, 53.2405408 ], [ 5.7472905, 53.2405519 ], [ 5.7466868, 53.2405695 ], [ 5.746274, 53.2405816 ], [ 5.7447121, 53.2406227 ], [ 5.7446426, 53.2406096 ], [ 5.7446264, 53.2406035 ], [ 5.744573, 53.2406377 ], [ 5.7441052, 53.240964 ], [ 5.7439159, 53.2410981 ], [ 5.7437869, 53.2410359 ], [ 5.7428068, 53.2405493 ], [ 5.7417622, 53.240031 ], [ 5.7417303, 53.2400134 ], [ 5.7414287, 53.2402256 ], [ 5.7413205, 53.2401695 ], [ 5.7412733, 53.240145 ], [ 5.7400209, 53.2394995 ], [ 5.7389038, 53.2389242 ], [ 5.7388076, 53.2388745 ], [ 5.738712, 53.238825 ], [ 5.738197, 53.238559 ], [ 5.7371383, 53.2380135 ], [ 5.7362976, 53.2375779 ], [ 5.7361904, 53.2375242 ], [ 5.7360119, 53.2374349 ], [ 5.7357672, 53.2375794 ], [ 5.7353524, 53.2378212 ], [ 5.7349538, 53.2380541 ], [ 5.7347293, 53.2379295 ], [ 5.7345603, 53.2378384 ], [ 5.7340775, 53.2375843 ], [ 5.7339022, 53.2374881 ], [ 5.7337692, 53.2374137 ], [ 5.7336997, 53.2373765 ], [ 5.7337276, 53.2373606 ], [ 5.7324265, 53.2366486 ], [ 5.732358, 53.236685 ], [ 5.7323413, 53.2366759 ], [ 5.7316949, 53.2363199 ], [ 5.7316745, 53.2363085 ], [ 5.7310356, 53.2359538 ], [ 5.7303752, 53.2355884 ], [ 5.7299744, 53.2353677 ], [ 5.7299003, 53.2353268 ], [ 5.7297688, 53.2352544 ] ], [ [ 5.7926105, 53.1820223 ], [ 5.7926266, 53.182078 ], [ 5.7926348, 53.1821093 ], [ 5.7927099, 53.182396 ], [ 5.7933192, 53.1823415 ], [ 5.7933253, 53.182352 ], [ 5.7933483, 53.1824389 ], [ 5.7933799, 53.1825451 ], [ 5.7933833, 53.1825571 ], [ 5.7933862, 53.18257 ], [ 5.7933902, 53.1825745 ], [ 5.793403, 53.1825806 ], [ 5.7934142, 53.1825819 ], [ 5.7934498, 53.1825791 ], [ 5.7938078, 53.1825459 ], [ 5.7938057, 53.1825397 ], [ 5.7945106, 53.1824782 ], [ 5.7946374, 53.1830888 ], [ 5.7946376, 53.1830887 ], [ 5.7946578, 53.1833451 ], [ 5.7956622, 53.1833152 ], [ 5.7968124, 53.1832937 ], [ 5.8001007, 53.183232 ], [ 5.8024005, 53.1831968 ], [ 5.8051881, 53.1832008 ], [ 5.8075689, 53.1833286 ], [ 5.8081754, 53.1833826 ], [ 5.8089357, 53.1834503 ], [ 5.8103517, 53.1836239 ], [ 5.8112651, 53.1837622 ], [ 5.8132358, 53.1840815 ], [ 5.8165886, 53.1846 ], [ 5.8168393, 53.184191 ], [ 5.8174461, 53.1840291 ], [ 5.8174122, 53.1839989 ], [ 5.8173679, 53.1839336 ], [ 5.8173526, 53.1838551 ], [ 5.8173863, 53.1836076 ], [ 5.817507, 53.1828766 ], [ 5.8175348, 53.1827591 ], [ 5.8176334, 53.182185 ], [ 5.817644, 53.1821104 ], [ 5.8176238, 53.1819866 ], [ 5.8175473, 53.1819947 ], [ 5.8175416, 53.1819606 ], [ 5.817541, 53.1818997 ], [ 5.8175522, 53.1818316 ], [ 5.8176257, 53.1817166 ], [ 5.8178076, 53.1814131 ], [ 5.8178298, 53.1813641 ], [ 5.8178293, 53.1813094 ], [ 5.8178167, 53.1812648 ], [ 5.8177821, 53.1811907 ], [ 5.8178491, 53.1811654 ], [ 5.8179122, 53.1811068 ], [ 5.8180657, 53.1808616 ], [ 5.8182287, 53.1805898 ], [ 5.8182554, 53.1805115 ], [ 5.8182618, 53.1804458 ], [ 5.8182154, 53.1803178 ], [ 5.8182095, 53.1802976 ], [ 5.8181542, 53.1801089 ], [ 5.817998, 53.1801291 ], [ 5.8178808, 53.1801966 ], [ 5.8178265, 53.1802056 ], [ 5.8176502, 53.1802089 ], [ 5.817495, 53.1802013 ], [ 5.8173842, 53.1801901 ], [ 5.8161634, 53.1800242 ], [ 5.8155039, 53.1799375 ], [ 5.8153427, 53.1799163 ], [ 5.8150981, 53.1798824 ], [ 5.8146969, 53.1798269 ], [ 5.8152009, 53.1796127 ], [ 5.815198, 53.1796102 ], [ 5.8148225, 53.179283 ], [ 5.8148221, 53.1792826 ], [ 5.8143715, 53.1794452 ], [ 5.8139425, 53.1795999 ], [ 5.813729, 53.1796769 ], [ 5.8135193, 53.1789104 ], [ 5.8135096, 53.178875 ], [ 5.8135046, 53.1788567 ], [ 5.8134988, 53.1788423 ], [ 5.8132757, 53.1782848 ], [ 5.8132749, 53.1782784 ], [ 5.8132685, 53.178225 ], [ 5.813268, 53.1782152 ], [ 5.8132664, 53.1781808 ], [ 5.8132663, 53.1781772 ], [ 5.8132658, 53.1781665 ], [ 5.8130389, 53.1773792 ], [ 5.8130972, 53.1773637 ], [ 5.8132116, 53.1773524 ], [ 5.8134683, 53.1773275 ], [ 5.8135961, 53.1773192 ], [ 5.8136917, 53.1773152 ], [ 5.8138248, 53.1773119 ], [ 5.8139096, 53.1773079 ], [ 5.8139965, 53.1772982 ], [ 5.8140344, 53.1772937 ], [ 5.8141021, 53.1772805 ], [ 5.8141509, 53.1772759 ], [ 5.8141183, 53.1770146 ], [ 5.8140754, 53.1768979 ], [ 5.8140492, 53.1768452 ], [ 5.8136991, 53.1766423 ], [ 5.813503, 53.1767435 ], [ 5.8133466, 53.1768341 ], [ 5.813197, 53.1769281 ], [ 5.813009, 53.1770458 ], [ 5.8128689, 53.177132 ], [ 5.8127706, 53.1771922 ], [ 5.8126992, 53.1772355 ], [ 5.8126474, 53.177275 ], [ 5.8126442, 53.1772774 ], [ 5.8124134, 53.1769005 ], [ 5.8120551, 53.1769739 ], [ 5.8113474, 53.1771188 ], [ 5.8111055, 53.176694 ], [ 5.8110911, 53.1766601 ], [ 5.8110846, 53.1766513 ], [ 5.811096, 53.1766426 ], [ 5.8111464, 53.1766013 ], [ 5.811199, 53.1765595 ], [ 5.8112532, 53.1765134 ], [ 5.8112941, 53.1764794 ], [ 5.8113422, 53.1764374 ], [ 5.8115167, 53.1762883 ], [ 5.8115249, 53.1762812 ], [ 5.8115382, 53.1762687 ], [ 5.811549, 53.1762575 ], [ 5.8115583, 53.1762472 ], [ 5.8115678, 53.1762358 ], [ 5.8115764, 53.1762244 ], [ 5.8115823, 53.1762159 ], [ 5.8115891, 53.1762052 ], [ 5.8115952, 53.1761948 ], [ 5.8116004, 53.1761849 ], [ 5.8116054, 53.1761743 ], [ 5.8116086, 53.1761667 ], [ 5.8116127, 53.1761559 ], [ 5.8116165, 53.1761443 ], [ 5.8116183, 53.1761377 ], [ 5.8116217, 53.176123 ], [ 5.8116232, 53.1761143 ], [ 5.8116245, 53.1761045 ], [ 5.8116251, 53.176097 ], [ 5.8116257, 53.1760841 ], [ 5.8116255, 53.176072 ], [ 5.8116249, 53.1760629 ], [ 5.811624, 53.1760546 ], [ 5.8116226, 53.176045 ], [ 5.8116201, 53.1760325 ], [ 5.8116166, 53.1760192 ], [ 5.8116127, 53.176007 ], [ 5.8116087, 53.1759965 ], [ 5.8116001, 53.1759774 ], [ 5.8115922, 53.175963 ], [ 5.8115862, 53.1759531 ], [ 5.8115796, 53.1759432 ], [ 5.811571, 53.1759314 ], [ 5.8115658, 53.1759247 ], [ 5.8115581, 53.1759156 ], [ 5.8115516, 53.1759082 ], [ 5.8115426, 53.1758987 ], [ 5.8115323, 53.1758886 ], [ 5.8115232, 53.1758803 ], [ 5.8115131, 53.1758716 ], [ 5.8115038, 53.1758641 ], [ 5.8114952, 53.1758574 ], [ 5.8114901, 53.1758536 ], [ 5.8114777, 53.1758449 ], [ 5.8114722, 53.1758411 ], [ 5.8114632, 53.1758353 ], [ 5.8114543, 53.1758297 ], [ 5.8114444, 53.1758238 ], [ 5.8114357, 53.1758188 ], [ 5.8114253, 53.1758131 ], [ 5.8114107, 53.1758055 ], [ 5.8114006, 53.1758005 ], [ 5.8113916, 53.1757963 ], [ 5.8113738, 53.1757884 ], [ 5.8113587, 53.1757822 ], [ 5.8113407, 53.1757753 ], [ 5.8113257, 53.1757699 ], [ 5.8113121, 53.1757654 ], [ 5.8112896, 53.1757584 ], [ 5.8112724, 53.1757536 ], [ 5.8112607, 53.1757505 ], [ 5.8112412, 53.1757458 ], [ 5.811221, 53.1757414 ], [ 5.8111988, 53.1757371 ], [ 5.8111828, 53.1757344 ], [ 5.8111704, 53.1757325 ], [ 5.811151, 53.1757298 ], [ 5.8111353, 53.175728 ], [ 5.811121, 53.1757265 ], [ 5.8111033, 53.175725 ], [ 5.8110832, 53.1757236 ], [ 5.8102855, 53.1756787 ], [ 5.8102776, 53.1756779 ], [ 5.8097227, 53.175647 ], [ 5.8096174, 53.1756411 ], [ 5.8094753, 53.175633 ], [ 5.8094091, 53.1756294 ], [ 5.8091966, 53.1756169 ], [ 5.8090059, 53.1756049 ], [ 5.8087794, 53.1755898 ], [ 5.808715, 53.1755827 ], [ 5.8085138, 53.1755537 ], [ 5.8084045, 53.1755409 ], [ 5.808018, 53.1754956 ], [ 5.8076724, 53.1754543 ], [ 5.8075408, 53.1754411 ], [ 5.8073594, 53.1754369 ], [ 5.8071795, 53.175453 ], [ 5.8069934, 53.1755011 ], [ 5.8068317, 53.1755731 ], [ 5.8067218, 53.1756531 ], [ 5.8066311, 53.1757453 ], [ 5.8065859, 53.175835 ], [ 5.8065673, 53.1758826 ], [ 5.8065438, 53.175952 ], [ 5.8065168, 53.1760453 ], [ 5.8064717, 53.1761968 ], [ 5.806441, 53.1763131 ], [ 5.8064122, 53.1764008 ], [ 5.8063955, 53.1764192 ], [ 5.8063333, 53.1764875 ], [ 5.8062986, 53.1767504 ], [ 5.8060769, 53.1767621 ], [ 5.8060468, 53.1766948 ], [ 5.8060406, 53.1766763 ], [ 5.8060269, 53.1766398 ], [ 5.805969, 53.1765064 ], [ 5.8059321, 53.1764106 ], [ 5.8059307, 53.1764064 ], [ 5.8059259, 53.1763926 ], [ 5.8059223, 53.1763837 ], [ 5.8059169, 53.1763716 ], [ 5.8059122, 53.1763623 ], [ 5.8059082, 53.1763543 ], [ 5.8059029, 53.1763449 ], [ 5.8058931, 53.1763291 ], [ 5.8058834, 53.1763149 ], [ 5.8058714, 53.176299 ], [ 5.8058543, 53.176279 ], [ 5.8058385, 53.1762623 ], [ 5.80583, 53.1762543 ], [ 5.8058198, 53.1762445 ], [ 5.8058024, 53.1762295 ], [ 5.8057785, 53.1762107 ], [ 5.8057572, 53.1761956 ], [ 5.8057396, 53.1761841 ], [ 5.8057154, 53.1761694 ], [ 5.8056883, 53.1761545 ], [ 5.805657, 53.176139 ], [ 5.8056244, 53.1761246 ], [ 5.8055915, 53.1761115 ], [ 5.8055542, 53.1760985 ], [ 5.8055241, 53.1760892 ], [ 5.805491, 53.1760801 ], [ 5.8054553, 53.1760716 ], [ 5.8054199, 53.1760644 ], [ 5.8053817, 53.1760579 ], [ 5.8053511, 53.1760536 ], [ 5.8053234, 53.1760504 ], [ 5.8052946, 53.1760478 ], [ 5.8052684, 53.176046 ], [ 5.8052433, 53.1760448 ], [ 5.8052189, 53.1760442 ], [ 5.8051943, 53.176044 ], [ 5.8051724, 53.1760442 ], [ 5.8048202, 53.1760512 ], [ 5.8047928, 53.1760518 ], [ 5.8046804, 53.176054 ], [ 5.8047827, 53.1758072 ], [ 5.8035372, 53.1757067 ], [ 5.8032178, 53.1756714 ], [ 5.8029163, 53.1756265 ], [ 5.802615, 53.1756083 ], [ 5.8022021, 53.1757253 ], [ 5.8021267, 53.1757868 ], [ 5.8022931, 53.1753891 ], [ 5.8028022, 53.1742825 ], [ 5.8029774, 53.1739936 ], [ 5.8031656, 53.1737378 ], [ 5.8034639, 53.1733595 ], [ 5.8035317, 53.173243 ], [ 5.8036666, 53.1729444 ], [ 5.8037014, 53.1728727 ], [ 5.8038635, 53.1725391 ], [ 5.8040906, 53.1721548 ], [ 5.8041002, 53.1721386 ], [ 5.8041278, 53.1720977 ], [ 5.8043035, 53.1718372 ], [ 5.804205, 53.1718019 ], [ 5.8040558, 53.1717492 ], [ 5.8038807, 53.1716902 ], [ 5.8038543, 53.1716813 ], [ 5.8038047, 53.1716682 ], [ 5.8035552, 53.1715694 ], [ 5.803539, 53.171563 ], [ 5.8032001, 53.1714203 ], [ 5.8030216, 53.1713401 ], [ 5.80295, 53.1713047 ], [ 5.8029424, 53.171301 ], [ 5.8029122, 53.171286 ], [ 5.8027133, 53.1711691 ], [ 5.8024892, 53.1710326 ], [ 5.802397, 53.1709811 ], [ 5.8020324, 53.1707649 ], [ 5.8020242, 53.1707605 ], [ 5.8019143, 53.1707013 ], [ 5.8017914, 53.1706486 ], [ 5.8017875, 53.1706469 ], [ 5.8016667, 53.170602 ], [ 5.8015715, 53.1705578 ], [ 5.8013385, 53.1704503 ], [ 5.8012044, 53.1703956 ], [ 5.8011269, 53.1703654 ], [ 5.8010735, 53.1703354 ], [ 5.8010639, 53.1703301 ], [ 5.8010523, 53.1703236 ], [ 5.8010123, 53.1702896 ], [ 5.8009773, 53.1702443 ], [ 5.8008586, 53.170024 ], [ 5.8008487, 53.1700257 ], [ 5.8007662, 53.1700398 ], [ 5.8006696, 53.1700543 ], [ 5.8005921, 53.170066 ], [ 5.8004308, 53.1700966 ], [ 5.8001597, 53.1701482 ], [ 5.7999262, 53.1701709 ], [ 5.7999027, 53.1701846 ], [ 5.7998565, 53.1702309 ], [ 5.799201, 53.1709864 ], [ 5.7991165, 53.1709239 ], [ 5.7990464, 53.170886 ], [ 5.7990114, 53.1709084 ], [ 5.7989756, 53.1709304 ], [ 5.7989391, 53.1709519 ], [ 5.7989018, 53.170973 ], [ 5.7988638, 53.1709936 ], [ 5.798825, 53.1710136 ], [ 5.7987856, 53.1710332 ], [ 5.7987455, 53.1710523 ], [ 5.7987047, 53.1710709 ], [ 5.7986633, 53.171089 ], [ 5.7986213, 53.1711065 ], [ 5.7985787, 53.1711236 ], [ 5.7985355, 53.17114 ], [ 5.7984922, 53.1711557 ], [ 5.7984485, 53.1711709 ], [ 5.7984042, 53.1711855 ], [ 5.7983595, 53.1711996 ], [ 5.7983143, 53.1712132 ], [ 5.7982686, 53.1712262 ], [ 5.7981761, 53.1712505 ], [ 5.7981292, 53.1712618 ], [ 5.7973464, 53.1714671 ], [ 5.7969582, 53.1715689 ], [ 5.7958393, 53.1718169 ], [ 5.7956181, 53.1718699 ], [ 5.7953914, 53.1719555 ], [ 5.7948298, 53.1722734 ], [ 5.7942307, 53.1725935 ], [ 5.793687, 53.1728994 ], [ 5.7936859, 53.1729001 ], [ 5.7926435, 53.173462 ], [ 5.7926619, 53.1734828 ], [ 5.7932906, 53.1742007 ], [ 5.7934796, 53.1744154 ], [ 5.7939941, 53.1750211 ], [ 5.7944997, 53.1757197 ], [ 5.7948532, 53.1763635 ], [ 5.7953635, 53.1776892 ], [ 5.7958695, 53.1791151 ], [ 5.7940087, 53.1793607 ], [ 5.793585, 53.1795523 ], [ 5.7938935, 53.1797415 ], [ 5.7941026, 53.1804298 ], [ 5.7944959, 53.1817246 ], [ 5.7942993, 53.181856 ], [ 5.7926105, 53.1820223 ] ] ] } }
]
}
