{
"type": "FeatureCollection",
"name": "lida_by",
"crs": { "type": "name", "properties": { "name": "urn:ogc:def:crs:OGC:1.3:CRS84" } },
"features": [
{ "type": "Feature", "properties": { }, "geometry": { "type": "Polygon", "coordinates": [ [ [ 25.2243626, 53.9097231 ], [ 25.2227211, 53.9104815 ], [ 25.2225923, 53.9181909 ], [ 25.2232807, 53.9191623 ], [ 25.2303562, 53.9162289 ], [ 25.2319841, 53.9175932 ], [ 25.2314155, 53.9178029 ], [ 25.232293, 53.91844 ], [ 25.2327421, 53.9182136 ], [ 25.2390168, 53.9233745 ], [ 25.234791, 53.9257979 ], [ 25.2344584, 53.9271498 ], [ 25.2396405, 53.9300556 ], [ 25.2361107, 53.9299546 ], [ 25.2316376, 53.9274535 ], [ 25.2277422, 53.9294745 ], [ 25.2257366, 53.9293177 ], [ 25.222407, 53.9309961 ], [ 25.2238798, 53.9330118 ], [ 25.2235242, 53.9411788 ], [ 25.2267877, 53.9436203 ], [ 25.2321035, 53.9406697 ], [ 25.2345593, 53.9391848 ], [ 25.2343941, 53.9386267 ], [ 25.2351907, 53.9382872 ], [ 25.2358081, 53.9385583 ], [ 25.2397312, 53.9364286 ], [ 25.24095, 53.9371611 ], [ 25.2398906, 53.9377559 ], [ 25.2400034, 53.9393458 ], [ 25.244951, 53.9392465 ], [ 25.2451122, 53.9409476 ], [ 25.2452087, 53.9409539 ], [ 25.2456218, 53.9450175 ], [ 25.2462373, 53.9497624 ], [ 25.2466327, 53.9503438 ], [ 25.2479012, 53.9508208 ], [ 25.2481613, 53.9505528 ], [ 25.2469931, 53.9500726 ], [ 25.2467193, 53.9491061 ], [ 25.2461307, 53.9449877 ], [ 25.2483166, 53.9448756 ], [ 25.2485933, 53.9452449 ], [ 25.2496237, 53.9457922 ], [ 25.2499438, 53.9458984 ], [ 25.2523736, 53.9466017 ], [ 25.2537647, 53.946862 ], [ 25.2597248, 53.9470697 ], [ 25.2613687, 53.9472504 ], [ 25.2622569, 53.947537 ], [ 25.2630533, 53.9479355 ], [ 25.2633115, 53.9482124 ], [ 25.2634884, 53.9489059 ], [ 25.2643256, 53.9488261 ], [ 25.2642413, 53.9481459 ], [ 25.2644575, 53.9476321 ], [ 25.2653579, 53.9478272 ], [ 25.2706433, 53.9475434 ], [ 25.2708938, 53.9485506 ], [ 25.2718568, 53.9484814 ], [ 25.2716427, 53.947632 ], [ 25.2725662, 53.9475849 ], [ 25.2720457, 53.9451827 ], [ 25.2737228, 53.9451585 ], [ 25.274261, 53.9431023 ], [ 25.2759859, 53.9430363 ], [ 25.2759529, 53.9425979 ], [ 25.2790341, 53.9424617 ], [ 25.2790916, 53.9432307 ], [ 25.2840097, 53.9429251 ], [ 25.2847981, 53.9433126 ], [ 25.2860157, 53.9434463 ], [ 25.293518, 53.9411402 ], [ 25.2933372, 53.9409401 ], [ 25.3017453, 53.938552 ], [ 25.3017158, 53.9385237 ], [ 25.3006661, 53.9374583 ], [ 25.3004086, 53.9365046 ], [ 25.2981485, 53.9341405 ], [ 25.2945399, 53.9353299 ], [ 25.2939457, 53.934977 ], [ 25.2922815, 53.935393 ], [ 25.2919864, 53.934913 ], [ 25.2934241, 53.9344646 ], [ 25.2931237, 53.9341866 ], [ 25.2929752, 53.9338495 ], [ 25.2968412, 53.9322854 ], [ 25.297367, 53.9324781 ], [ 25.2979141, 53.9320391 ], [ 25.2982521, 53.9322001 ], [ 25.2977586, 53.9325981 ], [ 25.2991211, 53.9330781 ], [ 25.3003818, 53.933694 ], [ 25.301527, 53.9331619 ], [ 25.3029299, 53.9344693 ], [ 25.302667, 53.9346098 ], [ 25.3030828, 53.9352588 ], [ 25.3022834, 53.9354657 ], [ 25.302946, 53.9372025 ], [ 25.3033744, 53.9380244 ], [ 25.3060251, 53.9372564 ], [ 25.3053251, 53.9365465 ], [ 25.3072697, 53.9359662 ], [ 25.3057086, 53.934073 ], [ 25.3089702, 53.9321212 ], [ 25.3063953, 53.9302578 ], [ 25.3012884, 53.928508 ], [ 25.2994215, 53.9240858 ], [ 25.2945598, 53.9211813 ], [ 25.2915401, 53.9203813 ], [ 25.293138, 53.9184091 ], [ 25.2901602, 53.9159952 ], [ 25.2927612, 53.9152978 ], [ 25.2942605, 53.9165369 ], [ 25.2969795, 53.9155164 ], [ 25.2989835, 53.911851 ], [ 25.2986663, 53.9109208 ], [ 25.3000897, 53.9073792 ], [ 25.3017438, 53.9083002 ], [ 25.3010845, 53.9095398 ], [ 25.3006446, 53.9109712 ], [ 25.3005016, 53.9124304 ], [ 25.3039827, 53.9125175 ], [ 25.3056992, 53.909928 ], [ 25.3083076, 53.9106976 ], [ 25.3080612, 53.9117786 ], [ 25.3105492, 53.9121093 ], [ 25.3107834, 53.9121404 ], [ 25.3116202, 53.9105794 ], [ 25.331903, 53.9129925 ], [ 25.3333783, 53.9064935 ], [ 25.3331959, 53.9061395 ], [ 25.3335339, 53.9047837 ], [ 25.342621, 53.9049687 ], [ 25.3426587, 53.9045594 ], [ 25.340787, 53.903494 ], [ 25.3275008, 53.9032232 ], [ 25.3273272, 53.901342 ], [ 25.3240671, 53.9000718 ], [ 25.3248585, 53.8988134 ], [ 25.3243133, 53.8986948 ], [ 25.3253531, 53.8970687 ], [ 25.3259539, 53.8971572 ], [ 25.3261527, 53.8969599 ], [ 25.3279602, 53.8973658 ], [ 25.328443, 53.8965945 ], [ 25.3315319, 53.897609 ], [ 25.3309383, 53.8946686 ], [ 25.3305747, 53.8945939 ], [ 25.3303138, 53.8935911 ], [ 25.3332068, 53.8939265 ], [ 25.3334031, 53.8933888 ], [ 25.3339826, 53.8934319 ], [ 25.3342695, 53.8905053 ], [ 25.3346255, 53.8893063 ], [ 25.3345558, 53.8881571 ], [ 25.334301, 53.8877334 ], [ 25.3342232, 53.8867154 ], [ 25.3360943, 53.8853331 ], [ 25.3401394, 53.8869493 ], [ 25.3391647, 53.8883999 ], [ 25.3398886, 53.8906355 ], [ 25.3404195, 53.8924442 ], [ 25.3391683, 53.892469 ], [ 25.3390807, 53.893718 ], [ 25.3380753, 53.894191 ], [ 25.3469889, 53.8950978 ], [ 25.3496474, 53.8862069 ], [ 25.3500992, 53.8852989 ], [ 25.3510393, 53.8840834 ], [ 25.3515733, 53.8835195 ], [ 25.3530335, 53.8827852 ], [ 25.3539048, 53.8819623 ], [ 25.3511345, 53.8807741 ], [ 25.3484457, 53.8795896 ], [ 25.3503299, 53.8777573 ], [ 25.3520863, 53.8777214 ], [ 25.3521702, 53.876767 ], [ 25.348326, 53.8765878 ], [ 25.3413724, 53.872669 ], [ 25.3406457, 53.8738208 ], [ 25.3387797, 53.8734928 ], [ 25.3381277, 53.8746597 ], [ 25.3374786, 53.874518 ], [ 25.3372615, 53.8748417 ], [ 25.3368546, 53.8751508 ], [ 25.3336153, 53.8723774 ], [ 25.3330377, 53.8726851 ], [ 25.3327609, 53.8724464 ], [ 25.331841, 53.8726149 ], [ 25.3309067, 53.8715115 ], [ 25.333711, 53.8702534 ], [ 25.3354358, 53.8689065 ], [ 25.3364957, 53.8681158 ], [ 25.3379458, 53.8677344 ], [ 25.3354438, 53.8663537 ], [ 25.3355133, 53.8661372 ], [ 25.3332202, 53.8668057 ], [ 25.332697, 53.8677219 ], [ 25.3322142, 53.8681869 ], [ 25.3315877, 53.8694162 ], [ 25.3296018, 53.8688701 ], [ 25.3275148, 53.8683656 ], [ 25.3290087, 53.8675165 ], [ 25.3277158, 53.8665258 ], [ 25.3267246, 53.8658473 ], [ 25.3275982, 53.86534 ], [ 25.3272253, 53.8650774 ], [ 25.3284296, 53.8643388 ], [ 25.3282285, 53.8642028 ], [ 25.3289285, 53.8638342 ], [ 25.3288373, 53.8637615 ], [ 25.3292874, 53.8635208 ], [ 25.3279089, 53.8625971 ], [ 25.3264264, 53.8613438 ], [ 25.3279089, 53.8601829 ], [ 25.3286279, 53.8595813 ], [ 25.3273326, 53.8590129 ], [ 25.3275418, 53.8588515 ], [ 25.3256492, 53.8580176 ], [ 25.3255023, 53.8581478 ], [ 25.3248727, 53.8578661 ], [ 25.3237739, 53.8588037 ], [ 25.3235322, 53.8587076 ], [ 25.316872, 53.8641411 ], [ 25.3167434, 53.863974 ], [ 25.3140986, 53.865998 ], [ 25.311681, 53.8680422 ], [ 25.3105742, 53.8686898 ], [ 25.309901, 53.8689666 ], [ 25.3085893, 53.8693193 ], [ 25.3067508, 53.8696971 ], [ 25.3024875, 53.867198 ], [ 25.3010933, 53.8676221 ], [ 25.2994215, 53.8664535 ], [ 25.298917, 53.8662302 ], [ 25.3017946, 53.8628249 ], [ 25.2937996, 53.8611705 ], [ 25.2943942, 53.8604959 ], [ 25.2903884, 53.8599427 ], [ 25.2901626, 53.8595729 ], [ 25.2897349, 53.8596874 ], [ 25.2881335, 53.8602954 ], [ 25.2872017, 53.8607203 ], [ 25.286529, 53.8610762 ], [ 25.2862573, 53.8611658 ], [ 25.2855791, 53.8615717 ], [ 25.2847686, 53.8621623 ], [ 25.2838567, 53.8628994 ], [ 25.2831229, 53.863576 ], [ 25.2829722, 53.8635234 ], [ 25.2786371, 53.8676191 ], [ 25.2759292, 53.8668405 ], [ 25.2787578, 53.8645207 ], [ 25.2785421, 53.8644288 ], [ 25.2789337, 53.8641093 ], [ 25.2791494, 53.8642012 ], [ 25.2805245, 53.8630678 ], [ 25.2743215, 53.860368 ], [ 25.2734611, 53.8604148 ], [ 25.2728585, 53.8601745 ], [ 25.2726686, 53.8595414 ], [ 25.2653312, 53.8564734 ], [ 25.2571834, 53.864576 ], [ 25.2572152, 53.8646597 ], [ 25.2577615, 53.8660976 ], [ 25.2581696, 53.8665099 ], [ 25.2588798, 53.8670025 ], [ 25.2593064, 53.8668172 ], [ 25.2597651, 53.8666433 ], [ 25.2601567, 53.8665262 ], [ 25.2604759, 53.8667983 ], [ 25.2610874, 53.8665895 ], [ 25.2615541, 53.8671209 ], [ 25.2600628, 53.8677172 ], [ 25.2599749, 53.8677887 ], [ 25.2602412, 53.8679426 ], [ 25.2612752, 53.8676334 ], [ 25.2613878, 53.8675037 ], [ 25.2647701, 53.8663096 ], [ 25.2659798, 53.8661988 ], [ 25.2672646, 53.8658572 ], [ 25.2675328, 53.8660691 ], [ 25.2679244, 53.866531 ], [ 25.2674872, 53.8666528 ], [ 25.2666745, 53.8676223 ], [ 25.2663472, 53.8677535 ], [ 25.2651161, 53.8684731 ], [ 25.2630347, 53.8681537 ], [ 25.2622703, 53.8681932 ], [ 25.261994, 53.8682502 ], [ 25.2617982, 53.8683466 ], [ 25.2616453, 53.8685158 ], [ 25.261493, 53.8687422 ], [ 25.263054, 53.8697653 ], [ 25.2642144, 53.8705259 ], [ 25.2629757, 53.8707932 ], [ 25.2617239, 53.8712045 ], [ 25.2606261, 53.871527 ], [ 25.2600526, 53.8718404 ], [ 25.259522, 53.8724929 ], [ 25.2520752, 53.8702068 ], [ 25.2512866, 53.8707078 ], [ 25.2496827, 53.8715555 ], [ 25.2473062, 53.8727067 ], [ 25.2466732, 53.8729218 ], [ 25.2448332, 53.8735195 ], [ 25.2465452, 53.8736431 ], [ 25.2514753, 53.8751058 ], [ 25.2502084, 53.8767169 ], [ 25.2508108, 53.8768401 ], [ 25.2512402, 53.876942 ], [ 25.2511257, 53.8776277 ], [ 25.2499804, 53.8775519 ], [ 25.2499133, 53.8779123 ], [ 25.2497095, 53.8779028 ], [ 25.2496076, 53.8784404 ], [ 25.2488964, 53.8784354 ], [ 25.2488302, 53.8789568 ], [ 25.2500609, 53.8790001 ], [ 25.2500823, 53.8788262 ], [ 25.2503049, 53.8788326 ], [ 25.2503398, 53.8784704 ], [ 25.2512866, 53.8785131 ], [ 25.2514207, 53.8780578 ], [ 25.2521674, 53.8780068 ], [ 25.2533729, 53.8772079 ], [ 25.2533654, 53.8770498 ], [ 25.2536644, 53.8771845 ], [ 25.2575362, 53.8773779 ], [ 25.2545857, 53.8847013 ], [ 25.252794, 53.8893617 ], [ 25.2518928, 53.8916126 ], [ 25.2512491, 53.8944419 ], [ 25.245552, 53.9091164 ], [ 25.2470655, 53.9095694 ], [ 25.2456486, 53.9102919 ], [ 25.2396147, 53.9124265 ], [ 25.2392238, 53.9121738 ], [ 25.2384925, 53.9119603 ], [ 25.2380848, 53.9114737 ], [ 25.2367329, 53.9113599 ], [ 25.236368, 53.9110133 ], [ 25.2354777, 53.9111134 ], [ 25.235051, 53.9097626 ], [ 25.235455, 53.9076788 ], [ 25.222383, 53.9085944 ], [ 25.2243626, 53.9097231 ] ] ] } }
]
}
