{
"type": "FeatureCollection",
"name": "luts-k_ua",
"crs": { "type": "name", "properties": { "name": "urn:ogc:def:crs:OGC:1.3:CRS84" } },
"features": [
{ "type": "Feature", "properties": { "bbox_west": 25.2619629, "bbox_south": 50.688998, "bbox_east": 25.4058021, "bbox_north": 50.7888828, "place_id": 191454503, "osm_type": "relation", "osm_id": 1951964, "lat": 50.7450733, "lon": 25.320078, "class": "place", "type": "city", "place_rank": 16, "importance": 0.6203321721661702, "addresstype": "city", "name": "Lutsk", "display_name": "Lutsk, Lutsk Urban Hromada, Lutsk Raion, Volyn Oblast, Ukraine" }, "geometry": { "type": "Polygon", "coordinates": [ [ [ 25.2619629, 50.7487959 ], [ 25.2620393, 50.7454038 ], [ 25.2621412, 50.7452412 ], [ 25.2631038, 50.7453213 ], [ 25.2641228, 50.7452734 ], [ 25.2701641, 50.7446843 ], [ 25.2702925, 50.7444743 ], [ 25.2701301, 50.7440154 ], [ 25.2702015, 50.7438815 ], [ 25.2701844, 50.7437909 ], [ 25.2705174, 50.7437691 ], [ 25.270412, 50.7435242 ], [ 25.2697652, 50.7420219 ], [ 25.2707241, 50.7419335 ], [ 25.2726843, 50.7417529 ], [ 25.2755006, 50.7418071 ], [ 25.2754256, 50.7438358 ], [ 25.2755025, 50.7439486 ], [ 25.2770154, 50.7435909 ], [ 25.2785706, 50.7431977 ], [ 25.2792885, 50.7427545 ], [ 25.2795918, 50.740512 ], [ 25.2795691, 50.7396644 ], [ 25.2798014, 50.7393087 ], [ 25.2797833, 50.7374849 ], [ 25.2791421, 50.7374933 ], [ 25.2791416, 50.7373883 ], [ 25.2811176, 50.7319413 ], [ 25.2815892, 50.7320027 ], [ 25.282272, 50.7316495 ], [ 25.2834157, 50.7299978 ], [ 25.2834464, 50.7295657 ], [ 25.283784, 50.7295833 ], [ 25.2838143, 50.7288628 ], [ 25.2839523, 50.728401 ], [ 25.2843496, 50.7268846 ], [ 25.2843788, 50.7267792 ], [ 25.2866678, 50.7270169 ], [ 25.2871702, 50.7254776 ], [ 25.2876119, 50.723889 ], [ 25.285715, 50.722904 ], [ 25.285568, 50.7229947 ], [ 25.284663, 50.7223238 ], [ 25.2837359, 50.7216833 ], [ 25.2831516, 50.7213567 ], [ 25.2825883, 50.7210044 ], [ 25.2818858, 50.7203502 ], [ 25.2818501, 50.7202123 ], [ 25.2818207, 50.7200738 ], [ 25.2821533, 50.7199406 ], [ 25.2824868, 50.7198594 ], [ 25.2833551, 50.7197154 ], [ 25.2840455, 50.7188852 ], [ 25.2847645, 50.7184638 ], [ 25.2856182, 50.718121 ], [ 25.2865635, 50.7177596 ], [ 25.2869043, 50.7175269 ], [ 25.2879461, 50.7168842 ], [ 25.2882213, 50.7167425 ], [ 25.2890701, 50.7165608 ], [ 25.2910431, 50.7162478 ], [ 25.2913183, 50.717069 ], [ 25.291982, 50.7186808 ], [ 25.2947903, 50.7182528 ], [ 25.2952151, 50.7191089 ], [ 25.2991037, 50.7184086 ], [ 25.2987415, 50.7196502 ], [ 25.3001579, 50.7210529 ], [ 25.3005343, 50.7218412 ], [ 25.3042335, 50.7206852 ], [ 25.3025064, 50.7187432 ], [ 25.3046142, 50.7179788 ], [ 25.3031695, 50.7161807 ], [ 25.3028841, 50.7158781 ], [ 25.3026192, 50.7155716 ], [ 25.300372, 50.7159248 ], [ 25.2998906, 50.7147591 ], [ 25.3019873, 50.7142958 ], [ 25.3027675, 50.7156746 ], [ 25.3043054, 50.715537 ], [ 25.304634, 50.7152188 ], [ 25.3056211, 50.7150309 ], [ 25.3046043, 50.7136546 ], [ 25.3057636, 50.713502 ], [ 25.3054451, 50.7119557 ], [ 25.3061659, 50.7118759 ], [ 25.3055249, 50.7086199 ], [ 25.3209247, 50.7075142 ], [ 25.3205903, 50.7035859 ], [ 25.3203129, 50.6999644 ], [ 25.3111383, 50.7002803 ], [ 25.3083281, 50.6996893 ], [ 25.3074731, 50.6994043 ], [ 25.2984761, 50.6996878 ], [ 25.2977589, 50.6995689 ], [ 25.2975265, 50.6973487 ], [ 25.2975226, 50.697295 ], [ 25.297439, 50.6961401 ], [ 25.2972477, 50.6949082 ], [ 25.2974574, 50.6949 ], [ 25.2976092, 50.6948988 ], [ 25.2980735, 50.6948851 ], [ 25.2985089, 50.6948724 ], [ 25.2986374, 50.6948681 ], [ 25.2991476, 50.6948561 ], [ 25.2996256, 50.6948448 ], [ 25.3007771, 50.6947974 ], [ 25.3006709, 50.6937546 ], [ 25.299732, 50.6917543 ], [ 25.3023755, 50.6912376 ], [ 25.3025424, 50.6912797 ], [ 25.3026783, 50.6913688 ], [ 25.3027082, 50.6913834 ], [ 25.302757, 50.6913939 ], [ 25.303189, 50.6913486 ], [ 25.3036061, 50.6912851 ], [ 25.3038535, 50.6912206 ], [ 25.3050092, 50.6911218 ], [ 25.3061992, 50.6909935 ], [ 25.3073832, 50.6908739 ], [ 25.3088655, 50.6907162 ], [ 25.3093754, 50.6906647 ], [ 25.3100932, 50.6905393 ], [ 25.3116284, 50.690267 ], [ 25.3140699, 50.6897322 ], [ 25.3175253, 50.688998 ], [ 25.3232621, 50.6966177 ], [ 25.3233944, 50.6973765 ], [ 25.323175, 50.6983109 ], [ 25.3225867, 50.6990673 ], [ 25.3219362, 50.6994775 ], [ 25.3206901, 50.6999906 ], [ 25.3206901, 50.701292 ], [ 25.3207373, 50.7015914 ], [ 25.320764, 50.7025531 ], [ 25.3209221, 50.7043921 ], [ 25.320978, 50.7050339 ], [ 25.3209781, 50.7051086 ], [ 25.3211353, 50.7076329 ], [ 25.3207317, 50.7094794 ], [ 25.3205296, 50.7109597 ], [ 25.320518, 50.7110446 ], [ 25.3203594, 50.7120153 ], [ 25.321978, 50.7120971 ], [ 25.3221319, 50.7111134 ], [ 25.3242937, 50.7111509 ], [ 25.3243647, 50.7118854 ], [ 25.3244678, 50.7129135 ], [ 25.324436, 50.7135136 ], [ 25.3244392, 50.7135986 ], [ 25.3245915, 50.7136062 ], [ 25.3245977, 50.7136788 ], [ 25.3274737, 50.713804 ], [ 25.3273259, 50.7153657 ], [ 25.3277405, 50.715444 ], [ 25.3275403, 50.7166231 ], [ 25.3274519, 50.7166777 ], [ 25.3255832, 50.7166022 ], [ 25.3248222, 50.716608 ], [ 25.3211132, 50.7165504 ], [ 25.3204277, 50.716622 ], [ 25.3213463, 50.7175834 ], [ 25.3228963, 50.7194139 ], [ 25.3233545, 50.7201354 ], [ 25.3243755, 50.7217721 ], [ 25.3247362, 50.7224067 ], [ 25.324906, 50.7228046 ], [ 25.3249507, 50.7229255 ], [ 25.3247651, 50.7229306 ], [ 25.3246525, 50.7240836 ], [ 25.3246966, 50.7242736 ], [ 25.324806, 50.724348 ], [ 25.3249608, 50.7243967 ], [ 25.3249588, 50.7245521 ], [ 25.3246866, 50.7246048 ], [ 25.3244787, 50.7246974 ], [ 25.3240965, 50.7249266 ], [ 25.3238457, 50.725003 ], [ 25.3234427, 50.7250874 ], [ 25.3234307, 50.7251248 ], [ 25.32344, 50.7251613 ], [ 25.3232825, 50.7251995 ], [ 25.3224842, 50.7251688 ], [ 25.3222185, 50.7258067 ], [ 25.322086, 50.7258022 ], [ 25.3210662, 50.7257021 ], [ 25.3209464, 50.7260783 ], [ 25.3208259, 50.7262772 ], [ 25.3198915, 50.7262788 ], [ 25.3174797, 50.7259446 ], [ 25.3161263, 50.7256081 ], [ 25.3144937, 50.7252381 ], [ 25.3133101, 50.7255675 ], [ 25.311324, 50.7283107 ], [ 25.3120311, 50.7284735 ], [ 25.3178126, 50.7329981 ], [ 25.3192493, 50.7336086 ], [ 25.3199532, 50.7338743 ], [ 25.3196573, 50.7345937 ], [ 25.3203462, 50.7347905 ], [ 25.3210359, 50.7351933 ], [ 25.3213758, 50.7354817 ], [ 25.3217948, 50.7358217 ], [ 25.3219012, 50.7358824 ], [ 25.3219721, 50.7359229 ], [ 25.3221978, 50.7360517 ], [ 25.3226008, 50.7362967 ], [ 25.3232987, 50.7365773 ], [ 25.3245728, 50.7371207 ], [ 25.3249448, 50.7373877 ], [ 25.3253468, 50.7375287 ], [ 25.3261118, 50.7376877 ], [ 25.3265045, 50.7377672 ], [ 25.3279108, 50.7380027 ], [ 25.3298998, 50.7381417 ], [ 25.3307854, 50.738181 ], [ 25.3312983, 50.7382031 ], [ 25.3316463, 50.7382668 ], [ 25.3316705, 50.7383172 ], [ 25.3317456, 50.7383241 ], [ 25.3319306, 50.7382897 ], [ 25.3321653, 50.7383011 ], [ 25.3327869, 50.7383912 ], [ 25.3329187, 50.738438 ], [ 25.3330585, 50.7385112 ], [ 25.3331436, 50.7385409 ], [ 25.3332469, 50.7385362 ], [ 25.3339101, 50.7386789 ], [ 25.3341572, 50.7387259 ], [ 25.3342094, 50.7387608 ], [ 25.3359545, 50.7390681 ], [ 25.3361363, 50.7390909 ], [ 25.3363065, 50.7390912 ], [ 25.3370858, 50.7385937 ], [ 25.3377513, 50.7383301 ], [ 25.3383418, 50.7381912 ], [ 25.3386717, 50.738187 ], [ 25.3386755, 50.7382462 ], [ 25.3387534, 50.738246 ], [ 25.3387635, 50.7381811 ], [ 25.3391535, 50.7381299 ], [ 25.3396488, 50.7381336 ], [ 25.3399868, 50.7381955 ], [ 25.3405218, 50.7382997 ], [ 25.3410885, 50.7384477 ], [ 25.3416128, 50.7384967 ], [ 25.3420508, 50.7384407 ], [ 25.3424018, 50.7384547 ], [ 25.3426858, 50.7385217 ], [ 25.3430938, 50.7387697 ], [ 25.3432598, 50.7390047 ], [ 25.3434178, 50.7394347 ], [ 25.3435168, 50.7395647 ], [ 25.3435428, 50.7397887 ], [ 25.3436028, 50.7404497 ], [ 25.3435088, 50.7407747 ], [ 25.3434328, 50.7409807 ], [ 25.3433468, 50.7412157 ], [ 25.3432188, 50.7415957 ], [ 25.3432153, 50.7418454 ], [ 25.3432456, 50.7419745 ], [ 25.3434078, 50.7421697 ], [ 25.3436462, 50.742298 ], [ 25.3439025, 50.7424019 ], [ 25.3442184, 50.7424432 ], [ 25.3445738, 50.7424257 ], [ 25.3448923, 50.7423793 ], [ 25.3449889, 50.742364 ], [ 25.3452474, 50.7422579 ], [ 25.3475618, 50.7409537 ], [ 25.3481355, 50.7405405 ], [ 25.348305, 50.7401489 ], [ 25.3483549, 50.7398105 ], [ 25.348496, 50.7395961 ], [ 25.3488099, 50.7393717 ], [ 25.3503996, 50.7387977 ], [ 25.3518158, 50.7383954 ], [ 25.3533182, 50.7381559 ], [ 25.3534665, 50.7381336 ], [ 25.353566, 50.7381832 ], [ 25.3537, 50.73819 ], [ 25.3538207, 50.7381501 ], [ 25.3538786, 50.7380733 ], [ 25.3541397, 50.7380335 ], [ 25.355476, 50.7378231 ], [ 25.3563155, 50.7374695 ], [ 25.3576736, 50.7370195 ], [ 25.3594498, 50.7370017 ], [ 25.3601638, 50.7370027 ], [ 25.3608958, 50.7368357 ], [ 25.3621351, 50.7364043 ], [ 25.3636566, 50.7356566 ], [ 25.3639621, 50.7355018 ], [ 25.364722, 50.7350102 ], [ 25.3648582, 50.7348151 ], [ 25.3656154, 50.7338061 ], [ 25.3656143, 50.7331998 ], [ 25.3653895, 50.7322626 ], [ 25.3652672, 50.7317493 ], [ 25.3653573, 50.7312768 ], [ 25.3653445, 50.7309468 ], [ 25.365087, 50.7307472 ], [ 25.3646558, 50.7306698 ], [ 25.3641409, 50.7307146 ], [ 25.3636518, 50.7307309 ], [ 25.3634974, 50.7306779 ], [ 25.3633558, 50.7305231 ], [ 25.363174, 50.7302132 ], [ 25.3630468, 50.7293214 ], [ 25.3630726, 50.7283396 ], [ 25.3630082, 50.7281644 ], [ 25.3628345, 50.7279566 ], [ 25.3627764, 50.7276368 ], [ 25.3629117, 50.7267344 ], [ 25.3631142, 50.7265122 ], [ 25.3634974, 50.7264044 ], [ 25.3640508, 50.72627 ], [ 25.3644113, 50.7260337 ], [ 25.3645979, 50.7252066 ], [ 25.3647915, 50.7248356 ], [ 25.3648403, 50.7243612 ], [ 25.3647521, 50.7241667 ], [ 25.3646582, 50.7240411 ], [ 25.3645058, 50.7239662 ], [ 25.3642603, 50.7238641 ], [ 25.3641178, 50.7238373 ], [ 25.3639944, 50.7238543 ], [ 25.3638522, 50.7239511 ], [ 25.3635269, 50.7239915 ], [ 25.3623684, 50.7242359 ], [ 25.3612411, 50.7245819 ], [ 25.3610373, 50.7246252 ], [ 25.3608664, 50.7246416 ], [ 25.3606912, 50.7246218 ], [ 25.3606141, 50.724567 ], [ 25.3605866, 50.724486 ], [ 25.3606144, 50.7244194 ], [ 25.3608039, 50.7242211 ], [ 25.3609751, 50.7240697 ], [ 25.3617964, 50.7236732 ], [ 25.36209, 50.7234672 ], [ 25.3622939, 50.7232035 ], [ 25.3625017, 50.7228864 ], [ 25.3625768, 50.7226182 ], [ 25.3625849, 50.7221075 ], [ 25.362771, 50.721743 ], [ 25.3629765, 50.7214178 ], [ 25.3635263, 50.7206756 ], [ 25.3639367, 50.719852 ], [ 25.3648813, 50.7181535 ], [ 25.3730989, 50.7213615 ], [ 25.3744995, 50.7202853 ], [ 25.3753689, 50.7206212 ], [ 25.3781445, 50.721758 ], [ 25.3806739, 50.7227738 ], [ 25.3859569, 50.7248888 ], [ 25.3888212, 50.7261046 ], [ 25.3898255, 50.7265545 ], [ 25.3871668, 50.7277004 ], [ 25.3891744, 50.728767 ], [ 25.3900935, 50.7292304 ], [ 25.3918294, 50.7300169 ], [ 25.3932384, 50.7306517 ], [ 25.3943366, 50.7311136 ], [ 25.3978623, 50.732059 ], [ 25.398819, 50.7325296 ], [ 25.4002844, 50.7330241 ], [ 25.4012474, 50.7333003 ], [ 25.402759, 50.7337941 ], [ 25.4037411, 50.7341322 ], [ 25.4042046, 50.7350051 ], [ 25.4050066, 50.7362123 ], [ 25.4054372, 50.7364628 ], [ 25.4058021, 50.7368061 ], [ 25.4056255, 50.7370366 ], [ 25.402612, 50.7372104 ], [ 25.4020408, 50.7372753 ], [ 25.3933921, 50.7364985 ], [ 25.3923211, 50.7368855 ], [ 25.3905123, 50.7367298 ], [ 25.3864906, 50.736063 ], [ 25.3834745, 50.7360873 ], [ 25.3831399, 50.7383337 ], [ 25.3923952, 50.7390395 ], [ 25.3912285, 50.7437145 ], [ 25.3920951, 50.7438145 ], [ 25.3924666, 50.7442248 ], [ 25.3940076, 50.7443071 ], [ 25.3938854, 50.7449602 ], [ 25.3938453, 50.7451847 ], [ 25.3932204, 50.7451497 ], [ 25.3927309, 50.7505779 ], [ 25.3935794, 50.7505027 ], [ 25.3935029, 50.7514835 ], [ 25.3925973, 50.7515363 ], [ 25.3925524, 50.7519296 ], [ 25.3916252, 50.7527181 ], [ 25.3917807, 50.7541469 ], [ 25.3936449, 50.7543001 ], [ 25.3938834, 50.7564507 ], [ 25.3935815, 50.7567066 ], [ 25.3932737, 50.7567555 ], [ 25.3925668, 50.7567881 ], [ 25.3923077, 50.7567563 ], [ 25.392439, 50.7585943 ], [ 25.3922575, 50.7588074 ], [ 25.3895794, 50.7587386 ], [ 25.389163, 50.7591163 ], [ 25.3879723, 50.7618155 ], [ 25.3865141, 50.761674 ], [ 25.3865229, 50.7633513 ], [ 25.3852545, 50.763355 ], [ 25.3852548, 50.7627999 ], [ 25.3812449, 50.7626642 ], [ 25.3798152, 50.7630619 ], [ 25.3788498, 50.7629893 ], [ 25.3769043, 50.7628302 ], [ 25.3765508, 50.7652294 ], [ 25.3762654, 50.7657466 ], [ 25.3754211, 50.7667601 ], [ 25.3746787, 50.7672303 ], [ 25.3754534, 50.7675112 ], [ 25.3754847, 50.7685122 ], [ 25.3733249, 50.7685307 ], [ 25.3788745, 50.7731243 ], [ 25.3799118, 50.7731899 ], [ 25.3842732, 50.7741845 ], [ 25.3844888, 50.7742981 ], [ 25.3866973, 50.7767443 ], [ 25.3887294, 50.7760439 ], [ 25.3896803, 50.7756905 ], [ 25.390934, 50.7758467 ], [ 25.3960776, 50.7767101 ], [ 25.397415, 50.7770043 ], [ 25.3977874, 50.777069 ], [ 25.3976709, 50.7773472 ], [ 25.3978079, 50.7773735 ], [ 25.3979404, 50.7773988 ], [ 25.3978432, 50.7777251 ], [ 25.3989408, 50.7779418 ], [ 25.3991357, 50.7779806 ], [ 25.4006391, 50.7782705 ], [ 25.4031015, 50.778752 ], [ 25.4032311, 50.7787774 ], [ 25.4028127, 50.7795011 ], [ 25.4031755, 50.7796282 ], [ 25.4031808, 50.7802155 ], [ 25.4030144, 50.7802142 ], [ 25.4029611, 50.7802102 ], [ 25.3994089, 50.7796529 ], [ 25.399115, 50.7796068 ], [ 25.3992141, 50.7788384 ], [ 25.3973556, 50.7783412 ], [ 25.3969945, 50.7783258 ], [ 25.3968783, 50.7790399 ], [ 25.3936438, 50.7786815 ], [ 25.3903948, 50.7773964 ], [ 25.3903516, 50.7773957 ], [ 25.3901371, 50.7769246 ], [ 25.3889945, 50.7771131 ], [ 25.3874066, 50.7768737 ], [ 25.3875764, 50.777467 ], [ 25.3880566, 50.7780496 ], [ 25.3891416, 50.7793347 ], [ 25.3892271, 50.7798783 ], [ 25.3906937, 50.7819593 ], [ 25.3879736, 50.7828591 ], [ 25.3874546, 50.7834383 ], [ 25.3781395, 50.7866348 ], [ 25.3764094, 50.784432 ], [ 25.3695153, 50.7864704 ], [ 25.3687519, 50.7870161 ], [ 25.3685051, 50.7869349 ], [ 25.3670986, 50.7874831 ], [ 25.367237, 50.787785 ], [ 25.3667022, 50.7888828 ], [ 25.363815, 50.7870323 ], [ 25.3624711, 50.7856529 ], [ 25.3623525, 50.7855412 ], [ 25.362124, 50.7853256 ], [ 25.3599723, 50.7833413 ], [ 25.3594601, 50.7828221 ], [ 25.3590974, 50.7829652 ], [ 25.3579296, 50.7828845 ], [ 25.3573505, 50.7829355 ], [ 25.3559724, 50.7830522 ], [ 25.354398, 50.7834033 ], [ 25.352634, 50.7838246 ], [ 25.3520038, 50.7830026 ], [ 25.3519203, 50.7830282 ], [ 25.3518138, 50.78306 ], [ 25.3517503, 50.7830832 ], [ 25.3517114, 50.7830407 ], [ 25.351545, 50.7828587 ], [ 25.351379, 50.7829063 ], [ 25.351109, 50.7827984 ], [ 25.350683, 50.7826732 ], [ 25.3495872, 50.782427 ], [ 25.349041, 50.7822689 ], [ 25.3487235, 50.782172 ], [ 25.3487616, 50.7821222 ], [ 25.348914, 50.7819507 ], [ 25.3487525, 50.781613 ], [ 25.3486948, 50.7815719 ], [ 25.3484137, 50.7815651 ], [ 25.3482371, 50.7819502 ], [ 25.3479571, 50.7817607 ], [ 25.3475068, 50.7817709 ], [ 25.3467042, 50.7831037 ], [ 25.3466817, 50.7836516 ], [ 25.3467499, 50.7839335 ], [ 25.3483536, 50.7843477 ], [ 25.3474511, 50.7847568 ], [ 25.3424568, 50.7834133 ], [ 25.3420001, 50.7841394 ], [ 25.3409611, 50.7838847 ], [ 25.3403946, 50.7832551 ], [ 25.3391734, 50.7836013 ], [ 25.3385583, 50.7837895 ], [ 25.3378294, 50.7835322 ], [ 25.3375652, 50.7835229 ], [ 25.3368517, 50.7832438 ], [ 25.3348056, 50.7825967 ], [ 25.3346198, 50.7823697 ], [ 25.3320422, 50.7792215 ], [ 25.331305, 50.7784425 ], [ 25.3316206, 50.7780863 ], [ 25.3312734, 50.7776983 ], [ 25.3307282, 50.7778994 ], [ 25.3299826, 50.7781502 ], [ 25.3286419, 50.778865 ], [ 25.3291646, 50.7796868 ], [ 25.3286327, 50.7798295 ], [ 25.3271088, 50.7778098 ], [ 25.3268027, 50.7784307 ], [ 25.3264018, 50.7787804 ], [ 25.3260815, 50.7790313 ], [ 25.3259544, 50.7789489 ], [ 25.3252561, 50.7793658 ], [ 25.3256556, 50.7798576 ], [ 25.3251067, 50.7801 ], [ 25.3254733, 50.7804667 ], [ 25.3242952, 50.7810684 ], [ 25.323713, 50.781755 ], [ 25.3235479, 50.7817863 ], [ 25.3232634, 50.7817147 ], [ 25.3229044, 50.7816106 ], [ 25.3216155, 50.7812367 ], [ 25.3216821, 50.7810208 ], [ 25.3230238, 50.7789004 ], [ 25.3245344, 50.7768745 ], [ 25.324034, 50.7763763 ], [ 25.3138184, 50.7795392 ], [ 25.3135674, 50.7794118 ], [ 25.3134174, 50.7792286 ], [ 25.3127658, 50.778338 ], [ 25.31644, 50.777479 ], [ 25.3172979, 50.7772738 ], [ 25.3207178, 50.7765587 ], [ 25.3197264, 50.7744734 ], [ 25.3195138, 50.7742991 ], [ 25.3175313, 50.7749741 ], [ 25.3163077, 50.7754983 ], [ 25.3147292, 50.7760898 ], [ 25.3130717, 50.7766788 ], [ 25.3122073, 50.776782 ], [ 25.3115958, 50.7767788 ], [ 25.3104631, 50.7768898 ], [ 25.3096783, 50.7770969 ], [ 25.3096053, 50.7770063 ], [ 25.3089242, 50.7761703 ], [ 25.3084379, 50.7752865 ], [ 25.3099848, 50.7748808 ], [ 25.3111264, 50.7754763 ], [ 25.3117613, 50.7757582 ], [ 25.3121151, 50.775941 ], [ 25.3138789, 50.7754363 ], [ 25.3130016, 50.7740946 ], [ 25.3187368, 50.7723713 ], [ 25.3188614, 50.7723516 ], [ 25.321599, 50.7722109 ], [ 25.323131, 50.7725048 ], [ 25.3237492, 50.7725767 ], [ 25.323725, 50.7728379 ], [ 25.3242158, 50.7729955 ], [ 25.3246833, 50.7729483 ], [ 25.3249048, 50.7729347 ], [ 25.3249627, 50.773069 ], [ 25.3253546, 50.7738188 ], [ 25.3256496, 50.774141 ], [ 25.3258811, 50.7742782 ], [ 25.3268322, 50.7743913 ], [ 25.3271836, 50.7743649 ], [ 25.3275698, 50.7742564 ], [ 25.3281632, 50.7740729 ], [ 25.3288254, 50.7737611 ], [ 25.3296458, 50.7729401 ], [ 25.3298443, 50.7727128 ], [ 25.3301125, 50.7722107 ], [ 25.3303212, 50.7717773 ], [ 25.3305344, 50.7711005 ], [ 25.3306565, 50.7708126 ], [ 25.3309318, 50.7703633 ], [ 25.3310983, 50.7700741 ], [ 25.3313137, 50.7696893 ], [ 25.3323115, 50.7696312 ], [ 25.3333849, 50.7695986 ], [ 25.3341216, 50.7695795 ], [ 25.334596, 50.7694454 ], [ 25.3350292, 50.7689522 ], [ 25.335277, 50.7678072 ], [ 25.3355038, 50.7666092 ], [ 25.3356722, 50.7655269 ], [ 25.3357727, 50.7648806 ], [ 25.335594, 50.7642107 ], [ 25.3349527, 50.7635781 ], [ 25.3331196, 50.7624369 ], [ 25.3327673, 50.7622176 ], [ 25.3322648, 50.7619978 ], [ 25.3316694, 50.7615836 ], [ 25.3312408, 50.7612854 ], [ 25.3306048, 50.7608167 ], [ 25.3300958, 50.7603017 ], [ 25.3295728, 50.7597937 ], [ 25.3284739, 50.7587214 ], [ 25.3280944, 50.7588972 ], [ 25.3273151, 50.7580489 ], [ 25.3268466, 50.7573635 ], [ 25.3264803, 50.7570742 ], [ 25.3259585, 50.7567904 ], [ 25.324764, 50.7563326 ], [ 25.3239298, 50.7560767 ], [ 25.3234188, 50.7560047 ], [ 25.3219078, 50.7558737 ], [ 25.3214388, 50.7556897 ], [ 25.3206318, 50.7551917 ], [ 25.3196356, 50.7544649 ], [ 25.3190301, 50.7547695 ], [ 25.3175141, 50.7555075 ], [ 25.3160324, 50.7561132 ], [ 25.3154387, 50.7572946 ], [ 25.3150786, 50.7583158 ], [ 25.3155383, 50.7587254 ], [ 25.3144296, 50.7594256 ], [ 25.3133494, 50.7605494 ], [ 25.3125992, 50.7598736 ], [ 25.3126837, 50.7598363 ], [ 25.311994, 50.7590996 ], [ 25.311897, 50.7589958 ], [ 25.3105806, 50.7575484 ], [ 25.3100787, 50.7569949 ], [ 25.3100187, 50.7569288 ], [ 25.3093904, 50.75628 ], [ 25.309138, 50.7561679 ], [ 25.3083759, 50.7559887 ], [ 25.3080854, 50.7558599 ], [ 25.3073453, 50.7556401 ], [ 25.3058578, 50.7551984 ], [ 25.3052975, 50.755032 ], [ 25.304713, 50.754883 ], [ 25.3044903, 50.7548262 ], [ 25.3044158, 50.7548093 ], [ 25.3029235, 50.754562 ], [ 25.3023747, 50.7544636 ], [ 25.3015679, 50.7543728 ], [ 25.3009038, 50.754337 ], [ 25.3008693, 50.7543363 ], [ 25.3001364, 50.7543302 ], [ 25.2977877, 50.75435 ], [ 25.2972792, 50.7543444 ], [ 25.2970679, 50.7543455 ], [ 25.295886, 50.754377 ], [ 25.2953604, 50.754513 ], [ 25.292516, 50.7551054 ], [ 25.2924293, 50.7551771 ], [ 25.2921448, 50.7556694 ], [ 25.2919746, 50.755964 ], [ 25.2903602, 50.7583784 ], [ 25.2885899, 50.7580019 ], [ 25.2882212, 50.7582802 ], [ 25.2867955, 50.7580239 ], [ 25.2862336, 50.7588687 ], [ 25.283444, 50.7591442 ], [ 25.2873662, 50.7541404 ], [ 25.287994, 50.7533345 ], [ 25.2883504, 50.7527782 ], [ 25.2842853, 50.7517858 ], [ 25.2837141, 50.7469322 ], [ 25.2807994, 50.7470269 ], [ 25.2806302, 50.7469883 ], [ 25.2730777, 50.7474243 ], [ 25.2728494, 50.7493988 ], [ 25.268052, 50.7494238 ], [ 25.2674445, 50.7478446 ], [ 25.2641132, 50.7478785 ], [ 25.2640879, 50.7487848 ], [ 25.2619629, 50.7487959 ] ], [ [ 25.3311593, 50.7756073 ], [ 25.3318949, 50.7763617 ], [ 25.332425, 50.7771254 ], [ 25.3345406, 50.7792782 ], [ 25.3355647, 50.7803403 ], [ 25.3360246, 50.7807157 ], [ 25.3366611, 50.7813053 ], [ 25.3378881, 50.7826841 ], [ 25.3379374, 50.7827395 ], [ 25.3427294, 50.7807869 ], [ 25.3403653, 50.778259 ], [ 25.3383706, 50.7758166 ], [ 25.3356059, 50.7729842 ], [ 25.3335984, 50.7740184 ], [ 25.3339739, 50.7742654 ], [ 25.3311593, 50.7756073 ] ] ] } }
]
}
