{
"type": "FeatureCollection",
"name": "malmo_se",
"crs": { "type": "name", "properties": { "name": "urn:ogc:def:crs:OGC:1.3:CRS84" } },
"features": [
{ "type": "Feature", "properties": { }, "geometry": { "type": "Polygon", "coordinates": [ [ [ 12.9097653, 55.5826004 ], [ 12.9097857, 55.5825408 ], [ 12.9098487, 55.5824761 ], [ 12.9098983, 55.582453 ], [ 12.909972, 55.582448 ], [ 12.9100234, 55.582453 ], [ 12.910066, 55.5824656 ], [ 12.9100891, 55.5825037 ], [ 12.9102073, 55.5828457 ], [ 12.9103503, 55.5830607 ], [ 12.9103644, 55.5830819 ], [ 12.910374, 55.5830963 ], [ 12.91057, 55.583263 ], [ 12.9106327, 55.583306 ], [ 12.9106569, 55.5833226 ], [ 12.9107786, 55.583406 ], [ 12.9111211, 55.5835946 ], [ 12.9111453, 55.5836063 ], [ 12.9111674, 55.583617 ], [ 12.9115282, 55.5837914 ], [ 12.9116404, 55.5838489 ], [ 12.9116552, 55.5838564 ], [ 12.9116713, 55.5838644 ], [ 12.9121598, 55.5840954 ], [ 12.9121725, 55.5841018 ], [ 12.9121901, 55.5841106 ], [ 12.9126768, 55.5843535 ], [ 12.9126912, 55.5843591 ], [ 12.9127124, 55.5843673 ], [ 12.9131806, 55.5845397 ], [ 12.9132487, 55.5845655 ], [ 12.9132641, 55.5845712 ], [ 12.913284, 55.5845787 ], [ 12.9136564, 55.5847188 ], [ 12.9138262, 55.5847811 ], [ 12.9138411, 55.5847863 ], [ 12.9138547, 55.584791 ], [ 12.9141954, 55.5848997 ], [ 12.914213, 55.5848833 ], [ 12.9144143, 55.5849521 ], [ 12.9145341, 55.584942 ], [ 12.9151573, 55.5848896 ], [ 12.9151709, 55.5848885 ], [ 12.9154201, 55.5848682 ], [ 12.915456, 55.5848692 ], [ 12.9157605, 55.5848557 ], [ 12.9157773, 55.5848544 ], [ 12.9157952, 55.5848531 ], [ 12.9161421, 55.5848202 ], [ 12.9164261, 55.5847959 ], [ 12.9164439, 55.5847947 ], [ 12.9164618, 55.5847934 ], [ 12.9169521, 55.5847526 ], [ 12.9171235, 55.5847363 ], [ 12.9171446, 55.5847345 ], [ 12.9171639, 55.5847328 ], [ 12.9174414, 55.5847023 ], [ 12.9174427, 55.5846876 ], [ 12.9183027, 55.584621 ], [ 12.918338, 55.5846183 ], [ 12.9182346, 55.584447 ], [ 12.9182509, 55.5844439 ], [ 12.9183293, 55.5844291 ], [ 12.9182105, 55.5842417 ], [ 12.9182841, 55.5842321 ], [ 12.9182797, 55.5842033 ], [ 12.9182739, 55.5841761 ], [ 12.9182238, 55.5841756 ], [ 12.9182226, 55.5841704 ], [ 12.9182212, 55.5841598 ], [ 12.9182207, 55.584156 ], [ 12.9181892, 55.5841529 ], [ 12.9181752, 55.5841413 ], [ 12.9181759, 55.5841233 ], [ 12.9181855, 55.5841001 ], [ 12.9182735, 55.5840145 ], [ 12.9183354, 55.5839685 ], [ 12.9183794, 55.58394 ], [ 12.9184357, 55.5839092 ], [ 12.9184825, 55.5838876 ], [ 12.9183885, 55.5838186 ], [ 12.9182232, 55.5838186 ], [ 12.9181773, 55.5838116 ], [ 12.9181337, 55.5838026 ], [ 12.9180906, 55.5837957 ], [ 12.9180624, 55.5837978 ], [ 12.9177536, 55.5837326 ], [ 12.9177236, 55.5837246 ], [ 12.9176564, 55.5837105 ], [ 12.9176043, 55.5836984 ], [ 12.9175963, 55.5836966 ], [ 12.9175889, 55.583695 ], [ 12.9175945, 55.5836768 ], [ 12.9174756, 55.5835844 ], [ 12.9173751, 55.5834885 ], [ 12.9173595, 55.5834719 ], [ 12.9173502, 55.5834626 ], [ 12.9173387, 55.5834512 ], [ 12.9173086, 55.5834213 ], [ 12.9171853, 55.5832864 ], [ 12.916999, 55.5830959 ], [ 12.916938, 55.5830505 ], [ 12.9169259, 55.5830386 ], [ 12.9169168, 55.5830297 ], [ 12.9168561, 55.58297 ], [ 12.9167896, 55.5829083 ], [ 12.9166805, 55.5828005 ], [ 12.9165137, 55.5826294 ], [ 12.916501, 55.582618 ], [ 12.9164902, 55.5826082 ], [ 12.9164755, 55.5825949 ], [ 12.9164489, 55.5825794 ], [ 12.9164241, 55.5825674 ], [ 12.916393, 55.5825423 ], [ 12.9163895, 55.5825177 ], [ 12.916401, 55.5825072 ], [ 12.9163842, 55.5824911 ], [ 12.9163263, 55.5824393 ], [ 12.9162982, 55.5824254 ], [ 12.9162688, 55.5824109 ], [ 12.9162493, 55.5824054 ], [ 12.9162342, 55.5823949 ], [ 12.9162236, 55.5823713 ], [ 12.9162094, 55.5823573 ], [ 12.9161855, 55.5823467 ], [ 12.9161597, 55.5823407 ], [ 12.91615, 55.5823337 ], [ 12.9161393, 55.5823151 ], [ 12.9160994, 55.5823287 ], [ 12.9160172, 55.5822587 ], [ 12.9159907, 55.5822379 ], [ 12.915501, 55.5818546 ], [ 12.9154769, 55.5818357 ], [ 12.9150906, 55.5818881 ], [ 12.9144724, 55.5819718 ], [ 12.914139, 55.582017 ], [ 12.914044, 55.5820646 ], [ 12.9140355, 55.5820689 ], [ 12.9140093, 55.5821186 ], [ 12.9139854, 55.5821406 ], [ 12.9139219, 55.5821582 ], [ 12.9138687, 55.5821738 ], [ 12.913849, 55.5821757 ], [ 12.9138318, 55.5821773 ], [ 12.9137591, 55.5821843 ], [ 12.9136877, 55.582176 ], [ 12.913619, 55.5821554 ], [ 12.9135286, 55.582118 ], [ 12.9135131, 55.5821116 ], [ 12.9134997, 55.582106 ], [ 12.9129006, 55.5821805 ], [ 12.9125534, 55.5822385 ], [ 12.9124998, 55.5822549 ], [ 12.9124338, 55.5822751 ], [ 12.9118166, 55.5825879 ], [ 12.9115954, 55.5826621 ], [ 12.9115138, 55.5826747 ], [ 12.9114482, 55.5826774 ], [ 12.9114122, 55.5826742 ], [ 12.9113883, 55.5826656 ], [ 12.9113657, 55.5826468 ], [ 12.9113497, 55.582629 ], [ 12.9113439, 55.582606 ], [ 12.9113639, 55.5825759 ], [ 12.9115857, 55.5824866 ], [ 12.9117587, 55.5824139 ], [ 12.912039, 55.5822695 ], [ 12.9122102, 55.5821787 ], [ 12.912306, 55.5821381 ], [ 12.9124462, 55.582098 ], [ 12.9142912, 55.5818643 ], [ 12.9147723, 55.5817916 ], [ 12.9155458, 55.5816818 ], [ 12.9165172, 55.581567 ], [ 12.9165882, 55.5815612 ], [ 12.9166083, 55.5815589 ], [ 12.9166734, 55.5815535 ], [ 12.9171578, 55.5814873 ], [ 12.9175627, 55.58143 ], [ 12.9176333, 55.5814152 ], [ 12.9176368, 55.5814429 ], [ 12.9176257, 55.5814734 ], [ 12.9176398, 55.5815154 ], [ 12.9177832, 55.5815001 ], [ 12.9177672, 55.5814462 ], [ 12.9177763, 55.5814257 ], [ 12.9177187, 55.5813473 ], [ 12.9176536, 55.5812909 ], [ 12.9175441, 55.5812661 ], [ 12.9171564, 55.581305 ], [ 12.9171314, 55.5812661 ], [ 12.9174462, 55.5812199 ], [ 12.9176096, 55.5812123 ], [ 12.9176731, 55.5812405 ], [ 12.9178275, 55.5811969 ], [ 12.9178592, 55.5811686 ], [ 12.9179395, 55.5811647 ], [ 12.9180179, 55.5811401 ], [ 12.9182258, 55.5810947 ], [ 12.9182446, 55.581024 ], [ 12.9179726, 55.5807341 ], [ 12.917441, 55.5802339 ], [ 12.9170407, 55.5798945 ], [ 12.9164466, 55.5794544 ], [ 12.9158243, 55.5789541 ], [ 12.9153114, 55.5786695 ], [ 12.9151363, 55.5786501 ], [ 12.915005, 55.5785794 ], [ 12.9150706, 55.5785617 ], [ 12.9151551, 55.5786006 ], [ 12.9152802, 55.5785652 ], [ 12.9153177, 55.5785352 ], [ 12.9152082, 55.5784503 ], [ 12.9150769, 55.5784839 ], [ 12.9150863, 55.5785228 ], [ 12.9149487, 55.578544 ], [ 12.9147798, 55.5784115 ], [ 12.9146485, 55.5784238 ], [ 12.9142076, 55.5780137 ], [ 12.9139168, 55.5777928 ], [ 12.913676, 55.5776779 ], [ 12.9133977, 55.5775824 ], [ 12.9146898, 55.5774315 ], [ 12.9130842, 55.5748872 ], [ 12.9109073, 55.57214 ], [ 12.9110724, 55.5698974 ], [ 12.9144037, 55.5677295 ], [ 12.9217672, 55.5671354 ], [ 12.9221546, 55.5701588 ], [ 12.9261016, 55.5717214 ], [ 12.929449, 55.5717214 ], [ 12.9314661, 55.5708236 ], [ 12.9351568, 55.5708479 ], [ 12.9403495, 55.5706781 ], [ 12.9443522, 55.5702301 ], [ 12.9447645, 55.5686459 ], [ 12.9428631, 55.5633332 ], [ 12.9578523, 55.5507004 ], [ 12.9813765, 55.5479606 ], [ 12.9964827, 55.5484461 ], [ 13.0469942, 55.5504125 ], [ 13.0551052, 55.5506553 ], [ 13.0648469, 55.553277 ], [ 13.0744171, 55.5589569 ], [ 13.080554, 55.5682031 ], [ 13.0704259, 55.5709935 ], [ 13.0733012, 55.5728132 ], [ 13.08609, 55.5754335 ], [ 13.0863046, 55.5826626 ], [ 13.087635, 55.5840937 ], [ 13.0918836, 55.5845303 ], [ 13.1112814, 55.5854277 ], [ 13.1123113, 55.5904481 ], [ 13.1036424, 55.5915394 ], [ 13.0992651, 55.5906907 ], [ 13.1046218, 55.5951073 ], [ 13.1109529, 55.5962824 ], [ 13.1117041, 55.6004497 ], [ 13.1170106, 55.6034933 ], [ 13.1295052, 55.618595 ], [ 13.0861115, 55.6204965 ], [ 13.0827861, 55.6219614 ], [ 13.0796539, 55.6211326 ], [ 13.0772585, 55.6139857 ], [ 13.0706505, 55.6117852 ], [ 13.0674169, 55.6134786 ], [ 13.0621913, 55.620101 ], [ 13.0620345, 55.6223438 ], [ 13.0658416, 55.6246754 ], [ 13.0767223, 55.6280631 ], [ 13.0897354, 55.6350912 ], [ 13.0951881, 55.6370079 ], [ 13.0933856, 55.6433538 ], [ 13.0927883, 55.6503655 ], [ 13.0915332, 55.6500362 ], [ 13.0911488, 55.6499372 ], [ 13.0906463, 55.6498317 ], [ 13.089397, 55.6495466 ], [ 13.0875765, 55.6491674 ], [ 13.0861698, 55.6488701 ], [ 13.0851064, 55.6486946 ], [ 13.0813344, 55.6478862 ], [ 13.0808611, 55.6483531 ], [ 13.08076, 55.6485966 ], [ 13.0805087, 55.648826 ], [ 13.0802399, 55.6489956 ], [ 13.0799982, 55.6490836 ], [ 13.079765, 55.6491286 ], [ 13.079536, 55.6491481 ], [ 13.0792743, 55.649136 ], [ 13.0789144, 55.6490468 ], [ 13.0787122, 55.6489308 ], [ 13.0786074, 55.648857 ], [ 13.0782166, 55.6482077 ], [ 13.0778943, 55.6478792 ], [ 13.0775392, 55.6476694 ], [ 13.077238, 55.6475321 ], [ 13.0764517, 55.6472825 ], [ 13.0747796, 55.6468744 ], [ 13.0721895, 55.6462547 ], [ 13.0720834, 55.6462015 ], [ 13.0720366, 55.6461529 ], [ 13.0718766, 55.6458585 ], [ 13.0705402, 55.6455489 ], [ 13.0700827, 55.6454708 ], [ 13.0688855, 55.6452044 ], [ 13.0683357, 55.6450796 ], [ 13.0677262, 55.6448954 ], [ 13.06757, 55.6448272 ], [ 13.0671312, 55.6447697 ], [ 13.0659672, 55.6444122 ], [ 13.0655318, 55.6442576 ], [ 13.0643828, 55.643763 ], [ 13.0639986, 55.6435657 ], [ 13.063186, 55.6431106 ], [ 13.061963, 55.6422189 ], [ 13.0577013, 55.6388701 ], [ 13.0550952, 55.6307246 ], [ 13.0520811, 55.6284106 ], [ 13.0489096, 55.6283393 ], [ 13.0472609, 55.6292007 ], [ 13.0470401, 55.6323407 ], [ 13.0436157, 55.6358579 ], [ 13.0398746, 55.6378173 ], [ 13.0398209, 55.6377319 ], [ 13.0397264, 55.6375915 ], [ 13.0395462, 55.6374849 ], [ 13.0364477, 55.6366274 ], [ 13.0362417, 55.6366177 ], [ 13.0359327, 55.6365208 ], [ 13.0356237, 55.6365063 ], [ 13.0353834, 55.6364481 ], [ 13.0351774, 55.6364772 ], [ 13.0350315, 55.6365741 ], [ 13.0349028, 55.6367001 ], [ 13.0346882, 55.6368454 ], [ 13.0343723, 55.6369678 ], [ 13.0341904, 55.6370537 ], [ 13.0307485, 55.6382406 ], [ 13.030328, 55.6384053 ], [ 13.0299332, 55.638541 ], [ 13.0294611, 55.6386427 ], [ 13.0289289, 55.638725 ], [ 13.0281307, 55.6388026 ], [ 13.027487, 55.6387638 ], [ 13.0266458, 55.6386669 ], [ 13.0256845, 55.638633 ], [ 13.024543, 55.6384877 ], [ 13.0237877, 55.6384441 ], [ 13.0231611, 55.638415 ], [ 13.0217964, 55.6382455 ], [ 13.0216162, 55.6381922 ], [ 13.0214071, 55.6380924 ], [ 13.0211637, 55.6379411 ], [ 13.0211531, 55.6378614 ], [ 13.021199, 55.6377818 ], [ 13.0212978, 55.6377579 ], [ 13.0214107, 55.6377758 ], [ 13.0215483, 55.6378574 ], [ 13.0217176, 55.6378754 ], [ 13.021827, 55.6377101 ], [ 13.0220246, 55.6376503 ], [ 13.0224573, 55.6370682 ], [ 13.0224745, 55.636981 ], [ 13.0224144, 55.6368357 ], [ 13.0222513, 55.6366613 ], [ 13.0222856, 55.6365935 ], [ 13.0224058, 55.6365935 ], [ 13.0228092, 55.6369277 ], [ 13.0229551, 55.6369762 ], [ 13.0241785, 55.6370488 ], [ 13.0243542, 55.6369423 ], [ 13.024852, 55.6369762 ], [ 13.0249464, 55.6370973 ], [ 13.0279513, 55.6373473 ], [ 13.0280061, 55.6373476 ], [ 13.028056, 55.6373321 ], [ 13.0281137, 55.6372966 ], [ 13.0281741, 55.6372387 ], [ 13.0282043, 55.6371618 ], [ 13.0283078, 55.6368528 ], [ 13.0274583, 55.6367803 ], [ 13.0274429, 55.6368473 ], [ 13.0270922, 55.636826 ], [ 13.027103, 55.636741 ], [ 13.0266951, 55.6367273 ], [ 13.0266899, 55.6367305 ], [ 13.0266732, 55.6367362 ], [ 13.0266566, 55.6367378 ], [ 13.0266365, 55.6367352 ], [ 13.0266227, 55.6367298 ], [ 13.026613, 55.636722 ], [ 13.0266088, 55.6367137 ], [ 13.0266097, 55.6367042 ], [ 13.0266163, 55.6366954 ], [ 13.0266279, 55.6366885 ], [ 13.0266429, 55.6366842 ], [ 13.0266519, 55.6366832 ], [ 13.0266687, 55.6366839 ], [ 13.0266885, 55.6366897 ], [ 13.0266992, 55.636697 ], [ 13.026701, 55.6367025 ], [ 13.0271082, 55.6367235 ], [ 13.0271231, 55.6366607 ], [ 13.0274784, 55.6366807 ], [ 13.0274624, 55.6367523 ], [ 13.0283125, 55.6367996 ], [ 13.0284168, 55.6360489 ], [ 13.0276515, 55.6360574 ], [ 13.0276541, 55.6361286 ], [ 13.0273067, 55.6361332 ], [ 13.0272955, 55.6360609 ], [ 13.0268743, 55.6360744 ], [ 13.0268556, 55.6360853 ], [ 13.0268288, 55.6360889 ], [ 13.026804, 55.6360731 ], [ 13.0268098, 55.6360532 ], [ 13.0268413, 55.6360486 ], [ 13.0268736, 55.6360556 ], [ 13.0272929, 55.636042 ], [ 13.0272867, 55.6359628 ], [ 13.0276474, 55.6359529 ], [ 13.0276528, 55.6360339 ], [ 13.0284191, 55.6359994 ], [ 13.0284041, 55.6359323 ], [ 13.0283554, 55.6358478 ], [ 13.0282766, 55.6357796 ], [ 13.0281994, 55.6356681 ], [ 13.0280706, 55.6355422 ], [ 13.0277702, 55.6354986 ], [ 13.014724, 55.6344957 ], [ 13.0145249, 55.6345227 ], [ 13.0143721, 55.6345926 ], [ 13.0143034, 55.6347137 ], [ 13.0140459, 55.635736 ], [ 13.0140716, 55.6359007 ], [ 13.0141575, 55.6360218 ], [ 13.0142519, 55.636109 ], [ 13.0143463, 55.6361623 ], [ 13.0143721, 55.6362398 ], [ 13.0139257, 55.6380226 ], [ 13.0136425, 55.6380662 ], [ 13.0134708, 55.6381873 ], [ 13.0133421, 55.6384974 ], [ 13.0131618, 55.6386233 ], [ 13.0131103, 55.6387202 ], [ 13.0131018, 55.6388462 ], [ 13.0129558, 55.6389673 ], [ 13.0129558, 55.6390787 ], [ 13.0129988, 55.6391078 ], [ 13.0129644, 55.6391562 ], [ 13.0128786, 55.6391562 ], [ 13.0128786, 55.6391126 ], [ 13.0128185, 55.6390738 ], [ 13.0126898, 55.6390109 ], [ 13.0125181, 55.638943 ], [ 13.0117513, 55.6388464 ], [ 13.0102236, 55.6387738 ], [ 13.0085842, 55.6386527 ], [ 13.0065247, 55.6384466 ], [ 13.0053398, 55.6383281 ], [ 13.0040867, 55.6382409 ], [ 13.0032713, 55.6381634 ], [ 13.0025846, 55.6381537 ], [ 13.0019323, 55.6380859 ], [ 13.0010568, 55.637989 ], [ 13.0003616, 55.6379648 ], [ 12.9995205, 55.6378921 ], [ 12.9985592, 55.6377613 ], [ 12.9975979, 55.6375723 ], [ 12.9970743, 55.6374319 ], [ 12.9966795, 55.6373253 ], [ 12.9964306, 55.6371073 ], [ 12.9957697, 55.6367924 ], [ 12.9949972, 55.6363612 ], [ 12.9943191, 55.6359979 ], [ 12.9936411, 55.6355618 ], [ 12.9930059, 55.6352518 ], [ 12.9925682, 55.6350628 ], [ 12.9922678, 55.63484 ], [ 12.9915554, 55.634433 ], [ 12.99107, 55.63409 ], [ 12.9905855, 55.6335754 ], [ 12.9901478, 55.6328051 ], [ 12.9902593, 55.6320783 ], [ 12.9904825, 55.6313418 ], [ 12.9906627, 55.6307652 ], [ 12.9906456, 55.6303631 ], [ 12.9907919, 55.6297341 ], [ 12.9908344, 55.6295248 ], [ 12.9908258, 55.6292098 ], [ 12.9907657, 55.6290451 ], [ 12.9906198, 55.6289336 ], [ 12.990328, 55.6288513 ], [ 12.989813, 55.6287059 ], [ 12.989135, 55.6284782 ], [ 12.988911, 55.628426 ], [ 12.9890277, 55.6280749 ], [ 12.9891858, 55.6279865 ], [ 12.9893349, 55.6278476 ], [ 12.9895847, 55.6276992 ], [ 12.9894258, 55.6275878 ], [ 12.98996, 55.6273223 ], [ 12.9900069, 55.6272989 ], [ 12.9900537, 55.6272757 ], [ 12.9901917, 55.627206 ], [ 12.9903752, 55.6271148 ], [ 12.9905271, 55.6270404 ], [ 12.9905738, 55.6270172 ], [ 12.9906204, 55.626994 ], [ 12.9914184, 55.6265974 ], [ 12.9916657, 55.6265262 ], [ 12.9919131, 55.626455 ], [ 12.990341, 55.6247775 ], [ 12.9903118, 55.6246618 ], [ 12.9903426, 55.6245558 ], [ 12.9904277, 55.6244664 ], [ 12.9905609, 55.6243935 ], [ 12.9907365, 55.6243454 ], [ 12.9909837, 55.6243488 ], [ 12.995671, 55.6247068 ], [ 12.9956351, 55.6248426 ], [ 12.9957285, 55.6248705 ], [ 12.995679, 55.6250628 ], [ 12.9957329, 55.6251377 ], [ 12.995907, 55.6251539 ], [ 12.9962761, 55.6251539 ], [ 12.9963119, 55.6250741 ], [ 12.9967052, 55.6251055 ], [ 12.9967432, 55.6251202 ], [ 12.9967393, 55.6252255 ], [ 12.9966654, 55.6254887 ], [ 12.9966421, 55.6255853 ], [ 12.9965916, 55.6255962 ], [ 12.9965679, 55.6257209 ], [ 12.9966366, 55.6257645 ], [ 12.9977867, 55.625842 ], [ 12.9980099, 55.625842 ], [ 12.9980528, 55.6258178 ], [ 12.99813, 55.625716 ], [ 12.9982158, 55.6253865 ], [ 12.9982244, 55.6252218 ], [ 12.998748, 55.6252508 ], [ 12.9993254, 55.6252158 ], [ 12.9997865, 55.6251878 ], [ 12.9997865, 55.6251345 ], [ 13.0011942, 55.6252314 ], [ 13.0011942, 55.6253429 ], [ 13.0016233, 55.6255174 ], [ 13.0028335, 55.6256191 ], [ 13.0033657, 55.6256482 ], [ 13.0037348, 55.625687 ], [ 13.0038549, 55.6256579 ], [ 13.0039064, 55.6254883 ], [ 13.0071079, 55.6257354 ], [ 13.0070907, 55.6258081 ], [ 13.0085928, 55.6260359 ], [ 13.0086014, 55.6259729 ], [ 13.0107557, 55.6261328 ], [ 13.0107471, 55.6262055 ], [ 13.0109188, 55.6262249 ], [ 13.0110475, 55.6261861 ], [ 13.011202, 55.6261231 ], [ 13.0113222, 55.6260407 ], [ 13.0114681, 55.6260165 ], [ 13.0115282, 55.6259632 ], [ 13.0116054, 55.6258517 ], [ 13.0122921, 55.6259002 ], [ 13.0127727, 55.6259487 ], [ 13.0143469, 55.6260884 ], [ 13.0159399, 55.6262297 ], [ 13.0165836, 55.626283 ], [ 13.0182283, 55.6264114 ], [ 13.0183592, 55.626058 ], [ 13.0185883, 55.6256776 ], [ 13.0186976, 55.6255755 ], [ 13.0187767, 55.6253013 ], [ 13.0189338, 55.6251586 ], [ 13.0191378, 55.625016 ], [ 13.0193449, 55.6249197 ], [ 13.0194349, 55.6248877 ], [ 13.0195215, 55.6248691 ], [ 13.0195219, 55.6248341 ], [ 13.0195362, 55.6248147 ], [ 13.01957, 55.6248048 ], [ 13.0196079, 55.6247991 ], [ 13.0196503, 55.624808 ], [ 13.0196763, 55.624827 ], [ 13.0196839, 55.6248434 ], [ 13.0196831, 55.6248627 ], [ 13.0201713, 55.6252218 ], [ 13.0206177, 55.6255077 ], [ 13.0206005, 55.6255901 ], [ 13.0198108, 55.6259535 ], [ 13.0193989, 55.6260843 ], [ 13.0188839, 55.6263315 ], [ 13.0183431, 55.626598 ], [ 13.018331, 55.6266884 ], [ 13.0183657, 55.626727 ], [ 13.0184118, 55.6267531 ], [ 13.0185577, 55.6268112 ], [ 13.0196735, 55.6268839 ], [ 13.0198538, 55.6268597 ], [ 13.0200168, 55.6268015 ], [ 13.0216219, 55.6269178 ], [ 13.0217249, 55.6268984 ], [ 13.0218021, 55.6268209 ], [ 13.0218642, 55.6263761 ], [ 13.0220253, 55.6258517 ], [ 13.0221626, 55.6257548 ], [ 13.0224973, 55.6255367 ], [ 13.0225231, 55.6254495 ], [ 13.0227806, 55.6253138 ], [ 13.0218794, 55.6246063 ], [ 13.0229437, 55.6244076 ], [ 13.0230467, 55.6245142 ], [ 13.0252525, 55.6241072 ], [ 13.0255958, 55.6240781 ], [ 13.0259048, 55.6240926 ], [ 13.0267889, 55.624175 ], [ 13.0274154, 55.6242041 ], [ 13.0275442, 55.6241556 ], [ 13.0277502, 55.6241459 ], [ 13.0303938, 55.6243446 ], [ 13.0304882, 55.6243785 ], [ 13.0305055, 55.6244508 ], [ 13.0307028, 55.6244706 ], [ 13.0314237, 55.6245433 ], [ 13.0320246, 55.6245724 ], [ 13.0323765, 55.6245675 ], [ 13.0327026, 55.6245191 ], [ 13.032737, 55.6244318 ], [ 13.0332605, 55.6244706 ], [ 13.0332605, 55.6245578 ], [ 13.0347282, 55.6246645 ], [ 13.0348055, 55.6247081 ], [ 13.0349342, 55.624742 ], [ 13.0354921, 55.6247905 ], [ 13.0358869, 55.6248535 ], [ 13.0361187, 55.6248825 ], [ 13.0362818, 55.6248728 ], [ 13.0364191, 55.6248535 ], [ 13.0365393, 55.624805 ], [ 13.0366852, 55.6248147 ], [ 13.0367023, 55.6248438 ], [ 13.036771, 55.624868 ], [ 13.036874, 55.624805 ], [ 13.0369169, 55.6247032 ], [ 13.0369942, 55.6242671 ], [ 13.0352175, 55.6241362 ], [ 13.0351574, 55.6240975 ], [ 13.035166, 55.6240538 ], [ 13.0352518, 55.6240296 ], [ 13.036977, 55.6241508 ], [ 13.0371143, 55.6238115 ], [ 13.0371143, 55.6236031 ], [ 13.0240595, 55.6225903 ], [ 13.0239565, 55.6225127 ], [ 13.0238449, 55.622474 ], [ 13.0237419, 55.6224207 ], [ 13.0236818, 55.6223431 ], [ 13.0236561, 55.6222219 ], [ 13.0236389, 55.622125 ], [ 13.0235702, 55.6219942 ], [ 13.0234157, 55.6218972 ], [ 13.0247972, 55.6160885 ], [ 13.0229008, 55.6159502 ], [ 13.0216734, 55.6212672 ], [ 13.0185087, 55.6239813 ], [ 13.0187411, 55.6241558 ], [ 13.0187715, 55.6241561 ], [ 13.0188066, 55.6241717 ], [ 13.0188216, 55.6241986 ], [ 13.0188144, 55.6242213 ], [ 13.0187956, 55.6242345 ], [ 13.0187659, 55.6242461 ], [ 13.018724, 55.6242471 ], [ 13.0186848, 55.6242392 ], [ 13.0186595, 55.6242235 ], [ 13.0186519, 55.6241985 ], [ 13.0185921, 55.6241895 ], [ 13.0182924, 55.6239776 ], [ 13.0180707, 55.6239249 ], [ 13.0178968, 55.6239488 ], [ 13.0169355, 55.6240651 ], [ 13.0133048, 55.6245012 ], [ 13.0130044, 55.6245158 ], [ 13.0129014, 55.6244576 ], [ 13.0128156, 55.6242492 ], [ 13.0126783, 55.6240311 ], [ 13.0124894, 55.6239536 ], [ 13.0122749, 55.6239633 ], [ 13.011923, 55.6239633 ], [ 13.0114595, 55.6238858 ], [ 13.0108157, 55.6238421 ], [ 13.0106183, 55.6238615 ], [ 13.0101377, 55.6237791 ], [ 13.0094854, 55.6237161 ], [ 13.0091249, 55.6237404 ], [ 13.0088588, 55.6236919 ], [ 13.0083009, 55.6236434 ], [ 13.0079747, 55.6236677 ], [ 13.0076829, 55.6236095 ], [ 13.0069104, 55.6235611 ], [ 13.0066186, 55.6235804 ], [ 13.0064298, 55.6235077 ], [ 13.0061122, 55.6234447 ], [ 13.0048505, 55.6233381 ], [ 13.0041381, 55.62328 ], [ 13.0036575, 55.6232557 ], [ 13.0034086, 55.6232606 ], [ 13.0031511, 55.6232024 ], [ 13.0022928, 55.6231346 ], [ 13.0019642, 55.6231573 ], [ 13.0019127, 55.6234084 ], [ 12.998892, 55.6231953 ], [ 12.9988289, 55.6234582 ], [ 12.9937139, 55.6230777 ], [ 12.9937612, 55.622864 ], [ 12.9932121, 55.6228009 ], [ 12.992242, 55.622742 ], [ 12.9914695, 55.6226548 ], [ 12.9913493, 55.6226306 ], [ 12.991315, 55.6225676 ], [ 12.9913579, 55.6222477 ], [ 12.9914523, 55.6219133 ], [ 12.991727, 55.621545 ], [ 12.9919072, 55.6213947 ], [ 12.9923793, 55.6211282 ], [ 12.9932376, 55.6205611 ], [ 12.9941096, 55.6199744 ], [ 12.9945216, 55.6197096 ], [ 12.9950585, 55.6191329 ], [ 12.9969283, 55.6185933 ], [ 12.9969112, 55.6185352 ], [ 12.997203, 55.6185352 ], [ 12.9984866, 55.618631 ], [ 12.9980766, 55.6185075 ], [ 12.9981191, 55.6184636 ], [ 12.9986927, 55.618631 ], [ 13.0063765, 55.6172361 ], [ 13.0061723, 55.6168387 ], [ 13.0077064, 55.6166414 ], [ 13.0079417, 55.6157569 ], [ 13.0056271, 55.6155947 ], [ 13.0054687, 55.615583 ], [ 12.9963986, 55.6172054 ], [ 12.9963889, 55.6172423 ], [ 12.9964669, 55.6173797 ], [ 12.9963567, 55.6173972 ], [ 12.996338, 55.6175299 ], [ 12.9963163, 55.6175323 ], [ 12.9963226, 55.6175492 ], [ 12.996317, 55.6175578 ], [ 12.9963098, 55.6175648 ], [ 12.9962914, 55.6175748 ], [ 12.9962697, 55.617578 ], [ 12.996245, 55.6175779 ], [ 12.9960658, 55.6176362 ], [ 12.9958808, 55.6176855 ], [ 12.9957204, 55.6177082 ], [ 12.995537, 55.6177233 ], [ 12.9954562, 55.6177263 ], [ 12.9953593, 55.617727 ], [ 12.995239, 55.6177223 ], [ 12.995063, 55.6177054 ], [ 12.9949587, 55.6176888 ], [ 12.9948569, 55.6176695 ], [ 12.9947616, 55.6176483 ], [ 12.9946644, 55.6176222 ], [ 12.994558, 55.6175877 ], [ 12.9944559, 55.6175465 ], [ 12.9943619, 55.6175055 ], [ 12.9942709, 55.6174597 ], [ 12.9941127, 55.6173598 ], [ 12.9939893, 55.6172598 ], [ 12.993882, 55.6171402 ], [ 12.9938154, 55.6170344 ], [ 12.9937661, 55.6169088 ], [ 12.9937594, 55.6168536 ], [ 12.9937671, 55.6167876 ], [ 12.9937882, 55.6167233 ], [ 12.9938154, 55.6166626 ], [ 12.9938608, 55.6166075 ], [ 12.9939624, 55.6165076 ], [ 12.9940219, 55.6164691 ], [ 12.994091, 55.6164384 ], [ 12.994157, 55.6164269 ], [ 12.9941657, 55.616455 ], [ 12.9962659, 55.6162502 ], [ 12.9966279, 55.615879 ], [ 13.0016919, 55.6149774 ], [ 13.0033742, 55.6145412 ], [ 13.0025685, 55.613536 ], [ 13.0001256, 55.6141612 ], [ 13.0000226, 55.6141431 ], [ 12.999831, 55.6141886 ], [ 12.9997587, 55.6141022 ], [ 12.9999044, 55.6140632 ], [ 12.9998951, 55.6140501 ], [ 12.999848, 55.6139835 ], [ 12.9997576, 55.6140066 ], [ 12.9997182, 55.6139975 ], [ 12.9996251, 55.6139823 ], [ 12.9996152, 55.6139425 ], [ 12.9997093, 55.6138577 ], [ 13.0001041, 55.6135668 ], [ 12.9996663, 55.6133002 ], [ 12.9976064, 55.6142697 ], [ 12.9975292, 55.6142697 ], [ 12.9974964, 55.6142347 ], [ 12.9974519, 55.6141873 ], [ 12.9988047, 55.6135497 ], [ 12.9986796, 55.6134667 ], [ 12.9985334, 55.6134941 ], [ 12.9983531, 55.6134457 ], [ 12.9981906, 55.613522 ], [ 12.9978108, 55.6134127 ], [ 12.9976719, 55.6135523 ], [ 12.9974542, 55.6134827 ], [ 12.9963175, 55.614656 ], [ 12.9962992, 55.6147189 ], [ 12.9961875, 55.6147482 ], [ 12.9961037, 55.6147591 ], [ 12.9959829, 55.6147637 ], [ 12.9958674, 55.6147571 ], [ 12.9955903, 55.6146918 ], [ 12.995507, 55.6146687 ], [ 12.9954222, 55.6146336 ], [ 12.9953748, 55.6145946 ], [ 12.9953568, 55.6145504 ], [ 12.9953545, 55.614513 ], [ 12.9953709, 55.6144756 ], [ 12.9956314, 55.614168 ], [ 12.9955859, 55.613907 ], [ 12.9956127, 55.6138794 ], [ 12.995825, 55.6139454 ], [ 12.9965912, 55.6130215 ], [ 12.9968333, 55.6124526 ], [ 12.9968778, 55.6122736 ], [ 12.9957265, 55.6121873 ], [ 12.9956788, 55.6123649 ], [ 12.9958935, 55.6124508 ], [ 12.9959387, 55.6124435 ], [ 12.9959762, 55.6124449 ], [ 12.9960016, 55.612451 ], [ 12.9960299, 55.6124656 ], [ 12.9960484, 55.6124834 ], [ 12.9960606, 55.6125071 ], [ 12.9960622, 55.6125285 ], [ 12.9960561, 55.6125511 ], [ 12.9960234, 55.6125784 ], [ 12.9959766, 55.6125962 ], [ 12.9959343, 55.612606 ], [ 12.9958996, 55.6126078 ], [ 12.9958697, 55.6126046 ], [ 12.9958386, 55.6125989 ], [ 12.9958112, 55.6125907 ], [ 12.9957898, 55.6125759 ], [ 12.9957797, 55.6125659 ], [ 12.9957754, 55.6125409 ], [ 12.9957728, 55.6125338 ], [ 12.9957494, 55.6125274 ], [ 12.9956066, 55.6125005 ], [ 12.9955493, 55.6124873 ], [ 12.9954638, 55.6124763 ], [ 12.9953911, 55.6124786 ], [ 12.9952628, 55.6124868 ], [ 12.9951063, 55.6125123 ], [ 12.9949239, 55.6125538 ], [ 12.9945042, 55.6126732 ], [ 12.994409, 55.6126979 ], [ 12.9943315, 55.6127033 ], [ 12.9942433, 55.6127162 ], [ 12.9941596, 55.6127293 ], [ 12.9941055, 55.6127243 ], [ 12.9939869, 55.6126345 ], [ 12.9935293, 55.6127106 ], [ 12.9936084, 55.6128335 ], [ 12.9936129, 55.6128526 ], [ 12.9936057, 55.6128756 ], [ 12.9935903, 55.6128953 ], [ 12.9935655, 55.6129137 ], [ 12.9934701, 55.61299 ], [ 12.9930334, 55.6133284 ], [ 12.9919167, 55.6142067 ], [ 12.9917635, 55.6145484 ], [ 12.9916299, 55.6148553 ], [ 12.9910728, 55.6160744 ], [ 12.9915596, 55.6163764 ], [ 12.9916105, 55.6163632 ], [ 12.991679, 55.6163699 ], [ 12.9917145, 55.6163893 ], [ 12.9917305, 55.6164117 ], [ 12.9917271, 55.6164413 ], [ 12.9917021, 55.6164619 ], [ 12.9916628, 55.6164751 ], [ 12.9916156, 55.6164801 ], [ 12.9915737, 55.6164779 ], [ 12.991539, 55.6164616 ], [ 12.9915225, 55.6164397 ], [ 12.991513, 55.6164141 ], [ 12.9910498, 55.616126 ], [ 12.9901885, 55.6180558 ], [ 12.9896863, 55.6185063 ], [ 12.9896271, 55.6185594 ], [ 12.989317, 55.6188418 ], [ 12.9891215, 55.6190243 ], [ 12.9890552, 55.6190541 ], [ 12.9889877, 55.6190561 ], [ 12.9888697, 55.6190381 ], [ 12.9888017, 55.6190277 ], [ 12.988603, 55.6189984 ], [ 12.9885558, 55.6189776 ], [ 12.9885305, 55.6189464 ], [ 12.9885289, 55.6189101 ], [ 12.9885419, 55.6188578 ], [ 12.9885556, 55.6188031 ], [ 12.9874967, 55.6186506 ], [ 12.9874835, 55.6186584 ], [ 12.9874688, 55.6186639 ], [ 12.9874498, 55.6186679 ], [ 12.9874305, 55.6186692 ], [ 12.9874132, 55.6186682 ], [ 12.9873974, 55.6186654 ], [ 12.9873814, 55.6186603 ], [ 12.9873692, 55.6186544 ], [ 12.98736, 55.6186477 ], [ 12.9873532, 55.6186405 ], [ 12.9873481, 55.6186311 ], [ 12.9873465, 55.6186225 ], [ 12.9873472, 55.6186156 ], [ 12.9873499, 55.6186085 ], [ 12.9873549, 55.6186012 ], [ 12.9873617, 55.6185947 ], [ 12.9873771, 55.6185854 ], [ 12.9873878, 55.6185812 ], [ 12.9873994, 55.618578 ], [ 12.9874273, 55.6185747 ], [ 12.9874451, 55.6185754 ], [ 12.9874616, 55.6185781 ], [ 12.9874834, 55.6185855 ], [ 12.9875014, 55.6185972 ], [ 12.9875097, 55.6186072 ], [ 12.9875137, 55.6186194 ], [ 12.9884581, 55.6187539 ], [ 12.9885739, 55.6187544 ], [ 12.9887416, 55.6183715 ], [ 12.9894316, 55.6167961 ], [ 12.9900407, 55.6154055 ], [ 12.9901086, 55.6152506 ], [ 12.9901823, 55.6150822 ], [ 12.9902795, 55.6148453 ], [ 12.9903087, 55.6147937 ], [ 12.9900515, 55.6147549 ], [ 12.9891843, 55.614624 ], [ 12.9889936, 55.6150462 ], [ 12.9890794, 55.6150597 ], [ 12.9892813, 55.61509 ], [ 12.9888972, 55.6159542 ], [ 12.9887712, 55.616228 ], [ 12.9886613, 55.6164736 ], [ 12.9885575, 55.6167055 ], [ 12.9884559, 55.6169325 ], [ 12.9883598, 55.6171473 ], [ 12.9881, 55.6177278 ], [ 12.987896, 55.6181847 ], [ 12.9878552, 55.618281 ], [ 12.9874993, 55.6183075 ], [ 12.9874706, 55.6183494 ], [ 12.987425, 55.618343 ], [ 12.98741, 55.6183068 ], [ 12.987396, 55.6182698 ], [ 12.9866959, 55.6182223 ], [ 12.9865029, 55.6186587 ], [ 12.9864555, 55.6186803 ], [ 12.9863862, 55.6186762 ], [ 12.9850558, 55.6185114 ], [ 12.9850224, 55.618605 ], [ 12.9848412, 55.6191124 ], [ 12.984745, 55.6193712 ], [ 12.984661, 55.6195971 ], [ 12.9846353, 55.6196892 ], [ 12.9845323, 55.6200333 ], [ 12.984387, 55.6205123 ], [ 12.9843143, 55.6207834 ], [ 12.9842569, 55.620894 ], [ 12.9841071, 55.6209812 ], [ 12.9838148, 55.6207472 ], [ 12.9836941, 55.6206374 ], [ 12.9836284, 55.6205791 ], [ 12.9835118, 55.6205476 ], [ 12.983322, 55.6205228 ], [ 12.9823951, 55.6204453 ], [ 12.9813647, 55.6203487 ], [ 12.9807586, 55.62029 ], [ 12.9803266, 55.6202514 ], [ 12.9795712, 55.6201593 ], [ 12.9794253, 55.6201787 ], [ 12.9793053, 55.6201408 ], [ 12.9792708, 55.6200963 ], [ 12.9773654, 55.6198055 ], [ 12.9772454, 55.6197591 ], [ 12.9772023, 55.6197425 ], [ 12.9766805, 55.6193092 ], [ 12.9758926, 55.6186128 ], [ 12.9749152, 55.6178362 ], [ 12.974795, 55.6177377 ], [ 12.9747691, 55.6177152 ], [ 12.9745464, 55.6175256 ], [ 12.9744979, 55.6175396 ], [ 12.9744876, 55.6175317 ], [ 12.9744605, 55.6175089 ], [ 12.9742479, 55.6173275 ], [ 12.9742221, 55.6173064 ], [ 12.9742069, 55.6172941 ], [ 12.974286, 55.6172619 ], [ 12.9738461, 55.6168774 ], [ 12.9729124, 55.6161274 ], [ 12.9728987, 55.6161179 ], [ 12.9728762, 55.6161005 ], [ 12.9725111, 55.6157589 ], [ 12.9717835, 55.6151592 ], [ 12.9715949, 55.6151159 ], [ 12.9715157, 55.6151035 ], [ 12.971427, 55.6150581 ], [ 12.9708222, 55.6149937 ], [ 12.9709317, 55.6146505 ], [ 12.9711635, 55.6146752 ], [ 12.9710506, 55.614599 ], [ 12.9710401, 55.6145113 ], [ 12.9710984, 55.6144768 ], [ 12.9711412, 55.6143041 ], [ 12.9711695, 55.6142344 ], [ 12.971183, 55.6141636 ], [ 12.9712064, 55.6141197 ], [ 12.9712035, 55.6140768 ], [ 12.9712037, 55.6140068 ], [ 12.971245, 55.613885 ], [ 12.9712796, 55.6138263 ], [ 12.9713098, 55.6137138 ], [ 12.971315, 55.613666 ], [ 12.9713144, 55.613652 ], [ 12.9713124, 55.6135893 ], [ 12.9713361, 55.6135263 ], [ 12.9714, 55.61338 ], [ 12.9714253, 55.6132992 ], [ 12.9714679, 55.6131701 ], [ 12.971506, 55.6131359 ], [ 12.9715912, 55.6130432 ], [ 12.9716127, 55.6129427 ], [ 12.9716188, 55.6128764 ], [ 12.9716594, 55.6128543 ], [ 12.9715703, 55.6128614 ], [ 12.9714907, 55.6125924 ], [ 12.9717081, 55.6125738 ], [ 12.9717227, 55.6125424 ], [ 12.971738, 55.6124993 ], [ 12.9717449, 55.6124528 ], [ 12.9717577, 55.6123979 ], [ 12.9718271, 55.6122928 ], [ 12.9718896, 55.6121261 ], [ 12.9718944, 55.6120652 ], [ 12.9719106, 55.6119996 ], [ 12.9719528, 55.6118353 ], [ 12.9719893, 55.6118034 ], [ 12.9721004, 55.6114612 ], [ 12.9722395, 55.61104 ], [ 12.9723336, 55.6107399 ], [ 12.9723876, 55.6106611 ], [ 12.9724009, 55.6105233 ], [ 12.9723703, 55.6104703 ], [ 12.9722548, 55.6103521 ], [ 12.9722071, 55.6103039 ], [ 12.9721847, 55.6102749 ], [ 12.9721725, 55.6102472 ], [ 12.9721966, 55.6102294 ], [ 12.9722325, 55.6102111 ], [ 12.9722112, 55.610185 ], [ 12.9721007, 55.6101236 ], [ 12.9720349, 55.610085 ], [ 12.9719891, 55.6100807 ], [ 12.9719427, 55.6100675 ], [ 12.9719174, 55.6100525 ], [ 12.9719243, 55.6100195 ], [ 12.9719407, 55.6100002 ], [ 12.9720622, 55.6099184 ], [ 12.9720316, 55.6098778 ], [ 12.9719574, 55.6098302 ], [ 12.9717961, 55.6096514 ], [ 12.9717092, 55.609408 ], [ 12.9717006, 55.6090201 ], [ 12.9717349, 55.6088504 ], [ 12.9719581, 55.6085789 ], [ 12.9720954, 55.6083511 ], [ 12.9721469, 55.6078178 ], [ 12.9721126, 55.6072554 ], [ 12.9719581, 55.6067463 ], [ 12.971783, 55.6063656 ], [ 12.9716162, 55.6061273 ], [ 12.9713687, 55.6058389 ], [ 12.9711841, 55.6056801 ], [ 12.970868, 55.6054518 ], [ 12.9702758, 55.605093 ], [ 12.9700412, 55.6049605 ], [ 12.9695548, 55.6046857 ], [ 12.9690656, 55.6044579 ], [ 12.9686135, 55.6042506 ], [ 12.9680012, 55.6040505 ], [ 12.9673997, 55.6038989 ], [ 12.9669631, 55.6038074 ], [ 12.9667186, 55.6037281 ], [ 12.9665726, 55.603633 ], [ 12.9662966, 55.6034585 ], [ 12.9660132, 55.6033078 ], [ 12.9655465, 55.6030954 ], [ 12.9649028, 55.6028578 ], [ 12.9641303, 55.6026493 ], [ 12.9636754, 55.6025426 ], [ 12.963272, 55.602499 ], [ 12.9629325, 55.6023452 ], [ 12.9622592, 55.6021111 ], [ 12.9614352, 55.6017959 ], [ 12.9606027, 55.6015437 ], [ 12.9600877, 55.6013983 ], [ 12.9596156, 55.601277 ], [ 12.959044, 55.6011863 ], [ 12.9584741, 55.6009473 ], [ 12.9577445, 55.6006806 ], [ 12.9569315, 55.6004106 ], [ 12.9565876, 55.6003092 ], [ 12.9563504, 55.6002605 ], [ 12.9563018, 55.6002489 ], [ 12.9561649, 55.6001852 ], [ 12.9557017, 55.6000017 ], [ 12.9549109, 55.5997152 ], [ 12.9542486, 55.5994787 ], [ 12.9535913, 55.5992686 ], [ 12.9530441, 55.5990886 ], [ 12.9526448, 55.5989697 ], [ 12.9521611, 55.5988714 ], [ 12.9515882, 55.5986688 ], [ 12.951152, 55.5985339 ], [ 12.9509164, 55.5984928 ], [ 12.9506781, 55.5984829 ], [ 12.9504183, 55.598493 ], [ 12.9502748, 55.5984944 ], [ 12.9502194, 55.5985067 ], [ 12.9501904, 55.5985394 ], [ 12.9501659, 55.5985658 ], [ 12.9501355, 55.598579 ], [ 12.9500969, 55.5985748 ], [ 12.9500343, 55.5985567 ], [ 12.9498694, 55.5985202 ], [ 12.9497645, 55.5985144 ], [ 12.9496353, 55.5985256 ], [ 12.9495554, 55.5985457 ], [ 12.949497, 55.5985729 ], [ 12.9494631, 55.5986107 ], [ 12.9494329, 55.5986416 ], [ 12.9493939, 55.5986509 ], [ 12.9493416, 55.5986514 ], [ 12.9492514, 55.5986374 ], [ 12.9491384, 55.5986402 ], [ 12.9487666, 55.598673 ], [ 12.9484792, 55.5986655 ], [ 12.9483375, 55.5986585 ], [ 12.9478139, 55.5985567 ], [ 12.9471365, 55.5983938 ], [ 12.946638, 55.598319 ], [ 12.9453043, 55.5980635 ], [ 12.9450612, 55.5979918 ], [ 12.944863, 55.5980006 ], [ 12.9443765, 55.597957 ], [ 12.9440597, 55.5979047 ], [ 12.9431962, 55.5977905 ], [ 12.9430237, 55.5978013 ], [ 12.942767, 55.5977614 ], [ 12.9413371, 55.5977697 ], [ 12.9411019, 55.5977711 ], [ 12.9409884, 55.5977684 ], [ 12.9408101, 55.5977856 ], [ 12.9398145, 55.5978778 ], [ 12.9394238, 55.5978929 ], [ 12.9388103, 55.5979165 ], [ 12.9380893, 55.5979117 ], [ 12.9378885, 55.5978946 ], [ 12.9378026, 55.5978848 ], [ 12.9377237, 55.5978645 ], [ 12.9375743, 55.5978036 ], [ 12.9375314, 55.5977129 ], [ 12.9376331, 55.5976163 ], [ 12.9377402, 55.5975685 ], [ 12.9379892, 55.5974915 ], [ 12.938246, 55.5974261 ], [ 12.9383722, 55.5973571 ], [ 12.9384651, 55.5972562 ], [ 12.938499, 55.5970655 ], [ 12.9384221, 55.5968461 ], [ 12.9383699, 55.5967167 ], [ 12.9382829, 55.5966431 ], [ 12.9381536, 55.596573 ], [ 12.9380978, 55.5965536 ], [ 12.9379863, 55.596515 ], [ 12.9378325, 55.5964903 ], [ 12.9376082, 55.5964591 ], [ 12.9374541, 55.5964718 ], [ 12.9370695, 55.5964816 ], [ 12.9368381, 55.5965041 ], [ 12.9368225, 55.5965658 ], [ 12.9363919, 55.5965691 ], [ 12.9363838, 55.5965028 ], [ 12.936004, 55.5964816 ], [ 12.9352996, 55.5964875 ], [ 12.9346307, 55.5964935 ], [ 12.9339204, 55.5965053 ], [ 12.9337773, 55.596492 ], [ 12.9337653, 55.5965072 ], [ 12.933286, 55.5964552 ], [ 12.9332221, 55.5965231 ], [ 12.9332771, 55.5965776 ], [ 12.9334673, 55.5968001 ], [ 12.9337574, 55.5971422 ], [ 12.9340539, 55.597478 ], [ 12.9343501, 55.5978248 ], [ 12.934438, 55.5978922 ], [ 12.9345653, 55.5979676 ], [ 12.9346984, 55.5980163 ], [ 12.9348126, 55.5980602 ], [ 12.9350874, 55.598086 ], [ 12.9352633, 55.5980871 ], [ 12.9362417, 55.5980341 ], [ 12.9363651, 55.5979659 ], [ 12.9366399, 55.5979756 ], [ 12.9367608, 55.5979641 ], [ 12.9369879, 55.5979618 ], [ 12.9371393, 55.5979756 ], [ 12.9371841, 55.5980106 ], [ 12.937182, 55.5980527 ], [ 12.9371409, 55.5980993 ], [ 12.9374403, 55.5982321 ], [ 12.9377393, 55.5983355 ], [ 12.9377886, 55.5983348 ], [ 12.9378138, 55.5983609 ], [ 12.9378073, 55.5983909 ], [ 12.9377845, 55.5984251 ], [ 12.9377363, 55.5984356 ], [ 12.9376919, 55.5984337 ], [ 12.9375398, 55.5983904 ], [ 12.9374131, 55.5983515 ], [ 12.9372468, 55.5982803 ], [ 12.9370241, 55.5981848 ], [ 12.9368923, 55.5981457 ], [ 12.9367195, 55.5981498 ], [ 12.9365007, 55.5981963 ], [ 12.9362402, 55.5981999 ], [ 12.9350505, 55.5982699 ], [ 12.9345961, 55.5981974 ], [ 12.9342302, 55.5980441 ], [ 12.9339856, 55.5978241 ], [ 12.9325016, 55.5961762 ], [ 12.9309558, 55.5945361 ], [ 12.9307498, 55.5944633 ], [ 12.930622, 55.5944567 ], [ 12.930561, 55.5944536 ], [ 12.9303272, 55.5945231 ], [ 12.9298135, 55.5947628 ], [ 12.9294572, 55.5943152 ], [ 12.9296475, 55.5942446 ], [ 12.9297807, 55.5941952 ], [ 12.9298946, 55.594153 ], [ 12.9300084, 55.5941108 ], [ 12.9300557, 55.5940932 ], [ 12.9300992, 55.5941197 ], [ 12.9306522, 55.5939173 ], [ 12.931081, 55.5937604 ], [ 12.9307923, 55.5934433 ], [ 12.93045, 55.5930926 ], [ 12.9306371, 55.593036 ], [ 12.9303096, 55.5926716 ], [ 12.9300791, 55.5927207 ], [ 12.9298606, 55.5924807 ], [ 12.9295703, 55.5921618 ], [ 12.9293754, 55.5919478 ], [ 12.9292009, 55.5917626 ], [ 12.9289989, 55.5915482 ], [ 12.9265601, 55.5889402 ], [ 12.9264133, 55.5887832 ], [ 12.9262586, 55.5888229 ], [ 12.9261282, 55.5886775 ], [ 12.9255574, 55.5884022 ], [ 12.9254991, 55.5883324 ], [ 12.9234342, 55.5891745 ], [ 12.9248361, 55.5906124 ], [ 12.9247588, 55.590656 ], [ 12.924982, 55.5909179 ], [ 12.9252567, 55.5911071 ], [ 12.9261868, 55.5921143 ], [ 12.9265355, 55.5923633 ], [ 12.9267072, 55.5927513 ], [ 12.9271169, 55.5934529 ], [ 12.9276784, 55.5945116 ], [ 12.9277249, 55.5946165 ], [ 12.9277593, 55.5947019 ], [ 12.9277972, 55.594763 ], [ 12.9284925, 55.5950696 ], [ 12.9288454, 55.595189 ], [ 12.9288621, 55.5952417 ], [ 12.9285182, 55.5954527 ], [ 12.928403, 55.5955565 ], [ 12.9283997, 55.5956608 ], [ 12.9284496, 55.5957922 ], [ 12.9289645, 55.5965002 ], [ 12.9293851, 55.5969658 ], [ 12.9296769, 55.5973246 ], [ 12.9298915, 55.5975138 ], [ 12.9300123, 55.5976366 ], [ 12.9301268, 55.5978113 ], [ 12.9301465, 55.5979154 ], [ 12.9300436, 55.59797 ], [ 12.9299426, 55.597976 ], [ 12.9298395, 55.5979447 ], [ 12.9294813, 55.5976563 ], [ 12.929167, 55.5973252 ], [ 12.9290545, 55.5970997 ], [ 12.9290199, 55.5970228 ], [ 12.9289447, 55.5969216 ], [ 12.9289153, 55.5968546 ], [ 12.9288295, 55.5967758 ], [ 12.9286651, 55.5966765 ], [ 12.9286484, 55.5966665 ], [ 12.9285015, 55.5965289 ], [ 12.9284186, 55.5964415 ], [ 12.9283617, 55.5963814 ], [ 12.9283125, 55.59632 ], [ 12.9282732, 55.5962519 ], [ 12.9282377, 55.5961756 ], [ 12.928036, 55.5958268 ], [ 12.9279605, 55.595671 ], [ 12.9278206, 55.5955273 ], [ 12.9276748, 55.59543 ], [ 12.927499, 55.5953589 ], [ 12.9270707, 55.5952444 ], [ 12.9266809, 55.5951386 ], [ 12.9262161, 55.595064 ], [ 12.9256527, 55.5949979 ], [ 12.9245179, 55.5948427 ], [ 12.9239494, 55.5946531 ], [ 12.9234069, 55.5943656 ], [ 12.922941, 55.5941436 ], [ 12.9221066, 55.5937431 ], [ 12.9211443, 55.5932149 ], [ 12.9208178, 55.5929635 ], [ 12.920552, 55.5926749 ], [ 12.9202558, 55.5923007 ], [ 12.9197948, 55.5918585 ], [ 12.919042, 55.5909976 ], [ 12.9187036, 55.5906307 ], [ 12.9183263, 55.5901642 ], [ 12.9177413, 55.5896014 ], [ 12.9172411, 55.5891669 ], [ 12.9168233, 55.5888819 ], [ 12.9164803, 55.5885327 ], [ 12.9160436, 55.5879772 ], [ 12.9158047, 55.587528 ], [ 12.9157484, 55.5872824 ], [ 12.915923, 55.5871554 ], [ 12.9185898, 55.5864848 ], [ 12.918713, 55.5864719 ], [ 12.9189203, 55.5864162 ], [ 12.9191602, 55.5864579 ], [ 12.9200251, 55.5872691 ], [ 12.9200797, 55.5872845 ], [ 12.9203997, 55.587193 ], [ 12.9205636, 55.5871413 ], [ 12.9206649, 55.5871367 ], [ 12.9207323, 55.5871755 ], [ 12.9207433, 55.5872439 ], [ 12.9206581, 55.5873945 ], [ 12.9206555, 55.5876129 ], [ 12.9207005, 55.5877716 ], [ 12.9208174, 55.5879084 ], [ 12.9207911, 55.5879247 ], [ 12.9206946, 55.5879197 ], [ 12.9206229, 55.5879619 ], [ 12.9206269, 55.5880139 ], [ 12.9206954, 55.5880524 ], [ 12.9207857, 55.5880566 ], [ 12.9208448, 55.5880315 ], [ 12.9208621, 55.5879845 ], [ 12.920891, 55.5879775 ], [ 12.9212886, 55.588393 ], [ 12.9212732, 55.5884245 ], [ 12.9214619, 55.588644 ], [ 12.9214739, 55.5886579 ], [ 12.9215338, 55.5887298 ], [ 12.9215471, 55.5887301 ], [ 12.92156, 55.5887119 ], [ 12.92158, 55.5887024 ], [ 12.9216091, 55.5887038 ], [ 12.9216276, 55.5887145 ], [ 12.9216331, 55.5887359 ], [ 12.9216884, 55.5887502 ], [ 12.9218224, 55.5887467 ], [ 12.921847, 55.5887458 ], [ 12.9227761, 55.5887324 ], [ 12.9228342, 55.5887436 ], [ 12.9234109, 55.5885348 ], [ 12.9234572, 55.5884771 ], [ 12.9245956, 55.5879928 ], [ 12.9242297, 55.5877208 ], [ 12.924568, 55.5875603 ], [ 12.9245877, 55.5875123 ], [ 12.9246262, 55.5874966 ], [ 12.9245871, 55.5874259 ], [ 12.9245344, 55.5874118 ], [ 12.924404, 55.5874198 ], [ 12.9243742, 55.5873932 ], [ 12.9243817, 55.5873641 ], [ 12.9244271, 55.5873453 ], [ 12.9246538, 55.5873504 ], [ 12.9250015, 55.5873067 ], [ 12.9264904, 55.5866503 ], [ 12.9262578, 55.586477 ], [ 12.9261824, 55.586417 ], [ 12.9247935, 55.5870298 ], [ 12.9247639, 55.5870429 ], [ 12.9248746, 55.5871634 ], [ 12.9246699, 55.5872377 ], [ 12.9240957, 55.586932 ], [ 12.9240443, 55.5869539 ], [ 12.9234771, 55.5871954 ], [ 12.9234557, 55.5871827 ], [ 12.9234212, 55.587189 ], [ 12.9229623, 55.5868914 ], [ 12.9229774, 55.5868674 ], [ 12.9229071, 55.5868196 ], [ 12.9229058, 55.5868045 ], [ 12.9229322, 55.5867908 ], [ 12.9229491, 55.5867905 ], [ 12.9229974, 55.5868235 ], [ 12.9237566, 55.5863777 ], [ 12.9243819, 55.5867399 ], [ 12.9244464, 55.586735 ], [ 12.924683, 55.5866339 ], [ 12.9246851, 55.5866081 ], [ 12.9239658, 55.5861798 ], [ 12.9244335, 55.5858913 ], [ 12.9243253, 55.5858255 ], [ 12.9244461, 55.585758 ], [ 12.9243447, 55.5857021 ], [ 12.9242295, 55.5857719 ], [ 12.9241768, 55.5857441 ], [ 12.9227056, 55.5866562 ], [ 12.9228287, 55.5867261 ], [ 12.9228281, 55.5867353 ], [ 12.9228011, 55.5867491 ], [ 12.9227823, 55.5867498 ], [ 12.9226576, 55.5866822 ], [ 12.9220638, 55.5870433 ], [ 12.9220296, 55.5870444 ], [ 12.9219926, 55.5870295 ], [ 12.921975, 55.587001 ], [ 12.9220199, 55.5869189 ], [ 12.9219936, 55.5868824 ], [ 12.9219977, 55.5867843 ], [ 12.9220333, 55.5865498 ], [ 12.9220165, 55.5864117 ], [ 12.9220147, 55.5863986 ], [ 12.9219266, 55.5859983 ], [ 12.9218227, 55.5859184 ], [ 12.9218163, 55.5859131 ], [ 12.9218025, 55.5858994 ], [ 12.9217964, 55.5858942 ], [ 12.9215611, 55.5858719 ], [ 12.9213677, 55.5859214 ], [ 12.9208625, 55.5860948 ], [ 12.9208302, 55.5861657 ], [ 12.9210278, 55.5862959 ], [ 12.9210806, 55.5863436 ], [ 12.9210974, 55.5863923 ], [ 12.9210284, 55.5864407 ], [ 12.9209422, 55.5864402 ], [ 12.9208458, 55.5864097 ], [ 12.9206143, 55.5862423 ], [ 12.9204963, 55.586084 ], [ 12.9202435, 55.5858156 ], [ 12.9197984, 55.5855209 ], [ 12.9193949, 55.5852787 ], [ 12.9189906, 55.5851791 ], [ 12.918672, 55.5851351 ], [ 12.9179368, 55.5851328 ], [ 12.9175699, 55.5850984 ], [ 12.9170083, 55.5849852 ], [ 12.9149557, 55.5851228 ], [ 12.9142465, 55.5851427 ], [ 12.9134113, 55.5849571 ], [ 12.912597, 55.5846591 ], [ 12.9116059, 55.5842399 ], [ 12.9106878, 55.5837862 ], [ 12.9100842, 55.5834392 ], [ 12.9099081, 55.5832663 ], [ 12.9098336, 55.5830918 ], [ 12.9098052, 55.5829434 ], [ 12.9097768, 55.5827514 ], [ 12.9097653, 55.5826004 ] ] ] } }
]
}
