{
"type": "FeatureCollection",
"name": "marbella_es",
"crs": { "type": "name", "properties": { "name": "urn:ogc:def:crs:OGC:1.3:CRS84" } },
"features": [
{ "type": "Feature", "properties": { }, "geometry": { "type": "Polygon", "coordinates": [ [ [ -5.0146669, 36.4931282 ], [ -5.0140997, 36.4922994 ], [ -5.0132218, 36.4911605 ], [ -5.0130758, 36.4906943 ], [ -5.0129111, 36.4895073 ], [ -5.0129527, 36.4889567 ], [ -5.0134607, 36.4865866 ], [ -5.0134525, 36.4858386 ], [ -5.0133328, 36.4855252 ], [ -5.011627, 36.4827802 ], [ -5.0115424, 36.4824854 ], [ -5.0112522, 36.4820142 ], [ -5.0109331, 36.4816093 ], [ -5.0104237, 36.4806429 ], [ -5.0102104, 36.4800463 ], [ -5.0097217, 36.4795554 ], [ -5.0095993, 36.4793449 ], [ -5.009391, 36.4791788 ], [ -5.0093145, 36.4787938 ], [ -5.0092845, 36.4783668 ], [ -5.0095628, 36.4774618 ], [ -5.009391, 36.4764882 ], [ -5.0090228, 36.4756988 ], [ -5.0090082, 36.4747545 ], [ -5.0091374, 36.473541 ], [ -5.0090021, 36.4726408 ], [ -5.0088385, 36.4715057 ], [ -5.0083873, 36.4709754 ], [ -5.0080403, 36.4702794 ], [ -5.0080865, 36.4690029 ], [ -5.0085455, 36.4682616 ], [ -5.0089426, 36.4672537 ], [ -5.0091665, 36.4664839 ], [ -5.0089716, 36.4661325 ], [ -5.0088666, 36.4657083 ], [ -5.0088327, 36.4652578 ], [ -5.0089457, 36.4646586 ], [ -5.0084509, 36.4639272 ], [ -5.0068842, 36.4634157 ], [ -5.0064609, 36.4633689 ], [ -5.0058079, 36.4630274 ], [ -5.005653, 36.4624776 ], [ -5.0055277, 36.4620139 ], [ -5.0049214, 36.4602476 ], [ -5.004944, 36.4600099 ], [ -5.0049453, 36.4600069 ], [ -5.0049227, 36.460024 ], [ -5.004726, 36.4601806 ], [ -5.004624, 36.4602618 ], [ -5.0045372, 36.4604641 ], [ -5.0043227, 36.4607143 ], [ -5.0041456, 36.4608179 ], [ -5.0039685, 36.460917 ], [ -5.0037913, 36.4609942 ], [ -5.0036038, 36.4610595 ], [ -5.0033732, 36.4612019 ], [ -5.0031854, 36.4614219 ], [ -5.0028638, 36.461671 ], [ -5.0026865, 36.461862 ], [ -5.0022585, 36.4622249 ], [ -5.0016953, 36.46259 ], [ -5.0014772, 36.4628103 ], [ -5.0011646, 36.4630286 ], [ -5.0009289, 36.4631406 ], [ -5.000775, 36.463283 ], [ -5.0004054, 36.4634462 ], [ -4.9999874, 36.4636835 ], [ -4.9996928, 36.4639867 ], [ -4.999211, 36.464337 ], [ -4.9988489, 36.4645482 ], [ -4.9985527, 36.464725 ], [ -4.997642, 36.465134 ], [ -4.9972356, 36.4653376 ], [ -4.9960352, 36.465807 ], [ -4.9955935, 36.4661096 ], [ -4.9952501, 36.4663007 ], [ -4.9949111, 36.466519 ], [ -4.9943486, 36.4669473 ], [ -4.99388, 36.467252 ], [ -4.9935112, 36.4674226 ], [ -4.9932499, 36.4676332 ], [ -4.9928371, 36.4678693 ], [ -4.992472, 36.468174 ], [ -4.9922052, 36.4683815 ], [ -4.9918831, 36.4686183 ], [ -4.9911195, 36.4689854 ], [ -4.9906953, 36.4693202 ], [ -4.9905515, 36.4694212 ], [ -4.990215, 36.469752 ], [ -4.9899162, 36.470013 ], [ -4.9891918, 36.4704778 ], [ -4.9888969, 36.4707059 ], [ -4.988567, 36.470937 ], [ -4.9879423, 36.4712613 ], [ -4.9875031, 36.4715166 ], [ -4.9870828, 36.4717241 ], [ -4.986685, 36.471996 ], [ -4.9863326, 36.4721366 ], [ -4.9862949, 36.4721559 ], [ -4.9861922, 36.4722084 ], [ -4.9857065, 36.4724569 ], [ -4.985115, 36.4728157 ], [ -4.984804, 36.473055 ], [ -4.9843934, 36.4732515 ], [ -4.9841271, 36.4734241 ], [ -4.9836348, 36.4737831 ], [ -4.983439, 36.4739339 ], [ -4.9831257, 36.4741472 ], [ -4.9828948, 36.4743229 ], [ -4.9825564, 36.4745356 ], [ -4.9824663, 36.4745948 ], [ -4.9822155, 36.4747594 ], [ -4.9820395, 36.4748813 ], [ -4.9815273, 36.4753354 ], [ -4.9812888, 36.4754677 ], [ -4.9804516, 36.4760308 ], [ -4.9799582, 36.4763444 ], [ -4.979538, 36.4766161 ], [ -4.9792693, 36.4767576 ], [ -4.9788584, 36.4769988 ], [ -4.9784106, 36.4772617 ], [ -4.9779191, 36.4775364 ], [ -4.9775947, 36.4776741 ], [ -4.977291, 36.477803 ], [ -4.9772636, 36.4778272 ], [ -4.976902, 36.4779797 ], [ -4.9760355, 36.4782396 ], [ -4.9754244, 36.4783046 ], [ -4.9750833, 36.4783515 ], [ -4.9742628, 36.4783272 ], [ -4.9742063, 36.4783222 ], [ -4.9737071, 36.4782892 ], [ -4.9733194, 36.4782598 ], [ -4.9728409, 36.4782458 ], [ -4.9723391, 36.4782312 ], [ -4.9718175, 36.4783215 ], [ -4.9713149, 36.4785314 ], [ -4.9709091, 36.4788448 ], [ -4.9705754, 36.4791116 ], [ -4.9705316, 36.4791466 ], [ -4.9703382, 36.4794357 ], [ -4.9700356, 36.4798099 ], [ -4.9695999, 36.4801956 ], [ -4.9693073, 36.4804399 ], [ -4.9691497, 36.4805962 ], [ -4.9689191, 36.4807802 ], [ -4.968806, 36.4806184 ], [ -4.96846, 36.480775 ], [ -4.9681355, 36.4809682 ], [ -4.9678789, 36.4811223 ], [ -4.9675986, 36.4812234 ], [ -4.9674258, 36.4812514 ], [ -4.967247, 36.4812418 ], [ -4.9672198, 36.4813109 ], [ -4.9671882, 36.4813909 ], [ -4.9669262, 36.481666 ], [ -4.9665398, 36.481887 ], [ -4.965945, 36.481973 ], [ -4.9653814, 36.4818474 ], [ -4.964986, 36.4814423 ], [ -4.9648749, 36.4814659 ], [ -4.965125, 36.4819474 ], [ -4.9651313, 36.4823336 ], [ -4.9648912, 36.4826905 ], [ -4.964551, 36.4828122 ], [ -4.9643664, 36.4827891 ], [ -4.9642803, 36.4827099 ], [ -4.964188, 36.4825523 ], [ -4.9642262, 36.4825122 ], [ -4.9642311, 36.4824527 ], [ -4.9642023, 36.4823735 ], [ -4.9641379, 36.482345 ], [ -4.9640811, 36.4823401 ], [ -4.9640254, 36.4823484 ], [ -4.9639856, 36.4823894 ], [ -4.9639646, 36.4824506 ], [ -4.9639972, 36.4825516 ], [ -4.9640467, 36.4825761 ], [ -4.9641121, 36.4825798 ], [ -4.9642105, 36.4827462 ], [ -4.9642393, 36.4828452 ], [ -4.9641572, 36.4829375 ], [ -4.9639899, 36.4830294 ], [ -4.9635849, 36.4830573 ], [ -4.9631851, 36.4829573 ], [ -4.962918, 36.4828174 ], [ -4.9626846, 36.4825846 ], [ -4.9625223, 36.4830413 ], [ -4.9624139, 36.4832838 ], [ -4.9621983, 36.483523 ], [ -4.9619381, 36.4837027 ], [ -4.9615819, 36.4838626 ], [ -4.9612941, 36.4839269 ], [ -4.9610438, 36.4839335 ], [ -4.9607236, 36.4838758 ], [ -4.9604245, 36.483795 ], [ -4.9601104, 36.4835606 ], [ -4.9599167, 36.4836263 ], [ -4.9599805, 36.483843 ], [ -4.9599896, 36.4842958 ], [ -4.9598335, 36.484511 ], [ -4.9595324, 36.484774 ], [ -4.959246, 36.4849224 ], [ -4.9587932, 36.4850467 ], [ -4.9583572, 36.4850549 ], [ -4.9579346, 36.485002 ], [ -4.9578159, 36.4846699 ], [ -4.9576636, 36.4847015 ], [ -4.9575229, 36.4848782 ], [ -4.9571875, 36.4850851 ], [ -4.9568391, 36.4852003 ], [ -4.9566897, 36.4852156 ], [ -4.9565248, 36.4852325 ], [ -4.9562105, 36.4851794 ], [ -4.9561105, 36.4851166 ], [ -4.9558724, 36.4849672 ], [ -4.9557147, 36.4847521 ], [ -4.9557035, 36.484582 ], [ -4.9558114, 36.4845753 ], [ -4.9559686, 36.4846021 ], [ -4.9560846, 36.4845603 ], [ -4.9560617, 36.48442 ], [ -4.9559609, 36.4843329 ], [ -4.955277, 36.4844874 ], [ -4.9545614, 36.484499 ], [ -4.9540325, 36.4843635 ], [ -4.9534971, 36.484165 ], [ -4.9533444, 36.4841588 ], [ -4.9530257, 36.484324 ], [ -4.9529522, 36.4842753 ], [ -4.9527852, 36.4844468 ], [ -4.9528784, 36.4845841 ], [ -4.9533702, 36.4843737 ], [ -4.9544024, 36.4859601 ], [ -4.9539882, 36.486219 ], [ -4.9535109, 36.4865174 ], [ -4.9528027, 36.4869601 ], [ -4.9529305, 36.487095 ], [ -4.9523669, 36.4874376 ], [ -4.9522426, 36.4875873 ], [ -4.9517099, 36.4879411 ], [ -4.9511659, 36.4882699 ], [ -4.9505829, 36.4886529 ], [ -4.9504349, 36.4885043 ], [ -4.9501211, 36.4886952 ], [ -4.9499467, 36.488504 ], [ -4.949452, 36.4880898 ], [ -4.9492249, 36.4880693 ], [ -4.9493279, 36.4875342 ], [ -4.9494528, 36.4873819 ], [ -4.949508, 36.4874073 ], [ -4.9495725, 36.487329 ], [ -4.9494613, 36.4872727 ], [ -4.9501425, 36.48648 ], [ -4.9523988, 36.4837183 ], [ -4.9528016, 36.4833861 ], [ -4.9532134, 36.4832357 ], [ -4.9538473, 36.4831452 ], [ -4.9541942, 36.4831122 ], [ -4.9545212, 36.4831107 ], [ -4.9547325, 36.4831966 ], [ -4.9549254, 36.4831675 ], [ -4.955002, 36.483079 ], [ -4.9549728, 36.4829336 ], [ -4.9548246, 36.4828697 ], [ -4.9534848, 36.4829121 ], [ -4.9530259, 36.4829929 ], [ -4.9525722, 36.4832256 ], [ -4.9522256, 36.4835899 ], [ -4.9492317, 36.4869549 ], [ -4.947974, 36.488433 ], [ -4.9478166, 36.48869 ], [ -4.9479537, 36.4888811 ], [ -4.9481866, 36.4888331 ], [ -4.9481879, 36.488577 ], [ -4.9484226, 36.4885422 ], [ -4.9486068, 36.488698 ], [ -4.948774, 36.4890794 ], [ -4.948718, 36.4895967 ], [ -4.9484273, 36.4900275 ], [ -4.947716, 36.4905843 ], [ -4.9474303, 36.4907468 ], [ -4.9471486, 36.4910423 ], [ -4.9468857, 36.4912938 ], [ -4.9461075, 36.4919734 ], [ -4.9455533, 36.4924379 ], [ -4.9453607, 36.4925948 ], [ -4.9452956, 36.4925202 ], [ -4.9451727, 36.492481 ], [ -4.9450787, 36.4925348 ], [ -4.9450746, 36.4926036 ], [ -4.945305, 36.4929208 ], [ -4.945043, 36.4932005 ], [ -4.9448464, 36.4932795 ], [ -4.944599, 36.493369 ], [ -4.9439292, 36.4940585 ], [ -4.943459, 36.494521 ], [ -4.9432824, 36.4946601 ], [ -4.9429176, 36.4949248 ], [ -4.9426385, 36.4951513 ], [ -4.9418283, 36.4959041 ], [ -4.9416088, 36.4961122 ], [ -4.9412895, 36.4962965 ], [ -4.9409745, 36.4965332 ], [ -4.9406703, 36.4967541 ], [ -4.9401705, 36.4970074 ], [ -4.9396745, 36.4973578 ], [ -4.9392765, 36.4976731 ], [ -4.938845, 36.4979226 ], [ -4.9382942, 36.49815 ], [ -4.9380576, 36.4982978 ], [ -4.9376923, 36.498484 ], [ -4.93678, 36.4989199 ], [ -4.936311, 36.499155 ], [ -4.935826, 36.4994223 ], [ -4.9354344, 36.4995597 ], [ -4.9351592, 36.4997396 ], [ -4.934578, 36.499825 ], [ -4.934113, 36.4999274 ], [ -4.9338924, 36.4999767 ], [ -4.9333287, 36.5001015 ], [ -4.9320888, 36.5000947 ], [ -4.9313255, 36.5000454 ], [ -4.9297557, 36.5001267 ], [ -4.9295575, 36.5000861 ], [ -4.9284771, 36.4996679 ], [ -4.9275955, 36.4996061 ], [ -4.9271315, 36.4997388 ], [ -4.92662, 36.499697 ], [ -4.9259137, 36.4998777 ], [ -4.925672, 36.49997 ], [ -4.9247485, 36.5004055 ], [ -4.9237278, 36.5008324 ], [ -4.9232487, 36.5008742 ], [ -4.9229016, 36.500897 ], [ -4.9227877, 36.5008758 ], [ -4.9226233, 36.5009142 ], [ -4.9224426, 36.5013526 ], [ -4.9216773, 36.5018233 ], [ -4.920852, 36.5021542 ], [ -4.9198087, 36.5024692 ], [ -4.9188542, 36.5029385 ], [ -4.9175956, 36.5033963 ], [ -4.9158636, 36.5042642 ], [ -4.9139686, 36.5049043 ], [ -4.9120255, 36.5055807 ], [ -4.9050725, 36.5061568 ], [ -4.9015726, 36.506166 ], [ -4.9012046, 36.5062299 ], [ -4.9011452, 36.5062707 ], [ -4.9009358, 36.5064318 ], [ -4.9008134, 36.5065025 ], [ -4.9005072, 36.5065985 ], [ -4.9001682, 36.5066092 ], [ -4.8981423, 36.5068713 ], [ -4.8969271, 36.5069971 ], [ -4.8957186, 36.507126 ], [ -4.8950467, 36.5070591 ], [ -4.894225, 36.5069732 ], [ -4.8934873, 36.5067221 ], [ -4.893104, 36.5064868 ], [ -4.8930179, 36.5066131 ], [ -4.8925264, 36.5067248 ], [ -4.8922982, 36.5067392 ], [ -4.8920505, 36.5067309 ], [ -4.891818, 36.5066898 ], [ -4.8918441, 36.5066043 ], [ -4.8918259, 36.5065397 ], [ -4.8917623, 36.5064797 ], [ -4.8916494, 36.5064484 ], [ -4.8915193, 36.5064954 ], [ -4.8914702, 36.5066017 ], [ -4.8915117, 36.5066824 ], [ -4.8916043, 36.5067202 ], [ -4.8915388, 36.5067916 ], [ -4.8914463, 36.506824 ], [ -4.8913462, 36.5068283 ], [ -4.8911102, 36.5067506 ], [ -4.890917, 36.506673 ], [ -4.8907454, 36.5065351 ], [ -4.8906166, 36.5063712 ], [ -4.8905364, 36.5061733 ], [ -4.8905646, 36.5061091 ], [ -4.8906638, 36.5061473 ], [ -4.8907649, 36.5061564 ], [ -4.8908416, 36.5061059 ], [ -4.8908514, 36.5060184 ], [ -4.8907414, 36.5059563 ], [ -4.8905833, 36.5058955 ], [ -4.8902932, 36.505704 ], [ -4.8901339, 36.5056609 ], [ -4.8901341, 36.5056503 ], [ -4.8898339, 36.5056677 ], [ -4.889846, 36.5057765 ], [ -4.889789, 36.5057801 ], [ -4.8897759, 36.505671 ], [ -4.8897229, 36.5056755 ], [ -4.8897942, 36.5063324 ], [ -4.8894353, 36.5063582 ], [ -4.8890539, 36.5063818 ], [ -4.8887691, 36.5063997 ], [ -4.8884794, 36.5064169 ], [ -4.8882463, 36.5064307 ], [ -4.8882403, 36.5062705 ], [ -4.8881003, 36.5062443 ], [ -4.8882979, 36.5054746 ], [ -4.8883259, 36.5054031 ], [ -4.888363, 36.5053521 ], [ -4.8884306, 36.5052964 ], [ -4.8885026, 36.5052674 ], [ -4.8885746, 36.5052546 ], [ -4.8887667, 36.5052392 ], [ -4.8887633, 36.5052172 ], [ -4.8902858, 36.5050921 ], [ -4.8902856, 36.5051373 ], [ -4.8910122, 36.5050742 ], [ -4.8910216, 36.5051507 ], [ -4.8910356, 36.5052643 ], [ -4.8912196, 36.505259 ], [ -4.8912333, 36.5050557 ], [ -4.8913969, 36.5050406 ], [ -4.8914527, 36.5050583 ], [ -4.8915224, 36.5050888 ], [ -4.8916636, 36.5050789 ], [ -4.8917208, 36.5050312 ], [ -4.8917474, 36.5049901 ], [ -4.8917454, 36.5048668 ], [ -4.8916431, 36.5048273 ], [ -4.8888873, 36.5050444 ], [ -4.8886506, 36.5050725 ], [ -4.8885507, 36.5050788 ], [ -4.8882597, 36.5050605 ], [ -4.8881477, 36.50503 ], [ -4.8877141, 36.5047845 ], [ -4.8876154, 36.5048126 ], [ -4.8876462, 36.5048886 ], [ -4.888079, 36.5051767 ], [ -4.8880768, 36.5052324 ], [ -4.8879561, 36.5054353 ], [ -4.8879308, 36.505659 ], [ -4.8879145, 36.5057287 ], [ -4.8874507, 36.5060109 ], [ -4.8870868, 36.5060981 ], [ -4.8867646, 36.5062278 ], [ -4.8861534, 36.5063201 ], [ -4.8856688, 36.5064478 ], [ -4.8849876, 36.5065284 ], [ -4.8840444, 36.5063796 ], [ -4.8837576, 36.5064738 ], [ -4.8832153, 36.5066173 ], [ -4.8825115, 36.5067673 ], [ -4.8822404, 36.5068484 ], [ -4.8819278, 36.5068768 ], [ -4.8816238, 36.506875 ], [ -4.8811199, 36.5067992 ], [ -4.8807099, 36.506635 ], [ -4.8806536, 36.5065792 ], [ -4.8805792, 36.5066614 ], [ -4.8806918, 36.5071424 ], [ -4.8806284, 36.507232 ], [ -4.8805159, 36.507284 ], [ -4.8803309, 36.5073471 ], [ -4.8803026, 36.5073568 ], [ -4.8802453, 36.5073861 ], [ -4.8802473, 36.5074086 ], [ -4.8802083, 36.5074189 ], [ -4.8800808, 36.5074457 ], [ -4.8798336, 36.5075055 ], [ -4.8795497, 36.5075688 ], [ -4.8794442, 36.5075934 ], [ -4.879353, 36.5075836 ], [ -4.8791938, 36.5075878 ], [ -4.8790329, 36.5076191 ], [ -4.8788597, 36.5076374 ], [ -4.8784982, 36.5076168 ], [ -4.8781919, 36.507586 ], [ -4.8778896, 36.5075454 ], [ -4.8773238, 36.5073579 ], [ -4.8770114, 36.5071611 ], [ -4.8773691, 36.5067314 ], [ -4.8773745, 36.5066618 ], [ -4.8773153, 36.5066417 ], [ -4.8772465, 36.5066741 ], [ -4.8771963, 36.5067486 ], [ -4.877102, 36.5068902 ], [ -4.8769953, 36.5070264 ], [ -4.876901, 36.5071611 ], [ -4.8768387, 36.5072117 ], [ -4.8767729, 36.5072367 ], [ -4.876703, 36.5072457 ], [ -4.876615, 36.5072061 ], [ -4.8764208, 36.5071381 ], [ -4.8760996, 36.5070033 ], [ -4.8760175, 36.5069199 ], [ -4.8759864, 36.5068488 ], [ -4.875942, 36.5068273 ], [ -4.8759487, 36.5067453 ], [ -4.8757591, 36.5067458 ], [ -4.8757626, 36.5068747 ], [ -4.8757904, 36.5068766 ], [ -4.8757863, 36.5077542 ], [ -4.8747651, 36.5077537 ], [ -4.8747544, 36.5068459 ], [ -4.8745559, 36.5068481 ], [ -4.8745565, 36.5069802 ], [ -4.8745641, 36.507933 ], [ -4.8733732, 36.5079341 ], [ -4.8733545, 36.5073746 ], [ -4.8726228, 36.5073718 ], [ -4.8726953, 36.506737 ], [ -4.8740206, 36.5059373 ], [ -4.8745844, 36.5059285 ], [ -4.8746123, 36.5057903 ], [ -4.8763412, 36.5057761 ], [ -4.8763374, 36.5062003 ], [ -4.8764666, 36.5061958 ], [ -4.8764851, 36.5059218 ], [ -4.8766647, 36.5059069 ], [ -4.8767793, 36.5058278 ], [ -4.8771369, 36.5058348 ], [ -4.8771795, 36.5057447 ], [ -4.8771823, 36.5056454 ], [ -4.8771162, 36.5055531 ], [ -4.8740169, 36.5055259 ], [ -4.8724667, 36.5065184 ], [ -4.8724059, 36.5066048 ], [ -4.8723725, 36.5066119 ], [ -4.86956, 36.5070994 ], [ -4.8675525, 36.5073169 ], [ -4.8655591, 36.5074394 ], [ -4.8648948, 36.5074506 ], [ -4.8623214, 36.5074027 ], [ -4.8608674, 36.507319 ], [ -4.8597749, 36.5072116 ], [ -4.8586162, 36.5070612 ], [ -4.8543661, 36.5064877 ], [ -4.8513271, 36.5057976 ], [ -4.8502656, 36.5055003 ], [ -4.8479407, 36.5049441 ], [ -4.846441, 36.5045197 ], [ -4.8457668, 36.5043619 ], [ -4.8449857, 36.5040532 ], [ -4.8444795, 36.5037901 ], [ -4.843187, 36.50301 ], [ -4.8424576, 36.502752 ], [ -4.8422213, 36.5027325 ], [ -4.8420644, 36.5027619 ], [ -4.8419274, 36.5027807 ], [ -4.8413418, 36.5028395 ], [ -4.8399751, 36.5026735 ], [ -4.839035, 36.502404 ], [ -4.8362223, 36.5018019 ], [ -4.8349351, 36.501625 ], [ -4.8321613, 36.5012427 ], [ -4.8306929, 36.5009934 ], [ -4.8288504, 36.5008045 ], [ -4.8265267, 36.5004878 ], [ -4.8254641, 36.5002949 ], [ -4.8249098, 36.5002376 ], [ -4.8236946, 36.5000084 ], [ -4.8228179, 36.4998333 ], [ -4.8221341, 36.499728 ], [ -4.8217151, 36.4996679 ], [ -4.8216265, 36.4996502 ], [ -4.8212747, 36.4995801 ], [ -4.820664, 36.4994351 ], [ -4.8205009, 36.4993995 ], [ -4.8196615, 36.4992697 ], [ -4.818163, 36.4991064 ], [ -4.817769, 36.4990849 ], [ -4.8166856, 36.49894 ], [ -4.8150507, 36.4986747 ], [ -4.8141898, 36.498502 ], [ -4.8138659, 36.4984408 ], [ -4.8132386, 36.4983223 ], [ -4.8116916, 36.4979963 ], [ -4.8099979, 36.4976374 ], [ -4.8085803, 36.4973603 ], [ -4.8074826, 36.497105 ], [ -4.8059658, 36.4967752 ], [ -4.80404, 36.496348 ], [ -4.8024579, 36.495962 ], [ -4.8014035, 36.4957302 ], [ -4.8004558, 36.49545 ], [ -4.7992902, 36.4952132 ], [ -4.7982931, 36.4949062 ], [ -4.7973632, 36.4946777 ], [ -4.7960064, 36.4943871 ], [ -4.794442, 36.494052 ], [ -4.7937097, 36.4938582 ], [ -4.7926956, 36.4937033 ], [ -4.791243, 36.49333 ], [ -4.790283, 36.493087 ], [ -4.7895507, 36.4928981 ], [ -4.788363, 36.492602 ], [ -4.7874893, 36.4923999 ], [ -4.7867297, 36.4922011 ], [ -4.7854246, 36.4919286 ], [ -4.7849089, 36.4917939 ], [ -4.783463, 36.4914671 ], [ -4.7830961, 36.4914207 ], [ -4.7818325, 36.4911544 ], [ -4.7804899, 36.490828 ], [ -4.7797744, 36.4906454 ], [ -4.7787539, 36.4904187 ], [ -4.7779047, 36.4901588 ], [ -4.7771235, 36.4899118 ], [ -4.7757737, 36.4895503 ], [ -4.7750193, 36.4894211 ], [ -4.7740379, 36.4891835 ], [ -4.7728456, 36.4889347 ], [ -4.7720591, 36.4887573 ], [ -4.7710455, 36.488525 ], [ -4.7688105, 36.4881106 ], [ -4.7680028, 36.487842 ], [ -4.7663906, 36.4876767 ], [ -4.7659317, 36.4875713 ], [ -4.764986, 36.4874002 ], [ -4.7646652, 36.4873422 ], [ -4.7642477, 36.4872666 ], [ -4.7639762, 36.4872175 ], [ -4.7634437, 36.4871502 ], [ -4.7623737, 36.4869732 ], [ -4.7615533, 36.4866867 ], [ -4.7609904, 36.4866486 ], [ -4.7605279, 36.486493 ], [ -4.7598015, 36.4863644 ], [ -4.7584512, 36.4862374 ], [ -4.7580181, 36.4860739 ], [ -4.7575014, 36.4858703 ], [ -4.7566992, 36.4856784 ], [ -4.75523, 36.4855975 ], [ -4.7546236, 36.4854283 ], [ -4.7544134, 36.4853993 ], [ -4.7540575, 36.4853503 ], [ -4.753364, 36.4853004 ], [ -4.7528141, 36.4852192 ], [ -4.7525374, 36.4851091 ], [ -4.7516053, 36.485062 ], [ -4.7509274, 36.4849404 ], [ -4.7503604, 36.4849975 ], [ -4.7493269, 36.4848864 ], [ -4.7487277, 36.4849782 ], [ -4.7478344, 36.4849823 ], [ -4.7476416, 36.4849788 ], [ -4.7461764, 36.484952 ], [ -4.745754, 36.4848486 ], [ -4.7451057, 36.4848297 ], [ -4.7445236, 36.4845531 ], [ -4.7443099, 36.4844945 ], [ -4.7438163, 36.4844055 ], [ -4.7435085, 36.4842791 ], [ -4.7432882, 36.4838992 ], [ -4.7432844, 36.4839676 ], [ -4.7431736, 36.4840166 ], [ -4.7425424, 36.4841346 ], [ -4.7421242, 36.4841833 ], [ -4.741759, 36.484179 ], [ -4.7409956, 36.4840758 ], [ -4.7405673, 36.4838223 ], [ -4.7405407, 36.4838066 ], [ -4.7405493, 36.4835789 ], [ -4.7407038, 36.4836341 ], [ -4.7407587, 36.4836112 ], [ -4.740781, 36.4835514 ], [ -4.7407549, 36.483492 ], [ -4.7406748, 36.4834707 ], [ -4.7406146, 36.4834791 ], [ -4.7401983, 36.483347 ], [ -4.7399999, 36.4832514 ], [ -4.7398861, 36.483224 ], [ -4.739765, 36.4832514 ], [ -4.7397486, 36.4832998 ], [ -4.7397407, 36.4833455 ], [ -4.7397241, 36.4833662 ], [ -4.7396698, 36.4833751 ], [ -4.7395576, 36.4833997 ], [ -4.7396007, 36.4835401 ], [ -4.7397552, 36.4835145 ], [ -4.7400468, 36.4845593 ], [ -4.7399233, 36.4845861 ], [ -4.7399307, 36.4846017 ], [ -4.740063, 36.4845784 ], [ -4.7400727, 36.4846196 ], [ -4.7399066, 36.4846477 ], [ -4.7399084, 36.4846654 ], [ -4.7400707, 36.4846391 ], [ -4.7400823, 36.4846864 ], [ -4.7399257, 36.4847118 ], [ -4.7399457, 36.4847794 ], [ -4.7399698, 36.4847802 ], [ -4.7400834, 36.485174 ], [ -4.7401044, 36.4851842 ], [ -4.7401296, 36.4851842 ], [ -4.7402442, 36.4851352 ], [ -4.7403609, 36.4850912 ], [ -4.7405774, 36.4850346 ], [ -4.7407256, 36.4850025 ], [ -4.7408307, 36.4849873 ], [ -4.7408755, 36.4849867 ], [ -4.7409064, 36.485005 ], [ -4.7409285, 36.4850388 ], [ -4.7409779, 36.4851648 ], [ -4.741017, 36.4852794 ], [ -4.7410441, 36.4853989 ], [ -4.7410368, 36.4854284 ], [ -4.7410084, 36.4854521 ], [ -4.7409674, 36.4854622 ], [ -4.7408906, 36.4854851 ], [ -4.7407677, 36.4855163 ], [ -4.7404429, 36.4855704 ], [ -4.7404239, 36.4855037 ], [ -4.7403549, 36.4855109 ], [ -4.7403432, 36.4855189 ], [ -4.7403328, 36.4855386 ], [ -4.7403451, 36.4855577 ], [ -4.7404239, 36.4856085 ], [ -4.7404765, 36.4856516 ], [ -4.7405454, 36.4857095 ], [ -4.7405937, 36.4857579 ], [ -4.7406168, 36.4857872 ], [ -4.7406192, 36.4858138 ], [ -4.7406142, 36.4858429 ], [ -4.74059, 36.4858699 ], [ -4.7405027, 36.4859266 ], [ -4.7404541, 36.4859528 ], [ -4.7404153, 36.4859566 ], [ -4.7403669, 36.4859487 ], [ -4.7402755, 36.4858892 ], [ -4.7401164, 36.485763 ], [ -4.7399709, 36.4856223 ], [ -4.7399039, 36.4855443 ], [ -4.7398105, 36.485418 ], [ -4.7397108, 36.4852559 ], [ -4.7396268, 36.4850714 ], [ -4.7395611, 36.4848559 ], [ -4.7394399, 36.48444 ], [ -4.7392041, 36.4836537 ], [ -4.7393116, 36.4836378 ], [ -4.7392962, 36.4835759 ], [ -4.7391967, 36.4835932 ], [ -4.7391628, 36.4835618 ], [ -4.7391422, 36.4834645 ], [ -4.7391331, 36.4833374 ], [ -4.7391689, 36.4832144 ], [ -4.7392521, 36.483098 ], [ -4.7393477, 36.4830199 ], [ -4.739897, 36.4828405 ], [ -4.7403519, 36.4827991 ], [ -4.7405321, 36.4827991 ], [ -4.7405836, 36.4826611 ], [ -4.7404291, 36.4826197 ], [ -4.7397425, 36.482737 ], [ -4.739356, 36.482834 ], [ -4.7390678, 36.4830389 ], [ -4.7389821, 36.4831607 ], [ -4.7389529, 36.4832822 ], [ -4.7389472, 36.4834546 ], [ -4.7389872, 36.4836272 ], [ -4.7390991, 36.4840546 ], [ -4.739173, 36.4842956 ], [ -4.739274, 36.4845848 ], [ -4.7390129, 36.4847742 ], [ -4.7385251, 36.4849277 ], [ -4.7380526, 36.4851756 ], [ -4.7375538, 36.4853286 ], [ -4.7372777, 36.4854009 ], [ -4.7369092, 36.485497 ], [ -4.7362249, 36.4856343 ], [ -4.7353966, 36.4858606 ], [ -4.7346349, 36.4859383 ], [ -4.734127, 36.485953 ], [ -4.7338528, 36.4860507 ], [ -4.7334758, 36.4861093 ], [ -4.732861, 36.486228 ], [ -4.732042, 36.4864619 ], [ -4.7321896, 36.4866472 ], [ -4.7322294, 36.4866844 ], [ -4.7322495, 36.4867106 ], [ -4.7325475, 36.4870678 ], [ -4.7326161, 36.48715 ], [ -4.7334182, 36.4881114 ], [ -4.7335781, 36.488303 ], [ -4.7374276, 36.4929167 ], [ -4.7374574, 36.4932498 ], [ -4.7365139, 36.4949942 ], [ -4.7363295, 36.495736 ], [ -4.735873, 36.4962363 ], [ -4.7359008, 36.4964345 ], [ -4.7361657, 36.4965558 ], [ -4.7364152, 36.4967019 ], [ -4.7365216, 36.4968432 ], [ -4.736509, 36.4971634 ], [ -4.7365089, 36.4974757 ], [ -4.7365364, 36.4974874 ], [ -4.7366262, 36.4975255 ], [ -4.7373232, 36.4977407 ], [ -4.7375652, 36.4980797 ], [ -4.7375231, 36.4984275 ], [ -4.7374022, 36.4987761 ], [ -4.7369151, 36.4989635 ], [ -4.736619, 36.4992022 ], [ -4.736492, 36.5000153 ], [ -4.7362929, 36.5000993 ], [ -4.7358011, 36.5005752 ], [ -4.7351763, 36.501098 ], [ -4.7350106, 36.5011726 ], [ -4.7340526, 36.5017724 ], [ -4.733934, 36.5019634 ], [ -4.7339636, 36.5022875 ], [ -4.7340865, 36.5028777 ], [ -4.7341648, 36.5030116 ], [ -4.7342958, 36.503166 ], [ -4.7343089, 36.5037518 ], [ -4.7345081, 36.5041725 ], [ -4.7347371, 36.5044306 ], [ -4.7351326, 36.5046412 ], [ -4.7355219, 36.5050772 ], [ -4.7358732, 36.5053065 ], [ -4.7362975, 36.5053093 ], [ -4.7364447, 36.5053973 ], [ -4.7364854, 36.5057212 ], [ -4.7364349, 36.5064611 ], [ -4.7362495, 36.5071579 ], [ -4.7360034, 36.5076392 ], [ -4.7349999, 36.5082036 ], [ -4.7347821, 36.5084502 ], [ -4.7347444, 36.509262 ], [ -4.7344094, 36.5097626 ], [ -4.7338436, 36.5104289 ], [ -4.7326922, 36.511374 ], [ -4.7322227, 36.5123543 ], [ -4.7311816, 36.5133158 ], [ -4.7309535, 36.5135265 ], [ -4.7307421, 36.5140614 ], [ -4.7306587, 36.5153336 ], [ -4.7305677, 36.5156831 ], [ -4.7309471, 36.5162489 ], [ -4.7316534, 36.5173744 ], [ -4.732054, 36.518315 ], [ -4.732376, 36.518734 ], [ -4.732817, 36.51898 ], [ -4.7332938, 36.5193246 ], [ -4.7339113, 36.5199736 ], [ -4.7350916, 36.5208218 ], [ -4.7354025, 36.5212409 ], [ -4.7357375, 36.5212361 ], [ -4.736929, 36.5210835 ], [ -4.7374559, 36.521175 ], [ -4.7378118, 36.521403 ], [ -4.7378411, 36.5214218 ], [ -4.7387675, 36.521895 ], [ -4.7402117, 36.5220543 ], [ -4.7405503, 36.5222116 ], [ -4.7415174, 36.5230087 ], [ -4.7423156, 36.5232914 ], [ -4.742373, 36.5233117 ], [ -4.7425806, 36.5236061 ], [ -4.7427669, 36.5244417 ], [ -4.7428961, 36.5247283 ], [ -4.7438571, 36.525246 ], [ -4.7442801, 36.5251858 ], [ -4.7449019, 36.5250234 ], [ -4.7453816, 36.5249984 ], [ -4.7456968, 36.525111 ], [ -4.7460831, 36.5254028 ], [ -4.7465234, 36.5256127 ], [ -4.747108, 36.5257844 ], [ -4.7475274, 36.5260577 ], [ -4.7481875, 36.5266069 ], [ -4.7488724, 36.5272639 ], [ -4.7492407, 36.5277256 ], [ -4.749313, 36.5278299 ], [ -4.7494126, 36.527941 ], [ -4.749609, 36.5287381 ], [ -4.7496462, 36.528893 ], [ -4.7498144, 36.528937 ], [ -4.7499834, 36.5289872 ], [ -4.7504418, 36.5290076 ], [ -4.7510439, 36.5289627 ], [ -4.7517217, 36.5288085 ], [ -4.7524905, 36.5287251 ], [ -4.753265, 36.5293898 ], [ -4.7537256, 36.5295092 ], [ -4.754751, 36.5299087 ], [ -4.7560152, 36.5304941 ], [ -4.7564503, 36.5307409 ], [ -4.7566675, 36.5308641 ], [ -4.7570221, 36.5310652 ], [ -4.7570664, 36.5310465 ], [ -4.7577871, 36.5313063 ], [ -4.757834, 36.5313073 ], [ -4.7582788, 36.5313171 ], [ -4.7587177, 36.5314638 ], [ -4.7593103, 36.5314911 ], [ -4.7611211, 36.5310588 ], [ -4.7617952, 36.5307424 ], [ -4.7623308, 36.5307164 ], [ -4.7638873, 36.5308917 ], [ -4.7651837, 36.5309266 ], [ -4.7655769, 36.531029 ], [ -4.7656422, 36.5314427 ], [ -4.7659237, 36.5320334 ], [ -4.7664146, 36.5325039 ], [ -4.767003, 36.5328377 ], [ -4.7671761, 36.5330785 ], [ -4.7673085, 36.5335002 ], [ -4.7675528, 36.5339292 ], [ -4.7679942, 36.5341841 ], [ -4.7686001, 36.5343013 ], [ -4.7693484, 36.5342992 ], [ -4.7702774, 36.5343846 ], [ -4.7710865, 36.5345979 ], [ -4.7718985, 36.5349374 ], [ -4.7720715, 36.5351782 ], [ -4.7722877, 36.535842 ], [ -4.7725573, 36.5363969 ], [ -4.7729598, 36.5369047 ], [ -4.7732736, 36.5374409 ], [ -4.7736353, 36.5376248 ], [ -4.774944, 36.5377045 ], [ -4.7754944, 36.5378405 ], [ -4.7758594, 36.5376818 ], [ -4.7766587, 36.5374626 ], [ -4.7769614, 36.5375122 ], [ -4.7785653, 36.5387772 ], [ -4.7788366, 36.5389174 ], [ -4.7797959, 36.538858 ], [ -4.7813539, 36.5390872 ], [ -4.7819229, 36.5390606 ], [ -4.7827412, 36.5391836 ], [ -4.7835892, 36.5396307 ], [ -4.7850494, 36.5399784 ], [ -4.7856129, 36.5401953 ], [ -4.7860016, 36.540183 ], [ -4.7867591, 36.5400069 ], [ -4.7870947, 36.5400289 ], [ -4.7877515, 36.5404156 ], [ -4.7886528, 36.5412314 ], [ -4.7895683, 36.5416954 ], [ -4.7903682, 36.5424766 ], [ -4.7909696, 36.5428822 ], [ -4.7914203, 36.5430467 ], [ -4.7918452, 36.5430674 ], [ -4.7925014, 36.5429403 ], [ -4.7932431, 36.5426498 ], [ -4.7946248, 36.542016 ], [ -4.7952909, 36.5418348 ], [ -4.7956503, 36.5419195 ], [ -4.7958578, 36.5421958 ], [ -4.7960161, 36.5427613 ], [ -4.7962171, 36.5442095 ], [ -4.7964922, 36.5445118 ], [ -4.7969075, 36.5445957 ], [ -4.7990678, 36.5447794 ], [ -4.7999873, 36.5449278 ], [ -4.8007744, 36.5451503 ], [ -4.801555, 36.5455712 ], [ -4.8021021, 36.5460406 ], [ -4.8024707, 36.5465218 ], [ -4.802611, 36.5467901 ], [ -4.8037752, 36.546412 ], [ -4.8055018, 36.5461965 ], [ -4.8065328, 36.5458564 ], [ -4.806839, 36.5455724 ], [ -4.8079088, 36.5449793 ], [ -4.8080262, 36.5447431 ], [ -4.808017, 36.5443467 ], [ -4.8084625, 36.5433304 ], [ -4.8088405, 36.5427748 ], [ -4.8091942, 36.5416517 ], [ -4.8093924, 36.5415315 ], [ -4.8098943, 36.5414969 ], [ -4.8145858, 36.541011 ], [ -4.8153639, 36.5408459 ], [ -4.8160149, 36.5405025 ], [ -4.8165795, 36.5402865 ], [ -4.8172588, 36.5401951 ], [ -4.8177731, 36.5402143 ], [ -4.8184909, 36.5403385 ], [ -4.8191051, 36.5403292 ], [ -4.8196274, 36.540213 ], [ -4.820113, 36.5399623 ], [ -4.8206919, 36.5398813 ], [ -4.8210927, 36.5397753 ], [ -4.8216689, 36.539623 ], [ -4.82225, 36.5396322 ], [ -4.8227731, 36.5395521 ], [ -4.8232277, 36.5394099 ], [ -4.823746, 36.5391226 ], [ -4.827458, 36.5373712 ], [ -4.8395769, 36.5331016 ], [ -4.8449199, 36.5309189 ], [ -4.8483954, 36.5305316 ], [ -4.8520472, 36.5300423 ], [ -4.854384, 36.5306189 ], [ -4.8547334, 36.5307487 ], [ -4.856351, 36.5311382 ], [ -4.8601564, 36.5319352 ], [ -4.861323, 36.5321423 ], [ -4.8656936, 36.5318217 ], [ -4.8659865, 36.5319253 ], [ -4.8677306, 36.5338539 ], [ -4.8683392, 36.5345475 ], [ -4.8715271, 36.5370574 ], [ -4.8724025, 36.5376926 ], [ -4.872866, 36.5379197 ], [ -4.8739818, 36.5383348 ], [ -4.8755572, 36.5388149 ], [ -4.8783398, 36.5397896 ], [ -4.8788383, 36.5400792 ], [ -4.8791814, 36.5404073 ], [ -4.8835195, 36.5442598 ], [ -4.8848014, 36.5455285 ], [ -4.8855776, 36.5462103 ], [ -4.8862187, 36.5467162 ], [ -4.8879976, 36.5478756 ], [ -4.8885393, 36.5481014 ], [ -4.8915547, 36.548982 ], [ -4.8931733, 36.549389 ], [ -4.8951132, 36.5496827 ], [ -4.8971746, 36.5499203 ], [ -4.8988243, 36.5502275 ], [ -4.8995287, 36.5502524 ], [ -4.9008979, 36.5500503 ], [ -4.9040808, 36.5496931 ], [ -4.9057665, 36.5495039 ], [ -4.9091384, 36.5489722 ], [ -4.9144548, 36.5480127 ], [ -4.9147478, 36.5481161 ], [ -4.9151821, 36.5489655 ], [ -4.9156276, 36.5493639 ], [ -4.9162299, 36.5497779 ], [ -4.918406, 36.5510408 ], [ -4.9193851, 36.5517822 ], [ -4.9201956, 36.5524813 ], [ -4.9212056, 36.5535647 ], [ -4.9217414, 36.5539977 ], [ -4.9221803, 36.5541258 ], [ -4.9221655, 36.5544325 ], [ -4.9220367, 36.5548062 ], [ -4.9221429, 36.5549709 ], [ -4.922409, 36.5549391 ], [ -4.9225946, 36.5548549 ], [ -4.9227144, 36.5547246 ], [ -4.922721, 36.5545662 ], [ -4.9227219, 36.5542904 ], [ -4.9228002, 36.5540555 ], [ -4.9229624, 36.5538661 ], [ -4.9231407, 36.5537275 ], [ -4.9233462, 36.5536494 ], [ -4.9237293, 36.5535585 ], [ -4.9239566, 36.5534782 ], [ -4.9240136, 36.553445 ], [ -4.9246278, 36.5530972 ], [ -4.9247574, 36.5529455 ], [ -4.9248695, 36.5527511 ], [ -4.9249138, 36.5524665 ], [ -4.9250545, 36.5523493 ], [ -4.9250725, 36.5521908 ], [ -4.9250392, 36.5517816 ], [ -4.9249707, 36.5516098 ], [ -4.9251223, 36.5514706 ], [ -4.9251801, 36.5512443 ], [ -4.925283, 36.5510108 ], [ -4.9255947, 36.5508734 ], [ -4.9259372, 36.5507656 ], [ -4.926142, 36.5506238 ], [ -4.926421, 36.5506181 ], [ -4.9265058, 36.5505954 ], [ -4.9265658, 36.55055 ], [ -4.9266753, 36.5505018 ], [ -4.9268766, 36.5503373 ], [ -4.9268729, 36.5502367 ], [ -4.9267812, 36.5500337 ], [ -4.9275962, 36.5495558 ], [ -4.9288858, 36.5488167 ], [ -4.9324779, 36.5467559 ], [ -4.9347082, 36.5454757 ], [ -4.9356555, 36.5449284 ], [ -4.9366825, 36.5443431 ], [ -4.9394631, 36.5427404 ], [ -4.9404954, 36.542355 ], [ -4.9456599, 36.5404561 ], [ -4.9498153, 36.5399988 ], [ -4.9513067, 36.5398325 ], [ -4.9521879, 36.539738 ], [ -4.9532295, 36.5396191 ], [ -4.9546302, 36.5391301 ], [ -4.9565974, 36.5384416 ], [ -4.9572838, 36.5381931 ], [ -4.9583536, 36.5378186 ], [ -4.9593282, 36.5374764 ], [ -4.9643221, 36.5372964 ], [ -4.9691659, 36.537122 ], [ -4.9706036, 36.5370737 ], [ -4.9712878, 36.5365405 ], [ -4.972444, 36.5356565 ], [ -4.9735358, 36.5348134 ], [ -4.9747686, 36.5338631 ], [ -4.9752683, 36.5334815 ], [ -4.9767463, 36.5323467 ], [ -4.9771315, 36.5320513 ], [ -4.9777801, 36.5315438 ], [ -4.979222, 36.5304461 ], [ -4.9803398, 36.5291106 ], [ -4.982428, 36.5266258 ], [ -4.9866144, 36.5216421 ], [ -4.9868181, 36.5214003 ], [ -4.9868672, 36.5205796 ], [ -4.9869094, 36.5197929 ], [ -4.9869556, 36.5189804 ], [ -4.9870471, 36.517404 ], [ -4.9871368, 36.5158214 ], [ -4.9874169, 36.5151351 ], [ -4.9880008, 36.5136692 ], [ -4.9886098, 36.5121522 ], [ -4.9890203, 36.5108432 ], [ -4.9892158, 36.5102024 ], [ -4.9894041, 36.5095868 ], [ -4.9900583, 36.5094348 ], [ -4.9912846, 36.5091567 ], [ -4.992625, 36.5088488 ], [ -4.9939385, 36.5078402 ], [ -4.9949373, 36.5070741 ], [ -4.9959543, 36.5062881 ], [ -4.9963661, 36.5059701 ], [ -4.9976178, 36.5053248 ], [ -4.9991235, 36.5045474 ], [ -5.001945, 36.5030901 ], [ -5.0028652, 36.5026166 ], [ -5.0036018, 36.5022357 ], [ -5.0051934, 36.5014186 ], [ -5.0059177, 36.5010433 ], [ -5.0067754, 36.5005992 ], [ -5.0075881, 36.5001808 ], [ -5.0083924, 36.4997667 ], [ -5.0095881, 36.499148 ], [ -5.0107529, 36.4985491 ], [ -5.0121787, 36.4978134 ], [ -5.0126765, 36.4975557 ], [ -5.0128485, 36.4971709 ], [ -5.0132074, 36.4963857 ], [ -5.0135786, 36.4955504 ], [ -5.0143586, 36.493812 ], [ -5.0146669, 36.4931282 ] ] ] } }
]
}
