{
"type": "FeatureCollection",
"name": "metz_fr",
"crs": { "type": "name", "properties": { "name": "urn:ogc:def:crs:OGC:1.3:CRS84" } },
"features": [
{ "type": "Feature", "properties": { }, "geometry": { "type": "Polygon", "coordinates": [ [ [ 6.1360042, 49.1378777 ], [ 6.1360537, 49.1378107 ], [ 6.136419, 49.1373159 ], [ 6.1364481, 49.1373035 ], [ 6.1367932, 49.1369088 ], [ 6.1368595, 49.1368329 ], [ 6.1372196, 49.1364265 ], [ 6.1374398, 49.1362669 ], [ 6.137668, 49.136175 ], [ 6.1377904, 49.1361812 ], [ 6.1377888, 49.1361432 ], [ 6.1379348, 49.1360203 ], [ 6.1379745, 49.1360075 ], [ 6.1381267, 49.1357968 ], [ 6.138429, 49.1352726 ], [ 6.1384626, 49.1351863 ], [ 6.1384937, 49.1351157 ], [ 6.1386305, 49.1345684 ], [ 6.1387041, 49.1341801 ], [ 6.1387618, 49.1338753 ], [ 6.138787, 49.1337487 ], [ 6.1387544, 49.1330109 ], [ 6.1387508, 49.1329928 ], [ 6.1387145, 49.1328083 ], [ 6.1386847, 49.1327527 ], [ 6.1386073, 49.1326083 ], [ 6.1379268, 49.1324442 ], [ 6.1378628, 49.1324425 ], [ 6.1372195, 49.1322327 ], [ 6.1371454, 49.1322027 ], [ 6.1370857, 49.1321538 ], [ 6.1366015, 49.1319739 ], [ 6.13675, 49.1318662 ], [ 6.1366739, 49.1318515 ], [ 6.1365713, 49.1318835 ], [ 6.1365555, 49.1318018 ], [ 6.1364792, 49.1314073 ], [ 6.1364773, 49.1309904 ], [ 6.1365529, 49.1305178 ], [ 6.1366027, 49.1302062 ], [ 6.1365945, 49.1298379 ], [ 6.1365628, 49.1295387 ], [ 6.136534, 49.1294486 ], [ 6.1364776, 49.1293806 ], [ 6.136802, 49.1293357 ], [ 6.1368891, 49.1293244 ], [ 6.1384976, 49.1290643 ], [ 6.1388086, 49.129036 ], [ 6.1391411, 49.1290094 ], [ 6.1392928, 49.1289937 ], [ 6.1396808, 49.1289512 ], [ 6.1406206, 49.1288482 ], [ 6.1412439, 49.1287999 ], [ 6.1426763, 49.1287897 ], [ 6.1429264, 49.1287825 ], [ 6.1430571, 49.1287657 ], [ 6.1437908, 49.1286233 ], [ 6.1441588, 49.1285725 ], [ 6.1443685, 49.1285557 ], [ 6.1443843, 49.1286091 ], [ 6.1449266, 49.1285674 ], [ 6.1477139, 49.1284696 ], [ 6.1488269, 49.1284444 ], [ 6.1495025, 49.128395 ], [ 6.1502219, 49.1283761 ], [ 6.1507494, 49.1283137 ], [ 6.1510534, 49.1282479 ], [ 6.1512886, 49.1281799 ], [ 6.1513251, 49.1281641 ], [ 6.1532142, 49.1271584 ], [ 6.1534881, 49.1270307 ], [ 6.1546272, 49.1267251 ], [ 6.1549831, 49.1266556 ], [ 6.1558345, 49.1264243 ], [ 6.1576441, 49.1259725 ], [ 6.1584223, 49.1257596 ], [ 6.1585999, 49.1257235 ], [ 6.1586893, 49.1256781 ], [ 6.1589678, 49.125616 ], [ 6.1592019, 49.1255317 ], [ 6.1592241, 49.125509 ], [ 6.158988, 49.1251142 ], [ 6.1590953, 49.125137 ], [ 6.1592663, 49.1252023 ], [ 6.1593384, 49.1252167 ], [ 6.1593388, 49.1252026 ], [ 6.1591579, 49.1249202 ], [ 6.1587801, 49.1244442 ], [ 6.1582117, 49.1238966 ], [ 6.1580459, 49.1237784 ], [ 6.1579311, 49.1237196 ], [ 6.1554209, 49.1229122 ], [ 6.150719, 49.1214691 ], [ 6.1500157, 49.1212187 ], [ 6.1499237, 49.1212211 ], [ 6.1498712, 49.1212003 ], [ 6.1497488, 49.1210986 ], [ 6.1494928, 49.1207372 ], [ 6.1494046, 49.1205662 ], [ 6.1491895, 49.1202865 ], [ 6.149132, 49.1202746 ], [ 6.1490693, 49.1202192 ], [ 6.1487631, 49.1201209 ], [ 6.1486845, 49.1200539 ], [ 6.1486587, 49.1198456 ], [ 6.1489905, 49.119746 ], [ 6.1490923, 49.1196778 ], [ 6.1484986, 49.119521 ], [ 6.1482166, 49.1194025 ], [ 6.1482231, 49.1193719 ], [ 6.1485806, 49.1188933 ], [ 6.1490476, 49.1189109 ], [ 6.1491531, 49.1189283 ], [ 6.1497713, 49.1189579 ], [ 6.1509987, 49.1189552 ], [ 6.151722, 49.1189372 ], [ 6.1525471, 49.1189048 ], [ 6.1535858, 49.1188109 ], [ 6.1540042, 49.1187271 ], [ 6.1548267, 49.1184351 ], [ 6.1559063, 49.1181347 ], [ 6.1562631, 49.1180491 ], [ 6.1568636, 49.1179466 ], [ 6.1569087, 49.1179443 ], [ 6.1578324, 49.117898 ], [ 6.157974, 49.117907 ], [ 6.1581488, 49.1179441 ], [ 6.1598577, 49.1184155 ], [ 6.1609241, 49.1186238 ], [ 6.1611121, 49.118674 ], [ 6.1613822, 49.1187223 ], [ 6.1617203, 49.118758 ], [ 6.1619724, 49.1187755 ], [ 6.1622663, 49.1187837 ], [ 6.1624623, 49.1187739 ], [ 6.1636768, 49.1185776 ], [ 6.164083, 49.1184901 ], [ 6.16442, 49.1183684 ], [ 6.1657115, 49.1177867 ], [ 6.1661686, 49.1176372 ], [ 6.1666311, 49.1175222 ], [ 6.1667242, 49.117499 ], [ 6.1667521, 49.1174632 ], [ 6.1667378, 49.117374 ], [ 6.1667296, 49.1173229 ], [ 6.1667157, 49.1172365 ], [ 6.1665646, 49.1171306 ], [ 6.1665392, 49.1170745 ], [ 6.1662082, 49.1167157 ], [ 6.1660588, 49.1164979 ], [ 6.1660028, 49.1163865 ], [ 6.1658904, 49.1161568 ], [ 6.165849, 49.1159801 ], [ 6.1658378, 49.1159323 ], [ 6.1658305, 49.1159012 ], [ 6.1657934, 49.1157427 ], [ 6.1657821, 49.1154383 ], [ 6.1656891, 49.1148997 ], [ 6.1657377, 49.114525 ], [ 6.1656222, 49.1139416 ], [ 6.1653884, 49.1132092 ], [ 6.1652843, 49.1130429 ], [ 6.164893, 49.1125398 ], [ 6.1647995, 49.1124236 ], [ 6.1645746, 49.1122493 ], [ 6.1644492, 49.1121568 ], [ 6.1642077, 49.1120183 ], [ 6.163301, 49.1115512 ], [ 6.1629021, 49.1112927 ], [ 6.1626301, 49.1110686 ], [ 6.1621477, 49.1106462 ], [ 6.1615591, 49.1100163 ], [ 6.1610146, 49.109439 ], [ 6.1606435, 49.1090194 ], [ 6.1601534, 49.1084995 ], [ 6.1610745, 49.1080091 ], [ 6.1611617, 49.1079724 ], [ 6.1613959, 49.1081045 ], [ 6.1624658, 49.1074387 ], [ 6.1626081, 49.107341 ], [ 6.1631547, 49.1069176 ], [ 6.1639596, 49.1063307 ], [ 6.1640638, 49.1062607 ], [ 6.1641809, 49.1062251 ], [ 6.1639408, 49.1058814 ], [ 6.163464, 49.1053253 ], [ 6.1631969, 49.105019 ], [ 6.1622836, 49.1039865 ], [ 6.1620541, 49.1037073 ], [ 6.1618171, 49.1034671 ], [ 6.1619243, 49.1034277 ], [ 6.1617607, 49.1031387 ], [ 6.1614119, 49.1028168 ], [ 6.1604168, 49.1020124 ], [ 6.1601078, 49.1017699 ], [ 6.159523, 49.1014179 ], [ 6.1594495, 49.1013736 ], [ 6.1593683, 49.1013238 ], [ 6.1589308, 49.1010388 ], [ 6.1587846, 49.1009075 ], [ 6.1586106, 49.1007174 ], [ 6.1583785, 49.1004105 ], [ 6.1583288, 49.1003523 ], [ 6.1579525, 49.0998163 ], [ 6.1575886, 49.0992978 ], [ 6.1575756, 49.0992793 ], [ 6.1575586, 49.0992523 ], [ 6.1575367, 49.0992174 ], [ 6.1577109, 49.0991767 ], [ 6.1577716, 49.0991612 ], [ 6.1578133, 49.0991506 ], [ 6.1578677, 49.0991368 ], [ 6.1581542, 49.0990643 ], [ 6.158352, 49.0990142 ], [ 6.1584328, 49.0989937 ], [ 6.1587914, 49.0989029 ], [ 6.1589083, 49.0988739 ], [ 6.1592126, 49.0987929 ], [ 6.1592577, 49.0987808 ], [ 6.1599562, 49.098591 ], [ 6.1607174, 49.0983937 ], [ 6.1608175, 49.0983832 ], [ 6.1609142, 49.0983566 ], [ 6.1610203, 49.0983337 ], [ 6.1610649, 49.0982295 ], [ 6.1617238, 49.0980319 ], [ 6.1617762, 49.0980269 ], [ 6.1626893, 49.0977636 ], [ 6.1628686, 49.0977042 ], [ 6.1630717, 49.0976071 ], [ 6.1632596, 49.0975665 ], [ 6.1635631, 49.0975101 ], [ 6.1642817, 49.0973193 ], [ 6.1644436, 49.0973046 ], [ 6.1647592, 49.0972212 ], [ 6.1709409, 49.0958327 ], [ 6.1711468, 49.0954844 ], [ 6.1712342, 49.0949745 ], [ 6.17138, 49.0945765 ], [ 6.171463, 49.0944295 ], [ 6.1714606, 49.0943185 ], [ 6.1713906, 49.0942904 ], [ 6.1715479, 49.0941318 ], [ 6.1721194, 49.0936415 ], [ 6.1726302, 49.0931612 ], [ 6.1730667, 49.0927423 ], [ 6.1734188, 49.0923924 ], [ 6.1737735, 49.0920563 ], [ 6.1738641, 49.0919718 ], [ 6.1745492, 49.091392 ], [ 6.1747936, 49.091209 ], [ 6.1749317, 49.0911055 ], [ 6.1750682, 49.0909941 ], [ 6.1758093, 49.0902454 ], [ 6.1758902, 49.0902597 ], [ 6.1761698, 49.090038 ], [ 6.1764339, 49.0897668 ], [ 6.1766434, 49.0892725 ], [ 6.1769383, 49.0886172 ], [ 6.17716, 49.0882218 ], [ 6.1771875, 49.0882019 ], [ 6.1772222, 49.0881527 ], [ 6.1773895, 49.087799 ], [ 6.1774552, 49.0876489 ], [ 6.177519, 49.0875098 ], [ 6.1775383, 49.0874414 ], [ 6.1775446, 49.0872444 ], [ 6.1774462, 49.0872116 ], [ 6.1772064, 49.0871149 ], [ 6.1772911, 49.0863923 ], [ 6.1772685, 49.0858599 ], [ 6.1773207, 49.0852633 ], [ 6.177372, 49.0849872 ], [ 6.1774508, 49.0847025 ], [ 6.1775983, 49.0843956 ], [ 6.1777429, 49.0841426 ], [ 6.1778782, 49.0839516 ], [ 6.1785101, 49.0832061 ], [ 6.1789728, 49.0827899 ], [ 6.1792268, 49.0825872 ], [ 6.179406, 49.0825072 ], [ 6.1796573, 49.0824202 ], [ 6.1799868, 49.0823429 ], [ 6.1809851, 49.0822678 ], [ 6.181589, 49.0815556 ], [ 6.1817091, 49.0813805 ], [ 6.1817975, 49.0811895 ], [ 6.1820484, 49.0804336 ], [ 6.1819851, 49.0802832 ], [ 6.1817727, 49.0801454 ], [ 6.1814988, 49.0800329 ], [ 6.1812812, 49.0799801 ], [ 6.1801205, 49.079777 ], [ 6.1795863, 49.0797549 ], [ 6.1770584, 49.0797394 ], [ 6.1768971, 49.0797464 ], [ 6.1761217, 49.0798525 ], [ 6.1757239, 49.0800168 ], [ 6.174912, 49.0795909 ], [ 6.1743267, 49.0800004 ], [ 6.1741007, 49.0801405 ], [ 6.1736279, 49.0810399 ], [ 6.1733229, 49.0813926 ], [ 6.1729233, 49.081681 ], [ 6.1726723, 49.0817643 ], [ 6.1720907, 49.081848 ], [ 6.171705, 49.0818748 ], [ 6.1709181, 49.081854 ], [ 6.170352, 49.0818034 ], [ 6.1697798, 49.0817979 ], [ 6.1687366, 49.081729 ], [ 6.1684353, 49.0816708 ], [ 6.1680939, 49.0816593 ], [ 6.1675482, 49.0816796 ], [ 6.1669571, 49.0817307 ], [ 6.16636, 49.0817047 ], [ 6.1654918, 49.0816489 ], [ 6.1648674, 49.0815893 ], [ 6.1647626, 49.0814217 ], [ 6.165718, 49.0791693 ], [ 6.1664916, 49.0792916 ], [ 6.1669919, 49.0766369 ], [ 6.1655009, 49.0763277 ], [ 6.1631802, 49.0759117 ], [ 6.1635184, 49.0749534 ], [ 6.163743, 49.0743454 ], [ 6.163981, 49.0738692 ], [ 6.1642819, 49.0734623 ], [ 6.1636473, 49.0731916 ], [ 6.1642017, 49.0725495 ], [ 6.1643738, 49.0724198 ], [ 6.164568, 49.0726989 ], [ 6.1647135, 49.0729271 ], [ 6.1648336, 49.0730743 ], [ 6.1649352, 49.0731486 ], [ 6.1652251, 49.0733426 ], [ 6.1668712, 49.0741695 ], [ 6.1677925, 49.0742626 ], [ 6.1680944, 49.0738284 ], [ 6.1682122, 49.0737803 ], [ 6.1685122, 49.0737346 ], [ 6.1685637, 49.0735733 ], [ 6.1686737, 49.0729313 ], [ 6.1687738, 49.0725311 ], [ 6.1690276, 49.0720123 ], [ 6.1691439, 49.0717397 ], [ 6.1692742, 49.0715233 ], [ 6.1697802, 49.0716197 ], [ 6.1701379, 49.0716581 ], [ 6.1706613, 49.0718128 ], [ 6.1715175, 49.0707784 ], [ 6.1708395, 49.0703601 ], [ 6.1704621, 49.0700263 ], [ 6.1695328, 49.0694169 ], [ 6.169227, 49.0693054 ], [ 6.1706114, 49.0683209 ], [ 6.1703565, 49.0679368 ], [ 6.170135, 49.0675948 ], [ 6.1699109, 49.0672509 ], [ 6.1698938, 49.0672045 ], [ 6.1704831, 49.0667953 ], [ 6.1709498, 49.0664308 ], [ 6.1710475, 49.0662909 ], [ 6.1715473, 49.0658491 ], [ 6.171135, 49.0657629 ], [ 6.1714244, 49.0652057 ], [ 6.1715211, 49.0652228 ], [ 6.1718867, 49.0645196 ], [ 6.1719934, 49.0645329 ], [ 6.1721587, 49.0642378 ], [ 6.1726956, 49.063285 ], [ 6.1730712, 49.0632474 ], [ 6.1735702, 49.0633577 ], [ 6.1743103, 49.0635578 ], [ 6.1741567, 49.0639182 ], [ 6.1744775, 49.0640105 ], [ 6.1763108, 49.064817 ], [ 6.176484, 49.0648682 ], [ 6.1767687, 49.0651868 ], [ 6.1769593, 49.0653025 ], [ 6.1775816, 49.0655555 ], [ 6.1782162, 49.065754 ], [ 6.1789742, 49.0659482 ], [ 6.1795066, 49.0661067 ], [ 6.1795626, 49.0660831 ], [ 6.1805812, 49.0663907 ], [ 6.1816644, 49.0666256 ], [ 6.18164, 49.0667891 ], [ 6.1818904, 49.0668241 ], [ 6.1826067, 49.0668001 ], [ 6.1827077, 49.0665065 ], [ 6.183387, 49.0666952 ], [ 6.1840766, 49.066965 ], [ 6.1842522, 49.0666743 ], [ 6.1855012, 49.0672372 ], [ 6.1862604, 49.0668618 ], [ 6.1864593, 49.066786 ], [ 6.1865491, 49.0667518 ], [ 6.1866344, 49.0666811 ], [ 6.1867101, 49.066646 ], [ 6.1867967, 49.0666458 ], [ 6.1868807, 49.0666104 ], [ 6.1869574, 49.0666099 ], [ 6.1871905, 49.0664343 ], [ 6.1872572, 49.0663841 ], [ 6.188698, 49.065299 ], [ 6.1894834, 49.0645728 ], [ 6.1895443, 49.06456 ], [ 6.189911, 49.064233 ], [ 6.1899558, 49.0640661 ], [ 6.1902439, 49.0637906 ], [ 6.1903883, 49.0637369 ], [ 6.1905493, 49.0636311 ], [ 6.1907213, 49.0635602 ], [ 6.1910095, 49.0633932 ], [ 6.1912502, 49.0633038 ], [ 6.1914538, 49.0631613 ], [ 6.1915727, 49.0631519 ], [ 6.1918013, 49.0630655 ], [ 6.1921664, 49.0626855 ], [ 6.1922293, 49.0625951 ], [ 6.1923422, 49.0624859 ], [ 6.192583, 49.0623449 ], [ 6.1927443, 49.0620845 ], [ 6.1928469, 49.0620241 ], [ 6.1932547, 49.06159 ], [ 6.1932836, 49.0615375 ], [ 6.193301, 49.0612847 ], [ 6.1934385, 49.0608244 ], [ 6.2008986, 49.063219 ], [ 6.2028339, 49.0636095 ], [ 6.2037556, 49.0636791 ], [ 6.2037634, 49.0639372 ], [ 6.2039335, 49.0642068 ], [ 6.2041029, 49.0644992 ], [ 6.2041695, 49.0647427 ], [ 6.2042798, 49.0659399 ], [ 6.2042244, 49.06625 ], [ 6.2040165, 49.0667203 ], [ 6.2039516, 49.0668406 ], [ 6.203787, 49.0671455 ], [ 6.2035734, 49.0673596 ], [ 6.2032679, 49.0675954 ], [ 6.2031951, 49.0676541 ], [ 6.2029486, 49.0679661 ], [ 6.2027684, 49.0683218 ], [ 6.2027033, 49.0684807 ], [ 6.2025387, 49.0687185 ], [ 6.2021381, 49.0690202 ], [ 6.2013438, 49.0694439 ], [ 6.200846, 49.069693 ], [ 6.2003798, 49.0698755 ], [ 6.1996616, 49.0701214 ], [ 6.1977585, 49.0708527 ], [ 6.1975866, 49.0709275 ], [ 6.1975544, 49.0710378 ], [ 6.1971276, 49.0716398 ], [ 6.1962624, 49.0727782 ], [ 6.1959313, 49.0733604 ], [ 6.1959473, 49.0734053 ], [ 6.1961565, 49.0735116 ], [ 6.1963825, 49.0735927 ], [ 6.1972302, 49.0737187 ], [ 6.1974415, 49.0737435 ], [ 6.1983823, 49.073863 ], [ 6.199252, 49.0738675 ], [ 6.1996199, 49.0739444 ], [ 6.1996681, 49.0740332 ], [ 6.2006143, 49.0742892 ], [ 6.2015937, 49.0745179 ], [ 6.2022403, 49.0746849 ], [ 6.204191, 49.0750965 ], [ 6.2065854, 49.075621 ], [ 6.2077509, 49.0758053 ], [ 6.2092801, 49.0759681 ], [ 6.2101735, 49.0762513 ], [ 6.2109043, 49.0763816 ], [ 6.2118781, 49.0764097 ], [ 6.2113322, 49.0778698 ], [ 6.2109275, 49.0785696 ], [ 6.2106658, 49.0792539 ], [ 6.2104604, 49.0798818 ], [ 6.2104919, 49.080208 ], [ 6.2105697, 49.0806878 ], [ 6.2110788, 49.0808881 ], [ 6.211488, 49.0810653 ], [ 6.2121142, 49.081287 ], [ 6.2130609, 49.0815436 ], [ 6.2129497, 49.0822071 ], [ 6.2126867, 49.082216 ], [ 6.2125306, 49.0834914 ], [ 6.212488, 49.0834928 ], [ 6.2123797, 49.0840342 ], [ 6.2105434, 49.083896 ], [ 6.2103693, 49.0846287 ], [ 6.2104004, 49.0851766 ], [ 6.2115162, 49.0856955 ], [ 6.2123855, 49.0861738 ], [ 6.2124312, 49.0862053 ], [ 6.2126936, 49.0863585 ], [ 6.2130073, 49.0865436 ], [ 6.2147648, 49.0874456 ], [ 6.2141518, 49.0878227 ], [ 6.213302, 49.0883882 ], [ 6.2133539, 49.0884078 ], [ 6.2148768, 49.0890785 ], [ 6.2162707, 49.0896981 ], [ 6.2167293, 49.089916 ], [ 6.2174463, 49.0902664 ], [ 6.2178113, 49.0899732 ], [ 6.2182861, 49.0896625 ], [ 6.2188814, 49.0893487 ], [ 6.2194313, 49.0890463 ], [ 6.2200473, 49.0886359 ], [ 6.2204507, 49.0883452 ], [ 6.2205479, 49.0882734 ], [ 6.2207354, 49.0881379 ], [ 6.2212045, 49.0877922 ], [ 6.2215695, 49.0875253 ], [ 6.2217224, 49.0875936 ], [ 6.222661, 49.0868128 ], [ 6.2233032, 49.0862857 ], [ 6.2234465, 49.0861659 ], [ 6.2234983, 49.086043 ], [ 6.2236559, 49.086105 ], [ 6.2247902, 49.0852285 ], [ 6.2250178, 49.0852957 ], [ 6.2258677, 49.085556 ], [ 6.2268653, 49.0858901 ], [ 6.227757, 49.0861729 ], [ 6.2288847, 49.0864954 ], [ 6.2297499, 49.0867353 ], [ 6.2299335, 49.0867807 ], [ 6.2301264, 49.0868384 ], [ 6.2302502, 49.0867308 ], [ 6.2303164, 49.0867074 ], [ 6.2304998, 49.0865724 ], [ 6.230502, 49.0865377 ], [ 6.2311637, 49.0860474 ], [ 6.2311978, 49.0860443 ], [ 6.2313269, 49.085944 ], [ 6.231383, 49.0859653 ], [ 6.2318987, 49.0860521 ], [ 6.2321953, 49.0857985 ], [ 6.232605, 49.0856317 ], [ 6.2328027, 49.0855406 ], [ 6.233121, 49.0853964 ], [ 6.2332099, 49.085342 ], [ 6.2332903, 49.0852942 ], [ 6.2336903, 49.0850565 ], [ 6.2343404, 49.0853403 ], [ 6.2348715, 49.0855571 ], [ 6.2354728, 49.0856945 ], [ 6.2361225, 49.0858314 ], [ 6.2360199, 49.0859707 ], [ 6.2380468, 49.0865183 ], [ 6.2384658, 49.0866594 ], [ 6.2391771, 49.0868411 ], [ 6.240315, 49.0871423 ], [ 6.2419946, 49.0874868 ], [ 6.2424117, 49.0876511 ], [ 6.2435172, 49.0882084 ], [ 6.2451309, 49.0890219 ], [ 6.2468132, 49.0897162 ], [ 6.2486098, 49.0910855 ], [ 6.2498847, 49.0923716 ], [ 6.2506656, 49.0925211 ], [ 6.2504602, 49.0929533 ], [ 6.2508471, 49.0929612 ], [ 6.2526719, 49.0928778 ], [ 6.2540614, 49.0927657 ], [ 6.2541447, 49.0929583 ], [ 6.2530191, 49.0932738 ], [ 6.2529297, 49.0934364 ], [ 6.2529829, 49.093495 ], [ 6.2527689, 49.0935695 ], [ 6.2516829, 49.0944322 ], [ 6.2513869, 49.0947121 ], [ 6.2514553, 49.0950174 ], [ 6.2518386, 49.0952801 ], [ 6.2506329, 49.0962825 ], [ 6.2494989, 49.096794 ], [ 6.2493195, 49.0968483 ], [ 6.2485828, 49.0967653 ], [ 6.2479449, 49.0969681 ], [ 6.2467849, 49.0974974 ], [ 6.2450201, 49.0981124 ], [ 6.2451777, 49.0982277 ], [ 6.2452559, 49.0983666 ], [ 6.2452717, 49.0985216 ], [ 6.245548, 49.0991552 ], [ 6.2455499, 49.099313 ], [ 6.2453744, 49.0995534 ], [ 6.2453252, 49.0997802 ], [ 6.2453386, 49.0999492 ], [ 6.2454408, 49.1001245 ], [ 6.2456852, 49.1003088 ], [ 6.2458664, 49.1005 ], [ 6.2461469, 49.1009175 ], [ 6.246936, 49.1016427 ], [ 6.2470383, 49.1017738 ], [ 6.2470706, 49.1019584 ], [ 6.2470148, 49.1022366 ], [ 6.2470372, 49.1023403 ], [ 6.2470719, 49.1025109 ], [ 6.2473062, 49.1028812 ], [ 6.2472688, 49.1030334 ], [ 6.2471287, 49.1031844 ], [ 6.2468878, 49.1033574 ], [ 6.2466808, 49.1034666 ], [ 6.2465119, 49.1035211 ], [ 6.2464203, 49.1039282 ], [ 6.2458671, 49.1057389 ], [ 6.2465814, 49.1056945 ], [ 6.247491, 49.105737 ], [ 6.24854, 49.1058684 ], [ 6.2496163, 49.1061526 ], [ 6.2498725, 49.10598 ], [ 6.2519484, 49.1070557 ], [ 6.2527439, 49.1073294 ], [ 6.2528246, 49.1073835 ], [ 6.2531932, 49.107538 ], [ 6.2544681, 49.1078855 ], [ 6.256451, 49.10839 ], [ 6.2563881, 49.1084697 ], [ 6.2563321, 49.1084824 ], [ 6.2561997, 49.1085591 ], [ 6.2562132, 49.1086803 ], [ 6.2548787, 49.1092112 ], [ 6.2538321, 49.1095224 ], [ 6.2527135, 49.1097478 ], [ 6.252544, 49.109767 ], [ 6.2504491, 49.1100604 ], [ 6.2500287, 49.1101015 ], [ 6.2500596, 49.1106968 ], [ 6.2494695, 49.1107036 ], [ 6.2494959, 49.1116168 ], [ 6.2495158, 49.1120604 ], [ 6.2495615, 49.1131526 ], [ 6.2495408, 49.1135597 ], [ 6.2494735, 49.11395 ], [ 6.2500339, 49.11397 ], [ 6.2521293, 49.1140449 ], [ 6.2521275, 49.1144341 ], [ 6.25179, 49.1160876 ], [ 6.2517155, 49.116337 ], [ 6.2514932, 49.1170511 ], [ 6.2509807, 49.118316 ], [ 6.2508196, 49.1183402 ], [ 6.2501655, 49.1183117 ], [ 6.2501021, 49.1182818 ], [ 6.2485268, 49.1181964 ], [ 6.2483645, 49.1182047 ], [ 6.2473549, 49.1181615 ], [ 6.2470482, 49.1181987 ], [ 6.2469866, 49.1182436 ], [ 6.2464091, 49.1183596 ], [ 6.2460465, 49.1184628 ], [ 6.2457289, 49.1185673 ], [ 6.2439604, 49.1192855 ], [ 6.2434505, 49.1194687 ], [ 6.2431198, 49.119576 ], [ 6.2427904, 49.1196354 ], [ 6.2423963, 49.1196488 ], [ 6.2423148, 49.1198048 ], [ 6.2402515, 49.1196522 ], [ 6.2395527, 49.1196005 ], [ 6.2394514, 49.1198815 ], [ 6.2391455, 49.1198537 ], [ 6.2391161, 49.1198698 ], [ 6.2389963, 49.1198562 ], [ 6.2389369, 49.1198809 ], [ 6.2389025, 49.1199298 ], [ 6.2388528, 49.1199315 ], [ 6.2383477, 49.119867 ], [ 6.238355, 49.11979 ], [ 6.237594, 49.1197298 ], [ 6.2347278, 49.119485 ], [ 6.2339221, 49.1194128 ], [ 6.2337659, 49.1200046 ], [ 6.2336474, 49.1205457 ], [ 6.2335761, 49.1208715 ], [ 6.2335046, 49.1217787 ], [ 6.233445, 49.1222318 ], [ 6.2332906, 49.1227429 ], [ 6.2330915, 49.1233415 ], [ 6.232847, 49.123767 ], [ 6.2316262, 49.1233991 ], [ 6.2313316, 49.1239775 ], [ 6.2311671, 49.1243005 ], [ 6.2309519, 49.1247231 ], [ 6.2302986, 49.1258612 ], [ 6.2299445, 49.1264341 ], [ 6.2297554, 49.1267323 ], [ 6.2279509, 49.1263189 ], [ 6.2278357, 49.1268235 ], [ 6.2276201, 49.127221 ], [ 6.2275894, 49.1272777 ], [ 6.2273263, 49.1272058 ], [ 6.2271671, 49.1272028 ], [ 6.2267171, 49.1273808 ], [ 6.2265557, 49.1274301 ], [ 6.2263158, 49.1275321 ], [ 6.2260078, 49.1276176 ], [ 6.2259244, 49.1278895 ], [ 6.2259782, 49.1280156 ], [ 6.2260208, 49.1280643 ], [ 6.2253838, 49.1289999 ], [ 6.2253374, 49.1290556 ], [ 6.2253303, 49.1290652 ], [ 6.2253131, 49.1292097 ], [ 6.2253131, 49.1292694 ], [ 6.2252722, 49.1294915 ], [ 6.2252631, 49.1295337 ], [ 6.2252297, 49.1296444 ], [ 6.2250064, 49.1301192 ], [ 6.2248695, 49.1307225 ], [ 6.2247617, 49.1309681 ], [ 6.2240863, 49.1319588 ], [ 6.2237699, 49.1323408 ], [ 6.2237004, 49.132387 ], [ 6.2234178, 49.1327136 ], [ 6.2236241, 49.1327901 ], [ 6.2241354, 49.1329062 ], [ 6.2245846, 49.1331205 ], [ 6.2241419, 49.1335944 ], [ 6.2235144, 49.1341434 ], [ 6.2233903, 49.1342226 ], [ 6.2230731, 49.1344336 ], [ 6.2227039, 49.134711 ], [ 6.2223592, 49.1350168 ], [ 6.2221944, 49.1352247 ], [ 6.2217859, 49.1359332 ], [ 6.2217568, 49.1360885 ], [ 6.2212317, 49.1363232 ], [ 6.2205555, 49.136659 ], [ 6.2201792, 49.1368866 ], [ 6.2201198, 49.1369306 ], [ 6.2196956, 49.137245 ], [ 6.2189189, 49.1378519 ], [ 6.2181441, 49.1373814 ], [ 6.2167855, 49.1365407 ], [ 6.2161784, 49.1373171 ], [ 6.2157118, 49.1371845 ], [ 6.2138265, 49.1363605 ], [ 6.2130609, 49.1359139 ], [ 6.2130183, 49.1359395 ], [ 6.212592, 49.1367208 ], [ 6.2121344, 49.1374901 ], [ 6.2119449, 49.1378088 ], [ 6.2116259, 49.1376907 ], [ 6.2111753, 49.1376492 ], [ 6.2108952, 49.1375865 ], [ 6.2105182, 49.1374921 ], [ 6.2098809, 49.1371772 ], [ 6.2093798, 49.1368599 ], [ 6.2090292, 49.1365068 ], [ 6.2089213, 49.1363204 ], [ 6.2090235, 49.1362645 ], [ 6.2094838, 49.1357225 ], [ 6.2102359, 49.1346615 ], [ 6.2098682, 49.1345524 ], [ 6.2098376, 49.1345376 ], [ 6.2103472, 49.1339578 ], [ 6.2111534, 49.1332147 ], [ 6.2108182, 49.133006 ], [ 6.210647, 49.1329657 ], [ 6.2105038, 49.1329322 ], [ 6.2095743, 49.1323123 ], [ 6.2090196, 49.1319956 ], [ 6.2094064, 49.13168 ], [ 6.2091713, 49.1315528 ], [ 6.2089455, 49.1314381 ], [ 6.2083633, 49.1311483 ], [ 6.2077214, 49.1308545 ], [ 6.2072175, 49.1306407 ], [ 6.206677, 49.1304226 ], [ 6.2060858, 49.1302199 ], [ 6.2058798, 49.1301553 ], [ 6.2061522, 49.12959 ], [ 6.2058176, 49.1295238 ], [ 6.2060218, 49.129096 ], [ 6.2059655, 49.1290165 ], [ 6.2044322, 49.1285718 ], [ 6.2043436, 49.1284965 ], [ 6.2044696, 49.1281151 ], [ 6.2046802, 49.1280211 ], [ 6.205396, 49.1279289 ], [ 6.2058388, 49.127921 ], [ 6.2061293, 49.1279505 ], [ 6.2063932, 49.128003 ], [ 6.2064409, 49.1279741 ], [ 6.2064172, 49.1273591 ], [ 6.2085178, 49.1273573 ], [ 6.2084339, 49.1272474 ], [ 6.2084579, 49.1267838 ], [ 6.2078098, 49.1268022 ], [ 6.2078207, 49.1264675 ], [ 6.2078282, 49.1264062 ], [ 6.2077994, 49.1263285 ], [ 6.2074533, 49.1263311 ], [ 6.2073216, 49.12626 ], [ 6.2068514, 49.1260442 ], [ 6.206709, 49.1258915 ], [ 6.2066716, 49.1257378 ], [ 6.2066592, 49.1255458 ], [ 6.2066744, 49.1254627 ], [ 6.2067114, 49.1254645 ], [ 6.2067262, 49.1253432 ], [ 6.2066952, 49.1253281 ], [ 6.2067691, 49.1249129 ], [ 6.2067864, 49.1246025 ], [ 6.2067696, 49.1244347 ], [ 6.2067423, 49.124325 ], [ 6.2066524, 49.1243236 ], [ 6.2066944, 49.1243753 ], [ 6.2063495, 49.1244186 ], [ 6.2058994, 49.1244707 ], [ 6.2054244, 49.1245237 ], [ 6.2052168, 49.1245836 ], [ 6.2050144, 49.124647 ], [ 6.2047186, 49.1247194 ], [ 6.2044944, 49.124726 ], [ 6.2042494, 49.1246983 ], [ 6.2042499, 49.124783 ], [ 6.2042113, 49.1247871 ], [ 6.2041791, 49.1248604 ], [ 6.2041136, 49.1248381 ], [ 6.204067, 49.1248074 ], [ 6.2036662, 49.1248772 ], [ 6.2030935, 49.1250695 ], [ 6.2028706, 49.1246377 ], [ 6.2030719, 49.1245459 ], [ 6.2030646, 49.1245268 ], [ 6.2018205, 49.1246125 ], [ 6.2016497, 49.1241305 ], [ 6.2016115, 49.1240781 ], [ 6.2015832, 49.1240371 ], [ 6.201537, 49.1240355 ], [ 6.2014898, 49.1238586 ], [ 6.2015273, 49.1237514 ], [ 6.2019948, 49.1230806 ], [ 6.2021225, 49.1228812 ], [ 6.2021769, 49.1227882 ], [ 6.2022621, 49.1226837 ], [ 6.2024108, 49.1225406 ], [ 6.2027318, 49.1223094 ], [ 6.2030186, 49.1221239 ], [ 6.2031569, 49.1220037 ], [ 6.2032708, 49.1218862 ], [ 6.2033718, 49.1216624 ], [ 6.2033537, 49.1212952 ], [ 6.2033738, 49.1208392 ], [ 6.2028792, 49.1208812 ], [ 6.2024943, 49.1208911 ], [ 6.202269, 49.1209213 ], [ 6.2011805, 49.1211298 ], [ 6.1999115, 49.121313 ], [ 6.2002479, 49.12217 ], [ 6.2000263, 49.1222271 ], [ 6.2000613, 49.1223322 ], [ 6.1986211, 49.1226747 ], [ 6.1983711, 49.1224236 ], [ 6.198144, 49.1227363 ], [ 6.1978997, 49.1230375 ], [ 6.1971536, 49.1234884 ], [ 6.1979, 49.1241835 ], [ 6.1966998, 49.1246604 ], [ 6.19586, 49.124933 ], [ 6.1958698, 49.1252447 ], [ 6.1955099, 49.1253666 ], [ 6.1951605, 49.1255006 ], [ 6.1954195, 49.1258997 ], [ 6.1946869, 49.1262808 ], [ 6.1934974, 49.1267665 ], [ 6.1935088, 49.1268712 ], [ 6.1935312, 49.1269069 ], [ 6.1933922, 49.1270556 ], [ 6.1929606, 49.1270055 ], [ 6.1929926, 49.1269367 ], [ 6.1898799, 49.1263494 ], [ 6.1897225, 49.1263255 ], [ 6.1896139, 49.1264129 ], [ 6.1886502, 49.1272507 ], [ 6.1883872, 49.1274793 ], [ 6.188168, 49.1276611 ], [ 6.1881675, 49.1276926 ], [ 6.1882426, 49.1277302 ], [ 6.1884414, 49.1278298 ], [ 6.1884861, 49.1278714 ], [ 6.1896537, 49.1285036 ], [ 6.190902, 49.1291498 ], [ 6.1914465, 49.1294595 ], [ 6.1919438, 49.1297051 ], [ 6.1921033, 49.1297838 ], [ 6.192264, 49.1299004 ], [ 6.1927193, 49.1302333 ], [ 6.1938863, 49.1310288 ], [ 6.1943521, 49.131467 ], [ 6.195274, 49.13264 ], [ 6.1961941, 49.1339316 ], [ 6.1962701, 49.1340975 ], [ 6.1975814, 49.1360397 ], [ 6.1980615, 49.136821 ], [ 6.1982768, 49.1372219 ], [ 6.1982636, 49.1375695 ], [ 6.1982101, 49.1380885 ], [ 6.198045, 49.138557 ], [ 6.1980426, 49.1386334 ], [ 6.1978509, 49.1390124 ], [ 6.1977691, 49.1393376 ], [ 6.1977761, 49.1397106 ], [ 6.1978569, 49.1400503 ], [ 6.1978564, 49.1405242 ], [ 6.1978545, 49.1409137 ], [ 6.1978141, 49.140986 ], [ 6.1976115, 49.1413632 ], [ 6.1975462, 49.1415234 ], [ 6.1977443, 49.1420121 ], [ 6.1979928, 49.1423888 ], [ 6.1987078, 49.143547 ], [ 6.1988351, 49.1437531 ], [ 6.1988634, 49.143799 ], [ 6.1981778, 49.1442435 ], [ 6.198095, 49.1441129 ], [ 6.1979729, 49.144125 ], [ 6.1979071, 49.1440835 ], [ 6.197894, 49.1440191 ], [ 6.1976582, 49.1439953 ], [ 6.1976074, 49.1439639 ], [ 6.1974536, 49.1439321 ], [ 6.1972856, 49.1438213 ], [ 6.1970687, 49.1436526 ], [ 6.1968, 49.1434909 ], [ 6.1964386, 49.1433575 ], [ 6.1959245, 49.1433087 ], [ 6.1952915, 49.1433006 ], [ 6.1950844, 49.1433629 ], [ 6.1949118, 49.1434582 ], [ 6.1947372, 49.1434546 ], [ 6.194295, 49.1433703 ], [ 6.1938001, 49.143206 ], [ 6.1935216, 49.1429505 ], [ 6.1934544, 49.1428708 ], [ 6.1934543, 49.1427946 ], [ 6.1933119, 49.1426451 ], [ 6.1931906, 49.1425786 ], [ 6.1930262, 49.1425194 ], [ 6.1929462, 49.1424249 ], [ 6.1927247, 49.1423771 ], [ 6.1921385, 49.1423834 ], [ 6.1918226, 49.1422797 ], [ 6.1914791, 49.1418969 ], [ 6.1912573, 49.1414737 ], [ 6.1912318, 49.1413336 ], [ 6.1907168, 49.140985 ], [ 6.1906429, 49.1409685 ], [ 6.1903681, 49.1409834 ], [ 6.1899492, 49.1409365 ], [ 6.1898593, 49.1409757 ], [ 6.1897121, 49.1410245 ], [ 6.1895883, 49.1410382 ], [ 6.1894577, 49.1411131 ], [ 6.1888533, 49.1413696 ], [ 6.1884058, 49.1415523 ], [ 6.1880458, 49.1417397 ], [ 6.187828, 49.1418899 ], [ 6.187496, 49.1420268 ], [ 6.1867558, 49.1421431 ], [ 6.1864404, 49.1421575 ], [ 6.1861663, 49.1422181 ], [ 6.1859576, 49.1422232 ], [ 6.1858506, 49.1423773 ], [ 6.1858547, 49.1425048 ], [ 6.1857865, 49.1425243 ], [ 6.1858523, 49.1428841 ], [ 6.1858974, 49.1434256 ], [ 6.1859829, 49.1439638 ], [ 6.1861264, 49.1444639 ], [ 6.1862136, 49.1444648 ], [ 6.1862747, 49.1445409 ], [ 6.1862252, 49.144613 ], [ 6.186076, 49.1447114 ], [ 6.1856432, 49.1449717 ], [ 6.1854233, 49.1450572 ], [ 6.1851186, 49.1452084 ], [ 6.1844093, 49.1454989 ], [ 6.183934, 49.1456978 ], [ 6.18349, 49.1458517 ], [ 6.1831038, 49.1459275 ], [ 6.1826741, 49.1459667 ], [ 6.1823594, 49.1459906 ], [ 6.1804922, 49.1462932 ], [ 6.1799801, 49.1463581 ], [ 6.1796134, 49.1464168 ], [ 6.178946, 49.1465237 ], [ 6.1767315, 49.1468783 ], [ 6.1764656, 49.1469499 ], [ 6.1758149, 49.1471728 ], [ 6.1757776, 49.1471679 ], [ 6.1756587, 49.1470922 ], [ 6.1755452, 49.1471097 ], [ 6.1739489, 49.1476628 ], [ 6.1732288, 49.1478883 ], [ 6.1730759, 49.147996 ], [ 6.1730133, 49.148113 ], [ 6.1723535, 49.1483514 ], [ 6.1722803, 49.1484035 ], [ 6.1722518, 49.1484542 ], [ 6.1721697, 49.1484824 ], [ 6.1720189, 49.1485785 ], [ 6.1717219, 49.1487955 ], [ 6.171469, 49.148765 ], [ 6.170634, 49.1485894 ], [ 6.1703359, 49.1485074 ], [ 6.1700707, 49.1484111 ], [ 6.1699023, 49.1483227 ], [ 6.169743, 49.1481953 ], [ 6.1697519, 49.1481281 ], [ 6.170112, 49.1472408 ], [ 6.1700481, 49.147202 ], [ 6.1692538, 49.146973 ], [ 6.1691915, 49.1469378 ], [ 6.1693158, 49.1457236 ], [ 6.1693019, 49.1456846 ], [ 6.1682083, 49.145363 ], [ 6.168183, 49.1453348 ], [ 6.1682064, 49.1452551 ], [ 6.168158, 49.1452217 ], [ 6.1679476, 49.1451618 ], [ 6.1678319, 49.1451519 ], [ 6.1673317, 49.1450093 ], [ 6.166539, 49.1447832 ], [ 6.1664733, 49.1447645 ], [ 6.1664626, 49.1447614 ], [ 6.1664719, 49.144725 ], [ 6.1662368, 49.1444949 ], [ 6.1660242, 49.144418 ], [ 6.1659504, 49.1443992 ], [ 6.1659169, 49.1444041 ], [ 6.1657959, 49.1445765 ], [ 6.165374, 49.1444603 ], [ 6.1653305, 49.1444759 ], [ 6.1652666, 49.1445637 ], [ 6.1646401, 49.1444196 ], [ 6.1636234, 49.1441112 ], [ 6.1635167, 49.1440571 ], [ 6.1638738, 49.1435681 ], [ 6.1638614, 49.1435448 ], [ 6.1639774, 49.1433712 ], [ 6.1640266, 49.1433612 ], [ 6.1641483, 49.143181 ], [ 6.1642346, 49.1432063 ], [ 6.1643899, 49.1430143 ], [ 6.16445, 49.1429312 ], [ 6.1645828, 49.1427288 ], [ 6.1646554, 49.1426181 ], [ 6.1647198, 49.1425142 ], [ 6.1648429, 49.1423048 ], [ 6.1648905, 49.1422576 ], [ 6.1646852, 49.1422117 ], [ 6.1644072, 49.1421734 ], [ 6.1627426, 49.1420281 ], [ 6.1627104, 49.1420079 ], [ 6.1627099, 49.1419663 ], [ 6.1628576, 49.1415475 ], [ 6.162842, 49.1415038 ], [ 6.1620742, 49.1414337 ], [ 6.1614644, 49.1414273 ], [ 6.1613558, 49.1414411 ], [ 6.1613177, 49.1414758 ], [ 6.1612705, 49.1417767 ], [ 6.1612687, 49.1419541 ], [ 6.1612479, 49.1419976 ], [ 6.1612143, 49.1420131 ], [ 6.1604922, 49.1419589 ], [ 6.1595232, 49.1417068 ], [ 6.1592568, 49.1416234 ], [ 6.1591522, 49.1416519 ], [ 6.1584647, 49.1419435 ], [ 6.1578805, 49.1421913 ], [ 6.1575829, 49.1423175 ], [ 6.1574752, 49.1423573 ], [ 6.1572535, 49.1424652 ], [ 6.1570789, 49.1425227 ], [ 6.1566288, 49.1426472 ], [ 6.1564628, 49.1426737 ], [ 6.1564216, 49.1426578 ], [ 6.1560598, 49.1424025 ], [ 6.1559794, 49.1424229 ], [ 6.1558422, 49.1425234 ], [ 6.1557815, 49.1425496 ], [ 6.1551449, 49.1419426 ], [ 6.1549857, 49.1417769 ], [ 6.154854, 49.1416399 ], [ 6.1548015, 49.1415853 ], [ 6.154706, 49.1414859 ], [ 6.154229, 49.1409896 ], [ 6.1540011, 49.1407525 ], [ 6.1537299, 49.1404703 ], [ 6.1532727, 49.1400936 ], [ 6.1531624, 49.1400199 ], [ 6.1530984, 49.1399997 ], [ 6.1523798, 49.139997 ], [ 6.1517343, 49.1399609 ], [ 6.1517298, 49.1399787 ], [ 6.1518404, 49.1399867 ], [ 6.1514078, 49.140734 ], [ 6.1514049, 49.1407535 ], [ 6.1515162, 49.140768 ], [ 6.1515412, 49.1407909 ], [ 6.1514952, 49.1411271 ], [ 6.1514652, 49.1411659 ], [ 6.150328, 49.141091 ], [ 6.149019, 49.1409037 ], [ 6.1489569, 49.1409035 ], [ 6.1489288, 49.1409385 ], [ 6.1483671, 49.140881 ], [ 6.1480465, 49.1416395 ], [ 6.1479621, 49.1422378 ], [ 6.1479419, 49.1423133 ], [ 6.1478063, 49.1427919 ], [ 6.1478855, 49.1428044 ], [ 6.1479001, 49.1428207 ], [ 6.1478554, 49.1430215 ], [ 6.1478572, 49.1432588 ], [ 6.1478136, 49.1433066 ], [ 6.147723, 49.1433431 ], [ 6.1472322, 49.1433856 ], [ 6.1466447, 49.143316 ], [ 6.146547, 49.1432904 ], [ 6.1460194, 49.1432439 ], [ 6.1455525, 49.1432354 ], [ 6.1446861, 49.1432324 ], [ 6.1441264, 49.1431902 ], [ 6.1436777, 49.1431564 ], [ 6.1428366, 49.1431635 ], [ 6.1425884, 49.143182 ], [ 6.1421921, 49.1431908 ], [ 6.1419672, 49.1431958 ], [ 6.1413961, 49.143233 ], [ 6.1410186, 49.1432265 ], [ 6.1410025, 49.143215 ], [ 6.1409836, 49.1432238 ], [ 6.1409184, 49.143207 ], [ 6.1405081, 49.1431774 ], [ 6.139299, 49.1429894 ], [ 6.1392651, 49.1429952 ], [ 6.1390964, 49.1429653 ], [ 6.1395805, 49.1421074 ], [ 6.1393223, 49.1420177 ], [ 6.1393363, 49.1420039 ], [ 6.1390395, 49.1419004 ], [ 6.1392128, 49.1416054 ], [ 6.1395113, 49.1409837 ], [ 6.1397927, 49.1410176 ], [ 6.1399453, 49.1407246 ], [ 6.1397394, 49.1406856 ], [ 6.1401999, 49.1396362 ], [ 6.1400224, 49.1396017 ], [ 6.1400347, 49.1395669 ], [ 6.1387888, 49.139281 ], [ 6.1386915, 49.1391953 ], [ 6.1390571, 49.1389918 ], [ 6.1395927, 49.1388347 ], [ 6.1388226, 49.1387201 ], [ 6.1381075, 49.1385259 ], [ 6.1373932, 49.1383694 ], [ 6.1360042, 49.1378777 ] ] ] } }
]
}
