{
"type": "FeatureCollection",
"name": "monza_it",
"crs": { "type": "name", "properties": { "name": "urn:ogc:def:crs:OGC:1.3:CRS84" } },
"features": [
{ "type": "Feature", "properties": { "bbox_west": 9.2270251, "bbox_south": 45.5532615, "bbox_east": 9.3243874, "bbox_north": 45.6321966, "place_id": 75821234, "osm_type": "relation", "osm_id": 45319, "lat": 45.5844865, "lon": 9.2749057, "class": "boundary", "type": "administrative", "place_rank": 16, "importance": 0.6420474026382883, "addresstype": "city", "name": "Monza", "display_name": "Monza, Monza and Brianza, Lombardy, 20900, Italy" }, "geometry": { "type": "Polygon", "coordinates": [ [ [ 9.2270251, 45.5703528 ], [ 9.2270335, 45.5700558 ], [ 9.2270575, 45.5696417 ], [ 9.2270593, 45.5693042 ], [ 9.2270676, 45.5689666 ], [ 9.2270885, 45.568593 ], [ 9.2271031, 45.568233 ], [ 9.227181, 45.5682402 ], [ 9.2280101, 45.5683167 ], [ 9.2282207, 45.5673261 ], [ 9.2276662, 45.5672642 ], [ 9.2272575, 45.567235 ], [ 9.2272694, 45.5666534 ], [ 9.2272224, 45.5666043 ], [ 9.2272836, 45.5665396 ], [ 9.2272983, 45.5659467 ], [ 9.230037, 45.5660849 ], [ 9.22994, 45.5666566 ], [ 9.2299549, 45.5667871 ], [ 9.2329177, 45.5670106 ], [ 9.2331953, 45.5655834 ], [ 9.2333307, 45.5655946 ], [ 9.2333921, 45.5655955 ], [ 9.233483, 45.5656034 ], [ 9.2338971, 45.565627 ], [ 9.2338987, 45.5655777 ], [ 9.2339001, 45.565531 ], [ 9.2339014, 45.5654957 ], [ 9.2339227, 45.5648393 ], [ 9.2349176, 45.5648913 ], [ 9.235018, 45.5639865 ], [ 9.2350571, 45.5637794 ], [ 9.2351618, 45.5627576 ], [ 9.2366393, 45.5629166 ], [ 9.2368588, 45.5629296 ], [ 9.2391884, 45.5630913 ], [ 9.239178, 45.5635206 ], [ 9.239212, 45.5637348 ], [ 9.2393413, 45.5637385 ], [ 9.2409717, 45.5637849 ], [ 9.2409795, 45.5632663 ], [ 9.2410372, 45.5632572 ], [ 9.2418386, 45.5632927 ], [ 9.2419924, 45.5632969 ], [ 9.2421382, 45.5633011 ], [ 9.2422199, 45.5633099 ], [ 9.2423113, 45.5633232 ], [ 9.2424412, 45.5633545 ], [ 9.242555, 45.5633812 ], [ 9.2426496, 45.563399 ], [ 9.242757, 45.5634258 ], [ 9.2429228, 45.5634819 ], [ 9.243122, 45.5635548 ], [ 9.2432444, 45.5635283 ], [ 9.2433293, 45.5635236 ], [ 9.2434077, 45.5635054 ], [ 9.2434509, 45.5634918 ], [ 9.2435549, 45.5634736 ], [ 9.2436398, 45.5634644 ], [ 9.2437502, 45.5634507 ], [ 9.2438543, 45.5634415 ], [ 9.2460399, 45.563598 ], [ 9.2461271, 45.563642 ], [ 9.2461735, 45.5637561 ], [ 9.2462602, 45.5638189 ], [ 9.2463033, 45.5638606 ], [ 9.246418, 45.5639896 ], [ 9.2465115, 45.5641424 ], [ 9.2467403, 45.5644299 ], [ 9.2468388, 45.5646142 ], [ 9.2469452, 45.5647805 ], [ 9.2470258, 45.5648883 ], [ 9.2471126, 45.5649692 ], [ 9.2471545, 45.5650186 ], [ 9.247206, 45.565077 ], [ 9.2472215, 45.5651042 ], [ 9.2472513, 45.5651566 ], [ 9.2481182, 45.5651711 ], [ 9.2482859, 45.5636825 ], [ 9.2484083, 45.5625893 ], [ 9.2484171, 45.562485 ], [ 9.2485872, 45.56047 ], [ 9.2486539, 45.5603438 ], [ 9.2487162, 45.5591353 ], [ 9.248709, 45.5589882 ], [ 9.2466211, 45.5588225 ], [ 9.2464946, 45.5580937 ], [ 9.2465587, 45.5580936 ], [ 9.2467096, 45.5567251 ], [ 9.2472593, 45.5567914 ], [ 9.2475959, 45.5568672 ], [ 9.2477915, 45.5569028 ], [ 9.2479614, 45.5569294 ], [ 9.249208, 45.5570105 ], [ 9.2497296, 45.557016 ], [ 9.2502502, 45.5570438 ], [ 9.2503679, 45.5570483 ], [ 9.2513716, 45.5570883 ], [ 9.2526024, 45.557217 ], [ 9.2529412, 45.5572607 ], [ 9.2534391, 45.5572743 ], [ 9.2543585, 45.5573033 ], [ 9.254846, 45.5572828 ], [ 9.2552114, 45.5572297 ], [ 9.2554256, 45.5571799 ], [ 9.2555075, 45.5571437 ], [ 9.2555441, 45.5571018 ], [ 9.254227, 45.5559732 ], [ 9.2535597, 45.555499 ], [ 9.2517699, 45.5547789 ], [ 9.2519824, 45.5546614 ], [ 9.2510732, 45.5537003 ], [ 9.2506021, 45.5536338 ], [ 9.2501831, 45.5534052 ], [ 9.2500527, 45.5532615 ], [ 9.2519934, 45.5535497 ], [ 9.2607357, 45.5548533 ], [ 9.2607971, 45.5549837 ], [ 9.2659114, 45.555773 ], [ 9.2660925, 45.5557996 ], [ 9.2717055, 45.5567585 ], [ 9.2717314, 45.556763 ], [ 9.2717513, 45.5568979 ], [ 9.2717581, 45.5569834 ], [ 9.2717617, 45.5570509 ], [ 9.2717557, 45.5571365 ], [ 9.2717273, 45.5572355 ], [ 9.2716911, 45.5573571 ], [ 9.2716469, 45.5574923 ], [ 9.2716011, 45.5576229 ], [ 9.2715631, 45.557722 ], [ 9.2714918, 45.5578752 ], [ 9.2713981, 45.5580374 ], [ 9.2714253, 45.5580373 ], [ 9.271403, 45.5580554 ], [ 9.2713743, 45.5580825 ], [ 9.2713487, 45.558105 ], [ 9.2713232, 45.5581321 ], [ 9.2712913, 45.5581592 ], [ 9.2712227, 45.5582044 ], [ 9.2711876, 45.5582269 ], [ 9.2711524, 45.558245 ], [ 9.2711093, 45.5582811 ], [ 9.2710359, 45.5583263 ], [ 9.2709848, 45.5583579 ], [ 9.2709353, 45.5583941 ], [ 9.2708651, 45.5584482 ], [ 9.2707996, 45.5584934 ], [ 9.2707709, 45.558516 ], [ 9.2707199, 45.5585566 ], [ 9.2706161, 45.5586288 ], [ 9.2705586, 45.558665 ], [ 9.2704644, 45.5587282 ], [ 9.2703782, 45.5587779 ], [ 9.2703222, 45.5588005 ], [ 9.2702122, 45.5588908 ], [ 9.270126, 45.558954 ], [ 9.2700478, 45.5590082 ], [ 9.2699871, 45.5590534 ], [ 9.2699362, 45.5591165 ], [ 9.2698948, 45.5591841 ], [ 9.2698663, 45.5592517 ], [ 9.2698284, 45.5593508 ], [ 9.2698033, 45.5594588 ], [ 9.2698085, 45.5595398 ], [ 9.2698265, 45.5596208 ], [ 9.2698365, 45.5597153 ], [ 9.2698417, 45.5598008 ], [ 9.2698728, 45.5599222 ], [ 9.2699134, 45.5600436 ], [ 9.2699717, 45.5601695 ], [ 9.2700507, 45.5602954 ], [ 9.2701378, 45.5604167 ], [ 9.2701943, 45.5605155 ], [ 9.2702605, 45.5606054 ], [ 9.2703604, 45.5607312 ], [ 9.2704604, 45.560875 ], [ 9.2705506, 45.5609917 ], [ 9.2707887, 45.5611982 ], [ 9.2708707, 45.5612655 ], [ 9.2710504, 45.5613416 ], [ 9.2711227, 45.5613819 ], [ 9.2711757, 45.5614088 ], [ 9.271248, 45.5614581 ], [ 9.2713235, 45.5615075 ], [ 9.2713702, 45.5615524 ], [ 9.2714427, 45.5616332 ], [ 9.2715055, 45.5617141 ], [ 9.2715731, 45.5617859 ], [ 9.2716344, 45.5618668 ], [ 9.2717244, 45.5619341 ], [ 9.2717405, 45.5619475 ], [ 9.2717679, 45.5619745 ], [ 9.2718563, 45.5620418 ], [ 9.2719189, 45.5620776 ], [ 9.2720154, 45.5621449 ], [ 9.2720844, 45.5621853 ], [ 9.272155, 45.5622121 ], [ 9.272248, 45.5622209 ], [ 9.272333, 45.5622432 ], [ 9.2723939, 45.5622565 ], [ 9.2724628, 45.5622699 ], [ 9.2725189, 45.5622697 ], [ 9.2725862, 45.5622786 ], [ 9.2729618, 45.5617691 ], [ 9.2730699, 45.5616068 ], [ 9.2735047, 45.5611062 ], [ 9.2735891, 45.561007 ], [ 9.2736545, 45.5609439 ], [ 9.2737231, 45.5608807 ], [ 9.2737709, 45.5608401 ], [ 9.2738236, 45.5607994 ], [ 9.2738794, 45.5607543 ], [ 9.2739672, 45.5606911 ], [ 9.2740087, 45.5606595 ], [ 9.2747459, 45.5600907 ], [ 9.2753255, 45.5600578 ], [ 9.2753484, 45.5598102 ], [ 9.2766023, 45.5597847 ], [ 9.2765725, 45.5585921 ], [ 9.2765424, 45.5580251 ], [ 9.2765088, 45.5580252 ], [ 9.2765189, 45.5574761 ], [ 9.2765214, 45.5573276 ], [ 9.276521, 45.5572466 ], [ 9.2765589, 45.5558288 ], [ 9.2766394, 45.5552706 ], [ 9.2776074, 45.5554032 ], [ 9.2776827, 45.5567037 ], [ 9.2777423, 45.5574326 ], [ 9.2777556, 45.5575181 ], [ 9.2777496, 45.5575991 ], [ 9.2777949, 45.5580221 ], [ 9.2778606, 45.5580219 ], [ 9.2778339, 45.5584585 ], [ 9.277963, 45.5593043 ], [ 9.2786674, 45.5592306 ], [ 9.2787205, 45.5586454 ], [ 9.2804914, 45.5585376 ], [ 9.2829832, 45.5584594 ], [ 9.283044, 45.5584638 ], [ 9.2831658, 45.5584635 ], [ 9.2863506, 45.5589281 ], [ 9.2863763, 45.558937 ], [ 9.2864293, 45.5589729 ], [ 9.2864422, 45.5589909 ], [ 9.2864455, 45.5590044 ], [ 9.2864487, 45.5590134 ], [ 9.2863707, 45.5597381 ], [ 9.286384, 45.5598191 ], [ 9.2863905, 45.5598371 ], [ 9.2865016, 45.5599583 ], [ 9.2865077, 45.5602149 ], [ 9.2865176, 45.5602688 ], [ 9.2865274, 45.5603138 ], [ 9.2865504, 45.5604128 ], [ 9.2865796, 45.5604937 ], [ 9.2866023, 45.5605521 ], [ 9.2866121, 45.5605836 ], [ 9.2866284, 45.5606376 ], [ 9.2866382, 45.5606781 ], [ 9.286648, 45.5607141 ], [ 9.2866676, 45.5607905 ], [ 9.2866742, 45.5608355 ], [ 9.2866841, 45.5608895 ], [ 9.2866907, 45.56093 ], [ 9.2867006, 45.5609795 ], [ 9.2867105, 45.5610424 ], [ 9.2867172, 45.5610829 ], [ 9.2867238, 45.5611279 ], [ 9.2867273, 45.5611819 ], [ 9.2867306, 45.5612134 ], [ 9.2866776, 45.5614971 ], [ 9.2912715, 45.5612199 ], [ 9.2914552, 45.5623446 ], [ 9.2919144, 45.5622489 ], [ 9.2923097, 45.5621849 ], [ 9.2927073, 45.5622694 ], [ 9.2928869, 45.5622959 ], [ 9.2929751, 45.5623137 ], [ 9.2930424, 45.562336 ], [ 9.2930923, 45.5623764 ], [ 9.2931277, 45.5624123 ], [ 9.2933041, 45.5633615 ], [ 9.2933186, 45.5633795 ], [ 9.2933379, 45.5634019 ], [ 9.2933732, 45.5634108 ], [ 9.2986254, 45.5631047 ], [ 9.2987714, 45.5631358 ], [ 9.2988421, 45.5631806 ], [ 9.2988871, 45.5632075 ], [ 9.2989418, 45.5632524 ], [ 9.2990254, 45.5633107 ], [ 9.2991026, 45.563369 ], [ 9.2991895, 45.5634453 ], [ 9.2992763, 45.5635126 ], [ 9.2993503, 45.5635709 ], [ 9.2994179, 45.5636292 ], [ 9.2995111, 45.5636875 ], [ 9.2995722, 45.5637368 ], [ 9.2996237, 45.5637727 ], [ 9.2996639, 45.5638131 ], [ 9.2996929, 45.56384 ], [ 9.2997218, 45.5638534 ], [ 9.2997507, 45.5638713 ], [ 9.2997829, 45.5638983 ], [ 9.2998119, 45.5639207 ], [ 9.2998472, 45.5639431 ], [ 9.2998633, 45.5639476 ], [ 9.2999067, 45.56397 ], [ 9.2999388, 45.5639879 ], [ 9.3000191, 45.5640282 ], [ 9.2999764, 45.5641318 ], [ 9.2980724, 45.5642313 ], [ 9.2972541, 45.5642739 ], [ 9.2973008, 45.5649309 ], [ 9.2973133, 45.5657814 ], [ 9.2973826, 45.5664563 ], [ 9.2983804, 45.5664267 ], [ 9.2985974, 45.5677763 ], [ 9.2987578, 45.569027 ], [ 9.2996321, 45.5689617 ], [ 9.3001606, 45.5689333 ], [ 9.3006397, 45.5689546 ], [ 9.3011748, 45.5689622 ], [ 9.301335, 45.5704559 ], [ 9.3022687, 45.5704219 ], [ 9.3023967, 45.570505 ], [ 9.3023371, 45.5706288 ], [ 9.3020901, 45.5708635 ], [ 9.3020214, 45.5709087 ], [ 9.3019879, 45.5709312 ], [ 9.3019097, 45.570981 ], [ 9.3018745, 45.570999 ], [ 9.301825, 45.5710262 ], [ 9.3017867, 45.5710443 ], [ 9.3015245, 45.571153 ], [ 9.3014815, 45.5711846 ], [ 9.3014256, 45.5712163 ], [ 9.3013555, 45.5712929 ], [ 9.3012917, 45.5713561 ], [ 9.3012509, 45.5715092 ], [ 9.3014226, 45.5715538 ], [ 9.3019142, 45.5715255 ], [ 9.303282, 45.5714589 ], [ 9.304451, 45.5713748 ], [ 9.3045086, 45.5713656 ], [ 9.3045614, 45.5713565 ], [ 9.3046143, 45.5713518 ], [ 9.3046527, 45.5713427 ], [ 9.3047055, 45.5713336 ], [ 9.3047871, 45.5713154 ], [ 9.3048255, 45.5713063 ], [ 9.3053098, 45.5711691 ], [ 9.3057028, 45.5710578 ], [ 9.3071759, 45.5707574 ], [ 9.3082434, 45.5705695 ], [ 9.308881, 45.5705753 ], [ 9.3101301, 45.5705052 ], [ 9.3101754, 45.5701782 ], [ 9.3115646, 45.5700514 ], [ 9.3117055, 45.570012 ], [ 9.3111101, 45.5695567 ], [ 9.310354, 45.5689827 ], [ 9.3102655, 45.5689199 ], [ 9.3098778, 45.5686149 ], [ 9.3090767, 45.5680005 ], [ 9.3087359, 45.5677319 ], [ 9.3082915, 45.5673816 ], [ 9.3080905, 45.5672291 ], [ 9.307952, 45.5671034 ], [ 9.3078005, 45.5669328 ], [ 9.3074993, 45.5666276 ], [ 9.3074026, 45.5665288 ], [ 9.3101308, 45.5659814 ], [ 9.3107451, 45.5658358 ], [ 9.3117783, 45.5655539 ], [ 9.3128435, 45.5652495 ], [ 9.3148415, 45.5647669 ], [ 9.314852, 45.5640828 ], [ 9.3148213, 45.5634529 ], [ 9.3148255, 45.5630568 ], [ 9.3148632, 45.5629217 ], [ 9.3149085, 45.5627145 ], [ 9.3173304, 45.562893 ], [ 9.3175573, 45.5629097 ], [ 9.3185612, 45.5619933 ], [ 9.3191041, 45.5622664 ], [ 9.3184735, 45.5643248 ], [ 9.3168882, 45.5644148 ], [ 9.3171637, 45.5652601 ], [ 9.3173038, 45.5656827 ], [ 9.3175844, 45.5665866 ], [ 9.3176691, 45.5671219 ], [ 9.3180219, 45.5671794 ], [ 9.3182959, 45.5672012 ], [ 9.3185958, 45.5672588 ], [ 9.3186761, 45.5667275 ], [ 9.3188266, 45.565863 ], [ 9.3190757, 45.5657318 ], [ 9.3194059, 45.5657579 ], [ 9.3215106, 45.5659091 ], [ 9.3214414, 45.5676424 ], [ 9.3213757, 45.5676471 ], [ 9.3213649, 45.5677191 ], [ 9.3213856, 45.5693798 ], [ 9.3215827, 45.5693837 ], [ 9.3217524, 45.5693787 ], [ 9.3218854, 45.5693829 ], [ 9.3219896, 45.5693871 ], [ 9.3223643, 45.569368 ], [ 9.3226126, 45.5693628 ], [ 9.3229121, 45.569353 ], [ 9.3231891, 45.5693297 ], [ 9.3236102, 45.5692835 ], [ 9.3241513, 45.5692234 ], [ 9.3241552, 45.5693404 ], [ 9.3242664, 45.5702897 ], [ 9.3243756, 45.5711715 ], [ 9.3243874, 45.571284 ], [ 9.3221841, 45.5714657 ], [ 9.3233243, 45.5727857 ], [ 9.3234261, 45.5729249 ], [ 9.3228309, 45.5730706 ], [ 9.3235841, 45.5744951 ], [ 9.321451, 45.5746586 ], [ 9.3211707, 45.5746729 ], [ 9.3215568, 45.575788 ], [ 9.3217298, 45.5763455 ], [ 9.3219336, 45.5769615 ], [ 9.3221546, 45.57778 ], [ 9.3218382, 45.5779294 ], [ 9.3225287, 45.5784675 ], [ 9.3232304, 45.5790146 ], [ 9.3234292, 45.5791682 ], [ 9.3238323, 45.5794809 ], [ 9.3240608, 45.5796603 ], [ 9.3243602, 45.5798935 ], [ 9.3239663, 45.5799351 ], [ 9.3233739, 45.5800133 ], [ 9.3229417, 45.5800865 ], [ 9.3227064, 45.5801232 ], [ 9.3222116, 45.5801786 ], [ 9.3215742, 45.5802299 ], [ 9.32102, 45.5802674 ], [ 9.3205412, 45.5803138 ], [ 9.3196779, 45.5803657 ], [ 9.319119, 45.5804123 ], [ 9.3193379, 45.5806309 ], [ 9.3200357, 45.5813008 ], [ 9.3183217, 45.5816611 ], [ 9.318218, 45.5817424 ], [ 9.31849, 45.5827993 ], [ 9.3167642, 45.5830651 ], [ 9.3173032, 45.5845937 ], [ 9.3170758, 45.5846214 ], [ 9.3173483, 45.5857817 ], [ 9.3165861, 45.5858783 ], [ 9.3168626, 45.5868811 ], [ 9.3149844, 45.5871519 ], [ 9.3155079, 45.5887795 ], [ 9.3153252, 45.5887845 ], [ 9.3152499, 45.5887892 ], [ 9.3151299, 45.5888121 ], [ 9.3150258, 45.5888259 ], [ 9.3149121, 45.5888397 ], [ 9.3146061, 45.588854 ], [ 9.314361, 45.5888682 ], [ 9.3141052, 45.5889769 ], [ 9.3137307, 45.5890679 ], [ 9.3143418, 45.5908844 ], [ 9.3147225, 45.5921393 ], [ 9.3147361, 45.5921842 ], [ 9.3147483, 45.5922244 ], [ 9.3154323, 45.592164 ], [ 9.315807, 45.592109 ], [ 9.3160937, 45.5920812 ], [ 9.3164781, 45.5920396 ], [ 9.3166496, 45.5920391 ], [ 9.3169553, 45.5928258 ], [ 9.3177879, 45.592702 ], [ 9.3181798, 45.5937045 ], [ 9.3177385, 45.5938812 ], [ 9.3173294, 45.5940984 ], [ 9.3171856, 45.5936038 ], [ 9.3170347, 45.5935637 ], [ 9.3157426, 45.5937788 ], [ 9.3146298, 45.5939574 ], [ 9.3125132, 45.5943457 ], [ 9.3124266, 45.5940444 ], [ 9.3116832, 45.5940869 ], [ 9.311602, 45.5941772 ], [ 9.3116629, 45.5944695 ], [ 9.3104943, 45.5947202 ], [ 9.3096553, 45.594862 ], [ 9.3090562, 45.5949041 ], [ 9.3090118, 45.5946972 ], [ 9.3088795, 45.5942476 ], [ 9.3087323, 45.5937169 ], [ 9.3086469, 45.5933301 ], [ 9.3085728, 45.5929658 ], [ 9.3085655, 45.5928128 ], [ 9.3079756, 45.5927919 ], [ 9.3073561, 45.5929151 ], [ 9.3069335, 45.5930017 ], [ 9.3066069, 45.5930701 ], [ 9.3055883, 45.5931943 ], [ 9.3057001, 45.5937071 ], [ 9.3037626, 45.5940182 ], [ 9.3018858, 45.5942977 ], [ 9.2987622, 45.5949 ], [ 9.2974573, 45.5951509 ], [ 9.2992427, 45.597145 ], [ 9.2953964, 45.59777 ], [ 9.2963137, 45.5990762 ], [ 9.2990201, 45.6028819 ], [ 9.2973732, 45.6038671 ], [ 9.2993017, 45.6074024 ], [ 9.2995163, 45.6079784 ], [ 9.2993097, 45.6085751 ], [ 9.2996826, 45.6097009 ], [ 9.2979396, 45.6118537 ], [ 9.2954014, 45.6135492 ], [ 9.2952305, 45.6145067 ], [ 9.2952145, 45.6150582 ], [ 9.2946887, 45.6151145 ], [ 9.2945707, 45.6171407 ], [ 9.2973602, 45.6231363 ], [ 9.2975212, 45.6238266 ], [ 9.29743, 45.6241718 ], [ 9.2974782, 45.6247533 ], [ 9.2979825, 45.6258938 ], [ 9.2977465, 45.6261189 ], [ 9.2969901, 45.6319335 ], [ 9.2961568, 45.6321966 ], [ 9.2959929, 45.6321386 ], [ 9.2959045, 45.6321028 ], [ 9.2958322, 45.6320715 ], [ 9.2957277, 45.6320222 ], [ 9.2956007, 45.6319641 ], [ 9.2954688, 45.6318924 ], [ 9.2953675, 45.6318432 ], [ 9.2952277, 45.631785 ], [ 9.2951489, 45.6317537 ], [ 9.2950219, 45.6316955 ], [ 9.2949046, 45.6316463 ], [ 9.2947792, 45.6315792 ], [ 9.2947212, 45.6315388 ], [ 9.294599, 45.6314671 ], [ 9.2945186, 45.6314223 ], [ 9.2943705, 45.6313327 ], [ 9.2942403, 45.6312745 ], [ 9.2942034, 45.6312611 ], [ 9.2941584, 45.6312432 ], [ 9.2941021, 45.6312164 ], [ 9.2940202, 45.6311851 ], [ 9.2938081, 45.6311181 ], [ 9.2936219, 45.6310736 ], [ 9.2935432, 45.6310558 ], [ 9.2934324, 45.6310201 ], [ 9.2933617, 45.6310023 ], [ 9.2932798, 45.6309755 ], [ 9.2931867, 45.6309667 ], [ 9.2930504, 45.6309671 ], [ 9.2929525, 45.6309583 ], [ 9.2928675, 45.6309495 ], [ 9.2928001, 45.6309407 ], [ 9.2926397, 45.6309321 ], [ 9.2924071, 45.6309327 ], [ 9.2919181, 45.6309475 ], [ 9.2897696, 45.630658 ], [ 9.2892331, 45.630568 ], [ 9.2886001, 45.6302529 ], [ 9.2879457, 45.6302304 ], [ 9.2848719, 45.6301329 ], [ 9.2835629, 45.6300241 ], [ 9.2831391, 45.6294614 ], [ 9.2818302, 45.6296527 ], [ 9.2805857, 45.6297502 ], [ 9.278971, 45.6297652 ], [ 9.2787242, 45.6297202 ], [ 9.2786223, 45.6296152 ], [ 9.2784882, 45.6295064 ], [ 9.2783809, 45.6294276 ], [ 9.2782253, 45.6293601 ], [ 9.2780483, 45.6292963 ], [ 9.2779483, 45.6286557 ], [ 9.2778971, 45.6280348 ], [ 9.277874, 45.6278908 ], [ 9.2778461, 45.6277694 ], [ 9.2778503, 45.6276479 ], [ 9.2778482, 45.6275444 ], [ 9.2778476, 45.6274319 ], [ 9.2778744, 45.6273418 ], [ 9.2779237, 45.6272517 ], [ 9.2779746, 45.6271751 ], [ 9.278, 45.627112 ], [ 9.2780334, 45.6270534 ], [ 9.2780493, 45.6270264 ], [ 9.2780904, 45.6269137 ], [ 9.278134, 45.6266481 ], [ 9.2782067, 45.6264409 ], [ 9.278267, 45.6263103 ], [ 9.278297, 45.6262067 ], [ 9.2783238, 45.6261076 ], [ 9.2784016, 45.6259634 ], [ 9.2784586, 45.6258103 ], [ 9.278511, 45.6257021 ], [ 9.2785871, 45.6255309 ], [ 9.2789721, 45.6245984 ], [ 9.2792549, 45.6237336 ], [ 9.2793508, 45.6233599 ], [ 9.2795735, 45.6226708 ], [ 9.2794046, 45.6212806 ], [ 9.2788883, 45.6193422 ], [ 9.2781904, 45.6166572 ], [ 9.2779262, 45.6157533 ], [ 9.2776209, 45.6143184 ], [ 9.2775994, 45.6141744 ], [ 9.2775913, 45.6141519 ], [ 9.2775846, 45.6140935 ], [ 9.2775763, 45.6140395 ], [ 9.2775729, 45.6140035 ], [ 9.2775728, 45.6139765 ], [ 9.2775462, 45.613783 ], [ 9.2775636, 45.613738 ], [ 9.2779989, 45.6126163 ], [ 9.2780612, 45.6122381 ], [ 9.2780643, 45.6122291 ], [ 9.2780658, 45.6122021 ], [ 9.2780689, 45.6121796 ], [ 9.2780656, 45.6121526 ], [ 9.2780622, 45.6121121 ], [ 9.2780475, 45.6120717 ], [ 9.2780313, 45.6120357 ], [ 9.2779923, 45.6119278 ], [ 9.2779857, 45.6118918 ], [ 9.27772, 45.6099149 ], [ 9.277672, 45.6083894 ], [ 9.2750928, 45.6084385 ], [ 9.2749064, 45.6083624 ], [ 9.2748544, 45.6083387 ], [ 9.2682847, 45.6057372 ], [ 9.2682448, 45.6056533 ], [ 9.2690942, 45.6027456 ], [ 9.2687863, 45.6026866 ], [ 9.2676866, 45.6024789 ], [ 9.267665, 45.6025386 ], [ 9.2670172, 45.6024397 ], [ 9.266904, 45.6027582 ], [ 9.266904, 45.6030178 ], [ 9.2667942, 45.6030204 ], [ 9.2666322, 45.6036155 ], [ 9.2638427, 45.6032665 ], [ 9.2637874, 45.6035017 ], [ 9.2628272, 45.6033934 ], [ 9.2627263, 45.6038632 ], [ 9.2617657, 45.6037664 ], [ 9.2615266, 45.6043925 ], [ 9.2613596, 45.6043299 ], [ 9.2612102, 45.6042628 ], [ 9.2610415, 45.6041686 ], [ 9.2609321, 45.6040924 ], [ 9.26085, 45.6040161 ], [ 9.2607533, 45.6038948 ], [ 9.2607017, 45.6038274 ], [ 9.260621, 45.6037061 ], [ 9.2605436, 45.6036252 ], [ 9.2604376, 45.6035715 ], [ 9.2603429, 45.6035492 ], [ 9.260022, 45.6034734 ], [ 9.2595154, 45.6034521 ], [ 9.2593873, 45.6034928 ], [ 9.2590825, 45.6044701 ], [ 9.2587532, 45.6053755 ], [ 9.2581998, 45.6053002 ], [ 9.2581951, 45.6053092 ], [ 9.2580894, 45.6056022 ], [ 9.2580115, 45.6058182 ], [ 9.2562276, 45.6055162 ], [ 9.2563518, 45.6049803 ], [ 9.2554791, 45.6048248 ], [ 9.2556295, 45.6044284 ], [ 9.2557248, 45.6042167 ], [ 9.2558404, 45.6039104 ], [ 9.2559035, 45.6036987 ], [ 9.256154, 45.6030771 ], [ 9.2526054, 45.602428 ], [ 9.2528676, 45.6019143 ], [ 9.2529137, 45.6018422 ], [ 9.2529472, 45.6017971 ], [ 9.2529743, 45.6017656 ], [ 9.2529966, 45.601743 ], [ 9.2530206, 45.6017115 ], [ 9.2530572, 45.6016664 ], [ 9.2534896, 45.6012199 ], [ 9.2535755, 45.6011103 ], [ 9.2534186, 45.601082 ], [ 9.2524493, 45.6010516 ], [ 9.252299, 45.6010644 ], [ 9.2521625, 45.6010995 ], [ 9.251958, 45.6011131 ], [ 9.250697, 45.6009225 ], [ 9.2500493, 45.6008061 ], [ 9.249334, 45.6006482 ], [ 9.2492346, 45.6006196 ], [ 9.2491744, 45.6005959 ], [ 9.2491439, 45.6005585 ], [ 9.2491369, 45.6005366 ], [ 9.2491272, 45.6005083 ], [ 9.249107, 45.6004729 ], [ 9.2490619, 45.6004353 ], [ 9.2489884, 45.6003995 ], [ 9.24774, 45.5999722 ], [ 9.2462578, 45.5994339 ], [ 9.246074, 45.5993569 ], [ 9.2447186, 45.5988172 ], [ 9.2449707, 45.5983267 ], [ 9.2440708, 45.5981576 ], [ 9.2443125, 45.5977251 ], [ 9.24467, 45.5970042 ], [ 9.2446762, 45.5969592 ], [ 9.2446841, 45.5969232 ], [ 9.2446663, 45.5968827 ], [ 9.2446534, 45.5968692 ], [ 9.2434695, 45.5966198 ], [ 9.2433844, 45.5969575 ], [ 9.242834, 45.5968056 ], [ 9.2426334, 45.5967385 ], [ 9.2416292, 45.5965381 ], [ 9.2420406, 45.5952997 ], [ 9.2424498, 45.5943087 ], [ 9.2412259, 45.5940503 ], [ 9.2418848, 45.5918752 ], [ 9.2412666, 45.5919575 ], [ 9.2406162, 45.5920264 ], [ 9.240078, 45.5920905 ], [ 9.2397017, 45.5921498 ], [ 9.2392366, 45.5921927 ], [ 9.2379142, 45.5923831 ], [ 9.2385837, 45.5911665 ], [ 9.236502, 45.5907928 ], [ 9.2376731, 45.5880496 ], [ 9.2375462, 45.5879869 ], [ 9.2389422, 45.5853962 ], [ 9.2390109, 45.5853421 ], [ 9.2390476, 45.585324 ], [ 9.2390925, 45.5853149 ], [ 9.2395465, 45.585449 ], [ 9.2395989, 45.5853409 ], [ 9.2396086, 45.5853498 ], [ 9.2396246, 45.5853543 ], [ 9.2396631, 45.5853632 ], [ 9.2396968, 45.5853632 ], [ 9.2397544, 45.5853585 ], [ 9.2398041, 45.5853494 ], [ 9.2398489, 45.5853403 ], [ 9.2398889, 45.5853313 ], [ 9.2399498, 45.5853221 ], [ 9.2400059, 45.5853265 ], [ 9.240038, 45.5853354 ], [ 9.2400588, 45.5853444 ], [ 9.2400782, 45.5853714 ], [ 9.2400879, 45.5853938 ], [ 9.2400944, 45.5854253 ], [ 9.2400977, 45.5854433 ], [ 9.2400946, 45.5854703 ], [ 9.2400915, 45.5854884 ], [ 9.2400868, 45.5855109 ], [ 9.2400868, 45.5855244 ], [ 9.2400901, 45.5855469 ], [ 9.2400998, 45.5855693 ], [ 9.2401063, 45.5855783 ], [ 9.240124, 45.5855918 ], [ 9.2401497, 45.5856052 ], [ 9.2401914, 45.5856141 ], [ 9.2402315, 45.5856186 ], [ 9.2402571, 45.5856185 ], [ 9.2403548, 45.5856048 ], [ 9.2403916, 45.5855867 ], [ 9.240398, 45.5855822 ], [ 9.2409514, 45.5846045 ], [ 9.2382061, 45.5837371 ], [ 9.2373735, 45.5835093 ], [ 9.237351, 45.5835049 ], [ 9.2373317, 45.5834959 ], [ 9.2372996, 45.5834645 ], [ 9.2372994, 45.583433 ], [ 9.2373025, 45.5834105 ], [ 9.2380264, 45.5819133 ], [ 9.2342364, 45.5808221 ], [ 9.2345586, 45.5803049 ], [ 9.2347846, 45.5798063 ], [ 9.2346482, 45.5797525 ], [ 9.2351652, 45.5788739 ], [ 9.2336922, 45.5783458 ], [ 9.2331098, 45.578158 ], [ 9.2327536, 45.5780372 ], [ 9.2306939, 45.5774383 ], [ 9.2309036, 45.5762137 ], [ 9.2309208, 45.5761102 ], [ 9.2305585, 45.5760704 ], [ 9.2306309, 45.5757327 ], [ 9.2324629, 45.5759361 ], [ 9.23277, 45.5750308 ], [ 9.2327729, 45.5749633 ], [ 9.2327696, 45.5749363 ], [ 9.2327645, 45.5748688 ], [ 9.232758, 45.5748328 ], [ 9.232745, 45.5747879 ], [ 9.2327352, 45.5747564 ], [ 9.2327223, 45.5747249 ], [ 9.2327109, 45.5747024 ], [ 9.232698, 45.5746709 ], [ 9.2316842, 45.5743625 ], [ 9.2308534, 45.5741436 ], [ 9.2301785, 45.574028 ], [ 9.2302818, 45.5738252 ], [ 9.2283616, 45.5735951 ], [ 9.2282745, 45.5738608 ], [ 9.2274423, 45.5739093 ], [ 9.2273952, 45.573912 ], [ 9.2273227, 45.5734306 ], [ 9.2271752, 45.5722023 ], [ 9.227175, 45.5721528 ], [ 9.2271649, 45.5720268 ], [ 9.2271454, 45.5719683 ], [ 9.2270962, 45.5716939 ], [ 9.2270605, 45.5711809 ], [ 9.2270416, 45.5708659 ], [ 9.2270488, 45.5706723 ], [ 9.2270251, 45.5703528 ] ] ] } }
]
}
