{
"type": "FeatureCollection",
"name": "mozir_by",
"crs": { "type": "name", "properties": { "name": "urn:ogc:def:crs:OGC:1.3:CRS84" } },
"features": [
{ "type": "Feature", "properties": { }, "geometry": { "type": "Polygon", "coordinates": [ [ [ 29.1844479, 52.0454562 ], [ 29.1848914, 52.0448817 ], [ 29.1862133, 52.0451923 ], [ 29.1869303, 52.0444112 ], [ 29.1876099, 52.0448135 ], [ 29.1878953, 52.0442763 ], [ 29.1882525, 52.0437676 ], [ 29.1885711, 52.043447 ], [ 29.18895, 52.0435541 ], [ 29.1902533, 52.043657 ], [ 29.1907563, 52.0433499 ], [ 29.1917489, 52.043371 ], [ 29.1917316, 52.0435679 ], [ 29.192587, 52.0436082 ], [ 29.1931526, 52.0436071 ], [ 29.1941366, 52.0436213 ], [ 29.1945119, 52.0436345 ], [ 29.1947494, 52.0436387 ], [ 29.1959129, 52.0437075 ], [ 29.1989041, 52.0437908 ], [ 29.1995584, 52.0439601 ], [ 29.1992794, 52.0465764 ], [ 29.1992595, 52.0486712 ], [ 29.1993761, 52.0496036 ], [ 29.1992864, 52.0503063 ], [ 29.1989301, 52.0508578 ], [ 29.1962301, 52.0540053 ], [ 29.1958716, 52.0542386 ], [ 29.189366, 52.0563609 ], [ 29.1896125, 52.0567411 ], [ 29.1885629, 52.0570254 ], [ 29.1891233, 52.0574297 ], [ 29.1868295, 52.0584483 ], [ 29.188585, 52.0605368 ], [ 29.1869172, 52.0609923 ], [ 29.1861284, 52.06184 ], [ 29.1852425, 52.0622301 ], [ 29.185642, 52.0631841 ], [ 29.1858616, 52.0639552 ], [ 29.1860527, 52.0643346 ], [ 29.1864717, 52.0647083 ], [ 29.1874479, 52.0652464 ], [ 29.1892239, 52.0639774 ], [ 29.191801, 52.0654511 ], [ 29.1901863, 52.0665064 ], [ 29.1899878, 52.0666535 ], [ 29.1912485, 52.067898 ], [ 29.1902603, 52.0703083 ], [ 29.19384, 52.0711872 ], [ 29.19788, 52.07236 ], [ 29.1973479, 52.0725996 ], [ 29.1978053, 52.0736328 ], [ 29.1970757, 52.0745758 ], [ 29.1954825, 52.0760068 ], [ 29.1948012, 52.0764519 ], [ 29.1938065, 52.0760572 ], [ 29.193229, 52.0765239 ], [ 29.192534, 52.0770857 ], [ 29.1915751, 52.0764886 ], [ 29.1890723, 52.0760695 ], [ 29.1881289, 52.0751183 ], [ 29.1874959, 52.0752963 ], [ 29.1875014, 52.0760825 ], [ 29.18192, 52.07674 ], [ 29.18063, 52.07828 ], [ 29.1821863, 52.0806994 ], [ 29.1849653, 52.0828591 ], [ 29.187751, 52.085002 ], [ 29.1893107, 52.0865138 ], [ 29.1930893, 52.092491 ], [ 29.1954819, 52.0906515 ], [ 29.1966595, 52.0897204 ], [ 29.198201, 52.0889105 ], [ 29.201288, 52.0881153 ], [ 29.2030931, 52.0871897 ], [ 29.2040762, 52.0863789 ], [ 29.2058506, 52.084842 ], [ 29.2062762, 52.0816915 ], [ 29.2067427, 52.0808506 ], [ 29.2075267, 52.0801933 ], [ 29.2121028, 52.0772056 ], [ 29.2159317, 52.0767092 ], [ 29.2187027, 52.0761191 ], [ 29.2216575, 52.0744607 ], [ 29.2224882, 52.0740538 ], [ 29.2288232, 52.0790004 ], [ 29.2323422, 52.0819279 ], [ 29.2224717, 52.0855277 ], [ 29.2143607, 52.0930295 ], [ 29.2172897, 52.0963253 ], [ 29.2205727, 52.0977621 ], [ 29.2227613, 52.0976171 ], [ 29.2255401, 52.0966284 ], [ 29.2320205, 52.0944975 ], [ 29.2336958, 52.092361 ], [ 29.2391164, 52.0910438 ], [ 29.2425752, 52.0960932 ], [ 29.2433137, 52.0959563 ], [ 29.2390523, 52.0895498 ], [ 29.2398508, 52.0892594 ], [ 29.2409806, 52.0865528 ], [ 29.2410054, 52.0858598 ], [ 29.24104, 52.0856251 ], [ 29.2416609, 52.0853382 ], [ 29.2430051, 52.085407 ], [ 29.2474591, 52.0787631 ], [ 29.2492598, 52.0763283 ], [ 29.2492284, 52.0761262 ], [ 29.2481137, 52.0759298 ], [ 29.2477801, 52.075778 ], [ 29.2477, 52.0756596 ], [ 29.2477597, 52.0755751 ], [ 29.2487726, 52.075266 ], [ 29.2493398, 52.0750023 ], [ 29.2498135, 52.0746038 ], [ 29.2530796, 52.070637 ], [ 29.2535756, 52.0702013 ], [ 29.2545063, 52.0698133 ], [ 29.2553818, 52.069584 ], [ 29.2651617, 52.0688186 ], [ 29.2660844, 52.0697815 ], [ 29.2731744, 52.0743359 ], [ 29.2729199, 52.0745176 ], [ 29.2726094, 52.074263 ], [ 29.2721192, 52.0744255 ], [ 29.2725117, 52.0747217 ], [ 29.2709523, 52.0754806 ], [ 29.2708909, 52.0771014 ], [ 29.2787015, 52.0823235 ], [ 29.282521, 52.0806224 ], [ 29.2774378, 52.0768557 ], [ 29.2786388, 52.0757179 ], [ 29.2791495, 52.0748726 ], [ 29.2793792, 52.074143 ], [ 29.2790593, 52.0737034 ], [ 29.2794898, 52.0734717 ], [ 29.2789327, 52.0733526 ], [ 29.278241, 52.0731414 ], [ 29.2792256, 52.0729137 ], [ 29.2780107, 52.0711232 ], [ 29.2779367, 52.0710078 ], [ 29.2776732, 52.0706476 ], [ 29.2749789, 52.0714297 ], [ 29.2736655, 52.0717877 ], [ 29.2725948, 52.0721267 ], [ 29.2721515, 52.0722995 ], [ 29.2714703, 52.0724722 ], [ 29.266343, 52.069418 ], [ 29.2658484, 52.0686604 ], [ 29.2632134, 52.062544 ], [ 29.2623136, 52.0600045 ], [ 29.2687805, 52.0579236 ], [ 29.2717921, 52.0567619 ], [ 29.2729774, 52.0557415 ], [ 29.2754322, 52.0557139 ], [ 29.2784298, 52.0501356 ], [ 29.2841932, 52.0485998 ], [ 29.2886944, 52.0466731 ], [ 29.2911218, 52.0448174 ], [ 29.294056, 52.0414894 ], [ 29.2969411, 52.039046 ], [ 29.3028036, 52.0351007 ], [ 29.3074004, 52.0328788 ], [ 29.3140307, 52.0299348 ], [ 29.3224716, 52.0258314 ], [ 29.3166272, 52.023241 ], [ 29.315744, 52.0228212 ], [ 29.3142269, 52.0221 ], [ 29.3139721, 52.0222276 ], [ 29.3139648, 52.0223197 ], [ 29.3136819, 52.0224718 ], [ 29.3132317, 52.0225338 ], [ 29.3129947, 52.0227342 ], [ 29.3128999, 52.022891 ], [ 29.3127024, 52.0229524 ], [ 29.3124836, 52.0230255 ], [ 29.3120132, 52.0233972 ], [ 29.3115502, 52.023798 ], [ 29.3116736, 52.0241512 ], [ 29.3102198, 52.0253824 ], [ 29.3084674, 52.0266451 ], [ 29.3080128, 52.026926 ], [ 29.3076515, 52.0270645 ], [ 29.3073373, 52.0272891 ], [ 29.3068448, 52.0275699 ], [ 29.3066365, 52.0278545 ], [ 29.3063389, 52.0281379 ], [ 29.3057965, 52.0284663 ], [ 29.3053354, 52.0286126 ], [ 29.3050562, 52.0287413 ], [ 29.3047407, 52.0286007 ], [ 29.3042582, 52.0284287 ], [ 29.303385, 52.0281618 ], [ 29.3029546, 52.0280898 ], [ 29.3024881, 52.0279468 ], [ 29.3023541, 52.0275943 ], [ 29.3024361, 52.0272113 ], [ 29.3027054, 52.0267163 ], [ 29.3030755, 52.0265115 ], [ 29.3027054, 52.0259505 ], [ 29.3019437, 52.0256831 ], [ 29.3013975, 52.0260973 ], [ 29.3019453, 52.0263432 ], [ 29.3023299, 52.0268087 ], [ 29.3021464, 52.0271783 ], [ 29.3019999, 52.0275893 ], [ 29.3010263, 52.027685 ], [ 29.3011964, 52.0293029 ], [ 29.3000446, 52.0293964 ], [ 29.2993863, 52.0293325 ], [ 29.2974404, 52.0284436 ], [ 29.2962946, 52.027734 ], [ 29.2949207, 52.0268142 ], [ 29.2936655, 52.0265685 ], [ 29.2935518, 52.0267431 ], [ 29.2935931, 52.0269201 ], [ 29.2942717, 52.0271009 ], [ 29.2946362, 52.0274522 ], [ 29.2964226, 52.0286801 ], [ 29.2968517, 52.0288286 ], [ 29.2971951, 52.0292048 ], [ 29.2969, 52.0293732 ], [ 29.2966543, 52.0297957 ], [ 29.2973453, 52.0299623 ], [ 29.2985909, 52.0308254 ], [ 29.2994277, 52.0309442 ], [ 29.3013045, 52.0314005 ], [ 29.3001886, 52.0319946 ], [ 29.2993947, 52.0326546 ], [ 29.2971662, 52.0338244 ], [ 29.2954465, 52.0347271 ], [ 29.2932991, 52.0356559 ], [ 29.292969, 52.0353611 ], [ 29.292509, 52.0352155 ], [ 29.2921929, 52.0349155 ], [ 29.2916562, 52.0346649 ], [ 29.2912894, 52.0344937 ], [ 29.2908285, 52.0349969 ], [ 29.2896759, 52.035662 ], [ 29.2919353, 52.0365325 ], [ 29.2922126, 52.0367789 ], [ 29.2912668, 52.0375852 ], [ 29.2896569, 52.0384362 ], [ 29.2887219, 52.0391739 ], [ 29.2883502, 52.0385675 ], [ 29.2865048, 52.0389503 ], [ 29.2858814, 52.0390288 ], [ 29.2850306, 52.0386882 ], [ 29.2841343, 52.038234 ], [ 29.2825511, 52.0376546 ], [ 29.2817371, 52.0373731 ], [ 29.2815323, 52.0377287 ], [ 29.2804468, 52.0373646 ], [ 29.2791962, 52.0371445 ], [ 29.2789482, 52.0365205 ], [ 29.2786144, 52.0364772 ], [ 29.278211, 52.0358073 ], [ 29.278211, 52.035519 ], [ 29.2773152, 52.0351024 ], [ 29.2740442, 52.035237 ], [ 29.2730754, 52.035269 ], [ 29.2710024, 52.0351665 ], [ 29.2697836, 52.0347179 ], [ 29.2688148, 52.034327 ], [ 29.2680022, 52.0349614 ], [ 29.2673121, 52.0354794 ], [ 29.2661754, 52.0349454 ], [ 29.2658112, 52.0351902 ], [ 29.2656515, 52.0349208 ], [ 29.2659435, 52.0346395 ], [ 29.2653234, 52.0343074 ], [ 29.2649098, 52.0339945 ], [ 29.2641216, 52.0338484 ], [ 29.2639472, 52.0339273 ], [ 29.2629467, 52.0337594 ], [ 29.2620078, 52.0341871 ], [ 29.2617266, 52.0340235 ], [ 29.2613618, 52.0335087 ], [ 29.2615595, 52.0333897 ], [ 29.2616505, 52.0335256 ], [ 29.2620398, 52.0334919 ], [ 29.2631539, 52.0332979 ], [ 29.2637314, 52.0331823 ], [ 29.2636808, 52.0328341 ], [ 29.263292, 52.0321874 ], [ 29.2623988, 52.0324258 ], [ 29.2623634, 52.0322876 ], [ 29.2616894, 52.0323083 ], [ 29.2614056, 52.0324499 ], [ 29.2613177, 52.0324938 ], [ 29.2605275, 52.0324019 ], [ 29.2606269, 52.032116 ], [ 29.2605835, 52.0318292 ], [ 29.2602236, 52.0316653 ], [ 29.2594101, 52.0317827 ], [ 29.2583703, 52.0314641 ], [ 29.2567463, 52.0310548 ], [ 29.2559848, 52.030756 ], [ 29.255374, 52.0303844 ], [ 29.2569351, 52.030325 ], [ 29.257214, 52.0303184 ], [ 29.2574286, 52.0302557 ], [ 29.2576861, 52.0300775 ], [ 29.257727, 52.0298774 ], [ 29.2579577, 52.0296718 ], [ 29.2583737, 52.0298504 ], [ 29.2588153, 52.0296541 ], [ 29.258978, 52.0296906 ], [ 29.2591333, 52.0298616 ], [ 29.2592494, 52.0302808 ], [ 29.2594027, 52.0306023 ], [ 29.2606365, 52.0309521 ], [ 29.260894, 52.0309587 ], [ 29.2606524, 52.0304749 ], [ 29.260599, 52.0303679 ], [ 29.2604488, 52.0303382 ], [ 29.2599928, 52.0298333 ], [ 29.2607643, 52.0300137 ], [ 29.2612381, 52.029603 ], [ 29.2603272, 52.0291999 ], [ 29.2600214, 52.0288509 ], [ 29.259789, 52.0287771 ], [ 29.2596495, 52.028853 ], [ 29.2591238, 52.0287573 ], [ 29.2583996, 52.0283579 ], [ 29.2582869, 52.0281929 ], [ 29.2583567, 52.0279585 ], [ 29.2589096, 52.0276737 ], [ 29.2594663, 52.0274834 ], [ 29.2595987, 52.0272064 ], [ 29.2589902, 52.026898 ], [ 29.2591563, 52.0265125 ], [ 29.2587244, 52.026208 ], [ 29.2570845, 52.0269145 ], [ 29.2551533, 52.0286836 ], [ 29.2541448, 52.029819 ], [ 29.2517655, 52.0283434 ], [ 29.2526137, 52.0275309 ], [ 29.2507714, 52.0261872 ], [ 29.2492811, 52.0264659 ], [ 29.248292, 52.0264252 ], [ 29.2468218, 52.0255843 ], [ 29.2527344, 52.0220818 ], [ 29.2520445, 52.0213327 ], [ 29.2544748, 52.0205102 ], [ 29.2542601, 52.0201553 ], [ 29.254426, 52.0199804 ], [ 29.2546749, 52.01996 ], [ 29.2550731, 52.0202556 ], [ 29.2555967, 52.020321 ], [ 29.2559518, 52.0200375 ], [ 29.2560967, 52.0196601 ], [ 29.2579228, 52.0177998 ], [ 29.2585569, 52.0176819 ], [ 29.2579679, 52.0172953 ], [ 29.2579767, 52.0169776 ], [ 29.2589563, 52.0164746 ], [ 29.2573726, 52.0150964 ], [ 29.25645, 52.0150224 ], [ 29.2556805, 52.0148474 ], [ 29.2553518, 52.0162171 ], [ 29.2545616, 52.0173532 ], [ 29.2538583, 52.0174154 ], [ 29.2522084, 52.0168027 ], [ 29.2509071, 52.0167838 ], [ 29.2485224, 52.0158911 ], [ 29.2474562, 52.0171192 ], [ 29.2464889, 52.0168419 ], [ 29.245996, 52.0170125 ], [ 29.2456324, 52.0169505 ], [ 29.2452072, 52.016774 ], [ 29.2467108, 52.0146856 ], [ 29.2411061, 52.0125958 ], [ 29.2410348, 52.0123396 ], [ 29.2334017, 52.009471 ], [ 29.2297172, 52.0076385 ], [ 29.2281768, 52.0075334 ], [ 29.220456, 52.0075755 ], [ 29.2196139, 52.0081184 ], [ 29.2186981, 52.0087088 ], [ 29.2084961, 52.0152853 ], [ 29.2074199, 52.0160324 ], [ 29.2037973, 52.0185473 ], [ 29.2092288, 52.0209775 ], [ 29.2071782, 52.0225928 ], [ 29.2049073, 52.0272552 ], [ 29.2038167, 52.0298849 ], [ 29.1997326, 52.0347705 ], [ 29.1905863, 52.0338249 ], [ 29.1906862, 52.033648 ], [ 29.1914751, 52.0322511 ], [ 29.1911416, 52.0315763 ], [ 29.1900327, 52.0309854 ], [ 29.1904366, 52.030511 ], [ 29.1904109, 52.0303006 ], [ 29.1891907, 52.0262151 ], [ 29.1888975, 52.0260478 ], [ 29.1885121, 52.0258278 ], [ 29.1846924, 52.0282523 ], [ 29.1798793, 52.0325671 ], [ 29.1795357, 52.0329154 ], [ 29.1699958, 52.0395274 ], [ 29.1844479, 52.0454562 ] ] ] } }
]
}
