{
"type": "FeatureCollection",
"name": "mulhouse_fr",
"crs": { "type": "name", "properties": { "name": "urn:ogc:def:crs:OGC:1.3:CRS84" } },
"features": [
{ "type": "Feature", "properties": { "bbox_west": 7.282494, "bbox_south": 47.7218791, "bbox_east": 7.3686272, "bbox_north": 47.7833721, "place_id": 93244482, "osm_type": "relation", "osm_id": 38246, "lat": 47.7467233, "lon": 7.3389937, "class": "boundary", "type": "administrative", "place_rank": 16, "importance": 0.64142208580403959, "addresstype": "city", "name": "Mulhouse", "display_name": "Mulhouse, Haut-Rhin, European Collectivity of Alsace, Grand Est, Metropolitan France, France" }, "geometry": { "type": "Polygon", "coordinates": [ [ [ 7.282494, 47.742732 ], [ 7.28296, 47.7424634 ], [ 7.2860491, 47.7406002 ], [ 7.2866973, 47.7401444 ], [ 7.2863105, 47.7399104 ], [ 7.2868939, 47.7397165 ], [ 7.2870362, 47.7397071 ], [ 7.2877612, 47.7387958 ], [ 7.2874455, 47.7386885 ], [ 7.2877443, 47.7381477 ], [ 7.2878404, 47.7378636 ], [ 7.2876331, 47.737851 ], [ 7.2877246, 47.7374728 ], [ 7.287302, 47.7371914 ], [ 7.2870917, 47.7371468 ], [ 7.2871282, 47.7370277 ], [ 7.2873334, 47.7370189 ], [ 7.2878361, 47.7362917 ], [ 7.2883967, 47.7354441 ], [ 7.2886529, 47.7349648 ], [ 7.2879377, 47.7347363 ], [ 7.286745, 47.734285 ], [ 7.2845026, 47.733867 ], [ 7.2849952, 47.7328622 ], [ 7.2855419, 47.7329459 ], [ 7.2858739, 47.7322581 ], [ 7.2854209, 47.7321597 ], [ 7.2860859, 47.7307947 ], [ 7.286073, 47.7306563 ], [ 7.2866177, 47.7295316 ], [ 7.2866216, 47.7294031 ], [ 7.2869823, 47.7283771 ], [ 7.2876175, 47.7285266 ], [ 7.2893926, 47.7285259 ], [ 7.2909275, 47.7285712 ], [ 7.2916177, 47.7285916 ], [ 7.2929192, 47.7287636 ], [ 7.293836, 47.728949 ], [ 7.2955071, 47.7293998 ], [ 7.2974313, 47.7283867 ], [ 7.2979734, 47.7287592 ], [ 7.2997584, 47.727849 ], [ 7.300967, 47.7285674 ], [ 7.3020169, 47.7277633 ], [ 7.3027359, 47.7283315 ], [ 7.3038909, 47.7288169 ], [ 7.3031263, 47.7297906 ], [ 7.3043781, 47.7303171 ], [ 7.3053881, 47.7290631 ], [ 7.3063487, 47.7283246 ], [ 7.3064997, 47.7282094 ], [ 7.3068322, 47.7279282 ], [ 7.3071083, 47.727605 ], [ 7.307091, 47.7278933 ], [ 7.3069855, 47.7282589 ], [ 7.3070102, 47.7284674 ], [ 7.3087432, 47.7293505 ], [ 7.3098303, 47.7297823 ], [ 7.3144604, 47.7316104 ], [ 7.314485, 47.7316202 ], [ 7.3146613, 47.731705 ], [ 7.3171302, 47.7326494 ], [ 7.317405, 47.7326488 ], [ 7.3174665, 47.7327726 ], [ 7.3180072, 47.7329709 ], [ 7.3214656, 47.7336233 ], [ 7.3223312, 47.7338232 ], [ 7.3226638, 47.7340511 ], [ 7.3234533, 47.7335568 ], [ 7.3235254, 47.7336183 ], [ 7.3241912, 47.7332373 ], [ 7.3248712, 47.7327915 ], [ 7.3250267, 47.7326942 ], [ 7.3251824, 47.7326231 ], [ 7.3252362, 47.7325901 ], [ 7.3253078, 47.7325569 ], [ 7.3254422, 47.7324944 ], [ 7.325463, 47.7324841 ], [ 7.3259854, 47.7322339 ], [ 7.3260759, 47.7322222 ], [ 7.326194, 47.7322071 ], [ 7.3281009, 47.7316292 ], [ 7.3280886, 47.7314988 ], [ 7.327417, 47.7311851 ], [ 7.3276428, 47.7309419 ], [ 7.3276617, 47.7309215 ], [ 7.3283659, 47.7312795 ], [ 7.3283889, 47.7312511 ], [ 7.3284587, 47.7311654 ], [ 7.3285786, 47.7309866 ], [ 7.3289881, 47.7301965 ], [ 7.3291921, 47.7298181 ], [ 7.329557, 47.7291733 ], [ 7.3296116, 47.7290236 ], [ 7.3297071, 47.7287897 ], [ 7.3298715, 47.7285629 ], [ 7.3304526, 47.7279897 ], [ 7.3308182, 47.7281458 ], [ 7.3310436, 47.7278805 ], [ 7.3312033, 47.7277359 ], [ 7.3313356, 47.7276483 ], [ 7.3317245, 47.7275 ], [ 7.3318204, 47.7273587 ], [ 7.3321352, 47.7274021 ], [ 7.3321394, 47.72739 ], [ 7.3321451, 47.7273734 ], [ 7.332852, 47.7259658 ], [ 7.3336072, 47.7261919 ], [ 7.334274, 47.7263624 ], [ 7.3346283, 47.7258387 ], [ 7.3348692, 47.7255849 ], [ 7.3354604, 47.7257762 ], [ 7.336122, 47.7259814 ], [ 7.3361485, 47.7260006 ], [ 7.3367792, 47.7250437 ], [ 7.3375005, 47.7251101 ], [ 7.3393029, 47.7244156 ], [ 7.3409973, 47.7236918 ], [ 7.3435815, 47.7230769 ], [ 7.343621, 47.7228637 ], [ 7.3444983, 47.7218791 ], [ 7.346184, 47.7228138 ], [ 7.3461795, 47.7229248 ], [ 7.3466559, 47.7232266 ], [ 7.3470118, 47.7230175 ], [ 7.3471368, 47.722944 ], [ 7.3479652, 47.7241272 ], [ 7.3479956, 47.7244482 ], [ 7.3486089, 47.7253384 ], [ 7.3487049, 47.7255939 ], [ 7.3487025, 47.725671 ], [ 7.3499039, 47.7264712 ], [ 7.3496552, 47.7266834 ], [ 7.3502396, 47.7270209 ], [ 7.3507901, 47.7276317 ], [ 7.3508637, 47.7276898 ], [ 7.3514677, 47.7281666 ], [ 7.3529855, 47.7295316 ], [ 7.3533932, 47.7299993 ], [ 7.3538063, 47.7304733 ], [ 7.3540556, 47.7305834 ], [ 7.3549033, 47.7314937 ], [ 7.3564775, 47.7326648 ], [ 7.3562837, 47.7329646 ], [ 7.3563956, 47.7330612 ], [ 7.355761, 47.7338935 ], [ 7.3555855, 47.7341236 ], [ 7.3552225, 47.734471 ], [ 7.3544717, 47.7352069 ], [ 7.3539793, 47.7356719 ], [ 7.3538777, 47.7357794 ], [ 7.3539555, 47.7357881 ], [ 7.3526342, 47.737014 ], [ 7.3525937, 47.7370162 ], [ 7.3523754, 47.7372151 ], [ 7.3522516, 47.7373682 ], [ 7.3517919, 47.7378094 ], [ 7.3528294, 47.7382998 ], [ 7.3530448, 47.7384469 ], [ 7.3528697, 47.7385456 ], [ 7.353522, 47.7390461 ], [ 7.3541717, 47.739469 ], [ 7.3537251, 47.7396156 ], [ 7.353676, 47.7396715 ], [ 7.3536182, 47.739713 ], [ 7.3535587, 47.7397567 ], [ 7.3537305, 47.7398306 ], [ 7.3541257, 47.7400034 ], [ 7.3551507, 47.7404806 ], [ 7.3547367, 47.7409041 ], [ 7.3546753, 47.7409708 ], [ 7.3543813, 47.7413315 ], [ 7.3543093, 47.7414514 ], [ 7.354178, 47.7417175 ], [ 7.3546378, 47.7418379 ], [ 7.3556435, 47.7422531 ], [ 7.3560298, 47.7425332 ], [ 7.3559607, 47.7425895 ], [ 7.3559375, 47.7426133 ], [ 7.3559008, 47.742667 ], [ 7.3558535, 47.7427154 ], [ 7.3554861, 47.7430913 ], [ 7.3548986, 47.7436539 ], [ 7.3548962, 47.7437087 ], [ 7.3548477, 47.7437222 ], [ 7.3542008, 47.7443486 ], [ 7.3541625, 47.7443857 ], [ 7.3545016, 47.7445928 ], [ 7.3547631, 47.7447525 ], [ 7.3558566, 47.7453384 ], [ 7.3561052, 47.7454869 ], [ 7.3565779, 47.7457507 ], [ 7.3568203, 47.7458825 ], [ 7.3566596, 47.7460826 ], [ 7.356281, 47.746367 ], [ 7.356074, 47.746545 ], [ 7.3554919, 47.747001 ], [ 7.3556532, 47.7470834 ], [ 7.3560664, 47.7472945 ], [ 7.3562248, 47.7473754 ], [ 7.3565884, 47.7475612 ], [ 7.357346, 47.7479566 ], [ 7.3579576, 47.7482716 ], [ 7.3580078, 47.7482351 ], [ 7.3593461, 47.7490481 ], [ 7.36042, 47.7497295 ], [ 7.3604839, 47.7496967 ], [ 7.3606657, 47.7498224 ], [ 7.3605978, 47.749869 ], [ 7.3607868, 47.7500239 ], [ 7.3608206, 47.7500098 ], [ 7.3616785, 47.7508136 ], [ 7.3619413, 47.7506681 ], [ 7.3619496, 47.750664 ], [ 7.3620524, 47.7506129 ], [ 7.3622162, 47.7505303 ], [ 7.3623215, 47.7506398 ], [ 7.3627151, 47.7509915 ], [ 7.3622796, 47.751251 ], [ 7.3622238, 47.7512776 ], [ 7.3610705, 47.7518707 ], [ 7.3617461, 47.7523063 ], [ 7.3626164, 47.7527256 ], [ 7.3622709, 47.7531678 ], [ 7.3620722, 47.7533431 ], [ 7.3624374, 47.7535429 ], [ 7.3619542, 47.7536661 ], [ 7.3618162, 47.7536643 ], [ 7.3616878, 47.753645 ], [ 7.3614225, 47.7535414 ], [ 7.3612636, 47.7536558 ], [ 7.3612121, 47.7536907 ], [ 7.3611748, 47.7537161 ], [ 7.3611665, 47.7537217 ], [ 7.3611112, 47.7537593 ], [ 7.3606885, 47.754059 ], [ 7.3606992, 47.7540641 ], [ 7.360525, 47.7541873 ], [ 7.3612149, 47.7545706 ], [ 7.3610918, 47.7546564 ], [ 7.3612561, 47.7547731 ], [ 7.36128, 47.7547894 ], [ 7.361362, 47.7548452 ], [ 7.3617416, 47.7551342 ], [ 7.3618834, 47.7552253 ], [ 7.3619855, 47.755292 ], [ 7.3625597, 47.7556851 ], [ 7.3622487, 47.7561136 ], [ 7.3620093, 47.7566597 ], [ 7.3615175, 47.7570213 ], [ 7.3618778, 47.7571476 ], [ 7.3643359, 47.7580297 ], [ 7.364434, 47.7580798 ], [ 7.3664017, 47.7589198 ], [ 7.3664741, 47.7586292 ], [ 7.3675674, 47.7591555 ], [ 7.3673445, 47.7593459 ], [ 7.367752, 47.7595199 ], [ 7.3679639, 47.7593504 ], [ 7.3686272, 47.7596925 ], [ 7.3685173, 47.7597469 ], [ 7.3582472, 47.7629079 ], [ 7.357684, 47.7623788 ], [ 7.35756, 47.7618243 ], [ 7.3576543, 47.7612929 ], [ 7.3567196, 47.7618154 ], [ 7.3533136, 47.759879 ], [ 7.3527306, 47.759914 ], [ 7.3526777, 47.7600368 ], [ 7.352662, 47.7602727 ], [ 7.3525173, 47.760447 ], [ 7.3522781, 47.760398 ], [ 7.3519161, 47.7618367 ], [ 7.3516953, 47.762291 ], [ 7.3513332, 47.7628007 ], [ 7.350404, 47.7634764 ], [ 7.3502799, 47.7622037 ], [ 7.3500439, 47.7618778 ], [ 7.3490433, 47.7611767 ], [ 7.347381, 47.762159 ], [ 7.3474624, 47.7622322 ], [ 7.3473266, 47.7623115 ], [ 7.3472499, 47.762353 ], [ 7.3472369, 47.7623599 ], [ 7.3472173, 47.7623705 ], [ 7.3471881, 47.7623863 ], [ 7.3471831, 47.762389 ], [ 7.3469882, 47.7624994 ], [ 7.3469132, 47.7625406 ], [ 7.3467018, 47.7623075 ], [ 7.3460067, 47.7625853 ], [ 7.3468233, 47.7634693 ], [ 7.3470786, 47.7638437 ], [ 7.3472115, 47.7650931 ], [ 7.3470137, 47.7651708 ], [ 7.3469049, 47.7651063 ], [ 7.346563, 47.76521 ], [ 7.3466307, 47.7653059 ], [ 7.3443842, 47.7662272 ], [ 7.3425385, 47.7669841 ], [ 7.3411255, 47.7672787 ], [ 7.3409859, 47.7673078 ], [ 7.3407516, 47.7704112 ], [ 7.3408335, 47.7712774 ], [ 7.3413501, 47.7731068 ], [ 7.3406798, 47.7739787 ], [ 7.3403232, 47.7744426 ], [ 7.340003, 47.775616 ], [ 7.3396195, 47.7769928 ], [ 7.3391576, 47.7783895 ], [ 7.3391252, 47.7785552 ], [ 7.3391253, 47.7786857 ], [ 7.3392442, 47.7791057 ], [ 7.3392109, 47.7791553 ], [ 7.3392361, 47.7792437 ], [ 7.339283, 47.7795238 ], [ 7.3391647, 47.7796026 ], [ 7.339132, 47.7796905 ], [ 7.3391504, 47.7798982 ], [ 7.339033, 47.780228 ], [ 7.3390398, 47.7804031 ], [ 7.3391213, 47.7805057 ], [ 7.3398302, 47.780905 ], [ 7.3398805, 47.7812732 ], [ 7.3398178, 47.7814277 ], [ 7.3398149, 47.7817008 ], [ 7.3397399, 47.7819886 ], [ 7.3398142, 47.7822381 ], [ 7.3398937, 47.7823965 ], [ 7.339766, 47.7826069 ], [ 7.3397646, 47.7826533 ], [ 7.3397552, 47.7829664 ], [ 7.3396791, 47.7830778 ], [ 7.3396651, 47.7831857 ], [ 7.3394022, 47.7833721 ], [ 7.3393816, 47.7833595 ], [ 7.3393168, 47.7831083 ], [ 7.333947, 47.7803548 ], [ 7.3328671, 47.7799237 ], [ 7.3301603, 47.778828 ], [ 7.3289113, 47.7784905 ], [ 7.3287352, 47.7784081 ], [ 7.3284781, 47.7783017 ], [ 7.3282125, 47.7782291 ], [ 7.3280285, 47.7781857 ], [ 7.3272386, 47.7779996 ], [ 7.3270881, 47.7779733 ], [ 7.3269006, 47.7779408 ], [ 7.3258823, 47.7777913 ], [ 7.3257877, 47.777777 ], [ 7.3241562, 47.7775341 ], [ 7.3240469, 47.7775165 ], [ 7.3229753, 47.7773361 ], [ 7.3216405, 47.7771125 ], [ 7.321122, 47.7770469 ], [ 7.3210141, 47.7770342 ], [ 7.3194658, 47.7768477 ], [ 7.3194014, 47.7768417 ], [ 7.3192858, 47.776821 ], [ 7.319181, 47.7770026 ], [ 7.3182616, 47.776891 ], [ 7.3162232, 47.7767012 ], [ 7.3125897, 47.7766941 ], [ 7.3121158, 47.7766686 ], [ 7.3109667, 47.7766188 ], [ 7.3103375, 47.7765938 ], [ 7.3103364, 47.7765636 ], [ 7.3103361, 47.7765551 ], [ 7.3103943, 47.7765225 ], [ 7.3106372, 47.7739598 ], [ 7.3106056, 47.7739033 ], [ 7.3106109, 47.7738534 ], [ 7.3106552, 47.7738057 ], [ 7.3112973, 47.7733769 ], [ 7.3128845, 47.7722275 ], [ 7.3142688, 47.7712735 ], [ 7.3141774, 47.7712471 ], [ 7.3129153, 47.7708964 ], [ 7.3128216, 47.7708701 ], [ 7.3132698, 47.7704526 ], [ 7.3137026, 47.7700323 ], [ 7.3139069, 47.7698451 ], [ 7.3139794, 47.7698187 ], [ 7.3140744, 47.7698345 ], [ 7.315414, 47.7702813 ], [ 7.3154588, 47.7703051 ], [ 7.3155483, 47.7703528 ], [ 7.3156032, 47.7702959 ], [ 7.3156489, 47.7702485 ], [ 7.3158841, 47.7700176 ], [ 7.315949, 47.769956 ], [ 7.3160082, 47.7698871 ], [ 7.316078, 47.769806 ], [ 7.3162814, 47.7695706 ], [ 7.3164726, 47.7693572 ], [ 7.3166368, 47.7691739 ], [ 7.3167179, 47.7690809 ], [ 7.3168785, 47.7688234 ], [ 7.3172077, 47.7682682 ], [ 7.3172272, 47.7682324 ], [ 7.3175141, 47.7677429 ], [ 7.3172353, 47.7677352 ], [ 7.3172547, 47.7662991 ], [ 7.3172628, 47.7660558 ], [ 7.3173079, 47.7659895 ], [ 7.3173901, 47.7659264 ], [ 7.3172041, 47.7658736 ], [ 7.3172573, 47.7658489 ], [ 7.3178131, 47.7648685 ], [ 7.3180114, 47.7645187 ], [ 7.318043, 47.7644676 ], [ 7.317467, 47.7641977 ], [ 7.3165756, 47.7636858 ], [ 7.3165958, 47.7636719 ], [ 7.3165338, 47.7636361 ], [ 7.3169861, 47.7633583 ], [ 7.3170123, 47.7633344 ], [ 7.317278, 47.7631792 ], [ 7.3171359, 47.7630428 ], [ 7.3176467, 47.7627891 ], [ 7.3170514, 47.7622177 ], [ 7.3164392, 47.7616361 ], [ 7.3160243, 47.7613827 ], [ 7.3155585, 47.7611619 ], [ 7.3150502, 47.7609577 ], [ 7.3142378, 47.7607476 ], [ 7.3130665, 47.7604141 ], [ 7.3135551, 47.7596328 ], [ 7.3122537, 47.7591262 ], [ 7.3106177, 47.7580166 ], [ 7.3083011, 47.7562827 ], [ 7.3040015, 47.7560171 ], [ 7.3011634, 47.7558419 ], [ 7.3004521, 47.7557975 ], [ 7.2988912, 47.7554241 ], [ 7.2978238, 47.7552273 ], [ 7.2970088, 47.7549559 ], [ 7.2937749, 47.7540031 ], [ 7.2916694, 47.7532755 ], [ 7.2911252, 47.7530761 ], [ 7.2891691, 47.752343 ], [ 7.2850976, 47.7505042 ], [ 7.2831122, 47.7492611 ], [ 7.2831167, 47.7490438 ], [ 7.2829155, 47.7490106 ], [ 7.2831375, 47.7470142 ], [ 7.2832972, 47.7458611 ], [ 7.2833299, 47.7456285 ], [ 7.2835123, 47.745 ], [ 7.2837795, 47.7446502 ], [ 7.2840807, 47.7439937 ], [ 7.2840098, 47.7434612 ], [ 7.2844831, 47.7436451 ], [ 7.2845574, 47.7435309 ], [ 7.2837287, 47.7431404 ], [ 7.2826551, 47.7427272 ], [ 7.282494, 47.742732 ] ] ] } }
]
}
