{
"type": "FeatureCollection",
"name": "nancy_fr",
"crs": { "type": "name", "properties": { "name": "urn:ogc:def:crs:OGC:1.3:CRS84" } },
"features": [
{ "type": "Feature", "properties": { }, "geometry": { "type": "Polygon", "coordinates": [ [ [ 6.1342142, 48.6921142 ], [ 6.1348191, 48.6894455 ], [ 6.1350003, 48.6893547 ], [ 6.1357227, 48.6896622 ], [ 6.137313, 48.690326 ], [ 6.1383307, 48.6906168 ], [ 6.1385304, 48.6907798 ], [ 6.138554, 48.6910292 ], [ 6.1386425, 48.6906962 ], [ 6.1387417, 48.690131 ], [ 6.1387884, 48.6900384 ], [ 6.1388295, 48.6899643 ], [ 6.1386984, 48.6886799 ], [ 6.1392663, 48.6885814 ], [ 6.1393225, 48.6887286 ], [ 6.139724, 48.6886787 ], [ 6.1399918, 48.6887128 ], [ 6.1407284, 48.6886617 ], [ 6.1409574, 48.6885811 ], [ 6.1415156, 48.6885525 ], [ 6.1415222, 48.688443 ], [ 6.1417685, 48.6883917 ], [ 6.1420559, 48.6883556 ], [ 6.1421042, 48.6882678 ], [ 6.1424969, 48.6881686 ], [ 6.1438577, 48.6879706 ], [ 6.1444219, 48.687955 ], [ 6.144436, 48.6880738 ], [ 6.1451744, 48.6880458 ], [ 6.1452315, 48.6880074 ], [ 6.1455759, 48.6880622 ], [ 6.1459754, 48.6880521 ], [ 6.1461661, 48.6881252 ], [ 6.1461413, 48.6883248 ], [ 6.1466864, 48.6884523 ], [ 6.1469097, 48.6884516 ], [ 6.1475118, 48.6886579 ], [ 6.1472542, 48.6891214 ], [ 6.147934, 48.689445 ], [ 6.1480019, 48.6894084 ], [ 6.1486562, 48.6896454 ], [ 6.1487413, 48.6895864 ], [ 6.1489835, 48.6897343 ], [ 6.1492327, 48.6897884 ], [ 6.1500653, 48.6898291 ], [ 6.1500973, 48.6901868 ], [ 6.1504019, 48.6905237 ], [ 6.1503014, 48.6906511 ], [ 6.1517556, 48.6912319 ], [ 6.1527134, 48.6910295 ], [ 6.1528834, 48.6901964 ], [ 6.1531732, 48.6897342 ], [ 6.1536175, 48.6898242 ], [ 6.1544181, 48.6891223 ], [ 6.1544925, 48.6890455 ], [ 6.1545928, 48.6889066 ], [ 6.1547886, 48.6886258 ], [ 6.1548616, 48.6886199 ], [ 6.1550801, 48.6886923 ], [ 6.1552992, 48.6887148 ], [ 6.1553409, 48.6886539 ], [ 6.1554512, 48.6884932 ], [ 6.1555723, 48.6883406 ], [ 6.1555922, 48.688316 ], [ 6.1557386, 48.6881394 ], [ 6.1557786, 48.6880922 ], [ 6.155797, 48.6880709 ], [ 6.1558304, 48.6880327 ], [ 6.1558432, 48.6880182 ], [ 6.1558972, 48.6879574 ], [ 6.1560335, 48.6878004 ], [ 6.1560808, 48.687746 ], [ 6.1561493, 48.687664 ], [ 6.1562188, 48.6876041 ], [ 6.1563046, 48.6874889 ], [ 6.1563871, 48.6874207 ], [ 6.156867, 48.6875402 ], [ 6.1572242, 48.6868814 ], [ 6.1574264, 48.6865357 ], [ 6.158494, 48.6846941 ], [ 6.1591278, 48.6834341 ], [ 6.159231, 48.6834275 ], [ 6.1596845, 48.6827664 ], [ 6.1600407, 48.6828636 ], [ 6.1600506, 48.6829319 ], [ 6.1605762, 48.6831483 ], [ 6.1612918, 48.6824034 ], [ 6.1626148, 48.680173 ], [ 6.1618948, 48.6796349 ], [ 6.1617193, 48.6795031 ], [ 6.1616054, 48.6794189 ], [ 6.1613089, 48.6791997 ], [ 6.1614762, 48.6789486 ], [ 6.1616213, 48.6787539 ], [ 6.1620247, 48.6782338 ], [ 6.1621528, 48.6779113 ], [ 6.1625451, 48.6775203 ], [ 6.1626008, 48.6769707 ], [ 6.1625226, 48.6768976 ], [ 6.1627149, 48.6762399 ], [ 6.1627449, 48.6761583 ], [ 6.1631493, 48.6751889 ], [ 6.1635616, 48.6745473 ], [ 6.1644522, 48.6731614 ], [ 6.1612464, 48.6719468 ], [ 6.1601558, 48.671319 ], [ 6.1603388, 48.6710892 ], [ 6.159355, 48.6707042 ], [ 6.1595012, 48.6705048 ], [ 6.1595896, 48.6703171 ], [ 6.1602251, 48.6696053 ], [ 6.1613074, 48.6691137 ], [ 6.1618897, 48.6688492 ], [ 6.1621332, 48.6683872 ], [ 6.1620526, 48.6681898 ], [ 6.1622579, 48.6680686 ], [ 6.1626284, 48.6677826 ], [ 6.162951, 48.6675893 ], [ 6.1631295, 48.6675006 ], [ 6.1639107, 48.6672033 ], [ 6.1649214, 48.666906 ], [ 6.1667282, 48.6677495 ], [ 6.1670084, 48.6677012 ], [ 6.1677943, 48.668122 ], [ 6.1680496, 48.6681328 ], [ 6.1682989, 48.6683837 ], [ 6.1685382, 48.6683141 ], [ 6.1692601, 48.6684745 ], [ 6.1700733, 48.6688036 ], [ 6.1706677, 48.6691918 ], [ 6.1714181, 48.669682 ], [ 6.1719247, 48.6701609 ], [ 6.1733048, 48.6709247 ], [ 6.1744261, 48.6714411 ], [ 6.1751035, 48.6717037 ], [ 6.1752031, 48.6717464 ], [ 6.175283, 48.6717809 ], [ 6.1754634, 48.6718589 ], [ 6.1773496, 48.6726713 ], [ 6.1782111, 48.672801 ], [ 6.1793229, 48.6732561 ], [ 6.1795275, 48.6733076 ], [ 6.1800968, 48.6736449 ], [ 6.1804636, 48.6737686 ], [ 6.1815107, 48.6743449 ], [ 6.1837086, 48.6755545 ], [ 6.1840313, 48.6757321 ], [ 6.1844791, 48.6758272 ], [ 6.1846454, 48.676016 ], [ 6.1855885, 48.6765676 ], [ 6.1859295, 48.676817 ], [ 6.1865274, 48.6771905 ], [ 6.1866329, 48.677161 ], [ 6.1869066, 48.6773463 ], [ 6.1888859, 48.6762938 ], [ 6.1891576, 48.6760091 ], [ 6.1936433, 48.6724341 ], [ 6.1935787, 48.6722937 ], [ 6.1942356, 48.6720614 ], [ 6.1944154, 48.6721648 ], [ 6.1951637, 48.6729173 ], [ 6.1954597, 48.6731374 ], [ 6.195449, 48.6733161 ], [ 6.1960593, 48.6737394 ], [ 6.1962209, 48.6737404 ], [ 6.1962616, 48.6738193 ], [ 6.1962669, 48.6738296 ], [ 6.1971929, 48.6744108 ], [ 6.197232, 48.6745359 ], [ 6.1973614, 48.6745639 ], [ 6.1983623, 48.6750388 ], [ 6.1986375, 48.6750522 ], [ 6.1999178, 48.6753425 ], [ 6.1998474, 48.6757598 ], [ 6.2001125, 48.6758967 ], [ 6.2003171, 48.6759196 ], [ 6.2006774, 48.6759229 ], [ 6.201557, 48.6763794 ], [ 6.2018719, 48.6766213 ], [ 6.2022324, 48.6766856 ], [ 6.2028795, 48.676801 ], [ 6.2034491, 48.6762565 ], [ 6.204849, 48.6754374 ], [ 6.2077502, 48.6742236 ], [ 6.2084369, 48.6740544 ], [ 6.2097526, 48.673854 ], [ 6.2100688, 48.6737654 ], [ 6.2103438, 48.6735259 ], [ 6.2105957, 48.6734298 ], [ 6.212357, 48.6731688 ], [ 6.2126188, 48.6730888 ], [ 6.2069695, 48.6856315 ], [ 6.2069367, 48.6873354 ], [ 6.206701, 48.6878437 ], [ 6.2065683, 48.6878747 ], [ 6.2062396, 48.6887969 ], [ 6.2057739, 48.689631 ], [ 6.2053302, 48.6901033 ], [ 6.2039736, 48.6911267 ], [ 6.2033447, 48.6917278 ], [ 6.2030594, 48.6924365 ], [ 6.2030258, 48.692971 ], [ 6.2030981, 48.6934522 ], [ 6.2032677, 48.6937678 ], [ 6.2036559, 48.6941919 ], [ 6.2043648, 48.6946217 ], [ 6.2061636, 48.6951667 ], [ 6.2065033, 48.6952877 ], [ 6.2068074, 48.6955954 ], [ 6.2067961, 48.6959005 ], [ 6.2064757, 48.6962858 ], [ 6.2052568, 48.697023 ], [ 6.2042983, 48.6976982 ], [ 6.2037814, 48.6983156 ], [ 6.2035909, 48.6987405 ], [ 6.2036047, 48.6989457 ], [ 6.2034426, 48.6993305 ], [ 6.2033174, 48.6994708 ], [ 6.2031344, 48.6996584 ], [ 6.2026671, 48.6999313 ], [ 6.2020222, 48.7001054 ], [ 6.2010493, 48.7001376 ], [ 6.2005582, 48.7000648 ], [ 6.1991297, 48.6996495 ], [ 6.1983167, 48.6996208 ], [ 6.1981694, 48.7002387 ], [ 6.1975958, 48.7007153 ], [ 6.1968189, 48.7011525 ], [ 6.1954859, 48.7017775 ], [ 6.1941844, 48.702292 ], [ 6.1931049, 48.7025705 ], [ 6.1922396, 48.7030139 ], [ 6.1905215, 48.7039831 ], [ 6.188566, 48.7049736 ], [ 6.1871083, 48.7053476 ], [ 6.1864579, 48.705416 ], [ 6.1852855, 48.7054656 ], [ 6.1841671, 48.705371 ], [ 6.1839216, 48.7053031 ], [ 6.1838486, 48.7053121 ], [ 6.1837728, 48.7053214 ], [ 6.1835168, 48.7053764 ], [ 6.1832409, 48.7054984 ], [ 6.1826886, 48.7058649 ], [ 6.1810554, 48.7073418 ], [ 6.1800125, 48.708558 ], [ 6.1793176, 48.7082965 ], [ 6.1791279, 48.7084979 ], [ 6.1789338, 48.7087039 ], [ 6.1786656, 48.7089885 ], [ 6.1780609, 48.7092349 ], [ 6.1780182, 48.7092348 ], [ 6.1755165, 48.7073904 ], [ 6.175564, 48.7073484 ], [ 6.1752932, 48.707234 ], [ 6.1725925, 48.7068111 ], [ 6.1727632, 48.7065894 ], [ 6.1727238, 48.7065738 ], [ 6.172676, 48.706558 ], [ 6.172589, 48.70653 ], [ 6.172628, 48.706479 ], [ 6.1726333, 48.7064721 ], [ 6.172682, 48.706409 ], [ 6.172684, 48.706406 ], [ 6.1727047, 48.7063793 ], [ 6.1718744, 48.7061885 ], [ 6.1712521, 48.7060169 ], [ 6.1710071, 48.7059113 ], [ 6.1705875, 48.7057743 ], [ 6.1705256, 48.7058563 ], [ 6.170176, 48.7057579 ], [ 6.1695026, 48.7055198 ], [ 6.1687931, 48.7052569 ], [ 6.1690109, 48.7050646 ], [ 6.1688636, 48.7050116 ], [ 6.167088, 48.7046551 ], [ 6.1670183, 48.7046411 ], [ 6.1668728, 48.7047023 ], [ 6.1649734, 48.7044747 ], [ 6.1647223, 48.7050497 ], [ 6.1637305, 48.7053646 ], [ 6.1614748, 48.7051258 ], [ 6.1614805, 48.7048738 ], [ 6.1607977, 48.7047808 ], [ 6.16065, 48.7048412 ], [ 6.1602154, 48.705019 ], [ 6.1598023, 48.7053112 ], [ 6.1593285, 48.7054629 ], [ 6.1585673, 48.7055879 ], [ 6.1574847, 48.7056342 ], [ 6.1569489, 48.7057615 ], [ 6.1562533, 48.7058279 ], [ 6.1555224, 48.7060877 ], [ 6.1537087, 48.7061287 ], [ 6.1518934, 48.7064115 ], [ 6.1490516, 48.7065565 ], [ 6.1477033, 48.7054853 ], [ 6.1458436, 48.7048585 ], [ 6.1425123, 48.7035091 ], [ 6.1424169, 48.7035057 ], [ 6.1420549, 48.7034184 ], [ 6.1415748, 48.703292 ], [ 6.1415493, 48.70322 ], [ 6.1407154, 48.7029829 ], [ 6.1395037, 48.7028986 ], [ 6.1391124, 48.7027019 ], [ 6.1387331, 48.7024902 ], [ 6.1384068, 48.7023081 ], [ 6.1366551, 48.7007245 ], [ 6.136592, 48.7006706 ], [ 6.136686, 48.7004489 ], [ 6.1367871, 48.7003406 ], [ 6.1368429, 48.7002571 ], [ 6.137018, 48.6997668 ], [ 6.1371071, 48.6995272 ], [ 6.1371792, 48.6993396 ], [ 6.1372572, 48.6990274 ], [ 6.1373655, 48.6985982 ], [ 6.1374813, 48.698141 ], [ 6.1376015, 48.6975572 ], [ 6.1377004, 48.6970303 ], [ 6.1377473, 48.6967014 ], [ 6.137854, 48.6958858 ], [ 6.1378599, 48.6958329 ], [ 6.1379249, 48.6953076 ], [ 6.1380248, 48.6949372 ], [ 6.1380578, 48.6948146 ], [ 6.138031, 48.6945328 ], [ 6.1381012, 48.6934833 ], [ 6.138306, 48.6922757 ], [ 6.1342142, 48.6921142 ] ] ] } }
]
}
