{
"type": "FeatureCollection",
"name": "nijmegen_nl",
"crs": { "type": "name", "properties": { "name": "urn:ogc:def:crs:OGC:1.3:CRS84" } },
"features": [
{ "type": "Feature", "properties": { }, "geometry": { "type": "Polygon", "coordinates": [ [ [ 5.7576206, 51.8239899 ], [ 5.7576863, 51.8239787 ], [ 5.7582055, 51.8238948 ], [ 5.7582446, 51.8238888 ], [ 5.7588849, 51.82379 ], [ 5.759135, 51.8237542 ], [ 5.7591723, 51.8237489 ], [ 5.7598679, 51.8236563 ], [ 5.7607164, 51.8235483 ], [ 5.7614482, 51.8234663 ], [ 5.7617891, 51.823429 ], [ 5.7622254, 51.823387 ], [ 5.7623422, 51.8233756 ], [ 5.7627383, 51.8233337 ], [ 5.7633575, 51.823282 ], [ 5.7637614, 51.8232516 ], [ 5.7643192, 51.82321 ], [ 5.7646534, 51.8231886 ], [ 5.7649801, 51.8231712 ], [ 5.7652811, 51.8231527 ], [ 5.7656149, 51.8231337 ], [ 5.7658306, 51.8231225 ], [ 5.7661323, 51.8231052 ], [ 5.7665315, 51.8230867 ], [ 5.7666347, 51.8230819 ], [ 5.7670047, 51.8230684 ], [ 5.767497, 51.8230541 ], [ 5.7677243, 51.8230497 ], [ 5.7680358, 51.8230446 ], [ 5.7682139, 51.823044 ], [ 5.7682972, 51.823043 ], [ 5.768705, 51.8230436 ], [ 5.7691037, 51.8230432 ], [ 5.76959, 51.8230401 ], [ 5.7699301, 51.8230369 ], [ 5.769954, 51.8230366 ], [ 5.7713342, 51.8230629 ], [ 5.7714431, 51.8230182 ], [ 5.7715016, 51.8227826 ], [ 5.7716512, 51.822578 ], [ 5.7717188, 51.8225081 ], [ 5.7717618, 51.8224695 ], [ 5.7719454, 51.8223408 ], [ 5.7720154, 51.822304 ], [ 5.7722841, 51.8221941 ], [ 5.7725137, 51.8221095 ], [ 5.7727424, 51.8220246 ], [ 5.773098, 51.8218901 ], [ 5.7731186, 51.8218831 ], [ 5.7732774, 51.8218252 ], [ 5.7735052, 51.8217398 ], [ 5.7736314, 51.8216914 ], [ 5.7737163, 51.8216573 ], [ 5.7738108, 51.8216161 ], [ 5.7738586, 51.8215903 ], [ 5.7739229, 51.8215511 ], [ 5.77399, 51.8215034 ], [ 5.7741678, 51.8213504 ], [ 5.7742639, 51.8212562 ], [ 5.7743305, 51.8211792 ], [ 5.7743775, 51.8211161 ], [ 5.7744857, 51.8209398 ], [ 5.774515, 51.8208885 ], [ 5.7745835, 51.8207622 ], [ 5.774664, 51.8206214 ], [ 5.7746717, 51.82061 ], [ 5.7747785, 51.8204501 ], [ 5.7752028, 51.819671 ], [ 5.7753948, 51.8193186 ], [ 5.775418, 51.8192782 ], [ 5.7754502, 51.819222 ], [ 5.7754555, 51.8192127 ], [ 5.7754592, 51.8192063 ], [ 5.7755689, 51.8190152 ], [ 5.7755943, 51.8189711 ], [ 5.7755987, 51.8189634 ], [ 5.7756391, 51.818893 ], [ 5.7756744, 51.8188315 ], [ 5.7756988, 51.8187889 ], [ 5.775923, 51.818421 ], [ 5.7762355, 51.8179042 ], [ 5.7767028, 51.8172002 ], [ 5.7767068, 51.8171927 ], [ 5.7767329, 51.8171336 ], [ 5.7767396, 51.8171132 ], [ 5.7767555, 51.817076 ], [ 5.7767605, 51.8170644 ], [ 5.7769201, 51.8168083 ], [ 5.7771679, 51.8164056 ], [ 5.7772636, 51.8162442 ], [ 5.7776407, 51.8157133 ], [ 5.7779457, 51.8152884 ], [ 5.7782441, 51.8148782 ], [ 5.7785599, 51.8144354 ], [ 5.778929, 51.8139143 ], [ 5.7792799, 51.8134222 ], [ 5.7796502, 51.8129016 ], [ 5.7800249, 51.8124533 ], [ 5.7802804, 51.8121528 ], [ 5.780282, 51.8121507 ], [ 5.7802923, 51.8121388 ], [ 5.780294, 51.8121368 ], [ 5.780328, 51.8120968 ], [ 5.7804101, 51.8119989 ], [ 5.780281, 51.8119574 ], [ 5.7800016, 51.8118681 ], [ 5.7801948, 51.8116307 ], [ 5.7804773, 51.811717 ], [ 5.7804871, 51.81172 ], [ 5.7806155, 51.8115462 ], [ 5.7808289, 51.8112572 ], [ 5.7810354, 51.810977 ], [ 5.7810527, 51.8109535 ], [ 5.7811511, 51.8108201 ], [ 5.7813807, 51.8103554 ], [ 5.7813024, 51.8098275 ], [ 5.7813508, 51.8095995 ], [ 5.7814085, 51.8093219 ], [ 5.781652, 51.8088807 ], [ 5.7820066, 51.8084929 ], [ 5.7824705, 51.8081186 ], [ 5.7830503, 51.8078226 ], [ 5.7837606, 51.8075674 ], [ 5.7841319, 51.807382 ], [ 5.7843641, 51.8072649 ], [ 5.7845815, 51.807058 ], [ 5.7846541, 51.8069868 ], [ 5.7849995, 51.8066482 ], [ 5.7851625, 51.8064923 ], [ 5.7853026, 51.8063663 ], [ 5.7855021, 51.8062073 ], [ 5.7858773, 51.8059044 ], [ 5.7860468, 51.805727 ], [ 5.7864794, 51.805298 ], [ 5.7866698, 51.8049981 ], [ 5.7867004, 51.8049816 ], [ 5.786719, 51.8049716 ], [ 5.7869202, 51.8048635 ], [ 5.7870935, 51.8047684 ], [ 5.7872299, 51.8046922 ], [ 5.7872895, 51.8046481 ], [ 5.7877088, 51.8042789 ], [ 5.7881334, 51.8039105 ], [ 5.7885652, 51.803547 ], [ 5.7890003, 51.8031831 ], [ 5.7894391, 51.8028214 ], [ 5.7898846, 51.8024628 ], [ 5.7901071, 51.8022842 ], [ 5.7901446, 51.8022571 ], [ 5.7902818, 51.8022896 ], [ 5.7904611, 51.8021399 ], [ 5.790435, 51.8020234 ], [ 5.7905087, 51.8019629 ], [ 5.7912212, 51.801391 ], [ 5.7916295, 51.801013 ], [ 5.791799, 51.8008039 ], [ 5.7919234, 51.8005729 ], [ 5.7919951, 51.8003133 ], [ 5.7920014, 51.8001234 ], [ 5.7920038, 51.8000244 ], [ 5.7920558, 51.8000384 ], [ 5.7920263, 51.7994258 ], [ 5.7920958, 51.7991557 ], [ 5.7922469, 51.7989304 ], [ 5.7926515, 51.798532 ], [ 5.7931126, 51.7981468 ], [ 5.7931923, 51.7980938 ], [ 5.7932556, 51.7980517 ], [ 5.7933444, 51.7979928 ], [ 5.7936054, 51.7978197 ], [ 5.7938287, 51.7976731 ], [ 5.7943741, 51.7973151 ], [ 5.7946324, 51.7974686 ], [ 5.7955367, 51.7980057 ], [ 5.7960757, 51.7981356 ], [ 5.7968496, 51.7976435 ], [ 5.7968818, 51.7975812 ], [ 5.7969199, 51.7975257 ], [ 5.7976441, 51.7970645 ], [ 5.7977621, 51.7969929 ], [ 5.7981645, 51.7967487 ], [ 5.7987025, 51.7964416 ], [ 5.7994191, 51.7960606 ], [ 5.7998994, 51.7957875 ], [ 5.7999127, 51.7957799 ], [ 5.8003024, 51.7955584 ], [ 5.8003681, 51.7955273 ], [ 5.8003644, 51.7955211 ], [ 5.8004957, 51.795438 ], [ 5.8005007, 51.7954349 ], [ 5.8006003, 51.7953718 ], [ 5.8006096, 51.795366 ], [ 5.8006303, 51.7953529 ], [ 5.8007803, 51.795258 ], [ 5.8007823, 51.7952567 ], [ 5.8009487, 51.7951514 ], [ 5.8021939, 51.7944735 ], [ 5.8021987, 51.7944711 ], [ 5.8022735, 51.794433 ], [ 5.8027969, 51.7941865 ], [ 5.8031271, 51.7940339 ], [ 5.8031661, 51.7940149 ], [ 5.8036078, 51.7937927 ], [ 5.8036573, 51.7937655 ], [ 5.8037105, 51.7937367 ], [ 5.8037608, 51.7937116 ], [ 5.8044437, 51.7933705 ], [ 5.8052017, 51.7929905 ], [ 5.8060043, 51.7925964 ], [ 5.8070479, 51.7920895 ], [ 5.808191, 51.7915413 ], [ 5.8102212, 51.7905891 ], [ 5.810337, 51.7906532 ], [ 5.8109875, 51.7910738 ], [ 5.8109899, 51.7910753 ], [ 5.8110672, 51.7911251 ], [ 5.8110714, 51.7911278 ], [ 5.8110823, 51.7911225 ], [ 5.8110854, 51.7911212 ], [ 5.8110886, 51.7911201 ], [ 5.8110919, 51.7911191 ], [ 5.8110953, 51.7911183 ], [ 5.8110988, 51.7911176 ], [ 5.8111023, 51.791117 ], [ 5.8111059, 51.7911165 ], [ 5.8111095, 51.7911162 ], [ 5.8111132, 51.7911161 ], [ 5.8111169, 51.791116 ], [ 5.8111205, 51.7911161 ], [ 5.8111242, 51.7911164 ], [ 5.8111278, 51.7911168 ], [ 5.8111313, 51.7911173 ], [ 5.8111348, 51.791118 ], [ 5.8111383, 51.7911188 ], [ 5.8111416, 51.7911197 ], [ 5.8111449, 51.7911208 ], [ 5.811148, 51.791122 ], [ 5.811151, 51.7911233 ], [ 5.8111539, 51.7911247 ], [ 5.8111566, 51.7911262 ], [ 5.8111592, 51.7911278 ], [ 5.81154, 51.7913831 ], [ 5.8118475, 51.7915908 ], [ 5.8121432, 51.7917871 ], [ 5.8123951, 51.7919564 ], [ 5.8124774, 51.7920081 ], [ 5.8126956, 51.7921507 ], [ 5.812995, 51.7923466 ], [ 5.8132867, 51.7925363 ], [ 5.8135316, 51.7926939 ], [ 5.8135899, 51.7927314 ], [ 5.8136161, 51.7927482 ], [ 5.8136995, 51.7927972 ], [ 5.8137623, 51.7928047 ], [ 5.8137779, 51.7928066 ], [ 5.8138017, 51.7928094 ], [ 5.8138116, 51.7928108 ], [ 5.8139069, 51.792795 ], [ 5.8139848, 51.7927777 ], [ 5.8139997, 51.7927845 ], [ 5.8141146, 51.7928366 ], [ 5.8141725, 51.7928734 ], [ 5.8152411, 51.7934023 ], [ 5.816286, 51.7939208 ], [ 5.817223, 51.7943883 ], [ 5.8175815, 51.7945641 ], [ 5.8189063, 51.7952239 ], [ 5.8197571, 51.7956479 ], [ 5.8202614, 51.7959046 ], [ 5.8214621, 51.7965028 ], [ 5.8220712, 51.7968056 ], [ 5.8227227, 51.7971296 ], [ 5.8234645, 51.7974997 ], [ 5.8235536, 51.7975442 ], [ 5.8237258, 51.7976301 ], [ 5.8238038, 51.7976591 ], [ 5.8239602, 51.7977343 ], [ 5.8239629, 51.7977356 ], [ 5.8240522, 51.7977785 ], [ 5.8250533, 51.7982764 ], [ 5.8251192, 51.7983093 ], [ 5.8254227, 51.7984608 ], [ 5.8254445, 51.7984723 ], [ 5.825654, 51.7985837 ], [ 5.8261122, 51.7988433 ], [ 5.8263845, 51.7990026 ], [ 5.8266661, 51.7991529 ], [ 5.8269382, 51.799302 ], [ 5.8269638, 51.7993163 ], [ 5.8271588, 51.7994249 ], [ 5.82713, 51.7994383 ], [ 5.8270971, 51.7994583 ], [ 5.8269886, 51.7994914 ], [ 5.8267799, 51.7995684 ], [ 5.8259544, 51.7999284 ], [ 5.8255061, 51.8001282 ], [ 5.8255373, 51.8001534 ], [ 5.8264977, 51.8006667 ], [ 5.8271561, 51.8010101 ], [ 5.8279736, 51.8014459 ], [ 5.8302779, 51.802659 ], [ 5.8302934, 51.802666 ], [ 5.8303372, 51.8026862 ], [ 5.8310606, 51.8030518 ], [ 5.8318054, 51.8034614 ], [ 5.8328043, 51.8039903 ], [ 5.8328639, 51.8040218 ], [ 5.8332508, 51.8042266 ], [ 5.833937, 51.8045875 ], [ 5.8339387, 51.8045884 ], [ 5.8340059, 51.8046237 ], [ 5.834784, 51.8050328 ], [ 5.8347964, 51.8050393 ], [ 5.8354615, 51.8053184 ], [ 5.8356242, 51.8053904 ], [ 5.8360343, 51.8055841 ], [ 5.8364088, 51.8057625 ], [ 5.8366046, 51.8058637 ], [ 5.8365997, 51.8059139 ], [ 5.8371078, 51.8060756 ], [ 5.837402, 51.8058616 ], [ 5.8384998, 51.8050639 ], [ 5.8388054, 51.8048362 ], [ 5.8390747, 51.8046342 ], [ 5.8391202, 51.8045977 ], [ 5.8392202, 51.8045392 ], [ 5.8392547, 51.8045768 ], [ 5.8397705, 51.8049678 ], [ 5.8402703, 51.8053212 ], [ 5.840898, 51.8056942 ], [ 5.8412946, 51.8058888 ], [ 5.8413165, 51.8058978 ], [ 5.8413327, 51.8059045 ], [ 5.8413356, 51.8059991 ], [ 5.8413374, 51.8060587 ], [ 5.8412677, 51.8062639 ], [ 5.8411128, 51.8067156 ], [ 5.8409886, 51.8070888 ], [ 5.840969, 51.8071432 ], [ 5.8409517, 51.8071865 ], [ 5.8409444, 51.8072 ], [ 5.8410596, 51.8072337 ], [ 5.8419725, 51.8074952 ], [ 5.8430124, 51.8076874 ], [ 5.8430243, 51.8076896 ], [ 5.8436211, 51.8078 ], [ 5.844408, 51.8079036 ], [ 5.8452015, 51.8079717 ], [ 5.8452101, 51.8079724 ], [ 5.8454479, 51.8079931 ], [ 5.8454585, 51.807994 ], [ 5.8454598, 51.8079941 ], [ 5.8467099, 51.8080875 ], [ 5.8468304, 51.8080965 ], [ 5.8468432, 51.8080983 ], [ 5.846859, 51.8081006 ], [ 5.8468847, 51.8081042 ], [ 5.846914, 51.8081081 ], [ 5.8470128, 51.8081214 ], [ 5.8481989, 51.8082807 ], [ 5.8482215, 51.8082838 ], [ 5.8487562, 51.8082672 ], [ 5.8487564, 51.808174 ], [ 5.8490366, 51.8079095 ], [ 5.8505032, 51.8079216 ], [ 5.8505351, 51.8079226 ], [ 5.8515932, 51.8079545 ], [ 5.8514759, 51.807625 ], [ 5.8514815, 51.8076242 ], [ 5.8524319, 51.8074944 ], [ 5.852449, 51.8074921 ], [ 5.8527494, 51.8075118 ], [ 5.8527565, 51.8075122 ], [ 5.8528159, 51.8075023 ], [ 5.8528391, 51.8075574 ], [ 5.8528436, 51.8075683 ], [ 5.852922, 51.807708 ], [ 5.8530035, 51.8078112 ], [ 5.8531335, 51.8080469 ], [ 5.8538647, 51.8080784 ], [ 5.8538869, 51.8080803 ], [ 5.8539719, 51.8080876 ], [ 5.854244, 51.8081109 ], [ 5.8543306, 51.8081184 ], [ 5.8543547, 51.8081204 ], [ 5.8549507, 51.8081715 ], [ 5.8552652, 51.8081985 ], [ 5.8571484, 51.8083599 ], [ 5.8571764, 51.8083623 ], [ 5.8571777, 51.8083679 ], [ 5.8572796, 51.8083743 ], [ 5.8575117, 51.8083888 ], [ 5.8579451, 51.8084592 ], [ 5.859617, 51.8087965 ], [ 5.864276, 51.8097362 ], [ 5.8643681, 51.8097533 ], [ 5.8646823, 51.809797 ], [ 5.8647565, 51.8098039 ], [ 5.8676861, 51.8099898 ], [ 5.8678128, 51.8099979 ], [ 5.868659, 51.8100736 ], [ 5.8689758, 51.8100932 ], [ 5.8693619, 51.8100963 ], [ 5.8697675, 51.8100762 ], [ 5.8705928, 51.8099891 ], [ 5.8711311, 51.8099292 ], [ 5.8714744, 51.8099038 ], [ 5.8716194, 51.809902 ], [ 5.8717928, 51.8099019 ], [ 5.8718334, 51.8099024 ], [ 5.8722023, 51.8099081 ], [ 5.8741541, 51.8099109 ], [ 5.8742501, 51.8099111 ], [ 5.8763107, 51.809914 ], [ 5.8763312, 51.8099112 ], [ 5.8765068, 51.8098871 ], [ 5.8766716, 51.8098645 ], [ 5.8767367, 51.8098556 ], [ 5.8769043, 51.8098326 ], [ 5.8771042, 51.8098051 ], [ 5.8771442, 51.8097997 ], [ 5.8786092, 51.8095986 ], [ 5.8791101, 51.8095299 ], [ 5.8790769, 51.8096356 ], [ 5.8790672, 51.8096681 ], [ 5.8792511, 51.809653 ], [ 5.8792648, 51.8096611 ], [ 5.8792792, 51.8096716 ], [ 5.8792975, 51.8096754 ], [ 5.8798567, 51.8096295 ], [ 5.8800162, 51.8096168 ], [ 5.8806291, 51.8095666 ], [ 5.8810587, 51.8095316 ], [ 5.8810666, 51.8095309 ], [ 5.8815276, 51.8094932 ], [ 5.881715, 51.809482 ], [ 5.8817557, 51.8094802 ], [ 5.8818594, 51.8094767 ], [ 5.8820096, 51.8094769 ], [ 5.88214, 51.8094813 ], [ 5.8823037, 51.809491 ], [ 5.8824485, 51.809504 ], [ 5.8826196, 51.809526 ], [ 5.8828083, 51.8095503 ], [ 5.8830345, 51.8095793 ], [ 5.8833225, 51.8096165 ], [ 5.8838833, 51.8096888 ], [ 5.8840285, 51.8097073 ], [ 5.8841157, 51.8097207 ], [ 5.8841797, 51.8097347 ], [ 5.8843821, 51.8097793 ], [ 5.8844898, 51.8098062 ], [ 5.8846737, 51.8098585 ], [ 5.8847625, 51.8098863 ], [ 5.8849842, 51.8099683 ], [ 5.8850453, 51.809994 ], [ 5.8852846, 51.8100938 ], [ 5.885547, 51.8102033 ], [ 5.885629, 51.8102421 ], [ 5.8857103, 51.8102842 ], [ 5.8857831, 51.8103258 ], [ 5.8857997, 51.8103367 ], [ 5.8858528, 51.8103723 ], [ 5.8859193, 51.8104213 ], [ 5.8859816, 51.8104775 ], [ 5.8860287, 51.8105283 ], [ 5.8860748, 51.8105853 ], [ 5.8861354, 51.8106845 ], [ 5.8861606, 51.8107464 ], [ 5.8861788, 51.8108083 ], [ 5.886189, 51.8108724 ], [ 5.8861918, 51.8109364 ], [ 5.8861871, 51.8110015 ], [ 5.8861728, 51.8110689 ], [ 5.8861525, 51.8111297 ], [ 5.8861328, 51.8111721 ], [ 5.8859781, 51.8114769 ], [ 5.8859534, 51.8115377 ], [ 5.8859329, 51.8116155 ], [ 5.8859304, 51.8116509 ], [ 5.8859256, 51.8117195 ], [ 5.8859299, 51.8118499 ], [ 5.8859483, 51.8119399 ], [ 5.8859754, 51.8120287 ], [ 5.8860609, 51.8121966 ], [ 5.8861636, 51.8123335 ], [ 5.886045, 51.8124304 ], [ 5.8859582, 51.8125013 ], [ 5.8859525, 51.8124986 ], [ 5.8856552, 51.8123724 ], [ 5.8851327, 51.8128515 ], [ 5.8846709, 51.813275 ], [ 5.8841915, 51.8137145 ], [ 5.8840204, 51.8139064 ], [ 5.8836144, 51.8144764 ], [ 5.8835747, 51.8145324 ], [ 5.8835731, 51.8145346 ], [ 5.8834846, 51.8146639 ], [ 5.8834789, 51.8146722 ], [ 5.8833343, 51.8148835 ], [ 5.8831182, 51.8152006 ], [ 5.8830727, 51.8152674 ], [ 5.8830466, 51.8153058 ], [ 5.8830435, 51.8153102 ], [ 5.8829671, 51.8154373 ], [ 5.88278, 51.8156557 ], [ 5.8827667, 51.8156722 ], [ 5.8827029, 51.8157527 ], [ 5.8825706, 51.8159239 ], [ 5.882483, 51.8160395 ], [ 5.8824627, 51.8160465 ], [ 5.8824515, 51.8160494 ], [ 5.8824401, 51.8160517 ], [ 5.8824284, 51.8160535 ], [ 5.8824165, 51.8160548 ], [ 5.8824046, 51.8160555 ], [ 5.8823297, 51.8161691 ], [ 5.8823326, 51.8161714 ], [ 5.8823394, 51.8161775 ], [ 5.8823454, 51.816184 ], [ 5.8823507, 51.8161907 ], [ 5.8823684, 51.8162119 ], [ 5.88236, 51.8162248 ], [ 5.8822469, 51.8163965 ], [ 5.8820783, 51.8166157 ], [ 5.881973, 51.8167534 ], [ 5.8817365, 51.8170814 ], [ 5.8815781, 51.8173003 ], [ 5.8815638, 51.8173202 ], [ 5.8815504, 51.8173402 ], [ 5.8815379, 51.8173605 ], [ 5.8815264, 51.817381 ], [ 5.8815158, 51.8174017 ], [ 5.8815062, 51.8174226 ], [ 5.8814975, 51.8174436 ], [ 5.8813468, 51.8178235 ], [ 5.8813424, 51.8178357 ], [ 5.8813388, 51.817848 ], [ 5.8813362, 51.8178603 ], [ 5.8813346, 51.8178727 ], [ 5.8813338, 51.8178852 ], [ 5.881334, 51.8178976 ], [ 5.8813351, 51.8179101 ], [ 5.8813372, 51.8179224 ], [ 5.8813874, 51.8182313 ], [ 5.8813908, 51.8182519 ], [ 5.8814021, 51.8183216 ], [ 5.8814051, 51.8183398 ], [ 5.8814067, 51.8183532 ], [ 5.8814074, 51.8183666 ], [ 5.8814071, 51.8183801 ], [ 5.8814059, 51.8183935 ], [ 5.8814036, 51.8184069 ], [ 5.8814004, 51.8184202 ], [ 5.8813963, 51.8184334 ], [ 5.8813912, 51.8184464 ], [ 5.8811166, 51.8191911 ], [ 5.8811036, 51.8192195 ], [ 5.8810899, 51.8192477 ], [ 5.8810753, 51.8192757 ], [ 5.8810598, 51.8193036 ], [ 5.8810436, 51.8193313 ], [ 5.8810352, 51.8193448 ], [ 5.8810265, 51.8193589 ], [ 5.8809148, 51.8195268 ], [ 5.8809081, 51.8195366 ], [ 5.8809006, 51.8195463 ], [ 5.8808923, 51.8195555 ], [ 5.880883, 51.8195648 ], [ 5.880873, 51.8195736 ], [ 5.8808622, 51.819582 ], [ 5.8808508, 51.81959 ], [ 5.8808386, 51.8195977 ], [ 5.8807954, 51.8196257 ], [ 5.8807561, 51.8196869 ], [ 5.8807515, 51.8196982 ], [ 5.880748, 51.8197097 ], [ 5.8807455, 51.8197213 ], [ 5.8807442, 51.8197329 ], [ 5.8807439, 51.8197446 ], [ 5.8807448, 51.8197563 ], [ 5.8807468, 51.8197679 ], [ 5.880751, 51.8197942 ], [ 5.8807611, 51.8198572 ], [ 5.8807628, 51.8198671 ], [ 5.8807633, 51.8198746 ], [ 5.8807635, 51.8198772 ], [ 5.8807633, 51.8198872 ], [ 5.8807622, 51.8198972 ], [ 5.8807601, 51.8199071 ], [ 5.8807571, 51.819917 ], [ 5.8807531, 51.8199267 ], [ 5.8807483, 51.8199363 ], [ 5.8807426, 51.8199457 ], [ 5.880619, 51.8201337 ], [ 5.8804925, 51.8203262 ], [ 5.8805352, 51.8203368 ], [ 5.8805375, 51.8203374 ], [ 5.8805293, 51.8203653 ], [ 5.8805287, 51.8203676 ], [ 5.8805291, 51.82037 ], [ 5.8805306, 51.8203721 ], [ 5.880533, 51.8203739 ], [ 5.8805362, 51.8203752 ], [ 5.8805398, 51.8203759 ], [ 5.8806168, 51.8203868 ], [ 5.8806289, 51.8203886 ], [ 5.8808419, 51.8204198 ], [ 5.8809191, 51.820431 ], [ 5.8809256, 51.8204454 ], [ 5.8809371, 51.8204684 ], [ 5.8809494, 51.8204912 ], [ 5.8809628, 51.8205138 ], [ 5.880977, 51.8205361 ], [ 5.8809921, 51.8205583 ], [ 5.8810082, 51.8205802 ], [ 5.8810075, 51.8205827 ], [ 5.8810259, 51.8206075 ], [ 5.8810351, 51.8206194 ], [ 5.8810452, 51.8206309 ], [ 5.8810561, 51.8206421 ], [ 5.8810679, 51.820653 ], [ 5.8810806, 51.8206635 ], [ 5.881094, 51.8206737 ], [ 5.8811082, 51.8206834 ], [ 5.8811232, 51.8206927 ], [ 5.8811388, 51.8207015 ], [ 5.8811552, 51.8207098 ], [ 5.8811721, 51.8207177 ], [ 5.8811897, 51.820725 ], [ 5.8817569, 51.8209744 ], [ 5.8818107, 51.8209968 ], [ 5.8818366, 51.8210085 ], [ 5.8818631, 51.8210198 ], [ 5.8818901, 51.8210304 ], [ 5.8819177, 51.8210406 ], [ 5.8819316, 51.8210453 ], [ 5.8820557, 51.8210667 ], [ 5.8822191, 51.8210958 ], [ 5.8823017, 51.821109 ], [ 5.8825658, 51.8211569 ], [ 5.882835, 51.8212028 ], [ 5.883097, 51.8212478 ], [ 5.8833693, 51.8212956 ], [ 5.8834546, 51.8213098 ], [ 5.8836985, 51.8213523 ], [ 5.8838764, 51.821382 ], [ 5.8840313, 51.8214099 ], [ 5.8840134, 51.8214482 ], [ 5.8842664, 51.8215449 ], [ 5.8844621, 51.8216181 ], [ 5.884837, 51.8217599 ], [ 5.8850261, 51.8218321 ], [ 5.8852935, 51.8219343 ], [ 5.8855635, 51.8220359 ], [ 5.8858306, 51.8221385 ], [ 5.8860984, 51.8222385 ], [ 5.8865425, 51.8224094 ], [ 5.8869581, 51.8225713 ], [ 5.8873646, 51.8227305 ], [ 5.8877279, 51.8228742 ], [ 5.8879372, 51.822954 ], [ 5.8881482, 51.8230365 ], [ 5.8883139, 51.8231005 ], [ 5.8883463, 51.8230682 ], [ 5.8885024, 51.8229225 ], [ 5.8886046, 51.8228276 ], [ 5.8887504, 51.822692 ], [ 5.8887991, 51.8226978 ], [ 5.8890426, 51.8227791 ], [ 5.8891241, 51.8228069 ], [ 5.8892479, 51.8228492 ], [ 5.88935, 51.8228841 ], [ 5.889709, 51.8230054 ], [ 5.8898559, 51.8230552 ], [ 5.8900552, 51.8231229 ], [ 5.8901071, 51.8231402 ], [ 5.890175, 51.8231628 ], [ 5.8904904, 51.8232693 ], [ 5.8906127, 51.8233108 ], [ 5.8906272, 51.8233157 ], [ 5.8909666, 51.8234306 ], [ 5.89136, 51.8235633 ], [ 5.8918256, 51.8237206 ], [ 5.8921152, 51.8238194 ], [ 5.8923392, 51.823894 ], [ 5.8935231, 51.8242803 ], [ 5.8937112, 51.8239278 ], [ 5.8939367, 51.8239861 ], [ 5.8941583, 51.8240453 ], [ 5.8943756, 51.8240343 ], [ 5.8948275, 51.8240878 ], [ 5.8963138, 51.8242688 ], [ 5.8978218, 51.8244496 ], [ 5.8983693, 51.8245132 ], [ 5.8988213, 51.824564 ], [ 5.8990953, 51.8246158 ], [ 5.8992564, 51.824655 ], [ 5.8994436, 51.8247073 ], [ 5.8996357, 51.8247918 ], [ 5.8997146, 51.8248529 ], [ 5.8998156, 51.8249432 ], [ 5.8999169, 51.8250577 ], [ 5.9001235, 51.8253594 ], [ 5.9005128, 51.8254381 ], [ 5.9004439, 51.8255388 ], [ 5.900363, 51.8256543 ], [ 5.9003237, 51.8257475 ], [ 5.9005612, 51.826112 ], [ 5.9006301, 51.8262156 ], [ 5.9007394, 51.8263849 ], [ 5.9007886, 51.8263963 ], [ 5.9010403, 51.8267845 ], [ 5.9014318, 51.8273881 ], [ 5.9027242, 51.8273169 ], [ 5.9027993, 51.8273127 ], [ 5.9039339, 51.8272502 ], [ 5.9039758, 51.8271878 ], [ 5.9039813, 51.8271892 ], [ 5.9041442, 51.8272292 ], [ 5.9041795, 51.827238 ], [ 5.904409, 51.8272963 ], [ 5.9044562, 51.8273088 ], [ 5.9044813, 51.8273145 ], [ 5.9045039, 51.8273182 ], [ 5.9045249, 51.8273216 ], [ 5.9047997, 51.8273645 ], [ 5.9049424, 51.8273858 ], [ 5.9051958, 51.827426 ], [ 5.9052186, 51.8274283 ], [ 5.9052523, 51.8274362 ], [ 5.9053036, 51.8274505 ], [ 5.9053498, 51.8274708 ], [ 5.9053792, 51.8274848 ], [ 5.9054109, 51.8275015 ], [ 5.9054331, 51.8275171 ], [ 5.9054567, 51.8275346 ], [ 5.9054922, 51.8275645 ], [ 5.9055569, 51.8276277 ], [ 5.9056109, 51.8276847 ], [ 5.9057008, 51.827781 ], [ 5.9057781, 51.8278665 ], [ 5.9058621, 51.827956 ], [ 5.9059429, 51.8280373 ], [ 5.9059855, 51.8280778 ], [ 5.9060431, 51.8281247 ], [ 5.9061022, 51.8281683 ], [ 5.906122, 51.8281845 ], [ 5.906145, 51.8281962 ], [ 5.9062229, 51.8282336 ], [ 5.9062787, 51.828259 ], [ 5.9063629, 51.8282931 ], [ 5.9064185, 51.8283169 ], [ 5.906493, 51.8283479 ], [ 5.9065979, 51.8283885 ], [ 5.906649, 51.8284064 ], [ 5.9067551, 51.8284431 ], [ 5.9068288, 51.8284694 ], [ 5.9069444, 51.8285114 ], [ 5.9069663, 51.8285203 ], [ 5.9071102, 51.8285781 ], [ 5.9072292, 51.828625 ], [ 5.9073374, 51.8286751 ], [ 5.9074539, 51.8287249 ], [ 5.9075737, 51.8287796 ], [ 5.9076495, 51.8288134 ], [ 5.907696, 51.8288315 ], [ 5.9077594, 51.8288584 ], [ 5.9078227, 51.8288836 ], [ 5.9078423, 51.8288926 ], [ 5.907884, 51.8289121 ], [ 5.9079457, 51.828946 ], [ 5.9080178, 51.8289903 ], [ 5.908038, 51.829007 ], [ 5.9080425, 51.8290112 ], [ 5.9080896, 51.8290626 ], [ 5.9081315, 51.8291294 ], [ 5.9081537, 51.8291613 ], [ 5.908206, 51.8292175 ], [ 5.9082305, 51.8292328 ], [ 5.9082795, 51.8292607 ], [ 5.9083469, 51.8293024 ], [ 5.9082752, 51.8293395 ], [ 5.9082494, 51.829353 ], [ 5.9080691, 51.829448 ], [ 5.9079869, 51.8295014 ], [ 5.9079284, 51.8295394 ], [ 5.9078197, 51.8296305 ], [ 5.9077284, 51.8297107 ], [ 5.9076846, 51.8297454 ], [ 5.9075947, 51.8298011 ], [ 5.9074809, 51.8298717 ], [ 5.9073705, 51.8299458 ], [ 5.9073167, 51.8299844 ], [ 5.9072791, 51.8300136 ], [ 5.9071966, 51.8300776 ], [ 5.9071815, 51.8300894 ], [ 5.9071133, 51.8301423 ], [ 5.9071005, 51.8301528 ], [ 5.906925, 51.8302963 ], [ 5.9069017, 51.8303154 ], [ 5.9068785, 51.8303343 ], [ 5.9068569, 51.830352 ], [ 5.9068395, 51.8303662 ], [ 5.9068002, 51.8303991 ], [ 5.9066723, 51.8304917 ], [ 5.9065081, 51.8305907 ], [ 5.9063769, 51.8306547 ], [ 5.9063711, 51.8306571 ], [ 5.9062902, 51.8306906 ], [ 5.9062865, 51.8306921 ], [ 5.9060808, 51.8307773 ], [ 5.9058627, 51.8308496 ], [ 5.9058511, 51.8308535 ], [ 5.905651, 51.8309103 ], [ 5.9056501, 51.8309105 ], [ 5.9056439, 51.8309123 ], [ 5.9054468, 51.8309705 ], [ 5.9052773, 51.8309963 ], [ 5.9048507, 51.8311241 ], [ 5.9048239, 51.8311309 ], [ 5.9043885, 51.8312421 ], [ 5.9033945, 51.831464 ], [ 5.9032294, 51.8314947 ], [ 5.9030232, 51.8315145 ], [ 5.9027953, 51.8315245 ], [ 5.9025021, 51.831525 ], [ 5.9022165, 51.8315249 ], [ 5.9021303, 51.831532 ], [ 5.902073, 51.8315366 ], [ 5.9019314, 51.831548 ], [ 5.9017518, 51.8315624 ], [ 5.9017222, 51.831567 ], [ 5.9013258, 51.8316285 ], [ 5.9008536, 51.8316724 ], [ 5.9001437, 51.8317625 ], [ 5.9000834, 51.8317725 ], [ 5.8993408, 51.8318954 ], [ 5.8991762, 51.8319226 ], [ 5.8986324, 51.8319854 ], [ 5.8982612, 51.8320291 ], [ 5.898117, 51.8320457 ], [ 5.8980246, 51.8320565 ], [ 5.8978947, 51.8320691 ], [ 5.8976541, 51.832093 ], [ 5.8970874, 51.8321463 ], [ 5.8969036, 51.8321874 ], [ 5.896665, 51.8322407 ], [ 5.8963651, 51.8323606 ], [ 5.8959735, 51.8325451 ], [ 5.8959253, 51.8325677 ], [ 5.895889, 51.8325848 ], [ 5.8958936, 51.8326043 ], [ 5.8958695, 51.8326387 ], [ 5.8958478, 51.8326724 ], [ 5.8958295, 51.8327202 ], [ 5.8957783, 51.8328472 ], [ 5.895773, 51.8328667 ], [ 5.8957601, 51.8329136 ], [ 5.8957157, 51.8331808 ], [ 5.8957054, 51.8332394 ], [ 5.8957045, 51.8332789 ], [ 5.8957067, 51.8333098 ], [ 5.8957094, 51.833355 ], [ 5.8957204, 51.8334156 ], [ 5.8957353, 51.8334498 ], [ 5.8957614, 51.8335124 ], [ 5.895794, 51.8335785 ], [ 5.8958352, 51.8336374 ], [ 5.8958612, 51.8336674 ], [ 5.8959347, 51.8337507 ], [ 5.8959432, 51.8337622 ], [ 5.8959612, 51.8337911 ], [ 5.8959895, 51.8338294 ], [ 5.8960526, 51.833921 ], [ 5.8961048, 51.8340162 ], [ 5.8961397, 51.8340711 ], [ 5.8961783, 51.8341278 ], [ 5.8962241, 51.8341865 ], [ 5.8962475, 51.8342152 ], [ 5.896571, 51.8345314 ], [ 5.8967253, 51.8346691 ], [ 5.8968023, 51.8347378 ], [ 5.896755, 51.8347731 ], [ 5.8970931, 51.8349328 ], [ 5.8973271, 51.8350371 ], [ 5.8973699, 51.8350598 ], [ 5.897405, 51.835089 ], [ 5.8974642, 51.8351502 ], [ 5.8974836, 51.8351742 ], [ 5.8975092, 51.8352078 ], [ 5.8975198, 51.8352423 ], [ 5.897543, 51.8353174 ], [ 5.8976057, 51.8354182 ], [ 5.8976179, 51.8354397 ], [ 5.8976433, 51.8354844 ], [ 5.8976448, 51.835487 ], [ 5.8977203, 51.8356235 ], [ 5.8977743, 51.8357029 ], [ 5.8978164, 51.835752 ], [ 5.8979251, 51.8358787 ], [ 5.898011, 51.835974 ], [ 5.8981791, 51.8361593 ], [ 5.8982169, 51.8362102 ], [ 5.8982719, 51.8363232 ], [ 5.8982898, 51.8363633 ], [ 5.8980878, 51.8364047 ], [ 5.8980026, 51.8363928 ], [ 5.897943, 51.8364127 ], [ 5.8977092, 51.8364592 ], [ 5.8977017, 51.8364445 ], [ 5.897577, 51.8364823 ], [ 5.8973405, 51.8365769 ], [ 5.8973935, 51.8366892 ], [ 5.8973186, 51.8368393 ], [ 5.8972631, 51.8369372 ], [ 5.897075, 51.8371114 ], [ 5.8969055, 51.8372567 ], [ 5.8966807, 51.8373957 ], [ 5.8965282, 51.8374772 ], [ 5.8964104, 51.8375229 ], [ 5.8963869, 51.837532 ], [ 5.8963077, 51.8375717 ], [ 5.8959304, 51.8377922 ], [ 5.8958047, 51.8378544 ], [ 5.8956553, 51.8379509 ], [ 5.895463, 51.8381263 ], [ 5.8953636, 51.8382168 ], [ 5.8952843, 51.8382719 ], [ 5.8952464, 51.8382953 ], [ 5.8950402, 51.8384194 ], [ 5.8950004, 51.8384365 ], [ 5.8949761, 51.8384206 ], [ 5.8949239, 51.8383863 ], [ 5.8945974, 51.8384783 ], [ 5.8943865, 51.8385401 ], [ 5.89424, 51.8385978 ], [ 5.8942347, 51.8386002 ], [ 5.8938717, 51.8387614 ], [ 5.8935805, 51.8388755 ], [ 5.8933551, 51.8389717 ], [ 5.8932958, 51.8390005 ], [ 5.8931912, 51.8390494 ], [ 5.8932535, 51.839108 ], [ 5.8933035, 51.839154 ], [ 5.8933414, 51.8391932 ], [ 5.8933636, 51.8392189 ], [ 5.8933761, 51.8392328 ], [ 5.8933835, 51.8392444 ], [ 5.8933848, 51.8392531 ], [ 5.8933842, 51.8392634 ], [ 5.8933807, 51.8392705 ], [ 5.8933763, 51.8392772 ], [ 5.8933698, 51.839287 ], [ 5.8933575, 51.839297 ], [ 5.8933371, 51.8393068 ], [ 5.8933097, 51.8393149 ], [ 5.8932835, 51.8393173 ], [ 5.8932379, 51.8393205 ], [ 5.8932063, 51.8393228 ], [ 5.8931713, 51.8393252 ], [ 5.8931523, 51.8393256 ], [ 5.8931363, 51.8393272 ], [ 5.8931185, 51.8393328 ], [ 5.8931051, 51.8393397 ], [ 5.8930361, 51.8393713 ], [ 5.8929724, 51.8394009 ], [ 5.8929088, 51.8394294 ], [ 5.8928593, 51.839449 ], [ 5.8928051, 51.8394658 ], [ 5.8927315, 51.8394879 ], [ 5.8927034, 51.8394963 ], [ 5.8926598, 51.8395093 ], [ 5.8926338, 51.8395112 ], [ 5.8926081, 51.8395107 ], [ 5.8925834, 51.8395075 ], [ 5.8925659, 51.839529 ], [ 5.8923986, 51.8397341 ], [ 5.8921695, 51.8400132 ], [ 5.8923587, 51.8400788 ], [ 5.8924296, 51.8401717 ], [ 5.8924418, 51.8401872 ], [ 5.8924793, 51.840235 ], [ 5.8925506, 51.8402237 ], [ 5.8925773, 51.8402194 ], [ 5.8926356, 51.84021 ], [ 5.8927306, 51.8401943 ], [ 5.8928346, 51.840177 ], [ 5.8929401, 51.8401635 ], [ 5.8930071, 51.8401719 ], [ 5.8930472, 51.8401884 ], [ 5.8931138, 51.8402149 ], [ 5.8931281, 51.8402202 ], [ 5.8931574, 51.8402306 ], [ 5.8931679, 51.8402345 ], [ 5.8934303, 51.8402951 ], [ 5.8934552, 51.840301 ], [ 5.8939516, 51.8404189 ], [ 5.8944027, 51.8405263 ], [ 5.8945304, 51.8405568 ], [ 5.8939143, 51.8407402 ], [ 5.8934573, 51.8408758 ], [ 5.8933288, 51.8409134 ], [ 5.8931966, 51.8409525 ], [ 5.892954, 51.8410201 ], [ 5.8927927, 51.841065 ], [ 5.8927186, 51.8410857 ], [ 5.8926254, 51.8411112 ], [ 5.8925576, 51.8411299 ], [ 5.8924199, 51.8411686 ], [ 5.8923222, 51.8411956 ], [ 5.8922383, 51.8412182 ], [ 5.8921361, 51.8412461 ], [ 5.8920399, 51.8412733 ], [ 5.8919541, 51.8412966 ], [ 5.8919015, 51.8413121 ], [ 5.8916481, 51.8413816 ], [ 5.8912527, 51.8414862 ], [ 5.8907734, 51.8415971 ], [ 5.8898693, 51.8418298 ], [ 5.8893478, 51.8419596 ], [ 5.8888129, 51.8421056 ], [ 5.8884453, 51.8422136 ], [ 5.8880646, 51.8423349 ], [ 5.887564, 51.842504 ], [ 5.887194, 51.8426454 ], [ 5.8866901, 51.8428435 ], [ 5.8862576, 51.8430323 ], [ 5.8854077, 51.8434299 ], [ 5.8849943, 51.8436332 ], [ 5.8845674, 51.843842 ], [ 5.8844726, 51.8438884 ], [ 5.8841589, 51.8440146 ], [ 5.8840208, 51.8440634 ], [ 5.8837392, 51.8441312 ], [ 5.8817989, 51.8445967 ], [ 5.8812152, 51.8447733 ], [ 5.8803893, 51.845055 ], [ 5.8805752, 51.8452734 ], [ 5.8806105, 51.8453149 ], [ 5.8806285, 51.8453164 ], [ 5.8808083, 51.8453305 ], [ 5.8808343, 51.8453206 ], [ 5.8808649, 51.845309 ], [ 5.8808779, 51.845319 ], [ 5.8809058, 51.8453403 ], [ 5.8811813, 51.8455506 ], [ 5.8812904, 51.8456016 ], [ 5.8814251, 51.8456524 ], [ 5.8816683, 51.8457028 ], [ 5.8819628, 51.8457688 ], [ 5.882187, 51.8458272 ], [ 5.8824305, 51.8459013 ], [ 5.8826292, 51.8459717 ], [ 5.8828473, 51.8460617 ], [ 5.8830789, 51.8462111 ], [ 5.8832013, 51.8463094 ], [ 5.8833812, 51.8464076 ], [ 5.883606, 51.8465253 ], [ 5.8843777, 51.8470125 ], [ 5.8854205, 51.8476401 ], [ 5.885491, 51.8476596 ], [ 5.8856843, 51.847817 ], [ 5.8858458, 51.8479785 ], [ 5.8860208, 51.848215 ], [ 5.8862478, 51.8485324 ], [ 5.8864156, 51.8487736 ], [ 5.886445, 51.8488094 ], [ 5.8864901, 51.8488575 ], [ 5.8865692, 51.8489429 ], [ 5.8867112, 51.8490722 ], [ 5.8868474, 51.8492116 ], [ 5.8869626, 51.8493314 ], [ 5.8869674, 51.8493673 ], [ 5.8869768, 51.8494115 ], [ 5.8869997, 51.8494611 ], [ 5.8870404, 51.849508 ], [ 5.8871012, 51.8495547 ], [ 5.8871897, 51.8496191 ], [ 5.887266, 51.8496575 ], [ 5.8873367, 51.8496906 ], [ 5.887395, 51.8497179 ], [ 5.8873612, 51.8497304 ], [ 5.8872867, 51.8497528 ], [ 5.8871892, 51.8497819 ], [ 5.8870916, 51.849803 ], [ 5.8869708, 51.8498259 ], [ 5.886796, 51.8498537 ], [ 5.8866213, 51.849888 ], [ 5.8864749, 51.8499141 ], [ 5.8863336, 51.849945 ], [ 5.8861912, 51.8499926 ], [ 5.8860656, 51.8500425 ], [ 5.8859221, 51.8501053 ], [ 5.8858647, 51.8501399 ], [ 5.8857388, 51.8501939 ], [ 5.885604, 51.850267 ], [ 5.8854934, 51.8503076 ], [ 5.8853642, 51.8503368 ], [ 5.885216, 51.850326 ], [ 5.8849651, 51.8502239 ], [ 5.8847701, 51.8501541 ], [ 5.8846744, 51.8501468 ], [ 5.884661, 51.8501523 ], [ 5.8846222, 51.8501681 ], [ 5.8854634, 51.8506649 ], [ 5.8856216, 51.8507425 ], [ 5.8857856, 51.8507991 ], [ 5.8859308, 51.8508195 ], [ 5.8859244, 51.8508523 ], [ 5.8859051, 51.850951 ], [ 5.8858429, 51.8511766 ], [ 5.8857613, 51.8514234 ], [ 5.8857548, 51.8514432 ], [ 5.8857651, 51.8514748 ], [ 5.8857726, 51.8514979 ], [ 5.8858046, 51.8515885 ], [ 5.8858766, 51.8517041 ], [ 5.8859252, 51.8517987 ], [ 5.8859757, 51.8518875 ], [ 5.8859732, 51.8519389 ], [ 5.8859652, 51.8519834 ], [ 5.8859525, 51.8520273 ], [ 5.8859323, 51.8520719 ], [ 5.8857412, 51.8523115 ], [ 5.8857046, 51.8523903 ], [ 5.885702, 51.8524303 ], [ 5.8857042, 51.8524828 ], [ 5.8857438, 51.8526042 ], [ 5.8860734, 51.8530943 ], [ 5.8861025, 51.8531701 ], [ 5.8861584, 51.8532293 ], [ 5.8861738, 51.8532324 ], [ 5.8861805, 51.8532338 ], [ 5.8862769, 51.8532533 ], [ 5.8865308, 51.8532833 ], [ 5.8867805, 51.853305 ], [ 5.8871852, 51.8541035 ], [ 5.887397, 51.854521 ], [ 5.8874082, 51.8545432 ], [ 5.8874594, 51.8553567 ], [ 5.8874875, 51.8558023 ], [ 5.8874979, 51.8558705 ], [ 5.8875504, 51.8562139 ], [ 5.8875572, 51.8562587 ], [ 5.887558, 51.8562639 ], [ 5.8875577, 51.8562765 ], [ 5.8875389, 51.8571245 ], [ 5.8875017, 51.8574998 ], [ 5.887395, 51.8585788 ], [ 5.8873718, 51.8588133 ], [ 5.8873541, 51.8588795 ], [ 5.8873231, 51.8589957 ], [ 5.8873195, 51.859009 ], [ 5.8868182, 51.8588606 ], [ 5.8867875, 51.8588515 ], [ 5.8865792, 51.858785 ], [ 5.8864347, 51.8587429 ], [ 5.8862847, 51.8587095 ], [ 5.8862215, 51.8586924 ], [ 5.8861753, 51.8586799 ], [ 5.8861611, 51.8586761 ], [ 5.8861194, 51.8586802 ], [ 5.8860721, 51.8586849 ], [ 5.886051, 51.858687 ], [ 5.8850142, 51.8587876 ], [ 5.8850128, 51.8587877 ], [ 5.8845277, 51.8588348 ], [ 5.8844108, 51.8588461 ], [ 5.8835567, 51.858923 ], [ 5.8815842, 51.8591004 ], [ 5.8813038, 51.8586839 ], [ 5.8807483, 51.8578766 ], [ 5.8807045, 51.8578128 ], [ 5.8804975, 51.8575269 ], [ 5.8804176, 51.8574165 ], [ 5.879849, 51.8566454 ], [ 5.8791743, 51.8557381 ], [ 5.878622, 51.855146 ], [ 5.8782019, 51.854717 ], [ 5.877806, 51.8543675 ], [ 5.8776905, 51.8542853 ], [ 5.8775726, 51.8542069 ], [ 5.8774752, 51.8541492 ], [ 5.8763099, 51.8535089 ], [ 5.875464, 51.8530537 ], [ 5.8749626, 51.8527839 ], [ 5.8741617, 51.8524427 ], [ 5.8734221, 51.8521271 ], [ 5.8728922, 51.8519051 ], [ 5.8726255, 51.851817 ], [ 5.8720281, 51.8516834 ], [ 5.8713538, 51.8515738 ], [ 5.8713483, 51.8515728 ], [ 5.8702869, 51.8513849 ], [ 5.8661625, 51.851336 ], [ 5.8659, 51.8513329 ], [ 5.8642392, 51.8513131 ], [ 5.8611895, 51.851495 ], [ 5.8590452, 51.8517223 ], [ 5.8589098, 51.8517463 ], [ 5.8579213, 51.851922 ], [ 5.856908, 51.8520951 ], [ 5.8567323, 51.8521261 ], [ 5.8559956, 51.8522559 ], [ 5.8545362, 51.852638 ], [ 5.8530346, 51.8530275 ], [ 5.8528781, 51.8530863 ], [ 5.8515018, 51.853603 ], [ 5.8514572, 51.8536198 ], [ 5.8504527, 51.8540039 ], [ 5.8490904, 51.8546151 ], [ 5.847837, 51.8551823 ], [ 5.8457536, 51.8561179 ], [ 5.844326, 51.856734 ], [ 5.8441593, 51.85682 ], [ 5.8423433, 51.8576811 ], [ 5.8423088, 51.8576974 ], [ 5.8418235, 51.8579209 ], [ 5.8417191, 51.8579711 ], [ 5.8415223, 51.8580658 ], [ 5.8409529, 51.8583514 ], [ 5.8402558, 51.8586895 ], [ 5.839478, 51.8590565 ], [ 5.8383074, 51.8596214 ], [ 5.8372495, 51.8601552 ], [ 5.8372227, 51.8601701 ], [ 5.8361281, 51.8607746 ], [ 5.8345456, 51.8616637 ], [ 5.8341189, 51.8618983 ], [ 5.8337277, 51.8621081 ], [ 5.8335425, 51.8622091 ], [ 5.833196, 51.8623981 ], [ 5.8323764, 51.8628335 ], [ 5.8314386, 51.8633274 ], [ 5.8320171, 51.8637552 ], [ 5.8326745, 51.8642332 ], [ 5.8328986, 51.8644017 ], [ 5.8329345, 51.8644268 ], [ 5.8333705, 51.8647455 ], [ 5.8338806, 51.86512 ], [ 5.834729, 51.8657423 ], [ 5.8350809, 51.8660005 ], [ 5.8359128, 51.8666045 ], [ 5.8363309, 51.8663885 ], [ 5.8371479, 51.8659586 ], [ 5.8372799, 51.8658895 ], [ 5.8378568, 51.8655877 ], [ 5.8384791, 51.8652519 ], [ 5.8388962, 51.8650235 ], [ 5.8396531, 51.8656026 ], [ 5.8401404, 51.8659842 ], [ 5.8403035, 51.8661069 ], [ 5.8403489, 51.8660867 ], [ 5.8403749, 51.866088 ], [ 5.8404053, 51.866092 ], [ 5.8404703, 51.8661025 ], [ 5.8404964, 51.8661078 ], [ 5.8405311, 51.8661198 ], [ 5.8406529, 51.8662046 ], [ 5.8406648, 51.8662099 ], [ 5.8406812, 51.866216 ], [ 5.8406986, 51.8662211 ], [ 5.8407285, 51.8662284 ], [ 5.8407739, 51.8662388 ], [ 5.840796, 51.8662438 ], [ 5.8408137, 51.8662486 ], [ 5.8408343, 51.8662542 ], [ 5.84085, 51.8662605 ], [ 5.8408678, 51.8662672 ], [ 5.8408852, 51.8662751 ], [ 5.840904, 51.8662849 ], [ 5.8409325, 51.866301 ], [ 5.8409618, 51.8663208 ], [ 5.8409751, 51.8663291 ], [ 5.8409969, 51.8663443 ], [ 5.8410177, 51.866362 ], [ 5.8410374, 51.8663807 ], [ 5.8410541, 51.8664002 ], [ 5.8410683, 51.8664237 ], [ 5.8410804, 51.8664545 ], [ 5.84109, 51.8664912 ], [ 5.8410974, 51.8665203 ], [ 5.841105, 51.8665542 ], [ 5.8411187, 51.8665885 ], [ 5.8411277, 51.8666143 ], [ 5.8411294, 51.8666204 ], [ 5.8411312, 51.8666284 ], [ 5.8411316, 51.8666356 ], [ 5.8411323, 51.8666423 ], [ 5.8411327, 51.8666505 ], [ 5.8411326, 51.8666563 ], [ 5.8411315, 51.8666626 ], [ 5.8411315, 51.8666689 ], [ 5.8411331, 51.8666742 ], [ 5.8411657, 51.8667768 ], [ 5.8413455, 51.8666734 ], [ 5.8414717, 51.8666007 ], [ 5.8421113, 51.8662381 ], [ 5.843287, 51.8655763 ], [ 5.8432923, 51.865576 ], [ 5.8433013, 51.8655757 ], [ 5.8433081, 51.865576 ], [ 5.8433154, 51.8655773 ], [ 5.8433211, 51.8655793 ], [ 5.8433249, 51.8655827 ], [ 5.843331, 51.8655849 ], [ 5.8433407, 51.8655853 ], [ 5.8433506, 51.8655844 ], [ 5.8433583, 51.8655831 ], [ 5.8433616, 51.8655819 ], [ 5.8433696, 51.8655802 ], [ 5.8433772, 51.86558 ], [ 5.8433925, 51.8655815 ], [ 5.843433, 51.865591 ], [ 5.8434784, 51.8656032 ], [ 5.8435154, 51.865616 ], [ 5.8435448, 51.8656259 ], [ 5.8435814, 51.8656432 ], [ 5.8436338, 51.8656672 ], [ 5.8436688, 51.8656807 ], [ 5.8437084, 51.8656967 ], [ 5.8437483, 51.865714 ], [ 5.8437901, 51.8657351 ], [ 5.8438145, 51.8657498 ], [ 5.8438388, 51.8657639 ], [ 5.8438578, 51.8657761 ], [ 5.8438718, 51.8657844 ], [ 5.843895, 51.8657959 ], [ 5.8439118, 51.8658024 ], [ 5.8439377, 51.8658136 ], [ 5.8439514, 51.8658182 ], [ 5.8439673, 51.8658219 ], [ 5.8439818, 51.8658253 ], [ 5.844001, 51.8658302 ], [ 5.8440178, 51.8658329 ], [ 5.8440387, 51.8658357 ], [ 5.844074, 51.8658374 ], [ 5.8440932, 51.8658378 ], [ 5.8441077, 51.8658387 ], [ 5.8441216, 51.8658387 ], [ 5.844138, 51.8658381 ], [ 5.8441546, 51.8658362 ], [ 5.8441739, 51.8658347 ], [ 5.8441888, 51.8658326 ], [ 5.8442065, 51.8658289 ], [ 5.8442324, 51.8658234 ], [ 5.8442458, 51.8658199 ], [ 5.8446035, 51.8662981 ], [ 5.8448688, 51.8666597 ], [ 5.8449897, 51.8668244 ], [ 5.8453104, 51.867264 ], [ 5.8453578, 51.8673297 ], [ 5.8453801, 51.8673606 ], [ 5.845429, 51.8674281 ], [ 5.845648, 51.8680327 ], [ 5.8456571, 51.8680435 ], [ 5.8459528, 51.8683924 ], [ 5.8459452, 51.8684188 ], [ 5.845935, 51.8684468 ], [ 5.8459265, 51.8684946 ], [ 5.8459367, 51.8685336 ], [ 5.8460402, 51.8686732 ], [ 5.8460887, 51.8687188 ], [ 5.8461624, 51.8687684 ], [ 5.8462376, 51.8688156 ], [ 5.8462961, 51.8688429 ], [ 5.8463868, 51.8688793 ], [ 5.84656, 51.8689342 ], [ 5.8473673, 51.8691679 ], [ 5.8475666, 51.8692283 ], [ 5.8476203, 51.8692726 ], [ 5.8476525, 51.8693244 ], [ 5.8479223, 51.8701334 ], [ 5.8480889, 51.8705512 ], [ 5.8483227, 51.8710873 ], [ 5.8484558, 51.8713258 ], [ 5.8484611, 51.871336 ], [ 5.8488264, 51.8719777 ], [ 5.8488791, 51.8720449 ], [ 5.849719, 51.8730385 ], [ 5.8498044, 51.8731364 ], [ 5.8499145, 51.8732625 ], [ 5.850093, 51.8734989 ], [ 5.8501661, 51.8735972 ], [ 5.8501752, 51.8736529 ], [ 5.8501136, 51.8736618 ], [ 5.8501212, 51.8736741 ], [ 5.8502324, 51.8737753 ], [ 5.8502826, 51.873821 ], [ 5.8504889, 51.8739542 ], [ 5.8505139, 51.8739703 ], [ 5.8505974, 51.8740238 ], [ 5.8508556, 51.8741895 ], [ 5.8510286, 51.8742983 ], [ 5.8513935, 51.8745257 ], [ 5.8515376, 51.8746101 ], [ 5.8516254, 51.8746661 ], [ 5.8518941, 51.8748248 ], [ 5.8521941, 51.8750054 ], [ 5.8522402, 51.8750305 ], [ 5.8522664, 51.875046 ], [ 5.8528866, 51.8753945 ], [ 5.8532752, 51.875615 ], [ 5.8537099, 51.8758618 ], [ 5.8541503, 51.8761078 ], [ 5.8545406, 51.8763368 ], [ 5.8547262, 51.8764506 ], [ 5.8552262, 51.8767472 ], [ 5.8554462, 51.8768806 ], [ 5.8562046, 51.8773249 ], [ 5.8564239, 51.8774451 ], [ 5.8573378, 51.8779364 ], [ 5.8578374, 51.8781636 ], [ 5.858155, 51.8782991 ], [ 5.8582064, 51.8783227 ], [ 5.858471, 51.8784248 ], [ 5.8585168, 51.8784425 ], [ 5.8589402, 51.8786077 ], [ 5.8594051, 51.8787905 ], [ 5.8596637, 51.8788958 ], [ 5.8609822, 51.8793937 ], [ 5.8610134, 51.8793801 ], [ 5.8610279, 51.879374 ], [ 5.8610426, 51.8793682 ], [ 5.8610575, 51.8793625 ], [ 5.8610726, 51.879357 ], [ 5.8610878, 51.8793517 ], [ 5.8611032, 51.8793465 ], [ 5.8611188, 51.8793416 ], [ 5.8611345, 51.8793369 ], [ 5.8611504, 51.8793323 ], [ 5.8611664, 51.879328 ], [ 5.8611826, 51.8793238 ], [ 5.8611989, 51.8793199 ], [ 5.8612153, 51.8793161 ], [ 5.8612318, 51.8793126 ], [ 5.8612484, 51.8793093 ], [ 5.8612652, 51.8793061 ], [ 5.861282, 51.8793032 ], [ 5.8612989, 51.8793005 ], [ 5.861316, 51.879298 ], [ 5.8613331, 51.8792957 ], [ 5.8613502, 51.8792936 ], [ 5.8613674, 51.8792917 ], [ 5.8613847, 51.87929 ], [ 5.8614021, 51.8792886 ], [ 5.8614194, 51.8792874 ], [ 5.8614368, 51.8792863 ], [ 5.8614543, 51.8792855 ], [ 5.8614718, 51.8792849 ], [ 5.8614892, 51.8792846 ], [ 5.8615067, 51.8792844 ], [ 5.8615242, 51.8792845 ], [ 5.8615417, 51.8792847 ], [ 5.8615592, 51.8792852 ], [ 5.8615766, 51.8792859 ], [ 5.8615941, 51.8792868 ], [ 5.8616115, 51.879288 ], [ 5.8616288, 51.8792893 ], [ 5.8616461, 51.8792909 ], [ 5.8616634, 51.8792927 ], [ 5.8616806, 51.8792947 ], [ 5.8616977, 51.8792968 ], [ 5.8617148, 51.8792993 ], [ 5.8617317, 51.8793019 ], [ 5.8617486, 51.8793047 ], [ 5.8617654, 51.8793077 ], [ 5.8617821, 51.879311 ], [ 5.8617987, 51.8793144 ], [ 5.8618151, 51.8793181 ], [ 5.8618315, 51.8793219 ], [ 5.8618477, 51.879326 ], [ 5.8618638, 51.8793302 ], [ 5.8618797, 51.8793347 ], [ 5.8618955, 51.8793393 ], [ 5.8619087, 51.8793434 ], [ 5.8620196, 51.8793865 ], [ 5.8620919, 51.8794213 ], [ 5.8621559, 51.8794619 ], [ 5.8622213, 51.8795078 ], [ 5.8622959, 51.8795741 ], [ 5.8623282, 51.8796164 ], [ 5.8623546, 51.8796603 ], [ 5.8623749, 51.8797054 ], [ 5.8623889, 51.8797514 ], [ 5.8623965, 51.8797979 ], [ 5.8623976, 51.8798447 ], [ 5.8623924, 51.8798914 ], [ 5.8632715, 51.8801843 ], [ 5.8634745, 51.8802563 ], [ 5.8634619, 51.8802046 ], [ 5.8634496, 51.8801543 ], [ 5.863444, 51.8801368 ], [ 5.8634467, 51.8801387 ], [ 5.8634497, 51.8801404 ], [ 5.8634529, 51.880142 ], [ 5.8634563, 51.8801433 ], [ 5.8634599, 51.8801445 ], [ 5.8634637, 51.8801455 ], [ 5.8634676, 51.8801463 ], [ 5.8634716, 51.8801468 ], [ 5.8634756, 51.8801472 ], [ 5.8634797, 51.8801473 ], [ 5.8634838, 51.8801471 ], [ 5.8634959, 51.8801464 ], [ 5.8635079, 51.8801457 ], [ 5.86352, 51.8801449 ], [ 5.8636016, 51.8801395 ], [ 5.8636832, 51.8801334 ], [ 5.8637646, 51.8801268 ], [ 5.8638061, 51.8801231 ], [ 5.8638467, 51.880117 ], [ 5.8638863, 51.8801086 ], [ 5.8639245, 51.880098 ], [ 5.8639302, 51.8800961 ], [ 5.8639358, 51.8800942 ], [ 5.8639415, 51.8800922 ], [ 5.8639827, 51.8800792 ], [ 5.8640247, 51.8800673 ], [ 5.8640676, 51.8800566 ], [ 5.8641613, 51.8800372 ], [ 5.8645565, 51.879551 ], [ 5.864731, 51.8795733 ], [ 5.864955, 51.8795066 ], [ 5.8657898, 51.8791081 ], [ 5.8662764, 51.8789759 ], [ 5.866546, 51.8789269 ], [ 5.8668325, 51.8789033 ], [ 5.8670065, 51.8788822 ], [ 5.8671444, 51.8788865 ], [ 5.8673082, 51.8789187 ], [ 5.8674305, 51.8789273 ], [ 5.8675019, 51.8789273 ], [ 5.8676014, 51.8789162 ], [ 5.8677505, 51.8788799 ], [ 5.867842, 51.878827 ], [ 5.8678839, 51.8788143 ], [ 5.8679289, 51.8788166 ], [ 5.8679545, 51.8788249 ], [ 5.8680028, 51.8788582 ], [ 5.8680265, 51.878864 ], [ 5.8680225, 51.8788716 ], [ 5.8680747, 51.8788825 ], [ 5.868078, 51.8788764 ], [ 5.8681241, 51.8788877 ], [ 5.8682118, 51.8789277 ], [ 5.8685505, 51.8781851 ], [ 5.868689, 51.8781956 ], [ 5.8688003, 51.8781998 ], [ 5.8693468, 51.8782203 ], [ 5.8693864, 51.8782234 ], [ 5.8699855, 51.8782715 ], [ 5.8699979, 51.8782728 ], [ 5.8709271, 51.8783661 ], [ 5.8709653, 51.8783711 ], [ 5.8715538, 51.8784479 ], [ 5.8716499, 51.878462 ], [ 5.8719065, 51.8781548 ], [ 5.8722001, 51.8778216 ], [ 5.8722104, 51.8778099 ], [ 5.8723012, 51.8777075 ], [ 5.8724064, 51.8775932 ], [ 5.8724979, 51.8774904 ], [ 5.8725297, 51.8774548 ], [ 5.8727243, 51.877216 ], [ 5.8727797, 51.8771629 ], [ 5.8728358, 51.8771268 ], [ 5.8729057, 51.877093 ], [ 5.8730818, 51.877037 ], [ 5.873317, 51.8769838 ], [ 5.8735956, 51.8769272 ], [ 5.8738016, 51.8768809 ], [ 5.8740897, 51.8767949 ], [ 5.8743973, 51.8767271 ], [ 5.8746418, 51.8766895 ], [ 5.8749111, 51.8766549 ], [ 5.875185, 51.876632 ], [ 5.8753972, 51.8766179 ], [ 5.8756446, 51.8766061 ], [ 5.8758084, 51.8766037 ], [ 5.8761358, 51.8765978 ], [ 5.876104, 51.8766339 ], [ 5.876082, 51.8766635 ], [ 5.8760716, 51.8766855 ], [ 5.8760652, 51.8766994 ], [ 5.875978, 51.8771491 ], [ 5.8760349, 51.8771522 ], [ 5.8760124, 51.8774172 ], [ 5.8760116, 51.8774305 ], [ 5.8759998, 51.8776127 ], [ 5.8759869, 51.8778039 ], [ 5.8759767, 51.8779325 ], [ 5.8759653, 51.8781091 ], [ 5.8759403, 51.8783631 ], [ 5.8759257, 51.8785159 ], [ 5.8759147, 51.8786364 ], [ 5.8759029, 51.8787665 ], [ 5.8758908, 51.8788819 ], [ 5.8758727, 51.8790958 ], [ 5.8758625, 51.8792453 ], [ 5.8758471, 51.8793816 ], [ 5.8758378, 51.8794976 ], [ 5.8758255, 51.8796155 ], [ 5.8758164, 51.879729 ], [ 5.8758056, 51.8798217 ], [ 5.8758026, 51.8799243 ], [ 5.8758035, 51.8799554 ], [ 5.8757975, 51.8799831 ], [ 5.8757871, 51.880022 ], [ 5.8757769, 51.8800695 ], [ 5.8757656, 51.880109 ], [ 5.8758128, 51.8801216 ], [ 5.8758156, 51.8801402 ], [ 5.8758255, 51.8802048 ], [ 5.8758256, 51.8802057 ], [ 5.8758207, 51.8803288 ], [ 5.8758191, 51.8804501 ], [ 5.8758168, 51.8805534 ], [ 5.8758056, 51.8806231 ], [ 5.8758028, 51.8806413 ], [ 5.8757909, 51.8807689 ], [ 5.875784, 51.8808391 ], [ 5.8757781, 51.8808821 ], [ 5.875768, 51.8809075 ], [ 5.8757364, 51.8809698 ], [ 5.8757251, 51.8809922 ], [ 5.8756702, 51.8810984 ], [ 5.8755638, 51.8813019 ], [ 5.8754613, 51.8812811 ], [ 5.8754169, 51.8813688 ], [ 5.8754111, 51.8814016 ], [ 5.8753974, 51.8814606 ], [ 5.8753893, 51.8814957 ], [ 5.8753721, 51.8815315 ], [ 5.8753511, 51.8815698 ], [ 5.8753008, 51.8816512 ], [ 5.8752372, 51.8817677 ], [ 5.8751848, 51.881858 ], [ 5.875113, 51.8820019 ], [ 5.8750674, 51.8820868 ], [ 5.8750268, 51.8821665 ], [ 5.8748931, 51.8824865 ], [ 5.8748461, 51.8826069 ], [ 5.8748444, 51.8826107 ], [ 5.8748417, 51.8826171 ], [ 5.8748188, 51.8826673 ], [ 5.8747818, 51.8827581 ], [ 5.8747336, 51.8828701 ], [ 5.8746879, 51.8829814 ], [ 5.8746378, 51.8831072 ], [ 5.8745953, 51.8832055 ], [ 5.8745664, 51.8832807 ], [ 5.8745475, 51.8833245 ], [ 5.8745265, 51.8833654 ], [ 5.874508, 51.8834016 ], [ 5.874483, 51.8834672 ], [ 5.8744202, 51.883633 ], [ 5.8743703, 51.8837639 ], [ 5.8743208, 51.8838892 ], [ 5.8743129, 51.883909 ], [ 5.874287, 51.8839737 ], [ 5.8742731, 51.8840056 ], [ 5.874243, 51.8840922 ], [ 5.8742287, 51.8841244 ], [ 5.8741562, 51.884298 ], [ 5.8741368, 51.8843425 ], [ 5.8740229, 51.8846082 ], [ 5.8739973, 51.8846736 ], [ 5.873973, 51.8847394 ], [ 5.8739498, 51.8847971 ], [ 5.8739284, 51.884846 ], [ 5.8738994, 51.8849075 ], [ 5.8738058, 51.8851453 ], [ 5.8737819, 51.8852049 ], [ 5.8737435, 51.8853008 ], [ 5.8734227, 51.8861101 ], [ 5.8732451, 51.8865858 ], [ 5.8732101, 51.8866828 ], [ 5.8731864, 51.8867485 ], [ 5.8731179, 51.8869156 ], [ 5.8730462, 51.8870396 ], [ 5.8728701, 51.8873422 ], [ 5.8728407, 51.8873932 ], [ 5.8722332, 51.8873018 ], [ 5.8720398, 51.8872727 ], [ 5.8717581, 51.8879682 ], [ 5.871481, 51.8886524 ], [ 5.8707991, 51.8885405 ], [ 5.8694545, 51.8883198 ], [ 5.8694206, 51.8883049 ], [ 5.8693894, 51.8882923 ], [ 5.8693519, 51.8882842 ], [ 5.8692652, 51.8882728 ], [ 5.8691706, 51.8882676 ], [ 5.8690531, 51.8882582 ], [ 5.8689357, 51.8882528 ], [ 5.8688084, 51.8882492 ], [ 5.8687212, 51.8882508 ], [ 5.8686223, 51.8882588 ], [ 5.8685062, 51.8882659 ], [ 5.8685078, 51.8882355 ], [ 5.8680351, 51.8882463 ], [ 5.8676513, 51.888255 ], [ 5.8655076, 51.8884415 ], [ 5.8656422, 51.8887982 ], [ 5.8655449, 51.8888168 ], [ 5.8654906, 51.8888271 ], [ 5.8655353, 51.8889357 ], [ 5.8654789, 51.8889418 ], [ 5.8654226, 51.8889479 ], [ 5.8646462, 51.888688 ], [ 5.8646142, 51.8886764 ], [ 5.8645105, 51.8886384 ], [ 5.8644975, 51.8886346 ], [ 5.8644795, 51.8886305 ], [ 5.8644566, 51.8886285 ], [ 5.864428, 51.8886281 ], [ 5.8643817, 51.8886283 ], [ 5.8642981, 51.8886337 ], [ 5.8639453, 51.8886571 ], [ 5.8632878, 51.8887008 ], [ 5.8627972, 51.8887289 ], [ 5.8624276, 51.8887471 ], [ 5.8621603, 51.8887637 ], [ 5.8620852, 51.888762 ], [ 5.861882, 51.8887676 ], [ 5.8618759, 51.8887678 ], [ 5.8618713, 51.8887682 ], [ 5.8617522, 51.8887718 ], [ 5.8614405, 51.8887026 ], [ 5.8614358, 51.8887013 ], [ 5.8612924, 51.8886637 ], [ 5.8610737, 51.8883649 ], [ 5.8608128, 51.8883956 ], [ 5.86025, 51.8884639 ], [ 5.8593083, 51.8885748 ], [ 5.859277, 51.8885727 ], [ 5.8593832, 51.88851 ], [ 5.8593863, 51.8885025 ], [ 5.8591392, 51.8884943 ], [ 5.8589382, 51.888491 ], [ 5.8585745, 51.8884813 ], [ 5.8578362, 51.8883433 ], [ 5.8578048, 51.8883363 ], [ 5.8577458, 51.8883272 ], [ 5.8577636, 51.8883964 ], [ 5.8576277, 51.8883888 ], [ 5.8575115, 51.8898264 ], [ 5.8574784, 51.8902358 ], [ 5.8574303, 51.8907627 ], [ 5.8573503, 51.8916736 ], [ 5.8573307, 51.8919497 ], [ 5.8572716, 51.8927271 ], [ 5.8572534, 51.8928838 ], [ 5.8572421, 51.893043 ], [ 5.8572186, 51.8932515 ], [ 5.8571586, 51.8940685 ], [ 5.8571235, 51.8946209 ], [ 5.8566678, 51.8945753 ], [ 5.8565633, 51.8945649 ], [ 5.8564356, 51.8945521 ], [ 5.8534675, 51.894321 ], [ 5.8527805, 51.8942695 ], [ 5.8520633, 51.8942388 ], [ 5.8512966, 51.8942472 ], [ 5.8498168, 51.8941913 ], [ 5.8497642, 51.8941893 ], [ 5.8497647, 51.8941787 ], [ 5.8497264, 51.8941942 ], [ 5.8485963, 51.8941443 ], [ 5.8473705, 51.8941286 ], [ 5.846931, 51.8941211 ], [ 5.8462296, 51.8940981 ], [ 5.845129, 51.8940568 ], [ 5.8437838, 51.8939914 ], [ 5.8421425, 51.8939154 ], [ 5.8411918, 51.8938673 ], [ 5.8408475, 51.8938431 ], [ 5.8406559, 51.8938311 ], [ 5.8396627, 51.8937603 ], [ 5.839091, 51.8937342 ], [ 5.8383084, 51.8936941 ], [ 5.8382998, 51.893795 ], [ 5.8380637, 51.8937821 ], [ 5.8368482, 51.8937497 ], [ 5.8367224, 51.8937463 ], [ 5.8366814, 51.8937452 ], [ 5.8343969, 51.8936892 ], [ 5.8343002, 51.8936894 ], [ 5.8317384, 51.8937982 ], [ 5.8302605, 51.893856 ], [ 5.8302413, 51.8938568 ], [ 5.8302378, 51.893681 ], [ 5.8302303, 51.8932995 ], [ 5.8302191, 51.8927308 ], [ 5.8301864, 51.8917759 ], [ 5.830191, 51.8917398 ], [ 5.8301984, 51.8917256 ], [ 5.8302358, 51.8917029 ], [ 5.8302884, 51.8916837 ], [ 5.8303698, 51.8916663 ], [ 5.8304264, 51.891655 ], [ 5.8309642, 51.891524 ], [ 5.8312418, 51.8914471 ], [ 5.831699, 51.8913014 ], [ 5.8318029, 51.8912682 ], [ 5.8339636, 51.8905769 ], [ 5.8341062, 51.8905132 ], [ 5.8343891, 51.8903419 ], [ 5.8345262, 51.8902355 ], [ 5.8354958, 51.8889798 ], [ 5.8356381, 51.888756 ], [ 5.835771, 51.8885038 ], [ 5.8359401, 51.8881475 ], [ 5.8360278, 51.8879614 ], [ 5.8360948, 51.8877988 ], [ 5.8361508, 51.8875962 ], [ 5.8361662, 51.8874497 ], [ 5.8361662, 51.8872608 ], [ 5.8361424, 51.8870309 ], [ 5.8361046, 51.886871 ], [ 5.8360593, 51.8867253 ], [ 5.8360013, 51.886566 ], [ 5.8358748, 51.8861597 ], [ 5.8358688, 51.886112 ], [ 5.8358736, 51.8860335 ], [ 5.8358773, 51.8859972 ], [ 5.8358944, 51.8859179 ], [ 5.8359052, 51.8858746 ], [ 5.8359243, 51.8858222 ], [ 5.8359301, 51.8858065 ], [ 5.8359571, 51.8857545 ], [ 5.836006, 51.8856601 ], [ 5.8360357, 51.8856007 ], [ 5.8360658, 51.8855323 ], [ 5.8361387, 51.8853455 ], [ 5.8361907, 51.8851986 ], [ 5.8362281, 51.8850281 ], [ 5.8364138, 51.8844632 ], [ 5.8364158, 51.8844327 ], [ 5.8364432, 51.8843927 ], [ 5.8366531, 51.8837322 ], [ 5.8366741, 51.8836934 ], [ 5.8366979, 51.8836803 ], [ 5.8368208, 51.8836558 ], [ 5.8374699, 51.883558 ], [ 5.8375742, 51.8835277 ], [ 5.8376535, 51.8834973 ], [ 5.8377884, 51.883434 ], [ 5.8376923, 51.8833247 ], [ 5.8369225, 51.8824948 ], [ 5.8369004, 51.8824698 ], [ 5.8360817, 51.8815421 ], [ 5.8359726, 51.8814185 ], [ 5.8359641, 51.881411 ], [ 5.8356127, 51.8810859 ], [ 5.8354107, 51.8809066 ], [ 5.8352999, 51.8808087 ], [ 5.8351719, 51.8806985 ], [ 5.8349742, 51.8805141 ], [ 5.8347021, 51.8802726 ], [ 5.8345725, 51.8801549 ], [ 5.8345715, 51.8801536 ], [ 5.8345378, 51.8801076 ], [ 5.8344487, 51.8800238 ], [ 5.8342667, 51.8798526 ], [ 5.8334443, 51.8790626 ], [ 5.8328134, 51.8784351 ], [ 5.8329592, 51.8783815 ], [ 5.8351538, 51.877619 ], [ 5.8351521, 51.877618 ], [ 5.8351215, 51.877575 ], [ 5.835105, 51.8775519 ], [ 5.8350378, 51.8774575 ], [ 5.8348473, 51.8772055 ], [ 5.8348464, 51.8772042 ], [ 5.8347981, 51.8771361 ], [ 5.8347607, 51.8770623 ], [ 5.8346946, 51.8769318 ], [ 5.8346795, 51.8769021 ], [ 5.8346489, 51.8768283 ], [ 5.8346465, 51.8768222 ], [ 5.8346351, 51.8767933 ], [ 5.8345332, 51.8766258 ], [ 5.8344146, 51.8764311 ], [ 5.8343718, 51.8763608 ], [ 5.8343097, 51.8762647 ], [ 5.8342842, 51.8762253 ], [ 5.8343277, 51.8762203 ], [ 5.8343213, 51.8762057 ], [ 5.8342743, 51.876099 ], [ 5.8341234, 51.8757565 ], [ 5.8340768, 51.8756574 ], [ 5.8340305, 51.8755781 ], [ 5.8338984, 51.8754046 ], [ 5.8334796, 51.8748872 ], [ 5.8334426, 51.8748376 ], [ 5.8334736, 51.8748296 ], [ 5.8331232, 51.874384 ], [ 5.8328449, 51.8740302 ], [ 5.8325595, 51.873728 ], [ 5.8325271, 51.8736937 ], [ 5.8326945, 51.8735911 ], [ 5.8324718, 51.8732879 ], [ 5.8324388, 51.8732466 ], [ 5.8324156, 51.8732177 ], [ 5.8320297, 51.8727355 ], [ 5.8318313, 51.8724871 ], [ 5.8316112, 51.872232 ], [ 5.8314339, 51.8723153 ], [ 5.8314645, 51.8723581 ], [ 5.830886, 51.8723941 ], [ 5.8300105, 51.8723892 ], [ 5.8291828, 51.8723835 ], [ 5.8291269, 51.8723958 ], [ 5.8289974, 51.8723951 ], [ 5.8289865, 51.8724067 ], [ 5.8289249, 51.8724808 ], [ 5.8288973, 51.8725108 ], [ 5.8288866, 51.8725258 ], [ 5.8288772, 51.872545 ], [ 5.8282076, 51.8733536 ], [ 5.8282042, 51.8733571 ], [ 5.8282007, 51.8733605 ], [ 5.8281969, 51.8733638 ], [ 5.828193, 51.873367 ], [ 5.8281888, 51.8733701 ], [ 5.8281845, 51.8733731 ], [ 5.8281801, 51.873376 ], [ 5.8281754, 51.8733789 ], [ 5.8281706, 51.8733816 ], [ 5.8281657, 51.8733842 ], [ 5.8281606, 51.8733867 ], [ 5.8281554, 51.8733891 ], [ 5.82815, 51.8733914 ], [ 5.8281445, 51.8733936 ], [ 5.8281389, 51.8733956 ], [ 5.8281332, 51.8733975 ], [ 5.8281273, 51.8733993 ], [ 5.8281214, 51.873401 ], [ 5.8281154, 51.8734025 ], [ 5.8281093, 51.8734039 ], [ 5.8281031, 51.8734052 ], [ 5.8280968, 51.8734063 ], [ 5.8280905, 51.8734073 ], [ 5.8280842, 51.8734082 ], [ 5.8280778, 51.8734089 ], [ 5.8280713, 51.8734094 ], [ 5.8280648, 51.8734099 ], [ 5.8280584, 51.8734102 ], [ 5.8280518, 51.8734103 ], [ 5.8280453, 51.8734103 ], [ 5.8280388, 51.8734102 ], [ 5.8279218, 51.8734158 ], [ 5.8279077, 51.8734167 ], [ 5.8278935, 51.8734174 ], [ 5.8278793, 51.8734181 ], [ 5.8278651, 51.8734185 ], [ 5.8278508, 51.8734189 ], [ 5.8278366, 51.873419 ], [ 5.8278224, 51.8734191 ], [ 5.8278082, 51.873419 ], [ 5.8277939, 51.8734187 ], [ 5.8277797, 51.8734184 ], [ 5.8277655, 51.8734178 ], [ 5.8277513, 51.8734171 ], [ 5.8277371, 51.8734163 ], [ 5.827723, 51.8734154 ], [ 5.8277089, 51.8734143 ], [ 5.8276948, 51.873413 ], [ 5.8276807, 51.8734116 ], [ 5.8276667, 51.8734101 ], [ 5.8276527, 51.8734084 ], [ 5.8276388, 51.8734066 ], [ 5.8276249, 51.8734047 ], [ 5.8276111, 51.8734026 ], [ 5.8275973, 51.8734004 ], [ 5.8275836, 51.873398 ], [ 5.8275699, 51.8733955 ], [ 5.8275564, 51.8733929 ], [ 5.8275429, 51.8733901 ], [ 5.8275294, 51.8733872 ], [ 5.8274231, 51.8733713 ], [ 5.8274159, 51.8733707 ], [ 5.8274086, 51.8733702 ], [ 5.8274013, 51.8733698 ], [ 5.827394, 51.8733696 ], [ 5.8273867, 51.8733695 ], [ 5.8273793, 51.8733695 ], [ 5.827372, 51.8733696 ], [ 5.8273647, 51.8733699 ], [ 5.8273574, 51.8733703 ], [ 5.8273501, 51.8733708 ], [ 5.8273428, 51.8733715 ], [ 5.8273356, 51.8733723 ], [ 5.8273284, 51.8733732 ], [ 5.8273213, 51.8733742 ], [ 5.8272731, 51.8733769 ], [ 5.8272539, 51.873367 ], [ 5.8272079, 51.8733471 ], [ 5.8271422, 51.873316 ], [ 5.827106, 51.8732981 ], [ 5.8270774, 51.8732804 ], [ 5.8270714, 51.8732749 ], [ 5.8270712, 51.8732672 ], [ 5.8270683, 51.8732611 ], [ 5.8270619, 51.8732561 ], [ 5.8270264, 51.8732307 ], [ 5.8269715, 51.8731858 ], [ 5.8269123, 51.8731363 ], [ 5.8268912, 51.8731145 ], [ 5.8268753, 51.8730948 ], [ 5.8268518, 51.8730692 ], [ 5.8268305, 51.8730443 ], [ 5.8268073, 51.8730188 ], [ 5.8267931, 51.8730057 ], [ 5.826773, 51.8729928 ], [ 5.8267442, 51.8729773 ], [ 5.8266848, 51.8729479 ], [ 5.8266151, 51.8729158 ], [ 5.8265787, 51.8728958 ], [ 5.8265504, 51.8728744 ], [ 5.8265335, 51.8728626 ], [ 5.8265252, 51.872857 ], [ 5.8264808, 51.8728262 ], [ 5.8264604, 51.8728098 ], [ 5.8264475, 51.8727926 ], [ 5.826445, 51.8727788 ], [ 5.8264423, 51.8727657 ], [ 5.8264349, 51.8727567 ], [ 5.8264199, 51.8727463 ], [ 5.8263988, 51.8727323 ], [ 5.8263787, 51.8727126 ], [ 5.8263685, 51.8726981 ], [ 5.8259932, 51.8727415 ], [ 5.8254183, 51.872808 ], [ 5.8250024, 51.872853 ], [ 5.8244444, 51.8729232 ], [ 5.824079, 51.8729704 ], [ 5.824071, 51.872743 ], [ 5.8238075, 51.8726403 ], [ 5.8237948, 51.8726327 ], [ 5.8235972, 51.8725468 ], [ 5.8235025, 51.8725074 ], [ 5.8232402, 51.8723983 ], [ 5.8228953, 51.8722549 ], [ 5.8220108, 51.8718904 ], [ 5.8211908, 51.8715609 ], [ 5.8211677, 51.8715538 ], [ 5.8206843, 51.8714045 ], [ 5.8201847, 51.8712431 ], [ 5.8198627, 51.8711423 ], [ 5.8190755, 51.8708959 ], [ 5.8190114, 51.8708756 ], [ 5.8186244, 51.8707495 ], [ 5.8170748, 51.8702654 ], [ 5.8173038, 51.8701633 ], [ 5.8176889, 51.86999 ], [ 5.8182587, 51.8697393 ], [ 5.8184527, 51.8696503 ], [ 5.8189013, 51.8694506 ], [ 5.8193012, 51.869279 ], [ 5.8195434, 51.869173 ], [ 5.8197458, 51.8690808 ], [ 5.8202228, 51.8688751 ], [ 5.8206307, 51.868698 ], [ 5.8209389, 51.8685634 ], [ 5.8210137, 51.8685302 ], [ 5.8212007, 51.8684394 ], [ 5.821524, 51.868281 ], [ 5.821925, 51.8680807 ], [ 5.82237, 51.8678601 ], [ 5.8227219, 51.8676883 ], [ 5.8231104, 51.8674962 ], [ 5.8233958, 51.8673537 ], [ 5.8236808, 51.8672148 ], [ 5.824004, 51.8670527 ], [ 5.8244842, 51.8668146 ], [ 5.8249093, 51.8666041 ], [ 5.8253037, 51.8664061 ], [ 5.825569, 51.8662753 ], [ 5.8256949, 51.8662135 ], [ 5.8243512, 51.8651649 ], [ 5.8239126, 51.8648519 ], [ 5.8237648, 51.8645828 ], [ 5.8236896, 51.8643135 ], [ 5.8237595, 51.8640436 ], [ 5.8239747, 51.8637731 ], [ 5.8241907, 51.8635925 ], [ 5.8244072, 51.8634569 ], [ 5.8252012, 51.8630045 ], [ 5.8254168, 51.862779 ], [ 5.8254885, 51.8626888 ], [ 5.8255594, 51.8625088 ], [ 5.8256953, 51.8615645 ], [ 5.825391, 51.8601275 ], [ 5.8249113, 51.859369 ], [ 5.8245145, 51.8587414 ], [ 5.8239167, 51.857796 ], [ 5.8238196, 51.8576689 ], [ 5.8234066, 51.8571284 ], [ 5.8231542, 51.8567725 ], [ 5.8228191, 51.8563431 ], [ 5.8227767, 51.8562823 ], [ 5.8221518, 51.8554206 ], [ 5.8220472, 51.8554506 ], [ 5.82151, 51.8556047 ], [ 5.8208976, 51.8547936 ], [ 5.8203054, 51.8539504 ], [ 5.8203274, 51.8538701 ], [ 5.8199757, 51.8534537 ], [ 5.8198627, 51.8534536 ], [ 5.8197803, 51.8533532 ], [ 5.8196884, 51.8532412 ], [ 5.8193027, 51.8527711 ], [ 5.8192036, 51.8526503 ], [ 5.8191452, 51.8525791 ], [ 5.8189298, 51.8522609 ], [ 5.8188559, 51.852157 ], [ 5.8182921, 51.8513659 ], [ 5.8181047, 51.850984 ], [ 5.8180346, 51.8508411 ], [ 5.8177514, 51.850264 ], [ 5.8177062, 51.850172 ], [ 5.8175573, 51.8498685 ], [ 5.817381, 51.8495094 ], [ 5.8173746, 51.8494941 ], [ 5.8171919, 51.8495164 ], [ 5.8169625, 51.8495396 ], [ 5.8168112, 51.8495544 ], [ 5.8162488, 51.8495832 ], [ 5.8161455, 51.8496011 ], [ 5.8160873, 51.8495968 ], [ 5.816056, 51.8495942 ], [ 5.8156246, 51.849574 ], [ 5.8153568, 51.8495671 ], [ 5.8151783, 51.8495797 ], [ 5.8147186, 51.8495759 ], [ 5.8145386, 51.8495709 ], [ 5.8142402, 51.8495484 ], [ 5.813823, 51.8495394 ], [ 5.8134935, 51.8495408 ], [ 5.8131664, 51.8495394 ], [ 5.8125775, 51.8495868 ], [ 5.8124273, 51.849616 ], [ 5.8123243, 51.84964 ], [ 5.8123151, 51.849685 ], [ 5.8123181, 51.8496945 ], [ 5.8123241, 51.8497326 ], [ 5.8123352, 51.8497703 ], [ 5.8123391, 51.8498096 ], [ 5.8123408, 51.8498421 ], [ 5.8123446, 51.8500456 ], [ 5.8123465, 51.8500664 ], [ 5.8123466, 51.8500828 ], [ 5.8123502, 51.8500993 ], [ 5.8124007, 51.8503205 ], [ 5.8123672, 51.850332 ], [ 5.8123581, 51.8503352 ], [ 5.8116423, 51.8505812 ], [ 5.8116239, 51.8505875 ], [ 5.8098738, 51.8511868 ], [ 5.8096516, 51.8512652 ], [ 5.8080097, 51.8518347 ], [ 5.8079478, 51.851858 ], [ 5.8079378, 51.8518615 ], [ 5.8079095, 51.8518735 ], [ 5.8078681, 51.851885 ], [ 5.8078311, 51.851889 ], [ 5.807792, 51.8518876 ], [ 5.8074128, 51.8518556 ], [ 5.807339, 51.8518425 ], [ 5.8073258, 51.8518401 ], [ 5.807309, 51.8518231 ], [ 5.8072966, 51.8517926 ], [ 5.8072852, 51.8517615 ], [ 5.8072569, 51.8517049 ], [ 5.8072067, 51.8516417 ], [ 5.8071764, 51.8516074 ], [ 5.8071292, 51.851557 ], [ 5.8070321, 51.8514579 ], [ 5.8068643, 51.8512201 ], [ 5.8067716, 51.8510982 ], [ 5.8067434, 51.8510694 ], [ 5.8067207, 51.8510475 ], [ 5.8066809, 51.8510117 ], [ 5.8062613, 51.850635 ], [ 5.8061016, 51.8504631 ], [ 5.8060472, 51.8504107 ], [ 5.8059975, 51.8503716 ], [ 5.8059649, 51.8503491 ], [ 5.8059129, 51.8503234 ], [ 5.8058254, 51.8502894 ], [ 5.8056322, 51.8502225 ], [ 5.805547, 51.850183 ], [ 5.8054496, 51.8501344 ], [ 5.8053724, 51.8500978 ], [ 5.8052767, 51.8500471 ], [ 5.8051703, 51.8499811 ], [ 5.8050646, 51.8499178 ], [ 5.804981, 51.8498661 ], [ 5.8049363, 51.8498373 ], [ 5.8049052, 51.8498168 ], [ 5.8048826, 51.8497929 ], [ 5.8048554, 51.8497392 ], [ 5.8048452, 51.849685 ], [ 5.8048303, 51.8496067 ], [ 5.8048091, 51.8495732 ], [ 5.8047773, 51.849544 ], [ 5.804726, 51.8495202 ], [ 5.8046544, 51.8495009 ], [ 5.8045166, 51.8494672 ], [ 5.8044514, 51.8494389 ], [ 5.8043563, 51.8493973 ], [ 5.8042783, 51.8493632 ], [ 5.8042414, 51.8493308 ], [ 5.8041988, 51.8492979 ], [ 5.8041516, 51.8492747 ], [ 5.8041067, 51.8492602 ], [ 5.8040688, 51.8492568 ], [ 5.8039969, 51.8492551 ], [ 5.8035644, 51.8492627 ], [ 5.8034974, 51.8492613 ], [ 5.8034391, 51.8492471 ], [ 5.8033874, 51.8492293 ], [ 5.8033432, 51.8492085 ], [ 5.8033424, 51.849208 ], [ 5.8033107, 51.8491895 ], [ 5.8030641, 51.848999 ], [ 5.8022393, 51.8483739 ], [ 5.8021732, 51.8483238 ], [ 5.8021279, 51.8482892 ], [ 5.8020773, 51.8482531 ], [ 5.8020219, 51.8482265 ], [ 5.801939, 51.8481846 ], [ 5.8013093, 51.8478769 ], [ 5.8011712, 51.8478284 ], [ 5.8010909, 51.8477849 ], [ 5.8010489, 51.8477623 ], [ 5.8007694, 51.8476111 ], [ 5.800699, 51.847577 ], [ 5.7999733, 51.8472179 ], [ 5.7998464, 51.8471561 ], [ 5.7997823, 51.8471231 ], [ 5.7994326, 51.8469533 ], [ 5.7992598, 51.8468705 ], [ 5.7989575, 51.8467165 ], [ 5.798904, 51.8466892 ], [ 5.798848, 51.8466607 ], [ 5.7982729, 51.8463676 ], [ 5.7976244, 51.8460371 ], [ 5.7975161, 51.8459754 ], [ 5.7970899, 51.8457328 ], [ 5.7969629, 51.8456763 ], [ 5.7968245, 51.8456142 ], [ 5.7948561, 51.8446854 ], [ 5.7940101, 51.8442915 ], [ 5.7933756, 51.843982 ], [ 5.7926118, 51.8436066 ], [ 5.791434, 51.8430239 ], [ 5.7909844, 51.8428027 ], [ 5.7906337, 51.8426218 ], [ 5.7904516, 51.8425279 ], [ 5.7903607, 51.842481 ], [ 5.7890416, 51.84182 ], [ 5.7883438, 51.8414716 ], [ 5.787813, 51.8412129 ], [ 5.7872178, 51.8409288 ], [ 5.7871293, 51.8409213 ], [ 5.7866327, 51.8408797 ], [ 5.7865968, 51.840879 ], [ 5.7865696, 51.8408788 ], [ 5.786541, 51.8408925 ], [ 5.7865017, 51.8409214 ], [ 5.7862425, 51.8411099 ], [ 5.786068, 51.8412226 ], [ 5.7859618, 51.841281 ], [ 5.7857685, 51.8413718 ], [ 5.7856381, 51.8414234 ], [ 5.7855624, 51.8414521 ], [ 5.7853939, 51.8415142 ], [ 5.7853013, 51.8415475 ], [ 5.7850081, 51.8416364 ], [ 5.7846977, 51.8417154 ], [ 5.7845218, 51.8417598 ], [ 5.7845038, 51.8417586 ], [ 5.7843447, 51.8417961 ], [ 5.7841856, 51.8418337 ], [ 5.7835898, 51.841998 ], [ 5.7835196, 51.8420173 ], [ 5.7833862, 51.8420515 ], [ 5.7831616, 51.8420899 ], [ 5.7824395, 51.8422327 ], [ 5.7823383, 51.8422925 ], [ 5.7821777, 51.8423896 ], [ 5.7812055, 51.8429775 ], [ 5.7811145, 51.8430326 ], [ 5.7810945, 51.8430497 ], [ 5.7810829, 51.8430696 ], [ 5.7810807, 51.8431017 ], [ 5.7810556, 51.8436221 ], [ 5.7810527, 51.8436816 ], [ 5.7810512, 51.8437105 ], [ 5.7810485, 51.8437177 ], [ 5.7809993, 51.8437511 ], [ 5.7804433, 51.8440923 ], [ 5.7799018, 51.844424 ], [ 5.7796521, 51.8445683 ], [ 5.7796153, 51.844583 ], [ 5.7795953, 51.8445879 ], [ 5.7795666, 51.8445913 ], [ 5.7783582, 51.8446056 ], [ 5.7782179, 51.8446025 ], [ 5.7781008, 51.8445948 ], [ 5.7779849, 51.8445831 ], [ 5.7779171, 51.8445736 ], [ 5.7768846, 51.8444325 ], [ 5.7763725, 51.8443552 ], [ 5.7758603, 51.844278 ], [ 5.7757098, 51.8442609 ], [ 5.77562, 51.8442544 ], [ 5.775377, 51.8442465 ], [ 5.775083, 51.844247 ], [ 5.7750194, 51.8441733 ], [ 5.7743226, 51.8433648 ], [ 5.7742164, 51.8432416 ], [ 5.7740265, 51.8430113 ], [ 5.7739308, 51.8428882 ], [ 5.7737584, 51.842732 ], [ 5.7734984, 51.8424297 ], [ 5.7733022, 51.8421839 ], [ 5.7720027, 51.840662 ], [ 5.7719466, 51.840618 ], [ 5.7719188, 51.8405707 ], [ 5.7718452, 51.84042 ], [ 5.7717244, 51.8402794 ], [ 5.7706921, 51.8390749 ], [ 5.7703796, 51.8387021 ], [ 5.7701315, 51.838408 ], [ 5.769883, 51.8381256 ], [ 5.7692161, 51.8373591 ], [ 5.7690615, 51.8372148 ], [ 5.7688639, 51.8369788 ], [ 5.7681192, 51.8360962 ], [ 5.7679525, 51.8359074 ], [ 5.7678829, 51.8358285 ], [ 5.767848, 51.835789 ], [ 5.7676931, 51.8356168 ], [ 5.7675533, 51.8354426 ], [ 5.7674836, 51.835362 ], [ 5.7674664, 51.8353421 ], [ 5.7673622, 51.8352227 ], [ 5.7672871, 51.8351365 ], [ 5.7670525, 51.8348729 ], [ 5.7669342, 51.8347457 ], [ 5.7666782, 51.834452 ], [ 5.7666154, 51.834383 ], [ 5.7664646, 51.8342095 ], [ 5.7664299, 51.8342215 ], [ 5.766088, 51.833832 ], [ 5.7661319, 51.8338169 ], [ 5.7657716, 51.8333953 ], [ 5.7651143, 51.8326397 ], [ 5.7651245, 51.8326313 ], [ 5.7650551, 51.8325378 ], [ 5.7650203, 51.8324936 ], [ 5.7649821, 51.8324597 ], [ 5.7649662, 51.8324455 ], [ 5.7647889, 51.8322719 ], [ 5.7647315, 51.8322913 ], [ 5.7646296, 51.8321668 ], [ 5.7646626, 51.8321706 ], [ 5.7645765, 51.8320701 ], [ 5.7645463, 51.8320348 ], [ 5.7639082, 51.8312748 ], [ 5.7634846, 51.8307783 ], [ 5.7629758, 51.8301934 ], [ 5.762811, 51.8300071 ], [ 5.7626769, 51.8298538 ], [ 5.7624272, 51.8295574 ], [ 5.7615666, 51.8285486 ], [ 5.7614057, 51.8283652 ], [ 5.7613514, 51.8282812 ], [ 5.76127, 51.8281912 ], [ 5.7611146, 51.8280069 ], [ 5.7611131, 51.8280052 ], [ 5.7610061, 51.8278802 ], [ 5.7604162, 51.8271834 ], [ 5.7603951, 51.8271586 ], [ 5.7601874, 51.8269277 ], [ 5.7599661, 51.826682 ], [ 5.7594162, 51.8260423 ], [ 5.7591206, 51.8256976 ], [ 5.7590976, 51.8256708 ], [ 5.7582093, 51.8246352 ], [ 5.75808, 51.8244874 ], [ 5.7580389, 51.8244389 ], [ 5.7576789, 51.8240293 ], [ 5.7576597, 51.8240322 ], [ 5.7576556, 51.8240277 ], [ 5.7576206, 51.8239899 ] ] ] } }
]
}
