{
"type": "FeatureCollection",
"name": "nikopol_ua",
"crs": { "type": "name", "properties": { "name": "urn:ogc:def:crs:OGC:1.3:CRS84" } },
"features": [
{ "type": "Feature", "properties": { "bbox_west": 34.2845609, "bbox_south": 47.5467412, "bbox_east": 34.4657153, "bbox_north": 47.6057135, "place_id": 205316353, "osm_type": "relation", "osm_id": 2318332, "lat": 47.5692061, "lon": 34.3917272, "class": "place", "type": "city", "place_rank": 16, "importance": 0.54202551001677257, "addresstype": "city", "name": "Nikopol", "display_name": "Nikopol, Нікопольська міська громада, Nikopol Raion, Dnipropetrovsk Oblast, 53200-53239, Ukraine" }, "geometry": { "type": "Polygon", "coordinates": [ [ [ 34.2845609, 47.5893725 ], [ 34.2878089, 47.5886984 ], [ 34.2869085, 47.5871912 ], [ 34.2870896, 47.5871161 ], [ 34.2872049, 47.5870402 ], [ 34.2872572, 47.5869434 ], [ 34.2872719, 47.5868846 ], [ 34.2872263, 47.5867245 ], [ 34.287225, 47.5866648 ], [ 34.2872371, 47.5866006 ], [ 34.28728, 47.5865562 ], [ 34.2873853, 47.5865259 ], [ 34.2875026, 47.5865083 ], [ 34.2876119, 47.586483 ], [ 34.2876763, 47.5864346 ], [ 34.2877132, 47.5863835 ], [ 34.2877346, 47.5863364 ], [ 34.2877608, 47.5863061 ], [ 34.2878205, 47.5862614 ], [ 34.2879117, 47.5861999 ], [ 34.2879894, 47.5861528 ], [ 34.2880538, 47.5861284 ], [ 34.2881048, 47.5861148 ], [ 34.2881584, 47.586104 ], [ 34.2882067, 47.5860931 ], [ 34.2882456, 47.5860705 ], [ 34.2882818, 47.586028 ], [ 34.2883408, 47.58599 ], [ 34.288432, 47.5859357 ], [ 34.2885473, 47.5858941 ], [ 34.2886211, 47.5858833 ], [ 34.2886794, 47.5858774 ], [ 34.2887559, 47.5858719 ], [ 34.2888551, 47.5858548 ], [ 34.2889765, 47.5858344 ], [ 34.2891052, 47.5858018 ], [ 34.2893198, 47.5857412 ], [ 34.2894727, 47.5856861 ], [ 34.2896068, 47.5856454 ], [ 34.2897221, 47.5856101 ], [ 34.2898858, 47.5855784 ], [ 34.2901875, 47.5854961 ], [ 34.2903806, 47.5854292 ], [ 34.2905805, 47.5853432 ], [ 34.2907253, 47.5852817 ], [ 34.2908835, 47.5852311 ], [ 34.2909962, 47.5851714 ], [ 34.2911343, 47.5850764 ], [ 34.2913167, 47.5849724 ], [ 34.2914743, 47.5848968 ], [ 34.291595, 47.5848593 ], [ 34.2917271, 47.5848091 ], [ 34.2918766, 47.5847358 ], [ 34.2922434, 47.5845101 ], [ 34.2924996, 47.5843464 ], [ 34.2926484, 47.5842596 ], [ 34.2928429, 47.5841682 ], [ 34.2931661, 47.5840171 ], [ 34.2933424, 47.5839484 ], [ 34.293614, 47.5838398 ], [ 34.2939037, 47.5837069 ], [ 34.2939775, 47.5836969 ], [ 34.2940325, 47.5836942 ], [ 34.294066, 47.5836824 ], [ 34.2940955, 47.5836553 ], [ 34.2941089, 47.5836282 ], [ 34.2940901, 47.5835965 ], [ 34.2940512, 47.5835856 ], [ 34.2940155, 47.5835834 ], [ 34.2939996, 47.5835703 ], [ 34.2939916, 47.583549 ], [ 34.2940056, 47.5835241 ], [ 34.294078, 47.5834753 ], [ 34.2942578, 47.5833595 ], [ 34.2943302, 47.5832944 ], [ 34.2943999, 47.5832093 ], [ 34.2944214, 47.5831207 ], [ 34.2944227, 47.582985 ], [ 34.2944361, 47.5829153 ], [ 34.2944777, 47.5828565 ], [ 34.294593, 47.5827634 ], [ 34.2948693, 47.582587 ], [ 34.2950597, 47.5824639 ], [ 34.2951751, 47.582387 ], [ 34.2954487, 47.5821401 ], [ 34.2955264, 47.5820587 ], [ 34.2955479, 47.5820044 ], [ 34.2955586, 47.5819085 ], [ 34.2956096, 47.5818253 ], [ 34.2957169, 47.5817511 ], [ 34.2959221, 47.5816579 ], [ 34.2960575, 47.5815928 ], [ 34.2961903, 47.5814951 ], [ 34.2963807, 47.5813512 ], [ 34.296551, 47.5812463 ], [ 34.2967442, 47.5811278 ], [ 34.2969695, 47.5809496 ], [ 34.2970231, 47.5809062 ], [ 34.297066, 47.5808555 ], [ 34.2971143, 47.5807542 ], [ 34.2971733, 47.5806981 ], [ 34.2973289, 47.5806275 ], [ 34.2975301, 47.5805678 ], [ 34.2976668, 47.5805443 ], [ 34.297809, 47.5805325 ], [ 34.2979076, 47.5805081 ], [ 34.2980611, 47.5804285 ], [ 34.2986244, 47.580063 ], [ 34.2991783, 47.5797392 ], [ 34.3000178, 47.579238 ], [ 34.3009217, 47.578706 ], [ 34.3028676, 47.5775553 ], [ 34.302932, 47.5774757 ], [ 34.3029535, 47.5773997 ], [ 34.3029454, 47.5773255 ], [ 34.3029374, 47.5772784 ], [ 34.3029562, 47.577235 ], [ 34.3030044, 47.5771952 ], [ 34.3034604, 47.5769564 ], [ 34.3037689, 47.5768007 ], [ 34.3039942, 47.5766994 ], [ 34.3042544, 47.5765909 ], [ 34.3043453, 47.5765629 ], [ 34.3046245, 47.5764769 ], [ 34.3051824, 47.5762579 ], [ 34.3063347, 47.575816 ], [ 34.3069325, 47.5755893 ], [ 34.3077144, 47.5752862 ], [ 34.308275, 47.5750293 ], [ 34.3090045, 47.5746982 ], [ 34.3095544, 47.5744665 ], [ 34.3098642, 47.5743697 ], [ 34.3100238, 47.5743308 ], [ 34.3105495, 47.5742548 ], [ 34.3110162, 47.5741861 ], [ 34.3114936, 47.57412 ], [ 34.3118048, 47.5740576 ], [ 34.3124807, 47.5739581 ], [ 34.3128911, 47.5739146 ], [ 34.3133953, 47.5738531 ], [ 34.3138084, 47.5737934 ], [ 34.3144447, 47.5736998 ], [ 34.3147565, 47.5736694 ], [ 34.314951, 47.573655 ], [ 34.3151803, 47.5736206 ], [ 34.3155102, 47.5735582 ], [ 34.3160789, 47.5734487 ], [ 34.3163122, 47.5734025 ], [ 34.3165281, 47.5733627 ], [ 34.3167736, 47.5732985 ], [ 34.3169747, 47.573218 ], [ 34.3170753, 47.5731655 ], [ 34.3171893, 47.5730741 ], [ 34.3172765, 47.5729945 ], [ 34.3172993, 47.5729465 ], [ 34.3173382, 47.5728814 ], [ 34.3174723, 47.5727647 ], [ 34.3176305, 47.5726796 ], [ 34.3178518, 47.572591 ], [ 34.3180127, 47.5725665 ], [ 34.3181938, 47.5725665 ], [ 34.3184701, 47.5726208 ], [ 34.3186337, 47.5726262 ], [ 34.3187933, 47.5726063 ], [ 34.3189649, 47.5725539 ], [ 34.3191406, 47.5724607 ], [ 34.3192171, 47.5724127 ], [ 34.3192694, 47.5723693 ], [ 34.3193042, 47.572315 ], [ 34.3193069, 47.572248 ], [ 34.3192586, 47.5720363 ], [ 34.3191634, 47.5716943 ], [ 34.3191648, 47.5716183 ], [ 34.3191949, 47.5715609 ], [ 34.319272, 47.5714921 ], [ 34.3194437, 47.5713758 ], [ 34.3196006, 47.5713152 ], [ 34.3197642, 47.5712953 ], [ 34.3199345, 47.5713016 ], [ 34.3200392, 47.5713107 ], [ 34.3201813, 47.5713089 ], [ 34.3209001, 47.5712003 ], [ 34.3209323, 47.5712003 ], [ 34.3209887, 47.5712238 ], [ 34.3212622, 47.5713794 ], [ 34.3213159, 47.5713957 ], [ 34.3213803, 47.5713921 ], [ 34.3214527, 47.5713794 ], [ 34.321501, 47.5713505 ], [ 34.3215466, 47.5713016 ], [ 34.3215841, 47.5712727 ], [ 34.3216019, 47.5712684 ], [ 34.3216324, 47.5712691 ], [ 34.3216522, 47.5712783 ], [ 34.3216619, 47.5712926 ], [ 34.3216699, 47.5713378 ], [ 34.3216887, 47.5714464 ], [ 34.3217249, 47.5715187 ], [ 34.3217799, 47.5715912 ], [ 34.3218791, 47.571669 ], [ 34.3219784, 47.5717196 ], [ 34.3221983, 47.5717595 ], [ 34.3222707, 47.5717794 ], [ 34.3223049, 47.5718119 ], [ 34.3223029, 47.5718463 ], [ 34.3222868, 47.5718735 ], [ 34.3221822, 47.5719585 ], [ 34.3221527, 47.5720218 ], [ 34.3221661, 47.5720725 ], [ 34.3222681, 47.5721666 ], [ 34.3223861, 47.5722426 ], [ 34.3228126, 47.5724941 ], [ 34.3229198, 47.5725774 ], [ 34.3229869, 47.5726443 ], [ 34.3230218, 47.5727439 ], [ 34.323062, 47.5728524 ], [ 34.3231049, 47.5729447 ], [ 34.3231773, 47.5730316 ], [ 34.3233597, 47.5731818 ], [ 34.3235421, 47.5733247 ], [ 34.3237138, 47.5734297 ], [ 34.3238881, 47.5735419 ], [ 34.324041, 47.5736541 ], [ 34.3241912, 47.5737554 ], [ 34.3243334, 47.5738368 ], [ 34.3244836, 47.5739002 ], [ 34.324851, 47.5740467 ], [ 34.3251273, 47.5741408 ], [ 34.3255135, 47.574291 ], [ 34.3257764, 47.5743833 ], [ 34.3259695, 47.574443 ], [ 34.3262002, 47.5745009 ], [ 34.3264309, 47.5745444 ], [ 34.3266374, 47.5745733 ], [ 34.3268225, 47.574586 ], [ 34.3271175, 47.5745661 ], [ 34.3272784, 47.5745588 ], [ 34.3275735, 47.5745661 ], [ 34.3277827, 47.5745805 ], [ 34.3284827, 47.574572 ], [ 34.328523, 47.5745715 ], [ 34.3287617, 47.5745407 ], [ 34.3290138, 47.5744937 ], [ 34.3293035, 47.5744539 ], [ 34.3298681, 47.5744195 ], [ 34.3300223, 47.5744168 ], [ 34.3301739, 47.5744258 ], [ 34.3303563, 47.574462 ], [ 34.3304166, 47.5744883 ], [ 34.33054, 47.5745968 ], [ 34.3305856, 47.5746262 ], [ 34.3306366, 47.5746466 ], [ 34.3306869, 47.5746597 ], [ 34.3307492, 47.5746697 ], [ 34.330823, 47.5746742 ], [ 34.330886, 47.5746737 ], [ 34.330941, 47.5746667 ], [ 34.331057, 47.5746362 ], [ 34.3311066, 47.5746127 ], [ 34.3312032, 47.5745552 ], [ 34.3312903, 47.5745168 ], [ 34.3313527, 47.5744932 ], [ 34.3314131, 47.5744819 ], [ 34.3315887, 47.5744679 ], [ 34.3316779, 47.5744602 ], [ 34.3317202, 47.5744539 ], [ 34.3317423, 47.5744421 ], [ 34.3317986, 47.5744055 ], [ 34.3318442, 47.5743792 ], [ 34.3318871, 47.5743724 ], [ 34.3319777, 47.5743593 ], [ 34.3320313, 47.5743507 ], [ 34.3320689, 47.5743358 ], [ 34.332101, 47.5743204 ], [ 34.3321601, 47.5742811 ], [ 34.3323364, 47.5741901 ], [ 34.3324766, 47.5741191 ], [ 34.332663, 47.5740196 ], [ 34.3327314, 47.5739744 ], [ 34.3327917, 47.573911 ], [ 34.3328896, 47.5737699 ], [ 34.3329594, 47.5737084 ], [ 34.3330532, 47.5736577 ], [ 34.3332329, 47.5736052 ], [ 34.3336889, 47.5735075 ], [ 34.3345606, 47.5733211 ], [ 34.3349335, 47.5732379 ], [ 34.3351507, 47.5732089 ], [ 34.3353009, 47.5732035 ], [ 34.3354726, 47.5731818 ], [ 34.3356711, 47.5731347 ], [ 34.3357864, 47.5731025 ], [ 34.3358032, 47.5730976 ], [ 34.3358561, 47.5730768 ], [ 34.3360077, 47.5730198 ], [ 34.3362035, 47.5729574 ], [ 34.3366233, 47.5728352 ], [ 34.3368606, 47.5727602 ], [ 34.3370417, 47.572686 ], [ 34.337562, 47.572467 ], [ 34.3377672, 47.5723711 ], [ 34.3381669, 47.5722146 ], [ 34.3383935, 47.5721123 ], [ 34.3386067, 47.5720237 ], [ 34.3387999, 47.5719323 ], [ 34.3389541, 47.5718635 ], [ 34.3391365, 47.5717821 ], [ 34.3395254, 47.5715875 ], [ 34.3398285, 47.5714373 ], [ 34.3407646, 47.5708836 ], [ 34.3412206, 47.5706104 ], [ 34.3415853, 47.5703534 ], [ 34.3418401, 47.5701869 ], [ 34.342107, 47.5700276 ], [ 34.3423015, 47.5699046 ], [ 34.3425308, 47.5697399 ], [ 34.3427615, 47.5695698 ], [ 34.3430337, 47.5693979 ], [ 34.343145, 47.5693309 ], [ 34.3432309, 47.5692766 ], [ 34.3433315, 47.5692133 ], [ 34.3435433, 47.5690341 ], [ 34.3436399, 47.5689455 ], [ 34.3436639, 47.5689237 ], [ 34.3436996, 47.5688913 ], [ 34.3437096, 47.5688821 ], [ 34.3439041, 47.5687726 ], [ 34.343994, 47.5687066 ], [ 34.3442152, 47.5685102 ], [ 34.3446176, 47.5681908 ], [ 34.345319, 47.5676352 ], [ 34.3454303, 47.5675375 ], [ 34.3454705, 47.5674696 ], [ 34.3454799, 47.5674018 ], [ 34.3454625, 47.567342 ], [ 34.3454343, 47.5672896 ], [ 34.3454128, 47.5672497 ], [ 34.3454155, 47.5672244 ], [ 34.3454477, 47.5672154 ], [ 34.3454853, 47.5672244 ], [ 34.3455067, 47.5672425 ], [ 34.3455885, 47.5672932 ], [ 34.3456623, 47.5673149 ], [ 34.3457133, 47.567314 ], [ 34.3458031, 47.5672878 ], [ 34.3458728, 47.5672425 ], [ 34.3461116, 47.5670642 ], [ 34.3463516, 47.5668407 ], [ 34.3464133, 47.5667937 ], [ 34.3465126, 47.5667462 ], [ 34.3465622, 47.5667141 ], [ 34.3466044, 47.5666761 ], [ 34.346703, 47.5665421 ], [ 34.346754, 47.5664535 ], [ 34.3468022, 47.5663304 ], [ 34.3468109, 47.5662812 ], [ 34.346821, 47.5662236 ], [ 34.3468156, 47.5661499 ], [ 34.3467727, 47.566077 ], [ 34.346703, 47.5660119 ], [ 34.3465984, 47.5659485 ], [ 34.3465501, 47.5659178 ], [ 34.3465099, 47.5658825 ], [ 34.3465017, 47.5658701 ], [ 34.3464884, 47.5658499 ], [ 34.3464884, 47.5658028 ], [ 34.3464997, 47.5657788 ], [ 34.3465126, 47.5657513 ], [ 34.3465716, 47.565697 ], [ 34.3466386, 47.5656318 ], [ 34.346707, 47.5655911 ], [ 34.3467861, 47.5655585 ], [ 34.3469498, 47.5655341 ], [ 34.3471938, 47.5655594 ], [ 34.3473467, 47.5655992 ], [ 34.3474393, 47.5656164 ], [ 34.3475036, 47.5656119 ], [ 34.3475774, 47.565582 ], [ 34.3477531, 47.5654716 ], [ 34.3479408, 47.5653377 ], [ 34.3482721, 47.5650346 ], [ 34.3483445, 47.5649531 ], [ 34.3485484, 47.5646798 ], [ 34.3487656, 47.5644699 ], [ 34.3490687, 47.564202 ], [ 34.3500879, 47.5632989 ], [ 34.3501201, 47.5632446 ], [ 34.3501389, 47.5631831 ], [ 34.3501899, 47.5631324 ], [ 34.3503025, 47.5630691 ], [ 34.3504205, 47.5630129 ], [ 34.3505198, 47.562955 ], [ 34.3507585, 47.5628048 ], [ 34.3510696, 47.5625967 ], [ 34.351818, 47.5620971 ], [ 34.3520272, 47.5619596 ], [ 34.3522337, 47.5618311 ], [ 34.3524054, 47.5617134 ], [ 34.3525448, 47.5616048 ], [ 34.3526977, 47.5615379 ], [ 34.3528372, 47.5615053 ], [ 34.3529579, 47.561489 ], [ 34.3530571, 47.5614465 ], [ 34.3531564, 47.5613876 ], [ 34.3532234, 47.5613017 ], [ 34.3532529, 47.5612302 ], [ 34.3532878, 47.5611668 ], [ 34.3533629, 47.5610582 ], [ 34.3535426, 47.5607306 ], [ 34.3536982, 47.5604646 ], [ 34.3538725, 47.5602112 ], [ 34.3539128, 47.5601333 ], [ 34.3539476, 47.5600374 ], [ 34.3540013, 47.5599795 ], [ 34.3541139, 47.5599179 ], [ 34.3543178, 47.5598184 ], [ 34.3545297, 47.5597532 ], [ 34.3549132, 47.5596265 ], [ 34.3550839, 47.5595705 ], [ 34.3554336, 47.5594675 ], [ 34.3555391, 47.5594381 ], [ 34.355615, 47.5594327 ], [ 34.3556471, 47.5594439 ], [ 34.355673, 47.5594897 ], [ 34.3556828, 47.5595185 ], [ 34.3556726, 47.5595339 ], [ 34.3556363, 47.5595503 ], [ 34.355013, 47.5597442 ], [ 34.354966, 47.5597601 ], [ 34.3549126, 47.5597782 ], [ 34.3547719, 47.5598258 ], [ 34.3543768, 47.5599252 ], [ 34.3543312, 47.5599614 ], [ 34.3543339, 47.559994 ], [ 34.3543527, 47.5600356 ], [ 34.3543634, 47.5601007 ], [ 34.3543768, 47.560155 ], [ 34.3544304, 47.5602492 ], [ 34.3546772, 47.5606329 ], [ 34.3547, 47.5606555 ], [ 34.3547443, 47.5606673 ], [ 34.3549454, 47.5606962 ], [ 34.3550715, 47.5607053 ], [ 34.355168, 47.5606962 ], [ 34.3553692, 47.5606455 ], [ 34.3556267, 47.5605713 ], [ 34.3558627, 47.5604953 ], [ 34.3560505, 47.5604573 ], [ 34.3562543, 47.5604302 ], [ 34.3564528, 47.5603958 ], [ 34.3578127, 47.5600247 ], [ 34.3581292, 47.5599433 ], [ 34.3583813, 47.5599053 ], [ 34.358561, 47.5598564 ], [ 34.3587407, 47.5597786 ], [ 34.3588051, 47.5597351 ], [ 34.3588346, 47.5596772 ], [ 34.3588829, 47.559527 ], [ 34.358907, 47.5593785 ], [ 34.358899, 47.559212 ], [ 34.3588856, 47.5591559 ], [ 34.3588486, 47.5590413 ], [ 34.3588217, 47.5589924 ], [ 34.3587904, 47.5589565 ], [ 34.358745, 47.5589193 ], [ 34.3586974, 47.5588929 ], [ 34.3586438, 47.5588534 ], [ 34.3586077, 47.5588169 ], [ 34.3586126, 47.5587774 ], [ 34.3586298, 47.5587606 ], [ 34.3586706, 47.5587391 ], [ 34.3587534, 47.5587302 ], [ 34.3588544, 47.5587429 ], [ 34.3591513, 47.5588364 ], [ 34.3595394, 47.5589567 ], [ 34.3597941, 47.5590638 ], [ 34.3600163, 47.5591924 ], [ 34.3600792, 47.5592428 ], [ 34.3601194, 47.559288 ], [ 34.3601462, 47.5593369 ], [ 34.3601596, 47.5593876 ], [ 34.3601784, 47.559422 ], [ 34.3602267, 47.5594383 ], [ 34.3602937, 47.5594401 ], [ 34.3603876, 47.5594347 ], [ 34.3608007, 47.5594075 ], [ 34.3611252, 47.5593785 ], [ 34.3615705, 47.5593134 ], [ 34.3622893, 47.559174 ], [ 34.3624958, 47.5591306 ], [ 34.3626192, 47.5591197 ], [ 34.36276, 47.5590998 ], [ 34.3629035, 47.559088 ], [ 34.3630551, 47.5590781 ], [ 34.3631329, 47.5590871 ], [ 34.363153, 47.5591079 ], [ 34.363153, 47.5591396 ], [ 34.3631423, 47.5591695 ], [ 34.3631543, 47.5591948 ], [ 34.3631758, 47.559222 ], [ 34.363216, 47.559241 ], [ 34.3632884, 47.5592446 ], [ 34.3633448, 47.5592383 ], [ 34.3633769, 47.5592156 ], [ 34.3634024, 47.5591767 ], [ 34.3634292, 47.5591432 ], [ 34.3634601, 47.5591179 ], [ 34.3634842, 47.5591079 ], [ 34.3635835, 47.5591025 ], [ 34.3637364, 47.559126 ], [ 34.3638289, 47.559127 ], [ 34.3639858, 47.5591152 ], [ 34.3644968, 47.5590618 ], [ 34.365575, 47.5588989 ], [ 34.3662509, 47.5588084 ], [ 34.3666989, 47.5587215 ], [ 34.3671066, 47.5586274 ], [ 34.3675867, 47.5585043 ], [ 34.3681151, 47.5583468 ], [ 34.3685576, 47.5581857 ], [ 34.368968, 47.5580192 ], [ 34.3694723, 47.5577875 ], [ 34.3698451, 47.5576119 ], [ 34.370065, 47.5575269 ], [ 34.3701696, 47.5574852 ], [ 34.3702447, 47.5574382 ], [ 34.370293, 47.5573857 ], [ 34.3703681, 47.5572879 ], [ 34.3704084, 47.5572119 ], [ 34.3704191, 47.5571848 ], [ 34.3704405, 47.5571703 ], [ 34.3704995, 47.5571612 ], [ 34.3705505, 47.5571612 ], [ 34.3705988, 47.5571504 ], [ 34.3706685, 47.5571087 ], [ 34.370749, 47.5570345 ], [ 34.3708241, 47.5569694 ], [ 34.3708992, 47.5569024 ], [ 34.3710279, 47.5568028 ], [ 34.3710923, 47.5567612 ], [ 34.3711647, 47.556734 ], [ 34.3713632, 47.5566996 ], [ 34.3715174, 47.5566408 ], [ 34.3717991, 47.5565096 ], [ 34.3719117, 47.5564652 ], [ 34.3720137, 47.556429 ], [ 34.3721732, 47.5563847 ], [ 34.372412, 47.556334 ], [ 34.373104, 47.556201 ], [ 34.372817, 47.5557593 ], [ 34.3718943, 47.5560987 ], [ 34.3716958, 47.5557538 ], [ 34.3720304, 47.5556317 ], [ 34.3719768, 47.555557 ], [ 34.3723114, 47.5554325 ], [ 34.3723798, 47.5555176 ], [ 34.3725622, 47.5554525 ], [ 34.3725018, 47.5553719 ], [ 34.3728297, 47.5552493 ], [ 34.3728961, 47.555323 ], [ 34.37415, 47.5548651 ], [ 34.3751304, 47.5545103 ], [ 34.3751827, 47.5544958 ], [ 34.3752296, 47.554494 ], [ 34.3752739, 47.5544967 ], [ 34.3753383, 47.5545202 ], [ 34.3753852, 47.5545383 ], [ 34.3754348, 47.5545492 ], [ 34.3754791, 47.5545465 ], [ 34.3755327, 47.5545329 ], [ 34.3756413, 47.5544922 ], [ 34.3758291, 47.5544198 ], [ 34.3760839, 47.5543238 ], [ 34.3762556, 47.5542614 ], [ 34.3763374, 47.5542333 ], [ 34.3764111, 47.5542044 ], [ 34.3764553, 47.5541883 ], [ 34.3764863, 47.5541749 ], [ 34.3765265, 47.5541663 ], [ 34.3765667, 47.5541654 ], [ 34.3766163, 47.5541745 ], [ 34.3766606, 47.5542007 ], [ 34.3768604, 47.5544116 ], [ 34.3769409, 47.5544596 ], [ 34.3770187, 47.5544903 ], [ 34.3771085, 47.5545075 ], [ 34.377244, 47.5545148 ], [ 34.3773754, 47.554513 ], [ 34.3774867, 47.5545021 ], [ 34.3775913, 47.5544786 ], [ 34.3777536, 47.5544234 ], [ 34.377881, 47.5543727 ], [ 34.378054, 47.5542921 ], [ 34.3786548, 47.5539391 ], [ 34.3789887, 47.5537364 ], [ 34.3790115, 47.5537083 ], [ 34.3790062, 47.5536803 ], [ 34.3789753, 47.5536486 ], [ 34.3789284, 47.5536169 ], [ 34.3789163, 47.5535934 ], [ 34.3789324, 47.5535762 ], [ 34.3789646, 47.553559 ], [ 34.3790129, 47.5535436 ], [ 34.3790652, 47.5535418 ], [ 34.3791188, 47.5535545 ], [ 34.3791671, 47.5535726 ], [ 34.3792047, 47.553578 ], [ 34.3792288, 47.5535753 ], [ 34.3792851, 47.553559 ], [ 34.3794259, 47.5534793 ], [ 34.3797679, 47.5532648 ], [ 34.3799798, 47.5531535 ], [ 34.3802319, 47.5530512 ], [ 34.3806007, 47.5529254 ], [ 34.3811747, 47.5527543 ], [ 34.3818922, 47.5525353 ], [ 34.3826607, 47.552309 ], [ 34.3833017, 47.5521189 ], [ 34.3839495, 47.5519289 ], [ 34.3843532, 47.5518193 ], [ 34.3844685, 47.5517813 ], [ 34.3845811, 47.551737 ], [ 34.3846757, 47.5516818 ], [ 34.384734, 47.5516537 ], [ 34.3848239, 47.5516252 ], [ 34.3850874, 47.5515763 ], [ 34.3851806, 47.5515731 ], [ 34.3852517, 47.5515822 ], [ 34.385363, 47.5516247 ], [ 34.3854368, 47.5516718 ], [ 34.3854891, 47.5517071 ], [ 34.3855407, 47.5517352 ], [ 34.3856795, 47.5517759 ], [ 34.3861194, 47.5519008 ], [ 34.3863541, 47.5519678 ], [ 34.3870662, 47.5521561 ], [ 34.3873101, 47.5522248 ], [ 34.387494, 47.5522574 ], [ 34.3877234, 47.5522819 ], [ 34.3879849, 47.5522837 ], [ 34.3882813, 47.5522647 ], [ 34.3885535, 47.5522221 ], [ 34.3890081, 47.5521099 ], [ 34.3894708, 47.5519732 ], [ 34.389849, 47.5518664 ], [ 34.3900877, 47.5517677 ], [ 34.3902741, 47.5516872 ], [ 34.390887, 47.5514319 ], [ 34.3910466, 47.551374 ], [ 34.3915442, 47.5511857 ], [ 34.391613, 47.551151 ], [ 34.3917051, 47.5511079 ], [ 34.3917639, 47.5510731 ], [ 34.3917975, 47.5510605 ], [ 34.3918444, 47.5510523 ], [ 34.3918914, 47.5510581 ], [ 34.3919302, 47.5510617 ], [ 34.392004, 47.5510654 ], [ 34.3920737, 47.5510655 ], [ 34.3920992, 47.5510659 ], [ 34.3921208, 47.5510655 ], [ 34.3921698, 47.551064 ], [ 34.3922351, 47.5510662 ], [ 34.3922938, 47.5510682 ], [ 34.3923161, 47.5510689 ], [ 34.3923502, 47.5510689 ], [ 34.3924814, 47.5510687 ], [ 34.3924896, 47.5510683 ], [ 34.3925708, 47.5510645 ], [ 34.3925793, 47.5510641 ], [ 34.392654, 47.5510615 ], [ 34.3926866, 47.5510604 ], [ 34.3927498, 47.5510606 ], [ 34.3928019, 47.5510608 ], [ 34.3929333, 47.5510627 ], [ 34.3929991, 47.5510663 ], [ 34.3930784, 47.5510682 ], [ 34.3931025, 47.551069 ], [ 34.3931303, 47.5510695 ], [ 34.393148, 47.5510699 ], [ 34.39326, 47.5510713 ], [ 34.3932751, 47.5510718 ], [ 34.393319, 47.5510733 ], [ 34.3933706, 47.551075 ], [ 34.3936107, 47.5510662 ], [ 34.3936309, 47.5510649 ], [ 34.3936636, 47.5510628 ], [ 34.3937689, 47.5510553 ], [ 34.3938085, 47.5510541 ], [ 34.3941054, 47.551041 ], [ 34.3942921, 47.5510328 ], [ 34.3943323, 47.5510301 ], [ 34.3943524, 47.5510183 ], [ 34.3943685, 47.5510101 ], [ 34.394394, 47.5510038 ], [ 34.3944477, 47.5509957 ], [ 34.3945717, 47.5509831 ], [ 34.3949841, 47.5509413 ], [ 34.3950029, 47.550935 ], [ 34.3950096, 47.5509205 ], [ 34.3949923, 47.5508904 ], [ 34.3948433, 47.5507078 ], [ 34.3947977, 47.5506589 ], [ 34.3947628, 47.5506119 ], [ 34.3947709, 47.5505938 ], [ 34.3947837, 47.5505909 ], [ 34.3948111, 47.5505847 ], [ 34.3948513, 47.5505992 ], [ 34.3948996, 47.550639 ], [ 34.3949667, 47.5507132 ], [ 34.3950391, 47.5507929 ], [ 34.3950844, 47.5508465 ], [ 34.3951064, 47.5508611 ], [ 34.3951448, 47.5508663 ], [ 34.3951869, 47.5508633 ], [ 34.3952569, 47.5508503 ], [ 34.3956171, 47.5507797 ], [ 34.3956748, 47.5507567 ], [ 34.3957069, 47.5507042 ], [ 34.3957082, 47.5506534 ], [ 34.3956882, 47.5506029 ], [ 34.3956707, 47.5505419 ], [ 34.3956515, 47.5504922 ], [ 34.3956351, 47.5504525 ], [ 34.3956262, 47.5504171 ], [ 34.3956275, 47.5503899 ], [ 34.3956406, 47.5503755 ], [ 34.3956632, 47.550364 ], [ 34.3956932, 47.5503689 ], [ 34.3957076, 47.5503902 ], [ 34.3957079, 47.5504138 ], [ 34.3957166, 47.5504501 ], [ 34.395726, 47.5504812 ], [ 34.3957434, 47.5505131 ], [ 34.3957946, 47.5505703 ], [ 34.3958652, 47.5506019 ], [ 34.3959698, 47.5506372 ], [ 34.396069, 47.5506589 ], [ 34.3962219, 47.550677 ], [ 34.3963721, 47.5506752 ], [ 34.3965679, 47.5506426 ], [ 34.3968469, 47.5505793 ], [ 34.3972224, 47.5504725 ], [ 34.3976596, 47.5503313 ], [ 34.39796, 47.5502172 ], [ 34.3982738, 47.5500742 ], [ 34.398542, 47.5499258 ], [ 34.3987486, 47.5497682 ], [ 34.3989283, 47.5496126 ], [ 34.3989967, 47.5495587 ], [ 34.3990677, 47.5495071 ], [ 34.3990744, 47.5494786 ], [ 34.3990631, 47.5494537 ], [ 34.398931, 47.5493175 ], [ 34.3987244, 47.5491219 ], [ 34.3986654, 47.5490622 ], [ 34.3986011, 47.5490351 ], [ 34.3985742, 47.5490133 ], [ 34.3985984, 47.5489807 ], [ 34.3986601, 47.5489445 ], [ 34.3987083, 47.5489282 ], [ 34.3987513, 47.54893 ], [ 34.3987673, 47.5489482 ], [ 34.3987727, 47.5489789 ], [ 34.3987915, 47.549026 ], [ 34.3989417, 47.5492107 ], [ 34.3992394, 47.549484 ], [ 34.3992957, 47.5494967 ], [ 34.3994111, 47.5494913 ], [ 34.399572, 47.5494695 ], [ 34.399741, 47.5494406 ], [ 34.3998751, 47.5494062 ], [ 34.4000065, 47.5493573 ], [ 34.4003901, 47.5491473 ], [ 34.4008407, 47.548883 ], [ 34.4011309, 47.5486778 ], [ 34.4012162, 47.5486096 ], [ 34.4015783, 47.5482548 ], [ 34.4016132, 47.5481878 ], [ 34.4016293, 47.5481117 ], [ 34.4016105, 47.5480574 ], [ 34.401581, 47.5479959 ], [ 34.4015408, 47.5479361 ], [ 34.4014777, 47.547842 ], [ 34.4014528, 47.5478018 ], [ 34.4014388, 47.5477678 ], [ 34.4014442, 47.547746 ], [ 34.4014657, 47.547737 ], [ 34.4015005, 47.5477352 ], [ 34.4015327, 47.547756 ], [ 34.4015615, 47.5477863 ], [ 34.401587, 47.5478298 ], [ 34.4016246, 47.5478877 ], [ 34.4016588, 47.5479542 ], [ 34.4016829, 47.5479977 ], [ 34.4017044, 47.5480086 ], [ 34.4017258, 47.5480104 ], [ 34.4017634, 47.5480013 ], [ 34.4017848, 47.5480067 ], [ 34.401809, 47.5480267 ], [ 34.4018304, 47.5480574 ], [ 34.4018345, 47.5480783 ], [ 34.4018277, 47.5480936 ], [ 34.4018217, 47.548109 ], [ 34.4018237, 47.5481276 ], [ 34.4018479, 47.5481543 ], [ 34.4018733, 47.5481747 ], [ 34.4019002, 47.5481882 ], [ 34.401933, 47.5481959 ], [ 34.4019712, 47.5481996 ], [ 34.4020772, 47.5482041 ], [ 34.4022113, 47.5481824 ], [ 34.4024286, 47.5481081 ], [ 34.4025198, 47.5480683 ], [ 34.4026512, 47.5480013 ], [ 34.4027638, 47.5479253 ], [ 34.4028524, 47.5478529 ], [ 34.4028738, 47.5477985 ], [ 34.4028715, 47.547723 ], [ 34.4028671, 47.5476973 ], [ 34.4028639, 47.5476781 ], [ 34.4028604, 47.5476573 ], [ 34.4028443, 47.5475994 ], [ 34.4028275, 47.547558 ], [ 34.4028232, 47.5475445 ], [ 34.4027974, 47.5475025 ], [ 34.4027773, 47.5474618 ], [ 34.4027585, 47.5474129 ], [ 34.4027612, 47.5473803 ], [ 34.402798, 47.5473546 ], [ 34.4028624, 47.54736 ], [ 34.4028942, 47.5473833 ], [ 34.4029243, 47.5474174 ], [ 34.4029599, 47.5474766 ], [ 34.4030149, 47.5475694 ], [ 34.4030978, 47.5477008 ], [ 34.4031367, 47.5477406 ], [ 34.403193, 47.5477515 ], [ 34.4032654, 47.5477578 ], [ 34.40337, 47.5477587 ], [ 34.403488, 47.5477506 ], [ 34.4036034, 47.5477279 ], [ 34.4037053, 47.5476944 ], [ 34.4038112, 47.5476537 ], [ 34.4038984, 47.5476048 ], [ 34.4039869, 47.547555 ], [ 34.4041197, 47.5474654 ], [ 34.4040308, 47.5471598 ], [ 34.4040096, 47.5470865 ], [ 34.4040057, 47.5470336 ], [ 34.4040124, 47.5469413 ], [ 34.4040218, 47.5469205 ], [ 34.404036, 47.5469133 ], [ 34.4040486, 47.5469069 ], [ 34.4040835, 47.5469033 ], [ 34.404121, 47.546906 ], [ 34.4041385, 47.5469132 ], [ 34.4041546, 47.5469467 ], [ 34.4041732, 47.5470119 ], [ 34.4042686, 47.5473233 ], [ 34.4043101, 47.5474808 ], [ 34.4043276, 47.5475215 ], [ 34.404345, 47.5475315 ], [ 34.4043718, 47.5475315 ], [ 34.4045636, 47.5475134 ], [ 34.4051054, 47.5474573 ], [ 34.4052342, 47.5474437 ], [ 34.4053428, 47.5474365 ], [ 34.4054326, 47.5474265 ], [ 34.4054849, 47.5474156 ], [ 34.4055051, 47.5473849 ], [ 34.4055091, 47.5473496 ], [ 34.4055153, 47.5473017 ], [ 34.4055175, 47.5472623 ], [ 34.4055476, 47.5472406 ], [ 34.4056056, 47.5472355 ], [ 34.4056325, 47.5472482 ], [ 34.4056499, 47.547269 ], [ 34.4056595, 47.5472937 ], [ 34.4056794, 47.5473644 ], [ 34.4056915, 47.5473885 ], [ 34.4057237, 47.5474057 ], [ 34.4057701, 47.5474113 ], [ 34.4058468, 47.5474083 ], [ 34.4058655, 47.547407 ], [ 34.4059205, 47.5474051 ], [ 34.4059358, 47.5474039 ], [ 34.4060193, 47.5473961 ], [ 34.406109, 47.5473939 ], [ 34.4062547, 47.547384 ], [ 34.4062762, 47.5473794 ], [ 34.4062883, 47.5473668 ], [ 34.4062909, 47.5473387 ], [ 34.4062909, 47.5472455 ], [ 34.4063017, 47.5472364 ], [ 34.4063272, 47.5472319 ], [ 34.4063593, 47.547231 ], [ 34.4063714, 47.5472364 ], [ 34.4063835, 47.5472545 ], [ 34.4063848, 47.5472943 ], [ 34.4063956, 47.5473758 ], [ 34.4064036, 47.5474021 ], [ 34.4064344, 47.5474165 ], [ 34.4064841, 47.5474238 ], [ 34.4065525, 47.5474292 ], [ 34.4066973, 47.5474374 ], [ 34.4068797, 47.54745 ], [ 34.4069025, 47.5474446 ], [ 34.4069146, 47.5474265 ], [ 34.4069387, 47.5472228 ], [ 34.406938, 47.5472052 ], [ 34.4069407, 47.5471911 ], [ 34.4069474, 47.5471834 ], [ 34.4069649, 47.5471767 ], [ 34.4069769, 47.5471631 ], [ 34.406985, 47.5471463 ], [ 34.406991, 47.5471169 ], [ 34.4069991, 47.5470481 ], [ 34.4070044, 47.5469974 ], [ 34.4070017, 47.5469612 ], [ 34.4069856, 47.5469232 ], [ 34.4069641, 47.5468932 ], [ 34.4069494, 47.546858 ], [ 34.4069602, 47.5468254 ], [ 34.4069927, 47.5467995 ], [ 34.4070293, 47.5467788 ], [ 34.4070862, 47.5467603 ], [ 34.4071479, 47.5467603 ], [ 34.4072418, 47.546763 ], [ 34.4074313, 47.546782 ], [ 34.4075154, 47.5467892 ], [ 34.4075395, 47.5467865 ], [ 34.4075543, 47.5467766 ], [ 34.407559, 47.5467588 ], [ 34.407561, 47.5467512 ], [ 34.407573, 47.546744 ], [ 34.4076079, 47.5467412 ], [ 34.4076683, 47.5467458 ], [ 34.4076978, 47.5467575 ], [ 34.4077206, 47.5467811 ], [ 34.4077635, 47.5468155 ], [ 34.4078171, 47.5468435 ], [ 34.4079579, 47.5469033 ], [ 34.4080773, 47.5469513 ], [ 34.408375, 47.54704 ], [ 34.4084381, 47.547059 ], [ 34.4084944, 47.5470843 ], [ 34.4085266, 47.5471079 ], [ 34.4085413, 47.5471341 ], [ 34.4085494, 47.5471803 ], [ 34.40854, 47.5472092 ], [ 34.4085279, 47.5472237 ], [ 34.4085118, 47.5472283 ], [ 34.4084702, 47.5472165 ], [ 34.4083267, 47.5471549 ], [ 34.4082583, 47.5471305 ], [ 34.4081953, 47.5471214 ], [ 34.4080438, 47.5471205 ], [ 34.4079593, 47.5471278 ], [ 34.4079244, 47.5471414 ], [ 34.4079137, 47.5471685 ], [ 34.4079083, 47.5472074 ], [ 34.4079074, 47.5472464 ], [ 34.4079064, 47.5472857 ], [ 34.4079056, 47.5473179 ], [ 34.4079058, 47.5473301 ], [ 34.4079065, 47.5473695 ], [ 34.4079072, 47.5474125 ], [ 34.4079079, 47.5474509 ], [ 34.4079086, 47.5474953 ], [ 34.4079093, 47.5475333 ], [ 34.4079097, 47.5475559 ], [ 34.407915, 47.5475695 ], [ 34.4079258, 47.5475795 ], [ 34.4079412, 47.547584 ], [ 34.4080357, 47.5475831 ], [ 34.4080498, 47.5475849 ], [ 34.4080585, 47.5475917 ], [ 34.4080659, 47.5476035 ], [ 34.4080713, 47.5476125 ], [ 34.408086, 47.5476184 ], [ 34.4081343, 47.5476279 ], [ 34.408194, 47.5476374 ], [ 34.408251, 47.5476454 ], [ 34.4083048, 47.5476529 ], [ 34.4083361, 47.5476573 ], [ 34.408354, 47.5476593 ], [ 34.4084051, 47.5476649 ], [ 34.4084554, 47.5476704 ], [ 34.4085305, 47.5476786 ], [ 34.4085681, 47.5476827 ], [ 34.4085968, 47.5476868 ], [ 34.4086312, 47.5476917 ], [ 34.4086418, 47.5476933 ], [ 34.4086966, 47.5477012 ], [ 34.4087608, 47.5477083 ], [ 34.4088129, 47.5477149 ], [ 34.4088397, 47.5477243 ], [ 34.4088694, 47.5477348 ], [ 34.4088911, 47.5477424 ], [ 34.4089021, 47.5477479 ], [ 34.4089316, 47.5477614 ], [ 34.4089745, 47.5477723 ], [ 34.4090177, 47.5477747 ], [ 34.4090402, 47.5477759 ], [ 34.4090912, 47.5477813 ], [ 34.4091298, 47.5477874 ], [ 34.4091478, 47.5477903 ], [ 34.4092083, 47.5478155 ], [ 34.4092803, 47.5478366 ], [ 34.4093728, 47.5478592 ], [ 34.4094868, 47.5478909 ], [ 34.4095888, 47.5479336 ], [ 34.4096678, 47.5479805 ], [ 34.4097041, 47.5480203 ], [ 34.4097295, 47.5480665 ], [ 34.4097403, 47.5481066 ], [ 34.4097376, 47.5481606 ], [ 34.4097121, 47.5482367 ], [ 34.4096665, 47.5483055 ], [ 34.4095136, 47.5484901 ], [ 34.4094023, 47.5486169 ], [ 34.4093245, 47.5487273 ], [ 34.4092025, 47.5489156 ], [ 34.4090643, 47.5492016 ], [ 34.4090053, 47.5493537 ], [ 34.4089665, 47.5494994 ], [ 34.4089289, 47.5496234 ], [ 34.4089074, 47.549723 ], [ 34.4088919, 47.5498336 ], [ 34.4088659, 47.5501683 ], [ 34.4088203, 47.5505087 ], [ 34.4087693, 47.5508436 ], [ 34.4087505, 47.5510988 ], [ 34.4087747, 47.5513016 ], [ 34.408772, 47.5514862 ], [ 34.4087693, 47.5516238 ], [ 34.4087425, 47.551756 ], [ 34.4087103, 47.5518682 ], [ 34.4086701, 47.5519768 ], [ 34.4086271, 47.5520565 ], [ 34.4085824, 47.5521386 ], [ 34.408577, 47.5521488 ], [ 34.4085413, 47.5522158 ], [ 34.4085333, 47.5522375 ], [ 34.4084823, 47.5523769 ], [ 34.4083911, 47.5526484 ], [ 34.4083267, 47.5528476 ], [ 34.4082624, 47.5530883 ], [ 34.4082221, 47.5533345 ], [ 34.4082003, 47.5535582 ], [ 34.4082248, 47.5538414 ], [ 34.4082624, 47.5539989 ], [ 34.4083053, 47.554093 ], [ 34.4083974, 47.5541696 ], [ 34.4084209, 47.554195 ], [ 34.4084561, 47.5542402 ], [ 34.408468, 47.5542766 ], [ 34.4084644, 47.5543154 ], [ 34.4084453, 47.5543432 ], [ 34.4084126, 47.5543718 ], [ 34.4084502, 47.5544866 ], [ 34.4087639, 47.5552995 ], [ 34.4095516, 47.5571492 ], [ 34.4099025, 47.5580174 ], [ 34.4102338, 47.5588826 ], [ 34.4105986, 47.5597261 ], [ 34.4106925, 47.5599559 ], [ 34.410781, 47.5601116 ], [ 34.4108748, 47.5602329 ], [ 34.411009, 47.5604084 ], [ 34.4111297, 47.5605496 ], [ 34.4112691, 47.5606673 ], [ 34.4115964, 47.5608827 ], [ 34.412861, 47.5615605 ], [ 34.4143724, 47.5623795 ], [ 34.4150323, 47.5627505 ], [ 34.4154775, 47.5629912 ], [ 34.4160515, 47.5632917 ], [ 34.4167475, 47.5636618 ], [ 34.4176984, 47.5641749 ], [ 34.4182107, 47.56444 ], [ 34.4185728, 47.5646201 ], [ 34.4192047, 47.5649601 ], [ 34.4206247, 47.5657241 ], [ 34.4210887, 47.5659757 ], [ 34.4213998, 47.5661349 ], [ 34.4217753, 47.5663105 ], [ 34.4222179, 47.5664933 ], [ 34.4231594, 47.5668765 ], [ 34.4245729, 47.5674524 ], [ 34.42545, 47.5678017 ], [ 34.4257691, 47.567923 ], [ 34.4260669, 47.5680243 ], [ 34.4263431, 47.5681094 ], [ 34.426783, 47.5682288 ], [ 34.4274616, 47.5683736 ], [ 34.4280061, 47.5684695 ], [ 34.428729, 47.5685808 ], [ 34.4308358, 47.5688468 ], [ 34.4311295, 47.5688758 ], [ 34.4319382, 47.5689509 ], [ 34.4326825, 47.5690405 ], [ 34.4335355, 47.5691581 ], [ 34.4343697, 47.5692576 ], [ 34.4349383, 47.5693336 ], [ 34.435759, 47.5694259 ], [ 34.4362915, 47.569482 ], [ 34.4366026, 47.5694983 ], [ 34.4371363, 47.5694793 ], [ 34.4378123, 47.5694232 ], [ 34.439328, 47.569216 ], [ 34.4394524, 47.5692061 ], [ 34.4399862, 47.5691382 ], [ 34.440693, 47.5690432 ], [ 34.4409692, 47.5689798 ], [ 34.4410223, 47.5689733 ], [ 34.4412187, 47.5689491 ], [ 34.4414145, 47.5689455 ], [ 34.4415647, 47.5689672 ], [ 34.4417176, 47.5690133 ], [ 34.4418731, 47.5690758 ], [ 34.4419509, 47.5690929 ], [ 34.4420354, 47.5691002 ], [ 34.44214, 47.5690993 ], [ 34.442258, 47.5690975 ], [ 34.4424404, 47.5690975 ], [ 34.4426349, 47.5690884 ], [ 34.4427623, 47.5690839 ], [ 34.4428588, 47.5690794 ], [ 34.4429393, 47.5690767 ], [ 34.4430131, 47.5690749 ], [ 34.4430962, 47.5690676 ], [ 34.4432397, 47.5690549 ], [ 34.4433886, 47.5690305 ], [ 34.4436112, 47.5689979 ], [ 34.4439599, 47.5689446 ], [ 34.4442107, 47.5688993 ], [ 34.444389, 47.5688676 ], [ 34.4445111, 47.5688432 ], [ 34.4446278, 47.5688124 ], [ 34.4448745, 47.5687518 ], [ 34.4453681, 47.5686143 ], [ 34.4455868, 47.5685558 ], [ 34.4458348, 47.5684894 ], [ 34.4465455, 47.5683229 ], [ 34.4470096, 47.5681854 ], [ 34.4475232, 47.5680279 ], [ 34.4481656, 47.5678289 ], [ 34.4488388, 47.5676135 ], [ 34.4493243, 47.5674678 ], [ 34.4496462, 47.5673837 ], [ 34.450255, 47.5672136 ], [ 34.4506359, 47.567105 ], [ 34.4510543, 47.5669964 ], [ 34.4512179, 47.5669584 ], [ 34.4513494, 47.5669349 ], [ 34.4514915, 47.5669168 ], [ 34.451631, 47.5669041 ], [ 34.4518509, 47.5668968 ], [ 34.452142, 47.5669059 ], [ 34.4523928, 47.566924 ], [ 34.4527884, 47.5669557 ], [ 34.4529963, 47.566981 ], [ 34.4531304, 47.5670091 ], [ 34.4533463, 47.5670796 ], [ 34.4534603, 47.5671176 ], [ 34.4536091, 47.5671511 ], [ 34.453931, 47.5672479 ], [ 34.4541027, 47.5673022 ], [ 34.454281, 47.567371 ], [ 34.4544983, 47.567466 ], [ 34.4548067, 47.5675864 ], [ 34.455083, 47.567675 ], [ 34.4552734, 47.5677438 ], [ 34.4554143, 47.5678081 ], [ 34.4557093, 47.5679456 ], [ 34.4562484, 47.5682026 ], [ 34.4568506, 47.568522 ], [ 34.4569753, 47.5686007 ], [ 34.4572113, 47.5687482 ], [ 34.4575265, 47.5689346 ], [ 34.4578899, 47.5691255 ], [ 34.4580442, 47.5692042 ], [ 34.4581354, 47.5692585 ], [ 34.4582051, 47.5693038 ], [ 34.4583513, 47.5693897 ], [ 34.4584224, 47.569454 ], [ 34.4584505, 47.569501 ], [ 34.4584663, 47.5695424 ], [ 34.4585015, 47.5695761 ], [ 34.4585504, 47.5695899 ], [ 34.4586705, 47.569606 ], [ 34.4588368, 47.5696549 ], [ 34.4590138, 47.5697381 ], [ 34.4595864, 47.5700593 ], [ 34.46008, 47.5703136 ], [ 34.461067, 47.5707624 ], [ 34.4616222, 47.5710374 ], [ 34.4623277, 47.5714428 ], [ 34.4626039, 47.5716274 ], [ 34.4628426, 47.5717776 ], [ 34.4630679, 47.5719368 ], [ 34.4632208, 47.5720924 ], [ 34.4633335, 47.5722137 ], [ 34.4634461, 47.572315 ], [ 34.4635534, 47.5723946 ], [ 34.4636258, 47.5724453 ], [ 34.4637144, 47.5725122 ], [ 34.4637267, 47.5725281 ], [ 34.4638002, 47.5726226 ], [ 34.4638874, 47.5727362 ], [ 34.4639866, 47.572833 ], [ 34.4640409, 47.5728764 ], [ 34.4641167, 47.5729018 ], [ 34.4642139, 47.5729226 ], [ 34.4644198, 47.5729764 ], [ 34.4645391, 47.5729972 ], [ 34.4648838, 47.573123 ], [ 34.465097, 47.5732406 ], [ 34.4652392, 47.5733555 ], [ 34.4653478, 47.5734478 ], [ 34.465431, 47.5735401 ], [ 34.4654793, 47.5736269 ], [ 34.4655865, 47.5738423 ], [ 34.4656563, 47.5740775 ], [ 34.4656992, 47.574244 ], [ 34.4657153, 47.5743652 ], [ 34.4657153, 47.5745371 ], [ 34.4657126, 47.5746203 ], [ 34.4656858, 47.5747081 ], [ 34.4656442, 47.5747705 ], [ 34.4655959, 47.574842 ], [ 34.4654927, 47.5749171 ], [ 34.4654042, 47.5749569 ], [ 34.4651735, 47.5750492 ], [ 34.4648167, 47.5751722 ], [ 34.4644734, 47.5752718 ], [ 34.4641542, 47.5753478 ], [ 34.4639491, 47.5753704 ], [ 34.4637653, 47.5753858 ], [ 34.4636218, 47.5753984 ], [ 34.4634032, 47.5754328 ], [ 34.4630519, 47.5754998 ], [ 34.4627058, 47.5755866 ], [ 34.4624189, 47.5756463 ], [ 34.4621453, 47.5756988 ], [ 34.4619414, 47.5757458 ], [ 34.4611475, 47.5759937 ], [ 34.4601095, 47.576428 ], [ 34.4598439, 47.576542 ], [ 34.459679, 47.5766298 ], [ 34.4593491, 47.5768722 ], [ 34.4592176, 47.5769482 ], [ 34.4590393, 47.5770314 ], [ 34.4587697, 47.5771409 ], [ 34.4583888, 47.5772531 ], [ 34.4581085, 47.5773273 ], [ 34.457851, 47.5773743 ], [ 34.4576257, 47.5773997 ], [ 34.4571403, 47.5774232 ], [ 34.4569552, 47.5774196 ], [ 34.456864, 47.577425 ], [ 34.4567835, 47.5774521 ], [ 34.4566253, 47.5775399 ], [ 34.4562015, 47.5777615 ], [ 34.4560701, 47.5778267 ], [ 34.4559735, 47.5778538 ], [ 34.4557442, 47.5779072 ], [ 34.4552788, 47.5780402 ], [ 34.455175, 47.578064 ], [ 34.455156, 47.5780684 ], [ 34.4551467, 47.5780705 ], [ 34.4550616, 47.5780843 ], [ 34.4549583, 47.5780972 ], [ 34.4548711, 47.5781098 ], [ 34.4547477, 47.5781352 ], [ 34.4546377, 47.5781657 ], [ 34.4544607, 47.5782483 ], [ 34.4543749, 47.5782926 ], [ 34.4542877, 47.5783288 ], [ 34.4541737, 47.5783559 ], [ 34.4540182, 47.5783776 ], [ 34.4539337, 47.5783894 ], [ 34.4538572, 47.5784084 ], [ 34.453758, 47.5784382 ], [ 34.4534361, 47.5785631 ], [ 34.4533, 47.5786106 ], [ 34.4532128, 47.5786427 ], [ 34.4530623, 47.5787106 ], [ 34.4529761, 47.5787594 ], [ 34.4529439, 47.5787766 ], [ 34.4529129, 47.5788017 ], [ 34.4528487, 47.5788634 ], [ 34.4527817, 47.5789105 ], [ 34.4526375, 47.5789824 ], [ 34.4524377, 47.5790742 ], [ 34.4523036, 47.5791394 ], [ 34.4522325, 47.5791566 ], [ 34.4521607, 47.5791566 ], [ 34.4520038, 47.579133 ], [ 34.4519421, 47.5791421 ], [ 34.4519086, 47.5791575 ], [ 34.4518657, 47.5792054 ], [ 34.4518295, 47.5792488 ], [ 34.4517933, 47.579285 ], [ 34.4517363, 47.5793133 ], [ 34.4516622, 47.5793445 ], [ 34.451631, 47.5793633 ], [ 34.4516169, 47.5793845 ], [ 34.4516096, 47.5794103 ], [ 34.4516075, 47.5794293 ], [ 34.4516025, 47.5794388 ], [ 34.4515827, 47.5794433 ], [ 34.4515606, 47.5794424 ], [ 34.4515137, 47.5794397 ], [ 34.4514734, 47.5794397 ], [ 34.4514285, 47.5794524 ], [ 34.4513759, 47.5794786 ], [ 34.4513055, 47.5795114 ], [ 34.451286, 47.5795175 ], [ 34.4512528, 47.5795293 ], [ 34.4512045, 47.5795582 ], [ 34.451175, 47.5795809 ], [ 34.4511469, 47.5796116 ], [ 34.4511241, 47.5796446 ], [ 34.4510865, 47.5796776 ], [ 34.4510168, 47.579712 ], [ 34.4509848, 47.5797201 ], [ 34.450939, 47.5797283 ], [ 34.4508559, 47.5797301 ], [ 34.4507124, 47.5797206 ], [ 34.4505917, 47.5797102 ], [ 34.4504689, 47.5797066 ], [ 34.4503509, 47.5797138 ], [ 34.4502309, 47.5797337 ], [ 34.4501464, 47.5797464 ], [ 34.4500659, 47.5797708 ], [ 34.4499654, 47.5798215 ], [ 34.4498648, 47.5798848 ], [ 34.4497602, 47.57994 ], [ 34.449681, 47.5799626 ], [ 34.4496126, 47.5799762 ], [ 34.4495295, 47.5799898 ], [ 34.4494437, 47.5800142 ], [ 34.4493404, 47.5800667 ], [ 34.4491741, 47.5801653 ], [ 34.4489273, 47.580329 ], [ 34.4485009, 47.5806203 ], [ 34.4484372, 47.5806615 ], [ 34.4483587, 47.5806972 ], [ 34.4482715, 47.580728 ], [ 34.4481991, 47.5807488 ], [ 34.4481361, 47.5807786 ], [ 34.4478491, 47.5809396 ], [ 34.44755, 47.5811142 ], [ 34.4472979, 47.5812734 ], [ 34.4471987, 47.5813368 ], [ 34.447137, 47.581392 ], [ 34.4470873, 47.5814797 ], [ 34.4469948, 47.5816588 ], [ 34.4469465, 47.5818189 ], [ 34.4469251, 47.5819284 ], [ 34.446913, 47.5820171 ], [ 34.4469157, 47.5820976 ], [ 34.446917, 47.5821604 ], [ 34.4469365, 47.5822314 ], [ 34.446964, 47.5822902 ], [ 34.4469814, 47.5823346 ], [ 34.4469861, 47.5823685 ], [ 34.4469707, 47.5824155 ], [ 34.4469345, 47.5824445 ], [ 34.4468942, 47.5824608 ], [ 34.4468258, 47.5824594 ], [ 34.4467735, 47.5824431 ], [ 34.4466857, 47.5824133 ], [ 34.4465791, 47.5823744 ], [ 34.4465348, 47.5823554 ], [ 34.4465006, 47.5823314 ], [ 34.4464859, 47.582312 ], [ 34.4464765, 47.5822889 ], [ 34.4464664, 47.5822396 ], [ 34.4464771, 47.5822034 ], [ 34.4464637, 47.5821754 ], [ 34.4463578, 47.5821781 ], [ 34.4463001, 47.5821944 ], [ 34.4462693, 47.5822179 ], [ 34.4462679, 47.5822631 ], [ 34.4462518, 47.5823662 ], [ 34.446217, 47.5824802 ], [ 34.4462022, 47.5826141 ], [ 34.4462022, 47.5827055 ], [ 34.4462237, 47.5827326 ], [ 34.4462599, 47.582757 ], [ 34.4462846, 47.5827742 ], [ 34.4463351, 47.5828094 ], [ 34.4463794, 47.5828401 ], [ 34.4464758, 47.5829072 ], [ 34.4465028, 47.582926 ], [ 34.4466059, 47.5829977 ], [ 34.4466461, 47.5830148 ], [ 34.446677, 47.5830221 ], [ 34.4467185, 47.5830275 ], [ 34.4467601, 47.5830257 ], [ 34.4468084, 47.5830112 ], [ 34.4468822, 47.582975 ], [ 34.4469774, 47.582928 ], [ 34.4470659, 47.5828683 ], [ 34.4471464, 47.5828149 ], [ 34.4471597, 47.5828049 ], [ 34.4472199, 47.5827595 ], [ 34.4472722, 47.5827252 ], [ 34.4473071, 47.5827098 ], [ 34.4473287, 47.5827109 ], [ 34.4473582, 47.5827208 ], [ 34.447369, 47.5827389 ], [ 34.4473703, 47.5827697 ], [ 34.4473623, 47.5827914 ], [ 34.4473059, 47.5828339 ], [ 34.4472282, 47.5828882 ], [ 34.4469318, 47.5830764 ], [ 34.4468661, 47.5831469 ], [ 34.4468055, 47.5832273 ], [ 34.4467548, 47.5832808 ], [ 34.4466923, 47.5833302 ], [ 34.4465314, 47.5834749 ], [ 34.4464664, 47.5835042 ], [ 34.4463712, 47.5835205 ], [ 34.4462197, 47.583535 ], [ 34.4460835, 47.5835458 ], [ 34.4460299, 47.5835553 ], [ 34.445991, 47.5835703 ], [ 34.4459467, 47.583606 ], [ 34.4459085, 47.5836566 ], [ 34.4458857, 47.5837249 ], [ 34.4458254, 47.5841004 ], [ 34.4458093, 47.5842333 ], [ 34.4457999, 47.5843184 ], [ 34.4458026, 47.5844016 ], [ 34.445824, 47.5844323 ], [ 34.4458562, 47.5844577 ], [ 34.4458723, 47.5845029 ], [ 34.4458696, 47.5845734 ], [ 34.4458684, 47.5846178 ], [ 34.4458677, 47.5846449 ], [ 34.4458669, 47.5846748 ], [ 34.4458535, 47.5848086 ], [ 34.4458616, 47.5848647 ], [ 34.4458857, 47.5849063 ], [ 34.445883, 47.5849497 ], [ 34.445883, 47.5850764 ], [ 34.4458857, 47.5851053 ], [ 34.4459233, 47.5851289 ], [ 34.4459982, 47.5851651 ], [ 34.4460442, 47.5851802 ], [ 34.4460863, 47.5851971 ], [ 34.4461225, 47.5852123 ], [ 34.446149, 47.5852285 ], [ 34.4461547, 47.5852349 ], [ 34.4461667, 47.5852486 ], [ 34.4461764, 47.5852665 ], [ 34.4461791, 47.5853147 ], [ 34.4461767, 47.585393 ], [ 34.4461673, 47.5854545 ], [ 34.4461499, 47.5854871 ], [ 34.4461057, 47.5855214 ], [ 34.4460694, 47.5855377 ], [ 34.4460466, 47.5855612 ], [ 34.4460359, 47.5856001 ], [ 34.4460358, 47.5856453 ], [ 34.4460384, 47.5857702 ], [ 34.4460389, 47.5857982 ], [ 34.4460426, 47.58598 ], [ 34.4460466, 47.5860895 ], [ 34.4460507, 47.5861049 ], [ 34.4460694, 47.5861329 ], [ 34.4460936, 47.5861573 ], [ 34.4461378, 47.5861727 ], [ 34.4461861, 47.5861809 ], [ 34.4462532, 47.5861854 ], [ 34.4463015, 47.5861944 ], [ 34.4463243, 47.5862071 ], [ 34.4463229, 47.5862243 ], [ 34.4463108, 47.5862315 ], [ 34.4462505, 47.5862378 ], [ 34.4462049, 47.5862397 ], [ 34.4461754, 47.5862514 ], [ 34.4461647, 47.5862668 ], [ 34.4461593, 47.5863129 ], [ 34.4461633, 47.5866485 ], [ 34.4461808, 47.5867145 ], [ 34.4462036, 47.5867516 ], [ 34.446225, 47.5867742 ], [ 34.4462612, 47.5867923 ], [ 34.4462682, 47.5867994 ], [ 34.4462773, 47.5868086 ], [ 34.4462746, 47.5868294 ], [ 34.4462599, 47.5868448 ], [ 34.446217, 47.5868547 ], [ 34.4461942, 47.5868674 ], [ 34.4461861, 47.5868882 ], [ 34.4461808, 47.5869253 ], [ 34.4462741, 47.5876135 ], [ 34.446278, 47.5876356 ], [ 34.446331, 47.5880731 ], [ 34.4464087, 47.5885408 ], [ 34.4464186, 47.5886274 ], [ 34.4464248, 47.5886819 ], [ 34.4464597, 47.5888646 ], [ 34.4465201, 47.5889994 ], [ 34.4465724, 47.5890708 ], [ 34.446677, 47.5891631 ], [ 34.4467333, 47.5892029 ], [ 34.4468701, 47.5892996 ], [ 34.446916, 47.5893315 ], [ 34.446964, 47.5893648 ], [ 34.4470042, 47.5893865 ], [ 34.4470498, 47.5894019 ], [ 34.4470954, 47.58941 ], [ 34.4471343, 47.5894163 ], [ 34.4471759, 47.5894263 ], [ 34.447208, 47.5894435 ], [ 34.4472315, 47.5894606 ], [ 34.4472405, 47.5894761 ], [ 34.4472477, 47.5894889 ], [ 34.4472671, 47.5895176 ], [ 34.4473851, 47.5896859 ], [ 34.447432, 47.5897627 ], [ 34.4474602, 47.5898351 ], [ 34.447483, 47.5899445 ], [ 34.4475044, 47.590044 ], [ 34.4475182, 47.5901085 ], [ 34.4475541, 47.5902765 ], [ 34.4476184, 47.590489 ], [ 34.4480556, 47.5918078 ], [ 34.4481602, 47.5920827 ], [ 34.4482192, 47.5922075 ], [ 34.448635, 47.5930722 ], [ 34.4487181, 47.5931897 ], [ 34.4488201, 47.5933109 ], [ 34.4489112, 47.5933914 ], [ 34.4490574, 47.593471 ], [ 34.4491982, 47.5935063 ], [ 34.4493055, 47.5935099 ], [ 34.4494235, 47.5934864 ], [ 34.4495194, 47.5934499 ], [ 34.4496026, 47.5933956 ], [ 34.4496723, 47.5933178 ], [ 34.4496996, 47.5932656 ], [ 34.4497211, 47.5932421 ], [ 34.4497535, 47.5932368 ], [ 34.4497937, 47.5932476 ], [ 34.4498259, 47.5932928 ], [ 34.4498339, 47.5933543 ], [ 34.4498152, 47.593414 ], [ 34.4497561, 47.5934918 ], [ 34.4497186, 47.5935551 ], [ 34.4497132, 47.5935931 ], [ 34.4497347, 47.593651 ], [ 34.4501115, 47.5942054 ], [ 34.4501719, 47.5942615 ], [ 34.4502255, 47.5943004 ], [ 34.450361, 47.5943818 ], [ 34.451682, 47.5951017 ], [ 34.4517839, 47.5951433 ], [ 34.4518939, 47.5951803 ], [ 34.4521192, 47.5952147 ], [ 34.4522613, 47.5952265 ], [ 34.4525644, 47.5952228 ], [ 34.4526822, 47.5952227 ], [ 34.4527729, 47.5952243 ], [ 34.4528378, 47.5952245 ], [ 34.4529204, 47.5952361 ], [ 34.452982, 47.5952588 ], [ 34.4530136, 47.595299 ], [ 34.4530767, 47.5954453 ], [ 34.4531599, 47.5955991 ], [ 34.4532068, 47.5956624 ], [ 34.4532591, 47.5957103 ], [ 34.4533956, 47.5958277 ], [ 34.4534776, 47.5958948 ], [ 34.4535381, 47.5959509 ], [ 34.4535937, 47.5960083 ], [ 34.4536346, 47.5960314 ], [ 34.4536842, 47.5960454 ], [ 34.4537426, 47.5960445 ], [ 34.4537902, 47.5960278 ], [ 34.453809, 47.5959898 ], [ 34.4538116, 47.5959464 ], [ 34.4538197, 47.595921 ], [ 34.4538518, 47.5959002 ], [ 34.4538693, 47.5959011 ], [ 34.4538948, 47.5959183 ], [ 34.4539136, 47.5959518 ], [ 34.4539283, 47.5959852 ], [ 34.4539297, 47.5960205 ], [ 34.4539404, 47.5960513 ], [ 34.4539565, 47.5960856 ], [ 34.4540074, 47.596139 ], [ 34.454729, 47.5967874 ], [ 34.4548711, 47.5969321 ], [ 34.4549516, 47.5970081 ], [ 34.4550185, 47.5970604 ], [ 34.4551065, 47.5970801 ], [ 34.4551902, 47.5970784 ], [ 34.455276, 47.5970694 ], [ 34.4553671, 47.5970604 ], [ 34.4554207, 47.5970585 ], [ 34.4554744, 47.5970676 ], [ 34.4554986, 47.5970948 ], [ 34.4554873, 47.597129 ], [ 34.4553271, 47.5972197 ], [ 34.4552815, 47.597274 ], [ 34.4552788, 47.5973246 ], [ 34.4552969, 47.5974024 ], [ 34.4553613, 47.5974693 ], [ 34.4554505, 47.5975263 ], [ 34.4555417, 47.5975417 ], [ 34.4556168, 47.5975308 ], [ 34.4557106, 47.5975181 ], [ 34.4558153, 47.5975236 ], [ 34.4559413, 47.5975579 ], [ 34.4560969, 47.5976321 ], [ 34.4561217, 47.5976643 ], [ 34.4561076, 47.5977298 ], [ 34.4560666, 47.5977783 ], [ 34.4560406, 47.597822 ], [ 34.4560271, 47.597869 ], [ 34.4560473, 47.5979549 ], [ 34.4561224, 47.598134 ], [ 34.4561841, 47.5982208 ], [ 34.4563061, 47.5983429 ], [ 34.4566467, 47.598616 ], [ 34.4570142, 47.5989 ], [ 34.4572328, 47.5990555 ], [ 34.4574031, 47.5991713 ], [ 34.4577947, 47.5994607 ], [ 34.4580898, 47.599665 ], [ 34.4581944, 47.5997609 ], [ 34.4582668, 47.5998423 ], [ 34.4583258, 47.5999508 ], [ 34.4584116, 47.600157 ], [ 34.4584787, 47.6002474 ], [ 34.458527, 47.6002981 ], [ 34.4585592, 47.6003342 ], [ 34.4585578, 47.6003686 ], [ 34.4585491, 47.6003844 ], [ 34.4585323, 47.6003998 ], [ 34.4584706, 47.6004174 ], [ 34.4583996, 47.6004613 ], [ 34.4583466, 47.600535 ], [ 34.4583204, 47.6006272 ], [ 34.4583285, 47.6007249 ], [ 34.4583714, 47.6008153 ], [ 34.4584552, 47.6009012 ], [ 34.4585585, 47.6009722 ], [ 34.4586705, 47.6010057 ], [ 34.4588301, 47.6010391 ], [ 34.4589327, 47.6010536 ], [ 34.4589984, 47.6010545 ], [ 34.4591298, 47.6010163 ], [ 34.4591506, 47.6010165 ], [ 34.4591673, 47.6010265 ], [ 34.4591707, 47.6010436 ], [ 34.4591539, 47.6010667 ], [ 34.4590634, 47.6011173 ], [ 34.4589917, 47.6011725 ], [ 34.4589454, 47.6012277 ], [ 34.4589132, 47.6012783 ], [ 34.4589052, 47.6013344 ], [ 34.4589293, 47.6014167 ], [ 34.4590071, 47.6014999 ], [ 34.4590849, 47.60155 ], [ 34.4591813, 47.601591 ], [ 34.4592566, 47.6016134 ], [ 34.4593207, 47.601629 ], [ 34.4593685, 47.6016542 ], [ 34.459398, 47.6016831 ], [ 34.4594328, 47.601732 ], [ 34.4594763, 47.6017791 ], [ 34.4595031, 47.6018044 ], [ 34.4595558, 47.6018437 ], [ 34.459626, 47.6018784 ], [ 34.4596882, 47.6019201 ], [ 34.4597836, 47.6020008 ], [ 34.4598868, 47.6020777 ], [ 34.459974, 47.6021392 ], [ 34.4601108, 47.6022558 ], [ 34.4601403, 47.6023038 ], [ 34.4601578, 47.6023553 ], [ 34.4601631, 47.6024539 ], [ 34.4601738, 47.6024955 ], [ 34.4602677, 47.6026745 ], [ 34.4602516, 47.6027505 ], [ 34.4602101, 47.6028201 ], [ 34.4601108, 47.6028861 ], [ 34.4599941, 47.6029259 ], [ 34.4598171, 47.6029566 ], [ 34.4595247, 47.6029928 ], [ 34.459396, 47.6030073 ], [ 34.4592163, 47.603 ], [ 34.4590929, 47.6029802 ], [ 34.4590151, 47.6029603 ], [ 34.4589226, 47.6029078 ], [ 34.4588622, 47.6028273 ], [ 34.4588207, 47.6027441 ], [ 34.4587831, 47.602698 ], [ 34.4587107, 47.6026474 ], [ 34.4585283, 47.6025669 ], [ 34.4582641, 47.6024747 ], [ 34.4579771, 47.6023625 ], [ 34.4576794, 47.6022595 ], [ 34.4575439, 47.6022016 ], [ 34.4573294, 47.6021093 ], [ 34.4570853, 47.6020262 ], [ 34.4566923, 47.6019113 ], [ 34.4566386, 47.6019013 ], [ 34.456459, 47.6018679 ], [ 34.4558662, 47.6017883 ], [ 34.4552386, 47.6016997 ], [ 34.4547155, 47.6016545 ], [ 34.4543923, 47.6016509 ], [ 34.4541389, 47.6016545 ], [ 34.453935, 47.601631 ], [ 34.4535246, 47.6015514 ], [ 34.4532806, 47.60147 ], [ 34.4531263, 47.6014022 ], [ 34.4529922, 47.60131 ], [ 34.4529198, 47.6012304 ], [ 34.4528085, 47.6011391 ], [ 34.452673, 47.6010739 ], [ 34.4525242, 47.6010405 ], [ 34.4524008, 47.6010305 ], [ 34.4522533, 47.6010287 ], [ 34.4520172, 47.6010468 ], [ 34.4517866, 47.6010522 ], [ 34.4516015, 47.6010332 ], [ 34.4514969, 47.6010025 ], [ 34.4513708, 47.6009528 ], [ 34.4509524, 47.6007321 ], [ 34.4504119, 47.6004599 ], [ 34.4500794, 47.6002121 ], [ 34.4498219, 47.600043 ], [ 34.4497374, 47.5999734 ], [ 34.4496623, 47.5999038 ], [ 34.4496113, 47.5998251 ], [ 34.4495818, 47.5997283 ], [ 34.4495684, 47.5995746 ], [ 34.4495282, 47.5994679 ], [ 34.449445, 47.5993431 ], [ 34.4492707, 47.5991677 ], [ 34.4491392, 47.5990465 ], [ 34.4489863, 47.5989398 ], [ 34.4489059, 47.5988511 ], [ 34.448863, 47.5987698 ], [ 34.4488281, 47.5986667 ], [ 34.4487771, 47.59856 ], [ 34.448702, 47.598484 ], [ 34.4485974, 47.5984026 ], [ 34.4483989, 47.5983085 ], [ 34.4482434, 47.5982489 ], [ 34.4480073, 47.598144 ], [ 34.4476855, 47.5979685 ], [ 34.4474441, 47.5978528 ], [ 34.4473207, 47.5977913 ], [ 34.4471946, 47.5977044 ], [ 34.4471437, 47.5976032 ], [ 34.4471329, 47.5975055 ], [ 34.4471222, 47.5974259 ], [ 34.4470981, 47.5973716 ], [ 34.4470605, 47.5973427 ], [ 34.4469935, 47.5973282 ], [ 34.446905, 47.5973373 ], [ 34.4468325, 47.5973355 ], [ 34.4467507, 47.5973174 ], [ 34.4466515, 47.5972676 ], [ 34.4465697, 47.5971989 ], [ 34.4465174, 47.5971437 ], [ 34.4464101, 47.5969773 ], [ 34.4462639, 47.5968164 ], [ 34.4459072, 47.5965288 ], [ 34.4455182, 47.5962557 ], [ 34.4452929, 47.5960893 ], [ 34.4448584, 47.5957492 ], [ 34.4445634, 47.5954779 ], [ 34.4444239, 47.5953187 ], [ 34.4442603, 47.5951415 ], [ 34.4441825, 47.5950962 ], [ 34.4440484, 47.595051 ], [ 34.4438875, 47.5950257 ], [ 34.4437373, 47.5949642 ], [ 34.4436032, 47.5948258 ], [ 34.4434342, 47.5946259 ], [ 34.4433336, 47.594512 ], [ 34.4432008, 47.5943637 ], [ 34.4430345, 47.5942081 ], [ 34.4428548, 47.5940815 ], [ 34.4426429, 47.593944 ], [ 34.4424444, 47.5938355 ], [ 34.4418088, 47.5935425 ], [ 34.4417363, 47.59349 ], [ 34.4416881, 47.5934357 ], [ 34.4416666, 47.5933797 ], [ 34.4416586, 47.5933091 ], [ 34.4416505, 47.5930432 ], [ 34.441629, 47.5927864 ], [ 34.4415392, 47.5924951 ], [ 34.4414091, 47.5920737 ], [ 34.4413581, 47.5919868 ], [ 34.4413005, 47.5919344 ], [ 34.4411972, 47.591872 ], [ 34.4410725, 47.5918439 ], [ 34.4408043, 47.5918331 ], [ 34.4406044, 47.5918674 ], [ 34.4405159, 47.5919127 ], [ 34.440473, 47.5919588 ], [ 34.4404382, 47.5920411 ], [ 34.4404341, 47.5921623 ], [ 34.4404878, 47.5922555 ], [ 34.4405682, 47.5923278 ], [ 34.4406903, 47.5923884 ], [ 34.440819, 47.5924101 ], [ 34.44098, 47.5924137 ], [ 34.4411409, 47.592392 ], [ 34.4412428, 47.5923776 ], [ 34.4412965, 47.592392 ], [ 34.4413394, 47.59243 ], [ 34.4413608, 47.5924752 ], [ 34.4414118, 47.592752 ], [ 34.4414332, 47.5930866 ], [ 34.4414306, 47.5933073 ], [ 34.4414252, 47.5933779 ], [ 34.4413957, 47.5934574 ], [ 34.4413528, 47.5935859 ], [ 34.4413367, 47.5936799 ], [ 34.4413233, 47.593859 ], [ 34.4413474, 47.5940453 ], [ 34.4413367, 47.5941846 ], [ 34.4412696, 47.5943347 ], [ 34.4411784, 47.5944469 ], [ 34.441039, 47.5946061 ], [ 34.4409049, 47.5947001 ], [ 34.4407654, 47.5947797 ], [ 34.440701, 47.5948629 ], [ 34.440701, 47.5949714 ], [ 34.4407502, 47.5950556 ], [ 34.4409531, 47.5951993 ], [ 34.4410604, 47.5952608 ], [ 34.4411033, 47.5953368 ], [ 34.4411194, 47.5954381 ], [ 34.4410819, 47.5955611 ], [ 34.440996, 47.5956624 ], [ 34.440819, 47.5958324 ], [ 34.4405079, 47.596129 ], [ 34.4404542, 47.5962701 ], [ 34.4404918, 47.5964257 ], [ 34.4405937, 47.596574 ], [ 34.4407064, 47.5967295 ], [ 34.4408512, 47.5968742 ], [ 34.4412513, 47.5971907 ], [ 34.4417632, 47.5975181 ], [ 34.442303, 47.5979144 ], [ 34.4424895, 47.5980857 ], [ 34.4425835, 47.5981904 ], [ 34.4426065, 47.5982531 ], [ 34.4425946, 47.5982724 ], [ 34.442533, 47.5982959 ], [ 34.4424418, 47.5983031 ], [ 34.4422781, 47.5983104 ], [ 34.4420716, 47.5983194 ], [ 34.4418704, 47.5983357 ], [ 34.4417819, 47.5983465 ], [ 34.4416746, 47.5983682 ], [ 34.4416324, 47.598381 ], [ 34.441615, 47.5983862 ], [ 34.4415486, 47.5984062 ], [ 34.441444, 47.5984487 ], [ 34.4413276, 47.5984881 ], [ 34.4413192, 47.5984916 ], [ 34.4413065, 47.5984938 ], [ 34.4412274, 47.5985075 ], [ 34.4410792, 47.5985256 ], [ 34.4409424, 47.5985401 ], [ 34.4408019, 47.5985547 ], [ 34.440786, 47.5985564 ], [ 34.4406916, 47.5985663 ], [ 34.4406073, 47.5985769 ], [ 34.4405826, 47.59858 ], [ 34.4404972, 47.5985907 ], [ 34.4403849, 47.5986056 ], [ 34.4403684, 47.5986077 ], [ 34.440347, 47.5986106 ], [ 34.4402611, 47.5986251 ], [ 34.4402074, 47.5986363 ], [ 34.4401909, 47.5986397 ], [ 34.4401659, 47.598645 ], [ 34.4400747, 47.5986621 ], [ 34.4399942, 47.5986893 ], [ 34.4399098, 47.5987173 ], [ 34.4398784, 47.5987321 ], [ 34.4398675, 47.5987372 ], [ 34.4398561, 47.5987426 ], [ 34.4398065, 47.5987679 ], [ 34.4397247, 47.5988263 ], [ 34.4396724, 47.5988683 ], [ 34.4396093, 47.5989154 ], [ 34.4395868, 47.5989264 ], [ 34.4395747, 47.5989323 ], [ 34.439498, 47.5989696 ], [ 34.4393881, 47.5990022 ], [ 34.4393322, 47.599014 ], [ 34.4393163, 47.5990174 ], [ 34.4393066, 47.5990186 ], [ 34.4392607, 47.599023 ], [ 34.4391869, 47.5990212 ], [ 34.4391285, 47.5990173 ], [ 34.4391076, 47.5990131 ], [ 34.4390944, 47.5990085 ], [ 34.4389093, 47.5989515 ], [ 34.4387993, 47.5989371 ], [ 34.4386947, 47.598938 ], [ 34.4386411, 47.5989542 ], [ 34.438566, 47.5989913 ], [ 34.4385043, 47.5990401 ], [ 34.4384667, 47.5990754 ], [ 34.4382575, 47.5992608 ], [ 34.4378599, 47.5996076 ], [ 34.4378155, 47.5996509 ], [ 34.4378089, 47.5996574 ], [ 34.4376715, 47.5997916 ], [ 34.4375266, 47.5999562 ], [ 34.4374488, 47.6000314 ], [ 34.437438, 47.6000418 ], [ 34.4373816, 47.6000962 ], [ 34.4373724, 47.6001051 ], [ 34.4373402, 47.6001362 ], [ 34.437253, 47.6002094 ], [ 34.4371712, 47.6002655 ], [ 34.4370975, 47.6003107 ], [ 34.437024, 47.6003453 ], [ 34.4370131, 47.6003506 ], [ 34.4370059, 47.6003539 ], [ 34.4369231, 47.600374 ], [ 34.4343913, 47.5988249 ], [ 34.4345881, 47.5975615 ], [ 34.4355321, 47.5934423 ], [ 34.4356884, 47.5927605 ], [ 34.4381266, 47.5839679 ], [ 34.4369201, 47.5844671 ], [ 34.4351991, 47.5847131 ], [ 34.4358411, 47.5834465 ], [ 34.4346008, 47.5831222 ], [ 34.4337372, 47.5829057 ], [ 34.4328695, 47.5826895 ], [ 34.4319689, 47.5824624 ], [ 34.4319323, 47.5824532 ], [ 34.431002, 47.582226 ], [ 34.4301313, 47.5819993 ], [ 34.4292639, 47.5817848 ], [ 34.4283218, 47.5815471 ], [ 34.4272306, 47.5812365 ], [ 34.4270256, 47.5811489 ], [ 34.4269851, 47.5811316 ], [ 34.426246, 47.5808154 ], [ 34.4260607, 47.5807465 ], [ 34.4259886, 47.5807169 ], [ 34.4247613, 47.5833179 ], [ 34.4235679, 47.5831241 ], [ 34.4239326, 47.5822148 ], [ 34.419621, 47.5813311 ], [ 34.4191843, 47.5816936 ], [ 34.4189577, 47.5823893 ], [ 34.4174185, 47.584371 ], [ 34.4166449, 47.5844553 ], [ 34.4138789, 47.5865212 ], [ 34.4135273, 47.5874118 ], [ 34.4131366, 47.5875857 ], [ 34.4134457, 47.588644 ], [ 34.4116706, 47.5890604 ], [ 34.4118759, 47.589537 ], [ 34.411962, 47.5897434 ], [ 34.411978, 47.5897818 ], [ 34.4123565, 47.5906892 ], [ 34.4125273, 47.5911562 ], [ 34.4126352, 47.5915261 ], [ 34.4126938, 47.5918717 ], [ 34.4127251, 47.5921992 ], [ 34.4126981, 47.5925327 ], [ 34.4126309, 47.5928745 ], [ 34.4125789, 47.5930991 ], [ 34.4122412, 47.5930558 ], [ 34.4121749, 47.5932644 ], [ 34.4119097, 47.593801 ], [ 34.4083119, 47.5901236 ], [ 34.4078478, 47.5902391 ], [ 34.4072401, 47.5907011 ], [ 34.4070578, 47.5919792 ], [ 34.4045565, 47.5919589 ], [ 34.4043952, 47.5929235 ], [ 34.4040213, 47.5929032 ], [ 34.4038716, 47.5943926 ], [ 34.4038099, 47.594398 ], [ 34.4029581, 47.5977814 ], [ 34.3992404, 47.5974847 ], [ 34.398209, 47.5978535 ], [ 34.396615, 47.5987176 ], [ 34.3955993, 47.5999821 ], [ 34.3950211, 47.6012361 ], [ 34.3938904, 47.6011274 ], [ 34.3929745, 47.6038156 ], [ 34.3915297, 47.6035553 ], [ 34.38585, 47.6024302 ], [ 34.3850433, 47.6019459 ], [ 34.3838941, 47.6021694 ], [ 34.3809659, 47.6015659 ], [ 34.3790653, 47.6012828 ], [ 34.3787448, 47.60132 ], [ 34.3749725, 47.6004701 ], [ 34.3748224, 47.6007213 ], [ 34.3734315, 47.6031027 ], [ 34.3731837, 47.6035594 ], [ 34.3718687, 47.6057135 ], [ 34.3717397, 47.6057007 ], [ 34.3666835, 47.6042268 ], [ 34.3674152, 47.6027828 ], [ 34.3599555, 47.6008815 ], [ 34.3573986, 47.6055514 ], [ 34.3532857, 47.6045325 ], [ 34.3530716, 47.6047852 ], [ 34.3499128, 47.6038346 ], [ 34.3495559, 47.6034616 ], [ 34.3490562, 47.6031848 ], [ 34.3448623, 47.6022221 ], [ 34.3440438, 47.601947 ], [ 34.3390265, 47.6002607 ], [ 34.3239768, 47.5967715 ], [ 34.2995979, 47.6015709 ], [ 34.2885315, 47.6038263 ], [ 34.2852504, 47.5960795 ], [ 34.2887897, 47.5953005 ], [ 34.3068016, 47.5913356 ], [ 34.3069966, 47.5912927 ], [ 34.3070284, 47.5910661 ], [ 34.3073396, 47.5897754 ], [ 34.3078838, 47.5877836 ], [ 34.3079955, 47.5873517 ], [ 34.3080074, 47.5872191 ], [ 34.3079502, 47.5871384 ], [ 34.3072012, 47.5873141 ], [ 34.3061182, 47.5875574 ], [ 34.3060495, 47.5875728 ], [ 34.3048852, 47.5878314 ], [ 34.3046366, 47.5878901 ], [ 34.3041839, 47.5879909 ], [ 34.3032333, 47.5881955 ], [ 34.3025268, 47.5883406 ], [ 34.3020687, 47.5884309 ], [ 34.301658, 47.5885187 ], [ 34.2921558, 47.5905512 ], [ 34.2920719, 47.5904145 ], [ 34.2913425, 47.5894086 ], [ 34.2899684, 47.5897697 ], [ 34.2897185, 47.5894327 ], [ 34.2850428, 47.590528 ], [ 34.2845609, 47.5893725 ] ] ] } }
]
}
