{
"type": "FeatureCollection",
"name": "nyiregyhaza_hu",
"crs": { "type": "name", "properties": { "name": "urn:ogc:def:crs:OGC:1.3:CRS84" } },
"features": [
{ "type": "Feature", "properties": { }, "geometry": { "type": "Polygon", "coordinates": [ [ [ 21.5575186, 47.916191 ], [ 21.569714, 47.9105877 ], [ 21.5719339, 47.909777 ], [ 21.5836038, 47.9049477 ], [ 21.6001631, 47.8976351 ], [ 21.6085392, 47.8937375 ], [ 21.6401448, 47.8800854 ], [ 21.6404713, 47.8751246 ], [ 21.6454672, 47.8731096 ], [ 21.6464866, 47.8708054 ], [ 21.6463922, 47.868898 ], [ 21.6457277, 47.8670096 ], [ 21.645615, 47.8647306 ], [ 21.6501425, 47.8646292 ], [ 21.652344, 47.864767 ], [ 21.6530789, 47.8647221 ], [ 21.657495, 47.8644641 ], [ 21.6608435, 47.8636262 ], [ 21.6624797, 47.8624424 ], [ 21.6674735, 47.8604265 ], [ 21.6729993, 47.8576357 ], [ 21.6741122, 47.8572324 ], [ 21.6746542, 47.8568357 ], [ 21.6768606, 47.855645 ], [ 21.6779731, 47.8552354 ], [ 21.6807024, 47.8532702 ], [ 21.680046, 47.8513818 ], [ 21.6793994, 47.8498713 ], [ 21.6793042, 47.8479701 ], [ 21.6803213, 47.8456593 ], [ 21.6831835, 47.8463569 ], [ 21.6876903, 47.8458763 ], [ 21.6922452, 47.8465351 ], [ 21.6933767, 47.8465093 ], [ 21.6979215, 47.8467838 ], [ 21.6984827, 47.846771 ], [ 21.7001562, 47.8463546 ], [ 21.7013261, 47.8470904 ], [ 21.7019345, 47.8478329 ], [ 21.7030279, 47.8470515 ], [ 21.7041307, 47.8466418 ], [ 21.7047011, 47.8466288 ], [ 21.7052622, 47.8466159 ], [ 21.7053007, 47.8473776 ], [ 21.7076407, 47.8488492 ], [ 21.7116155, 47.8491362 ], [ 21.7139171, 47.8498459 ], [ 21.7150295, 47.8494422 ], [ 21.7252038, 47.8492078 ], [ 21.7365393, 47.8497083 ], [ 21.7449819, 47.8487498 ], [ 21.7506692, 47.8493801 ], [ 21.7671208, 47.8501365 ], [ 21.7683901, 47.8527728 ], [ 21.7685084, 47.8550578 ], [ 21.7691087, 47.8558001 ], [ 21.7703785, 47.8584426 ], [ 21.7704571, 47.8599597 ], [ 21.770477, 47.8603437 ], [ 21.7705164, 47.8611053 ], [ 21.7711655, 47.8626091 ], [ 21.7707724, 47.8660469 ], [ 21.7714219, 47.8675569 ], [ 21.7710288, 47.8709947 ], [ 21.7706253, 47.8740546 ], [ 21.7702321, 47.8774924 ], [ 21.7701634, 47.8870171 ], [ 21.77038, 47.891197 ], [ 21.771001, 47.8923294 ], [ 21.771018, 47.8926566 ], [ 21.7717494, 47.8957404 ], [ 21.7723505, 47.8964889 ], [ 21.7724687, 47.8987677 ], [ 21.7753047, 47.8987011 ], [ 21.7866713, 47.8995807 ], [ 21.7883547, 47.8991566 ], [ 21.7889164, 47.8991433 ], [ 21.7911019, 47.8975665 ], [ 21.7922147, 47.897162 ], [ 21.7949817, 47.8959558 ], [ 21.7983191, 47.8947298 ], [ 21.8017072, 47.8946495 ], [ 21.806237, 47.894542 ], [ 21.8106575, 47.8925335 ], [ 21.8144959, 47.8901543 ], [ 21.820659, 47.8888665 ], [ 21.8215145, 47.9050716 ], [ 21.8300866, 47.9065325 ], [ 21.8297042, 47.9099847 ], [ 21.8285714, 47.9100118 ], [ 21.8286317, 47.9111511 ], [ 21.8303355, 47.9111104 ], [ 21.8311392, 47.9156605 ], [ 21.8288534, 47.9153371 ], [ 21.8289945, 47.9179997 ], [ 21.8369966, 47.9193331 ], [ 21.8369762, 47.9189492 ], [ 21.8437943, 47.9191697 ], [ 21.8433446, 47.9214622 ], [ 21.8429043, 47.9237606 ], [ 21.8418725, 47.9256888 ], [ 21.8414522, 47.9283649 ], [ 21.8416549, 47.9321731 ], [ 21.8412254, 47.9348494 ], [ 21.8332812, 47.9346557 ], [ 21.8334833, 47.9384638 ], [ 21.8340654, 47.9388281 ], [ 21.8342068, 47.9414907 ], [ 21.8347985, 47.9418609 ], [ 21.8354415, 47.9433706 ], [ 21.8348794, 47.9433841 ], [ 21.8350409, 47.9464244 ], [ 21.835684, 47.9479342 ], [ 21.8357445, 47.9490736 ], [ 21.8364373, 47.9513447 ], [ 21.8359873, 47.9536433 ], [ 21.8366799, 47.9559083 ], [ 21.8374041, 47.9589413 ], [ 21.8374242, 47.959319 ], [ 21.8380162, 47.9596892 ], [ 21.8383399, 47.9657759 ], [ 21.8389428, 47.9665241 ], [ 21.839667, 47.9695508 ], [ 21.8402792, 47.9702987 ], [ 21.8393475, 47.9741279 ], [ 21.8394285, 47.9756511 ], [ 21.8390483, 47.9790887 ], [ 21.8367597, 47.9787654 ], [ 21.8367999, 47.9795209 ], [ 21.8364307, 47.9833426 ], [ 21.8358681, 47.9833561 ], [ 21.8353866, 47.9848928 ], [ 21.8348148, 47.9849065 ], [ 21.8348348, 47.9852842 ], [ 21.8342723, 47.9852977 ], [ 21.8342927, 47.9856816 ], [ 21.8337209, 47.9856953 ], [ 21.8331984, 47.9864642 ], [ 21.832064, 47.9864914 ], [ 21.8321248, 47.9876369 ], [ 21.8253275, 47.9877993 ], [ 21.8252871, 47.9870377 ], [ 21.824695, 47.9866675 ], [ 21.8224062, 47.9863439 ], [ 21.82117, 47.9857259 ], [ 21.8194942, 47.9848881 ], [ 21.8183399, 47.9845375 ], [ 21.8172055, 47.9845645 ], [ 21.8143138, 47.9834863 ], [ 21.8147653, 47.981194 ], [ 21.8140933, 47.9793067 ], [ 21.811242, 47.97899 ], [ 21.811182, 47.9778507 ], [ 21.8075382, 47.9763005 ], [ 21.807454, 47.9758653 ], [ 21.806752, 47.9757997 ], [ 21.803768, 47.9752129 ], [ 21.802103, 47.9748458 ], [ 21.798208, 47.9746114 ], [ 21.7981503, 47.9745499 ], [ 21.7938436, 47.9745695 ], [ 21.790884, 47.9751086 ], [ 21.787814, 47.9757376 ], [ 21.7872391, 47.9760568 ], [ 21.7854795, 47.9761041 ], [ 21.7850426, 47.9769436 ], [ 21.7844709, 47.976957 ], [ 21.7839268, 47.9777372 ], [ 21.7822317, 47.9773941 ], [ 21.7800226, 47.9785867 ], [ 21.7777937, 47.9794016 ], [ 21.7751889, 47.979505 ], [ 21.7755647, 47.9802165 ], [ 21.7754217, 47.9808729 ], [ 21.7754956, 47.9826536 ], [ 21.7757531, 47.983185 ], [ 21.77821, 47.9828834 ], [ 21.7803768, 47.987956 ], [ 21.7561695, 47.9890454 ], [ 21.7563857, 47.9932313 ], [ 21.7575203, 47.9932049 ], [ 21.7577172, 47.9970131 ], [ 21.7560198, 47.9970526 ], [ 21.756118, 47.9989536 ], [ 21.7605039, 47.9987774 ], [ 21.761636, 47.9987273 ], [ 21.7640241, 47.9986218 ], [ 21.7665434, 47.9969922 ], [ 21.7700628, 47.9969023 ], [ 21.7698299, 47.9977096 ], [ 21.7713534, 47.997688 ], [ 21.7704414, 48.00123 ], [ 21.7682554, 48.0032396 ], [ 21.767782, 48.0051539 ], [ 21.7696272, 48.0077766 ], [ 21.7731218, 48.0096044 ], [ 21.7754706, 48.0110683 ], [ 21.7760253, 48.0217248 ], [ 21.7737274, 48.0221376 ], [ 21.7703982, 48.0226191 ], [ 21.7694209, 48.0256859 ], [ 21.7688882, 48.0264609 ], [ 21.7685632, 48.0297181 ], [ 21.7647579, 48.0299824 ], [ 21.7647015, 48.0306763 ], [ 21.7657086, 48.0307258 ], [ 21.7657677, 48.0318654 ], [ 21.7589449, 48.0316463 ], [ 21.7578095, 48.0316727 ], [ 21.7561213, 48.0320902 ], [ 21.7552022, 48.0363024 ], [ 21.7512023, 48.0367655 ], [ 21.7503631, 48.0368626 ], [ 21.7486244, 48.0370791 ], [ 21.7481162, 48.0350151 ], [ 21.7436962, 48.0372726 ], [ 21.7427884, 48.037731 ], [ 21.7312344, 48.0358482 ], [ 21.7318104, 48.0341781 ], [ 21.7323244, 48.0330256 ], [ 21.7322657, 48.03188 ], [ 21.7333621, 48.0310922 ], [ 21.7270829, 48.0304743 ], [ 21.7225027, 48.0298233 ], [ 21.7222305, 48.0244918 ], [ 21.7213834, 48.0244373 ], [ 21.7229191, 48.0157162 ], [ 21.718912, 48.0150456 ], [ 21.713214, 48.0147916 ], [ 21.7096206, 48.0145383 ], [ 21.7092393, 48.0145109 ], [ 21.7096677, 48.0178536 ], [ 21.7094773, 48.0188409 ], [ 21.7086793, 48.0229785 ], [ 21.7088173, 48.0248195 ], [ 21.709382, 48.0285989 ], [ 21.7059851, 48.0286765 ], [ 21.7060043, 48.0290542 ], [ 21.7025981, 48.0291319 ], [ 21.702579, 48.0287542 ], [ 21.6963389, 48.0288963 ], [ 21.6968847, 48.0373559 ], [ 21.6925185, 48.0375349 ], [ 21.6799175, 48.0380514 ], [ 21.6802501, 48.0383779 ], [ 21.6806111, 48.0385436 ], [ 21.6810358, 48.0387707 ], [ 21.6813473, 48.0390168 ], [ 21.6814238, 48.0398454 ], [ 21.6813937, 48.0398401 ], [ 21.6788935, 48.0394945 ], [ 21.6754951, 48.0389183 ], [ 21.6497234, 48.0390849 ], [ 21.6497046, 48.0387072 ], [ 21.6502635, 48.0378906 ], [ 21.6507646, 48.0371585 ], [ 21.6501165, 48.035648 ], [ 21.6509874, 48.0302972 ], [ 21.6548243, 48.0275456 ], [ 21.6562418, 48.0263837 ], [ 21.658642, 48.0244162 ], [ 21.6637402, 48.0204782 ], [ 21.6657505, 48.018919 ], [ 21.6657127, 48.0181636 ], [ 21.6673728, 48.0173637 ], [ 21.6688088, 48.0170312 ], [ 21.6747422, 48.0157423 ], [ 21.6766009, 48.0156176 ], [ 21.6770862, 48.0155851 ], [ 21.6787631, 48.0154654 ], [ 21.6836654, 48.0139459 ], [ 21.6870517, 48.0133979 ], [ 21.6881515, 48.0134051 ], [ 21.6876729, 48.0114654 ], [ 21.686764, 48.0077816 ], [ 21.686747, 48.0074431 ], [ 21.6867257, 48.00702 ], [ 21.6878606, 48.0069943 ], [ 21.6878032, 48.0058549 ], [ 21.6855229, 48.006127 ], [ 21.684802, 48.0062837 ], [ 21.6829066, 48.0066957 ], [ 21.6827391, 48.0067321 ], [ 21.682272, 48.0060552 ], [ 21.6841091, 48.0057518 ], [ 21.6846338, 48.0056652 ], [ 21.6843219, 48.0044087 ], [ 21.6835602, 48.0043003 ], [ 21.6832414, 48.0037883 ], [ 21.6832284, 48.0037708 ], [ 21.6808516, 48.0042662 ], [ 21.6755015, 48.0054674 ], [ 21.6741744, 48.0057788 ], [ 21.6727152, 48.0013711 ], [ 21.6726344, 48.0005773 ], [ 21.6716629, 48.0005749 ], [ 21.6688412, 48.0011565 ], [ 21.6686629, 48.0003549 ], [ 21.6679467, 47.9975191 ], [ 21.6675219, 47.9960242 ], [ 21.664852, 47.9960884 ], [ 21.662089, 47.9961743 ], [ 21.6620972, 47.9941941 ], [ 21.6632871, 47.9941413 ], [ 21.6631743, 47.9927608 ], [ 21.6630892, 47.991739 ], [ 21.6624141, 47.9917301 ], [ 21.6623456, 47.991176 ], [ 21.6632657, 47.9907434 ], [ 21.6630037, 47.9897121 ], [ 21.6639022, 47.9892224 ], [ 21.6639915, 47.9891778 ], [ 21.6633321, 47.9885705 ], [ 21.6659965, 47.987179 ], [ 21.6661885, 47.9870877 ], [ 21.666909, 47.9867205 ], [ 21.6667463, 47.9865718 ], [ 21.6655578, 47.9854853 ], [ 21.6652781, 47.9852296 ], [ 21.6651589, 47.984678 ], [ 21.6646721, 47.9847763 ], [ 21.6630074, 47.9852301 ], [ 21.6557791, 47.9875911 ], [ 21.6493841, 47.9892297 ], [ 21.6490673, 47.9879672 ], [ 21.6450188, 47.9900607 ], [ 21.6410784, 47.9908263 ], [ 21.6379563, 47.9809884 ], [ 21.6342566, 47.9818618 ], [ 21.6306364, 47.9828195 ], [ 21.625262, 47.9842525 ], [ 21.6153422, 47.9865287 ], [ 21.6046892, 47.9890446 ], [ 21.5999704, 47.9898808 ], [ 21.5988917, 47.9872517 ], [ 21.6006667, 47.9869334 ], [ 21.599292, 47.9830692 ], [ 21.597299, 47.9770191 ], [ 21.5961647, 47.9770439 ], [ 21.5954822, 47.9747775 ], [ 21.5922633, 47.9668448 ], [ 21.5933974, 47.9668199 ], [ 21.5920602, 47.9626585 ], [ 21.5912951, 47.9584907 ], [ 21.5900364, 47.9586873 ], [ 21.5850733, 47.9471952 ], [ 21.5833199, 47.9466579 ], [ 21.5816264, 47.9461297 ], [ 21.5816082, 47.9457519 ], [ 21.5800451, 47.9423096 ], [ 21.5790472, 47.9397138 ], [ 21.5789656, 47.9386962 ], [ 21.5799641, 47.9385896 ], [ 21.5793367, 47.9358902 ], [ 21.5812984, 47.9361685 ], [ 21.5781639, 47.9332547 ], [ 21.5775836, 47.9328892 ], [ 21.5718708, 47.9318665 ], [ 21.5683979, 47.9304231 ], [ 21.5666475, 47.9293142 ], [ 21.5655327, 47.9297227 ], [ 21.5654905, 47.9289639 ], [ 21.5630767, 47.9260195 ], [ 21.5600749, 47.9218477 ], [ 21.5575752, 47.9173281 ], [ 21.5575186, 47.916191 ] ] ] } }
]
}
