{
"type": "FeatureCollection",
"name": "oldenburg_de",
"crs": { "type": "name", "properties": { "name": "urn:ogc:def:crs:OGC:1.3:CRS84" } },
"features": [
{ "type": "Feature", "properties": { }, "geometry": { "type": "Polygon", "coordinates": [ [ [ 8.1291921, 53.1081409 ], [ 8.1292055, 53.1079284 ], [ 8.1302342, 53.1079509 ], [ 8.1302595, 53.1077077 ], [ 8.1307142, 53.1077223 ], [ 8.1650405, 53.1088194 ], [ 8.1747514, 53.109128 ], [ 8.1757681, 53.1093631 ], [ 8.1807167, 53.1105076 ], [ 8.1862786, 53.1117936 ], [ 8.1880233, 53.1119987 ], [ 8.188644, 53.1120716 ], [ 8.1888068, 53.1120913 ], [ 8.1895299, 53.1121791 ], [ 8.1904131, 53.1121895 ], [ 8.1904964, 53.1121899 ], [ 8.1906088, 53.1121921 ], [ 8.190633, 53.1121926 ], [ 8.1906663, 53.1121933 ], [ 8.1907154, 53.1121937 ], [ 8.1918647, 53.1122074 ], [ 8.1919186, 53.1122129 ], [ 8.1921729, 53.1122569 ], [ 8.1952792, 53.113027 ], [ 8.1956871, 53.1130741 ], [ 8.1960018, 53.1130912 ], [ 8.1979503, 53.1129836 ], [ 8.1980786, 53.1129764 ], [ 8.1982667, 53.1129657 ], [ 8.1983472, 53.1129612 ], [ 8.1983731, 53.1129597 ], [ 8.1984145, 53.112957 ], [ 8.1986354, 53.1129429 ], [ 8.1988821, 53.1129291 ], [ 8.199117, 53.1130127 ], [ 8.1994126, 53.1131561 ], [ 8.1999518, 53.1134961 ], [ 8.2002829, 53.1136942 ], [ 8.2005774, 53.1139089 ], [ 8.2007786, 53.114136 ], [ 8.2009674, 53.1140897 ], [ 8.201045, 53.1139266 ], [ 8.201061, 53.113893 ], [ 8.2010787, 53.113856 ], [ 8.2010922, 53.1138276 ], [ 8.2011203, 53.1137686 ], [ 8.2013866, 53.1134233 ], [ 8.2014668, 53.1133553 ], [ 8.2014838, 53.1133395 ], [ 8.2016142, 53.1132181 ], [ 8.2017391, 53.1131103 ], [ 8.2018034, 53.1130667 ], [ 8.2018681, 53.1130354 ], [ 8.2019115, 53.1130144 ], [ 8.2019843, 53.1129978 ], [ 8.2022852, 53.112929 ], [ 8.2024617, 53.1128906 ], [ 8.2024952, 53.1129308 ], [ 8.2025167, 53.1129595 ], [ 8.2025519, 53.1129544 ], [ 8.2027566, 53.1129226 ], [ 8.2027948, 53.1129173 ], [ 8.2030008, 53.1128911 ], [ 8.203554, 53.1127569 ], [ 8.203716, 53.112744 ], [ 8.2037445, 53.1127356 ], [ 8.203836, 53.112696 ], [ 8.2039173, 53.1126809 ], [ 8.2040084, 53.1126693 ], [ 8.2041, 53.1126688 ], [ 8.2041424, 53.1126597 ], [ 8.2042454, 53.1125997 ], [ 8.2043848, 53.1124983 ], [ 8.2043939, 53.112485 ], [ 8.2044113, 53.1124614 ], [ 8.2044288, 53.1124419 ], [ 8.2045177, 53.1123757 ], [ 8.2045606, 53.112297 ], [ 8.20462, 53.1122573 ], [ 8.2047261, 53.1122148 ], [ 8.2047536, 53.1122038 ], [ 8.2047641, 53.1121933 ], [ 8.2048249, 53.1121203 ], [ 8.203579, 53.1104489 ], [ 8.2033587, 53.1100589 ], [ 8.2032497, 53.1098048 ], [ 8.2031469, 53.1095133 ], [ 8.2031021, 53.109308 ], [ 8.2030575, 53.1088815 ], [ 8.2031283, 53.1075046 ], [ 8.2031316, 53.1072705 ], [ 8.2031172, 53.106937 ], [ 8.2030428, 53.106361 ], [ 8.2029441, 53.1056347 ], [ 8.202856, 53.1050039 ], [ 8.2027468, 53.1042169 ], [ 8.2026841, 53.103798 ], [ 8.2026937, 53.1035512 ], [ 8.202723, 53.1034169 ], [ 8.2027651, 53.1032447 ], [ 8.2028083, 53.1031287 ], [ 8.2029703, 53.1027873 ], [ 8.2029796, 53.1027687 ], [ 8.2030004, 53.1027397 ], [ 8.2030496, 53.1026712 ], [ 8.2030777, 53.1026289 ], [ 8.2031591, 53.1024259 ], [ 8.2031724, 53.1022678 ], [ 8.2031655, 53.1021909 ], [ 8.203082, 53.1019023 ], [ 8.2025285, 53.1015012 ], [ 8.2021958, 53.1012848 ], [ 8.200334, 53.1000301 ], [ 8.1997445, 53.0996734 ], [ 8.199333, 53.0994312 ], [ 8.1983831, 53.0988963 ], [ 8.1981597, 53.09877 ], [ 8.1979007, 53.098607 ], [ 8.197643, 53.0984353 ], [ 8.1975119, 53.098335 ], [ 8.1971875, 53.0980594 ], [ 8.196997, 53.0978599 ], [ 8.1967575, 53.0975816 ], [ 8.1966541, 53.097457 ], [ 8.1963373, 53.0970929 ], [ 8.1960064, 53.0967575 ], [ 8.1957866, 53.0965524 ], [ 8.1953868, 53.0962285 ], [ 8.1952717, 53.0961442 ], [ 8.1952007, 53.0960914 ], [ 8.195042, 53.0959733 ], [ 8.195013, 53.0959516 ], [ 8.1950595, 53.0959294 ], [ 8.1950878, 53.0959174 ], [ 8.1950979, 53.0959131 ], [ 8.1951889, 53.0958746 ], [ 8.1950925, 53.0957695 ], [ 8.1950498, 53.095723 ], [ 8.1949813, 53.095653 ], [ 8.1951342, 53.0955837 ], [ 8.1958768, 53.0952269 ], [ 8.1960313, 53.095143 ], [ 8.1960828, 53.0950909 ], [ 8.196149, 53.0950035 ], [ 8.196184, 53.094821 ], [ 8.1961164, 53.0946017 ], [ 8.1960697, 53.0943511 ], [ 8.1960048, 53.0942838 ], [ 8.1958396, 53.0942126 ], [ 8.1957797, 53.0941868 ], [ 8.1957387, 53.0941822 ], [ 8.195618, 53.0941844 ], [ 8.195574, 53.0941908 ], [ 8.1955315, 53.0941905 ], [ 8.1954899, 53.0941935 ], [ 8.1954536, 53.0941961 ], [ 8.1953437, 53.0942041 ], [ 8.1952765, 53.0942029 ], [ 8.1952458, 53.0942076 ], [ 8.195143, 53.0942228 ], [ 8.1951186, 53.0942269 ], [ 8.1948896, 53.0942143 ], [ 8.194797, 53.0941997 ], [ 8.1946854, 53.0941554 ], [ 8.1946071, 53.0941056 ], [ 8.1945721, 53.094067 ], [ 8.1945341, 53.0940136 ], [ 8.1945204, 53.0939826 ], [ 8.1945098, 53.093934 ], [ 8.1945096, 53.093875 ], [ 8.1945308, 53.0937363 ], [ 8.1945941, 53.0935685 ], [ 8.1946253, 53.0934639 ], [ 8.1946592, 53.0933128 ], [ 8.1946712, 53.0932596 ], [ 8.1946699, 53.0932276 ], [ 8.1946652, 53.0932015 ], [ 8.1946469, 53.093099 ], [ 8.1946242, 53.0929938 ], [ 8.194618, 53.0929759 ], [ 8.1945637, 53.092821 ], [ 8.1945461, 53.0927709 ], [ 8.1945131, 53.0926673 ], [ 8.1944129, 53.0923526 ], [ 8.1943117, 53.0921904 ], [ 8.1941096, 53.0919906 ], [ 8.1942745, 53.0919263 ], [ 8.1943079, 53.0919524 ], [ 8.1945092, 53.0920147 ], [ 8.1945417, 53.0920248 ], [ 8.194576, 53.0920335 ], [ 8.1947389, 53.0920751 ], [ 8.1949004, 53.0921141 ], [ 8.1950229, 53.0921054 ], [ 8.1950511, 53.0921039 ], [ 8.1951075, 53.0920891 ], [ 8.195246, 53.0920526 ], [ 8.1958288, 53.0918698 ], [ 8.1957858, 53.0916987 ], [ 8.1957848, 53.0916947 ], [ 8.1961031, 53.0917178 ], [ 8.1963018, 53.0917275 ], [ 8.1964601, 53.0917334 ], [ 8.196929, 53.0917508 ], [ 8.1975285, 53.0917866 ], [ 8.198212, 53.0917943 ], [ 8.1990367, 53.0918036 ], [ 8.1990429, 53.0917924 ], [ 8.1990543, 53.0917719 ], [ 8.1991573, 53.0915855 ], [ 8.1992601, 53.0914949 ], [ 8.1993163, 53.0914755 ], [ 8.1994217, 53.0914655 ], [ 8.1993461, 53.0913656 ], [ 8.1993259, 53.0913388 ], [ 8.1989812, 53.0908863 ], [ 8.1990717, 53.0908569 ], [ 8.1997143, 53.0908432 ], [ 8.1998306, 53.090861 ], [ 8.2000764, 53.0908995 ], [ 8.2001329, 53.0909046 ], [ 8.2001658, 53.0909042 ], [ 8.2002012, 53.0909038 ], [ 8.2002453, 53.0909033 ], [ 8.2002716, 53.0908993 ], [ 8.2003377, 53.0909064 ], [ 8.2004468, 53.0909334 ], [ 8.2007336, 53.090957 ], [ 8.2012229, 53.0909431 ], [ 8.2013124, 53.0909321 ], [ 8.2016709, 53.0908881 ], [ 8.2018201, 53.090824 ], [ 8.2020837, 53.0906982 ], [ 8.2024577, 53.0905062 ], [ 8.2029142, 53.0902611 ], [ 8.2030516, 53.0902024 ], [ 8.2031396, 53.0901723 ], [ 8.2033515, 53.0901 ], [ 8.2036838, 53.0899449 ], [ 8.2038297, 53.0899228 ], [ 8.203962, 53.0899122 ], [ 8.2040484, 53.0899351 ], [ 8.2043042, 53.0900919 ], [ 8.2043483, 53.0900562 ], [ 8.2043975, 53.0900163 ], [ 8.2044213, 53.089997 ], [ 8.2044402, 53.0899792 ], [ 8.2044757, 53.0899456 ], [ 8.2045427, 53.0898692 ], [ 8.2045575, 53.0898133 ], [ 8.2045237, 53.0897481 ], [ 8.204574, 53.0897045 ], [ 8.2045856, 53.0895762 ], [ 8.2045909, 53.0895619 ], [ 8.2046199, 53.0894848 ], [ 8.2046776, 53.0894161 ], [ 8.2047262, 53.0893775 ], [ 8.204778, 53.0893435 ], [ 8.2050449, 53.0892045 ], [ 8.2051878, 53.0891319 ], [ 8.2053882, 53.0890243 ], [ 8.2055908, 53.0889203 ], [ 8.2056906, 53.0888854 ], [ 8.2059065, 53.088827 ], [ 8.2060988, 53.0887674 ], [ 8.2061252, 53.0887543 ], [ 8.2061121, 53.0887382 ], [ 8.2061416, 53.0887155 ], [ 8.2061535, 53.0887238 ], [ 8.206159, 53.0887187 ], [ 8.2061527, 53.0884835 ], [ 8.2061658, 53.0881011 ], [ 8.2061737, 53.0878221 ], [ 8.2061927, 53.0877622 ], [ 8.2062306, 53.0876766 ], [ 8.206262, 53.0876198 ], [ 8.2063189, 53.0875454 ], [ 8.206452, 53.087416 ], [ 8.206502, 53.0873848 ], [ 8.2066862, 53.0872773 ], [ 8.2068612, 53.0871904 ], [ 8.2072675, 53.087005 ], [ 8.207329, 53.086965 ], [ 8.2075717, 53.0868019 ], [ 8.2076293, 53.0868051 ], [ 8.2077406, 53.0868112 ], [ 8.2077973, 53.0868143 ], [ 8.2078838, 53.086819 ], [ 8.20792, 53.086821 ], [ 8.2084784, 53.0868516 ], [ 8.208523, 53.0867213 ], [ 8.2086932, 53.086735 ], [ 8.2087664, 53.0867409 ], [ 8.2105873, 53.086887 ], [ 8.2113447, 53.0869476 ], [ 8.2135013, 53.0871202 ], [ 8.2137246, 53.0871381 ], [ 8.2142782, 53.0871823 ], [ 8.2143873, 53.08715 ], [ 8.2145344, 53.0869886 ], [ 8.2146695, 53.0868403 ], [ 8.2146789, 53.0868299 ], [ 8.2147664, 53.0866148 ], [ 8.2147831, 53.0865736 ], [ 8.2149486, 53.0861671 ], [ 8.2151477, 53.0859121 ], [ 8.2153232, 53.0856873 ], [ 8.2154822, 53.0854836 ], [ 8.2155501, 53.0853966 ], [ 8.216151, 53.0854931 ], [ 8.2165359, 53.0855549 ], [ 8.2169367, 53.0856193 ], [ 8.2173379, 53.0856846 ], [ 8.2174243, 53.0856984 ], [ 8.2178252, 53.0857627 ], [ 8.2182684, 53.0858338 ], [ 8.2183683, 53.0858492 ], [ 8.2187765, 53.0859189 ], [ 8.2192658, 53.0860022 ], [ 8.2193958, 53.086025 ], [ 8.2200684, 53.0861396 ], [ 8.2203125, 53.0861812 ], [ 8.2206104, 53.0859523 ], [ 8.221099, 53.0855754 ], [ 8.2213776, 53.08536 ], [ 8.222487, 53.0845041 ], [ 8.2225279, 53.084473 ], [ 8.2226199, 53.0844031 ], [ 8.2231914, 53.0839688 ], [ 8.224115, 53.0832669 ], [ 8.224165, 53.0832823 ], [ 8.2242804, 53.0833178 ], [ 8.2243247, 53.0833347 ], [ 8.2243532, 53.0833457 ], [ 8.2245159, 53.0834079 ], [ 8.2245406, 53.0833798 ], [ 8.2248776, 53.083445 ], [ 8.22501, 53.0834706 ], [ 8.2249915, 53.0835008 ], [ 8.2250715, 53.0835172 ], [ 8.226103, 53.0837291 ], [ 8.2263931, 53.0837887 ], [ 8.2264342, 53.0838062 ], [ 8.226459, 53.0837724 ], [ 8.2266974, 53.0838669 ], [ 8.2273285, 53.0841171 ], [ 8.2277846, 53.0844114 ], [ 8.2279466, 53.0845329 ], [ 8.2327022, 53.0868155 ], [ 8.2326935, 53.0868163 ], [ 8.2327858, 53.0868632 ], [ 8.2364491, 53.0865066 ], [ 8.2364895, 53.0864912 ], [ 8.2365949, 53.0865339 ], [ 8.2367436, 53.0865941 ], [ 8.2391203, 53.0872535 ], [ 8.2391269, 53.0872454 ], [ 8.2391763, 53.087185 ], [ 8.2399529, 53.0873958 ], [ 8.2400352, 53.0874188 ], [ 8.2422024, 53.0880239 ], [ 8.2427783, 53.0881847 ], [ 8.2432133, 53.0883086 ], [ 8.2432008, 53.0883873 ], [ 8.2433468, 53.0884291 ], [ 8.2436295, 53.0885105 ], [ 8.2437154, 53.0885352 ], [ 8.2437399, 53.0885423 ], [ 8.2439641, 53.0886007 ], [ 8.2439825, 53.0886057 ], [ 8.2442385, 53.0886783 ], [ 8.2450661, 53.0889131 ], [ 8.2452133, 53.0889548 ], [ 8.2452447, 53.0889637 ], [ 8.2452886, 53.0889762 ], [ 8.2453196, 53.0889849 ], [ 8.2472577, 53.0895365 ], [ 8.2474963, 53.0896045 ], [ 8.2493693, 53.0901377 ], [ 8.2508332, 53.0905534 ], [ 8.2508855, 53.0905682 ], [ 8.2514803, 53.0907383 ], [ 8.2520524, 53.0909006 ], [ 8.2529916, 53.0911671 ], [ 8.2541753, 53.0915022 ], [ 8.2551883, 53.0917889 ], [ 8.255256, 53.0918079 ], [ 8.2557967, 53.0919601 ], [ 8.2561694, 53.0920649 ], [ 8.2565619, 53.0921752 ], [ 8.2566164, 53.0921906 ], [ 8.2570165, 53.092303 ], [ 8.2586036, 53.0927499 ], [ 8.2588309, 53.0928139 ], [ 8.2588856, 53.0928292 ], [ 8.2590205, 53.0928057 ], [ 8.2590805, 53.0928084 ], [ 8.2592877, 53.0928662 ], [ 8.2595145, 53.0929251 ], [ 8.2596667, 53.0929646 ], [ 8.2597969, 53.0929984 ], [ 8.2598593, 53.0930146 ], [ 8.2602744, 53.0931174 ], [ 8.2603408, 53.0931263 ], [ 8.2604187, 53.0931367 ], [ 8.2604608, 53.0931424 ], [ 8.2605005, 53.0931495 ], [ 8.2605593, 53.0931612 ], [ 8.2606065, 53.0931706 ], [ 8.261536, 53.0932967 ], [ 8.261788, 53.0933367 ], [ 8.2630834, 53.0935941 ], [ 8.2631167, 53.0936487 ], [ 8.2631313, 53.0936728 ], [ 8.2632153, 53.0937073 ], [ 8.2632648, 53.0936948 ], [ 8.2634636, 53.093804 ], [ 8.2635516, 53.0939317 ], [ 8.2635712, 53.0939371 ], [ 8.2637471, 53.0939865 ], [ 8.2638183, 53.0940065 ], [ 8.2640267, 53.0940649 ], [ 8.2640478, 53.0940708 ], [ 8.2640947, 53.0939686 ], [ 8.2642389, 53.0939724 ], [ 8.264374, 53.0939983 ], [ 8.2646132, 53.0940675 ], [ 8.2647732, 53.0941298 ], [ 8.2650343, 53.0942204 ], [ 8.2652967, 53.0943197 ], [ 8.266124, 53.0946864 ], [ 8.2667584, 53.0949676 ], [ 8.2668434, 53.0950052 ], [ 8.2671031, 53.0951203 ], [ 8.2670527, 53.0950421 ], [ 8.2671662, 53.0950533 ], [ 8.2673252, 53.0950644 ], [ 8.2673749, 53.0950739 ], [ 8.2674415, 53.0950867 ], [ 8.2675344, 53.0951278 ], [ 8.267593, 53.0951951 ], [ 8.2676394, 53.0952943 ], [ 8.2680863, 53.0954199 ], [ 8.2680993, 53.0954236 ], [ 8.2681528, 53.0954386 ], [ 8.2697383, 53.0958843 ], [ 8.2701274, 53.0959937 ], [ 8.2702071, 53.0960166 ], [ 8.2705915, 53.0961242 ], [ 8.2706665, 53.0961453 ], [ 8.2717447, 53.0964484 ], [ 8.2720738, 53.0964671 ], [ 8.2745978, 53.0966106 ], [ 8.274822, 53.0966198 ], [ 8.2749644, 53.0966257 ], [ 8.2755166, 53.0966611 ], [ 8.276739, 53.0967134 ], [ 8.2768264, 53.0967129 ], [ 8.2768246, 53.0967282 ], [ 8.2768183, 53.0967807 ], [ 8.2769614, 53.0968033 ], [ 8.27701, 53.096811 ], [ 8.2770605, 53.096819 ], [ 8.2798899, 53.0972626 ], [ 8.2800048, 53.0972806 ], [ 8.2800683, 53.0972905 ], [ 8.2797551, 53.0978736 ], [ 8.2796786, 53.098056 ], [ 8.2796596, 53.0981012 ], [ 8.2795814, 53.098459 ], [ 8.2795652, 53.0985273 ], [ 8.2794702, 53.0989275 ], [ 8.2793386, 53.0994818 ], [ 8.2792009, 53.1000761 ], [ 8.2791215, 53.1004182 ], [ 8.2790353, 53.1007899 ], [ 8.2785173, 53.1030233 ], [ 8.2784976, 53.1031296 ], [ 8.2784675, 53.103229 ], [ 8.2783471, 53.1035228 ], [ 8.2782629, 53.1037229 ], [ 8.2781635, 53.1039297 ], [ 8.2779047, 53.104375 ], [ 8.2778932, 53.1043948 ], [ 8.2778842, 53.1044103 ], [ 8.2778732, 53.1044293 ], [ 8.2778566, 53.1044577 ], [ 8.277838, 53.1045347 ], [ 8.2778266, 53.1045817 ], [ 8.2778985, 53.1047658 ], [ 8.2779476, 53.1048212 ], [ 8.2781765, 53.1049618 ], [ 8.2782064, 53.1049801 ], [ 8.2782424, 53.1050021 ], [ 8.2782865, 53.1050291 ], [ 8.2783784, 53.1050851 ], [ 8.2783947, 53.105095 ], [ 8.2784285, 53.1051177 ], [ 8.2786413, 53.1052601 ], [ 8.2787527, 53.1053586 ], [ 8.2788939, 53.1055201 ], [ 8.2789808, 53.105676 ], [ 8.2790283, 53.1059713 ], [ 8.2790978, 53.1061333 ], [ 8.2791712, 53.1062827 ], [ 8.2794178, 53.1067244 ], [ 8.2794446, 53.1067749 ], [ 8.2794725, 53.1068277 ], [ 8.2795498, 53.1069767 ], [ 8.2796008, 53.1070753 ], [ 8.2796811, 53.1072294 ], [ 8.2797073, 53.1072797 ], [ 8.2797962, 53.1074504 ], [ 8.2798685, 53.1075892 ], [ 8.2798787, 53.1076084 ], [ 8.2799122, 53.1076718 ], [ 8.2799226, 53.1076914 ], [ 8.2801076, 53.1080383 ], [ 8.2801198, 53.1080612 ], [ 8.2830575, 53.113578 ], [ 8.2832146, 53.1139259 ], [ 8.2832608, 53.114165 ], [ 8.2833237, 53.1142485 ], [ 8.2835524, 53.1144156 ], [ 8.2836401, 53.1145051 ], [ 8.2847436, 53.1160608 ], [ 8.2847722, 53.1161303 ], [ 8.284773, 53.1162289 ], [ 8.2847115, 53.1164038 ], [ 8.2846128, 53.116624 ], [ 8.2844435, 53.1169092 ], [ 8.2843906, 53.1170413 ], [ 8.2843932, 53.1171604 ], [ 8.2844262, 53.1172382 ], [ 8.2844415, 53.1172571 ], [ 8.2845816, 53.117459 ], [ 8.2846014, 53.1174877 ], [ 8.2846378, 53.1175402 ], [ 8.2847063, 53.1177039 ], [ 8.2846449, 53.1179323 ], [ 8.2845541, 53.1180801 ], [ 8.2846288, 53.1181321 ], [ 8.2853678, 53.1177557 ], [ 8.2854288, 53.1177809 ], [ 8.2854926, 53.1178073 ], [ 8.2855439, 53.1178285 ], [ 8.2855119, 53.1178462 ], [ 8.2856229, 53.117892 ], [ 8.2860731, 53.1176935 ], [ 8.2863208, 53.1191701 ], [ 8.2863195, 53.119263 ], [ 8.2863171, 53.11943 ], [ 8.2863107, 53.1198902 ], [ 8.286293, 53.1211465 ], [ 8.2862604, 53.1212759 ], [ 8.2856983, 53.1213864 ], [ 8.2856505, 53.1213924 ], [ 8.2859562, 53.1225134 ], [ 8.2861975, 53.1233997 ], [ 8.2862301, 53.1233938 ], [ 8.2862465, 53.1234183 ], [ 8.2862573, 53.1234345 ], [ 8.2862718, 53.1234563 ], [ 8.2863381, 53.1237136 ], [ 8.2867512, 53.1246932 ], [ 8.2871342, 53.1256178 ], [ 8.2871805, 53.1257123 ], [ 8.2872325, 53.1258186 ], [ 8.2872525, 53.1258594 ], [ 8.2871874, 53.1259848 ], [ 8.2871636, 53.126044 ], [ 8.2873096, 53.1264609 ], [ 8.2873597, 53.1266039 ], [ 8.287461, 53.1268933 ], [ 8.2876115, 53.1273426 ], [ 8.287852, 53.1278223 ], [ 8.2879199, 53.1280078 ], [ 8.2879675, 53.1283632 ], [ 8.2879949, 53.1286955 ], [ 8.2879938, 53.1288647 ], [ 8.2879931, 53.1289695 ], [ 8.2880072, 53.1293007 ], [ 8.2880144, 53.1293665 ], [ 8.2880273, 53.1294843 ], [ 8.2880732, 53.1297471 ], [ 8.2881359, 53.1299165 ], [ 8.2881758, 53.1300013 ], [ 8.2884638, 53.1305031 ], [ 8.288739, 53.1309652 ], [ 8.2889645, 53.1313241 ], [ 8.2892443, 53.1317442 ], [ 8.2893429, 53.1318771 ], [ 8.2894277, 53.1319828 ], [ 8.2895116, 53.1320658 ], [ 8.2898899, 53.1323914 ], [ 8.2899304, 53.1324171 ], [ 8.2899531, 53.1324315 ], [ 8.2900224, 53.1324758 ], [ 8.2901057, 53.132529 ], [ 8.290641, 53.1330375 ], [ 8.2909969, 53.1333081 ], [ 8.2913544, 53.1335599 ], [ 8.2914713, 53.1336284 ], [ 8.2917492, 53.1337914 ], [ 8.2922455, 53.1340603 ], [ 8.2927299, 53.1343227 ], [ 8.2931038, 53.1345746 ], [ 8.2931539, 53.1346083 ], [ 8.2934655, 53.1348214 ], [ 8.2936869, 53.1349727 ], [ 8.2940907, 53.1353139 ], [ 8.2944459, 53.1356089 ], [ 8.2946061, 53.1357419 ], [ 8.29501, 53.1361862 ], [ 8.2951445, 53.1363341 ], [ 8.295389, 53.1367042 ], [ 8.2960635, 53.1377199 ], [ 8.2960849, 53.1377458 ], [ 8.2961212, 53.1377897 ], [ 8.2961509, 53.1378256 ], [ 8.2964477, 53.1381869 ], [ 8.2969742, 53.1385947 ], [ 8.2976282, 53.1389313 ], [ 8.2983839, 53.1391877 ], [ 8.3003142, 53.1397157 ], [ 8.300583, 53.1397892 ], [ 8.3006325, 53.1398034 ], [ 8.3006367, 53.1398437 ], [ 8.3006466, 53.139939 ], [ 8.3006491, 53.1399628 ], [ 8.300596, 53.1400083 ], [ 8.3004546, 53.1401601 ], [ 8.2999741, 53.1407376 ], [ 8.2993147, 53.1415294 ], [ 8.299198, 53.1416212 ], [ 8.2991238, 53.1416619 ], [ 8.2991624, 53.141948 ], [ 8.2992716, 53.142141 ], [ 8.2993379, 53.1423162 ], [ 8.2995118, 53.1427751 ], [ 8.2995697, 53.1429905 ], [ 8.299578, 53.1431131 ], [ 8.299584, 53.1432011 ], [ 8.2995412, 53.1434351 ], [ 8.2995357, 53.1434653 ], [ 8.2994771, 53.1436114 ], [ 8.2992895, 53.1439019 ], [ 8.2992164, 53.144059 ], [ 8.2991697, 53.1442145 ], [ 8.2991406, 53.1444328 ], [ 8.299152, 53.1446561 ], [ 8.2992176, 53.1448773 ], [ 8.2993176, 53.1450847 ], [ 8.2994734, 53.1452996 ], [ 8.2996211, 53.1454457 ], [ 8.2996576, 53.1454819 ], [ 8.2998434, 53.145624 ], [ 8.3000415, 53.1457494 ], [ 8.3002769, 53.14586 ], [ 8.3005315, 53.1459571 ], [ 8.3009393, 53.1460712 ], [ 8.3013666, 53.1461547 ], [ 8.3017412, 53.1461918 ], [ 8.302118, 53.1462071 ], [ 8.3026351, 53.1461984 ], [ 8.3030224, 53.1462288 ], [ 8.3031306, 53.1462779 ], [ 8.3034118, 53.1464975 ], [ 8.3035648, 53.1465598 ], [ 8.30366, 53.1465829 ], [ 8.304447, 53.1467767 ], [ 8.3045289, 53.1467908 ], [ 8.3046125, 53.1468051 ], [ 8.3046059, 53.1468246 ], [ 8.3045983, 53.146847 ], [ 8.3045913, 53.1468675 ], [ 8.3046135, 53.1468692 ], [ 8.3052663, 53.1479314 ], [ 8.3056582, 53.1485691 ], [ 8.3058846, 53.1489374 ], [ 8.3059044, 53.1489696 ], [ 8.3058661, 53.1491446 ], [ 8.3058593, 53.1491753 ], [ 8.3058495, 53.1492202 ], [ 8.3060191, 53.1495044 ], [ 8.3065324, 53.1500749 ], [ 8.3063827, 53.1500481 ], [ 8.3063104, 53.1500367 ], [ 8.3065954, 53.1501229 ], [ 8.3066953, 53.1501532 ], [ 8.3069819, 53.1502399 ], [ 8.3077768, 53.1504805 ], [ 8.3078904, 53.1505149 ], [ 8.3084411, 53.1506815 ], [ 8.3094019, 53.1512992 ], [ 8.310475, 53.1519261 ], [ 8.3113464, 53.1522658 ], [ 8.3122382, 53.1527778 ], [ 8.3106429, 53.1538479 ], [ 8.3096021, 53.1534589 ], [ 8.3093451, 53.1534669 ], [ 8.3085263, 53.1548098 ], [ 8.3083523, 53.1547708 ], [ 8.3081953, 53.1550987 ], [ 8.3079643, 53.1557517 ], [ 8.3070565, 53.1557367 ], [ 8.3069465, 53.1559347 ], [ 8.3069565, 53.1561256 ], [ 8.3068935, 53.1562206 ], [ 8.3065865, 53.1563926 ], [ 8.3065605, 53.1565486 ], [ 8.3064966, 53.1566286 ], [ 8.3063236, 53.1567206 ], [ 8.3062396, 53.1568155 ], [ 8.3061536, 53.1569565 ], [ 8.3059126, 53.1570375 ], [ 8.3058636, 53.1572235 ], [ 8.3057957, 53.1573765 ], [ 8.3054747, 53.1578614 ], [ 8.3050988, 53.1578534 ], [ 8.3050668, 53.1581394 ], [ 8.3049388, 53.1587193 ], [ 8.3045778, 53.1605691 ], [ 8.3019952, 53.1607721 ], [ 8.3017393, 53.161733 ], [ 8.3018272, 53.161935 ], [ 8.3018132, 53.1622209 ], [ 8.3019322, 53.1626409 ], [ 8.3021002, 53.1627969 ], [ 8.3021532, 53.1629538 ], [ 8.3020802, 53.1632478 ], [ 8.3011653, 53.1643267 ], [ 8.3007154, 53.1650216 ], [ 8.3003075, 53.1652386 ], [ 8.3000365, 53.1655096 ], [ 8.2997935, 53.1656235 ], [ 8.2997005, 53.1658945 ], [ 8.2996935, 53.1660355 ], [ 8.2995846, 53.1662265 ], [ 8.2992766, 53.1662575 ], [ 8.2986347, 53.1664214 ], [ 8.2978028, 53.1664444 ], [ 8.2972859, 53.1665054 ], [ 8.296923, 53.1665924 ], [ 8.296604, 53.1666464 ], [ 8.296663, 53.1674473 ], [ 8.296827, 53.1677333 ], [ 8.2975449, 53.1676533 ], [ 8.2981224, 53.1675706 ], [ 8.3001365, 53.1672834 ], [ 8.3017632, 53.1672034 ], [ 8.3020222, 53.1671494 ], [ 8.3024931, 53.1672644 ], [ 8.3025131, 53.1676343 ], [ 8.3022614, 53.1676527 ], [ 8.3006825, 53.1677966 ], [ 8.3005453, 53.1678111 ], [ 8.2991496, 53.1679575 ], [ 8.2985989, 53.1680153 ], [ 8.2959621, 53.1683862 ], [ 8.296601, 53.1698851 ], [ 8.296806, 53.1697551 ], [ 8.2972279, 53.1696221 ], [ 8.2983097, 53.1693661 ], [ 8.2988267, 53.1689352 ], [ 8.2997605, 53.1692631 ], [ 8.2996355, 53.1693811 ], [ 8.2989586, 53.170449 ], [ 8.2988536, 53.170579 ], [ 8.2984887, 53.170728 ], [ 8.2977088, 53.1709039 ], [ 8.2969389, 53.1712469 ], [ 8.296478, 53.1717476 ], [ 8.2961841, 53.1720668 ], [ 8.2945633, 53.1754084 ], [ 8.2922715, 53.1804369 ], [ 8.302279, 53.1849184 ], [ 8.3038787, 53.1889929 ], [ 8.3017271, 53.1892519 ], [ 8.3002983, 53.1900688 ], [ 8.3002033, 53.1907817 ], [ 8.3002663, 53.1915216 ], [ 8.2979306, 53.1918846 ], [ 8.2964069, 53.1918306 ], [ 8.2963765, 53.1917621 ], [ 8.2962649, 53.1915106 ], [ 8.2967158, 53.1911827 ], [ 8.2964509, 53.1909417 ], [ 8.295591, 53.1909117 ], [ 8.294283, 53.1911642 ], [ 8.2932424, 53.1907987 ], [ 8.2905014, 53.1898359 ], [ 8.2894446, 53.1894199 ], [ 8.2774481, 53.1889025 ], [ 8.2773343, 53.1889861 ], [ 8.276589, 53.1897518 ], [ 8.2759843, 53.1905813 ], [ 8.2759301, 53.1906557 ], [ 8.2756891, 53.1910906 ], [ 8.2754221, 53.1913006 ], [ 8.2754108, 53.1914337 ], [ 8.2742833, 53.1913236 ], [ 8.2735414, 53.1911446 ], [ 8.2690441, 53.1915146 ], [ 8.2679849, 53.1918245 ], [ 8.2676773, 53.1919145 ], [ 8.2672094, 53.1921585 ], [ 8.2660436, 53.1924714 ], [ 8.262855, 53.1926815 ], [ 8.2618102, 53.1927504 ], [ 8.2606974, 53.1927994 ], [ 8.2588007, 53.1931243 ], [ 8.2576681, 53.1931422 ], [ 8.257095, 53.1931513 ], [ 8.2558982, 53.1933183 ], [ 8.2553452, 53.1932843 ], [ 8.2549063, 53.1933263 ], [ 8.2535615, 53.1936813 ], [ 8.2526007, 53.1938792 ], [ 8.2525202, 53.1939109 ], [ 8.2521747, 53.1940472 ], [ 8.2515768, 53.1945352 ], [ 8.2513319, 53.1945892 ], [ 8.2494711, 53.1950081 ], [ 8.2483213, 53.1950621 ], [ 8.2480064, 53.1949931 ], [ 8.2462035, 53.1959159 ], [ 8.2465527, 53.1968712 ], [ 8.2469735, 53.1973658 ], [ 8.2469955, 53.1981058 ], [ 8.2469705, 53.1986177 ], [ 8.2471448, 53.1987941 ], [ 8.2472585, 53.1991816 ], [ 8.2447856, 53.1994307 ], [ 8.2444642, 53.1996031 ], [ 8.2440136, 53.1997229 ], [ 8.2439359, 53.1999014 ], [ 8.2439826, 53.2004296 ], [ 8.2428173, 53.2003708 ], [ 8.241539, 53.2003062 ], [ 8.240303, 53.200137 ], [ 8.2393804, 53.1999416 ], [ 8.2387919, 53.1996804 ], [ 8.2385248, 53.1994606 ], [ 8.2379016, 53.1992083 ], [ 8.2377889, 53.1991626 ], [ 8.237486, 53.1990786 ], [ 8.236396, 53.1988045 ], [ 8.2357494, 53.1986706 ], [ 8.2355524, 53.1986295 ], [ 8.2354375, 53.198658 ], [ 8.2350448, 53.1988973 ], [ 8.2326394, 53.1986144 ], [ 8.2292344, 53.1982248 ], [ 8.2280854, 53.1981261 ], [ 8.2271402, 53.1980952 ], [ 8.2269066, 53.1981153 ], [ 8.2272671, 53.1990424 ], [ 8.2266828, 53.1992266 ], [ 8.2262352, 53.1993879 ], [ 8.2245974, 53.2002735 ], [ 8.2241945, 53.2004845 ], [ 8.2234354, 53.2008741 ], [ 8.2224541, 53.2013671 ], [ 8.2218164, 53.2016358 ], [ 8.2209079, 53.2018753 ], [ 8.2206986, 53.2019305 ], [ 8.2205243, 53.2019765 ], [ 8.220409, 53.2020069 ], [ 8.2190335, 53.2022816 ], [ 8.2173611, 53.2016735 ], [ 8.2163706, 53.201858 ], [ 8.2132862, 53.2025941 ], [ 8.2104816, 53.2027143 ], [ 8.2100294, 53.2028127 ], [ 8.2096006, 53.2028833 ], [ 8.2091088, 53.2028951 ], [ 8.2087681, 53.20286 ], [ 8.2082322, 53.2028002 ], [ 8.2073985, 53.2026134 ], [ 8.2066044, 53.2024467 ], [ 8.2054164, 53.2022438 ], [ 8.20339, 53.2047617 ], [ 8.2018932, 53.2037415 ], [ 8.2017794, 53.2036639 ], [ 8.2017068, 53.2036144 ], [ 8.2017194, 53.2024979 ], [ 8.201644, 53.2015842 ], [ 8.2014912, 53.2015622 ], [ 8.2014784, 53.2011829 ], [ 8.2017078, 53.2010529 ], [ 8.2017272, 53.2006041 ], [ 8.2009095, 53.2007896 ], [ 8.1999152, 53.2010709 ], [ 8.1995829, 53.2006535 ], [ 8.1990858, 53.200627 ], [ 8.1989469, 53.2001797 ], [ 8.1981515, 53.1984565 ], [ 8.1976234, 53.1973122 ], [ 8.197287, 53.1965835 ], [ 8.197003, 53.1962064 ], [ 8.1954492, 53.194143 ], [ 8.1946172, 53.1930894 ], [ 8.193863, 53.1922337 ], [ 8.1932682, 53.1912195 ], [ 8.1926303, 53.1900987 ], [ 8.1904037, 53.1910141 ], [ 8.1899479, 53.1912045 ], [ 8.1893541, 53.1907602 ], [ 8.1893305, 53.1907425 ], [ 8.1887113, 53.1903162 ], [ 8.1879836, 53.18971 ], [ 8.1871107, 53.1890475 ], [ 8.1860567, 53.1883134 ], [ 8.1852561, 53.187764 ], [ 8.1847391, 53.1873797 ], [ 8.1844414, 53.1871483 ], [ 8.1842358, 53.1870047 ], [ 8.1842085, 53.1869856 ], [ 8.1838497, 53.1867066 ], [ 8.1834026, 53.1863845 ], [ 8.1829879, 53.1860708 ], [ 8.1826285, 53.1858183 ], [ 8.1825698, 53.1858249 ], [ 8.1825886, 53.1857875 ], [ 8.1788447, 53.1830021 ], [ 8.1787659, 53.182941 ], [ 8.1786864, 53.1829058 ], [ 8.178675, 53.1828988 ], [ 8.1773033, 53.1832637 ], [ 8.1766064, 53.1834121 ], [ 8.1761565, 53.1830854 ], [ 8.1749314, 53.1820903 ], [ 8.1743377, 53.1835149 ], [ 8.1722438, 53.1824353 ], [ 8.1705545, 53.183544 ], [ 8.169532, 53.182689 ], [ 8.168632, 53.1819365 ], [ 8.1685947, 53.1819071 ], [ 8.168302, 53.1816759 ], [ 8.1662246, 53.1799728 ], [ 8.1656661, 53.1795404 ], [ 8.1633787, 53.1780224 ], [ 8.1631988, 53.1779578 ], [ 8.1627146, 53.177749 ], [ 8.1625871, 53.1776888 ], [ 8.1614855, 53.1768679 ], [ 8.1614674, 53.1768437 ], [ 8.1614105, 53.1767678 ], [ 8.1613301, 53.1766593 ], [ 8.1612879, 53.1766024 ], [ 8.1610605, 53.1762955 ], [ 8.1610185, 53.1762389 ], [ 8.1607895, 53.1759301 ], [ 8.1607477, 53.1758736 ], [ 8.1605389, 53.1755918 ], [ 8.1605344, 53.1755858 ], [ 8.1604545, 53.1754797 ], [ 8.1600861, 53.1749914 ], [ 8.1599622, 53.174845 ], [ 8.1599124, 53.1747874 ], [ 8.1598701, 53.1747402 ], [ 8.1596055, 53.1744485 ], [ 8.1595975, 53.1744396 ], [ 8.1595604, 53.1743987 ], [ 8.1592177, 53.1740201 ], [ 8.1593498, 53.1739438 ], [ 8.1594561, 53.1738824 ], [ 8.1596757, 53.1737553 ], [ 8.159854, 53.1736523 ], [ 8.1599892, 53.1735742 ], [ 8.1601244, 53.173496 ], [ 8.1602576, 53.173419 ], [ 8.1603928, 53.1733409 ], [ 8.1605271, 53.1732632 ], [ 8.1606694, 53.1731809 ], [ 8.160799, 53.173106 ], [ 8.1608229, 53.173092 ], [ 8.1609737, 53.1730038 ], [ 8.1611261, 53.1729146 ], [ 8.1612551, 53.1728391 ], [ 8.1612374, 53.1728024 ], [ 8.1614031, 53.1727255 ], [ 8.1615737, 53.1726465 ], [ 8.1615779, 53.1726445 ], [ 8.1617481, 53.1725656 ], [ 8.1618184, 53.172533 ], [ 8.1619146, 53.1724884 ], [ 8.1620871, 53.1724083 ], [ 8.162095, 53.1724046 ], [ 8.1622575, 53.1723292 ], [ 8.1624089, 53.172259 ], [ 8.1624276, 53.1722503 ], [ 8.162597, 53.1721716 ], [ 8.1626946, 53.1721263 ], [ 8.1627726, 53.1720901 ], [ 8.1629054, 53.1720284 ], [ 8.1631072, 53.1719348 ], [ 8.1631476, 53.171916 ], [ 8.1631613, 53.17192 ], [ 8.1634662, 53.1720084 ], [ 8.1636239, 53.1720542 ], [ 8.1636889, 53.172073 ], [ 8.1641029, 53.1721932 ], [ 8.1641423, 53.1722046 ], [ 8.1647221, 53.1712147 ], [ 8.1655903, 53.1697323 ], [ 8.1663009, 53.1699287 ], [ 8.1669852, 53.1701185 ], [ 8.1669879, 53.1701192 ], [ 8.1674681, 53.1702521 ], [ 8.1675754, 53.1701769 ], [ 8.1674853, 53.1701516 ], [ 8.1682423, 53.1696321 ], [ 8.1683562, 53.1695539 ], [ 8.1683737, 53.1695418 ], [ 8.1681703, 53.1694998 ], [ 8.1680513, 53.1694916 ], [ 8.1679181, 53.1694962 ], [ 8.1677728, 53.1695099 ], [ 8.1676284, 53.1695235 ], [ 8.1674773, 53.1695304 ], [ 8.1674286, 53.1695292 ], [ 8.1672013, 53.1694876 ], [ 8.1670453, 53.1694398 ], [ 8.1666974, 53.1692993 ], [ 8.1663983, 53.169162 ], [ 8.1661201, 53.1690343 ], [ 8.1660413, 53.1689905 ], [ 8.165986, 53.1689413 ], [ 8.1658797, 53.1688468 ], [ 8.1657093, 53.1686289 ], [ 8.1656436, 53.168565 ], [ 8.1653759, 53.1682302 ], [ 8.1652219, 53.1680351 ], [ 8.1651375, 53.1679531 ], [ 8.1650736, 53.1678611 ], [ 8.1649555, 53.1677645 ], [ 8.1647318, 53.1676749 ], [ 8.1645622, 53.1676278 ], [ 8.1641004, 53.1675531 ], [ 8.1639583, 53.1675432 ], [ 8.1640183, 53.1675152 ], [ 8.1640963, 53.1674895 ], [ 8.1642144, 53.1674031 ], [ 8.1644906, 53.167175 ], [ 8.1645059, 53.1671557 ], [ 8.164523, 53.1670522 ], [ 8.1645244, 53.1670441 ], [ 8.1645956, 53.1669924 ], [ 8.1646136, 53.1669385 ], [ 8.1647556, 53.166852 ], [ 8.1647689, 53.1668352 ], [ 8.164775, 53.1667218 ], [ 8.1648024, 53.1666529 ], [ 8.1648973, 53.1665826 ], [ 8.1649276, 53.166541 ], [ 8.1649299, 53.1664915 ], [ 8.1650177, 53.1663306 ], [ 8.1651263, 53.1661962 ], [ 8.1650649, 53.1660688 ], [ 8.1649815, 53.1658957 ], [ 8.1649686, 53.1658689 ], [ 8.1649554, 53.1658415 ], [ 8.1649433, 53.1658189 ], [ 8.1648367, 53.1656589 ], [ 8.1647032, 53.1655206 ], [ 8.1645418, 53.1653523 ], [ 8.1644831, 53.1653102 ], [ 8.1644638, 53.165301 ], [ 8.164436, 53.1652878 ], [ 8.1643001, 53.1652626 ], [ 8.1638341, 53.1651762 ], [ 8.1634995, 53.165152 ], [ 8.1634834, 53.1651508 ], [ 8.1634119, 53.1651357 ], [ 8.1626431, 53.1649567 ], [ 8.1614843, 53.1643002 ], [ 8.158317, 53.1655468 ], [ 8.1578848, 53.1657242 ], [ 8.1578637, 53.1657056 ], [ 8.1579204, 53.1655542 ], [ 8.1579302, 53.1652385 ], [ 8.1579456, 53.1650159 ], [ 8.1579192, 53.1649207 ], [ 8.1578835, 53.1648684 ], [ 8.1578219, 53.1647937 ], [ 8.1577824, 53.1647455 ], [ 8.1577254, 53.1646753 ], [ 8.1576891, 53.1646281 ], [ 8.1576517, 53.1645801 ], [ 8.1576269, 53.1645469 ], [ 8.1574141, 53.1644016 ], [ 8.1571841, 53.164242 ], [ 8.1570663, 53.1641609 ], [ 8.156417, 53.1637158 ], [ 8.1552985, 53.1629647 ], [ 8.1551733, 53.162868 ], [ 8.1550929, 53.1627809 ], [ 8.1549976, 53.1626345 ], [ 8.1548433, 53.1623686 ], [ 8.154782, 53.1621714 ], [ 8.1546845, 53.1619795 ], [ 8.1546877, 53.1619282 ], [ 8.1547125, 53.1618623 ], [ 8.1548055, 53.1617647 ], [ 8.154968, 53.1616257 ], [ 8.155065, 53.1615313 ], [ 8.1555748, 53.1608021 ], [ 8.1556425, 53.1606797 ], [ 8.1556198, 53.1601359 ], [ 8.1556849, 53.1598766 ], [ 8.1556602, 53.1598702 ], [ 8.1556597, 53.1598504 ], [ 8.155658, 53.1598098 ], [ 8.1557039, 53.1595873 ], [ 8.1557454, 53.1594709 ], [ 8.1557673, 53.159412 ], [ 8.1558636, 53.1593658 ], [ 8.1557301, 53.1593018 ], [ 8.1557012, 53.1592218 ], [ 8.1556543, 53.1591327 ], [ 8.1556141, 53.1590565 ], [ 8.155596, 53.1589832 ], [ 8.1555925, 53.1589483 ], [ 8.1555917, 53.158941 ], [ 8.155591, 53.1589335 ], [ 8.1556091, 53.1588354 ], [ 8.1556165, 53.1587952 ], [ 8.1556372, 53.1586969 ], [ 8.1556373, 53.1586816 ], [ 8.1556379, 53.1585921 ], [ 8.1556279, 53.1585214 ], [ 8.1555992, 53.1583193 ], [ 8.1555837, 53.158221 ], [ 8.1555818, 53.1581315 ], [ 8.155614, 53.1578841 ], [ 8.1556265, 53.1577233 ], [ 8.1556842, 53.1575897 ], [ 8.1557513, 53.1574274 ], [ 8.1558297, 53.157299 ], [ 8.1559321, 53.1571382 ], [ 8.1559786, 53.1570248 ], [ 8.1559775, 53.1569327 ], [ 8.1559634, 53.1568662 ], [ 8.1558112, 53.156676 ], [ 8.15566, 53.1564952 ], [ 8.1556333, 53.1564832 ], [ 8.1556055, 53.1564532 ], [ 8.1556045, 53.1564335 ], [ 8.1555185, 53.1563372 ], [ 8.1553838, 53.1561864 ], [ 8.155318, 53.1561128 ], [ 8.1552197, 53.1559928 ], [ 8.155192, 53.1559679 ], [ 8.1551692, 53.1559476 ], [ 8.1551624, 53.1559426 ], [ 8.1551542, 53.1559367 ], [ 8.1551115, 53.1559055 ], [ 8.1551488, 53.1558762 ], [ 8.1551464, 53.1558587 ], [ 8.1551456, 53.1558529 ], [ 8.1551372, 53.1557908 ], [ 8.1551364, 53.155785 ], [ 8.1551317, 53.1557487 ], [ 8.1551313, 53.155745 ], [ 8.1551291, 53.1557285 ], [ 8.155149, 53.1555926 ], [ 8.1551644, 53.155488 ], [ 8.1552029, 53.155422 ], [ 8.1552221, 53.155389 ], [ 8.1552813, 53.1553139 ], [ 8.1553649, 53.1552416 ], [ 8.1554742, 53.1551471 ], [ 8.1559855, 53.1547049 ], [ 8.1564415, 53.154259 ], [ 8.1565717, 53.1541767 ], [ 8.1567303, 53.1540129 ], [ 8.1569256, 53.1538112 ], [ 8.1567676, 53.1535762 ], [ 8.1565237, 53.1533346 ], [ 8.1564923, 53.1532787 ], [ 8.1565123, 53.1532313 ], [ 8.1565761, 53.1531054 ], [ 8.1563473, 53.1530136 ], [ 8.1563121, 53.1529054 ], [ 8.1561563, 53.1527997 ], [ 8.1561066, 53.1527678 ], [ 8.1560572, 53.1527453 ], [ 8.1558277, 53.1526212 ], [ 8.1556602, 53.1525179 ], [ 8.155519, 53.1524535 ], [ 8.1554247, 53.1523946 ], [ 8.1553186, 53.152366 ], [ 8.155243, 53.1523239 ], [ 8.1551113, 53.1522947 ], [ 8.1550605, 53.152261 ], [ 8.1550193, 53.1522336 ], [ 8.1548808, 53.1521954 ], [ 8.1549413, 53.1521436 ], [ 8.1549705, 53.1521187 ], [ 8.1551429, 53.1519711 ], [ 8.1553095, 53.1518286 ], [ 8.1556599, 53.1515288 ], [ 8.1557474, 53.1514539 ], [ 8.1556213, 53.1514021 ], [ 8.1553451, 53.151309 ], [ 8.1552466, 53.1512699 ], [ 8.1551696, 53.15124 ], [ 8.1550454, 53.1511801 ], [ 8.1550105, 53.1511221 ], [ 8.1548645, 53.15115 ], [ 8.1544543, 53.1511139 ], [ 8.1539341, 53.1500781 ], [ 8.1539291, 53.1500682 ], [ 8.1531358, 53.1499299 ], [ 8.1529189, 53.1498922 ], [ 8.1527883, 53.1498701 ], [ 8.1526829, 53.1498566 ], [ 8.1525667, 53.1498513 ], [ 8.1524327, 53.1498578 ], [ 8.1522863, 53.1498721 ], [ 8.1520361, 53.1498986 ], [ 8.151948, 53.1499079 ], [ 8.151787, 53.1499249 ], [ 8.1516831, 53.1499325 ], [ 8.1515641, 53.1499342 ], [ 8.151389, 53.1499315 ], [ 8.1512795, 53.1499205 ], [ 8.1511174, 53.1499043 ], [ 8.1510703, 53.1498997 ], [ 8.1485103, 53.1496451 ], [ 8.1480759, 53.1496056 ], [ 8.1479936, 53.149601 ], [ 8.1478229, 53.1495971 ], [ 8.1476724, 53.1495989 ], [ 8.147365, 53.1496069 ], [ 8.1472825, 53.149609 ], [ 8.1458193, 53.149647 ], [ 8.1454494, 53.1496566 ], [ 8.1453025, 53.1496604 ], [ 8.1451233, 53.1496651 ], [ 8.1451293, 53.1496415 ], [ 8.145146, 53.1495751 ], [ 8.1451848, 53.1495729 ], [ 8.1452151, 53.149463 ], [ 8.1452863, 53.1491336 ], [ 8.1453001, 53.1490652 ], [ 8.1453273, 53.1489302 ], [ 8.1453593, 53.1488419 ], [ 8.145414, 53.1487535 ], [ 8.1455539, 53.1484207 ], [ 8.1456002, 53.1483585 ], [ 8.1456367, 53.1482274 ], [ 8.1456505, 53.1480534 ], [ 8.1456761, 53.1479207 ], [ 8.1456796, 53.1479027 ], [ 8.1457008, 53.1478348 ], [ 8.145694, 53.1477228 ], [ 8.1456846, 53.1475627 ], [ 8.1456629, 53.1473709 ], [ 8.1456316, 53.1471901 ], [ 8.1455747, 53.1469975 ], [ 8.1454857, 53.1467892 ], [ 8.1452054, 53.1463117 ], [ 8.1449516, 53.1458002 ], [ 8.1447205, 53.1453344 ], [ 8.1447008, 53.1452947 ], [ 8.1446614, 53.1451971 ], [ 8.1446521, 53.1451204 ], [ 8.1446499, 53.1451029 ], [ 8.144768, 53.1447369 ], [ 8.1448997, 53.1443706 ], [ 8.1449479, 53.1442681 ], [ 8.1449902, 53.1441599 ], [ 8.1450337, 53.1440574 ], [ 8.1450475, 53.1440315 ], [ 8.1450777, 53.1440152 ], [ 8.1451215, 53.1439927 ], [ 8.1451434, 53.1439814 ], [ 8.145146, 53.1439688 ], [ 8.1451772, 53.1438164 ], [ 8.1452892, 53.1433507 ], [ 8.1453163, 53.1432308 ], [ 8.1455771, 53.142077 ], [ 8.1456442, 53.1417815 ], [ 8.145796, 53.1414592 ], [ 8.1458751, 53.1413166 ], [ 8.1459475, 53.1411862 ], [ 8.1460295, 53.1410394 ], [ 8.1460358, 53.1409384 ], [ 8.1461339, 53.1405906 ], [ 8.1461397, 53.14057 ], [ 8.1461474, 53.1405426 ], [ 8.1461632, 53.1404865 ], [ 8.146078, 53.1404576 ], [ 8.1460307, 53.1404415 ], [ 8.1459767, 53.1403557 ], [ 8.1459635, 53.1403347 ], [ 8.1459605, 53.1402444 ], [ 8.1459575, 53.1401415 ], [ 8.1459439, 53.1397588 ], [ 8.1459426, 53.1397227 ], [ 8.145938, 53.1395778 ], [ 8.1459318, 53.1394079 ], [ 8.1459301, 53.1393769 ], [ 8.1459224, 53.139159 ], [ 8.1459204, 53.1390926 ], [ 8.1459612, 53.1388899 ], [ 8.145999, 53.1387017 ], [ 8.1460261, 53.1384933 ], [ 8.1460337, 53.1384278 ], [ 8.14604, 53.1382842 ], [ 8.1460482, 53.138075 ], [ 8.1460653, 53.1376279 ], [ 8.1460718, 53.1374391 ], [ 8.1460792, 53.1372416 ], [ 8.1460859, 53.1370314 ], [ 8.1460857, 53.1369827 ], [ 8.1460856, 53.1369556 ], [ 8.1460845, 53.1367626 ], [ 8.1460725, 53.1366859 ], [ 8.1460542, 53.136461 ], [ 8.1460354, 53.1362359 ], [ 8.1460277, 53.1361218 ], [ 8.1460235, 53.1360469 ], [ 8.1460186, 53.1359602 ], [ 8.1460115, 53.1359063 ], [ 8.1459986, 53.1358015 ], [ 8.1459826, 53.1356732 ], [ 8.1459643, 53.1355252 ], [ 8.1459557, 53.1354883 ], [ 8.1458838, 53.1351867 ], [ 8.1458776, 53.13516 ], [ 8.1458398, 53.1350019 ], [ 8.1458249, 53.1349625 ], [ 8.1457513, 53.1347692 ], [ 8.145731, 53.1347153 ], [ 8.1456521, 53.1345813 ], [ 8.1455413, 53.1343942 ], [ 8.145378, 53.134167 ], [ 8.1453231, 53.1340903 ], [ 8.1452468, 53.1339924 ], [ 8.1451753, 53.1339006 ], [ 8.1451033, 53.1338184 ], [ 8.1448144, 53.1334889 ], [ 8.1446716, 53.133326 ], [ 8.1443624, 53.1329329 ], [ 8.1443556, 53.1329222 ], [ 8.1441133, 53.1325125 ], [ 8.1440959, 53.1324974 ], [ 8.1439775, 53.132395 ], [ 8.1440774, 53.1323261 ], [ 8.144061, 53.1323168 ], [ 8.1440485, 53.1323098 ], [ 8.1429588, 53.1316936 ], [ 8.1422691, 53.1313037 ], [ 8.1415097, 53.1308743 ], [ 8.1414993, 53.1308684 ], [ 8.1411773, 53.1306621 ], [ 8.1400844, 53.1300586 ], [ 8.1372189, 53.1284974 ], [ 8.1354605, 53.1275712 ], [ 8.1353238, 53.1274391 ], [ 8.1343843, 53.1270114 ], [ 8.1339694, 53.1270407 ], [ 8.1330545, 53.1270713 ], [ 8.1329546, 53.1270741 ], [ 8.1316661, 53.1270677 ], [ 8.1314482, 53.1249787 ], [ 8.1310081, 53.1217944 ], [ 8.1305254, 53.118778 ], [ 8.1302494, 53.1180391 ], [ 8.1298223, 53.1154872 ], [ 8.1296676, 53.1145839 ], [ 8.1297232, 53.1145835 ], [ 8.1299995, 53.1112413 ], [ 8.1301666, 53.1089969 ], [ 8.1302189, 53.1088429 ], [ 8.1294866, 53.1081908 ], [ 8.1291921, 53.1081409 ] ] ] } }
]
}
