{
"type": "FeatureCollection",
"name": "orsha_by",
"crs": { "type": "name", "properties": { "name": "urn:ogc:def:crs:OGC:1.3:CRS84" } },
"features": [
{ "type": "Feature", "properties": { }, "geometry": { "type": "Polygon", "coordinates": [ [ [ 30.3458009, 54.5045536 ], [ 30.3486483, 54.5044197 ], [ 30.3481887, 54.5020481 ], [ 30.348891, 54.5020305 ], [ 30.349601, 54.5019943 ], [ 30.3500448, 54.501954 ], [ 30.3497983, 54.5014393 ], [ 30.3495782, 54.5009788 ], [ 30.3493226, 54.5005577 ], [ 30.3489379, 54.4998017 ], [ 30.3489238, 54.499706 ], [ 30.3489301, 54.499581 ], [ 30.3487402, 54.4995446 ], [ 30.3485544, 54.4995264 ], [ 30.3483594, 54.4992427 ], [ 30.3482939, 54.4991167 ], [ 30.3482638, 54.4990071 ], [ 30.3481682, 54.4988538 ], [ 30.3480904, 54.4987166 ], [ 30.3479737, 54.4985692 ], [ 30.3478469, 54.4984908 ], [ 30.3478084, 54.4984461 ], [ 30.3476126, 54.4979618 ], [ 30.3475006, 54.4976698 ], [ 30.3474346, 54.4975916 ], [ 30.347132, 54.4971604 ], [ 30.3470525, 54.4969942 ], [ 30.3470227, 54.4969272 ], [ 30.3469662, 54.4966725 ], [ 30.3469546, 54.4965083 ], [ 30.3468273, 54.4962547 ], [ 30.3467215, 54.4959995 ], [ 30.346557, 54.4955247 ], [ 30.3465041, 54.4953613 ], [ 30.3464809, 54.4952898 ], [ 30.3464623, 54.4952324 ], [ 30.3464429, 54.4951723 ], [ 30.3463841, 54.4950634 ], [ 30.3464575, 54.4950583 ], [ 30.3465003, 54.4950303 ], [ 30.347076, 54.4950046 ], [ 30.3470382, 54.4951135 ], [ 30.3472893, 54.4953962 ], [ 30.3475203, 54.4959901 ], [ 30.3505128, 54.4976734 ], [ 30.3517184, 54.4983432 ], [ 30.351996, 54.4985081 ], [ 30.352305, 54.4986916 ], [ 30.3530129, 54.4991117 ], [ 30.3538458, 54.4995523 ], [ 30.3545597, 54.4999962 ], [ 30.3553662, 54.5003206 ], [ 30.3559386, 54.5005268 ], [ 30.3564987, 54.5006812 ], [ 30.3571608, 54.5006475 ], [ 30.357917, 54.5006592 ], [ 30.3581864, 54.4994973 ], [ 30.3584863, 54.4964766 ], [ 30.3592718, 54.496374 ], [ 30.3605237, 54.496295 ], [ 30.3609709, 54.4983212 ], [ 30.3613768, 54.4989542 ], [ 30.3631977, 54.4990365 ], [ 30.3651671, 54.4988045 ], [ 30.3658973, 54.4987198 ], [ 30.366579, 54.497833 ], [ 30.3681552, 54.4975192 ], [ 30.3684105, 54.497112 ], [ 30.3697096, 54.4964052 ], [ 30.3704437, 54.4971059 ], [ 30.371557, 54.4985442 ], [ 30.3716357, 54.498522 ], [ 30.3718446, 54.4987307 ], [ 30.3765092, 54.4983962 ], [ 30.3773936, 54.4983382 ], [ 30.3781676, 54.4982918 ], [ 30.3789997, 54.49816 ], [ 30.3789139, 54.4977239 ], [ 30.3789289, 54.4972447 ], [ 30.3789028, 54.4967578 ], [ 30.3789408, 54.496471 ], [ 30.3789407, 54.4963264 ], [ 30.3787209, 54.496346 ], [ 30.3785854, 54.4963299 ], [ 30.3785235, 54.4962744 ], [ 30.3780536, 54.4947822 ], [ 30.3780038, 54.4944829 ], [ 30.3775035, 54.4929702 ], [ 30.3775364, 54.4922013 ], [ 30.3775962, 54.4912143 ], [ 30.377933, 54.4907303 ], [ 30.3736077, 54.4896401 ], [ 30.370248, 54.4889081 ], [ 30.3697977, 54.4889484 ], [ 30.3676521, 54.4884528 ], [ 30.3655986, 54.4877092 ], [ 30.3649367, 54.4873047 ], [ 30.3646073, 54.4869562 ], [ 30.3642216, 54.4866547 ], [ 30.36422, 54.4864295 ], [ 30.3642186, 54.4862346 ], [ 30.3642184, 54.4862044 ], [ 30.364226, 54.4855421 ], [ 30.3645297, 54.4856172 ], [ 30.3655917, 54.4853832 ], [ 30.3658884, 54.4854728 ], [ 30.3663215, 54.4851351 ], [ 30.3667597, 54.4855177 ], [ 30.3676869, 54.4859895 ], [ 30.3694241, 54.4863678 ], [ 30.370813, 54.4868373 ], [ 30.3719938, 54.4871168 ], [ 30.3734237, 54.4872676 ], [ 30.3743509, 54.4871641 ], [ 30.3744263, 54.486718 ], [ 30.3746379, 54.4854659 ], [ 30.3762638, 54.4854104 ], [ 30.3768634, 54.4853899 ], [ 30.3771944, 54.4853557 ], [ 30.37729, 54.4852317 ], [ 30.3773166, 54.4850563 ], [ 30.3771571, 54.4836275 ], [ 30.3772979, 54.4833471 ], [ 30.377112, 54.482222 ], [ 30.3767784, 54.479164 ], [ 30.376764, 54.4789655 ], [ 30.3777654, 54.4787821 ], [ 30.3775096, 54.4775933 ], [ 30.3771519, 54.476068 ], [ 30.376759, 54.4743415 ], [ 30.3764142, 54.4728789 ], [ 30.3762971, 54.4720873 ], [ 30.3763613, 54.4716724 ], [ 30.376388, 54.4713087 ], [ 30.3765489, 54.4706048 ], [ 30.3768562, 54.4701856 ], [ 30.377017, 54.4700263 ], [ 30.3758009, 54.469619 ], [ 30.3731662, 54.4688781 ], [ 30.373715, 54.4683438 ], [ 30.3747682, 54.467701 ], [ 30.3751003, 54.4676194 ], [ 30.3759928, 54.4677308 ], [ 30.3763537, 54.4677234 ], [ 30.3770193, 54.4675349 ], [ 30.3799771, 54.4657571 ], [ 30.3803072, 54.465297 ], [ 30.3804536, 54.4648118 ], [ 30.3802279, 54.464477 ], [ 30.3799282, 54.4641032 ], [ 30.3799561, 54.4638171 ], [ 30.3799139, 54.4635709 ], [ 30.3798088, 54.4633772 ], [ 30.3798029, 54.4630089 ], [ 30.3800139, 54.4628218 ], [ 30.3803809, 54.4626957 ], [ 30.3809006, 54.4626109 ], [ 30.3816368, 54.4625305 ], [ 30.3822291, 54.4624252 ], [ 30.3826093, 54.4622639 ], [ 30.3829285, 54.4622128 ], [ 30.3831951, 54.4621783 ], [ 30.3833496, 54.4623392 ], [ 30.3828928, 54.4628022 ], [ 30.3826532, 54.4630582 ], [ 30.3825707, 54.4633354 ], [ 30.3822376, 54.4636401 ], [ 30.3821318, 54.4638479 ], [ 30.3822378, 54.4640788 ], [ 30.3824683, 54.4642475 ], [ 30.3832338, 54.4643701 ], [ 30.3838754, 54.4642442 ], [ 30.3846818, 54.4639587 ], [ 30.3852718, 54.4637779 ], [ 30.3857256, 54.4637364 ], [ 30.3862921, 54.463821 ], [ 30.3869489, 54.4639719 ], [ 30.3870718, 54.4642862 ], [ 30.3870266, 54.4646548 ], [ 30.3871321, 54.4649217 ], [ 30.3873504, 54.4652128 ], [ 30.3880544, 54.465607 ], [ 30.388307, 54.4658133 ], [ 30.3882936, 54.4660799 ], [ 30.3883043, 54.466309 ], [ 30.3883499, 54.4665335 ], [ 30.3883794, 54.4667268 ], [ 30.3884876, 54.4670351 ], [ 30.3885292, 54.4675124 ], [ 30.3886409, 54.4681152 ], [ 30.3885387, 54.4683312 ], [ 30.3884953, 54.4687377 ], [ 30.3884466, 54.4689286 ], [ 30.3885366, 54.4691892 ], [ 30.388484, 54.4694127 ], [ 30.3882211, 54.4697203 ], [ 30.3878754, 54.4699989 ], [ 30.3876919, 54.4701399 ], [ 30.3873796, 54.4704503 ], [ 30.3871643, 54.470686 ], [ 30.387041, 54.4709074 ], [ 30.3871191, 54.4711734 ], [ 30.3871163, 54.4713943 ], [ 30.3870048, 54.4717092 ], [ 30.3870043, 54.4720251 ], [ 30.3870367, 54.4722376 ], [ 30.3869721, 54.4724668 ], [ 30.3869803, 54.472646 ], [ 30.3870504, 54.4728054 ], [ 30.3871, 54.4729679 ], [ 30.3872234, 54.4731362 ], [ 30.387455, 54.4732838 ], [ 30.3877477, 54.4734267 ], [ 30.3878758, 54.4735404 ], [ 30.3880164, 54.4736653 ], [ 30.3881081, 54.4737672 ], [ 30.3881363, 54.4738709 ], [ 30.3881085, 54.4740028 ], [ 30.3881298, 54.4740906 ], [ 30.3882087, 54.4741844 ], [ 30.3882909, 54.4742127 ], [ 30.388381, 54.4742368 ], [ 30.3884597, 54.4742172 ], [ 30.3884928, 54.4741364 ], [ 30.3885765, 54.4741089 ], [ 30.3886723, 54.4741854 ], [ 30.3887679, 54.4743032 ], [ 30.3888322, 54.4743923 ], [ 30.3889632, 54.4744889 ], [ 30.3890847, 54.4746058 ], [ 30.3892416, 54.4747691 ], [ 30.3894415, 54.4749395 ], [ 30.3896766, 54.4751022 ], [ 30.3898292, 54.4752355 ], [ 30.3899475, 54.4753404 ], [ 30.3900736, 54.4754166 ], [ 30.3902926, 54.4754876 ], [ 30.3904736, 54.4755788 ], [ 30.3906524, 54.4757054 ], [ 30.3909007, 54.4758033 ], [ 30.3911875, 54.4758905 ], [ 30.3914672, 54.4759821 ], [ 30.3917541, 54.4760586 ], [ 30.3921461, 54.476143 ], [ 30.3924153, 54.4762272 ], [ 30.3926156, 54.4762996 ], [ 30.3928533, 54.4763744 ], [ 30.3930539, 54.4764404 ], [ 30.393296, 54.47654 ], [ 30.3935936, 54.4766752 ], [ 30.3938497, 54.4768652 ], [ 30.3940355, 54.4770552 ], [ 30.3942544, 54.477287 ], [ 30.394497, 54.4774106 ], [ 30.3946644, 54.4775637 ], [ 30.3948975, 54.4777797 ], [ 30.3950141, 54.477974 ], [ 30.3952123, 54.4781296 ], [ 30.3955232, 54.4783729 ], [ 30.395712, 54.4785852 ], [ 30.3959263, 54.4787092 ], [ 30.3959471, 54.4788307 ], [ 30.3962409, 54.4790896 ], [ 30.3964877, 54.4792953 ], [ 30.3967774, 54.4795415 ], [ 30.3970885, 54.4797753 ], [ 30.3973984, 54.4800139 ], [ 30.3977283, 54.4802913 ], [ 30.3980085, 54.4806059 ], [ 30.3982357, 54.4807871 ], [ 30.3985825, 54.4809872 ], [ 30.3990593, 54.4812981 ], [ 30.4037119, 54.4794284 ], [ 30.4049705, 54.4786651 ], [ 30.4056713, 54.4792731 ], [ 30.4062612, 54.479823 ], [ 30.4071569, 54.4803099 ], [ 30.409021, 54.4797929 ], [ 30.4102842, 54.4815947 ], [ 30.4137077, 54.484052 ], [ 30.414577, 54.4841987 ], [ 30.414616, 54.4847852 ], [ 30.4147926, 54.4847752 ], [ 30.4151178, 54.4847519 ], [ 30.4163687, 54.4846983 ], [ 30.4169719, 54.4842942 ], [ 30.418305, 54.4843916 ], [ 30.4189222, 54.4845766 ], [ 30.4192898, 54.4847003 ], [ 30.419663, 54.4847991 ], [ 30.419985, 54.4848539 ], [ 30.420363, 54.484887 ], [ 30.4205303, 54.4848703 ], [ 30.4216531, 54.4846034 ], [ 30.4218441, 54.4845686 ], [ 30.4219939, 54.4846322 ], [ 30.4226885, 54.4852827 ], [ 30.4229761, 54.4855945 ], [ 30.4252347, 54.4853729 ], [ 30.4264147, 54.4852784 ], [ 30.4266114, 54.4852652 ], [ 30.4269897, 54.4852362 ], [ 30.4270867, 54.4852263 ], [ 30.4271674, 54.4852249 ], [ 30.4287729, 54.4851229 ], [ 30.4310027, 54.4848851 ], [ 30.4328135, 54.484837 ], [ 30.4335447, 54.4848164 ], [ 30.4351965, 54.4847699 ], [ 30.4377965, 54.484736 ], [ 30.4377137, 54.4858958 ], [ 30.4394417, 54.4858934 ], [ 30.4394434, 54.4857443 ], [ 30.4395539, 54.4857176 ], [ 30.439549, 54.4856024 ], [ 30.4399392, 54.4855968 ], [ 30.4401262, 54.4856246 ], [ 30.4401231, 54.4857017 ], [ 30.4415982, 54.4857422 ], [ 30.4417961, 54.4862434 ], [ 30.441998, 54.486307 ], [ 30.4417491, 54.4865491 ], [ 30.441503, 54.4868176 ], [ 30.4404374, 54.4882484 ], [ 30.441297, 54.4880381 ], [ 30.4422583, 54.4876432 ], [ 30.4435672, 54.4871379 ], [ 30.4446861, 54.4866926 ], [ 30.4472005, 54.488107 ], [ 30.4478004, 54.4878772 ], [ 30.4485418, 54.4876803 ], [ 30.4506414, 54.4881462 ], [ 30.4506945, 54.4883587 ], [ 30.4511502, 54.488626 ], [ 30.4511245, 54.4893735 ], [ 30.4514018, 54.4895726 ], [ 30.4524251, 54.4897731 ], [ 30.4523397, 54.489954 ], [ 30.4521793, 54.4905864 ], [ 30.4513595, 54.4908944 ], [ 30.450214, 54.491186 ], [ 30.4486331, 54.4920494 ], [ 30.4491658, 54.4923397 ], [ 30.448296, 54.4931219 ], [ 30.4490735, 54.4937499 ], [ 30.4521577, 54.4945149 ], [ 30.4587791, 54.4962088 ], [ 30.4530024, 54.4983066 ], [ 30.4505027, 54.4992439 ], [ 30.4506469, 54.4993994 ], [ 30.4511632, 54.4999067 ], [ 30.4503231, 54.5004167 ], [ 30.4496365, 54.5008082 ], [ 30.4486669, 54.5011997 ], [ 30.4480192, 54.5013913 ], [ 30.4471804, 54.5015459 ], [ 30.4468372, 54.5016184 ], [ 30.4464496, 54.5018293 ], [ 30.4450641, 54.5016004 ], [ 30.4447409, 54.5019967 ], [ 30.4441697, 54.5026314 ], [ 30.4439132, 54.5031514 ], [ 30.443986, 54.5032488 ], [ 30.4449954, 54.5033565 ], [ 30.4459885, 54.5035115 ], [ 30.4462702, 54.5036452 ], [ 30.4473502, 54.5037923 ], [ 30.4478529, 54.5038568 ], [ 30.4479198, 54.5039018 ], [ 30.4479235, 54.5039588 ], [ 30.4475451, 54.5049176 ], [ 30.4475753, 54.5050256 ], [ 30.447623, 54.5051174 ], [ 30.4478582, 54.5051798 ], [ 30.4482723, 54.5052446 ], [ 30.4483295, 54.5053121 ], [ 30.4481204, 54.5059104 ], [ 30.448129, 54.5059848 ], [ 30.4482086, 54.5060339 ], [ 30.4485797, 54.5060903 ], [ 30.4487225, 54.5061125 ], [ 30.4492719, 54.5061891 ], [ 30.4490006, 54.506685 ], [ 30.4528389, 54.5072408 ], [ 30.4531364, 54.5072839 ], [ 30.4527636, 54.5079837 ], [ 30.4513867, 54.5106311 ], [ 30.4515519, 54.5113953 ], [ 30.451538, 54.5116459 ], [ 30.4513682, 54.5120403 ], [ 30.451085, 54.512402 ], [ 30.4512549, 54.5127307 ], [ 30.4516938, 54.5130512 ], [ 30.4519203, 54.5137991 ], [ 30.4523167, 54.5150564 ], [ 30.4524158, 54.515796 ], [ 30.4520052, 54.5163466 ], [ 30.4511558, 54.5167739 ], [ 30.4506179, 54.5171437 ], [ 30.4496552, 54.5174313 ], [ 30.4492106, 54.517646 ], [ 30.4490943, 54.5177166 ], [ 30.4486936, 54.5179822 ], [ 30.4481829, 54.5182902 ], [ 30.4484937, 54.5186267 ], [ 30.4489624, 54.5191386 ], [ 30.4495418, 54.5197178 ], [ 30.450191, 54.5203408 ], [ 30.450439, 54.5205553 ], [ 30.4505195, 54.5206464 ], [ 30.4505168, 54.5206728 ], [ 30.4504658, 54.5206869 ], [ 30.4504618, 54.5207079 ], [ 30.4504913, 54.5207227 ], [ 30.4505409, 54.5207188 ], [ 30.4505919, 54.5207195 ], [ 30.4506576, 54.5207522 ], [ 30.4507112, 54.5208386 ], [ 30.450899, 54.521013 ], [ 30.4511243, 54.5212714 ], [ 30.4514569, 54.5215298 ], [ 30.451827, 54.5217852 ], [ 30.4521543, 54.5220311 ], [ 30.4524976, 54.5223487 ], [ 30.4527873, 54.5225946 ], [ 30.4529858, 54.5228032 ], [ 30.4531145, 54.5229527 ], [ 30.4532513, 54.5231091 ], [ 30.4532767, 54.5231426 ], [ 30.4533157, 54.523194 ], [ 30.4533814, 54.5232773 ], [ 30.4534069, 54.5233356 ], [ 30.4534256, 54.5233917 ], [ 30.4534431, 54.5234617 ], [ 30.4534592, 54.5235255 ], [ 30.4534686, 54.5236073 ], [ 30.4534847, 54.5237225 ], [ 30.4534927, 54.523812 ], [ 30.4534847, 54.5239357 ], [ 30.4534793, 54.5240782 ], [ 30.4534712, 54.5242354 ], [ 30.4534337, 54.5244019 ], [ 30.4533961, 54.5245343 ], [ 30.453364, 54.5246806 ], [ 30.4533613, 54.5248471 ], [ 30.4533532, 54.5249903 ], [ 30.4533613, 54.5251569 ], [ 30.4533747, 54.525311 ], [ 30.45338, 54.5254931 ], [ 30.4533747, 54.5257095 ], [ 30.4533774, 54.5258776 ], [ 30.4533961, 54.5260566 ], [ 30.4534176, 54.5262045 ], [ 30.4534364, 54.5263492 ], [ 30.4534444, 54.5264769 ], [ 30.4534632, 54.5266325 ], [ 30.4534766, 54.5267462 ], [ 30.4535007, 54.526894 ], [ 30.4535276, 54.5270497 ], [ 30.4535678, 54.527224 ], [ 30.4535893, 54.5273485 ], [ 30.4536054, 54.5274591 ], [ 30.4536349, 54.5275462 ], [ 30.4536617, 54.527649 ], [ 30.4536992, 54.5277626 ], [ 30.4537556, 54.5278918 ], [ 30.4538387, 54.5280894 ], [ 30.4539406, 54.5283354 ], [ 30.4540265, 54.5285969 ], [ 30.4541284, 54.5288054 ], [ 30.4542732, 54.5290794 ], [ 30.4543805, 54.5293471 ], [ 30.4544663, 54.5296521 ], [ 30.4545253, 54.5299759 ], [ 30.4545683, 54.5302716 ], [ 30.454579, 54.5305766 ], [ 30.4546165, 54.5308973 ], [ 30.454638, 54.5312023 ], [ 30.4546809, 54.5315634 ], [ 30.4546648, 54.5318933 ], [ 30.4546595, 54.532189 ], [ 30.4546541, 54.5323851 ], [ 30.4546648, 54.5325626 ], [ 30.4546912, 54.5326449 ], [ 30.4547346, 54.5327805 ], [ 30.4548043, 54.5329267 ], [ 30.4549182, 54.5331118 ], [ 30.4550296, 54.5332567 ], [ 30.4551369, 54.5333874 ], [ 30.4553944, 54.533624 ], [ 30.4557162, 54.5338325 ], [ 30.4559657, 54.5340177 ], [ 30.4561964, 54.5341967 ], [ 30.4563278, 54.5343274 ], [ 30.4564592, 54.5344566 ], [ 30.4565504, 54.5345748 ], [ 30.4566684, 54.5347025 ], [ 30.4567596, 54.5348145 ], [ 30.4568234, 54.5348982 ], [ 30.4569313, 54.5350464 ], [ 30.4570359, 54.5351693 ], [ 30.4571941, 54.5353779 ], [ 30.4572683, 54.5354767 ], [ 30.4573846, 54.5356393 ], [ 30.4575133, 54.5358354 ], [ 30.4576662, 54.5360501 ], [ 30.4578406, 54.5362929 ], [ 30.4580176, 54.5365699 ], [ 30.4581597, 54.5367831 ], [ 30.4583314, 54.5370072 ], [ 30.4584601, 54.5371861 ], [ 30.4585701, 54.5373931 ], [ 30.4586533, 54.5375518 ], [ 30.4587847, 54.5377308 ], [ 30.4588544, 54.5378849 ], [ 30.4589081, 54.5380576 ], [ 30.4589215, 54.5381556 ], [ 30.4589161, 54.5382926 ], [ 30.4589, 54.5384466 ], [ 30.4588652, 54.5385711 ], [ 30.4588088, 54.5386862 ], [ 30.4588008, 54.5387672 ], [ 30.4588196, 54.5388528 ], [ 30.4588571, 54.5389648 ], [ 30.4589081, 54.5391437 ], [ 30.4589698, 54.5393398 ], [ 30.4589859, 54.5395141 ], [ 30.4589671, 54.5396572 ], [ 30.4589537, 54.5397864 ], [ 30.458951, 54.539872 ], [ 30.458959, 54.5399778 ], [ 30.4589939, 54.5401054 ], [ 30.4590476, 54.5402594 ], [ 30.4590932, 54.5404353 ], [ 30.45912, 54.5405986 ], [ 30.4591441, 54.5407076 ], [ 30.459179, 54.5408227 ], [ 30.4592112, 54.5409114 ], [ 30.4592702, 54.5410468 ], [ 30.4593292, 54.5411759 ], [ 30.4593936, 54.5413128 ], [ 30.4594552, 54.5414358 ], [ 30.4595196, 54.5415354 ], [ 30.4595974, 54.5416349 ], [ 30.4596966, 54.5417516 ], [ 30.4598147, 54.5418699 ], [ 30.4599139, 54.5419477 ], [ 30.4600534, 54.542055 ], [ 30.4602089, 54.5421655 ], [ 30.4603484, 54.5422884 ], [ 30.4605094, 54.5424378 ], [ 30.4605871, 54.5425156 ], [ 30.4607052, 54.5426167 ], [ 30.4608285, 54.5427272 ], [ 30.46096, 54.5428439 ], [ 30.4610994, 54.5429559 ], [ 30.4612282, 54.5430633 ], [ 30.4613543, 54.5431862 ], [ 30.4615286, 54.5433418 ], [ 30.4617003, 54.5434943 ], [ 30.4618451, 54.5436281 ], [ 30.461998, 54.5437666 ], [ 30.4622452, 54.5439744 ], [ 30.4622608, 54.5439875 ], [ 30.4624861, 54.5441524 ], [ 30.4627329, 54.5443391 ], [ 30.4630279, 54.5445383 ], [ 30.4634893, 54.5447966 ], [ 30.4637307, 54.544949 ], [ 30.4638267, 54.5450034 ], [ 30.4639506, 54.5450735 ], [ 30.46221, 54.5469108 ], [ 30.4615404, 54.5475665 ], [ 30.4597397, 54.54933 ], [ 30.4578048, 54.5511786 ], [ 30.4569929, 54.5519968 ], [ 30.4565693, 54.552525 ], [ 30.456221, 54.5530655 ], [ 30.4559191, 54.5536565 ], [ 30.4555445, 54.5542949 ], [ 30.4551654, 54.5556126 ], [ 30.4550061, 54.5562283 ], [ 30.4545895, 54.5575306 ], [ 30.4544181, 54.5577121 ], [ 30.4539944, 54.5588854 ], [ 30.453713, 54.5596223 ], [ 30.4533302, 54.5610173 ], [ 30.4532253, 54.5610675 ], [ 30.4531481, 54.5613411 ], [ 30.4528402, 54.5615063 ], [ 30.4519357, 54.5614903 ], [ 30.4520336, 54.5611844 ], [ 30.4493904, 54.560906 ], [ 30.4496031, 54.5603386 ], [ 30.4493934, 54.5603112 ], [ 30.4473231, 54.5600847 ], [ 30.4460434, 54.5600621 ], [ 30.4454729, 54.5600369 ], [ 30.4452068, 54.5600251 ], [ 30.4450817, 54.5600196 ], [ 30.4452518, 54.5593489 ], [ 30.4449699, 54.5591496 ], [ 30.4451063, 54.5581292 ], [ 30.4452672, 54.5577723 ], [ 30.4453021, 54.5576709 ], [ 30.4453967, 54.5573812 ], [ 30.4454309, 54.5572822 ], [ 30.4452795, 54.5569493 ], [ 30.4441859, 54.5565642 ], [ 30.4450732, 54.5552413 ], [ 30.4451282, 54.5552531 ], [ 30.4454779, 54.5553383 ], [ 30.4502656, 54.5565154 ], [ 30.4509158, 54.5566778 ], [ 30.4510966, 54.5563956 ], [ 30.4506312, 54.5561832 ], [ 30.4507713, 54.5553732 ], [ 30.4521464, 54.5553373 ], [ 30.4525379, 54.5549209 ], [ 30.4494179, 54.5537894 ], [ 30.4489001, 54.5534667 ], [ 30.4486017, 54.5531276 ], [ 30.4485995, 54.5525316 ], [ 30.4489618, 54.5520122 ], [ 30.4494091, 54.5516324 ], [ 30.4492692, 54.5512402 ], [ 30.4489652, 54.5512687 ], [ 30.4488556, 54.5509657 ], [ 30.4485696, 54.5505993 ], [ 30.448227, 54.5502821 ], [ 30.4478462, 54.5501732 ], [ 30.4472262, 54.5501361 ], [ 30.446357, 54.5499082 ], [ 30.4446838, 54.5493887 ], [ 30.4442423, 54.5489983 ], [ 30.4421851, 54.5493886 ], [ 30.4420352, 54.5497454 ], [ 30.4418892, 54.549771 ], [ 30.4415811, 54.5497751 ], [ 30.4410542, 54.5496842 ], [ 30.4406671, 54.5496344 ], [ 30.4404784, 54.5495443 ], [ 30.4399955, 54.5492661 ], [ 30.4388082, 54.5490157 ], [ 30.4378793, 54.5488629 ], [ 30.4378083, 54.5490783 ], [ 30.4376438, 54.5491333 ], [ 30.437018, 54.5492621 ], [ 30.4366853, 54.5493406 ], [ 30.4353775, 54.5501814 ], [ 30.4333391, 54.5512358 ], [ 30.4321856, 54.551628 ], [ 30.4318451, 54.5514339 ], [ 30.4309985, 54.5517192 ], [ 30.430246, 54.5524218 ], [ 30.4298315, 54.5526188 ], [ 30.4295521, 54.5527234 ], [ 30.4291181, 54.5528139 ], [ 30.4288958, 54.552777 ], [ 30.4287223, 54.5527071 ], [ 30.4285947, 54.5525814 ], [ 30.4285511, 54.5524809 ], [ 30.4283225, 54.552559 ], [ 30.428112, 54.5526404 ], [ 30.4274991, 54.5522166 ], [ 30.4273548, 54.5520516 ], [ 30.4271217, 54.5520484 ], [ 30.4270881, 54.5519741 ], [ 30.4269961, 54.5519211 ], [ 30.4267791, 54.5518558 ], [ 30.426401, 54.5518294 ], [ 30.4262233, 54.5518237 ], [ 30.4259834, 54.5518566 ], [ 30.4258626, 54.5519152 ], [ 30.4257676, 54.5519236 ], [ 30.4256912, 54.5518927 ], [ 30.4256739, 54.5518487 ], [ 30.4257279, 54.5517729 ], [ 30.4259901, 54.5515249 ], [ 30.4263433, 54.5514813 ], [ 30.4266333, 54.5513042 ], [ 30.4266564, 54.5512055 ], [ 30.4266648, 54.5511698 ], [ 30.4266262, 54.5509849 ], [ 30.4264736, 54.5508596 ], [ 30.4263268, 54.5507789 ], [ 30.4256054, 54.5504541 ], [ 30.4254928, 54.5503612 ], [ 30.425225, 54.5501015 ], [ 30.4250804, 54.5499634 ], [ 30.4250061, 54.5498398 ], [ 30.4250238, 54.5497777 ], [ 30.425144, 54.5497439 ], [ 30.4253492, 54.5497544 ], [ 30.4256251, 54.5498081 ], [ 30.4258442, 54.5497965 ], [ 30.4259708, 54.5497569 ], [ 30.4261463, 54.5496406 ], [ 30.4261661, 54.5495163 ], [ 30.4261366, 54.5493204 ], [ 30.4262501, 54.5492361 ], [ 30.4264278, 54.5492033 ], [ 30.4267463, 54.549202 ], [ 30.4269291, 54.5491471 ], [ 30.4270258, 54.5490778 ], [ 30.4271534, 54.5489368 ], [ 30.4270375, 54.548663 ], [ 30.4267928, 54.5484283 ], [ 30.4263958, 54.5482642 ], [ 30.4259453, 54.5481392 ], [ 30.4257139, 54.5480874 ], [ 30.4255099, 54.5479754 ], [ 30.4253675, 54.5478491 ], [ 30.4254031, 54.5477253 ], [ 30.4255729, 54.547692 ], [ 30.4258632, 54.547797 ], [ 30.4263575, 54.5479355 ], [ 30.4269971, 54.5481001 ], [ 30.4273739, 54.5481078 ], [ 30.4275747, 54.5479745 ], [ 30.427758, 54.5477477 ], [ 30.4278917, 54.5475249 ], [ 30.4279309, 54.5473905 ], [ 30.4279701, 54.5472478 ], [ 30.4279211, 54.5470733 ], [ 30.4276957, 54.5468557 ], [ 30.4274942, 54.5466889 ], [ 30.4274129, 54.5465221 ], [ 30.4274841, 54.5463815 ], [ 30.4277326, 54.546285 ], [ 30.4280606, 54.5462234 ], [ 30.4284046, 54.5461762 ], [ 30.4286297, 54.5460181 ], [ 30.4287272, 54.5458046 ], [ 30.4286316, 54.5456753 ], [ 30.4282965, 54.5454618 ], [ 30.4281618, 54.5453027 ], [ 30.4281617, 54.545238 ], [ 30.4264323, 54.5454708 ], [ 30.4252728, 54.5455024 ], [ 30.4243457, 54.5454426 ], [ 30.4237512, 54.5453609 ], [ 30.4228311, 54.5450935 ], [ 30.4211665, 54.5444473 ], [ 30.4203971, 54.5437563 ], [ 30.4194082, 54.5421502 ], [ 30.4183935, 54.5407733 ], [ 30.4169722, 54.5400662 ], [ 30.4166503, 54.5399916 ], [ 30.4145205, 54.5387843 ], [ 30.4133904, 54.5380191 ], [ 30.4127928, 54.537756 ], [ 30.4117636, 54.536965 ], [ 30.4109826, 54.5360812 ], [ 30.4105621, 54.5349029 ], [ 30.4103614, 54.5343147 ], [ 30.4103117, 54.5338246 ], [ 30.4104259, 54.5328738 ], [ 30.4101437, 54.5317732 ], [ 30.4101863, 54.5309371 ], [ 30.4102413, 54.5298569 ], [ 30.4101294, 54.5290131 ], [ 30.4098953, 54.528412 ], [ 30.4096154, 54.5279401 ], [ 30.4096866, 54.52762 ], [ 30.4097754, 54.5274879 ], [ 30.4099494, 54.5273239 ], [ 30.4099645, 54.5272695 ], [ 30.4099015, 54.5270365 ], [ 30.4095773, 54.5269845 ], [ 30.409052, 54.5268929 ], [ 30.408733, 54.5266573 ], [ 30.4085259, 54.5264943 ], [ 30.4080537, 54.5259421 ], [ 30.4071536, 54.5264978 ], [ 30.404004, 54.5251039 ], [ 30.402986, 54.5248942 ], [ 30.399251, 54.5234068 ], [ 30.3973307, 54.5230939 ], [ 30.3970029, 54.5239304 ], [ 30.3962435, 54.5239129 ], [ 30.3944014, 54.5240264 ], [ 30.3917689, 54.5241475 ], [ 30.3904948, 54.5242198 ], [ 30.3899664, 54.5241848 ], [ 30.3899907, 54.5238894 ], [ 30.3894084, 54.5238577 ], [ 30.3892322, 54.5238202 ], [ 30.389087, 54.5237318 ], [ 30.3889573, 54.5235546 ], [ 30.3888472, 54.5235126 ], [ 30.3887187, 54.5234921 ], [ 30.3885264, 54.5234976 ], [ 30.3878312, 54.523585 ], [ 30.3875468, 54.5236059 ], [ 30.3874455, 54.5236139 ], [ 30.3874554, 54.523655 ], [ 30.3875284, 54.5239585 ], [ 30.3876249, 54.5242593 ], [ 30.3877583, 54.5245637 ], [ 30.3880265, 54.5251202 ], [ 30.3883805, 54.5254033 ], [ 30.3892219, 54.5258609 ], [ 30.3907582, 54.5266318 ], [ 30.3931421, 54.527907 ], [ 30.3932692, 54.5280043 ], [ 30.393289, 54.5281079 ], [ 30.3932141, 54.5281892 ], [ 30.393043, 54.528312 ], [ 30.3946609, 54.5292404 ], [ 30.4012779, 54.5327083 ], [ 30.4013923, 54.5329376 ], [ 30.4011079, 54.5335691 ], [ 30.3987589, 54.5332201 ], [ 30.3962596, 54.5329277 ], [ 30.3967041, 54.5338479 ], [ 30.3969087, 54.5345105 ], [ 30.3973427, 54.5352714 ], [ 30.3981573, 54.5363202 ], [ 30.3983589, 54.5365686 ], [ 30.3985463, 54.5367538 ], [ 30.3987551, 54.5369296 ], [ 30.3990755, 54.537132 ], [ 30.3994093, 54.5372987 ], [ 30.4000202, 54.5375687 ], [ 30.4000705, 54.5376162 ], [ 30.4000693, 54.5376584 ], [ 30.4000573, 54.5376889 ], [ 30.4000077, 54.5377256 ], [ 30.3999262, 54.5380704 ], [ 30.3997439, 54.5388421 ], [ 30.3993461, 54.5388666 ], [ 30.3987067, 54.5389879 ], [ 30.3984968, 54.5389252 ], [ 30.3983909, 54.5389579 ], [ 30.3981011, 54.5390474 ], [ 30.3974158, 54.5392591 ], [ 30.3971473, 54.5393421 ], [ 30.3970429, 54.5392765 ], [ 30.3952298, 54.5381376 ], [ 30.3949999, 54.5379932 ], [ 30.3946825, 54.5377938 ], [ 30.3923365, 54.5362496 ], [ 30.3922283, 54.5361593 ], [ 30.3921285, 54.5361111 ], [ 30.3919627, 54.5360544 ], [ 30.3911236, 54.5357892 ], [ 30.3911139, 54.5357434 ], [ 30.3910496, 54.5357131 ], [ 30.3912569, 54.5354107 ], [ 30.3912974, 54.5353265 ], [ 30.3913134, 54.5352571 ], [ 30.3913018, 54.5351905 ], [ 30.3913208, 54.5351258 ], [ 30.391232, 54.5350729 ], [ 30.3894485, 54.5342508 ], [ 30.3891903, 54.534176 ], [ 30.3889429, 54.5341251 ], [ 30.3885292, 54.5340824 ], [ 30.3879455, 54.5340972 ], [ 30.3871743, 54.5341613 ], [ 30.3866824, 54.5341865 ], [ 30.3866152, 54.5341748 ], [ 30.3865659, 54.5341473 ], [ 30.3864485, 54.533606 ], [ 30.3862238, 54.532934 ], [ 30.3856084, 54.5327903 ], [ 30.3852613, 54.5326652 ], [ 30.3853817, 54.5325811 ], [ 30.383233, 54.5321421 ], [ 30.3811003, 54.531921 ], [ 30.3810743, 54.531752 ], [ 30.3778148, 54.5316719 ], [ 30.3776587, 54.5307354 ], [ 30.3776381, 54.5307359 ], [ 30.3775609, 54.5303292 ], [ 30.3774878, 54.530035 ], [ 30.3757317, 54.5298664 ], [ 30.3755531, 54.5295374 ], [ 30.3735696, 54.5292544 ], [ 30.3738421, 54.5290721 ], [ 30.3739218, 54.5289926 ], [ 30.3740719, 54.5289348 ], [ 30.3741521, 54.5288634 ], [ 30.3744084, 54.5286536 ], [ 30.3739159, 54.5284554 ], [ 30.3734469, 54.5282437 ], [ 30.372971, 54.5280561 ], [ 30.371337, 54.5275011 ], [ 30.3708428, 54.5272845 ], [ 30.3704035, 54.5271447 ], [ 30.3699521, 54.5270086 ], [ 30.3695846, 54.5268724 ], [ 30.3686226, 54.5264093 ], [ 30.3659286, 54.5252718 ], [ 30.3636925, 54.5242263 ], [ 30.3634268, 54.5242639 ], [ 30.3616981, 54.52302 ], [ 30.3599557, 54.5222954 ], [ 30.3591093, 54.5219227 ], [ 30.3581807, 54.5217161 ], [ 30.3572391, 54.5213711 ], [ 30.3568071, 54.5210727 ], [ 30.3563632, 54.5204657 ], [ 30.3552558, 54.5189695 ], [ 30.354406, 54.5183639 ], [ 30.3540064, 54.5181629 ], [ 30.353392, 54.5179348 ], [ 30.3530598, 54.5178364 ], [ 30.352701, 54.5177448 ], [ 30.3522955, 54.5176749 ], [ 30.3518301, 54.5176056 ], [ 30.351413, 54.5175699 ], [ 30.3510458, 54.5175582 ], [ 30.3510807, 54.5170833 ], [ 30.3513092, 54.5166051 ], [ 30.3512619, 54.5164131 ], [ 30.3504154, 54.516536 ], [ 30.350096, 54.5133977 ], [ 30.3507546, 54.5131479 ], [ 30.3517908, 54.5114542 ], [ 30.3463497, 54.5106633 ], [ 30.3458179, 54.5046414 ], [ 30.3458009, 54.5045536 ] ] ] } }
]
}
