{
"type": "FeatureCollection",
"name": "pamplona-iruna_es",
"crs": { "type": "name", "properties": { "name": "urn:ogc:def:crs:OGC:1.3:CRS84" } },
"features": [
{ "type": "Feature", "properties": { }, "geometry": { "type": "Polygon", "coordinates": [ [ [ -1.6953841, 42.8340383 ], [ -1.6947642, 42.8334126 ], [ -1.6943162, 42.8327304 ], [ -1.693691, 42.8319987 ], [ -1.6936402, 42.8318758 ], [ -1.693482, 42.8310527 ], [ -1.692863, 42.8311254 ], [ -1.6924946, 42.8294937 ], [ -1.6917169, 42.8292417 ], [ -1.6900782, 42.8286286 ], [ -1.689781, 42.8287963 ], [ -1.68787, 42.8283331 ], [ -1.6875197, 42.828122 ], [ -1.6869754, 42.8279155 ], [ -1.6875946, 42.8267447 ], [ -1.6878411, 42.8261463 ], [ -1.6878886, 42.8259737 ], [ -1.6879376, 42.8257959 ], [ -1.6879911, 42.8253512 ], [ -1.6884073, 42.8222476 ], [ -1.6884739, 42.8218054 ], [ -1.6879915, 42.8217504 ], [ -1.6876537, 42.8216774 ], [ -1.6872098, 42.8215525 ], [ -1.6855214, 42.8210067 ], [ -1.6854102, 42.820416 ], [ -1.6855594, 42.8201839 ], [ -1.6865802, 42.8193491 ], [ -1.6875193, 42.8183243 ], [ -1.6881739, 42.8174493 ], [ -1.6883723, 42.8173255 ], [ -1.6887541, 42.8172038 ], [ -1.6898418, 42.8160906 ], [ -1.6907642, 42.8153142 ], [ -1.6911809, 42.8148568 ], [ -1.6927089, 42.8147006 ], [ -1.6912407, 42.8134327 ], [ -1.6909244, 42.8128717 ], [ -1.6906398, 42.812274 ], [ -1.6901891, 42.8110575 ], [ -1.690074, 42.8106064 ], [ -1.6900576, 42.8103923 ], [ -1.6900545, 42.8103146 ], [ -1.6900216, 42.8093208 ], [ -1.6901314, 42.8087547 ], [ -1.6890927, 42.8084708 ], [ -1.6884498, 42.8082742 ], [ -1.6879887, 42.8080932 ], [ -1.6877096, 42.8079417 ], [ -1.6867792, 42.8072274 ], [ -1.6864618, 42.8071 ], [ -1.6856325, 42.806767 ], [ -1.6848445, 42.8065424 ], [ -1.6839232, 42.8064178 ], [ -1.6835115, 42.8063944 ], [ -1.683005, 42.8064152 ], [ -1.6826947, 42.8065287 ], [ -1.6825605, 42.8064615 ], [ -1.6822153, 42.8067503 ], [ -1.6821238, 42.8068143 ], [ -1.6819943, 42.80683 ], [ -1.6812184, 42.8068873 ], [ -1.6803254, 42.8074774 ], [ -1.6797018, 42.8079958 ], [ -1.6793189, 42.8081452 ], [ -1.6786227, 42.8081721 ], [ -1.6767724, 42.8073534 ], [ -1.6765861, 42.807228 ], [ -1.6763586, 42.8070154 ], [ -1.6762069, 42.8068839 ], [ -1.6760238, 42.8067253 ], [ -1.6759285, 42.8066793 ], [ -1.675396, 42.8066018 ], [ -1.675221, 42.8065625 ], [ -1.6749877, 42.8064896 ], [ -1.6747726, 42.8064121 ], [ -1.6747087, 42.8063951 ], [ -1.6746145, 42.8063701 ], [ -1.6745575, 42.8063346 ], [ -1.6744915, 42.8062756 ], [ -1.6744274, 42.8062183 ], [ -1.6743232, 42.8061306 ], [ -1.6740754, 42.805933 ], [ -1.6735618, 42.8055007 ], [ -1.673204, 42.8052673 ], [ -1.6734466, 42.8050981 ], [ -1.6743387, 42.8047108 ], [ -1.6758009, 42.8041974 ], [ -1.6758499, 42.8041803 ], [ -1.6758749, 42.8041722 ], [ -1.6770902, 42.8037739 ], [ -1.6771604, 42.8037524 ], [ -1.677256, 42.803721 ], [ -1.6774028, 42.8036727 ], [ -1.6788401, 42.8032563 ], [ -1.6789636, 42.8032205 ], [ -1.6790481, 42.803197 ], [ -1.6797045, 42.8030141 ], [ -1.6797544, 42.8030002 ], [ -1.6800504, 42.802915 ], [ -1.6801367, 42.8028901 ], [ -1.68054, 42.8027952 ], [ -1.6822533, 42.8023738 ], [ -1.6824791, 42.8023173 ], [ -1.6831412, 42.8021515 ], [ -1.6838014, 42.801991 ], [ -1.6840416, 42.8019095 ], [ -1.6840288, 42.8018729 ], [ -1.6840001, 42.8017919 ], [ -1.6839367, 42.8016391 ], [ -1.6839103, 42.8015741 ], [ -1.6838511, 42.8014585 ], [ -1.6837886, 42.801334 ], [ -1.6837591, 42.8012751 ], [ -1.6837112, 42.8011789 ], [ -1.6836602, 42.8010864 ], [ -1.6836015, 42.8009811 ], [ -1.6835637, 42.8009071 ], [ -1.6834997, 42.8007817 ], [ -1.6834574, 42.8007006 ], [ -1.6833951, 42.8005838 ], [ -1.6832841, 42.8003589 ], [ -1.6831974, 42.8002008 ], [ -1.6830984, 42.8000196 ], [ -1.683008, 42.7998506 ], [ -1.6828988, 42.7996317 ], [ -1.6827556, 42.7993744 ], [ -1.6827048, 42.7992548 ], [ -1.6826388, 42.7991308 ], [ -1.6824966, 42.7988693 ], [ -1.6823811, 42.7986936 ], [ -1.6823345, 42.7985852 ], [ -1.6823806, 42.7982326 ], [ -1.6823877, 42.7981372 ], [ -1.6824046, 42.798026 ], [ -1.6824218, 42.7979067 ], [ -1.6824529, 42.7977433 ], [ -1.6824892, 42.7975384 ], [ -1.6825536, 42.7970275 ], [ -1.6826121, 42.7966959 ], [ -1.6826348, 42.796455 ], [ -1.6826424, 42.7964055 ], [ -1.6827374, 42.7958356 ], [ -1.6828086, 42.7957583 ], [ -1.6829464, 42.7955379 ], [ -1.682989, 42.7954588 ], [ -1.6828428, 42.7954028 ], [ -1.6824352, 42.7952821 ], [ -1.681535, 42.7950487 ], [ -1.6813959, 42.7950021 ], [ -1.6810489, 42.7948867 ], [ -1.6806981, 42.7948274 ], [ -1.6810947, 42.7946106 ], [ -1.6810295, 42.7945622 ], [ -1.6808973, 42.7945465 ], [ -1.6807414, 42.7945129 ], [ -1.6805575, 42.794447 ], [ -1.6803244, 42.7943487 ], [ -1.6801247, 42.7942538 ], [ -1.679959, 42.7941481 ], [ -1.6797864, 42.7940499 ], [ -1.679654, 42.7939858 ], [ -1.6792092, 42.7938136 ], [ -1.6787494, 42.7936467 ], [ -1.6782741, 42.7933936 ], [ -1.6780735, 42.7932947 ], [ -1.6776519, 42.7931 ], [ -1.6772049, 42.7929001 ], [ -1.6769047, 42.7927628 ], [ -1.6766929, 42.7926392 ], [ -1.6763644, 42.7924459 ], [ -1.6762831, 42.7925459 ], [ -1.6760717, 42.7927393 ], [ -1.6760192, 42.7928375 ], [ -1.6759381, 42.7929524 ], [ -1.6758882, 42.7930548 ], [ -1.6758327, 42.7932142 ], [ -1.6757914, 42.7933676 ], [ -1.6757573, 42.7934575 ], [ -1.6756593, 42.7937631 ], [ -1.6755936, 42.7939165 ], [ -1.6754764, 42.7941724 ], [ -1.6753691, 42.7944087 ], [ -1.6752858, 42.7945901 ], [ -1.6752252, 42.7946911 ], [ -1.6749016, 42.7951187 ], [ -1.6748, 42.7952608 ], [ -1.6746869, 42.7954237 ], [ -1.674579, 42.795568 ], [ -1.6744502, 42.7957313 ], [ -1.6743787, 42.7958233 ], [ -1.6743088, 42.7959152 ], [ -1.6742127, 42.7960423 ], [ -1.6740789, 42.7962192 ], [ -1.673982, 42.7963435 ], [ -1.6739514, 42.7963823 ], [ -1.6738219, 42.7965689 ], [ -1.6736827, 42.7967497 ], [ -1.6735744, 42.7968988 ], [ -1.6735194, 42.7969695 ], [ -1.6735017, 42.7969991 ], [ -1.6734487, 42.7970679 ], [ -1.6733847, 42.7971543 ], [ -1.6733266, 42.7972352 ], [ -1.6731668, 42.7972055 ], [ -1.6730142, 42.7971542 ], [ -1.6728302, 42.7970875 ], [ -1.6726972, 42.7970367 ], [ -1.6725588, 42.7969805 ], [ -1.67249, 42.7969506 ], [ -1.6722783, 42.796856 ], [ -1.6720409, 42.7967426 ], [ -1.6718799, 42.7966538 ], [ -1.6716638, 42.7965411 ], [ -1.6715039, 42.7964433 ], [ -1.6713586, 42.7963532 ], [ -1.6712701, 42.7962915 ], [ -1.6711879, 42.7962206 ], [ -1.6710788, 42.7961361 ], [ -1.6709728, 42.7960668 ], [ -1.6707494, 42.7958712 ], [ -1.670602, 42.7957433 ], [ -1.6704949, 42.7956595 ], [ -1.6704119, 42.7955644 ], [ -1.6703088, 42.7956637 ], [ -1.6702023, 42.7957944 ], [ -1.6700799, 42.7959316 ], [ -1.6699819, 42.7960499 ], [ -1.6699415, 42.796098 ], [ -1.6698443, 42.7962169 ], [ -1.6697667, 42.7962994 ], [ -1.669717, 42.7963511 ], [ -1.6696801, 42.7963929 ], [ -1.6696685, 42.7964986 ], [ -1.6697186, 42.7965805 ], [ -1.6699177, 42.796679 ], [ -1.6702518, 42.7968396 ], [ -1.6705935, 42.7970015 ], [ -1.6706365, 42.797022 ], [ -1.6707413, 42.7970818 ], [ -1.6708158, 42.797124 ], [ -1.6709062, 42.7971844 ], [ -1.6710594, 42.7972868 ], [ -1.6712273, 42.7974161 ], [ -1.6715115, 42.79764 ], [ -1.671667, 42.7977594 ], [ -1.6717877, 42.7978532 ], [ -1.6719891, 42.7980177 ], [ -1.6721882, 42.798176 ], [ -1.6723353, 42.7982902 ], [ -1.6724566, 42.7983866 ], [ -1.6726397, 42.7985347 ], [ -1.67246, 42.7984928 ], [ -1.6721586, 42.7984298 ], [ -1.6721014, 42.798417 ], [ -1.6719642, 42.7983856 ], [ -1.6718607, 42.7983621 ], [ -1.6715978, 42.7983159 ], [ -1.671283, 42.7986618 ], [ -1.6710455, 42.798928 ], [ -1.6708362, 42.7991592 ], [ -1.670654, 42.7993668 ], [ -1.6705713, 42.7994589 ], [ -1.6701577, 42.7995716 ], [ -1.6700478, 42.7996006 ], [ -1.6699333, 42.7996359 ], [ -1.6699021, 42.7996405 ], [ -1.669717, 42.799681 ], [ -1.6695403, 42.7997128 ], [ -1.6692409, 42.7997524 ], [ -1.6690264, 42.7997783 ], [ -1.6688197, 42.7997912 ], [ -1.6686221, 42.799784 ], [ -1.6684547, 42.7997535 ], [ -1.6682852, 42.7997018 ], [ -1.6680533, 42.7995955 ], [ -1.6678299, 42.7994992 ], [ -1.6676468, 42.7994271 ], [ -1.6674135, 42.7993363 ], [ -1.6673218, 42.7992688 ], [ -1.667296, 42.7991999 ], [ -1.6673178, 42.7991025 ], [ -1.6674542, 42.7988678 ], [ -1.6674907, 42.7987641 ], [ -1.6674999, 42.7986511 ], [ -1.6674825, 42.7985161 ], [ -1.6674607, 42.798419 ], [ -1.6674026, 42.7983195 ], [ -1.6672846, 42.7981564 ], [ -1.6672106, 42.7980445 ], [ -1.6671383, 42.7979473 ], [ -1.6670813, 42.7978907 ], [ -1.667029, 42.7978277 ], [ -1.6669998, 42.7977937 ], [ -1.6669711, 42.7977413 ], [ -1.6669029, 42.797622 ], [ -1.6668504, 42.7974628 ], [ -1.6667915, 42.7972982 ], [ -1.6667086, 42.7971043 ], [ -1.6666349, 42.7969304 ], [ -1.6666134, 42.7967407 ], [ -1.6665012, 42.7966004 ], [ -1.6663527, 42.7964142 ], [ -1.6661847, 42.7963189 ], [ -1.6660208, 42.7962242 ], [ -1.6659647, 42.7962051 ], [ -1.6657243, 42.7961901 ], [ -1.6655576, 42.7961787 ], [ -1.6654609, 42.7961888 ], [ -1.6653198, 42.7962663 ], [ -1.6652437, 42.7964453 ], [ -1.6652158, 42.7965839 ], [ -1.6650478, 42.7968162 ], [ -1.6648553, 42.7968131 ], [ -1.6643725, 42.7968062 ], [ -1.6642015, 42.7967665 ], [ -1.6638582, 42.7967634 ], [ -1.6634832, 42.7967582 ], [ -1.663184, 42.7967385 ], [ -1.6629559, 42.7967596 ], [ -1.6628406, 42.7968006 ], [ -1.6625853, 42.7968172 ], [ -1.6624519, 42.7967977 ], [ -1.6622766, 42.796705 ], [ -1.6621663, 42.7966126 ], [ -1.6620983, 42.7966237 ], [ -1.6620513, 42.7966661 ], [ -1.6619449, 42.7967507 ], [ -1.6616635, 42.7966768 ], [ -1.6615318, 42.7966454 ], [ -1.6612427, 42.7964924 ], [ -1.6609342, 42.7963349 ], [ -1.6607264, 42.7962316 ], [ -1.6603645, 42.7960491 ], [ -1.6600741, 42.795911 ], [ -1.6597999, 42.7957842 ], [ -1.6596414, 42.7957101 ], [ -1.6593548, 42.795578 ], [ -1.6592108, 42.7955127 ], [ -1.6590728, 42.7954567 ], [ -1.6588031, 42.7953478 ], [ -1.6585824, 42.7952571 ], [ -1.6583535, 42.7951747 ], [ -1.6581066, 42.7950875 ], [ -1.6579384, 42.7950293 ], [ -1.6576846, 42.7949396 ], [ -1.6574596, 42.7948609 ], [ -1.6571909, 42.7947692 ], [ -1.6569204, 42.7946791 ], [ -1.656704, 42.7946145 ], [ -1.6565197, 42.7945648 ], [ -1.6561828, 42.7944851 ], [ -1.6560757, 42.7944595 ], [ -1.6560297, 42.7944304 ], [ -1.6559758, 42.7944038 ], [ -1.6557608, 42.7943314 ], [ -1.6553887, 42.7942055 ], [ -1.6549911, 42.7940711 ], [ -1.6546614, 42.7939597 ], [ -1.6543439, 42.7938546 ], [ -1.6540425, 42.7937611 ], [ -1.6538015, 42.7936933 ], [ -1.6536191, 42.7936401 ], [ -1.6534298, 42.7935868 ], [ -1.6533785, 42.793568 ], [ -1.653324, 42.7935457 ], [ -1.6532415, 42.7935022 ], [ -1.6531657, 42.7934537 ], [ -1.6530844, 42.7933958 ], [ -1.6529979, 42.7933209 ], [ -1.6529213, 42.7932418 ], [ -1.6528722, 42.7931789 ], [ -1.6528195, 42.7930976 ], [ -1.6527849, 42.7930335 ], [ -1.6527795, 42.793007 ], [ -1.6527797, 42.7929821 ], [ -1.6527908, 42.7929636 ], [ -1.6528026, 42.7929506 ], [ -1.6526856, 42.7929079 ], [ -1.6525825, 42.7928867 ], [ -1.6525622, 42.7927457 ], [ -1.6526153, 42.792485 ], [ -1.6526551, 42.7922887 ], [ -1.6526992, 42.7920739 ], [ -1.6527428, 42.7918622 ], [ -1.6527793, 42.7916785 ], [ -1.6528258, 42.7914905 ], [ -1.6528706, 42.7912961 ], [ -1.6529066, 42.7911456 ], [ -1.6529543, 42.7909443 ], [ -1.6529831, 42.7908193 ], [ -1.6530208, 42.7906977 ], [ -1.6530606, 42.790566 ], [ -1.6530958, 42.7905581 ], [ -1.6531212, 42.7905522 ], [ -1.6531683, 42.7905379 ], [ -1.6532054, 42.7905265 ], [ -1.6532724, 42.7904981 ], [ -1.6533348, 42.7904648 ], [ -1.6533988, 42.7904191 ], [ -1.6534516, 42.7903657 ], [ -1.6534942, 42.7903127 ], [ -1.6535219, 42.7902582 ], [ -1.65355, 42.7901625 ], [ -1.6535542, 42.7900912 ], [ -1.6535387, 42.7900137 ], [ -1.6535083, 42.7899366 ], [ -1.6534683, 42.7898795 ], [ -1.653417, 42.7898218 ], [ -1.653378, 42.7897945 ], [ -1.6534302, 42.7896796 ], [ -1.6531151, 42.7896705 ], [ -1.6528144, 42.7896619 ], [ -1.6527945, 42.7897314 ], [ -1.652787, 42.7897471 ], [ -1.6527776, 42.7897589 ], [ -1.6527623, 42.7897733 ], [ -1.6527381, 42.7897896 ], [ -1.6527124, 42.7897997 ], [ -1.6526875, 42.789805 ], [ -1.6526389, 42.7898288 ], [ -1.6525981, 42.7898546 ], [ -1.6525653, 42.7898783 ], [ -1.6525222, 42.789918 ], [ -1.6524932, 42.7899578 ], [ -1.652472, 42.7899933 ], [ -1.652465, 42.7900095 ], [ -1.6522189, 42.7900381 ], [ -1.6518946, 42.7900748 ], [ -1.651583, 42.7901112 ], [ -1.6513081, 42.7901427 ], [ -1.6509864, 42.7901804 ], [ -1.6505295, 42.7902318 ], [ -1.6501778, 42.7902734 ], [ -1.6498625, 42.7903093 ], [ -1.6494097, 42.7903628 ], [ -1.6489353, 42.7904165 ], [ -1.6486981, 42.7904438 ], [ -1.6483989, 42.7904781 ], [ -1.6481179, 42.7905107 ], [ -1.6480157, 42.7905244 ], [ -1.6474555, 42.7901234 ], [ -1.6470421, 42.7898273 ], [ -1.6465121, 42.7894488 ], [ -1.6463474, 42.7893339 ], [ -1.6462523, 42.7892673 ], [ -1.6460071, 42.7891747 ], [ -1.6457623, 42.788947 ], [ -1.6457348, 42.7888935 ], [ -1.6454903, 42.7890817 ], [ -1.6455002, 42.7890895 ], [ -1.6452594, 42.789043 ], [ -1.6448825, 42.7889673 ], [ -1.64431, 42.788856 ], [ -1.6442247, 42.7888387 ], [ -1.6441083, 42.7890627 ], [ -1.6441359, 42.7891428 ], [ -1.6442161, 42.7892697 ], [ -1.6442845, 42.7893788 ], [ -1.6442738, 42.7895335 ], [ -1.6442549, 42.7896075 ], [ -1.64422, 42.789777 ], [ -1.644199, 42.7899216 ], [ -1.6441999, 42.7900326 ], [ -1.6442113, 42.7901557 ], [ -1.6442287, 42.7902617 ], [ -1.6442716, 42.7903753 ], [ -1.6443009, 42.7905045 ], [ -1.6443368, 42.7906157 ], [ -1.6443366, 42.7907384 ], [ -1.6443395, 42.7908191 ], [ -1.6443354, 42.7908823 ], [ -1.6443262, 42.7909471 ], [ -1.6443102, 42.791007 ], [ -1.6442884, 42.791069 ], [ -1.6442609, 42.7911288 ], [ -1.6442295, 42.7911871 ], [ -1.6441883, 42.7912477 ], [ -1.644136, 42.7913133 ], [ -1.6440579, 42.7913947 ], [ -1.6439345, 42.7915201 ], [ -1.6438112, 42.7916314 ], [ -1.6437546, 42.791693 ], [ -1.6436996, 42.7917553 ], [ -1.643666, 42.7917999 ], [ -1.6436444, 42.791828 ], [ -1.6436175, 42.7918661 ], [ -1.6435044, 42.7920867 ], [ -1.643425, 42.7922148 ], [ -1.6433752, 42.7922804 ], [ -1.6433119, 42.7923562 ], [ -1.6432413, 42.7924299 ], [ -1.6431585, 42.7925059 ], [ -1.6430883, 42.7925601 ], [ -1.6429783, 42.7926275 ], [ -1.6428964, 42.7926688 ], [ -1.6428117, 42.7927173 ], [ -1.6427263, 42.7927799 ], [ -1.6426843, 42.7928313 ], [ -1.6425965, 42.7929449 ], [ -1.6425164, 42.7930463 ], [ -1.6424941, 42.7930795 ], [ -1.6424699, 42.7931189 ], [ -1.6424144, 42.7932115 ], [ -1.6423012, 42.793403 ], [ -1.6421415, 42.7935762 ], [ -1.6420865, 42.7936454 ], [ -1.6420108, 42.7937378 ], [ -1.6419241, 42.7938455 ], [ -1.6418872, 42.7938917 ], [ -1.6416975, 42.7939413 ], [ -1.6415266, 42.7939866 ], [ -1.6412844, 42.7940512 ], [ -1.6409725, 42.794134 ], [ -1.6410259, 42.7942435 ], [ -1.6406463, 42.7943435 ], [ -1.640429, 42.7944009 ], [ -1.6404393, 42.7945698 ], [ -1.6404495, 42.7946473 ], [ -1.6404714, 42.7947407 ], [ -1.6405086, 42.7948317 ], [ -1.6405431, 42.7949021 ], [ -1.6405843, 42.7949781 ], [ -1.6406311, 42.7950654 ], [ -1.6406738, 42.7951446 ], [ -1.6407616, 42.7952379 ], [ -1.6408472, 42.7953145 ], [ -1.6409438, 42.7953841 ], [ -1.6409926, 42.7954316 ], [ -1.6406223, 42.7955096 ], [ -1.6397523, 42.7957607 ], [ -1.6395917, 42.795807 ], [ -1.6390366, 42.795669 ], [ -1.6386764, 42.7955799 ], [ -1.6384324, 42.7955146 ], [ -1.6381045, 42.7954236 ], [ -1.6378479, 42.7953523 ], [ -1.6377564, 42.7953267 ], [ -1.6376609, 42.7952216 ], [ -1.6376259, 42.7951567 ], [ -1.6375946, 42.795084 ], [ -1.6375651, 42.7949922 ], [ -1.6375443, 42.7949128 ], [ -1.637519, 42.7948186 ], [ -1.6374921, 42.7947368 ], [ -1.637482, 42.7947035 ], [ -1.6374582, 42.794617 ], [ -1.6374366, 42.794532 ], [ -1.6374083, 42.7944363 ], [ -1.6373918, 42.7943799 ], [ -1.6372621, 42.7943925 ], [ -1.6371011, 42.7943911 ], [ -1.6369727, 42.794393 ], [ -1.6368373, 42.7944049 ], [ -1.6367637, 42.7944108 ], [ -1.6367117, 42.794415 ], [ -1.6366086, 42.7944204 ], [ -1.636481, 42.7944272 ], [ -1.6363307, 42.7944338 ], [ -1.636292, 42.7944356 ], [ -1.6361792, 42.7947596 ], [ -1.6361587, 42.7948188 ], [ -1.6360325, 42.7948155 ], [ -1.6358945, 42.7947865 ], [ -1.6356709, 42.7947164 ], [ -1.6353405, 42.794593 ], [ -1.6350493, 42.7944844 ], [ -1.634817, 42.7943983 ], [ -1.6346558, 42.794338 ], [ -1.6345039, 42.7944007 ], [ -1.6344281, 42.7944313 ], [ -1.6341217, 42.7945874 ], [ -1.6340089, 42.7946296 ], [ -1.6339392, 42.7946472 ], [ -1.6338534, 42.7946613 ], [ -1.6335686, 42.7946781 ], [ -1.633153, 42.7945422 ], [ -1.6330149, 42.7944974 ], [ -1.6330316, 42.7942494 ], [ -1.6330461, 42.7940691 ], [ -1.6330708, 42.7938497 ], [ -1.6330945, 42.7936703 ], [ -1.633125, 42.7934746 ], [ -1.6331593, 42.7932973 ], [ -1.6331861, 42.7931444 ], [ -1.6332254, 42.7929214 ], [ -1.6332677, 42.7926727 ], [ -1.6333586, 42.7921057 ], [ -1.6334002, 42.7917795 ], [ -1.633417, 42.7915761 ], [ -1.6334225, 42.7914667 ], [ -1.6334209, 42.7912957 ], [ -1.6334222, 42.7909788 ], [ -1.6334195, 42.7907405 ], [ -1.6334066, 42.7905561 ], [ -1.6333988, 42.7904357 ], [ -1.6333698, 42.7901944 ], [ -1.6333418, 42.7899622 ], [ -1.633308, 42.7896864 ], [ -1.6332855, 42.7894968 ], [ -1.6332409, 42.7893178 ], [ -1.6331855, 42.7890971 ], [ -1.6331208, 42.7888439 ], [ -1.6327661, 42.7888045 ], [ -1.6324796, 42.7887736 ], [ -1.6323307, 42.7887572 ], [ -1.6321137, 42.7887723 ], [ -1.6319785, 42.788782 ], [ -1.6317669, 42.7887838 ], [ -1.6313779, 42.7887874 ], [ -1.6313084, 42.7887875 ], [ -1.630894, 42.7889152 ], [ -1.6304324, 42.7890586 ], [ -1.6297905, 42.7892555 ], [ -1.6293972, 42.7893764 ], [ -1.629018, 42.7894935 ], [ -1.6287144, 42.7895866 ], [ -1.6284594, 42.7896653 ], [ -1.6281618, 42.7897572 ], [ -1.6277986, 42.7898686 ], [ -1.6275543, 42.7899441 ], [ -1.6274262, 42.7899837 ], [ -1.627307, 42.7900921 ], [ -1.6272519, 42.7901429 ], [ -1.6272166, 42.7901861 ], [ -1.6271118, 42.7902793 ], [ -1.6269747, 42.7903352 ], [ -1.6268163, 42.7903501 ], [ -1.6267468, 42.7903414 ], [ -1.6266898, 42.7903262 ], [ -1.62659, 42.790284 ], [ -1.6264963, 42.7902543 ], [ -1.6264119, 42.7902619 ], [ -1.6261227, 42.790339 ], [ -1.625327, 42.7905513 ], [ -1.6251506, 42.7905981 ], [ -1.6252612, 42.7909909 ], [ -1.6253195, 42.7911975 ], [ -1.6254452, 42.7916359 ], [ -1.6254637, 42.7916987 ], [ -1.625496, 42.7919034 ], [ -1.6255874, 42.7922246 ], [ -1.6256758, 42.7924299 ], [ -1.625718, 42.7926133 ], [ -1.6257271, 42.7926526 ], [ -1.6258648, 42.7929865 ], [ -1.6259348, 42.7931428 ], [ -1.6259671, 42.7932109 ], [ -1.6259905, 42.7932602 ], [ -1.6260354, 42.7933586 ], [ -1.6260739, 42.7934395 ], [ -1.6261295, 42.793568 ], [ -1.6261882, 42.7937027 ], [ -1.6262291, 42.7938016 ], [ -1.6262768, 42.7939033 ], [ -1.6263352, 42.7940242 ], [ -1.6263824, 42.7941206 ], [ -1.6264194, 42.7941982 ], [ -1.6264719, 42.7943067 ], [ -1.6265442, 42.7944564 ], [ -1.6266287, 42.7946765 ], [ -1.6268134, 42.795177 ], [ -1.6268686, 42.7953396 ], [ -1.6268594, 42.7954048 ], [ -1.6270216, 42.7955318 ], [ -1.6271979, 42.795596 ], [ -1.6273139, 42.7956267 ], [ -1.6274386, 42.795642 ], [ -1.6276299, 42.7956465 ], [ -1.6279725, 42.7956478 ], [ -1.6280561, 42.7957676 ], [ -1.6284777, 42.7961282 ], [ -1.6287524, 42.7963594 ], [ -1.6291554, 42.796695 ], [ -1.6292232, 42.7967504 ], [ -1.629405, 42.7969145 ], [ -1.6296255, 42.7971162 ], [ -1.6298367, 42.7973178 ], [ -1.6295612, 42.7974556 ], [ -1.6292713, 42.7975703 ], [ -1.6288595, 42.7977075 ], [ -1.6286181, 42.7977592 ], [ -1.6283595, 42.7977967 ], [ -1.6279325, 42.7978425 ], [ -1.6277196, 42.7978627 ], [ -1.6274761, 42.7979021 ], [ -1.6265614, 42.7979845 ], [ -1.6262258, 42.7979767 ], [ -1.6260836, 42.7979812 ], [ -1.625962, 42.798004 ], [ -1.6252732, 42.7980001 ], [ -1.6251947, 42.7983569 ], [ -1.6251273, 42.7985337 ], [ -1.6249811, 42.7986878 ], [ -1.6247227, 42.7988795 ], [ -1.6242097, 42.7991921 ], [ -1.624706, 42.7998698 ], [ -1.6244116, 42.800248 ], [ -1.6237793, 42.8010926 ], [ -1.623431, 42.8015584 ], [ -1.6234272, 42.8016104 ], [ -1.6235031, 42.8016865 ], [ -1.6237414, 42.8018302 ], [ -1.6239898, 42.8019693 ], [ -1.6242355, 42.8020842 ], [ -1.6245548, 42.8022094 ], [ -1.6247986, 42.8023059 ], [ -1.6251727, 42.8024481 ], [ -1.6251134, 42.8025921 ], [ -1.6249995, 42.8028163 ], [ -1.6248275, 42.8030693 ], [ -1.6244687, 42.8032917 ], [ -1.6244232, 42.8032863 ], [ -1.6243513, 42.8032845 ], [ -1.6242781, 42.8032933 ], [ -1.6242003, 42.8033118 ], [ -1.6241304, 42.8033389 ], [ -1.6240583, 42.8033806 ], [ -1.6240026, 42.803429 ], [ -1.6239732, 42.8034638 ], [ -1.6239504, 42.8035005 ], [ -1.6239343, 42.8035341 ], [ -1.6239231, 42.803577 ], [ -1.6239179, 42.8036188 ], [ -1.6221011, 42.804712 ], [ -1.622059, 42.8047311 ], [ -1.6220301, 42.8047386 ], [ -1.6219891, 42.8047442 ], [ -1.6219471, 42.8047429 ], [ -1.6219058, 42.8047367 ], [ -1.6218498, 42.8047294 ], [ -1.6217802, 42.804726 ], [ -1.6216864, 42.8047303 ], [ -1.6215623, 42.8047507 ], [ -1.621454, 42.8047878 ], [ -1.6213805, 42.8048246 ], [ -1.6213116, 42.8048686 ], [ -1.6212593, 42.8049151 ], [ -1.6212143, 42.8049656 ], [ -1.6211688, 42.8050373 ], [ -1.6211326, 42.8051846 ], [ -1.6211523, 42.8053221 ], [ -1.6211974, 42.8054037 ], [ -1.62127, 42.805489 ], [ -1.6213541, 42.8055527 ], [ -1.6210786, 42.8057063 ], [ -1.6208786, 42.8057877 ], [ -1.6205873, 42.8058796 ], [ -1.6204649, 42.805904 ], [ -1.6202115, 42.8059512 ], [ -1.6198692, 42.805977 ], [ -1.6191963, 42.8059431 ], [ -1.6190279, 42.8059235 ], [ -1.6182327, 42.8058029 ], [ -1.6177997, 42.8057267 ], [ -1.6173381, 42.8056357 ], [ -1.617114, 42.8055854 ], [ -1.616915, 42.8055345 ], [ -1.6164465, 42.8054172 ], [ -1.6157764, 42.8052463 ], [ -1.6157201, 42.8053128 ], [ -1.615654, 42.805355 ], [ -1.615595, 42.8053853 ], [ -1.615526, 42.8054042 ], [ -1.6153805, 42.80541 ], [ -1.6152422, 42.805373 ], [ -1.6151341, 42.8052949 ], [ -1.6150818, 42.8052117 ], [ -1.6150697, 42.8051621 ], [ -1.6150698, 42.8051197 ], [ -1.6150804, 42.8050757 ], [ -1.6151174, 42.8050071 ], [ -1.6145029, 42.8047298 ], [ -1.6140176, 42.8045413 ], [ -1.6136602, 42.8044078 ], [ -1.6134764, 42.8043438 ], [ -1.6129156, 42.8041594 ], [ -1.6127851, 42.8048139 ], [ -1.6123937, 42.8045952 ], [ -1.6118978, 42.8043007 ], [ -1.6117111, 42.8042095 ], [ -1.6109503, 42.8036572 ], [ -1.6106684, 42.8034263 ], [ -1.6103812, 42.8031664 ], [ -1.6101022, 42.8028982 ], [ -1.6098528, 42.8029561 ], [ -1.6095169, 42.8031516 ], [ -1.6091154, 42.8033656 ], [ -1.6077312, 42.8040177 ], [ -1.606675, 42.8046319 ], [ -1.6054946, 42.8053193 ], [ -1.6050721, 42.8055628 ], [ -1.6052289, 42.8057408 ], [ -1.6055556, 42.806084 ], [ -1.6059489, 42.8065023 ], [ -1.6063008, 42.8068634 ], [ -1.6065855, 42.8071335 ], [ -1.6068406, 42.8074014 ], [ -1.607021, 42.8075612 ], [ -1.6071917, 42.8077494 ], [ -1.60746, 42.8081198 ], [ -1.6076493, 42.8083094 ], [ -1.6078696, 42.8085589 ], [ -1.6078938, 42.8086011 ], [ -1.6079294, 42.8088364 ], [ -1.6079461, 42.8089473 ], [ -1.6079738, 42.8091302 ], [ -1.6079563, 42.8091912 ], [ -1.6079328, 42.8092279 ], [ -1.6077262, 42.8094711 ], [ -1.6075589, 42.8096955 ], [ -1.6079446, 42.8106629 ], [ -1.6080956, 42.8110111 ], [ -1.6083326, 42.8114656 ], [ -1.6080785, 42.8116574 ], [ -1.6077989, 42.8118485 ], [ -1.6076162, 42.8119579 ], [ -1.6072263, 42.8121843 ], [ -1.6067151, 42.8124454 ], [ -1.6063909, 42.812609 ], [ -1.6061135, 42.812732 ], [ -1.6056128, 42.8129537 ], [ -1.6047705, 42.8133428 ], [ -1.6045175, 42.8134918 ], [ -1.6044942, 42.8135635 ], [ -1.6045495, 42.8136548 ], [ -1.6045713, 42.8137234 ], [ -1.6049488, 42.813783 ], [ -1.6053575, 42.8138923 ], [ -1.605503, 42.8139263 ], [ -1.605676, 42.8139714 ], [ -1.6057117, 42.8139905 ], [ -1.6057292, 42.8140092 ], [ -1.6057403, 42.8140312 ], [ -1.6057487, 42.8140772 ], [ -1.6059635, 42.8141028 ], [ -1.6060273, 42.8140835 ], [ -1.6062289, 42.8141102 ], [ -1.6062652, 42.8141142 ], [ -1.606304, 42.8141149 ], [ -1.6063345, 42.8141119 ], [ -1.6063581, 42.8141066 ], [ -1.6064096, 42.8140888 ], [ -1.6064395, 42.8140792 ], [ -1.6064799, 42.8140717 ], [ -1.6065149, 42.814069 ], [ -1.6065597, 42.814071 ], [ -1.606603, 42.814077 ], [ -1.6066348, 42.8140851 ], [ -1.6066644, 42.8140941 ], [ -1.6066963, 42.8141053 ], [ -1.6067366, 42.8141226 ], [ -1.6067689, 42.814139 ], [ -1.6067998, 42.814156 ], [ -1.6068394, 42.8141773 ], [ -1.6068927, 42.8141977 ], [ -1.6069755, 42.8142123 ], [ -1.6070349, 42.8142151 ], [ -1.6071189, 42.8142195 ], [ -1.607242, 42.8142262 ], [ -1.6087116, 42.8143195 ], [ -1.6086378, 42.8145119 ], [ -1.6090544, 42.814522 ], [ -1.6095331, 42.8145328 ], [ -1.6101473, 42.8145576 ], [ -1.6108105, 42.8145938 ], [ -1.6114731, 42.8146321 ], [ -1.6137747, 42.814754 ], [ -1.6143152, 42.8147829 ], [ -1.6143183, 42.8149087 ], [ -1.6143285, 42.8149522 ], [ -1.6143409, 42.8149921 ], [ -1.6143514, 42.8150213 ], [ -1.614364, 42.8150491 ], [ -1.614391, 42.8150998 ], [ -1.6139941, 42.8160577 ], [ -1.6138424, 42.8164312 ], [ -1.6138249, 42.8164425 ], [ -1.6137897, 42.8164529 ], [ -1.6137354, 42.8164731 ], [ -1.6136924, 42.8164924 ], [ -1.6136469, 42.8165263 ], [ -1.6136136, 42.8165592 ], [ -1.6135863, 42.8165947 ], [ -1.6135697, 42.8166391 ], [ -1.6135644, 42.8166697 ], [ -1.6135645, 42.8167106 ], [ -1.6135701, 42.8167472 ], [ -1.6135867, 42.8167849 ], [ -1.6136165, 42.8168324 ], [ -1.6136513, 42.8168652 ], [ -1.6137199, 42.816909 ], [ -1.6138041, 42.8169375 ], [ -1.6138877, 42.8169482 ], [ -1.6139769, 42.8169469 ], [ -1.6140574, 42.8169243 ], [ -1.6141196, 42.8168974 ], [ -1.6142009, 42.8168427 ], [ -1.6170048, 42.8174808 ], [ -1.6169456, 42.8175533 ], [ -1.6166684, 42.8186272 ], [ -1.6165548, 42.8186502 ], [ -1.6164139, 42.8186993 ], [ -1.6163487, 42.8187199 ], [ -1.6163335, 42.8187679 ], [ -1.6163478, 42.8188159 ], [ -1.6163593, 42.8188545 ], [ -1.6163703, 42.818891 ], [ -1.6168104, 42.8191901 ], [ -1.6172466, 42.8191756 ], [ -1.6175652, 42.8191553 ], [ -1.6178422, 42.8192381 ], [ -1.6190215, 42.81992 ], [ -1.6198853, 42.8206149 ], [ -1.6201532, 42.8208685 ], [ -1.620563, 42.8211981 ], [ -1.6213127, 42.8215351 ], [ -1.6219937, 42.8219405 ], [ -1.6227495, 42.8220541 ], [ -1.6247894, 42.8219054 ], [ -1.6259056, 42.8218357 ], [ -1.6266007, 42.8215383 ], [ -1.6266857, 42.8218765 ], [ -1.6267111, 42.8219775 ], [ -1.6268217, 42.822549 ], [ -1.6268925, 42.8229152 ], [ -1.6269084, 42.8229901 ], [ -1.6271537, 42.8242779 ], [ -1.6271701, 42.8244515 ], [ -1.6271937, 42.8248415 ], [ -1.627241, 42.8254796 ], [ -1.6273387, 42.826904 ], [ -1.6272784, 42.8269953 ], [ -1.6271366, 42.8271332 ], [ -1.6271341, 42.8272077 ], [ -1.627099, 42.8272636 ], [ -1.6270729, 42.8272955 ], [ -1.6270404, 42.8273227 ], [ -1.6269583, 42.8273787 ], [ -1.6269088, 42.8274073 ], [ -1.6268679, 42.8274313 ], [ -1.6266958, 42.8275141 ], [ -1.6264947, 42.8276276 ], [ -1.6263067, 42.8278409 ], [ -1.6262752, 42.8278764 ], [ -1.6262683, 42.8278926 ], [ -1.6262366, 42.8279227 ], [ -1.626159, 42.8279661 ], [ -1.6261105, 42.8280015 ], [ -1.6260834, 42.8280224 ], [ -1.6260158, 42.8280811 ], [ -1.6259437, 42.828156 ], [ -1.6258988, 42.828197 ], [ -1.6258541, 42.8282363 ], [ -1.6258295, 42.8282529 ], [ -1.6257758, 42.8282844 ], [ -1.625719, 42.8283143 ], [ -1.6256745, 42.8283363 ], [ -1.6256311, 42.8283565 ], [ -1.6255821, 42.8283746 ], [ -1.6255272, 42.8283924 ], [ -1.6254411, 42.8284123 ], [ -1.6252603, 42.8284697 ], [ -1.6252074, 42.8284844 ], [ -1.6251306, 42.8285019 ], [ -1.6249841, 42.828535 ], [ -1.6249051, 42.828538 ], [ -1.6248351, 42.8285416 ], [ -1.6246848, 42.8285514 ], [ -1.624653, 42.8285554 ], [ -1.6246167, 42.8285564 ], [ -1.6245693, 42.8285562 ], [ -1.6244756, 42.82855 ], [ -1.6243938, 42.8285443 ], [ -1.6242372, 42.828539 ], [ -1.6241799, 42.8285385 ], [ -1.6241507, 42.8285397 ], [ -1.6241035, 42.8285451 ], [ -1.624075, 42.82855 ], [ -1.6240333, 42.8285603 ], [ -1.6239562, 42.8285846 ], [ -1.6239081, 42.8286022 ], [ -1.6238312, 42.8286328 ], [ -1.6237695, 42.8286572 ], [ -1.6236913, 42.8286862 ], [ -1.6235915, 42.8287221 ], [ -1.62351, 42.828749 ], [ -1.6234288, 42.8287718 ], [ -1.6233797, 42.8287918 ], [ -1.6233288, 42.828811 ], [ -1.6232692, 42.8288299 ], [ -1.6232179, 42.828845 ], [ -1.6231659, 42.8288583 ], [ -1.6231139, 42.8288693 ], [ -1.6230717, 42.8288812 ], [ -1.622968, 42.8289238 ], [ -1.6227698, 42.8290044 ], [ -1.6226494, 42.8290434 ], [ -1.6225606, 42.8290731 ], [ -1.6224188, 42.8291792 ], [ -1.6220633, 42.8294373 ], [ -1.6218861, 42.8295664 ], [ -1.6217156, 42.8296914 ], [ -1.6219792, 42.8299894 ], [ -1.6225537, 42.8306367 ], [ -1.6232268, 42.8313973 ], [ -1.623173, 42.8314269 ], [ -1.6229744, 42.8315324 ], [ -1.6224617, 42.8324207 ], [ -1.6213068, 42.833947 ], [ -1.6211769, 42.8341187 ], [ -1.6215117, 42.8346941 ], [ -1.6216439, 42.8349176 ], [ -1.6218772, 42.8354436 ], [ -1.6220311, 42.8356763 ], [ -1.6222806, 42.8359117 ], [ -1.6219905, 42.8359285 ], [ -1.6215916, 42.8358086 ], [ -1.621077, 42.8355592 ], [ -1.620672, 42.8352993 ], [ -1.6203578, 42.8355782 ], [ -1.6202253, 42.8354626 ], [ -1.6198672, 42.8352921 ], [ -1.6196391, 42.8351675 ], [ -1.6188031, 42.8348144 ], [ -1.618631, 42.8347049 ], [ -1.6184623, 42.8346699 ], [ -1.6182871, 42.8346592 ], [ -1.6182396, 42.834663 ], [ -1.6180989, 42.8346728 ], [ -1.6180361, 42.8346764 ], [ -1.6179718, 42.834674 ], [ -1.6179207, 42.8346682 ], [ -1.6178649, 42.8346575 ], [ -1.6178198, 42.8346431 ], [ -1.6177457, 42.8346168 ], [ -1.6176227, 42.8345732 ], [ -1.6173442, 42.8346751 ], [ -1.61743, 42.8348796 ], [ -1.6175407, 42.83516 ], [ -1.6175589, 42.8353188 ], [ -1.6175245, 42.8357607 ], [ -1.6165088, 42.8356515 ], [ -1.6165956, 42.8363606 ], [ -1.6163284, 42.8379972 ], [ -1.6161912, 42.8388302 ], [ -1.6192257, 42.8396296 ], [ -1.6230815, 42.8403211 ], [ -1.6268906, 42.840907 ], [ -1.6291689, 42.8413754 ], [ -1.6340378, 42.8421739 ], [ -1.6356369, 42.841709 ], [ -1.638133, 42.8424401 ], [ -1.6393669, 42.8411594 ], [ -1.6393206, 42.8411294 ], [ -1.6392319, 42.8410978 ], [ -1.6390874, 42.8410643 ], [ -1.6388076, 42.8409615 ], [ -1.6384196, 42.8408513 ], [ -1.6379478, 42.8406962 ], [ -1.6376899, 42.8406297 ], [ -1.6374778, 42.8405398 ], [ -1.637066, 42.8404182 ], [ -1.6364633, 42.840253 ], [ -1.6362712, 42.8401818 ], [ -1.6360046, 42.8401002 ], [ -1.6357643, 42.84003 ], [ -1.6352468, 42.8398996 ], [ -1.6345781, 42.839711 ], [ -1.6336272, 42.8394126 ], [ -1.6329706, 42.8392276 ], [ -1.6326646, 42.8391577 ], [ -1.632458, 42.8390827 ], [ -1.6322086, 42.8390171 ], [ -1.6324083, 42.8384511 ], [ -1.6324679, 42.8382537 ], [ -1.6326586, 42.8376841 ], [ -1.6327997, 42.8372521 ], [ -1.6329711, 42.8367671 ], [ -1.6330267, 42.8365216 ], [ -1.6330938, 42.8361723 ], [ -1.6338751, 42.8361315 ], [ -1.6353364, 42.8360554 ], [ -1.6353036, 42.8350345 ], [ -1.6352793, 42.8343147 ], [ -1.6352565, 42.8335553 ], [ -1.6352173, 42.8323482 ], [ -1.6352151, 42.8322462 ], [ -1.6356745, 42.8320602 ], [ -1.6360364, 42.8319218 ], [ -1.6370419, 42.8315109 ], [ -1.6371457, 42.8314346 ], [ -1.6372105, 42.8314243 ], [ -1.6372652, 42.8313994 ], [ -1.6373177, 42.8313605 ], [ -1.6373634, 42.8313198 ], [ -1.6375346, 42.8312919 ], [ -1.6375943, 42.8312808 ], [ -1.6390745, 42.8311003 ], [ -1.6395456, 42.8310957 ], [ -1.6402145, 42.8310163 ], [ -1.6411292, 42.8306979 ], [ -1.6411643, 42.8308368 ], [ -1.6411746, 42.8309903 ], [ -1.641331, 42.8314437 ], [ -1.6414711, 42.8318259 ], [ -1.6415485, 42.8319428 ], [ -1.6417692, 42.8318857 ], [ -1.6439396, 42.8313236 ], [ -1.6440087, 42.8313064 ], [ -1.6440703, 42.8312911 ], [ -1.6442962, 42.8312348 ], [ -1.6446496, 42.8311626 ], [ -1.6447716, 42.8311824 ], [ -1.6449434, 42.8311417 ], [ -1.6457597, 42.8309015 ], [ -1.6467272, 42.8306257 ], [ -1.647102, 42.8305189 ], [ -1.6472766, 42.8304666 ], [ -1.6474268, 42.8304217 ], [ -1.647791, 42.830313 ], [ -1.6484574, 42.8301235 ], [ -1.6492483, 42.8298984 ], [ -1.6495435, 42.8302579 ], [ -1.6499847, 42.8306237 ], [ -1.6501168, 42.8307332 ], [ -1.6502057, 42.8308063 ], [ -1.6505594, 42.8310971 ], [ -1.6507114, 42.831222 ], [ -1.6508462, 42.8313251 ], [ -1.6511437, 42.8315407 ], [ -1.651154, 42.8315339 ], [ -1.6512936, 42.8316604 ], [ -1.6513986, 42.8317577 ], [ -1.6515249, 42.8318746 ], [ -1.6516776, 42.8320229 ], [ -1.6518226, 42.8321624 ], [ -1.6519969, 42.8323315 ], [ -1.6521862, 42.8325149 ], [ -1.6524529, 42.8327745 ], [ -1.6528797, 42.8331825 ], [ -1.6535516, 42.8326852 ], [ -1.6537719, 42.832662 ], [ -1.6560764, 42.8313428 ], [ -1.6561917, 42.8313656 ], [ -1.6564088, 42.831233 ], [ -1.6573125, 42.8310244 ], [ -1.6577663, 42.8309196 ], [ -1.6589671, 42.8308346 ], [ -1.6601765, 42.8309208 ], [ -1.6611318, 42.830878 ], [ -1.6616441, 42.830947 ], [ -1.6625151, 42.8314277 ], [ -1.6634591, 42.8318868 ], [ -1.6645006, 42.8323852 ], [ -1.6652355, 42.8329161 ], [ -1.6654842, 42.8332972 ], [ -1.6658116, 42.8334361 ], [ -1.6673901, 42.8322928 ], [ -1.6699095, 42.8306292 ], [ -1.67083, 42.8304958 ], [ -1.6711799, 42.8309007 ], [ -1.6718731, 42.8315337 ], [ -1.6736564, 42.8328784 ], [ -1.6765794, 42.8351037 ], [ -1.6796654, 42.8374563 ], [ -1.6804555, 42.8381175 ], [ -1.6811102, 42.8380485 ], [ -1.6807798, 42.8362515 ], [ -1.6870143, 42.8356002 ], [ -1.6871837, 42.8355857 ], [ -1.6916766, 42.8352026 ], [ -1.6927077, 42.834467 ], [ -1.693011, 42.83448 ], [ -1.6938568, 42.8345161 ], [ -1.6953841, 42.8340383 ] ] ] } }
]
}
