{
"type": "FeatureCollection",
"name": "pavlograd_ua",
"crs": { "type": "name", "properties": { "name": "urn:ogc:def:crs:OGC:1.3:CRS84" } },
"features": [
{ "type": "Feature", "properties": { "bbox_west": 35.7766646, "bbox_south": 48.4750335, "bbox_east": 35.9742405, "bbox_north": 48.5857654, "place_id": 191678123, "osm_type": "relation", "osm_id": 1746879, "lat": 48.5316759, "lon": 35.8703695, "class": "place", "type": "city", "place_rank": 16, "importance": 0.52241398003563533, "addresstype": "city", "name": "Pavlohrad", "display_name": "Pavlohrad, Павлоградська міська громада, Pavlohrad Raion, Dnipropetrovsk Oblast, 51400-51429, Ukraine" }, "geometry": { "type": "Polygon", "coordinates": [ [ [ 35.7766646, 48.577181 ], [ 35.7768583, 48.5768606 ], [ 35.7835895, 48.5715418 ], [ 35.7840738, 48.5710932 ], [ 35.7841706, 48.5706126 ], [ 35.7835143, 48.5607351 ], [ 35.7837313, 48.56069 ], [ 35.784013, 48.5606581 ], [ 35.7842571, 48.5606439 ], [ 35.7845232, 48.5606472 ], [ 35.7847586, 48.5606616 ], [ 35.7850027, 48.5606936 ], [ 35.7852066, 48.5607273 ], [ 35.7854828, 48.5607806 ], [ 35.7856759, 48.5608338 ], [ 35.7858813, 48.5609071 ], [ 35.7860434, 48.5609829 ], [ 35.7862097, 48.5610362 ], [ 35.7864234, 48.5610863 ], [ 35.7867864, 48.5611693 ], [ 35.786958, 48.5612261 ], [ 35.7870734, 48.5612829 ], [ 35.7871646, 48.5613397 ], [ 35.7872719, 48.5614232 ], [ 35.7876098, 48.561709 ], [ 35.7877376, 48.5618201 ], [ 35.7878271, 48.5619202 ], [ 35.7878888, 48.5620178 ], [ 35.7880928, 48.5624593 ], [ 35.7881597, 48.562664 ], [ 35.7881811, 48.5627847 ], [ 35.7881838, 48.5628983 ], [ 35.7881677, 48.5630101 ], [ 35.7881416, 48.563144 ], [ 35.7880363, 48.563548 ], [ 35.7879236, 48.5639686 ], [ 35.7877447, 48.5645502 ], [ 35.7876796, 48.5647656 ], [ 35.7876527, 48.5649573 ], [ 35.787672, 48.5651209 ], [ 35.7877064, 48.5652289 ], [ 35.7878217, 48.5653922 ], [ 35.7879612, 48.5655431 ], [ 35.7880872, 48.5656615 ], [ 35.7882428, 48.5657774 ], [ 35.7883984, 48.5658768 ], [ 35.7887184, 48.5660544 ], [ 35.7889295, 48.5661519 ], [ 35.789144, 48.5662193 ], [ 35.7894418, 48.5662903 ], [ 35.7899414, 48.5663769 ], [ 35.7904664, 48.5664661 ], [ 35.7909553, 48.5665588 ], [ 35.7912201, 48.56664 ], [ 35.7914373, 48.5667359 ], [ 35.7916451, 48.5668463 ], [ 35.7918316, 48.566979 ], [ 35.7919872, 48.5671157 ], [ 35.7921538, 48.5672812 ], [ 35.7922929, 48.5674476 ], [ 35.7924029, 48.5676144 ], [ 35.7926503, 48.5680232 ], [ 35.7928991, 48.5684486 ], [ 35.7931619, 48.5688483 ], [ 35.7934141, 48.5691763 ], [ 35.7935509, 48.5693166 ], [ 35.7937092, 48.5694568 ], [ 35.7938577, 48.5695601 ], [ 35.7940337, 48.5696644 ], [ 35.7942241, 48.5697514 ], [ 35.7944773, 48.5698367 ], [ 35.7947552, 48.5698863 ], [ 35.7950826, 48.5699116 ], [ 35.7953936, 48.5699111 ], [ 35.795711, 48.5698668 ], [ 35.795989, 48.5697816 ], [ 35.7962251, 48.5696875 ], [ 35.796496, 48.5695473 ], [ 35.7966984, 48.569405 ], [ 35.7969117, 48.5691976 ], [ 35.7970138, 48.5690764 ], [ 35.7970753, 48.5689492 ], [ 35.7971236, 48.5687983 ], [ 35.7971558, 48.568635 ], [ 35.7972094, 48.5684824 ], [ 35.7973111, 48.5683221 ], [ 35.7974052, 48.5682073 ], [ 35.7975742, 48.5680741 ], [ 35.7981276, 48.5677711 ], [ 35.7983628, 48.5676872 ], [ 35.7986203, 48.5676127 ], [ 35.7989314, 48.567547 ], [ 35.799227, 48.5675021 ], [ 35.7995135, 48.5674884 ], [ 35.7998112, 48.5674867 ], [ 35.8001757, 48.5675111 ], [ 35.8005515, 48.5675647 ], [ 35.8010665, 48.5676641 ], [ 35.8014581, 48.5677831 ], [ 35.8021342, 48.5680362 ], [ 35.8024983, 48.5681673 ], [ 35.8028394, 48.5682676 ], [ 35.8031398, 48.5683244 ], [ 35.8034386, 48.5683649 ], [ 35.8037272, 48.5683883 ], [ 35.8040035, 48.5683954 ], [ 35.8042529, 48.5683865 ], [ 35.8044602, 48.5683686 ], [ 35.8047679, 48.5683173 ], [ 35.8050887, 48.5682457 ], [ 35.8053794, 48.5681576 ], [ 35.8056879, 48.568044 ], [ 35.8059509, 48.5679215 ], [ 35.8062136, 48.567776 ], [ 35.8064487, 48.5676241 ], [ 35.8066401, 48.5674636 ], [ 35.8068135, 48.5672734 ], [ 35.8069164, 48.567121 ], [ 35.8069995, 48.5669471 ], [ 35.8070531, 48.5667252 ], [ 35.8070773, 48.566514 ], [ 35.8070639, 48.566356 ], [ 35.8070612, 48.5661661 ], [ 35.8071041, 48.5659194 ], [ 35.8071765, 48.5657153 ], [ 35.8072758, 48.5655555 ], [ 35.8073696, 48.5654419 ], [ 35.8076057, 48.5652094 ], [ 35.807956, 48.5649518 ], [ 35.8083191, 48.564723 ], [ 35.8084854, 48.5646112 ], [ 35.8086356, 48.5645047 ], [ 35.8087483, 48.5644035 ], [ 35.8088673, 48.5642751 ], [ 35.8089843, 48.5640964 ], [ 35.809105, 48.5639065 ], [ 35.8092204, 48.5637219 ], [ 35.8093116, 48.5635994 ], [ 35.8094092, 48.5634932 ], [ 35.80951, 48.5634042 ], [ 35.8096281, 48.563319 ], [ 35.8097702, 48.563232 ], [ 35.8099538, 48.5631377 ], [ 35.8101806, 48.5630421 ], [ 35.810371, 48.5629693 ], [ 35.8105266, 48.5629214 ], [ 35.8106902, 48.5628823 ], [ 35.8109189, 48.562849 ], [ 35.8111382, 48.5628326 ], [ 35.8113554, 48.5628291 ], [ 35.8115941, 48.5628468 ], [ 35.8118087, 48.5628805 ], [ 35.8120146, 48.5629342 ], [ 35.8122352, 48.5629853 ], [ 35.8124283, 48.5630119 ], [ 35.8125939, 48.5630197 ], [ 35.8127502, 48.5630208 ], [ 35.8129111, 48.5629995 ], [ 35.8130908, 48.5629675 ], [ 35.8132517, 48.5629196 ], [ 35.813418, 48.562861 ], [ 35.813616, 48.562779 ], [ 35.813815, 48.5626835 ], [ 35.8139486, 48.5626007 ], [ 35.814051, 48.5625113 ], [ 35.8141395, 48.5624155 ], [ 35.8142254, 48.562309 ], [ 35.8143729, 48.5620853 ], [ 35.8146032, 48.5615551 ], [ 35.8147269, 48.5612173 ], [ 35.8148074, 48.5609315 ], [ 35.8150124, 48.5601717 ], [ 35.815199, 48.5595521 ], [ 35.8153036, 48.5591438 ], [ 35.8153707, 48.5587782 ], [ 35.8154538, 48.5581852 ], [ 35.8155458, 48.5577562 ], [ 35.8156309, 48.5573864 ], [ 35.8157381, 48.5568556 ], [ 35.815836, 48.5561277 ], [ 35.8158752, 48.5555644 ], [ 35.8159018, 48.5551353 ], [ 35.8159339, 48.5548903 ], [ 35.8159581, 48.5547749 ], [ 35.816001, 48.5546417 ], [ 35.8160815, 48.5544482 ], [ 35.8161743, 48.5542515 ], [ 35.816583, 48.5535143 ], [ 35.8168942, 48.5529302 ], [ 35.8171195, 48.5525308 ], [ 35.8172777, 48.5522982 ], [ 35.8174294, 48.552093 ], [ 35.8176237, 48.5518809 ], [ 35.8178544, 48.5516608 ], [ 35.8180958, 48.551469 ], [ 35.8183292, 48.5513039 ], [ 35.8187289, 48.5510378 ], [ 35.8192438, 48.5507286 ], [ 35.8195093, 48.5505848 ], [ 35.8197394, 48.5504717 ], [ 35.820196, 48.5502848 ], [ 35.8204347, 48.5502031 ], [ 35.8208907, 48.5500735 ], [ 35.8212689, 48.5499492 ], [ 35.8217007, 48.5497983 ], [ 35.8227575, 48.5494538 ], [ 35.8234093, 48.5492461 ], [ 35.8237258, 48.5491555 ], [ 35.8240693, 48.5490677 ], [ 35.8244634, 48.5489886 ], [ 35.8248147, 48.5489318 ], [ 35.8250642, 48.5488998 ], [ 35.8253744, 48.5488798 ], [ 35.8257267, 48.5488768 ], [ 35.8260056, 48.5488927 ], [ 35.8263785, 48.5489336 ], [ 35.8266969, 48.5489791 ], [ 35.8270785, 48.5490295 ], [ 35.8274138, 48.5490579 ], [ 35.8277705, 48.5490703 ], [ 35.8283123, 48.5490614 ], [ 35.8286503, 48.5490419 ], [ 35.8288784, 48.5490178 ], [ 35.8291143, 48.5489833 ], [ 35.8292592, 48.5489496 ], [ 35.829412, 48.5489069 ], [ 35.8298695, 48.5487384 ], [ 35.8301148, 48.5486158 ], [ 35.8303401, 48.5485021 ], [ 35.8305507, 48.5483597 ], [ 35.8307049, 48.548242 ], [ 35.8308457, 48.5481213 ], [ 35.8309617, 48.5479912 ], [ 35.8310911, 48.5478096 ], [ 35.8311716, 48.54768 ], [ 35.8312359, 48.5475415 ], [ 35.8312923, 48.5473924 ], [ 35.8313459, 48.5472024 ], [ 35.8313727, 48.547039 ], [ 35.8313858, 48.546865 ], [ 35.8313754, 48.5466768 ], [ 35.8313432, 48.5464744 ], [ 35.8312654, 48.5461441 ], [ 35.8311743, 48.5457428 ], [ 35.8311024, 48.5452372 ], [ 35.8310723, 48.5447967 ], [ 35.8310408, 48.54381 ], [ 35.8305658, 48.543823 ], [ 35.8282815, 48.5439387 ], [ 35.8265884, 48.5439144 ], [ 35.8254493, 48.5438255 ], [ 35.8243403, 48.5436626 ], [ 35.8229875, 48.5433951 ], [ 35.8216245, 48.5430255 ], [ 35.8183027, 48.5419106 ], [ 35.8180663, 48.5418313 ], [ 35.8172208, 48.5415238 ], [ 35.8163946, 48.54116 ], [ 35.8153801, 48.5406446 ], [ 35.8142002, 48.5399526 ], [ 35.813006, 48.5392125 ], [ 35.8098965, 48.5367724 ], [ 35.8119547, 48.5362578 ], [ 35.8119757, 48.5366194 ], [ 35.8168064, 48.5372869 ], [ 35.8202508, 48.5361883 ], [ 35.8203138, 48.5357433 ], [ 35.8275387, 48.5331565 ], [ 35.8267196, 48.5320578 ], [ 35.825743, 48.5314249 ], [ 35.8279903, 48.5296933 ], [ 35.8299226, 48.528226 ], [ 35.8302796, 48.5283511 ], [ 35.8312037, 48.5278435 ], [ 35.8316973, 48.5277183 ], [ 35.8314873, 48.5273427 ], [ 35.8329154, 48.526835 ], [ 35.8342911, 48.5263412 ], [ 35.8345642, 48.5261535 ], [ 35.8357508, 48.5257014 ], [ 35.836927, 48.5249364 ], [ 35.837431, 48.5248251 ], [ 35.8394683, 48.5236149 ], [ 35.8390902, 48.522363 ], [ 35.8356038, 48.5192886 ], [ 35.8366119, 48.5185096 ], [ 35.8367379, 48.5169932 ], [ 35.8361288, 48.5164506 ], [ 35.8337555, 48.5156715 ], [ 35.8359398, 48.5140715 ], [ 35.8345326, 48.5126663 ], [ 35.8324744, 48.5116645 ], [ 35.829303, 48.5095357 ], [ 35.8337345, 48.5066693 ], [ 35.8362969, 48.5077407 ], [ 35.8365489, 48.5076433 ], [ 35.8360868, 48.5066415 ], [ 35.8383551, 48.5058344 ], [ 35.8408334, 48.5062379 ], [ 35.8409385, 48.5070172 ], [ 35.8415475, 48.5089374 ], [ 35.8440049, 48.5120124 ], [ 35.8473023, 48.5148367 ], [ 35.8493395, 48.5164088 ], [ 35.8510828, 48.5168123 ], [ 35.8524269, 48.5168679 ], [ 35.8594628, 48.5221404 ], [ 35.8601979, 48.5215909 ], [ 35.8610696, 48.5212153 ], [ 35.8622142, 48.5210206 ], [ 35.8633168, 48.5210275 ], [ 35.8645875, 48.5209997 ], [ 35.8650811, 48.5207841 ], [ 35.8652806, 48.520332 ], [ 35.8651861, 48.5196294 ], [ 35.8611851, 48.515755 ], [ 35.8599669, 48.514955 ], [ 35.8576041, 48.5134176 ], [ 35.8577267, 48.5132521 ], [ 35.8591819, 48.5119687 ], [ 35.8526544, 48.5053756 ], [ 35.851628, 48.5052673 ], [ 35.851229, 48.5047708 ], [ 35.8508725, 48.5043273 ], [ 35.8492576, 48.5048256 ], [ 35.8487389, 48.5041541 ], [ 35.8493409, 48.5039518 ], [ 35.8483419, 48.5025572 ], [ 35.848594, 48.5023833 ], [ 35.8484068, 48.502106 ], [ 35.840953, 48.5041388 ], [ 35.8402612, 48.5032613 ], [ 35.8402704, 48.5026758 ], [ 35.8423261, 48.5020338 ], [ 35.8463468, 48.5010181 ], [ 35.8480925, 48.5003895 ], [ 35.8511859, 48.4992224 ], [ 35.8499251, 48.4975588 ], [ 35.85161, 48.4962555 ], [ 35.8520399, 48.4960376 ], [ 35.8523058, 48.4952473 ], [ 35.8524566, 48.4948969 ], [ 35.8535674, 48.4944763 ], [ 35.854707, 48.4940544 ], [ 35.8568039, 48.4949559 ], [ 35.8566019, 48.4958204 ], [ 35.8561109, 48.4981781 ], [ 35.8553534, 48.4992106 ], [ 35.8561654, 48.4991338 ], [ 35.8564796, 48.4994367 ], [ 35.8564857, 48.5010316 ], [ 35.8563229, 48.50143 ], [ 35.8567529, 48.5017971 ], [ 35.8561129, 48.5025364 ], [ 35.856449, 48.5034131 ], [ 35.8554198, 48.5036566 ], [ 35.8561847, 48.5048142 ], [ 35.8571105, 48.5041437 ], [ 35.8577753, 48.504043 ], [ 35.8584227, 48.5049333 ], [ 35.8583065, 48.5056777 ], [ 35.8575891, 48.5064096 ], [ 35.8629993, 48.5113809 ], [ 35.8635621, 48.510413 ], [ 35.8653536, 48.5092476 ], [ 35.8652598, 48.50898 ], [ 35.8654831, 48.5086117 ], [ 35.8677957, 48.507045 ], [ 35.8680739, 48.5071981 ], [ 35.8695546, 48.5054795 ], [ 35.8709906, 48.504603 ], [ 35.8715249, 48.5048724 ], [ 35.8742764, 48.506047 ], [ 35.8774962, 48.5087225 ], [ 35.8780193, 48.5089406 ], [ 35.8784367, 48.5086487 ], [ 35.8795938, 48.5089696 ], [ 35.8816301, 48.5091471 ], [ 35.8831397, 48.5094647 ], [ 35.8841516, 48.5098634 ], [ 35.88457, 48.5100523 ], [ 35.8867506, 48.5104471 ], [ 35.8869833, 48.5106664 ], [ 35.8861993, 48.5109897 ], [ 35.8866562, 48.5111783 ], [ 35.8885238, 48.5111284 ], [ 35.8900138, 48.510189 ], [ 35.8905538, 48.5097794 ], [ 35.890903, 48.5094606 ], [ 35.8915463, 48.5082815 ], [ 35.8918975, 48.50763 ], [ 35.8919952, 48.5072874 ], [ 35.892416, 48.5067961 ], [ 35.8934615, 48.5065924 ], [ 35.894507, 48.506185 ], [ 35.8946915, 48.5058997 ], [ 35.8960854, 48.5053361 ], [ 35.8970592, 48.5051595 ], [ 35.8980124, 48.5050509 ], [ 35.8982994, 48.5051188 ], [ 35.9008823, 48.5040729 ], [ 35.9008358, 48.5029975 ], [ 35.9016921, 48.5027079 ], [ 35.9037676, 48.5025582 ], [ 35.9044514, 48.5019215 ], [ 35.9051352, 48.5015176 ], [ 35.9056428, 48.5012924 ], [ 35.9062109, 48.5010499 ], [ 35.9071012, 48.5012352 ], [ 35.9078625, 48.5011662 ], [ 35.9084998, 48.5012253 ], [ 35.9094076, 48.5022264 ], [ 35.9129456, 48.5010147 ], [ 35.9128965, 48.5008017 ], [ 35.9153003, 48.5000307 ], [ 35.9152823, 48.4978282 ], [ 35.9148928, 48.497075 ], [ 35.914821, 48.4963481 ], [ 35.9151519, 48.4954156 ], [ 35.9154369, 48.4953971 ], [ 35.9159894, 48.4953613 ], [ 35.9162955, 48.495402 ], [ 35.9167518, 48.4956865 ], [ 35.9178556, 48.4963163 ], [ 35.9187785, 48.4965036 ], [ 35.9189042, 48.4966314 ], [ 35.9188537, 48.4978621 ], [ 35.918279, 48.4983935 ], [ 35.9236365, 48.4978742 ], [ 35.9258202, 48.4963902 ], [ 35.9241756, 48.4938347 ], [ 35.9241847, 48.4917445 ], [ 35.9238317, 48.4909303 ], [ 35.92375, 48.490263 ], [ 35.9238239, 48.4863181 ], [ 35.9249006, 48.4862197 ], [ 35.924505, 48.4838862 ], [ 35.9252052, 48.4832673 ], [ 35.9269446, 48.4804787 ], [ 35.926293, 48.4803122 ], [ 35.9263777, 48.4785581 ], [ 35.9273973, 48.4750335 ], [ 35.9281394, 48.4752863 ], [ 35.9297199, 48.4755016 ], [ 35.9297555, 48.4758998 ], [ 35.9303008, 48.4759257 ], [ 35.9305255, 48.4770732 ], [ 35.9309915, 48.4770511 ], [ 35.9312584, 48.4773416 ], [ 35.9323092, 48.4801202 ], [ 35.9468307, 48.483965 ], [ 35.9476757, 48.4826996 ], [ 35.9489338, 48.4829507 ], [ 35.9494724, 48.481919 ], [ 35.9510422, 48.4823201 ], [ 35.9516763, 48.4826984 ], [ 35.9491196, 48.4866219 ], [ 35.95981, 48.4895388 ], [ 35.960195, 48.4894863 ], [ 35.9608309, 48.4883536 ], [ 35.9613672, 48.4884893 ], [ 35.9616421, 48.4884496 ], [ 35.9620755, 48.4883871 ], [ 35.962427, 48.4880198 ], [ 35.963485, 48.4869141 ], [ 35.9634744, 48.4863876 ], [ 35.9639734, 48.4859313 ], [ 35.9663218, 48.4841706 ], [ 35.9668141, 48.4838015 ], [ 35.9674036, 48.4839594 ], [ 35.9685148, 48.4848621 ], [ 35.9692556, 48.4854496 ], [ 35.9675935, 48.4877304 ], [ 35.9671727, 48.4883622 ], [ 35.9660894, 48.4898771 ], [ 35.9660888, 48.4898768 ], [ 35.9640801, 48.491442 ], [ 35.9654024, 48.492243 ], [ 35.9622195, 48.4947883 ], [ 35.9628679, 48.4952947 ], [ 35.9620461, 48.4956759 ], [ 35.9620005, 48.4959863 ], [ 35.9614187, 48.4959035 ], [ 35.9602904, 48.4963814 ], [ 35.9598584, 48.4967248 ], [ 35.9602056, 48.49705 ], [ 35.9588205, 48.4979019 ], [ 35.9582885, 48.4976115 ], [ 35.9578934, 48.4978506 ], [ 35.957518, 48.4976338 ], [ 35.9561003, 48.4986022 ], [ 35.9569975, 48.4992059 ], [ 35.9556236, 48.5004487 ], [ 35.9555516, 48.5007396 ], [ 35.9648693, 48.5068372 ], [ 35.9664979, 48.5069497 ], [ 35.9674577, 48.5065418 ], [ 35.9687425, 48.5059531 ], [ 35.9696616, 48.5059714 ], [ 35.9742405, 48.5088802 ], [ 35.9707875, 48.5113962 ], [ 35.9707881, 48.5118392 ], [ 35.9694017, 48.5127155 ], [ 35.9647964, 48.5096387 ], [ 35.9621536, 48.5114898 ], [ 35.9598253, 48.5100875 ], [ 35.9568568, 48.5097418 ], [ 35.9566131, 48.5105747 ], [ 35.9537625, 48.5100408 ], [ 35.9458695, 48.5160769 ], [ 35.9427273, 48.5142006 ], [ 35.9415499, 48.5149995 ], [ 35.9424931, 48.5154813 ], [ 35.9415901, 48.5162694 ], [ 35.9421627, 48.5167717 ], [ 35.9417183, 48.5171427 ], [ 35.9398696, 48.516265 ], [ 35.9387961, 48.5171138 ], [ 35.9386606, 48.5170564 ], [ 35.9366788, 48.5161214 ], [ 35.9336956, 48.5139734 ], [ 35.942618, 48.5072881 ], [ 35.936687, 48.5044915 ], [ 35.9359115, 48.5052012 ], [ 35.9305333, 48.5067853 ], [ 35.930651, 48.5073999 ], [ 35.9299171, 48.5078073 ], [ 35.9291039, 48.5082935 ], [ 35.9281518, 48.5082147 ], [ 35.9274973, 48.5075445 ], [ 35.9273981, 48.5068743 ], [ 35.9271402, 48.5063486 ], [ 35.9265253, 48.5056258 ], [ 35.9254146, 48.5047059 ], [ 35.9243633, 48.5039699 ], [ 35.9237087, 48.5038648 ], [ 35.922479, 48.5041671 ], [ 35.9217054, 48.5046928 ], [ 35.9210508, 48.5052053 ], [ 35.9202773, 48.5067823 ], [ 35.920555, 48.5072817 ], [ 35.9203368, 48.5076628 ], [ 35.9198409, 48.507965 ], [ 35.919107, 48.5082804 ], [ 35.9183136, 48.5083987 ], [ 35.9174607, 48.5087009 ], [ 35.9170243, 48.509555 ], [ 35.9166474, 48.5102515 ], [ 35.9165086, 48.5109611 ], [ 35.9160325, 48.5116312 ], [ 35.9155763, 48.5120517 ], [ 35.9146441, 48.5123802 ], [ 35.9131763, 48.5126036 ], [ 35.9119068, 48.5127219 ], [ 35.9110936, 48.5131029 ], [ 35.910558, 48.5135102 ], [ 35.9104787, 48.5139964 ], [ 35.9099018, 48.5148198 ], [ 35.9094076, 48.5158622 ], [ 35.9090307, 48.516125 ], [ 35.9085745, 48.5162038 ], [ 35.9068092, 48.5166111 ], [ 35.9065117, 48.5169396 ], [ 35.9061348, 48.5169264 ], [ 35.9052422, 48.5166242 ], [ 35.9040719, 48.5161775 ], [ 35.9026438, 48.515941 ], [ 35.9015925, 48.5158096 ], [ 35.9007396, 48.515849 ], [ 35.9000454, 48.5158228 ], [ 35.8995099, 48.5160067 ], [ 35.8987165, 48.5165586 ], [ 35.8991132, 48.5169921 ], [ 35.8998867, 48.5173732 ], [ 35.9013347, 48.5178199 ], [ 35.9030802, 48.518306 ], [ 35.9055596, 48.5189235 ], [ 35.9077018, 48.5193045 ], [ 35.9086539, 48.5196198 ], [ 35.9099431, 48.5202899 ], [ 35.9107167, 48.5206314 ], [ 35.9109944, 48.5214985 ], [ 35.9111928, 48.5219189 ], [ 35.9121647, 48.5209599 ], [ 35.912482, 48.5206709 ], [ 35.9123829, 48.5197249 ], [ 35.9125217, 48.5192782 ], [ 35.9129978, 48.5189498 ], [ 35.9136127, 48.5190549 ], [ 35.9138903, 48.5191206 ], [ 35.9150408, 48.5196855 ], [ 35.9151598, 48.5211569 ], [ 35.9140689, 48.5221685 ], [ 35.9143466, 48.5232721 ], [ 35.9145647, 48.5243887 ], [ 35.9134936, 48.5245332 ], [ 35.9123234, 48.5246646 ], [ 35.9117283, 48.5252689 ], [ 35.9137317, 48.5263855 ], [ 35.9148226, 48.5274232 ], [ 35.9158937, 48.5276597 ], [ 35.9168259, 48.5273181 ], [ 35.9175003, 48.5271605 ], [ 35.9184723, 48.5270554 ], [ 35.9200392, 48.5272393 ], [ 35.9214674, 48.5274232 ], [ 35.9226626, 48.5276835 ], [ 35.9266528, 48.5285644 ], [ 35.9290173, 48.5302281 ], [ 35.9287218, 48.5314025 ], [ 35.9272839, 48.531545 ], [ 35.926497, 48.5323467 ], [ 35.927405, 48.5331483 ], [ 35.9273444, 48.5335893 ], [ 35.9264364, 48.5338298 ], [ 35.9270418, 48.5346314 ], [ 35.9272839, 48.5351124 ], [ 35.9268844, 48.5356126 ], [ 35.9281551, 48.5358178 ], [ 35.9299216, 48.5372954 ], [ 35.9302935, 48.5378494 ], [ 35.9314403, 48.537911 ], [ 35.9316262, 48.5367413 ], [ 35.9319361, 48.5361462 ], [ 35.9327419, 48.5361462 ], [ 35.9337957, 48.5364745 ], [ 35.9381966, 48.5271775 ], [ 35.9481142, 48.5224359 ], [ 35.9526081, 48.5250223 ], [ 35.9553974, 48.523216 ], [ 35.9570403, 48.5228716 ], [ 35.9583447, 48.5226246 ], [ 35.9591178, 48.5239953 ], [ 35.9587643, 48.5244035 ], [ 35.9582975, 48.5247925 ], [ 35.9575404, 48.5251352 ], [ 35.956885, 48.525597 ], [ 35.9548395, 48.5267875 ], [ 35.9559243, 48.5279164 ], [ 35.9569074, 48.5290108 ], [ 35.9573809, 48.5295378 ], [ 35.9580628, 48.5303382 ], [ 35.9582177, 48.5315286 ], [ 35.9582797, 48.5322469 ], [ 35.957257, 48.5332115 ], [ 35.9549015, 48.534525 ], [ 35.9537238, 48.5353869 ], [ 35.9527321, 48.5362488 ], [ 35.9516473, 48.5369465 ], [ 35.9497878, 48.5377468 ], [ 35.9480522, 48.5383625 ], [ 35.9469675, 48.5389165 ], [ 35.944705, 48.5394706 ], [ 35.9431864, 48.5396552 ], [ 35.9418847, 48.5394706 ], [ 35.940521, 48.5396142 ], [ 35.9389714, 48.5397784 ], [ 35.9385065, 48.5402914 ], [ 35.9384136, 48.5408249 ], [ 35.9383206, 48.5412763 ], [ 35.936802, 48.5413584 ], [ 35.9362131, 48.5415225 ], [ 35.9360891, 48.5420355 ], [ 35.9359342, 48.5422612 ], [ 35.9346945, 48.5423433 ], [ 35.9337337, 48.5421381 ], [ 35.9330519, 48.5426716 ], [ 35.9329589, 48.5431846 ], [ 35.9331758, 48.5436565 ], [ 35.9333803, 48.5438144 ], [ 35.9339197, 48.544231 ], [ 35.9346015, 48.5448055 ], [ 35.9354383, 48.5453185 ], [ 35.9360271, 48.5458314 ], [ 35.9363371, 48.5462418 ], [ 35.9363991, 48.5465701 ], [ 35.9361511, 48.5467957 ], [ 35.9355623, 48.547083 ], [ 35.9350664, 48.5471856 ], [ 35.9351284, 48.5475959 ], [ 35.9347565, 48.5479857 ], [ 35.9342296, 48.5481499 ], [ 35.9336407, 48.5479857 ], [ 35.9329899, 48.5477395 ], [ 35.9321841, 48.5474113 ], [ 35.9315023, 48.547124 ], [ 35.9309754, 48.5472061 ], [ 35.9303245, 48.547042 ], [ 35.9299836, 48.5466111 ], [ 35.9297357, 48.5461392 ], [ 35.9297667, 48.5457288 ], [ 35.9299526, 48.5452774 ], [ 35.9301696, 48.5448876 ], [ 35.9301386, 48.5441079 ], [ 35.9295187, 48.5433487 ], [ 35.9288679, 48.5428358 ], [ 35.9286819, 48.5421586 ], [ 35.9287439, 48.5414815 ], [ 35.9292398, 48.5408659 ], [ 35.9294877, 48.540394 ], [ 35.9294258, 48.5400451 ], [ 35.928465, 48.539922 ], [ 35.9278142, 48.5397784 ], [ 35.9257687, 48.5447029 ], [ 35.9186404, 48.5435129 ], [ 35.9177726, 48.5401477 ], [ 35.916254, 48.5410711 ], [ 35.9153862, 48.5424459 ], [ 35.9150453, 48.5429999 ], [ 35.9146424, 48.5431025 ], [ 35.9139915, 48.5428768 ], [ 35.9125659, 48.5423843 ], [ 35.9110473, 48.5421381 ], [ 35.9104584, 48.5421997 ], [ 35.9096216, 48.5417072 ], [ 35.9091567, 48.5414199 ], [ 35.9086918, 48.5408659 ], [ 35.9077311, 48.5405581 ], [ 35.9066153, 48.5401888 ], [ 35.904012, 48.5389781 ], [ 35.9015946, 48.5407018 ], [ 35.8984953, 48.5432256 ], [ 35.8959229, 48.5446824 ], [ 35.8938465, 48.5457288 ], [ 35.8909642, 48.5472061 ], [ 35.8890116, 48.5480883 ], [ 35.8887327, 48.5485192 ], [ 35.8885158, 48.5491552 ], [ 35.8877719, 48.5496681 ], [ 35.887617, 48.5503246 ], [ 35.8881129, 48.5511247 ], [ 35.8887637, 48.5518427 ], [ 35.8896935, 48.5524992 ], [ 35.8918629, 48.5541404 ], [ 35.892408, 48.5554247 ], [ 35.8921541, 48.5562229 ], [ 35.8917415, 48.5567796 ], [ 35.8905673, 48.5577038 ], [ 35.8898373, 48.5582289 ], [ 35.8891074, 48.5588065 ], [ 35.8889804, 48.5596887 ], [ 35.8889963, 48.5602558 ], [ 35.8884568, 48.5607074 ], [ 35.8868858, 48.5612115 ], [ 35.8863622, 48.5617786 ], [ 35.8860131, 48.5619676 ], [ 35.8853308, 48.5622302 ], [ 35.8780729, 48.5595103 ], [ 35.8739877, 48.5627776 ], [ 35.8717346, 48.5653904 ], [ 35.8724213, 48.5660791 ], [ 35.8725071, 48.5665832 ], [ 35.8733225, 48.5668672 ], [ 35.8738536, 48.5667607 ], [ 35.8745938, 48.5668885 ], [ 35.8764124, 48.5676127 ], [ 35.8768867, 48.5676955 ], [ 35.8765841, 48.5681761 ], [ 35.8759368, 48.5690453 ], [ 35.8751752, 48.5698853 ], [ 35.8739057, 48.5707358 ], [ 35.8726997, 48.5712188 ], [ 35.8705258, 48.5719643 ], [ 35.8693674, 48.5723947 ], [ 35.8680663, 48.5727937 ], [ 35.8676061, 48.5725207 ], [ 35.861119, 48.5603372 ], [ 35.856904, 48.5605834 ], [ 35.8564391, 48.5630037 ], [ 35.8592904, 48.5645625 ], [ 35.8594144, 48.5652803 ], [ 35.8588565, 48.5658136 ], [ 35.8588256, 48.5665519 ], [ 35.8589495, 48.5671057 ], [ 35.8585156, 48.5683977 ], [ 35.8583917, 48.5691565 ], [ 35.8579578, 48.5697923 ], [ 35.856935, 48.5699768 ], [ 35.8560672, 48.5694846 ], [ 35.8540837, 48.5685002 ], [ 35.8526891, 48.5684797 ], [ 35.8515423, 48.5686438 ], [ 35.8502097, 48.5694846 ], [ 35.8497758, 48.5701204 ], [ 35.8494458, 48.570591 ], [ 35.8494149, 48.5716471 ], [ 35.8480827, 48.5720033 ], [ 35.8487781, 48.5731985 ], [ 35.8482181, 48.5733178 ], [ 35.8490545, 48.5747658 ], [ 35.8508051, 48.577408 ], [ 35.8513718, 48.5786559 ], [ 35.8527997, 48.5799556 ], [ 35.8551983, 48.5827956 ], [ 35.8556835, 48.5839493 ], [ 35.8547809, 48.5847114 ], [ 35.8518565, 48.5854238 ], [ 35.8499923, 48.5849711 ], [ 35.8493197, 48.5850385 ], [ 35.8466838, 48.5842469 ], [ 35.8465262, 48.5837134 ], [ 35.845617, 48.5830138 ], [ 35.8421206, 48.5852119 ], [ 35.840788, 48.5856629 ], [ 35.8391454, 48.5857654 ], [ 35.8379367, 48.5855399 ], [ 35.836635, 48.5849248 ], [ 35.8347134, 48.5835922 ], [ 35.8256017, 48.5774411 ], [ 35.8248889, 48.5768465 ], [ 35.8249198, 48.5762723 ], [ 35.815163, 48.5765082 ], [ 35.8140977, 48.5764441 ], [ 35.8135166, 48.5760596 ], [ 35.8129355, 48.5757712 ], [ 35.8065917, 48.578879 ], [ 35.8051874, 48.5799683 ], [ 35.8047031, 48.5811857 ], [ 35.8042673, 48.5824671 ], [ 35.8039767, 48.5829156 ], [ 35.8031051, 48.5830438 ], [ 35.801969, 48.5826904 ], [ 35.7941021, 48.5802433 ], [ 35.78759, 48.5785372 ], [ 35.7826286, 48.5825231 ], [ 35.7766646, 48.577181 ] ] ] } }
]
}
