{
"type": "FeatureCollection",
"name": "perpignan_fr",
"crs": { "type": "name", "properties": { "name": "urn:ogc:def:crs:OGC:1.3:CRS84" } },
"features": [
{ "type": "Feature", "properties": { "bbox_west": 2.8265889, "bbox_south": 42.6492606, "bbox_east": 2.9825668, "bbox_north": 42.7488722, "place_id": 84442262, "osm_type": "relation", "osm_id": 18000, "lat": 42.6985304, "lon": 2.8953121, "class": "boundary", "type": "administrative", "place_rank": 16, "importance": 0.64331590260508786, "addresstype": "city", "name": "Perpignan", "display_name": "Perpignan, Pyrénées-Orientales, Occitania, Metropolitan France, France" }, "geometry": { "type": "Polygon", "coordinates": [ [ [ 2.8265889, 42.6905596 ], [ 2.8268158, 42.6899742 ], [ 2.8268471, 42.6898892 ], [ 2.8269502, 42.6896248 ], [ 2.8280298, 42.6890636 ], [ 2.828437, 42.688829 ], [ 2.8306793, 42.6875376 ], [ 2.8307337, 42.6875125 ], [ 2.8310139, 42.6871733 ], [ 2.831337, 42.6867671 ], [ 2.8314037, 42.686712 ], [ 2.8314801, 42.6866798 ], [ 2.831552, 42.6866795 ], [ 2.8319456, 42.6867326 ], [ 2.83202, 42.6867358 ], [ 2.8320703, 42.686732 ], [ 2.8321157, 42.6867194 ], [ 2.8321937, 42.6866988 ], [ 2.8323289, 42.6866174 ], [ 2.8339356, 42.6855971 ], [ 2.8342271, 42.6860663 ], [ 2.8367379, 42.685601 ], [ 2.8385639, 42.6851742 ], [ 2.8382051, 42.6844024 ], [ 2.8382659, 42.6844021 ], [ 2.8389721, 42.6841826 ], [ 2.8397787, 42.683989 ], [ 2.840653, 42.6837713 ], [ 2.8404202, 42.6828675 ], [ 2.8400448, 42.6828639 ], [ 2.8398553, 42.68287 ], [ 2.8399369, 42.681416 ], [ 2.8397283, 42.6813589 ], [ 2.8403685, 42.6796385 ], [ 2.8405871, 42.6792708 ], [ 2.8409907, 42.6785234 ], [ 2.8406933, 42.6784601 ], [ 2.8407034, 42.6784021 ], [ 2.8407384, 42.6783881 ], [ 2.8407146, 42.6783424 ], [ 2.8407133, 42.6783277 ], [ 2.8408824, 42.6777667 ], [ 2.8407778, 42.6775406 ], [ 2.8405926, 42.6772332 ], [ 2.840493, 42.6771088 ], [ 2.8404733, 42.6770792 ], [ 2.840373, 42.6770222 ], [ 2.8403238, 42.6769542 ], [ 2.8402899, 42.6769813 ], [ 2.8401331, 42.6768541 ], [ 2.8400897, 42.676744 ], [ 2.8400901, 42.6767044 ], [ 2.8394639, 42.6762625 ], [ 2.8395304, 42.6760533 ], [ 2.839632, 42.6759249 ], [ 2.8396906, 42.6758405 ], [ 2.8396942, 42.6757244 ], [ 2.8396686, 42.6756689 ], [ 2.8395873, 42.6755563 ], [ 2.8395561, 42.6755318 ], [ 2.8395507, 42.6754882 ], [ 2.8395639, 42.675447 ], [ 2.8396108, 42.6753956 ], [ 2.8396899, 42.6753475 ], [ 2.8396961, 42.6752897 ], [ 2.8397891, 42.6752592 ], [ 2.839883, 42.6751805 ], [ 2.840106, 42.6750083 ], [ 2.8406457, 42.6746218 ], [ 2.841181, 42.6742661 ], [ 2.8414733, 42.6740943 ], [ 2.8431719, 42.6731145 ], [ 2.8433937, 42.6730069 ], [ 2.8437089, 42.6728988 ], [ 2.8453832, 42.6722626 ], [ 2.8456176, 42.6722149 ], [ 2.8456776, 42.6721902 ], [ 2.8457765, 42.6721386 ], [ 2.8464443, 42.6717313 ], [ 2.8482634, 42.6704214 ], [ 2.8482401, 42.6703992 ], [ 2.8482047, 42.6702687 ], [ 2.8482341, 42.6700417 ], [ 2.8492161, 42.6700856 ], [ 2.8493028, 42.6700648 ], [ 2.849367, 42.67009 ], [ 2.8506425, 42.6701364 ], [ 2.8506924, 42.6701025 ], [ 2.850733, 42.6700718 ], [ 2.8498879, 42.6687199 ], [ 2.8498329, 42.6686713 ], [ 2.8496721, 42.668524 ], [ 2.8494372, 42.6682936 ], [ 2.8491559, 42.6679755 ], [ 2.8487879, 42.6675368 ], [ 2.8485742, 42.667333 ], [ 2.8482335, 42.6670524 ], [ 2.8478143, 42.6667388 ], [ 2.8473443, 42.6664095 ], [ 2.8457906, 42.6652038 ], [ 2.8455266, 42.6650071 ], [ 2.8450225, 42.6646845 ], [ 2.8447426, 42.6645105 ], [ 2.8444022, 42.6643908 ], [ 2.8443276, 42.664364 ], [ 2.8444327, 42.6643019 ], [ 2.8455126, 42.6638779 ], [ 2.8466259, 42.6634951 ], [ 2.8468196, 42.6634249 ], [ 2.8471, 42.663331 ], [ 2.8472444, 42.663298 ], [ 2.8474817, 42.6632607 ], [ 2.8487719, 42.6631077 ], [ 2.8498198, 42.662966 ], [ 2.8498314, 42.6630072 ], [ 2.8508091, 42.6629276 ], [ 2.8516634, 42.6630375 ], [ 2.8520502, 42.6633246 ], [ 2.8523714, 42.663487 ], [ 2.8524408, 42.6635043 ], [ 2.852491, 42.6635058 ], [ 2.8525482, 42.6634985 ], [ 2.8525981, 42.6634701 ], [ 2.852832, 42.6631854 ], [ 2.855043, 42.6621269 ], [ 2.8549151, 42.6619636 ], [ 2.8548115, 42.6618496 ], [ 2.8547682, 42.661811 ], [ 2.8545085, 42.6615938 ], [ 2.8542713, 42.6613839 ], [ 2.853803, 42.6610275 ], [ 2.8536436, 42.6607884 ], [ 2.8544822, 42.660431 ], [ 2.8545681, 42.660476 ], [ 2.8546364, 42.6604681 ], [ 2.8547148, 42.6604349 ], [ 2.8552153, 42.6601473 ], [ 2.8554065, 42.6600959 ], [ 2.8560687, 42.6599211 ], [ 2.8565262, 42.6598129 ], [ 2.8578265, 42.6594357 ], [ 2.8590295, 42.6590759 ], [ 2.8590796, 42.6587965 ], [ 2.8592856, 42.6583048 ], [ 2.8593712, 42.6581784 ], [ 2.8594757, 42.65811 ], [ 2.8596851, 42.6580179 ], [ 2.8597325, 42.6580254 ], [ 2.8597673, 42.6579616 ], [ 2.8597979, 42.6579053 ], [ 2.8598514, 42.6578072 ], [ 2.8598903, 42.6577357 ], [ 2.8598336, 42.6575615 ], [ 2.8599589, 42.656853 ], [ 2.8602641, 42.655688 ], [ 2.8602954, 42.655653 ], [ 2.8603607, 42.6556139 ], [ 2.8633544, 42.6539281 ], [ 2.8634278, 42.6539045 ], [ 2.8634751, 42.6539004 ], [ 2.8635329, 42.6539059 ], [ 2.8636119, 42.653925 ], [ 2.8636671, 42.6539266 ], [ 2.8637143, 42.6539167 ], [ 2.8639417, 42.6537818 ], [ 2.8640956, 42.6536512 ], [ 2.8643669, 42.6534269 ], [ 2.864765, 42.6532873 ], [ 2.864836, 42.6532967 ], [ 2.8650332, 42.653319 ], [ 2.8659231, 42.6532236 ], [ 2.8670575, 42.6528575 ], [ 2.8671047, 42.6528573 ], [ 2.8671574, 42.6528687 ], [ 2.8675128, 42.6529504 ], [ 2.8676653, 42.6529671 ], [ 2.8678283, 42.6529819 ], [ 2.8678967, 42.6529874 ], [ 2.8684275, 42.6530062 ], [ 2.8689906, 42.6530215 ], [ 2.869058, 42.6530193 ], [ 2.8694026, 42.6529885 ], [ 2.8695756, 42.6529774 ], [ 2.8697334, 42.6529832 ], [ 2.8699244, 42.6529973 ], [ 2.8703437, 42.6530648 ], [ 2.870612, 42.6531121 ], [ 2.8709141, 42.653178 ], [ 2.8714583, 42.6534166 ], [ 2.8715394, 42.6534237 ], [ 2.8717638, 42.6533011 ], [ 2.8719755, 42.6534665 ], [ 2.8721435, 42.653561 ], [ 2.872337, 42.6536648 ], [ 2.8726779, 42.6538296 ], [ 2.8731821, 42.6541282 ], [ 2.8732869, 42.6542306 ], [ 2.8734382, 42.6544355 ], [ 2.8737221, 42.6547427 ], [ 2.8743017, 42.655392 ], [ 2.875027, 42.6550395 ], [ 2.8752642, 42.654935 ], [ 2.8754354, 42.6548902 ], [ 2.8758649, 42.6547611 ], [ 2.8763438, 42.6546506 ], [ 2.876444, 42.6546047 ], [ 2.8765066, 42.6545621 ], [ 2.8765561, 42.6545102 ], [ 2.8766475, 42.6544048 ], [ 2.8769682, 42.653972 ], [ 2.8770859, 42.6537356 ], [ 2.8771277, 42.6536653 ], [ 2.8772142, 42.6535691 ], [ 2.8778234, 42.6530152 ], [ 2.8779624, 42.6529224 ], [ 2.8781313, 42.6528257 ], [ 2.8782557, 42.6527827 ], [ 2.8783977, 42.6527433 ], [ 2.8785995, 42.6526981 ], [ 2.8789537, 42.6526706 ], [ 2.8793252, 42.6526135 ], [ 2.8795905, 42.652528 ], [ 2.879801, 42.6524675 ], [ 2.8799939, 42.652385 ], [ 2.8802637, 42.652285 ], [ 2.8806867, 42.6521746 ], [ 2.8808519, 42.6523255 ], [ 2.8809945, 42.6524551 ], [ 2.8814124, 42.6523657 ], [ 2.8814375, 42.6522366 ], [ 2.8820189, 42.6519572 ], [ 2.8828501, 42.6515721 ], [ 2.8833952, 42.6512878 ], [ 2.8836881, 42.6511423 ], [ 2.8845936, 42.6507658 ], [ 2.8850492, 42.6505808 ], [ 2.8853893, 42.6504996 ], [ 2.8856894, 42.6503472 ], [ 2.8861546, 42.6500443 ], [ 2.887348, 42.6492606 ], [ 2.8909202, 42.6514562 ], [ 2.8913818, 42.6520313 ], [ 2.8883482, 42.6535379 ], [ 2.8858482, 42.6545967 ], [ 2.8858832, 42.6548732 ], [ 2.8863711, 42.6547625 ], [ 2.8869856, 42.6560345 ], [ 2.8875122, 42.6565973 ], [ 2.8879802, 42.6578941 ], [ 2.8887577, 42.657361 ], [ 2.890186, 42.6567284 ], [ 2.8931698, 42.656882 ], [ 2.8937744, 42.6570594 ], [ 2.8940702, 42.6573346 ], [ 2.8947597, 42.6579869 ], [ 2.8948717, 42.6581426 ], [ 2.8953117, 42.6582912 ], [ 2.8954225, 42.6583043 ], [ 2.8955984, 42.6582972 ], [ 2.8956758, 42.6582528 ], [ 2.8962725, 42.6575762 ], [ 2.8963693, 42.6574674 ], [ 2.8963355, 42.6573353 ], [ 2.897144, 42.6566456 ], [ 2.8981574, 42.6568856 ], [ 2.8984894, 42.6570217 ], [ 2.8990163, 42.6571442 ], [ 2.8992368, 42.6571431 ], [ 2.8994652, 42.6570731 ], [ 2.8996762, 42.6569656 ], [ 2.899862, 42.6568833 ], [ 2.9000735, 42.6568196 ], [ 2.9009644, 42.6568715 ], [ 2.9013196, 42.6549291 ], [ 2.9007003, 42.6544808 ], [ 2.9015118, 42.6538401 ], [ 2.9015413, 42.6538187 ], [ 2.9021039, 42.6540416 ], [ 2.9063968, 42.6498983 ], [ 2.9087906, 42.6512471 ], [ 2.9129806, 42.6526859 ], [ 2.9145525, 42.6529547 ], [ 2.9163395, 42.6528301 ], [ 2.917543, 42.6528238 ], [ 2.9179838, 42.6528215 ], [ 2.9230108, 42.6528322 ], [ 2.9240618, 42.6528913 ], [ 2.9257071, 42.6529887 ], [ 2.9269396, 42.6530699 ], [ 2.9298058, 42.6536955 ], [ 2.9293625, 42.6539854 ], [ 2.9293056, 42.654128 ], [ 2.928991, 42.6542201 ], [ 2.927069, 42.6554553 ], [ 2.9259857, 42.6552857 ], [ 2.9258719, 42.6557333 ], [ 2.9257022, 42.6563625 ], [ 2.9252796, 42.6572739 ], [ 2.9254248, 42.6574116 ], [ 2.9254634, 42.6575314 ], [ 2.9255023, 42.6576743 ], [ 2.9255472, 42.6577894 ], [ 2.925771, 42.6582689 ], [ 2.9258592, 42.6583497 ], [ 2.9258555, 42.6584395 ], [ 2.9261472, 42.6590462 ], [ 2.9263216, 42.6594233 ], [ 2.9267404, 42.660334 ], [ 2.9270129, 42.6609529 ], [ 2.9271187, 42.6612853 ], [ 2.9271772, 42.6616784 ], [ 2.927241, 42.6619151 ], [ 2.9273798, 42.6621363 ], [ 2.928254, 42.6634834 ], [ 2.9285435, 42.6637391 ], [ 2.9291439, 42.6643361 ], [ 2.929455, 42.6647027 ], [ 2.9295455, 42.6648787 ], [ 2.929628, 42.6650686 ], [ 2.9298393, 42.6655665 ], [ 2.9305115, 42.6669883 ], [ 2.9306723, 42.66751 ], [ 2.9308968, 42.6680208 ], [ 2.9311208, 42.6684794 ], [ 2.9305138, 42.668676 ], [ 2.9301826, 42.6688345 ], [ 2.9296716, 42.6691543 ], [ 2.9294647, 42.6693125 ], [ 2.9292898, 42.6695007 ], [ 2.9290876, 42.6696757 ], [ 2.9288266, 42.6698643 ], [ 2.928543, 42.6700531 ], [ 2.9283186, 42.6702783 ], [ 2.928211, 42.6703926 ], [ 2.9280038, 42.6705241 ], [ 2.927531, 42.6708309 ], [ 2.9272076, 42.6711303 ], [ 2.9270103, 42.6713487 ], [ 2.9265578, 42.6718861 ], [ 2.9262976, 42.672155 ], [ 2.9260815, 42.6723208 ], [ 2.9258716, 42.6724632 ], [ 2.9254033, 42.6726981 ], [ 2.9248425, 42.6728423 ], [ 2.9244048, 42.6729387 ], [ 2.9241182, 42.6729844 ], [ 2.9239632, 42.6730382 ], [ 2.9238243, 42.6731036 ], [ 2.9236738, 42.6732074 ], [ 2.923322, 42.673527 ], [ 2.9230609, 42.6737491 ], [ 2.9227487, 42.674039 ], [ 2.9225788, 42.6741959 ], [ 2.9223068, 42.674521 ], [ 2.9222042, 42.6746333 ], [ 2.9220669, 42.6748724 ], [ 2.9219974, 42.6751111 ], [ 2.9218632, 42.6760798 ], [ 2.9217149, 42.6768279 ], [ 2.9216092, 42.6771901 ], [ 2.9214499, 42.6775746 ], [ 2.9212518, 42.6779535 ], [ 2.9210877, 42.6782407 ], [ 2.9208464, 42.6785655 ], [ 2.920681, 42.6787238 ], [ 2.920219, 42.6791042 ], [ 2.9195054, 42.6796463 ], [ 2.9191648, 42.6799061 ], [ 2.9189657, 42.6800259 ], [ 2.9186334, 42.6801696 ], [ 2.9182463, 42.680328 ], [ 2.9180348, 42.6803841 ], [ 2.9176877, 42.6806096 ], [ 2.917645, 42.6806729 ], [ 2.9189367, 42.6819146 ], [ 2.9192414, 42.6817595 ], [ 2.9197709, 42.682113 ], [ 2.9201307, 42.6823805 ], [ 2.9204705, 42.6821962 ], [ 2.9214311, 42.6828893 ], [ 2.9203495, 42.6834974 ], [ 2.9201116, 42.6836666 ], [ 2.9198828, 42.6838823 ], [ 2.9193917, 42.6843917 ], [ 2.9193742, 42.684379 ], [ 2.918985, 42.6847779 ], [ 2.91847, 42.6853627 ], [ 2.9181008, 42.685773 ], [ 2.9180397, 42.6858262 ], [ 2.9178774, 42.6861035 ], [ 2.9177752, 42.6864428 ], [ 2.9176682, 42.6868018 ], [ 2.9177025, 42.6869332 ], [ 2.9175835, 42.6872837 ], [ 2.9175037, 42.6875025 ], [ 2.9185678, 42.6929834 ], [ 2.9186265, 42.6930852 ], [ 2.9193557, 42.6931376 ], [ 2.9209657, 42.6931538 ], [ 2.9213225, 42.6931098 ], [ 2.9216398, 42.6930051 ], [ 2.922425, 42.692851 ], [ 2.9232556, 42.6925586 ], [ 2.9236914, 42.6923103 ], [ 2.9240763, 42.6920574 ], [ 2.9241174, 42.6920305 ], [ 2.9251479, 42.6912311 ], [ 2.9252594, 42.6912876 ], [ 2.9253272, 42.6914032 ], [ 2.9254822, 42.6916694 ], [ 2.9256411, 42.6918443 ], [ 2.9258285, 42.6920189 ], [ 2.9261498, 42.6922421 ], [ 2.9265615, 42.6924613 ], [ 2.9276194, 42.6930073 ], [ 2.9279342, 42.6931906 ], [ 2.9279762, 42.6932151 ], [ 2.9281953, 42.6933427 ], [ 2.9281875, 42.6933497 ], [ 2.9280346, 42.6934703 ], [ 2.9281211, 42.6935259 ], [ 2.9282002, 42.6935109 ], [ 2.9283164, 42.6935615 ], [ 2.9289134, 42.6941239 ], [ 2.9288185, 42.6942146 ], [ 2.9295132, 42.6946845 ], [ 2.9295556, 42.6947132 ], [ 2.9305754, 42.6954364 ], [ 2.9306862, 42.6954814 ], [ 2.9307205, 42.6954629 ], [ 2.9309273, 42.6952969 ], [ 2.9309093, 42.6952248 ], [ 2.9310485, 42.6951535 ], [ 2.9310973, 42.6950728 ], [ 2.9311365, 42.6950214 ], [ 2.9312376, 42.6948868 ], [ 2.9314994, 42.6942857 ], [ 2.9361729, 42.6927156 ], [ 2.9412493, 42.6910382 ], [ 2.9412636, 42.691064 ], [ 2.9414801, 42.6910392 ], [ 2.9415052, 42.6910434 ], [ 2.9416678, 42.6910187 ], [ 2.9427686, 42.6907069 ], [ 2.9428466, 42.6907453 ], [ 2.942884, 42.6907602 ], [ 2.9505318, 42.68893 ], [ 2.9512265, 42.6889576 ], [ 2.9513119, 42.6887707 ], [ 2.9615068, 42.6866094 ], [ 2.9620751, 42.6867694 ], [ 2.9629759, 42.6870846 ], [ 2.9635097, 42.6872699 ], [ 2.9638829, 42.6873787 ], [ 2.9653407, 42.6877598 ], [ 2.9660597, 42.6879272 ], [ 2.9664253, 42.6880044 ], [ 2.9667697, 42.6880485 ], [ 2.9674783, 42.6880966 ], [ 2.9678823, 42.68818 ], [ 2.968516, 42.6883883 ], [ 2.9687321, 42.6884615 ], [ 2.968863, 42.6885052 ], [ 2.9692098, 42.6886077 ], [ 2.9697481, 42.6887623 ], [ 2.9702425, 42.6888979 ], [ 2.9708317, 42.6890365 ], [ 2.9714558, 42.6891952 ], [ 2.9717953, 42.6892902 ], [ 2.9723744, 42.6894844 ], [ 2.9735116, 42.689927 ], [ 2.9738208, 42.6900051 ], [ 2.9740233, 42.6900262 ], [ 2.9743413, 42.6900328 ], [ 2.9758627, 42.6900397 ], [ 2.9758841, 42.6900814 ], [ 2.9757124, 42.6902509 ], [ 2.9754737, 42.690592 ], [ 2.9750539, 42.6911457 ], [ 2.9749107, 42.6914859 ], [ 2.9748553, 42.6918038 ], [ 2.974867, 42.6919915 ], [ 2.9749467, 42.692121 ], [ 2.9749485, 42.6922942 ], [ 2.9748918, 42.6924823 ], [ 2.9745778, 42.6930494 ], [ 2.9746395, 42.6930979 ], [ 2.974553, 42.6931105 ], [ 2.973709, 42.6944888 ], [ 2.9733855, 42.6950965 ], [ 2.9733932, 42.6951221 ], [ 2.9733668, 42.6951305 ], [ 2.9729309, 42.6958866 ], [ 2.97277, 42.6964146 ], [ 2.9727571, 42.6967735 ], [ 2.9727842, 42.696973 ], [ 2.9729023, 42.6972384 ], [ 2.9731517, 42.6976067 ], [ 2.9736228, 42.6980919 ], [ 2.9743258, 42.6985582 ], [ 2.9744191, 42.6986792 ], [ 2.9745401, 42.6987044 ], [ 2.974498, 42.6987377 ], [ 2.9750191, 42.6991094 ], [ 2.9750893, 42.6991178 ], [ 2.9750794, 42.6991773 ], [ 2.9753109, 42.6994536 ], [ 2.9756521, 42.6999692 ], [ 2.9759955, 42.7006954 ], [ 2.9760775, 42.7008687 ], [ 2.9761192, 42.7010163 ], [ 2.9761035, 42.7014341 ], [ 2.9761304, 42.7016077 ], [ 2.976224, 42.7019324 ], [ 2.9761978, 42.7022985 ], [ 2.9761498, 42.7024344 ], [ 2.9761104, 42.7025688 ], [ 2.9759605, 42.7030872 ], [ 2.9759782, 42.7033348 ], [ 2.975965, 42.7035361 ], [ 2.9758959, 42.7038114 ], [ 2.975881, 42.7038665 ], [ 2.9759234, 42.7042284 ], [ 2.9758856, 42.7043007 ], [ 2.9758143, 42.7043694 ], [ 2.9756409, 42.7045094 ], [ 2.975527, 42.7046302 ], [ 2.9754526, 42.7047605 ], [ 2.9754029, 42.7048857 ], [ 2.9754012, 42.7050375 ], [ 2.9754217, 42.7051414 ], [ 2.9754869, 42.7054207 ], [ 2.9763837, 42.7078076 ], [ 2.976572, 42.7083329 ], [ 2.9766309, 42.7083469 ], [ 2.9765989, 42.7083979 ], [ 2.9767031, 42.7086935 ], [ 2.9767627, 42.7088574 ], [ 2.9771705, 42.7094144 ], [ 2.9772843, 42.7094681 ], [ 2.9774488, 42.7095047 ], [ 2.9776814, 42.7095534 ], [ 2.977954, 42.7096354 ], [ 2.9781589, 42.7097469 ], [ 2.9782848, 42.7098672 ], [ 2.9789188, 42.7104063 ], [ 2.9789296, 42.710418 ], [ 2.9792626, 42.7107549 ], [ 2.9792247, 42.710791 ], [ 2.9816258, 42.7121481 ], [ 2.9823299, 42.7125923 ], [ 2.9824794, 42.7127946 ], [ 2.9825446, 42.7129566 ], [ 2.9825606, 42.7130364 ], [ 2.9825668, 42.71314 ], [ 2.9825479, 42.7132849 ], [ 2.9821265, 42.7138172 ], [ 2.9808615, 42.7134546 ], [ 2.9802948, 42.7132784 ], [ 2.9800557, 42.7132259 ], [ 2.9797678, 42.7131737 ], [ 2.9788309, 42.7130083 ], [ 2.9781997, 42.7129345 ], [ 2.9768999, 42.7128645 ], [ 2.975534, 42.7128723 ], [ 2.9746558, 42.7129266 ], [ 2.973883, 42.7130155 ], [ 2.9716506, 42.7132818 ], [ 2.9710309, 42.7133981 ], [ 2.9701638, 42.7136073 ], [ 2.9695076, 42.7137229 ], [ 2.9695376, 42.7140123 ], [ 2.9691805, 42.7145779 ], [ 2.9671358, 42.7154558 ], [ 2.9672255, 42.7158146 ], [ 2.9626616, 42.7169603 ], [ 2.96208, 42.7170621 ], [ 2.9605556, 42.7174581 ], [ 2.9583533, 42.717893 ], [ 2.9578796, 42.7173391 ], [ 2.9576432, 42.7173889 ], [ 2.9575046, 42.7176112 ], [ 2.9569956, 42.7188051 ], [ 2.957065, 42.7200129 ], [ 2.9570815, 42.7203246 ], [ 2.9575602, 42.721715 ], [ 2.9579364, 42.7225317 ], [ 2.9556487, 42.7229047 ], [ 2.9557086, 42.7231672 ], [ 2.9518376, 42.7237103 ], [ 2.9518413, 42.7232596 ], [ 2.9518217, 42.7230759 ], [ 2.9517797, 42.7230813 ], [ 2.9517367, 42.7230862 ], [ 2.9517513, 42.7232526 ], [ 2.9502477, 42.7233641 ], [ 2.9503216, 42.7237482 ], [ 2.9495778, 42.7238307 ], [ 2.949498, 42.7231177 ], [ 2.9481097, 42.7230947 ], [ 2.9472702, 42.7232006 ], [ 2.9477613, 42.7209253 ], [ 2.9479811, 42.720857 ], [ 2.9477765, 42.7205294 ], [ 2.9478529, 42.7205042 ], [ 2.9480965, 42.7194602 ], [ 2.9470587, 42.7194385 ], [ 2.9469816, 42.719389 ], [ 2.9407722, 42.718643 ], [ 2.9386655, 42.718343 ], [ 2.9387458, 42.7182629 ], [ 2.9372521, 42.7169243 ], [ 2.9354779, 42.7150772 ], [ 2.9298561, 42.7142267 ], [ 2.9281551, 42.71403 ], [ 2.928088, 42.7141454 ], [ 2.9277395, 42.7155474 ], [ 2.9274548, 42.715513 ], [ 2.9270981, 42.7169561 ], [ 2.9270332, 42.7174809 ], [ 2.9270596, 42.7179854 ], [ 2.9270993, 42.7181918 ], [ 2.9271287, 42.7189902 ], [ 2.9272056, 42.7191408 ], [ 2.9272147, 42.7195261 ], [ 2.927325, 42.7197917 ], [ 2.9274602, 42.7200212 ], [ 2.9277241, 42.720372 ], [ 2.9262462, 42.7208348 ], [ 2.9254551, 42.7227969 ], [ 2.9249321, 42.7241299 ], [ 2.9247401, 42.7244593 ], [ 2.9247075, 42.7245164 ], [ 2.9247668, 42.7245918 ], [ 2.9251744, 42.7251758 ], [ 2.9253957, 42.7254281 ], [ 2.9255626, 42.7255952 ], [ 2.9256703, 42.7256506 ], [ 2.9253574, 42.7265413 ], [ 2.9253171, 42.7266948 ], [ 2.9252793, 42.7267788 ], [ 2.9249597, 42.7274489 ], [ 2.9247797, 42.7286879 ], [ 2.9247211, 42.7290965 ], [ 2.9247578, 42.7293134 ], [ 2.9247061, 42.7293897 ], [ 2.9244983, 42.7303985 ], [ 2.9244471, 42.7305356 ], [ 2.9243568, 42.7305728 ], [ 2.9239435, 42.7305072 ], [ 2.9237594, 42.7305068 ], [ 2.9218416, 42.7302399 ], [ 2.9217399, 42.7301666 ], [ 2.9217048, 42.7302152 ], [ 2.9170431, 42.72959 ], [ 2.9166034, 42.72953 ], [ 2.916443, 42.7295045 ], [ 2.9160976, 42.7294518 ], [ 2.9108368, 42.7286949 ], [ 2.9107623, 42.7297364 ], [ 2.9107133, 42.7299379 ], [ 2.9104321, 42.7305397 ], [ 2.9104324, 42.7305435 ], [ 2.9088441, 42.7310546 ], [ 2.9087655, 42.7310437 ], [ 2.9087001, 42.7310332 ], [ 2.9081846, 42.7315394 ], [ 2.9079412, 42.7317583 ], [ 2.9076973, 42.731915 ], [ 2.907373, 42.7320976 ], [ 2.9070141, 42.7322663 ], [ 2.9066896, 42.7324206 ], [ 2.9066288, 42.7324802 ], [ 2.9065987, 42.7325369 ], [ 2.9059588, 42.7328063 ], [ 2.905583, 42.7330029 ], [ 2.905192, 42.7331782 ], [ 2.9048991, 42.7332947 ], [ 2.9047075, 42.7333603 ], [ 2.9045016, 42.7334217 ], [ 2.9038622, 42.733673 ], [ 2.9038178, 42.7336897 ], [ 2.9037534, 42.7337113 ], [ 2.903648, 42.7337491 ], [ 2.9034592, 42.7338189 ], [ 2.9031011, 42.7339249 ], [ 2.9027063, 42.7340311 ], [ 2.9021102, 42.7341462 ], [ 2.9018356, 42.7342071 ], [ 2.9016939, 42.734185 ], [ 2.9007105, 42.7345687 ], [ 2.9002447, 42.7347451 ], [ 2.8996835, 42.7348804 ], [ 2.8995429, 42.7348941 ], [ 2.8974621, 42.7356068 ], [ 2.8972556, 42.7353595 ], [ 2.895206, 42.7360418 ], [ 2.8953314, 42.7362127 ], [ 2.8942892, 42.7367009 ], [ 2.8942451, 42.7367011 ], [ 2.893551, 42.7369984 ], [ 2.893504, 42.7369821 ], [ 2.8934796, 42.7370315 ], [ 2.8935786, 42.7371573 ], [ 2.8937927, 42.7372825 ], [ 2.892795, 42.7376556 ], [ 2.8928591, 42.7377039 ], [ 2.8928593, 42.7377238 ], [ 2.8931664, 42.7379926 ], [ 2.8931543, 42.7380177 ], [ 2.8931469, 42.7380415 ], [ 2.8938555, 42.738853 ], [ 2.8940321, 42.739077 ], [ 2.8942074, 42.7393105 ], [ 2.8945871, 42.7398477 ], [ 2.8947526, 42.7401499 ], [ 2.8948372, 42.7403439 ], [ 2.8948891, 42.7404871 ], [ 2.8949448, 42.7406383 ], [ 2.8951649, 42.7409744 ], [ 2.8952213, 42.7410685 ], [ 2.8955034, 42.7414889 ], [ 2.8955915, 42.7416791 ], [ 2.8956505, 42.7418117 ], [ 2.8957588, 42.7420449 ], [ 2.8958189, 42.7422219 ], [ 2.8958923, 42.7424939 ], [ 2.8959087, 42.7425995 ], [ 2.8958826, 42.74305 ], [ 2.8958786, 42.7431197 ], [ 2.8957684, 42.7433974 ], [ 2.8956268, 42.7437492 ], [ 2.895451, 42.7443241 ], [ 2.8954428, 42.7444404 ], [ 2.8954908, 42.7446214 ], [ 2.8955759, 42.744792 ], [ 2.8958156, 42.7451293 ], [ 2.8963499, 42.7457812 ], [ 2.89652, 42.7460457 ], [ 2.8966681, 42.746203 ], [ 2.8967241, 42.7463008 ], [ 2.8967865, 42.7464756 ], [ 2.8968538, 42.7467652 ], [ 2.8974441, 42.7472959 ], [ 2.8975236, 42.7474692 ], [ 2.8974072, 42.7474222 ], [ 2.8972662, 42.7473752 ], [ 2.8971366, 42.7473423 ], [ 2.8970223, 42.747312 ], [ 2.8968169, 42.7472892 ], [ 2.8966286, 42.7472776 ], [ 2.8964309, 42.7472744 ], [ 2.8961993, 42.7472951 ], [ 2.8959905, 42.7473242 ], [ 2.8950948, 42.7474687 ], [ 2.8943032, 42.747584 ], [ 2.8942432, 42.7475588 ], [ 2.8936309, 42.7476453 ], [ 2.8933503, 42.7475563 ], [ 2.8927317, 42.7476428 ], [ 2.8924527, 42.7477323 ], [ 2.8922988, 42.7477469 ], [ 2.8922044, 42.7477405 ], [ 2.8918686, 42.7478116 ], [ 2.891521, 42.7479617 ], [ 2.8914337, 42.7480362 ], [ 2.8910884, 42.7484388 ], [ 2.8910021, 42.7486362 ], [ 2.8909459, 42.7486782 ], [ 2.890849, 42.7487366 ], [ 2.890712, 42.7487873 ], [ 2.8905452, 42.7488367 ], [ 2.890466, 42.7488508 ], [ 2.8904235, 42.7488584 ], [ 2.890316, 42.7488722 ], [ 2.8902281, 42.7488713 ], [ 2.8900218, 42.7488591 ], [ 2.8897401, 42.7488301 ], [ 2.8893271, 42.7487661 ], [ 2.889257, 42.7487519 ], [ 2.8890215, 42.7486764 ], [ 2.8888398, 42.7486099 ], [ 2.8886499, 42.7486293 ], [ 2.8885157, 42.748667 ], [ 2.8882925, 42.7487659 ], [ 2.8882208, 42.7487715 ], [ 2.8881258, 42.748772 ], [ 2.8880611, 42.7487578 ], [ 2.8878507, 42.7486848 ], [ 2.8878074, 42.7486546 ], [ 2.8874841, 42.7483972 ], [ 2.8873958, 42.7483448 ], [ 2.8870697, 42.7481733 ], [ 2.8869812, 42.7481076 ], [ 2.886862, 42.7480078 ], [ 2.8867261, 42.7478849 ], [ 2.8865639, 42.7476866 ], [ 2.8864365, 42.7475059 ], [ 2.8863824, 42.7474352 ], [ 2.8862936, 42.7473804 ], [ 2.8862265, 42.7473571 ], [ 2.8861464, 42.7473674 ], [ 2.8859811, 42.7474293 ], [ 2.8855976, 42.7476145 ], [ 2.8854723, 42.7476506 ], [ 2.8853041, 42.7476928 ], [ 2.8852079, 42.7477051 ], [ 2.8850903, 42.7477057 ], [ 2.8849271, 42.7477026 ], [ 2.8847049, 42.74768 ], [ 2.8845281, 42.7476513 ], [ 2.8843914, 42.7476165 ], [ 2.8834932, 42.7473843 ], [ 2.8833403, 42.7473338 ], [ 2.8830694, 42.7472484 ], [ 2.8829273, 42.7472037 ], [ 2.8828225, 42.747151 ], [ 2.8827498, 42.7470962 ], [ 2.8827144, 42.7470313 ], [ 2.8826568, 42.746868 ], [ 2.8826442, 42.746661 ], [ 2.8826799, 42.7464637 ], [ 2.8826931, 42.7464459 ], [ 2.8827466, 42.7464476 ], [ 2.8827957, 42.7462542 ], [ 2.8827786, 42.746138 ], [ 2.8827558, 42.7459824 ], [ 2.8827285, 42.7459214 ], [ 2.8826931, 42.7458545 ], [ 2.8825397, 42.7457488 ], [ 2.8823818, 42.7457216 ], [ 2.8822352, 42.7457168 ], [ 2.8813261, 42.74576 ], [ 2.881217, 42.7457439 ], [ 2.8811454, 42.7457221 ], [ 2.8810547, 42.7456672 ], [ 2.880934, 42.7456151 ], [ 2.8806587, 42.7455085 ], [ 2.8804741, 42.7454567 ], [ 2.8803009, 42.7454216 ], [ 2.8801841, 42.7453917 ], [ 2.8799083, 42.7452296 ], [ 2.8796176, 42.7450786 ], [ 2.8794517, 42.7450213 ], [ 2.8793193, 42.7449167 ], [ 2.8790997, 42.7447377 ], [ 2.8790613, 42.7446465 ], [ 2.8790795, 42.7445827 ], [ 2.8791204, 42.7445271 ], [ 2.8792685, 42.7442826 ], [ 2.8793387, 42.7441493 ], [ 2.8795655, 42.743874 ], [ 2.8794391, 42.7436059 ], [ 2.8792721, 42.7434212 ], [ 2.87917, 42.7433496 ], [ 2.8789477, 42.7432815 ], [ 2.8785562, 42.7432141 ], [ 2.8784393, 42.7431431 ], [ 2.8785227, 42.7429812 ], [ 2.8785057, 42.7429756 ], [ 2.8784396, 42.7430055 ], [ 2.8784226, 42.743001 ], [ 2.8783953, 42.7430443 ], [ 2.8783118, 42.7430243 ], [ 2.8782829, 42.7430664 ], [ 2.8782242, 42.7430508 ], [ 2.8781965, 42.7430623 ], [ 2.8778375, 42.7438205 ], [ 2.8773745, 42.7439704 ], [ 2.8770779, 42.7440153 ], [ 2.8767166, 42.7440885 ], [ 2.8760701, 42.7442037 ], [ 2.8759409, 42.7442375 ], [ 2.8757671, 42.7443255 ], [ 2.8755471, 42.7445402 ], [ 2.8753177, 42.7447731 ], [ 2.8751758, 42.7448262 ], [ 2.8750631, 42.7448311 ], [ 2.8749324, 42.7448099 ], [ 2.874849, 42.7447753 ], [ 2.8747689, 42.7446763 ], [ 2.8746401, 42.7445336 ], [ 2.8744919, 42.7442746 ], [ 2.8744273, 42.7441808 ], [ 2.8743508, 42.744114 ], [ 2.8742043, 42.7440386 ], [ 2.8740887, 42.744019 ], [ 2.8739611, 42.7440219 ], [ 2.873852, 42.7440537 ], [ 2.8735128, 42.7441673 ], [ 2.8732646, 42.7442715 ], [ 2.8730416, 42.7444786 ], [ 2.8728567, 42.7445287 ], [ 2.8727661, 42.7445964 ], [ 2.872694, 42.7446796 ], [ 2.8725817, 42.7448574 ], [ 2.8725556, 42.7449659 ], [ 2.8725802, 42.7451198 ], [ 2.8726155, 42.7451824 ], [ 2.872764, 42.7453386 ], [ 2.8727453, 42.7454072 ], [ 2.8726414, 42.7454818 ], [ 2.8724717, 42.7455454 ], [ 2.8720342, 42.7455332 ], [ 2.8718946, 42.7455082 ], [ 2.8716152, 42.7454211 ], [ 2.8714715, 42.7453648 ], [ 2.8713817, 42.7452796 ], [ 2.8708594, 42.7448656 ], [ 2.8705681, 42.7447529 ], [ 2.8700287, 42.7445928 ], [ 2.8698584, 42.7445994 ], [ 2.8697074, 42.7445858 ], [ 2.8695829, 42.7445122 ], [ 2.8695357, 42.7444354 ], [ 2.8695274, 42.7443642 ], [ 2.869534, 42.7442415 ], [ 2.8696288, 42.7440185 ], [ 2.8696822, 42.7439184 ], [ 2.8700235, 42.7435573 ], [ 2.8705038, 42.7431613 ], [ 2.8708425, 42.7429429 ], [ 2.8710576, 42.7427593 ], [ 2.8711918, 42.7426189 ], [ 2.8712221, 42.7425388 ], [ 2.8712368, 42.7424503 ], [ 2.8712348, 42.7422904 ], [ 2.8711479, 42.7421349 ], [ 2.8710465, 42.7420649 ], [ 2.8709556, 42.7420319 ], [ 2.8697897, 42.7417183 ], [ 2.8695824, 42.7416228 ], [ 2.8689116, 42.7415035 ], [ 2.8687154, 42.7415192 ], [ 2.868484, 42.7415463 ], [ 2.8680114, 42.7416265 ], [ 2.8671824, 42.741842 ], [ 2.8665865, 42.7419877 ], [ 2.8664557, 42.7419499 ], [ 2.866342, 42.7419229 ], [ 2.865862, 42.7418484 ], [ 2.8656634, 42.7418095 ], [ 2.8652919, 42.7415869 ], [ 2.8649976, 42.7412295 ], [ 2.8648603, 42.7409353 ], [ 2.8646419, 42.7408146 ], [ 2.8644973, 42.7406871 ], [ 2.8643524, 42.7405212 ], [ 2.8642419, 42.7403102 ], [ 2.8629982, 42.7396918 ], [ 2.8626007, 42.7390715 ], [ 2.8619168, 42.7383645 ], [ 2.861497, 42.7382342 ], [ 2.8611513, 42.7382162 ], [ 2.8608185, 42.7381541 ], [ 2.8606189, 42.7381256 ], [ 2.8605, 42.7382095 ], [ 2.8603531, 42.7381269 ], [ 2.8593799, 42.738191 ], [ 2.8589874, 42.7382455 ], [ 2.8585793, 42.7382662 ], [ 2.8573522, 42.73813 ], [ 2.8565922, 42.7387267 ], [ 2.8561809, 42.7369101 ], [ 2.8558478, 42.7365227 ], [ 2.8556651, 42.7365239 ], [ 2.8555444, 42.7365241 ], [ 2.8551602, 42.7363314 ], [ 2.8545256, 42.736169 ], [ 2.8537638, 42.7350154 ], [ 2.8534676, 42.7343068 ], [ 2.8526744, 42.7325601 ], [ 2.8522945, 42.7313074 ], [ 2.8523874, 42.7312883 ], [ 2.8524651, 42.7312109 ], [ 2.8525199, 42.7310772 ], [ 2.8529067, 42.7304887 ], [ 2.8530756, 42.73039 ], [ 2.8531732, 42.730362 ], [ 2.8542412, 42.7306663 ], [ 2.8554441, 42.7278699 ], [ 2.8558342, 42.7272165 ], [ 2.85718, 42.7257224 ], [ 2.8575705, 42.7251274 ], [ 2.8588912, 42.7253255 ], [ 2.8599573, 42.7240711 ], [ 2.8602982, 42.7236805 ], [ 2.8604535, 42.7233998 ], [ 2.8607298, 42.7229738 ], [ 2.8608464, 42.7227005 ], [ 2.8608138, 42.7226508 ], [ 2.8611628, 42.7220171 ], [ 2.8614335, 42.7215006 ], [ 2.8616673, 42.7210417 ], [ 2.8618794, 42.7205839 ], [ 2.8619134, 42.7205179 ], [ 2.862009, 42.7204091 ], [ 2.8622876, 42.7201316 ], [ 2.862316, 42.7200942 ], [ 2.8623723, 42.7199304 ], [ 2.8624229, 42.7197931 ], [ 2.8624284, 42.7197633 ], [ 2.8624355, 42.7197474 ], [ 2.862904, 42.719111 ], [ 2.8632244, 42.7186846 ], [ 2.8633052, 42.7184351 ], [ 2.8634854, 42.7183403 ], [ 2.8637729, 42.718242 ], [ 2.8636609, 42.7178206 ], [ 2.8636461, 42.7177136 ], [ 2.863644, 42.717472 ], [ 2.8636333, 42.7170315 ], [ 2.8636373, 42.7167015 ], [ 2.8637545, 42.7163811 ], [ 2.8640273, 42.7156467 ], [ 2.864123, 42.7155101 ], [ 2.8641622, 42.7155082 ], [ 2.8642514, 42.7154358 ], [ 2.8642579, 42.7153751 ], [ 2.8643252, 42.7151554 ], [ 2.8646726, 42.7139834 ], [ 2.8651636, 42.7123514 ], [ 2.8656276, 42.7108115 ], [ 2.8657164, 42.7109304 ], [ 2.8657625, 42.7109688 ], [ 2.8658456, 42.7109893 ], [ 2.8659175, 42.7109809 ], [ 2.8662816, 42.7109712 ], [ 2.8663624, 42.7109772 ], [ 2.8664827, 42.7110201 ], [ 2.8670425, 42.7099282 ], [ 2.867497, 42.7090417 ], [ 2.8676649, 42.7090361 ], [ 2.8677694, 42.7090115 ], [ 2.8684761, 42.7088025 ], [ 2.8687726, 42.708759 ], [ 2.8694029, 42.7086157 ], [ 2.8699219, 42.708501 ], [ 2.8701351, 42.7084372 ], [ 2.8703461, 42.7083751 ], [ 2.8704634, 42.7083215 ], [ 2.8705607, 42.7082293 ], [ 2.8706081, 42.7081648 ], [ 2.8706515, 42.7081356 ], [ 2.8707342, 42.7081127 ], [ 2.8708388, 42.7081058 ], [ 2.8709958, 42.708105 ], [ 2.8718227, 42.7081429 ], [ 2.8719514, 42.7081407 ], [ 2.8720647, 42.7081289 ], [ 2.8721888, 42.7081025 ], [ 2.8723127, 42.7080617 ], [ 2.8726879, 42.7079127 ], [ 2.8728455, 42.7078805 ], [ 2.8729433, 42.707893 ], [ 2.8731518, 42.7079567 ], [ 2.8734608, 42.7080494 ], [ 2.8736465, 42.7080818 ], [ 2.8740228, 42.7081354 ], [ 2.8741354, 42.7081182 ], [ 2.8743108, 42.7081283 ], [ 2.8745263, 42.7081275 ], [ 2.874739, 42.7080932 ], [ 2.8747924, 42.7067218 ], [ 2.8748341, 42.70643 ], [ 2.8748373, 42.7063728 ], [ 2.874824, 42.7063279 ], [ 2.8747882, 42.7062477 ], [ 2.8744593, 42.7056158 ], [ 2.8738759, 42.7044224 ], [ 2.8741153, 42.7044186 ], [ 2.874086, 42.704365 ], [ 2.8734716, 42.7032793 ], [ 2.8734382, 42.7032355 ], [ 2.872487, 42.7022092 ], [ 2.8723756, 42.702076 ], [ 2.872391, 42.7020114 ], [ 2.8723966, 42.7019581 ], [ 2.8723611, 42.7019742 ], [ 2.872319, 42.701914 ], [ 2.8722939, 42.7018648 ], [ 2.8721168, 42.7013334 ], [ 2.8717521, 42.7010989 ], [ 2.8718601, 42.7005739 ], [ 2.8721684, 42.7004011 ], [ 2.8727463, 42.6996765 ], [ 2.8728222, 42.6993857 ], [ 2.8697288, 42.6991743 ], [ 2.8680402, 42.6988863 ], [ 2.8665702, 42.6986337 ], [ 2.8654109, 42.6988962 ], [ 2.864147, 42.6988736 ], [ 2.8628939, 42.6988666 ], [ 2.8617658, 42.6988528 ], [ 2.8607778, 42.698796 ], [ 2.8552987, 42.6984419 ], [ 2.8511944, 42.6975253 ], [ 2.8474659, 42.6958481 ], [ 2.8441079, 42.6950872 ], [ 2.8433469, 42.6947859 ], [ 2.8431768, 42.694759 ], [ 2.8401387, 42.6945239 ], [ 2.8373149, 42.6942971 ], [ 2.8366155, 42.6941316 ], [ 2.8352609, 42.6936954 ], [ 2.8313675, 42.6912061 ], [ 2.8282023, 42.690707 ], [ 2.8265889, 42.6905596 ] ] ] } }
]
}
