{
"type": "FeatureCollection",
"name": "pescara_it",
"crs": { "type": "name", "properties": { "name": "urn:ogc:def:crs:OGC:1.3:CRS84" } },
"features": [
{ "type": "Feature", "properties": { "bbox_west": 14.1527721, "bbox_south": 42.4152465, "bbox_east": 14.2539586, "bbox_north": 42.4945604, "place_id": 80469304, "osm_type": "relation", "osm_id": 42014, "lat": 42.469613, "lon": 14.2059269, "class": "boundary", "type": "administrative", "place_rank": 16, "importance": 0.62775394827079745, "addresstype": "city", "name": "Pescara", "display_name": "Pescara, Abruzzo, Italy" }, "geometry": { "type": "Polygon", "coordinates": [ [ [ 14.1527721, 42.4797131 ], [ 14.1530943, 42.4790625 ], [ 14.1530001, 42.4789645 ], [ 14.153871, 42.478027 ], [ 14.1541776, 42.4776546 ], [ 14.1554156, 42.4746446 ], [ 14.1568082, 42.4712587 ], [ 14.1561582, 42.4698701 ], [ 14.1556998, 42.4694902 ], [ 14.1554485, 42.4688555 ], [ 14.1561609, 42.4678868 ], [ 14.1582658, 42.466272 ], [ 14.1615327, 42.4654522 ], [ 14.1657649, 42.4646292 ], [ 14.1682162, 42.4639352 ], [ 14.1696062, 42.4641983 ], [ 14.1707318, 42.4635802 ], [ 14.1719261, 42.4633517 ], [ 14.1727657, 42.4634229 ], [ 14.1742309, 42.4632974 ], [ 14.1756313, 42.4631832 ], [ 14.1776848, 42.463132 ], [ 14.1783903, 42.4631597 ], [ 14.1792994, 42.4631492 ], [ 14.1844225, 42.4613195 ], [ 14.1869733, 42.4597405 ], [ 14.1877237, 42.4594718 ], [ 14.1884565, 42.4595356 ], [ 14.1901522, 42.4587063 ], [ 14.192358, 42.4581174 ], [ 14.193591, 42.4573988 ], [ 14.1946926, 42.4576171 ], [ 14.195383, 42.4573952 ], [ 14.1948412, 42.4568688 ], [ 14.1945532, 42.4566014 ], [ 14.1943263, 42.4564651 ], [ 14.192637, 42.4558214 ], [ 14.1922459, 42.4556477 ], [ 14.1919566, 42.4554645 ], [ 14.19048, 42.4542408 ], [ 14.1892998, 42.4524755 ], [ 14.1879962, 42.4512049 ], [ 14.1876655, 42.450989 ], [ 14.1872697, 42.450821 ], [ 14.1862099, 42.4504252 ], [ 14.185909, 42.4502163 ], [ 14.1857056, 42.4500254 ], [ 14.1856423, 42.4498716 ], [ 14.185636, 42.4497357 ], [ 14.1857062, 42.449509 ], [ 14.1870146, 42.4484183 ], [ 14.1874759, 42.4478206 ], [ 14.1875778, 42.4474683 ], [ 14.1875671, 42.4468587 ], [ 14.187566, 42.4465134 ], [ 14.1872226, 42.44626 ], [ 14.1869352, 42.4461304 ], [ 14.1866046, 42.4459813 ], [ 14.1847302, 42.4455229 ], [ 14.1831478, 42.445136 ], [ 14.1805793, 42.4440876 ], [ 14.1803025, 42.4440479 ], [ 14.1800115, 42.4440473 ], [ 14.1793077, 42.4443766 ], [ 14.1785352, 42.4440663 ], [ 14.1779619, 42.4432865 ], [ 14.1781012, 42.4428427 ], [ 14.1786114, 42.4424769 ], [ 14.1794955, 42.4420335 ], [ 14.1802336, 42.4418181 ], [ 14.1833878, 42.4405386 ], [ 14.1834623, 42.4402853 ], [ 14.1831547, 42.4400432 ], [ 14.1827571, 42.4400382 ], [ 14.1815812, 42.4402536 ], [ 14.1806425, 42.4402959 ], [ 14.1793253, 42.4402246 ], [ 14.1787852, 42.4402838 ], [ 14.1781913, 42.4403489 ], [ 14.1765844, 42.4403451 ], [ 14.1754351, 42.4398354 ], [ 14.1748643, 42.4391612 ], [ 14.1741928, 42.4384736 ], [ 14.1732735, 42.4377635 ], [ 14.1726185, 42.4372776 ], [ 14.1716695, 42.4368782 ], [ 14.1724647, 42.436287 ], [ 14.1729083, 42.4359698 ], [ 14.1731305, 42.4358382 ], [ 14.1736656, 42.4355682 ], [ 14.1737434, 42.4355439 ], [ 14.1739166, 42.4355023 ], [ 14.1740505, 42.4355075 ], [ 14.174168, 42.435479 ], [ 14.1742542, 42.4354305 ], [ 14.1743188, 42.4352117 ], [ 14.1744081, 42.4346146 ], [ 14.174406, 42.434487 ], [ 14.1743817, 42.4343475 ], [ 14.1743867, 42.4341691 ], [ 14.1745071, 42.4340854 ], [ 14.1748766, 42.4339695 ], [ 14.1750452, 42.4339119 ], [ 14.1752742, 42.4338353 ], [ 14.1753852, 42.4337875 ], [ 14.1755408, 42.433818 ], [ 14.1757513, 42.4337853 ], [ 14.1762809, 42.4336397 ], [ 14.1763566, 42.4336679 ], [ 14.1763906, 42.4337462 ], [ 14.1764434, 42.4338961 ], [ 14.1765114, 42.4340308 ], [ 14.1765651, 42.43414 ], [ 14.1766113, 42.434124 ], [ 14.1768094, 42.4340412 ], [ 14.1773289, 42.4337929 ], [ 14.1778682, 42.4335528 ], [ 14.1783315, 42.4332938 ], [ 14.1786381, 42.4331235 ], [ 14.1789808, 42.4329347 ], [ 14.179243, 42.4327528 ], [ 14.1796071, 42.4325205 ], [ 14.1799998, 42.4322824 ], [ 14.1803941, 42.4320503 ], [ 14.1806328, 42.4318782 ], [ 14.180853, 42.4317242 ], [ 14.1811498, 42.4315189 ], [ 14.181468, 42.4306991 ], [ 14.1815145, 42.430635 ], [ 14.1815556, 42.430592 ], [ 14.1819946, 42.4302436 ], [ 14.1821192, 42.4301435 ], [ 14.1822129, 42.430042 ], [ 14.1822849, 42.4296746 ], [ 14.1824104, 42.4293948 ], [ 14.1826415, 42.4288776 ], [ 14.182667, 42.4287304 ], [ 14.1827096, 42.4285957 ], [ 14.1831114, 42.4281429 ], [ 14.1832273, 42.4280152 ], [ 14.1833264, 42.4279202 ], [ 14.1835329, 42.4276647 ], [ 14.1835561, 42.4276275 ], [ 14.1836176, 42.4275535 ], [ 14.1842285, 42.4270272 ], [ 14.1847827, 42.4265543 ], [ 14.1854004, 42.4260326 ], [ 14.1857279, 42.4257569 ], [ 14.185938, 42.4260382 ], [ 14.1860842, 42.4262352 ], [ 14.18645, 42.4267165 ], [ 14.1864567, 42.4267124 ], [ 14.1895822, 42.4308465 ], [ 14.192928, 42.4353342 ], [ 14.1933091, 42.4358143 ], [ 14.1941959, 42.4369996 ], [ 14.1942132, 42.4369937 ], [ 14.1942431, 42.4370328 ], [ 14.194367, 42.4369284 ], [ 14.1944849, 42.4366673 ], [ 14.1950719, 42.4359564 ], [ 14.1951925, 42.4358065 ], [ 14.195247, 42.4357288 ], [ 14.1952964, 42.435671 ], [ 14.1954857, 42.4353308 ], [ 14.1955714, 42.4351928 ], [ 14.1956136, 42.4351322 ], [ 14.1956508, 42.4350748 ], [ 14.1957338, 42.434966 ], [ 14.1957637, 42.4349201 ], [ 14.1958873, 42.4347795 ], [ 14.1960113, 42.4346288 ], [ 14.1960767, 42.4344009 ], [ 14.1963183, 42.4338827 ], [ 14.1963165, 42.4337467 ], [ 14.196541, 42.4332642 ], [ 14.1967935, 42.4326941 ], [ 14.196883, 42.4325074 ], [ 14.1970875, 42.4320712 ], [ 14.1971062, 42.432017 ], [ 14.197124, 42.4319296 ], [ 14.1972872, 42.4315814 ], [ 14.1973406, 42.4314639 ], [ 14.1973757, 42.4313828 ], [ 14.1974933, 42.4311231 ], [ 14.1975444, 42.4310195 ], [ 14.1975777, 42.4309364 ], [ 14.1977181, 42.4306327 ], [ 14.197958, 42.4301245 ], [ 14.1979798, 42.4300682 ], [ 14.1980728, 42.4298975 ], [ 14.198119, 42.429794 ], [ 14.1982871, 42.4294281 ], [ 14.19836, 42.4292361 ], [ 14.1984424, 42.4290413 ], [ 14.1985321, 42.428859 ], [ 14.198562, 42.428794 ], [ 14.1985587, 42.4287779 ], [ 14.1986257, 42.4287346 ], [ 14.1996615, 42.4283668 ], [ 14.2004098, 42.4280991 ], [ 14.2004994, 42.4280415 ], [ 14.2005831, 42.4279857 ], [ 14.2005977, 42.4279893 ], [ 14.2006144, 42.4279698 ], [ 14.2006475, 42.4279663 ], [ 14.2006253, 42.4279967 ], [ 14.2007323, 42.4279842 ], [ 14.2010461, 42.4279918 ], [ 14.2010463, 42.4279998 ], [ 14.2012408, 42.4280015 ], [ 14.2015748, 42.4279922 ], [ 14.2015746, 42.4279825 ], [ 14.2016595, 42.4279755 ], [ 14.2018088, 42.4279837 ], [ 14.2019921, 42.4279978 ], [ 14.2020367, 42.4279961 ], [ 14.2021729, 42.4279393 ], [ 14.2022626, 42.4279229 ], [ 14.2026926, 42.4277722 ], [ 14.2028228, 42.4277185 ], [ 14.2030099, 42.4276835 ], [ 14.2031624, 42.4276583 ], [ 14.2033105, 42.4276048 ], [ 14.2034736, 42.4275938 ], [ 14.2035155, 42.4275928 ], [ 14.2035614, 42.4275802 ], [ 14.2036837, 42.4275247 ], [ 14.2037988, 42.4275395 ], [ 14.2039057, 42.4275387 ], [ 14.2040974, 42.4275028 ], [ 14.2043157, 42.4275075 ], [ 14.2044072, 42.4274521 ], [ 14.2044504, 42.4274066 ], [ 14.2045085, 42.427391 ], [ 14.2045484, 42.4273642 ], [ 14.2045705, 42.4273136 ], [ 14.2046074, 42.4272767 ], [ 14.2047153, 42.4272192 ], [ 14.2047764, 42.4271766 ], [ 14.2047933, 42.4270911 ], [ 14.2048272, 42.4270438 ], [ 14.2048804, 42.4270299 ], [ 14.2049153, 42.4270063 ], [ 14.2051213, 42.4269595 ], [ 14.2051994, 42.4268776 ], [ 14.205441, 42.426789 ], [ 14.2056526, 42.4266397 ], [ 14.205738, 42.4266141 ], [ 14.20577, 42.4265636 ], [ 14.2058296, 42.4265414 ], [ 14.2059439, 42.4264136 ], [ 14.2061628, 42.4262781 ], [ 14.2062206, 42.426233 ], [ 14.2064231, 42.4261698 ], [ 14.2067644, 42.4262419 ], [ 14.2068527, 42.4262347 ], [ 14.2070162, 42.4262185 ], [ 14.2073034, 42.4261928 ], [ 14.2074345, 42.4261081 ], [ 14.2077508, 42.4259554 ], [ 14.2079084, 42.4258786 ], [ 14.2080983, 42.4257881 ], [ 14.2082422, 42.4256678 ], [ 14.2082893, 42.4255899 ], [ 14.2085659, 42.4254457 ], [ 14.2086377, 42.4253975 ], [ 14.2087573, 42.4253382 ], [ 14.2089163, 42.4253255 ], [ 14.2089507, 42.4253144 ], [ 14.2090192, 42.4252764 ], [ 14.2090573, 42.4252458 ], [ 14.2091889, 42.4251286 ], [ 14.2092599, 42.4250676 ], [ 14.2094912, 42.424984 ], [ 14.2096533, 42.4251043 ], [ 14.2099479, 42.4253128 ], [ 14.2099798, 42.4253404 ], [ 14.2100728, 42.4254924 ], [ 14.2101773, 42.4256557 ], [ 14.2102413, 42.4257539 ], [ 14.2102987, 42.4258503 ], [ 14.210487, 42.4261468 ], [ 14.2104866, 42.4261852 ], [ 14.2104984, 42.4262378 ], [ 14.210527, 42.4262619 ], [ 14.2105438, 42.4262952 ], [ 14.2105404, 42.426361 ], [ 14.210617, 42.426503 ], [ 14.2107167, 42.4267002 ], [ 14.210763, 42.4268887 ], [ 14.21101, 42.426827 ], [ 14.2110731, 42.4268401 ], [ 14.211332, 42.4267396 ], [ 14.2114935, 42.4266684 ], [ 14.2117159, 42.426548 ], [ 14.2118652, 42.4266568 ], [ 14.2119308, 42.4266836 ], [ 14.2121081, 42.4268363 ], [ 14.2122433, 42.4269543 ], [ 14.2124163, 42.4271307 ], [ 14.2126927, 42.4277677 ], [ 14.2127458, 42.4278732 ], [ 14.2127914, 42.4280056 ], [ 14.2128468, 42.4282591 ], [ 14.2129383, 42.4282639 ], [ 14.2131446, 42.4282606 ], [ 14.213241, 42.4282878 ], [ 14.2133412, 42.4283287 ], [ 14.2136555, 42.4284347 ], [ 14.2138315, 42.4284242 ], [ 14.2142666, 42.4282491 ], [ 14.2146325, 42.4281669 ], [ 14.2148502, 42.4280844 ], [ 14.2150026, 42.4280561 ], [ 14.2150212, 42.4280556 ], [ 14.215594, 42.4279854 ], [ 14.2157645, 42.4279804 ], [ 14.2161228, 42.4278806 ], [ 14.2166947, 42.4277391 ], [ 14.2171428, 42.4276715 ], [ 14.2172606, 42.4276333 ], [ 14.2175323, 42.4277419 ], [ 14.2177608, 42.427834 ], [ 14.2178508, 42.4278606 ], [ 14.2180914, 42.4279345 ], [ 14.218223, 42.4279509 ], [ 14.2183717, 42.4279167 ], [ 14.2187389, 42.4278567 ], [ 14.2188055, 42.4278241 ], [ 14.2189702, 42.4277769 ], [ 14.2193971, 42.4276761 ], [ 14.2194856, 42.4275903 ], [ 14.2195362, 42.4275691 ], [ 14.2195706, 42.4275292 ], [ 14.219729, 42.4275368 ], [ 14.2198721, 42.4275622 ], [ 14.219993, 42.4275285 ], [ 14.2200974, 42.4275401 ], [ 14.2202255, 42.427585 ], [ 14.220376, 42.427553 ], [ 14.2204372, 42.4275753 ], [ 14.2205362, 42.4275978 ], [ 14.2205524, 42.4276197 ], [ 14.2206041, 42.4276072 ], [ 14.2206331, 42.427577 ], [ 14.2207751, 42.4275775 ], [ 14.2208234, 42.427592 ], [ 14.2212846, 42.4276944 ], [ 14.2213509, 42.4277455 ], [ 14.2215658, 42.4277521 ], [ 14.221693, 42.4277401 ], [ 14.2218321, 42.4277642 ], [ 14.2219741, 42.4277633 ], [ 14.2221143, 42.4277853 ], [ 14.2222329, 42.4277836 ], [ 14.2225751, 42.4278914 ], [ 14.2227842, 42.4280005 ], [ 14.2231295, 42.4278747 ], [ 14.2231902, 42.4277826 ], [ 14.2233496, 42.4276569 ], [ 14.22346, 42.4276214 ], [ 14.2235719, 42.4276234 ], [ 14.2237384, 42.4275854 ], [ 14.2237244, 42.4275252 ], [ 14.223689, 42.4274534 ], [ 14.2236762, 42.4273681 ], [ 14.2236692, 42.4273035 ], [ 14.2236655, 42.4270567 ], [ 14.2236135, 42.4268412 ], [ 14.2237756, 42.4264228 ], [ 14.2234052, 42.4263145 ], [ 14.2232059, 42.4260943 ], [ 14.223413, 42.4258389 ], [ 14.2234678, 42.4257687 ], [ 14.2229756, 42.4252858 ], [ 14.2230843, 42.4251337 ], [ 14.2234591, 42.4249969 ], [ 14.223463, 42.424915 ], [ 14.2233541, 42.4247884 ], [ 14.2233264, 42.4247427 ], [ 14.2233408, 42.4247308 ], [ 14.2233581, 42.4244194 ], [ 14.2233181, 42.4234948 ], [ 14.2233362, 42.4226454 ], [ 14.2232446, 42.4219122 ], [ 14.2231519, 42.4212987 ], [ 14.2227554, 42.4209772 ], [ 14.222585, 42.4208313 ], [ 14.2223618, 42.4206232 ], [ 14.2222873, 42.4205133 ], [ 14.2222161, 42.4204217 ], [ 14.2221858, 42.4203771 ], [ 14.221728, 42.4198852 ], [ 14.2211632, 42.4192882 ], [ 14.2213821, 42.4192016 ], [ 14.2215275, 42.4191407 ], [ 14.2218567, 42.4189805 ], [ 14.2227002, 42.4187169 ], [ 14.2229195, 42.4186616 ], [ 14.2231368, 42.4185873 ], [ 14.2235139, 42.4184735 ], [ 14.2241193, 42.4183155 ], [ 14.224348, 42.4182591 ], [ 14.2254773, 42.4178627 ], [ 14.225606, 42.4177789 ], [ 14.2259061, 42.4176034 ], [ 14.2262666, 42.4175025 ], [ 14.2267218, 42.417352 ], [ 14.2275382, 42.4171176 ], [ 14.2279461, 42.4170392 ], [ 14.2279369, 42.4170189 ], [ 14.2281844, 42.4169575 ], [ 14.2283868, 42.4169268 ], [ 14.2285613, 42.4168867 ], [ 14.2287725, 42.4168523 ], [ 14.2287556, 42.4168364 ], [ 14.2283231, 42.4162569 ], [ 14.2279608, 42.4158752 ], [ 14.2288496, 42.4152708 ], [ 14.2288956, 42.4152465 ], [ 14.2289013, 42.4152524 ], [ 14.2291473, 42.4154757 ], [ 14.2295867, 42.4158926 ], [ 14.229874, 42.4161665 ], [ 14.230039, 42.4163002 ], [ 14.2302923, 42.4164717 ], [ 14.2304212, 42.4165674 ], [ 14.230439, 42.4166413 ], [ 14.2304505, 42.4167116 ], [ 14.2304542, 42.4167673 ], [ 14.2304798, 42.4167787 ], [ 14.2313024, 42.4177828 ], [ 14.2316564, 42.4182105 ], [ 14.2317695, 42.4183518 ], [ 14.2318277, 42.4185919 ], [ 14.2321984, 42.4200961 ], [ 14.2322475, 42.4201145 ], [ 14.2323953, 42.4201934 ], [ 14.2325338, 42.4203092 ], [ 14.2327148, 42.4207302 ], [ 14.2328332, 42.4208842 ], [ 14.2329497, 42.4210034 ], [ 14.2332025, 42.4213042 ], [ 14.2334275, 42.4215533 ], [ 14.2334128, 42.4216883 ], [ 14.2334414, 42.4217689 ], [ 14.2334582, 42.4218022 ], [ 14.2336169, 42.4218722 ], [ 14.2336251, 42.4219122 ], [ 14.2337246, 42.4219961 ], [ 14.2338557, 42.422146 ], [ 14.2341882, 42.422332 ], [ 14.234326, 42.4224742 ], [ 14.2346278, 42.4226732 ], [ 14.2347778, 42.4227307 ], [ 14.2349083, 42.4227993 ], [ 14.2350054, 42.4229611 ], [ 14.2351275, 42.4230685 ], [ 14.2351443, 42.4230803 ], [ 14.2354419, 42.4233355 ], [ 14.2355038, 42.4233635 ], [ 14.235685, 42.4235386 ], [ 14.2358253, 42.4236579 ], [ 14.2361263, 42.4238517 ], [ 14.2363213, 42.4241718 ], [ 14.2364848, 42.4244146 ], [ 14.2366208, 42.4245216 ], [ 14.2368164, 42.4247721 ], [ 14.2369361, 42.4250972 ], [ 14.2370382, 42.4252093 ], [ 14.2372279, 42.4253583 ], [ 14.2375233, 42.4257948 ], [ 14.237587, 42.4258369 ], [ 14.2376903, 42.4260016 ], [ 14.2378177, 42.4261231 ], [ 14.2380743, 42.4262786 ], [ 14.238227, 42.4263943 ], [ 14.2384606, 42.4265456 ], [ 14.2386381, 42.4267078 ], [ 14.2387489, 42.4268556 ], [ 14.2388318, 42.4269452 ], [ 14.2389408, 42.42694 ], [ 14.2392479, 42.4269162 ], [ 14.2395756, 42.4268567 ], [ 14.2401886, 42.4267733 ], [ 14.2404497, 42.4267513 ], [ 14.2407509, 42.4266927 ], [ 14.2415776, 42.4266202 ], [ 14.2422171, 42.426567 ], [ 14.2424345, 42.426567 ], [ 14.242774, 42.4265692 ], [ 14.2429734, 42.4265393 ], [ 14.2432116, 42.4264355 ], [ 14.2433023, 42.4264177 ], [ 14.2434511, 42.4264235 ], [ 14.2434994, 42.426472 ], [ 14.2435936, 42.4266833 ], [ 14.2437111, 42.4267518 ], [ 14.243965, 42.4268509 ], [ 14.2441577, 42.4268746 ], [ 14.2443813, 42.4269094 ], [ 14.2445289, 42.4269418 ], [ 14.2446531, 42.4269674 ], [ 14.2449144, 42.4271086 ], [ 14.2453959, 42.4273778 ], [ 14.2457817, 42.4275908 ], [ 14.2461251, 42.4279817 ], [ 14.2463182, 42.4281979 ], [ 14.2457074, 42.4284425 ], [ 14.2454205, 42.4285613 ], [ 14.2451415, 42.4286752 ], [ 14.2448343, 42.4287828 ], [ 14.2442605, 42.4289919 ], [ 14.2441776, 42.4290598 ], [ 14.2443152, 42.4292091 ], [ 14.2444302, 42.4292886 ], [ 14.2445168, 42.4293878 ], [ 14.2447582, 42.4293988 ], [ 14.2448399, 42.4294385 ], [ 14.2449017, 42.4295048 ], [ 14.2448738, 42.4295334 ], [ 14.2448775, 42.4295632 ], [ 14.2448044, 42.4296075 ], [ 14.2444166, 42.4295692 ], [ 14.2442139, 42.429622 ], [ 14.2440103, 42.429676 ], [ 14.2437239, 42.4297433 ], [ 14.2434536, 42.4298109 ], [ 14.2432638, 42.4299502 ], [ 14.2430741, 42.4300938 ], [ 14.2430079, 42.4302075 ], [ 14.2434416, 42.430599 ], [ 14.2434668, 42.4308339 ], [ 14.2435375, 42.430986 ], [ 14.2437048, 42.4311962 ], [ 14.2438132, 42.431328 ], [ 14.2440393, 42.4315367 ], [ 14.2442351, 42.4316993 ], [ 14.2443549, 42.4318606 ], [ 14.2443996, 42.43199 ], [ 14.2445258, 42.4321181 ], [ 14.244606, 42.4321445 ], [ 14.2448028, 42.4323115 ], [ 14.2449338, 42.4324331 ], [ 14.2453297, 42.4326097 ], [ 14.2454033, 42.4326742 ], [ 14.2455186, 42.4327804 ], [ 14.2456687, 42.4330805 ], [ 14.2457075, 42.4331606 ], [ 14.2457818, 42.433345 ], [ 14.2466667, 42.4335335 ], [ 14.2467751, 42.4335866 ], [ 14.2469022, 42.4336413 ], [ 14.2470057, 42.4336892 ], [ 14.2472983, 42.433887 ], [ 14.247403, 42.4339564 ], [ 14.2475168, 42.4341434 ], [ 14.2479745, 42.4342036 ], [ 14.248288, 42.4343674 ], [ 14.2482595, 42.4343952 ], [ 14.2482098, 42.4344373 ], [ 14.248025, 42.4345808 ], [ 14.2479757, 42.4346175 ], [ 14.2479086, 42.4346869 ], [ 14.2478558, 42.4347387 ], [ 14.247706, 42.4348314 ], [ 14.2474957, 42.4348809 ], [ 14.2473379, 42.4349221 ], [ 14.2472489, 42.4349436 ], [ 14.2471039, 42.4349503 ], [ 14.2467951, 42.4350383 ], [ 14.2465061, 42.4351243 ], [ 14.2463545, 42.4351796 ], [ 14.2458767, 42.4353395 ], [ 14.2457769, 42.4353707 ], [ 14.2453868, 42.4354422 ], [ 14.2452603, 42.4354869 ], [ 14.2451308, 42.4355432 ], [ 14.2449853, 42.4356085 ], [ 14.2448328, 42.4356408 ], [ 14.2445659, 42.4357253 ], [ 14.2444595, 42.4357602 ], [ 14.244098, 42.4364904 ], [ 14.2439008, 42.4369003 ], [ 14.2439477, 42.4369367 ], [ 14.2439989, 42.4369817 ], [ 14.2440717, 42.4370386 ], [ 14.2441371, 42.4370798 ], [ 14.2442294, 42.4371313 ], [ 14.2443612, 42.4372495 ], [ 14.24443, 42.4374211 ], [ 14.2444575, 42.4374948 ], [ 14.2445953, 42.4376503 ], [ 14.2449736, 42.437925 ], [ 14.2452623, 42.4380554 ], [ 14.245434, 42.438146 ], [ 14.2455016, 42.4381663 ], [ 14.2455195, 42.4381483 ], [ 14.2456395, 42.4381836 ], [ 14.2458045, 42.4382526 ], [ 14.2459031, 42.4384214 ], [ 14.245917, 42.4385881 ], [ 14.2459688, 42.4386883 ], [ 14.2460823, 42.438787 ], [ 14.2461371, 42.4388692 ], [ 14.2462247, 42.4389576 ], [ 14.2462545, 42.4390004 ], [ 14.2464071, 42.4391155 ], [ 14.2465525, 42.4391905 ], [ 14.2466837, 42.4392801 ], [ 14.2467279, 42.4394136 ], [ 14.246929, 42.4395602 ], [ 14.2470499, 42.4396812 ], [ 14.24716, 42.4397628 ], [ 14.2475334, 42.4400796 ], [ 14.2478728, 42.4403911 ], [ 14.2481238, 42.4406313 ], [ 14.24837, 42.440822 ], [ 14.2485113, 42.4409952 ], [ 14.2487112, 42.4411933 ], [ 14.249074, 42.4415451 ], [ 14.2492305, 42.4416901 ], [ 14.2493497, 42.4417966 ], [ 14.2495165, 42.441957 ], [ 14.2500256, 42.4424218 ], [ 14.2501213, 42.4425131 ], [ 14.2501753, 42.4425518 ], [ 14.2502319, 42.4425764 ], [ 14.2503092, 42.4426299 ], [ 14.2504303, 42.4427023 ], [ 14.2505347, 42.442779 ], [ 14.2506105, 42.4428417 ], [ 14.2507428, 42.4429466 ], [ 14.2508307, 42.4430069 ], [ 14.2508567, 42.4430296 ], [ 14.2510613, 42.4431752 ], [ 14.2513795, 42.4433919 ], [ 14.2516297, 42.4435629 ], [ 14.2518088, 42.4436823 ], [ 14.2519421, 42.4437718 ], [ 14.2522578, 42.443966 ], [ 14.2524247, 42.44407 ], [ 14.252593, 42.4441713 ], [ 14.2527528, 42.444271 ], [ 14.2528798, 42.4443658 ], [ 14.2530807, 42.4445198 ], [ 14.2530813, 42.4445404 ], [ 14.2532253, 42.4446326 ], [ 14.2532338, 42.4446253 ], [ 14.2535201, 42.4448192 ], [ 14.2538788, 42.4450571 ], [ 14.2539586, 42.44511 ], [ 14.2538081, 42.4450912 ], [ 14.2537342, 42.4451472 ], [ 14.2534794, 42.4453575 ], [ 14.2534422, 42.4453882 ], [ 14.2532742, 42.4455268 ], [ 14.2524904, 42.4461736 ], [ 14.2514717, 42.4470142 ], [ 14.2514474, 42.4470343 ], [ 14.24997, 42.4479203 ], [ 14.2490294, 42.4484844 ], [ 14.248398, 42.4490611 ], [ 14.248316, 42.4492448 ], [ 14.2482744, 42.4493382 ], [ 14.2481863, 42.4493898 ], [ 14.247811, 42.4496097 ], [ 14.2477886, 42.4496282 ], [ 14.2474665, 42.4498932 ], [ 14.2470516, 42.4502346 ], [ 14.2467988, 42.4504426 ], [ 14.2461169, 42.4509798 ], [ 14.2460837, 42.4510059 ], [ 14.2460037, 42.4510737 ], [ 14.2460263, 42.4511787 ], [ 14.2460809, 42.451218 ], [ 14.2461602, 42.4512765 ], [ 14.246211, 42.4513155 ], [ 14.2462354, 42.451353 ], [ 14.2462192, 42.4513845 ], [ 14.2461907, 42.451398 ], [ 14.2461257, 42.4513785 ], [ 14.2460647, 42.451326 ], [ 14.24595, 42.4512185 ], [ 14.2455889, 42.4514257 ], [ 14.2451848, 42.4517701 ], [ 14.2445818, 42.4523262 ], [ 14.2443252, 42.4526161 ], [ 14.2441081, 42.4530234 ], [ 14.2441051, 42.4530449 ], [ 14.2442029, 42.4531205 ], [ 14.2442584, 42.4531614 ], [ 14.2443292, 42.4532012 ], [ 14.2443909, 42.4532592 ], [ 14.2443939, 42.4532944 ], [ 14.2443801, 42.4533149 ], [ 14.2443339, 42.4533149 ], [ 14.2442661, 42.4533069 ], [ 14.2441952, 42.4532637 ], [ 14.2441274, 42.4532103 ], [ 14.2440209, 42.4532713 ], [ 14.2435276, 42.453404 ], [ 14.2426425, 42.4538493 ], [ 14.2420042, 42.4543084 ], [ 14.241803, 42.454631 ], [ 14.2417099, 42.4549506 ], [ 14.2417288, 42.4549627 ], [ 14.2417792, 42.4549968 ], [ 14.2418515, 42.4550531 ], [ 14.2419048, 42.4550997 ], [ 14.2418427, 42.4551455 ], [ 14.2417877, 42.4551491 ], [ 14.2417103, 42.4551047 ], [ 14.2416308, 42.4550385 ], [ 14.2415937, 42.455011 ], [ 14.2411539, 42.4551159 ], [ 14.2405879, 42.4554661 ], [ 14.2402393, 42.4557175 ], [ 14.2397606, 42.4561572 ], [ 14.2400339, 42.4563643 ], [ 14.239996, 42.4564044 ], [ 14.2399403, 42.456428 ], [ 14.2398666, 42.4563858 ], [ 14.2397945, 42.4563265 ], [ 14.239743, 42.4562874 ], [ 14.2396922, 42.4562442 ], [ 14.2396403, 42.4562026 ], [ 14.2393737, 42.4562438 ], [ 14.23896, 42.4564754 ], [ 14.2385255, 42.4568447 ], [ 14.2382219, 42.4572482 ], [ 14.2381562, 42.4574344 ], [ 14.2381898, 42.4574536 ], [ 14.2382967, 42.4575395 ], [ 14.2382961, 42.4575881 ], [ 14.2382432, 42.4576186 ], [ 14.2381969, 42.4575964 ], [ 14.2381598, 42.4575629 ], [ 14.2380795, 42.4575072 ], [ 14.2377093, 42.4576142 ], [ 14.2372832, 42.4578277 ], [ 14.2370522, 42.4579738 ], [ 14.2367354, 42.4581742 ], [ 14.2364246, 42.4584169 ], [ 14.2362027, 42.4586704 ], [ 14.2361655, 42.4588327 ], [ 14.2362589, 42.4588741 ], [ 14.2363476, 42.458918 ], [ 14.23642, 42.4589628 ], [ 14.2364305, 42.4589955 ], [ 14.2364095, 42.4590257 ], [ 14.2363558, 42.4590377 ], [ 14.2362671, 42.4590058 ], [ 14.2361912, 42.4589611 ], [ 14.2361106, 42.458912 ], [ 14.2360067, 42.4588577 ], [ 14.2358783, 42.4587847 ], [ 14.2354737, 42.4589778 ], [ 14.2350127, 42.4592781 ], [ 14.2344735, 42.4598082 ], [ 14.2340898, 42.4604144 ], [ 14.2337318, 42.4607781 ], [ 14.233775, 42.4608051 ], [ 14.2338351, 42.4608364 ], [ 14.2339244, 42.4608864 ], [ 14.2339699, 42.4609193 ], [ 14.2339992, 42.4609483 ], [ 14.2339784, 42.4609836 ], [ 14.2339291, 42.4610097 ], [ 14.2338759, 42.4609995 ], [ 14.2338051, 42.4609614 ], [ 14.2336934, 42.4608705 ], [ 14.2335855, 42.4607955 ], [ 14.233515, 42.460738 ], [ 14.2333274, 42.4607912 ], [ 14.2323815, 42.4614649 ], [ 14.2321535, 42.461813 ], [ 14.2320719, 42.4625712 ], [ 14.2321387, 42.4638572 ], [ 14.232175, 42.4640294 ], [ 14.2347102, 42.4655544 ], [ 14.2347106, 42.4656106 ], [ 14.2345705, 42.4657073 ], [ 14.2345094, 42.4657009 ], [ 14.2343853, 42.4656247 ], [ 14.2343006, 42.4656978 ], [ 14.2342434, 42.4656629 ], [ 14.2341938, 42.4656327 ], [ 14.2327881, 42.4668765 ], [ 14.2317858, 42.4672885 ], [ 14.2316915, 42.4671671 ], [ 14.2318497, 42.4670987 ], [ 14.2318673, 42.4671235 ], [ 14.2327009, 42.4667851 ], [ 14.2326694, 42.4662682 ], [ 14.2331918, 42.4662475 ], [ 14.2331093, 42.4649985 ], [ 14.2328853, 42.4650064 ], [ 14.2328632, 42.4647175 ], [ 14.2325657, 42.4647243 ], [ 14.2325481, 42.4645093 ], [ 14.2317277, 42.4640057 ], [ 14.2313625, 42.4643322 ], [ 14.2312171, 42.4642494 ], [ 14.2311987, 42.4642663 ], [ 14.2311787, 42.4642848 ], [ 14.2313236, 42.4643673 ], [ 14.2312375, 42.4644459 ], [ 14.2314242, 42.4645629 ], [ 14.2314017, 42.4645824 ], [ 14.231215, 42.4644655 ], [ 14.2311632, 42.4645136 ], [ 14.2313497, 42.4646288 ], [ 14.2313264, 42.4646494 ], [ 14.2311399, 42.4645342 ], [ 14.2306969, 42.4649232 ], [ 14.2306519, 42.4649635 ], [ 14.230618, 42.4649451 ], [ 14.230599, 42.464963 ], [ 14.2305818, 42.4649792 ], [ 14.2306113, 42.4649951 ], [ 14.2304708, 42.4651326 ], [ 14.2296764, 42.4654709 ], [ 14.230029, 42.465931 ], [ 14.228933, 42.4664058 ], [ 14.2290129, 42.4665136 ], [ 14.2289794, 42.4665283 ], [ 14.2289958, 42.4665481 ], [ 14.2290097, 42.4665649 ], [ 14.2290409, 42.4665507 ], [ 14.2293388, 42.4669274 ], [ 14.2291215, 42.4670194 ], [ 14.2288907, 42.4668766 ], [ 14.2277744, 42.4678036 ], [ 14.2283928, 42.4682114 ], [ 14.2293755, 42.4688597 ], [ 14.2305717, 42.4678703 ], [ 14.2305484, 42.4678519 ], [ 14.2306465, 42.4677723 ], [ 14.2310622, 42.4680352 ], [ 14.2309576, 42.4681171 ], [ 14.2306909, 42.4679454 ], [ 14.2298005, 42.4686822 ], [ 14.2301859, 42.4689426 ], [ 14.2301469, 42.4689756 ], [ 14.2301732, 42.4689925 ], [ 14.2302001, 42.4690098 ], [ 14.2302391, 42.4689768 ], [ 14.2303164, 42.4690288 ], [ 14.2315067, 42.4685355 ], [ 14.2313361, 42.4682921 ], [ 14.2314694, 42.4682413 ], [ 14.2316491, 42.4684771 ], [ 14.2338151, 42.4675903 ], [ 14.2349506, 42.4665618 ], [ 14.2348146, 42.4664596 ], [ 14.234905, 42.4663663 ], [ 14.2351219, 42.4664796 ], [ 14.2355723, 42.4660838 ], [ 14.2362684, 42.4654576 ], [ 14.2362298, 42.4654054 ], [ 14.2362174, 42.4653713 ], [ 14.2362134, 42.4653361 ], [ 14.2362254, 42.4652778 ], [ 14.2362599, 42.4652246 ], [ 14.2363058, 42.4651863 ], [ 14.2363633, 42.4651577 ], [ 14.2364288, 42.4651408 ], [ 14.2365141, 42.4651377 ], [ 14.2365965, 42.4651543 ], [ 14.2366678, 42.4651889 ], [ 14.2367098, 42.4652249 ], [ 14.2367392, 42.4652671 ], [ 14.2367543, 42.4653133 ], [ 14.2367535, 42.465365 ], [ 14.2367347, 42.4654148 ], [ 14.2366993, 42.4654594 ], [ 14.2353031, 42.4666634 ], [ 14.2349069, 42.4673367 ], [ 14.2348196, 42.4678043 ], [ 14.235035, 42.4684984 ], [ 14.2350467, 42.4689214 ], [ 14.234919, 42.4693239 ], [ 14.234701, 42.4696836 ], [ 14.2333698, 42.4708376 ], [ 14.2332393, 42.4708538 ], [ 14.2330995, 42.470839 ], [ 14.2330066, 42.4707688 ], [ 14.2329423, 42.4706652 ], [ 14.2330213, 42.4705268 ], [ 14.2332221, 42.4704567 ], [ 14.23328, 42.4704554 ], [ 14.2334766, 42.4702968 ], [ 14.2334314, 42.4701887 ], [ 14.2334019, 42.4701431 ], [ 14.2333074, 42.4701806 ], [ 14.2323958, 42.4689657 ], [ 14.2321449, 42.4690749 ], [ 14.2320545, 42.4689717 ], [ 14.2319773, 42.4688712 ], [ 14.2300508, 42.469657 ], [ 14.2300191, 42.4696136 ], [ 14.2299099, 42.4696347 ], [ 14.229607, 42.4697115 ], [ 14.2292301, 42.469801 ], [ 14.2291121, 42.4698178 ], [ 14.2290027, 42.4697821 ], [ 14.2274434, 42.4686697 ], [ 14.2264198, 42.4687234 ], [ 14.22551, 42.4685326 ], [ 14.2249925, 42.4684656 ], [ 14.2246185, 42.4684588 ], [ 14.2236085, 42.4685873 ], [ 14.2226459, 42.4689949 ], [ 14.222405, 42.4691168 ], [ 14.2219129, 42.4692 ], [ 14.2191174, 42.4703859 ], [ 14.2171804, 42.4716047 ], [ 14.2139844, 42.473541 ], [ 14.2123929, 42.4746874 ], [ 14.2110391, 42.4755662 ], [ 14.2094725, 42.4763792 ], [ 14.2074557, 42.4776443 ], [ 14.2065329, 42.4781197 ], [ 14.2054514, 42.4793031 ], [ 14.2043314, 42.4803221 ], [ 14.2012347, 42.4823653 ], [ 14.1998148, 42.4837291 ], [ 14.1969158, 42.4862925 ], [ 14.193501, 42.488824 ], [ 14.1894616, 42.4912587 ], [ 14.1890148, 42.4916163 ], [ 14.1888343, 42.4919542 ], [ 14.1894974, 42.4923392 ], [ 14.1895, 42.4923988 ], [ 14.1894269, 42.4924335 ], [ 14.1893251, 42.4923911 ], [ 14.1888032, 42.4920914 ], [ 14.1884433, 42.492261 ], [ 14.1880528, 42.4925557 ], [ 14.1874936, 42.4929071 ], [ 14.1869171, 42.4933778 ], [ 14.1863623, 42.4938122 ], [ 14.1858535, 42.4942302 ], [ 14.18606, 42.4943811 ], [ 14.1862297, 42.4945264 ], [ 14.1862363, 42.4945528 ], [ 14.1862128, 42.4945604 ], [ 14.1858358, 42.4943185 ], [ 14.1852601, 42.4936901 ], [ 14.1850876, 42.4936564 ], [ 14.1842224, 42.4935002 ], [ 14.1832086, 42.4928319 ], [ 14.1827754, 42.4926242 ], [ 14.1804506, 42.4933245 ], [ 14.1797056, 42.4935156 ], [ 14.1791838, 42.4938241 ], [ 14.178862, 42.4935591 ], [ 14.1785508, 42.4935472 ], [ 14.1780466, 42.4932882 ], [ 14.1776576, 42.4935433 ], [ 14.1774833, 42.4935927 ], [ 14.1772902, 42.4935809 ], [ 14.1754877, 42.4929519 ], [ 14.1752732, 42.4930627 ], [ 14.1750532, 42.4930192 ], [ 14.174589, 42.4933777 ], [ 14.1742027, 42.4927824 ], [ 14.1741434, 42.4926839 ], [ 14.1740071, 42.4925921 ], [ 14.1741999, 42.4924253 ], [ 14.174011, 42.4922921 ], [ 14.1741437, 42.4921852 ], [ 14.1739828, 42.4916805 ], [ 14.1739667, 42.4916298 ], [ 14.173819, 42.4914568 ], [ 14.1736216, 42.4913595 ], [ 14.1732497, 42.4913339 ], [ 14.1726318, 42.4913086 ], [ 14.1718705, 42.4913212 ], [ 14.1707492, 42.4911909 ], [ 14.1583304, 42.4865263 ], [ 14.1571733, 42.4861901 ], [ 14.1556799, 42.4856436 ], [ 14.1561735, 42.4847258 ], [ 14.1555297, 42.4834441 ], [ 14.1555807, 42.4816569 ], [ 14.1554332, 42.4814215 ], [ 14.1549862, 42.4815443 ], [ 14.1548431, 42.4815837 ], [ 14.1542155, 42.4817618 ], [ 14.1527721, 42.4797131 ] ] ] } }
]
}
