{
"type": "FeatureCollection",
"name": "poltava_ua",
"crs": { "type": "name", "properties": { "name": "urn:ogc:def:crs:OGC:1.3:CRS84" } },
"features": [
{ "type": "Feature", "properties": { "bbox_west": 34.4468326, "bbox_south": 49.5477254, "bbox_east": 34.6603407, "bbox_north": 49.6579108, "place_id": 191696629, "osm_type": "relation", "osm_id": 1641691, "lat": 49.5897423, "lon": 34.5507948, "class": "place", "type": "city", "place_rank": 16, "importance": 0.6343463914111146, "addresstype": "city", "name": "Poltava", "display_name": "Poltava, Полтавська міська громада, Poltava Raion, Poltava Oblast, 36000-36499, Ukraine" }, "geometry": { "type": "Polygon", "coordinates": [ [ [ 34.4468326, 49.5914394 ], [ 34.4489255, 49.5905836 ], [ 34.4488792, 49.5892276 ], [ 34.4483565, 49.5875292 ], [ 34.4470378, 49.585263 ], [ 34.4486211, 49.583368 ], [ 34.4500419, 49.5825783 ], [ 34.4517554, 49.5837149 ], [ 34.4569742, 49.5801872 ], [ 34.4561043, 49.5791917 ], [ 34.4573627, 49.5782353 ], [ 34.4576656, 49.5783157 ], [ 34.4582288, 49.5784459 ], [ 34.4584047, 49.5787793 ], [ 34.4599203, 49.5784108 ], [ 34.4600015, 49.5777439 ], [ 34.4620177, 49.5775947 ], [ 34.4655361, 49.5806306 ], [ 34.4663455, 49.5811438 ], [ 34.4704347, 49.5837364 ], [ 34.4721113, 49.5830582 ], [ 34.4721026, 49.5816768 ], [ 34.4721553, 49.5802522 ], [ 34.472174, 49.5795548 ], [ 34.4722254, 49.5790766 ], [ 34.4721413, 49.5789969 ], [ 34.4717511, 49.578781 ], [ 34.4715771, 49.5786954 ], [ 34.4713567, 49.5786108 ], [ 34.4711997, 49.5785093 ], [ 34.4710922, 49.5784488 ], [ 34.4708135, 49.5782706 ], [ 34.4703583, 49.5765556 ], [ 34.469642, 49.5751478 ], [ 34.4696326, 49.5751292 ], [ 34.4683428, 49.5749305 ], [ 34.4668391, 49.5732832 ], [ 34.4653486, 49.5717117 ], [ 34.4644605, 49.5709165 ], [ 34.4631424, 49.569682 ], [ 34.4659053, 49.5680938 ], [ 34.4653834, 49.5674468 ], [ 34.4657125, 49.566784 ], [ 34.4703846, 49.5658389 ], [ 34.4707518, 49.5658344 ], [ 34.4713268, 49.5659332 ], [ 34.4715486, 49.5659332 ], [ 34.4715763, 49.5658479 ], [ 34.4717564, 49.5657984 ], [ 34.4727472, 49.5658209 ], [ 34.4733014, 49.5659647 ], [ 34.4738141, 49.5659737 ], [ 34.4739319, 49.5658838 ], [ 34.4745578, 49.565839 ], [ 34.4745652, 49.5679018 ], [ 34.4745665, 49.5682542 ], [ 34.476351, 49.5676887 ], [ 34.4888795, 49.5637179 ], [ 34.4888647, 49.5634467 ], [ 34.4891419, 49.5634354 ], [ 34.4891419, 49.5628905 ], [ 34.4915855, 49.5627412 ], [ 34.4916143, 49.5624602 ], [ 34.4913504, 49.5623184 ], [ 34.490852, 49.5620535 ], [ 34.4912958, 49.5616322 ], [ 34.49135, 49.5613724 ], [ 34.4933827, 49.5604896 ], [ 34.4936572, 49.5603311 ], [ 34.4939982, 49.5599655 ], [ 34.4943205, 49.5595663 ], [ 34.4944509, 49.5593426 ], [ 34.4941537, 49.5591618 ], [ 34.4939477, 49.5589197 ], [ 34.4938562, 49.5583698 ], [ 34.4937532, 49.5576507 ], [ 34.4926599, 49.557426 ], [ 34.4923351, 49.5572434 ], [ 34.4919021, 49.5571451 ], [ 34.4913283, 49.5567518 ], [ 34.4913175, 49.5564007 ], [ 34.4904516, 49.5561305 ], [ 34.4904942, 49.5548076 ], [ 34.4904504, 49.5543108 ], [ 34.4908707, 49.5539427 ], [ 34.491783, 49.5530649 ], [ 34.4927248, 49.5523485 ], [ 34.4951064, 49.5497815 ], [ 34.4955654, 49.5498674 ], [ 34.496079, 49.5499654 ], [ 34.4967684, 49.5501332 ], [ 34.4970888, 49.5502218 ], [ 34.4974172, 49.5503915 ], [ 34.4974438, 49.5505414 ], [ 34.497326, 49.550683 ], [ 34.4970447, 49.5508987 ], [ 34.4965804, 49.5511986 ], [ 34.4962202, 49.5515378 ], [ 34.4960179, 49.5517236 ], [ 34.4964963, 49.5520842 ], [ 34.4966263, 49.5523107 ], [ 34.4966987, 49.5524703 ], [ 34.4968107, 49.55261 ], [ 34.4969719, 49.5526748 ], [ 34.497072, 49.5527469 ], [ 34.497696, 49.5525637 ], [ 34.499296, 49.5521659 ], [ 34.5000057, 49.552058 ], [ 34.5017209, 49.5510773 ], [ 34.5042679, 49.5501211 ], [ 34.5044985, 49.5501106 ], [ 34.5056592, 49.5500792 ], [ 34.5059407, 49.5497813 ], [ 34.5069236, 49.5496906 ], [ 34.5074969, 49.5501319 ], [ 34.5105223, 49.5487305 ], [ 34.5116375, 49.5482885 ], [ 34.5133435, 49.5477254 ], [ 34.5135957, 49.547901 ], [ 34.5158677, 49.550108 ], [ 34.5173456, 49.5516609 ], [ 34.519692, 49.5541262 ], [ 34.5222466, 49.553111 ], [ 34.5238714, 49.5527526 ], [ 34.5247636, 49.5523988 ], [ 34.5253062, 49.5530621 ], [ 34.5259407, 49.5530068 ], [ 34.5258328, 49.5526233 ], [ 34.5260248, 49.5525674 ], [ 34.525916, 49.5519712 ], [ 34.5281189, 49.5515855 ], [ 34.5287355, 49.5547274 ], [ 34.5288336, 49.5547216 ], [ 34.5315898, 49.5545484 ], [ 34.534557, 49.5545506 ], [ 34.534554, 49.5551718 ], [ 34.5377058, 49.5545697 ], [ 34.5380493, 49.5561074 ], [ 34.5445908, 49.5554458 ], [ 34.5448372, 49.5577337 ], [ 34.5465991, 49.5604135 ], [ 34.5535107, 49.5602559 ], [ 34.5578574, 49.5632573 ], [ 34.5610817, 49.5635591 ], [ 34.5688153, 49.5642831 ], [ 34.5702529, 49.5590722 ], [ 34.5713453, 49.5558038 ], [ 34.5725083, 49.5548956 ], [ 34.5756011, 49.555906 ], [ 34.5767097, 49.5561289 ], [ 34.5775376, 49.5562496 ], [ 34.5789926, 49.5564012 ], [ 34.5790401, 49.5564041 ], [ 34.5816514, 49.5565642 ], [ 34.5821104, 49.556508 ], [ 34.5825521, 49.5563226 ], [ 34.583063, 49.5560304 ], [ 34.5834441, 49.5557833 ], [ 34.5837818, 49.5556203 ], [ 34.5842322, 49.5555529 ], [ 34.5846825, 49.5555641 ], [ 34.5851589, 49.5556484 ], [ 34.5859903, 49.5560136 ], [ 34.586549, 49.556993 ], [ 34.5879942, 49.5570795 ], [ 34.5885865, 49.557115 ], [ 34.5935443, 49.5574118 ], [ 34.59353, 49.5577574 ], [ 34.5938693, 49.5577933 ], [ 34.5940212, 49.5578093 ], [ 34.595121, 49.5603489 ], [ 34.5976075, 49.5601862 ], [ 34.5982824, 49.5602057 ], [ 34.6024069, 49.5621812 ], [ 34.6034524, 49.5632459 ], [ 34.6021357, 49.564303 ], [ 34.601693, 49.5646585 ], [ 34.6016094, 49.5647256 ], [ 34.6016875, 49.564967 ], [ 34.6012053, 49.5654628 ], [ 34.602825, 49.5656268 ], [ 34.6035481, 49.5677352 ], [ 34.6041842, 49.5679611 ], [ 34.60554, 49.5678583 ], [ 34.6060054, 49.5680458 ], [ 34.6064902, 49.5685029 ], [ 34.6069288, 49.5692948 ], [ 34.6072833, 49.5704138 ], [ 34.6077693, 49.5707586 ], [ 34.6083009, 49.5709197 ], [ 34.6085273, 49.5713858 ], [ 34.6083341, 49.5725789 ], [ 34.6087468, 49.5724218 ], [ 34.6083837, 49.5833397 ], [ 34.6134993, 49.5850946 ], [ 34.6158849, 49.5839801 ], [ 34.6175953, 49.585819 ], [ 34.6142283, 49.588135 ], [ 34.61401, 49.5898968 ], [ 34.6142857, 49.5920778 ], [ 34.6159912, 49.592065 ], [ 34.6196078, 49.5973721 ], [ 34.6219336, 49.5977832 ], [ 34.6221239, 49.5984273 ], [ 34.622145, 49.5987425 ], [ 34.6221114, 49.5990988 ], [ 34.6204513, 49.6017284 ], [ 34.6204129, 49.6020485 ], [ 34.6203593, 49.6026168 ], [ 34.6210993, 49.6036719 ], [ 34.6205073, 49.6043023 ], [ 34.6203721, 49.6057297 ], [ 34.6212684, 49.6073989 ], [ 34.6224541, 49.6091804 ], [ 34.6231989, 49.6090062 ], [ 34.6257509, 49.6089883 ], [ 34.6300854, 49.6094815 ], [ 34.6308418, 49.6065321 ], [ 34.6310259, 49.6065321 ], [ 34.6312694, 49.6065531 ], [ 34.6319325, 49.6066935 ], [ 34.6332045, 49.6068513 ], [ 34.6335563, 49.6069916 ], [ 34.6343818, 49.607167 ], [ 34.6352749, 49.6072371 ], [ 34.6358027, 49.6072021 ], [ 34.6361139, 49.6071582 ], [ 34.638712, 49.6062287 ], [ 34.6389962, 49.6061235 ], [ 34.639395, 49.6061292 ], [ 34.6509787, 49.6083248 ], [ 34.6509787, 49.6086888 ], [ 34.6506814, 49.6091169 ], [ 34.6492608, 49.6101873 ], [ 34.648648, 49.6119142 ], [ 34.6562762, 49.6130349 ], [ 34.6557341, 49.6146976 ], [ 34.6566063, 49.6148346 ], [ 34.6559984, 49.6164272 ], [ 34.6575049, 49.6166327 ], [ 34.6576131, 49.618405 ], [ 34.658184, 49.6184719 ], [ 34.6579092, 49.6191842 ], [ 34.6603407, 49.6225538 ], [ 34.6587126, 49.6254028 ], [ 34.6571929, 49.6263975 ], [ 34.6565137, 49.6272107 ], [ 34.6432354, 49.6247591 ], [ 34.6407616, 49.6243618 ], [ 34.6395987, 49.6241016 ], [ 34.6386683, 49.6237318 ], [ 34.6375266, 49.6231976 ], [ 34.6366808, 49.6227456 ], [ 34.6354333, 49.6219922 ], [ 34.6339403, 49.6209747 ], [ 34.6332258, 49.6205889 ], [ 34.6325546, 49.6201471 ], [ 34.6315586, 49.6193686 ], [ 34.6274077, 49.6163868 ], [ 34.6269679, 49.6166936 ], [ 34.6259868, 49.6160799 ], [ 34.6265788, 49.6157511 ], [ 34.6242784, 49.6141072 ], [ 34.6154149, 49.6149182 ], [ 34.6172248, 49.6166169 ], [ 34.6186626, 49.6196416 ], [ 34.6210138, 49.6209237 ], [ 34.6250057, 49.6244521 ], [ 34.6260037, 49.6258218 ], [ 34.6260037, 49.6271805 ], [ 34.6259192, 49.6281885 ], [ 34.6256316, 49.6295361 ], [ 34.6250903, 49.6301059 ], [ 34.6232635, 49.6340718 ], [ 34.6140956, 49.6321546 ], [ 34.6107126, 49.6316835 ], [ 34.6071097, 49.6306208 ], [ 34.6068559, 49.6312453 ], [ 34.6016292, 49.6308728 ], [ 34.6015785, 49.6311029 ], [ 34.595373, 49.6310101 ], [ 34.5942359, 49.6322336 ], [ 34.5939324, 49.6328561 ], [ 34.5940669, 49.6331103 ], [ 34.594552, 49.6334858 ], [ 34.5969573, 49.6348169 ], [ 34.5971478, 49.6350581 ], [ 34.5970682, 49.635421 ], [ 34.5972402, 49.635755 ], [ 34.5973637, 49.6360161 ], [ 34.5975054, 49.6364803 ], [ 34.5972015, 49.636715 ], [ 34.5965847, 49.6369302 ], [ 34.5960306, 49.6370548 ], [ 34.5953253, 49.6372185 ], [ 34.5933571, 49.6373659 ], [ 34.5922103, 49.6375409 ], [ 34.5901745, 49.6379844 ], [ 34.5887141, 49.6374772 ], [ 34.5865873, 49.6369722 ], [ 34.5864251, 49.636929 ], [ 34.5858664, 49.6367803 ], [ 34.5767816, 49.6369589 ], [ 34.5761283, 49.6369717 ], [ 34.5761456, 49.6376224 ], [ 34.5763807, 49.6377496 ], [ 34.5768817, 49.6380206 ], [ 34.5768644, 49.6402079 ], [ 34.5762755, 49.6402023 ], [ 34.5761151, 49.6395894 ], [ 34.5759761, 49.6389885 ], [ 34.5757903, 49.6382354 ], [ 34.5756691, 49.6379375 ], [ 34.5748586, 49.6384595 ], [ 34.5746852, 49.6394238 ], [ 34.5761061, 49.6417723 ], [ 34.5753754, 49.6426047 ], [ 34.5760384, 49.6428676 ], [ 34.5763903, 49.6429289 ], [ 34.5768097, 49.6428764 ], [ 34.5780412, 49.6426924 ], [ 34.5800574, 49.6447165 ], [ 34.5792996, 49.6451108 ], [ 34.577121, 49.6449443 ], [ 34.5743199, 49.6452159 ], [ 34.5735079, 49.6471436 ], [ 34.5753077, 49.6490361 ], [ 34.5723713, 49.6502802 ], [ 34.573535, 49.6516207 ], [ 34.5650504, 49.6538285 ], [ 34.5637582, 49.6540955 ], [ 34.563278, 49.6537161 ], [ 34.5630028, 49.653788 ], [ 34.5624629, 49.653982 ], [ 34.5617351, 49.6544417 ], [ 34.5603954, 49.6536883 ], [ 34.5584468, 49.6542928 ], [ 34.5588934, 49.6560624 ], [ 34.5508554, 49.6579108 ], [ 34.5505712, 49.6571574 ], [ 34.5511125, 49.656807 ], [ 34.5500299, 49.6549235 ], [ 34.5488256, 49.6565705 ], [ 34.5434398, 49.6565354 ], [ 34.5418295, 49.6549936 ], [ 34.538636, 49.6558083 ], [ 34.5377092, 49.6545905 ], [ 34.5366972, 49.6550022 ], [ 34.5354795, 49.6557662 ], [ 34.5350296, 49.6564161 ], [ 34.5343846, 49.6571355 ], [ 34.5331881, 49.6573106 ], [ 34.5317151, 49.6575463 ], [ 34.5311889, 49.6575886 ], [ 34.5310729, 49.6573449 ], [ 34.5311874, 49.656101 ], [ 34.5313598, 49.6554418 ], [ 34.5318099, 49.6546762 ], [ 34.5323835, 49.6544128 ], [ 34.5331411, 49.6541573 ], [ 34.5337519, 49.6538217 ], [ 34.5341224, 49.6534828 ], [ 34.5346007, 49.6529283 ], [ 34.535206, 49.6525303 ], [ 34.53567, 49.6522637 ], [ 34.5359114, 49.6520076 ], [ 34.5351255, 49.650779 ], [ 34.5330226, 49.6497509 ], [ 34.5312524, 49.6501329 ], [ 34.5297396, 49.6507164 ], [ 34.5294889, 49.6492572 ], [ 34.5290315, 49.6484449 ], [ 34.5280585, 49.6437815 ], [ 34.526256, 49.6436426 ], [ 34.5237884, 49.6438614 ], [ 34.5223929, 49.6446252 ], [ 34.5178726, 49.6463907 ], [ 34.5172188, 49.6458598 ], [ 34.5161717, 49.6458136 ], [ 34.5159563, 49.6455051 ], [ 34.5141523, 49.6457192 ], [ 34.513081, 49.6460185 ], [ 34.5118579, 49.6457684 ], [ 34.5101951, 49.6461845 ], [ 34.5093913, 49.6465394 ], [ 34.5077833, 49.6457957 ], [ 34.5072284, 49.6455391 ], [ 34.5068354, 49.6453573 ], [ 34.5044221, 49.6438859 ], [ 34.5030848, 49.642458 ], [ 34.5053553, 49.6413925 ], [ 34.505623, 49.6413396 ], [ 34.5063081, 49.6411251 ], [ 34.5068899, 49.6400109 ], [ 34.5070356, 49.6394448 ], [ 34.5073094, 49.6383809 ], [ 34.5075363, 49.636132 ], [ 34.50758, 49.6356992 ], [ 34.4937638, 49.6361637 ], [ 34.4877827, 49.6325879 ], [ 34.4849004, 49.6305896 ], [ 34.4708541, 49.6307561 ], [ 34.4707865, 49.6238139 ], [ 34.4726859, 49.6238139 ], [ 34.4728433, 49.6238139 ], [ 34.4692027, 49.6216739 ], [ 34.4685203, 49.6205578 ], [ 34.4661737, 49.6210801 ], [ 34.4651754, 49.6218137 ], [ 34.465063, 49.6218963 ], [ 34.4629895, 49.6203232 ], [ 34.4635739, 49.6198865 ], [ 34.4652186, 49.6186593 ], [ 34.4621918, 49.6169204 ], [ 34.4636138, 49.6161294 ], [ 34.4643015, 49.614646 ], [ 34.4656082, 49.6135493 ], [ 34.4658902, 49.6134134 ], [ 34.4674604, 49.6134065 ], [ 34.4699796, 49.6135439 ], [ 34.4701243, 49.6123056 ], [ 34.4720314, 49.6132321 ], [ 34.4724239, 49.6131356 ], [ 34.4726229, 49.61307 ], [ 34.4729328, 49.612968 ], [ 34.4732493, 49.6128638 ], [ 34.4729651, 49.612364 ], [ 34.4726945, 49.6119344 ], [ 34.4721532, 49.611268 ], [ 34.4718826, 49.6109962 ], [ 34.4716661, 49.6108121 ], [ 34.4713819, 49.6106718 ], [ 34.47057, 49.6104175 ], [ 34.4702181, 49.6103298 ], [ 34.4699746, 49.6102421 ], [ 34.4697716, 49.6101018 ], [ 34.4696363, 49.6099615 ], [ 34.4694874, 49.6096897 ], [ 34.4691897, 49.6079622 ], [ 34.4687557, 49.6070097 ], [ 34.4675231, 49.6072338 ], [ 34.4664856, 49.6073147 ], [ 34.4649938, 49.6072494 ], [ 34.4649864, 49.60704 ], [ 34.4643389, 49.6070911 ], [ 34.4643118, 49.6067106 ], [ 34.4620454, 49.6069136 ], [ 34.4619341, 49.6068498 ], [ 34.4614617, 49.6064382 ], [ 34.4601233, 49.6069012 ], [ 34.457689, 49.6050321 ], [ 34.461287, 49.6035162 ], [ 34.4621395, 49.602876 ], [ 34.4634916, 49.6023853 ], [ 34.4654063, 49.6036832 ], [ 34.4656459, 49.6038542 ], [ 34.4657279, 49.6049003 ], [ 34.469457, 49.6048996 ], [ 34.4768287, 49.6052336 ], [ 34.4768992, 49.6045167 ], [ 34.4770854, 49.6026243 ], [ 34.4744514, 49.6025792 ], [ 34.4743437, 49.6008176 ], [ 34.4730249, 49.6001013 ], [ 34.4729388, 49.6000546 ], [ 34.4693866, 49.6000514 ], [ 34.4688702, 49.5995397 ], [ 34.4681883, 49.5994707 ], [ 34.4680434, 49.5985771 ], [ 34.4685825, 49.5983198 ], [ 34.4685808, 49.5977366 ], [ 34.4700964, 49.5977103 ], [ 34.4700449, 49.5954888 ], [ 34.4700152, 49.5942106 ], [ 34.4697851, 49.5923247 ], [ 34.4606645, 49.5929651 ], [ 34.4602451, 49.590816 ], [ 34.4507321, 49.5914388 ], [ 34.4469431, 49.5922019 ], [ 34.4468326, 49.5914394 ] ] ] } }
]
}
