{
"type": "FeatureCollection",
"name": "prato_it",
"crs": { "type": "name", "properties": { "name": "urn:ogc:def:crs:OGC:1.3:CRS84" } },
"features": [
{ "type": "Feature", "properties": { }, "geometry": { "type": "Polygon", "coordinates": [ [ [ 11.0131705, 43.8701382 ], [ 11.0132278, 43.8699714 ], [ 11.0132775, 43.8697927 ], [ 11.0133158, 43.8695176 ], [ 11.0136267, 43.8693144 ], [ 11.0138951, 43.8691289 ], [ 11.0140641, 43.8690613 ], [ 11.0141982, 43.8690091 ], [ 11.0143699, 43.8689685 ], [ 11.0152899, 43.8688331 ], [ 11.0154106, 43.8687828 ], [ 11.0154937, 43.8687093 ], [ 11.0155742, 43.8685895 ], [ 11.0156245, 43.8683825 ], [ 11.0156229, 43.8681762 ], [ 11.015623, 43.8681435 ], [ 11.0156235, 43.8681028 ], [ 11.0156842, 43.8678972 ], [ 11.0158183, 43.8677831 ], [ 11.0159497, 43.8677174 ], [ 11.0168563, 43.8674563 ], [ 11.0170709, 43.867379 ], [ 11.0171942, 43.8673035 ], [ 11.0173471, 43.8671856 ], [ 11.0174249, 43.8670754 ], [ 11.0175, 43.8668723 ], [ 11.0175299, 43.8665818 ], [ 11.0174818, 43.8662083 ], [ 11.0173951, 43.8657016 ], [ 11.0173926, 43.8654492 ], [ 11.0174324, 43.8651996 ], [ 11.0174685, 43.8650716 ], [ 11.017842, 43.8638152 ], [ 11.0178742, 43.8637475 ], [ 11.0179305, 43.8636644 ], [ 11.0180378, 43.8635619 ], [ 11.0184991, 43.8631925 ], [ 11.0191965, 43.8625891 ], [ 11.0200013, 43.8618092 ], [ 11.0206068, 43.8613025 ], [ 11.0207405, 43.8612218 ], [ 11.0208742, 43.861171 ], [ 11.0210476, 43.861139 ], [ 11.0211686, 43.8611341 ], [ 11.0216902, 43.8611737 ], [ 11.0219182, 43.8611804 ], [ 11.0220897, 43.8611617 ], [ 11.0222665, 43.8611299 ], [ 11.0224131, 43.8610833 ], [ 11.0225813, 43.8610193 ], [ 11.0227608, 43.8609122 ], [ 11.0228581, 43.8608199 ], [ 11.0229459, 43.8606998 ], [ 11.0230151, 43.8605239 ], [ 11.0231069, 43.8601613 ], [ 11.023175, 43.8598903 ], [ 11.0233625, 43.8595214 ], [ 11.0235571, 43.8591639 ], [ 11.0237248, 43.8588097 ], [ 11.0238133, 43.8585697 ], [ 11.0239134, 43.858263 ], [ 11.0240004, 43.8580338 ], [ 11.0240466, 43.8579529 ], [ 11.0241285, 43.8578797 ], [ 11.0242106, 43.8578326 ], [ 11.0243038, 43.8577956 ], [ 11.024395, 43.8577723 ], [ 11.0249509, 43.8576432 ], [ 11.0250845, 43.8576104 ], [ 11.0251846, 43.8575776 ], [ 11.0252572, 43.8575287 ], [ 11.025311, 43.8574663 ], [ 11.0253415, 43.8574025 ], [ 11.025357, 43.857312 ], [ 11.0253558, 43.8572216 ], [ 11.0253449, 43.8571283 ], [ 11.0252822, 43.8569504 ], [ 11.0252635, 43.8568348 ], [ 11.02527, 43.8567298 ], [ 11.0253123, 43.8566133 ], [ 11.0253775, 43.8565205 ], [ 11.0254833, 43.8564427 ], [ 11.0257472, 43.8562878 ], [ 11.0258803, 43.8562121 ], [ 11.026004, 43.8560858 ], [ 11.0260227, 43.8559393 ], [ 11.0259993, 43.8558383 ], [ 11.0258826, 43.8556952 ], [ 11.0256514, 43.8554628 ], [ 11.0254926, 43.8552035 ], [ 11.0254424, 43.854917 ], [ 11.0254245, 43.8545979 ], [ 11.0253885, 43.8542931 ], [ 11.0251326, 43.853421 ], [ 11.0249985, 43.8522571 ], [ 11.0248931, 43.8517443 ], [ 11.024715, 43.8512217 ], [ 11.0245138, 43.8506887 ], [ 11.0242911, 43.8500158 ], [ 11.024226, 43.8497944 ], [ 11.0241511, 43.8494538 ], [ 11.0240878, 43.8489536 ], [ 11.0240512, 43.847623 ], [ 11.0240809, 43.8474387 ], [ 11.0243964, 43.8466716 ], [ 11.0244939, 43.8464391 ], [ 11.0245253, 43.8463051 ], [ 11.0245802, 43.8460784 ], [ 11.0245278, 43.8456695 ], [ 11.0244559, 43.8451418 ], [ 11.0244505, 43.8449096 ], [ 11.024472, 43.8446949 ], [ 11.0244854, 43.8446098 ], [ 11.0245176, 43.8445092 ], [ 11.0245954, 43.8444473 ], [ 11.0247134, 43.8443719 ], [ 11.0248663, 43.8443022 ], [ 11.0256092, 43.8439656 ], [ 11.025797, 43.8438631 ], [ 11.0260464, 43.8437025 ], [ 11.0261671, 43.8435903 ], [ 11.0262756, 43.8434756 ], [ 11.0264735, 43.8431494 ], [ 11.0266451, 43.8428398 ], [ 11.0267765, 43.842658 ], [ 11.0269269, 43.8424938 ], [ 11.0270448, 43.8423707 ], [ 11.0271993, 43.8422651 ], [ 11.0273579, 43.8421947 ], [ 11.0275457, 43.8421254 ], [ 11.0277766, 43.8420723 ], [ 11.0281018, 43.8419983 ], [ 11.0285043, 43.8419132 ], [ 11.0288702, 43.8417989 ], [ 11.029171, 43.8416845 ], [ 11.03116, 43.8408455 ], [ 11.0312709, 43.8407544 ], [ 11.0313294, 43.840681 ], [ 11.0313541, 43.8405788 ], [ 11.031314, 43.8404655 ], [ 11.0309289, 43.8400055 ], [ 11.0306276, 43.8396522 ], [ 11.0305533, 43.8395195 ], [ 11.030513, 43.8393696 ], [ 11.0305073, 43.8392438 ], [ 11.0305179, 43.8391442 ], [ 11.0305675, 43.8390498 ], [ 11.0306524, 43.8389834 ], [ 11.0308294, 43.838917 ], [ 11.0309438, 43.8389012 ], [ 11.0313505, 43.8388812 ], [ 11.0318034, 43.8388679 ], [ 11.0319051, 43.8388634 ], [ 11.0320345, 43.8388501 ], [ 11.0321639, 43.8388101 ], [ 11.0322656, 43.8387634 ], [ 11.0323611, 43.8386923 ], [ 11.0324535, 43.838599 ], [ 11.0327555, 43.8382123 ], [ 11.0329372, 43.8379901 ], [ 11.0331005, 43.8377923 ], [ 11.0332453, 43.8376411 ], [ 11.0334857, 43.8374367 ], [ 11.0337445, 43.8372478 ], [ 11.0340156, 43.8370722 ], [ 11.03445, 43.8367189 ], [ 11.0347612, 43.8364122 ], [ 11.0349923, 43.8361832 ], [ 11.0352282, 43.8358628 ], [ 11.0353569, 43.8355203 ], [ 11.035492, 43.8351859 ], [ 11.0355487, 43.8350662 ], [ 11.0356407, 43.8349717 ], [ 11.0357646, 43.8348849 ], [ 11.0370847, 43.8342952 ], [ 11.037382, 43.8341956 ], [ 11.0378309, 43.8340869 ], [ 11.0383411, 43.8340322 ], [ 11.038603, 43.8339863 ], [ 11.0387321, 43.8339089 ], [ 11.0388118, 43.8338459 ], [ 11.0388593, 43.8337754 ], [ 11.0388645, 43.8336634 ], [ 11.0388404, 43.8335459 ], [ 11.0387106, 43.833344 ], [ 11.0386011, 43.8331229 ], [ 11.0385634, 43.8329024 ], [ 11.0385923, 43.8327188 ], [ 11.0387129, 43.8324142 ], [ 11.0393115, 43.831312 ], [ 11.0395179, 43.8311165 ], [ 11.0397274, 43.8309764 ], [ 11.0399445, 43.8308596 ], [ 11.040348, 43.8306966 ], [ 11.040354, 43.8306947 ], [ 11.0407144, 43.8305965 ], [ 11.0410578, 43.8304766 ], [ 11.0412858, 43.8303624 ], [ 11.0414631, 43.8302368 ], [ 11.0417867, 43.8300101 ], [ 11.0421331, 43.829776 ], [ 11.0424901, 43.8294994 ], [ 11.0426537, 43.8293679 ], [ 11.0427985, 43.8291976 ], [ 11.0430211, 43.8288609 ], [ 11.0434289, 43.8281359 ], [ 11.0438803, 43.8273241 ], [ 11.0442251, 43.8267792 ], [ 11.0446952, 43.8261549 ], [ 11.0449419, 43.8257781 ], [ 11.0451208, 43.8253729 ], [ 11.0451968, 43.8252696 ], [ 11.0452859, 43.8251905 ], [ 11.0453518, 43.825132 ], [ 11.0455609, 43.825014 ], [ 11.045755, 43.8249585 ], [ 11.045983, 43.8249185 ], [ 11.0471415, 43.8248473 ], [ 11.0478566, 43.824818 ], [ 11.0482428, 43.8247832 ], [ 11.0484359, 43.8247367 ], [ 11.0487739, 43.8246439 ], [ 11.0490425, 43.824536 ], [ 11.0494605, 43.8243149 ], [ 11.0497015, 43.8241518 ], [ 11.0507429, 43.8234408 ], [ 11.0519385, 43.8226491 ], [ 11.0527697, 43.8221066 ], [ 11.0535262, 43.8216281 ], [ 11.054157, 43.8212698 ], [ 11.0543838, 43.821141 ], [ 11.0545583, 43.8210419 ], [ 11.0551094, 43.8207117 ], [ 11.0556646, 43.8203958 ], [ 11.0566663, 43.819892 ], [ 11.0581514, 43.8191271 ], [ 11.0585717, 43.8189368 ], [ 11.0589825, 43.8187801 ], [ 11.0591951, 43.8187223 ], [ 11.0601081, 43.8184937 ], [ 11.060219, 43.8184432 ], [ 11.0603226, 43.818324 ], [ 11.060594, 43.8178121 ], [ 11.0606986, 43.8176167 ], [ 11.0608542, 43.8173883 ], [ 11.0612297, 43.8168774 ], [ 11.0618868, 43.8159987 ], [ 11.0619646, 43.8158961 ], [ 11.062037, 43.8157607 ], [ 11.0621258, 43.8159009 ], [ 11.0621426, 43.8159519 ], [ 11.0621482, 43.816007 ], [ 11.0621184, 43.8161118 ], [ 11.0619787, 43.8165258 ], [ 11.0619563, 43.8166279 ], [ 11.0619563, 43.8166884 ], [ 11.0620196, 43.8168375 ], [ 11.0632116, 43.8181693 ], [ 11.0639138, 43.818989 ], [ 11.0641712, 43.8193042 ], [ 11.064547, 43.8197644 ], [ 11.0649698, 43.8201743 ], [ 11.0658228, 43.821123 ], [ 11.0666348, 43.8220475 ], [ 11.0671079, 43.8225809 ], [ 11.067892, 43.8234503 ], [ 11.0680875, 43.8237003 ], [ 11.0683129, 43.8240254 ], [ 11.0685122, 43.8243278 ], [ 11.0686239, 43.8244151 ], [ 11.0688213, 43.8245481 ], [ 11.0688921, 43.824618 ], [ 11.069218, 43.824962 ], [ 11.0692993, 43.8250153 ], [ 11.0694131, 43.8251205 ], [ 11.0694503, 43.8250802 ], [ 11.0697595, 43.8249013 ], [ 11.0698787, 43.8248422 ], [ 11.070037, 43.8247791 ], [ 11.0701562, 43.8247482 ], [ 11.0708081, 43.8246635 ], [ 11.0720894, 43.8244808 ], [ 11.0730318, 43.8243612 ], [ 11.0734825, 43.8243115 ], [ 11.0735775, 43.8242927 ], [ 11.0736017, 43.8242752 ], [ 11.073706, 43.8242429 ], [ 11.0741027, 43.8241637 ], [ 11.0743803, 43.8240562 ], [ 11.0745311, 43.8240011 ], [ 11.0750973, 43.8238224 ], [ 11.0756002, 43.8236625 ], [ 11.0761589, 43.8235039 ], [ 11.0762762, 43.8234891 ], [ 11.0763355, 43.8235265 ], [ 11.0766364, 43.8237866 ], [ 11.0766662, 43.8237952 ], [ 11.076705, 43.8237963 ], [ 11.0767482, 43.8237963 ], [ 11.0767869, 43.8237834 ], [ 11.0769046, 43.8237178 ], [ 11.0778791, 43.8231191 ], [ 11.0780474, 43.823018 ], [ 11.0782873, 43.8228901 ], [ 11.0784601, 43.8227966 ], [ 11.0786196, 43.822702 ], [ 11.0787581, 43.8226009 ], [ 11.0788803, 43.8225063 ], [ 11.0790204, 43.8224117 ], [ 11.0793795, 43.822229 ], [ 11.0799084, 43.8219925 ], [ 11.0800291, 43.8219452 ], [ 11.0800782, 43.8219215 ], [ 11.0801051, 43.8218936 ], [ 11.0801185, 43.8218592 ], [ 11.0801036, 43.8218194 ], [ 11.0799918, 43.8216399 ], [ 11.0798294, 43.821413 ], [ 11.0792901, 43.8207412 ], [ 11.0786151, 43.8199392 ], [ 11.0785883, 43.8199112 ], [ 11.0788148, 43.8197908 ], [ 11.0789157, 43.8197415 ], [ 11.0789429, 43.8197317 ], [ 11.0789876, 43.8197371 ], [ 11.0790204, 43.8197296 ], [ 11.0797549, 43.8193898 ], [ 11.0806429, 43.8190103 ], [ 11.0813969, 43.8187169 ], [ 11.0814416, 43.8187093 ], [ 11.0816129, 43.8186395 ], [ 11.0816546, 43.8186093 ], [ 11.0820554, 43.8184266 ], [ 11.0826097, 43.8181879 ], [ 11.0832846, 43.8179159 ], [ 11.0835722, 43.8177815 ], [ 11.0837883, 43.8176988 ], [ 11.0841309, 43.8175278 ], [ 11.0842084, 43.817559 ], [ 11.0843649, 43.8176998 ], [ 11.0845735, 43.8178493 ], [ 11.0847597, 43.8179654 ], [ 11.0848297, 43.8180062 ], [ 11.0848804, 43.8180288 ], [ 11.0851367, 43.8181288 ], [ 11.0852395, 43.8181653 ], [ 11.0853482, 43.8181965 ], [ 11.0855419, 43.8182664 ], [ 11.0856224, 43.8183051 ], [ 11.0857118, 43.8183696 ], [ 11.0857714, 43.8184201 ], [ 11.0858742, 43.8185284 ], [ 11.0860438, 43.818727 ], [ 11.0861704, 43.8189079 ], [ 11.0863498, 43.8191447 ], [ 11.0865956, 43.8194506 ], [ 11.0869692, 43.8199179 ], [ 11.0872395, 43.8202566 ], [ 11.0872618, 43.8202321 ], [ 11.0883725, 43.8198763 ], [ 11.088927, 43.8197466 ], [ 11.0894094, 43.8196047 ], [ 11.0895876, 43.8195815 ], [ 11.0897673, 43.8195482 ], [ 11.0899071, 43.8194994 ], [ 11.0906721, 43.8191226 ], [ 11.0912359, 43.8188455 ], [ 11.0921268, 43.8183689 ], [ 11.0931622, 43.8178646 ], [ 11.0936691, 43.8176318 ], [ 11.0937121, 43.817675 ], [ 11.0937874, 43.8178635 ], [ 11.0939057, 43.8180641 ], [ 11.0940225, 43.8182447 ], [ 11.094451, 43.8188411 ], [ 11.0945478, 43.8190007 ], [ 11.0947183, 43.8192955 ], [ 11.0948981, 43.8196757 ], [ 11.0949488, 43.8198319 ], [ 11.0950102, 43.8199982 ], [ 11.0950363, 43.8200592 ], [ 11.0950978, 43.8201412 ], [ 11.0951546, 43.8202088 ], [ 11.0952314, 43.8203085 ], [ 11.0953712, 43.820477 ], [ 11.0954557, 43.8205435 ], [ 11.0954634, 43.820569 ], [ 11.095709, 43.8208413 ], [ 11.0957935, 43.8208801 ], [ 11.0959441, 43.8210585 ], [ 11.095941, 43.8210907 ], [ 11.096216, 43.82134 ], [ 11.0964725, 43.821555 ], [ 11.0968289, 43.82181 ], [ 11.0971745, 43.8221125 ], [ 11.0972882, 43.8221735 ], [ 11.0973881, 43.822281 ], [ 11.0975709, 43.8224605 ], [ 11.0978888, 43.8228141 ], [ 11.0980901, 43.8230568 ], [ 11.0981592, 43.8231632 ], [ 11.0982345, 43.8232873 ], [ 11.0983451, 43.8234514 ], [ 11.0984787, 43.8235888 ], [ 11.0985724, 43.8236464 ], [ 11.0986277, 43.8236631 ], [ 11.0987214, 43.8236719 ], [ 11.0988028, 43.8236575 ], [ 11.0995955, 43.8234215 ], [ 11.0996984, 43.8234004 ], [ 11.0997875, 43.8233937 ], [ 11.0998566, 43.8234048 ], [ 11.0999381, 43.8234492 ], [ 11.1006862, 43.8240088 ], [ 11.100826, 43.8241031 ], [ 11.1009535, 43.8241618 ], [ 11.1011055, 43.8242117 ], [ 11.1012791, 43.8242272 ], [ 11.1015234, 43.8242593 ], [ 11.1016048, 43.8242959 ], [ 11.1016401, 43.8243546 ], [ 11.1017722, 43.8245131 ], [ 11.1019197, 43.8246605 ], [ 11.1020411, 43.8247592 ], [ 11.1021578, 43.8248434 ], [ 11.1024835, 43.8250362 ], [ 11.1029904, 43.8252779 ], [ 11.1036648, 43.8256813 ], [ 11.1043192, 43.8261368 ], [ 11.1039659, 43.8264638 ], [ 11.103929, 43.8265291 ], [ 11.1039367, 43.826599 ], [ 11.1039904, 43.8266876 ], [ 11.1041364, 43.8268738 ], [ 11.1042209, 43.8270134 ], [ 11.10431, 43.8273215 ], [ 11.1043115, 43.8273803 ], [ 11.1042792, 43.8274711 ], [ 11.1041763, 43.8276174 ], [ 11.1040826, 43.8277161 ], [ 11.1039397, 43.8278247 ], [ 11.1037308, 43.8279543 ], [ 11.1033929, 43.8281782 ], [ 11.1033453, 43.8282258 ], [ 11.1033222, 43.8282846 ], [ 11.1033284, 43.8283455 ], [ 11.103356, 43.8284087 ], [ 11.103419, 43.8284929 ], [ 11.1034774, 43.8285472 ], [ 11.1036018, 43.8286492 ], [ 11.1039244, 43.8288653 ], [ 11.1040073, 43.8289451 ], [ 11.1040765, 43.8290393 ], [ 11.1042255, 43.8292753 ], [ 11.104353, 43.8294515 ], [ 11.1046525, 43.8298327 ], [ 11.1049444, 43.8301629 ], [ 11.1051994, 43.8304389 ], [ 11.105373, 43.8306095 ], [ 11.1054098, 43.8306683 ], [ 11.1056787, 43.8308943 ], [ 11.105949, 43.8311348 ], [ 11.1061687, 43.8313764 ], [ 11.1061902, 43.8313664 ], [ 11.1062102, 43.8313886 ], [ 11.1062225, 43.8314118 ], [ 11.1065942, 43.8318263 ], [ 11.1069245, 43.8321942 ], [ 11.1073362, 43.8326519 ], [ 11.1073596, 43.8326331 ], [ 11.1079926, 43.833343 ], [ 11.1080316, 43.8333928 ], [ 11.1082867, 43.833659 ], [ 11.1085297, 43.8341459 ], [ 11.1085657, 43.8342238 ], [ 11.1085687, 43.8342953 ], [ 11.1085987, 43.8343191 ], [ 11.1087457, 43.8344727 ], [ 11.1092991, 43.8350054 ], [ 11.1097267, 43.8354989 ], [ 11.1097867, 43.8355734 ], [ 11.1098231, 43.8356301 ], [ 11.1098555, 43.8357067 ], [ 11.1098929, 43.8358074 ], [ 11.1099548, 43.8359252 ], [ 11.1101239, 43.8361251 ], [ 11.1104365, 43.8364315 ], [ 11.1104356, 43.8365889 ], [ 11.1118503, 43.8381342 ], [ 11.1118896, 43.838215 ], [ 11.1119702, 43.8382547 ], [ 11.1122799, 43.8385759 ], [ 11.1124815, 43.8387901 ], [ 11.112512, 43.8388319 ], [ 11.1127322, 43.8391064 ], [ 11.1130124, 43.839439 ], [ 11.1131716, 43.8396559 ], [ 11.1134902, 43.8399907 ], [ 11.1144503, 43.8410191 ], [ 11.1150528, 43.8416925 ], [ 11.1153864, 43.8420474 ], [ 11.1160369, 43.8428229 ], [ 11.1163105, 43.8430965 ], [ 11.1165673, 43.8433752 ], [ 11.1166249, 43.8433873 ], [ 11.1166969, 43.8434358 ], [ 11.1170018, 43.8437976 ], [ 11.117249, 43.8440399 ], [ 11.117393, 43.8440832 ], [ 11.1174818, 43.8440867 ], [ 11.1175922, 43.8441698 ], [ 11.1177866, 43.8444121 ], [ 11.117849, 43.8445125 ], [ 11.1179715, 43.8446389 ], [ 11.1181059, 43.8447756 ], [ 11.1181011, 43.8448172 ], [ 11.1180051, 43.8448986 ], [ 11.1179763, 43.844954 ], [ 11.1179931, 43.844999 ], [ 11.1185307, 43.8456481 ], [ 11.1186579, 43.8457987 ], [ 11.1188237, 43.8459956 ], [ 11.1188636, 43.8460189 ], [ 11.1188992, 43.8460259 ], [ 11.11912, 43.8462338 ], [ 11.119201, 43.8463329 ], [ 11.119312, 43.8464687 ], [ 11.1194854, 43.8466807 ], [ 11.1195134, 43.846715 ], [ 11.1198233, 43.847094 ], [ 11.1200099, 43.8473145 ], [ 11.1201942, 43.8475216 ], [ 11.1204779, 43.8477978 ], [ 11.1205534, 43.8478713 ], [ 11.1207647, 43.848077 ], [ 11.1208046, 43.848114 ], [ 11.1210256, 43.8483166 ], [ 11.1211102, 43.8483951 ], [ 11.121168, 43.848448 ], [ 11.121189, 43.8484691 ], [ 11.1212054, 43.8484891 ], [ 11.1212284, 43.8485274 ], [ 11.1212454, 43.8485642 ], [ 11.1212566, 43.8485975 ], [ 11.1212647, 43.8486403 ], [ 11.1212643, 43.8486903 ], [ 11.1212064, 43.8489735 ], [ 11.1211992, 43.8490786 ], [ 11.1212015, 43.8491318 ], [ 11.1212085, 43.8491866 ], [ 11.1212189, 43.8492496 ], [ 11.1212347, 43.8493137 ], [ 11.121254, 43.8493635 ], [ 11.1212771, 43.8494106 ], [ 11.1212976, 43.849446 ], [ 11.121344, 43.8495126 ], [ 11.121478, 43.8496687 ], [ 11.1216616, 43.8498757 ], [ 11.121788, 43.8500019 ], [ 11.1218419, 43.8500441 ], [ 11.1219065, 43.8500864 ], [ 11.1219554, 43.8501148 ], [ 11.1220056, 43.8501472 ], [ 11.1220531, 43.8501829 ], [ 11.1221019, 43.8502224 ], [ 11.1221537, 43.8502713 ], [ 11.1222006, 43.8503305 ], [ 11.1222268, 43.850373 ], [ 11.1222717, 43.8504458 ], [ 11.1223973, 43.8506863 ], [ 11.1226778, 43.8510224 ], [ 11.1227116, 43.8513326 ], [ 11.1227853, 43.8514411 ], [ 11.1230204, 43.8514478 ], [ 11.1231939, 43.8514588 ], [ 11.1233906, 43.8514943 ], [ 11.1235186, 43.8515285 ], [ 11.123689, 43.8517258 ], [ 11.1240809, 43.8521924 ], [ 11.1244178, 43.8526804 ], [ 11.1245718, 43.8529721 ], [ 11.124714, 43.8532903 ], [ 11.1248007, 43.8536364 ], [ 11.1248649, 43.8538529 ], [ 11.1250777, 43.8545756 ], [ 11.1251998, 43.85509 ], [ 11.1251915, 43.8552376 ], [ 11.12512, 43.855371 ], [ 11.1247787, 43.8556199 ], [ 11.1244659, 43.8557912 ], [ 11.1238889, 43.8560967 ], [ 11.1235997, 43.8562429 ], [ 11.1234405, 43.8564009 ], [ 11.123348, 43.8565712 ], [ 11.1233042, 43.856855 ], [ 11.1233187, 43.857038 ], [ 11.1234116, 43.857162 ], [ 11.12384, 43.857502 ], [ 11.1246169, 43.8577956 ], [ 11.1249994, 43.8579344 ], [ 11.1252907, 43.8580308 ], [ 11.125483, 43.8579182 ], [ 11.125562, 43.8578821 ], [ 11.125713, 43.8578023 ], [ 11.1260908, 43.8576602 ], [ 11.1263265, 43.857579 ], [ 11.1263561, 43.8575552 ], [ 11.1263992, 43.8574194 ], [ 11.1264576, 43.8573158 ], [ 11.126525, 43.8572435 ], [ 11.1265848, 43.8571949 ], [ 11.1266598, 43.8571511 ], [ 11.1273229, 43.8569315 ], [ 11.1274622, 43.8568926 ], [ 11.1275385, 43.8568862 ], [ 11.1276852, 43.856898 ], [ 11.1277511, 43.8569045 ], [ 11.1279233, 43.8569401 ], [ 11.1280161, 43.8569531 ], [ 11.1280939, 43.8569488 ], [ 11.1282302, 43.856925 ], [ 11.1306241, 43.8561016 ], [ 11.1306549, 43.8560709 ], [ 11.130652, 43.8560274 ], [ 11.1304023, 43.8557817 ], [ 11.130395, 43.8557468 ], [ 11.1304038, 43.8556927 ], [ 11.1310515, 43.8550678 ], [ 11.1311793, 43.8549682 ], [ 11.1314658, 43.8548094 ], [ 11.1319431, 43.8545318 ], [ 11.1319916, 43.8545128 ], [ 11.1320739, 43.8544948 ], [ 11.1325087, 43.8542649 ], [ 11.1326232, 43.8542067 ], [ 11.1329126, 43.8540531 ], [ 11.1331344, 43.8539196 ], [ 11.1332886, 43.853784 ], [ 11.1335442, 43.8535648 ], [ 11.1338013, 43.8533995 ], [ 11.1338791, 43.8533582 ], [ 11.1341568, 43.8532438 ], [ 11.1344417, 43.8531178 ], [ 11.1346033, 43.8530267 ], [ 11.1348089, 43.8528646 ], [ 11.1349632, 43.8527418 ], [ 11.1350028, 43.8526952 ], [ 11.1352496, 43.8526676 ], [ 11.1352746, 43.8526941 ], [ 11.135348, 43.8527852 ], [ 11.1355052, 43.8529165 ], [ 11.1358386, 43.8533084 ], [ 11.1365481, 43.8540192 ], [ 11.1365055, 43.8541495 ], [ 11.136507, 43.8542046 ], [ 11.1365549, 43.8543386 ], [ 11.1365932, 43.8543761 ], [ 11.1366226, 43.8544115 ], [ 11.1367125, 43.8544804 ], [ 11.1367898, 43.854559 ], [ 11.1369535, 43.8547094 ], [ 11.1371035, 43.8548892 ], [ 11.1375486, 43.8552922 ], [ 11.137538, 43.8554481 ], [ 11.1374955, 43.8559893 ], [ 11.1375381, 43.8560857 ], [ 11.1375425, 43.8561969 ], [ 11.1375601, 43.8563208 ], [ 11.1376321, 43.8564617 ], [ 11.1378642, 43.8567805 ], [ 11.1379244, 43.8568504 ], [ 11.1380052, 43.8568769 ], [ 11.1381418, 43.8568504 ], [ 11.1383093, 43.8567773 ], [ 11.1385193, 43.8566704 ], [ 11.1386427, 43.856611 ], [ 11.1390408, 43.8565178 ], [ 11.1395872, 43.8571014 ], [ 11.1397282, 43.8573016 ], [ 11.1400969, 43.8578111 ], [ 11.1401307, 43.8578301 ], [ 11.1404994, 43.8583512 ], [ 11.1405639, 43.8584542 ], [ 11.1406242, 43.8585504 ], [ 11.1408137, 43.858759 ], [ 11.1407887, 43.8587654 ], [ 11.1408989, 43.8589274 ], [ 11.1410025, 43.8590601 ], [ 11.1413117, 43.8589546 ], [ 11.1417502, 43.8588423 ], [ 11.1418298, 43.8588243 ], [ 11.1423471, 43.8587095 ], [ 11.1427063, 43.8586299 ], [ 11.1429575, 43.8585736 ], [ 11.1436786, 43.8583964 ], [ 11.1438523, 43.8583645 ], [ 11.1439493, 43.8584153 ], [ 11.1439768, 43.8584297 ], [ 11.1441102, 43.8585054 ], [ 11.144327, 43.8587159 ], [ 11.1445496, 43.8589437 ], [ 11.144998, 43.8593647 ], [ 11.1453455, 43.8597459 ], [ 11.1457578, 43.8600943 ], [ 11.1459484, 43.8603358 ], [ 11.1462101, 43.8606394 ], [ 11.1464016, 43.8607699 ], [ 11.1464644, 43.8608671 ], [ 11.146447, 43.8610113 ], [ 11.1464128, 43.8610943 ], [ 11.1461251, 43.8613783 ], [ 11.1457568, 43.8617334 ], [ 11.1456128, 43.8617993 ], [ 11.1453949, 43.8618444 ], [ 11.1451881, 43.8619136 ], [ 11.1451205, 43.862064 ], [ 11.1451385, 43.8621387 ], [ 11.1452838, 43.8622268 ], [ 11.1455055, 43.8623236 ], [ 11.1457357, 43.8624428 ], [ 11.1459541, 43.8625766 ], [ 11.146064, 43.8626724 ], [ 11.1462689, 43.8628845 ], [ 11.1463448, 43.8629406 ], [ 11.1466022, 43.8630879 ], [ 11.1468633, 43.8632031 ], [ 11.1470254, 43.8632991 ], [ 11.1472166, 43.8634809 ], [ 11.1472998, 43.8636165 ], [ 11.1474349, 43.8640061 ], [ 11.1478703, 43.8646693 ], [ 11.1488869, 43.8661021 ], [ 11.1492257, 43.8667166 ], [ 11.1492382, 43.8668583 ], [ 11.1487658, 43.8670901 ], [ 11.1483337, 43.8674202 ], [ 11.148221, 43.8674795 ], [ 11.1477184, 43.867703 ], [ 11.1468166, 43.868199 ], [ 11.1467133, 43.8682414 ], [ 11.1464902, 43.8683531 ], [ 11.1463493, 43.8683904 ], [ 11.1462254, 43.8683967 ], [ 11.1463939, 43.8685292 ], [ 11.1470472, 43.8691327 ], [ 11.1475903, 43.8695533 ], [ 11.1476837, 43.8695978 ], [ 11.1476857, 43.8696195 ], [ 11.1478369, 43.8696613 ], [ 11.1477781, 43.869695 ], [ 11.141539, 43.8736502 ], [ 11.1453253, 43.8758212 ], [ 11.1394331, 43.8790289 ], [ 11.1376052, 43.8816424 ], [ 11.1362808, 43.882685 ], [ 11.1353602, 43.8831211 ], [ 11.134417, 43.8841872 ], [ 11.1349352, 43.8858785 ], [ 11.1355091, 43.8877989 ], [ 11.1358159, 43.8888246 ], [ 11.1361003, 43.8898092 ], [ 11.1374709, 43.8907067 ], [ 11.1384521, 43.8913472 ], [ 11.1391168, 43.8917843 ], [ 11.1397668, 43.8922419 ], [ 11.1397556, 43.8922419 ], [ 11.1397649, 43.8922527 ], [ 11.1397912, 43.8922459 ], [ 11.1398777, 43.8922757 ], [ 11.1400846, 43.8924123 ], [ 11.140244, 43.8924585 ], [ 11.1405559, 43.8926331 ], [ 11.1407212, 43.8926995 ], [ 11.1408339, 43.8927793 ], [ 11.1412638, 43.8929886 ], [ 11.1416624, 43.8931417 ], [ 11.1430248, 43.8953375 ], [ 11.1453426, 43.8990467 ], [ 11.1453559, 43.8990512 ], [ 11.14745, 43.9023264 ], [ 11.1421915, 43.9074179 ], [ 11.1446031, 43.90874 ], [ 11.1470481, 43.9100704 ], [ 11.1520119, 43.9127151 ], [ 11.1544901, 43.9141726 ], [ 11.1550181, 43.9144905 ], [ 11.1570602, 43.9156735 ], [ 11.1572976, 43.9156759 ], [ 11.1582227, 43.9156357 ], [ 11.1631865, 43.9154055 ], [ 11.1639525, 43.9153706 ], [ 11.1643097, 43.9153544 ], [ 11.1653077, 43.9153089 ], [ 11.165327, 43.9153187 ], [ 11.1670848, 43.9152566 ], [ 11.1679307, 43.9172867 ], [ 11.1696149, 43.9185932 ], [ 11.1671785, 43.9218367 ], [ 11.1629104, 43.9278112 ], [ 11.162898, 43.9277994 ], [ 11.1628754, 43.9277742 ], [ 11.1628392, 43.9277452 ], [ 11.1627552, 43.9276893 ], [ 11.1625308, 43.9275812 ], [ 11.1624083, 43.9275038 ], [ 11.1622864, 43.9274023 ], [ 11.1621568, 43.9272572 ], [ 11.1620836, 43.9271995 ], [ 11.1620019, 43.927146 ], [ 11.1618696, 43.9271052 ], [ 11.1615992, 43.927001 ], [ 11.1615309, 43.9269625 ], [ 11.1614317, 43.9269066 ], [ 11.161336, 43.9268911 ], [ 11.1613048, 43.9268926 ], [ 11.1611628, 43.9269049 ], [ 11.1611112, 43.9269096 ], [ 11.1610988, 43.9269119 ], [ 11.1609861, 43.926933 ], [ 11.1607844, 43.9269227 ], [ 11.160519, 43.9269172 ], [ 11.16018, 43.9269117 ], [ 11.1598455, 43.9269115 ], [ 11.1595117, 43.9267757 ], [ 11.1591405, 43.9265804 ], [ 11.1587178, 43.9264114 ], [ 11.1585532, 43.926284 ], [ 11.1584044, 43.9261367 ], [ 11.1582289, 43.9260126 ], [ 11.1580808, 43.9258843 ], [ 11.1578441, 43.9257599 ], [ 11.1574697, 43.9257569 ], [ 11.1572139, 43.9256877 ], [ 11.1568577, 43.9256308 ], [ 11.156632, 43.9255302 ], [ 11.1563168, 43.9254483 ], [ 11.1559996, 43.9254282 ], [ 11.1553097, 43.925308 ], [ 11.1552262, 43.9252198 ], [ 11.1551817, 43.9251116 ], [ 11.15482, 43.9249473 ], [ 11.1546531, 43.9248431 ], [ 11.1545473, 43.9246788 ], [ 11.1542984, 43.9246286 ], [ 11.1540027, 43.9246259 ], [ 11.1538358, 43.9245678 ], [ 11.1534993, 43.9243983 ], [ 11.1531401, 43.9242095 ], [ 11.1527453, 43.9240095 ], [ 11.1524939, 43.9238795 ], [ 11.1523597, 43.9238653 ], [ 11.1520393, 43.9238856 ], [ 11.1517326, 43.9238318 ], [ 11.1514683, 43.9238187 ], [ 11.1512759, 43.9237877 ], [ 11.1508233, 43.9237372 ], [ 11.1504206, 43.9236721 ], [ 11.1501418, 43.9236135 ], [ 11.1500311, 43.9235762 ], [ 11.1498546, 43.9234773 ], [ 11.1497042, 43.923428 ], [ 11.149429, 43.9233684 ], [ 11.1492324, 43.923318 ], [ 11.1489576, 43.9231939 ], [ 11.148728, 43.9230954 ], [ 11.1485555, 43.9229963 ], [ 11.148331, 43.9228411 ], [ 11.1482251, 43.9227601 ], [ 11.1480176, 43.9225169 ], [ 11.1479584, 43.9223511 ], [ 11.1478984, 43.9221959 ], [ 11.1477768, 43.9220977 ], [ 11.1475846, 43.9218077 ], [ 11.1475767, 43.9216926 ], [ 11.14746, 43.9215781 ], [ 11.1472631, 43.9215056 ], [ 11.1470049, 43.92119 ], [ 11.147033, 43.9210427 ], [ 11.1469581, 43.9209138 ], [ 11.1467092, 43.9206417 ], [ 11.1464636, 43.9205072 ], [ 11.1462148, 43.9204058 ], [ 11.1460936, 43.9203952 ], [ 11.1458999, 43.9203127 ], [ 11.1456336, 43.9201283 ], [ 11.1454003, 43.9199832 ], [ 11.1450639, 43.9198 ], [ 11.1448112, 43.9196877 ], [ 11.144658, 43.9196119 ], [ 11.1445324, 43.9195134 ], [ 11.1441983, 43.9192709 ], [ 11.1438149, 43.9190464 ], [ 11.1436739, 43.919002 ], [ 11.1434843, 43.9187917 ], [ 11.1432536, 43.9185613 ], [ 11.1430195, 43.9183947 ], [ 11.1428438, 43.9183227 ], [ 11.1425938, 43.9182541 ], [ 11.1424018, 43.9181747 ], [ 11.142199, 43.9181336 ], [ 11.1421352, 43.9180466 ], [ 11.1420435, 43.9179797 ], [ 11.141873, 43.917912 ], [ 11.1417929, 43.917828 ], [ 11.1416835, 43.9177396 ], [ 11.1416005, 43.9176726 ], [ 11.1413033, 43.9175213 ], [ 11.1410395, 43.9173623 ], [ 11.1407477, 43.9173188 ], [ 11.1405785, 43.917211 ], [ 11.1404498, 43.9170941 ], [ 11.1402613, 43.916988 ], [ 11.1400325, 43.9169211 ], [ 11.1398026, 43.9167931 ], [ 11.139626, 43.9167459 ], [ 11.1394123, 43.9166597 ], [ 11.1392931, 43.9165904 ], [ 11.1390771, 43.9165071 ], [ 11.1387065, 43.9163735 ], [ 11.1386328, 43.9163391 ], [ 11.1384127, 43.9162366 ], [ 11.1379608, 43.916014 ], [ 11.1376145, 43.9158656 ], [ 11.1372226, 43.9156699 ], [ 11.1369907, 43.9156233 ], [ 11.1368363, 43.9155545 ], [ 11.1364608, 43.9154304 ], [ 11.1361275, 43.9153894 ], [ 11.1359285, 43.9153263 ], [ 11.135833, 43.9152009 ], [ 11.13553, 43.9150728 ], [ 11.1353777, 43.9150537 ], [ 11.1352386, 43.9150569 ], [ 11.1351161, 43.9150405 ], [ 11.1349399, 43.9149157 ], [ 11.1344767, 43.9148356 ], [ 11.1341583, 43.9148268 ], [ 11.1338002, 43.9148203 ], [ 11.1335003, 43.9146413 ], [ 11.1330655, 43.9146167 ], [ 11.1327479, 43.9145155 ], [ 11.1324704, 43.9144743 ], [ 11.132087, 43.9144868 ], [ 11.1318896, 43.9145301 ], [ 11.1316035, 43.9145075 ], [ 11.1313235, 43.9144029 ], [ 11.1308224, 43.9142478 ], [ 11.1305964, 43.9142355 ], [ 11.130302, 43.9141818 ], [ 11.1298845, 43.9142185 ], [ 11.1296356, 43.9142453 ], [ 11.1293495, 43.9142658 ], [ 11.1289519, 43.9142575 ], [ 11.1287396, 43.9142223 ], [ 11.1284844, 43.9141515 ], [ 11.1282741, 43.9141155 ], [ 11.1280001, 43.9141207 ], [ 11.1278825, 43.9140971 ], [ 11.1276678, 43.9141265 ], [ 11.1276919, 43.9141936 ], [ 11.1277304, 43.9144135 ], [ 11.1277506, 43.9152983 ], [ 11.1277622, 43.9155585 ], [ 11.1277705, 43.9165255 ], [ 11.1277995, 43.9165652 ], [ 11.1278104, 43.9168293 ], [ 11.1276195, 43.9169729 ], [ 11.1276509, 43.9172849 ], [ 11.1273741, 43.9172877 ], [ 11.1274426, 43.9175108 ], [ 11.1274771, 43.9178123 ], [ 11.1274457, 43.9180093 ], [ 11.1273831, 43.9182145 ], [ 11.127303, 43.9183248 ], [ 11.1272833, 43.9184505 ], [ 11.1272993, 43.9186206 ], [ 11.1273147, 43.91898 ], [ 11.1272378, 43.9194643 ], [ 11.1272163, 43.9197564 ], [ 11.1271608, 43.920123 ], [ 11.1271275, 43.9205895 ], [ 11.1270506, 43.9209978 ], [ 11.125921, 43.9209896 ], [ 11.1258131, 43.9209893 ], [ 11.1254849, 43.9210208 ], [ 11.1254065, 43.9210103 ], [ 11.1252534, 43.9210011 ], [ 11.124896, 43.9210182 ], [ 11.1248066, 43.9210169 ], [ 11.1247921, 43.9210445 ], [ 11.1246212, 43.921044 ], [ 11.1243362, 43.9210602 ], [ 11.1240463, 43.9210904 ], [ 11.1238968, 43.9210957 ], [ 11.1237601, 43.9210812 ], [ 11.1235267, 43.9210431 ], [ 11.1233918, 43.9210064 ], [ 11.1231711, 43.9209368 ], [ 11.1229122, 43.9208737 ], [ 11.122863, 43.9209788 ], [ 11.1227768, 43.921044 ], [ 11.1230964, 43.9214017 ], [ 11.1229961, 43.9215501 ], [ 11.1229469, 43.921688 ], [ 11.1229487, 43.9217497 ], [ 11.1230198, 43.9218259 ], [ 11.1230544, 43.9218705 ], [ 11.1231365, 43.921969 ], [ 11.1231985, 43.9221096 ], [ 11.1232495, 43.9222343 ], [ 11.1232773, 43.9222823 ], [ 11.1233371, 43.9223236 ], [ 11.1234373, 43.9223565 ], [ 11.1236744, 43.9224313 ], [ 11.1239023, 43.9225403 ], [ 11.1238986, 43.9225679 ], [ 11.123884, 43.922606 ], [ 11.1238676, 43.9226388 ], [ 11.1238458, 43.9226887 ], [ 11.1238129, 43.9227189 ], [ 11.1237528, 43.9227465 ], [ 11.1236999, 43.9227544 ], [ 11.1236452, 43.922757 ], [ 11.1235249, 43.9227583 ], [ 11.1235267, 43.922782 ], [ 11.1236434, 43.9227807 ], [ 11.1237582, 43.9227702 ], [ 11.1238385, 43.922736 ], [ 11.1238768, 43.9226979 ], [ 11.1239041, 43.922648 ], [ 11.1239333, 43.9225692 ], [ 11.1239369, 43.9225298 ], [ 11.1239369, 43.9224471 ], [ 11.1239096, 43.9222947 ], [ 11.1239096, 43.922258 ], [ 11.1239588, 43.9222396 ], [ 11.1240208, 43.9222448 ], [ 11.1240718, 43.9222632 ], [ 11.1241484, 43.9222961 ], [ 11.1241922, 43.9223355 ], [ 11.1242368, 43.9224164 ], [ 11.1243308, 43.9225929 ], [ 11.1243836, 43.9227294 ], [ 11.1244201, 43.9228608 ], [ 11.1244201, 43.9229107 ], [ 11.1244329, 43.9229698 ], [ 11.1244529, 43.9230394 ], [ 11.124555, 43.9232718 ], [ 11.1245623, 43.9233506 ], [ 11.1246061, 43.9234242 ], [ 11.1247647, 43.9236422 ], [ 11.1248158, 43.9237131 ], [ 11.1248655, 43.9238061 ], [ 11.1249288, 43.923981 ], [ 11.1249908, 43.9241346 ], [ 11.1250637, 43.9243041 ], [ 11.1251312, 43.9246402 ], [ 11.1252965, 43.9251628 ], [ 11.1238503, 43.9252306 ], [ 11.1224637, 43.9253994 ], [ 11.121552, 43.9249449 ], [ 11.1213442, 43.9247965 ], [ 11.1212311, 43.9246599 ], [ 11.1210719, 43.9245287 ], [ 11.1209139, 43.9245378 ], [ 11.1204473, 43.9242131 ], [ 11.1204963, 43.9246429 ], [ 11.1205061, 43.9249053 ], [ 11.1202812, 43.9249764 ], [ 11.1199092, 43.9251564 ], [ 11.1195063, 43.9254085 ], [ 11.1192934, 43.9255527 ], [ 11.1181538, 43.926364 ], [ 11.1182221, 43.9265334 ], [ 11.1182587, 43.9266242 ], [ 11.1184214, 43.9270277 ], [ 11.1186311, 43.9275004 ], [ 11.1186854, 43.9276563 ], [ 11.1176811, 43.9279259 ], [ 11.1171026, 43.9281755 ], [ 11.1160248, 43.9286728 ], [ 11.1161441, 43.9287873 ], [ 11.1162443, 43.9289095 ], [ 11.1162943, 43.9289494 ], [ 11.1163611, 43.9289838 ], [ 11.1164311, 43.9290284 ], [ 11.1164918, 43.9290855 ], [ 11.116542, 43.9291561 ], [ 11.1165618, 43.9292217 ], [ 11.116598, 43.9293461 ], [ 11.116633, 43.9294267 ], [ 11.1166843, 43.9295228 ], [ 11.11676, 43.929624 ], [ 11.1168676, 43.9297411 ], [ 11.1169329, 43.9298075 ], [ 11.1170344, 43.9298864 ], [ 11.1171157, 43.9299291 ], [ 11.1172645, 43.9299953 ], [ 11.1173612, 43.930036 ], [ 11.117389, 43.9300798 ], [ 11.1173739, 43.9301332 ], [ 11.1173393, 43.9302015 ], [ 11.1172664, 43.9303013 ], [ 11.117188, 43.9304549 ], [ 11.1171538, 43.9305781 ], [ 11.1171479, 43.9306689 ], [ 11.1171272, 43.9307456 ], [ 11.117064, 43.9308843 ], [ 11.1168892, 43.9311128 ], [ 11.1168331, 43.9311935 ], [ 11.1168185, 43.931267 ], [ 11.1168076, 43.9313392 ], [ 11.1167693, 43.9313891 ], [ 11.1167353, 43.9314241 ], [ 11.1166746, 43.9314508 ], [ 11.1165763, 43.9314681 ], [ 11.1164074, 43.931494 ], [ 11.1163144, 43.9315058 ], [ 11.1162561, 43.9315216 ], [ 11.116154, 43.9315675 ], [ 11.1160883, 43.9316227 ], [ 11.1160063, 43.9317308 ], [ 11.1159551, 43.931826 ], [ 11.1158907, 43.9319358 ], [ 11.1157382, 43.9322221 ], [ 11.1155657, 43.9324886 ], [ 11.1152084, 43.9328011 ], [ 11.1151209, 43.932851 ], [ 11.1150826, 43.9328983 ], [ 11.1150014, 43.9331139 ], [ 11.1149203, 43.9332699 ], [ 11.1148364, 43.9334222 ], [ 11.1147161, 43.9335863 ], [ 11.1147015, 43.933627 ], [ 11.114603, 43.9337597 ], [ 11.1145502, 43.9338017 ], [ 11.1144822, 43.9339017 ], [ 11.1150899, 43.9345434 ], [ 11.1143493, 43.9353878 ], [ 11.1137001, 43.9356301 ], [ 11.1130638, 43.9358769 ], [ 11.1129158, 43.9358593 ], [ 11.1128541, 43.935865 ], [ 11.112845, 43.935976 ], [ 11.1128419, 43.9361107 ], [ 11.1128435, 43.9362161 ], [ 11.1128184, 43.9362843 ], [ 11.112724, 43.9363932 ], [ 11.1127247, 43.9364315 ], [ 11.11271, 43.9364719 ], [ 11.1126946, 43.936542 ], [ 11.1126877, 43.9366071 ], [ 11.1126909, 43.9366967 ], [ 11.112637, 43.9367888 ], [ 11.1125878, 43.9368357 ], [ 11.1125242, 43.9368798 ], [ 11.1124382, 43.9369306 ], [ 11.1123773, 43.9369783 ], [ 11.1123296, 43.9370442 ], [ 11.112326, 43.9371463 ], [ 11.1123548, 43.9372592 ], [ 11.1124151, 43.9373548 ], [ 11.1124027, 43.9374518 ], [ 11.1123647, 43.9375922 ], [ 11.1123077, 43.9377055 ], [ 11.1122849, 43.9377998 ], [ 11.1122812, 43.9379898 ], [ 11.1123013, 43.9380905 ], [ 11.1124096, 43.9382646 ], [ 11.1125508, 43.9384602 ], [ 11.1126412, 43.938578 ], [ 11.1126742, 43.938691 ], [ 11.1126856, 43.9388051 ], [ 11.1127607, 43.9389661 ], [ 11.1127135, 43.9391707 ], [ 11.1126304, 43.9393695 ], [ 11.112588, 43.9395018 ], [ 11.1125959, 43.9395816 ], [ 11.1126458, 43.9396591 ], [ 11.1126869, 43.9398357 ], [ 11.1127224, 43.9400756 ], [ 11.1127499, 43.9402664 ], [ 11.1127509, 43.9403979 ], [ 11.1127381, 43.9405253 ], [ 11.1127383, 43.9405942 ], [ 11.1127528, 43.9406974 ], [ 11.1127668, 43.9407695 ], [ 11.1127854, 43.9408864 ], [ 11.1127533, 43.9410291 ], [ 11.1122875, 43.9412976 ], [ 11.1122553, 43.9413217 ], [ 11.1121635, 43.9413865 ], [ 11.1120738, 43.9415077 ], [ 11.1120308, 43.9415792 ], [ 11.1119619, 43.9418913 ], [ 11.1117584, 43.9422886 ], [ 11.1116044, 43.9424966 ], [ 11.1114622, 43.942616 ], [ 11.1112804, 43.9427414 ], [ 11.1110848, 43.942813 ], [ 11.1108806, 43.9428917 ], [ 11.1107475, 43.9429692 ], [ 11.1106306, 43.9430482 ], [ 11.1105633, 43.9431661 ], [ 11.1104612, 43.9434037 ], [ 11.1103988, 43.9435333 ], [ 11.1102804, 43.9436984 ], [ 11.1101285, 43.943879 ], [ 11.1099695, 43.944072 ], [ 11.1097209, 43.9444579 ], [ 11.1095645, 43.9446537 ], [ 11.1093563, 43.9449437 ], [ 11.1092583, 43.9450717 ], [ 11.1090901, 43.9452745 ], [ 11.1090299, 43.945331 ], [ 11.1089041, 43.9454478 ], [ 11.1088075, 43.9454793 ], [ 11.1087053, 43.9455056 ], [ 11.1086197, 43.9455056 ], [ 11.1084138, 43.9454857 ], [ 11.1081401, 43.9453848 ], [ 11.1080325, 43.9453782 ], [ 11.1079341, 43.9454045 ], [ 11.1078366, 43.9454985 ], [ 11.1076478, 43.9457773 ], [ 11.1074667, 43.9459275 ], [ 11.1073123, 43.9460569 ], [ 11.1071573, 43.9461501 ], [ 11.1069324, 43.9462407 ], [ 11.1065702, 43.9463681 ], [ 11.1062913, 43.9464268 ], [ 11.1054525, 43.9465742 ], [ 11.1052892, 43.9466099 ], [ 11.1051778, 43.9466343 ], [ 11.1050441, 43.9466385 ], [ 11.1049584, 43.9466319 ], [ 11.1048016, 43.9466188 ], [ 11.1046521, 43.9466306 ], [ 11.1045099, 43.9466661 ], [ 11.1043272, 43.9467926 ], [ 11.1041987, 43.9468404 ], [ 11.1042112, 43.9468923 ], [ 11.1041967, 43.9469107 ], [ 11.1041146, 43.946937 ], [ 11.1039908, 43.946999 ], [ 11.1039487, 43.9470538 ], [ 11.1039396, 43.9471194 ], [ 11.1038093, 43.9472263 ], [ 11.1037025, 43.9473584 ], [ 11.103626, 43.947491 ], [ 11.1036041, 43.9476931 ], [ 11.1035479, 43.9477415 ], [ 11.1033871, 43.9477811 ], [ 11.1032066, 43.9478428 ], [ 11.1029186, 43.9480032 ], [ 11.1028237, 43.9480567 ], [ 11.1027034, 43.9480974 ], [ 11.1025775, 43.9481119 ], [ 11.1024609, 43.9481368 ], [ 11.1022436, 43.9482089 ], [ 11.1021436, 43.9482615 ], [ 11.1019188, 43.9484106 ], [ 11.1014532, 43.9485767 ], [ 11.1013959, 43.9484664 ], [ 11.1008784, 43.9486538 ], [ 11.1001101, 43.9489193 ], [ 11.0995964, 43.9491069 ], [ 11.0996059, 43.9491436 ], [ 11.0988625, 43.9494076 ], [ 11.098718, 43.9494765 ], [ 11.0984021, 43.9494679 ], [ 11.0981451, 43.9493327 ], [ 11.0980466, 43.9492959 ], [ 11.0978217, 43.9491758 ], [ 11.097516, 43.9490465 ], [ 11.0971441, 43.9489245 ], [ 11.0970283, 43.9488949 ], [ 11.0966809, 43.948763 ], [ 11.0963454, 43.9486908 ], [ 11.0961173, 43.9486736 ], [ 11.0959151, 43.9486711 ], [ 11.0955525, 43.9485974 ], [ 11.095149, 43.9484844 ], [ 11.094703, 43.9484222 ], [ 11.0944542, 43.9484152 ], [ 11.0942594, 43.9483876 ], [ 11.0941956, 43.9483642 ], [ 11.0941286, 43.9483286 ], [ 11.0940977, 43.9482788 ], [ 11.0940913, 43.948246 ], [ 11.0940771, 43.9482155 ], [ 11.0940265, 43.948178 ], [ 11.0939552, 43.9481469 ], [ 11.0938084, 43.9481046 ], [ 11.0936665, 43.9481092 ], [ 11.0935283, 43.9480967 ], [ 11.0933827, 43.9480509 ], [ 11.0932983, 43.94797 ], [ 11.0931625, 43.9479146 ], [ 11.0931253, 43.9478768 ], [ 11.092741, 43.9477602 ], [ 11.0926332, 43.9477876 ], [ 11.09251, 43.947803 ], [ 11.0923406, 43.9475943 ], [ 11.0922538, 43.9474041 ], [ 11.0918294, 43.9466967 ], [ 11.0914955, 43.9462726 ], [ 11.0914001, 43.9461044 ], [ 11.0914192, 43.9460821 ], [ 11.0915124, 43.9459771 ], [ 11.0854653, 43.9419274 ], [ 11.0849209, 43.9417157 ], [ 11.0804664, 43.9357795 ], [ 11.0805881, 43.9355597 ], [ 11.0807526, 43.9353897 ], [ 11.0812629, 43.9349672 ], [ 11.0813345, 43.9348436 ], [ 11.0813631, 43.9347423 ], [ 11.0813941, 43.9345894 ], [ 11.0813726, 43.9343525 ], [ 11.0813416, 43.9342683 ], [ 11.0813225, 43.9340811 ], [ 11.081313, 43.9338682 ], [ 11.0813869, 43.9331692 ], [ 11.0815443, 43.9322058 ], [ 11.0815658, 43.9317009 ], [ 11.0815419, 43.9313042 ], [ 11.0814751, 43.9306756 ], [ 11.0814394, 43.9305108 ], [ 11.0809529, 43.9291403 ], [ 11.0805427, 43.9281545 ], [ 11.0798822, 43.9264885 ], [ 11.079732, 43.9262017 ], [ 11.0801087, 43.9250733 ], [ 11.0801898, 43.9247796 ], [ 11.0789856, 43.9233299 ], [ 11.0784538, 43.9227391 ], [ 11.0763887, 43.9202622 ], [ 11.0762071, 43.9200038 ], [ 11.0761883, 43.9199771 ], [ 11.0753728, 43.9188846 ], [ 11.0745453, 43.9177921 ], [ 11.0740398, 43.9172081 ], [ 11.0737917, 43.9168267 ], [ 11.0734221, 43.9163406 ], [ 11.0732624, 43.9160778 ], [ 11.0728975, 43.9156432 ], [ 11.0727926, 43.915425 ], [ 11.0726924, 43.9153357 ], [ 11.0725851, 43.9152652 ], [ 11.0723562, 43.9151158 ], [ 11.0720963, 43.9149921 ], [ 11.0720939, 43.9149612 ], [ 11.0718244, 43.9148409 ], [ 11.0713618, 43.91453 ], [ 11.0702767, 43.9134563 ], [ 11.0695518, 43.9127176 ], [ 11.0693515, 43.9125338 ], [ 11.0693157, 43.9125115 ], [ 11.068865, 43.9120287 ], [ 11.0687434, 43.9118879 ], [ 11.0681043, 43.9112437 ], [ 11.0670503, 43.9101579 ], [ 11.0670861, 43.9100273 ], [ 11.0677228, 43.9092027 ], [ 11.0678635, 43.9089519 ], [ 11.0676027, 43.9088594 ], [ 11.0667332, 43.9084518 ], [ 11.066648, 43.9083749 ], [ 11.0665217, 43.9081994 ], [ 11.0661645, 43.9079884 ], [ 11.0656586, 43.9077029 ], [ 11.0650602, 43.9073129 ], [ 11.064838, 43.9071103 ], [ 11.0646291, 43.9069718 ], [ 11.0643901, 43.9069078 ], [ 11.0637166, 43.9069806 ], [ 11.0633059, 43.9070789 ], [ 11.0631374, 43.9071326 ], [ 11.0630379, 43.9071764 ], [ 11.062346, 43.9074947 ], [ 11.0621592, 43.9075287 ], [ 11.0620838, 43.9075126 ], [ 11.0613736, 43.9080141 ], [ 11.0612171, 43.9080759 ], [ 11.0606619, 43.9074987 ], [ 11.0605935, 43.9074326 ], [ 11.0601714, 43.9069327 ], [ 11.0600784, 43.9068588 ], [ 11.0600403, 43.9068433 ], [ 11.0599854, 43.9068433 ], [ 11.0599234, 43.9068863 ], [ 11.0598519, 43.9069292 ], [ 11.0595766, 43.9070323 ], [ 11.0593106, 43.9066904 ], [ 11.059105, 43.906459 ], [ 11.0590544, 43.9064325 ], [ 11.0586132, 43.9065871 ], [ 11.0585567, 43.9065655 ], [ 11.0583843, 43.906405 ], [ 11.0581341, 43.9061299 ], [ 11.0579496, 43.9059113 ], [ 11.0576665, 43.9056318 ], [ 11.0573273, 43.9052719 ], [ 11.0570893, 43.9051053 ], [ 11.0569147, 43.9050144 ], [ 11.0564639, 43.9048774 ], [ 11.0561912, 43.9047703 ], [ 11.055887, 43.9046624 ], [ 11.0557659, 43.9046319 ], [ 11.0542874, 43.9044017 ], [ 11.0541419, 43.9043793 ], [ 11.0539154, 43.9043175 ], [ 11.0535863, 43.9043707 ], [ 11.0535195, 43.9043639 ], [ 11.0533645, 43.9043329 ], [ 11.0527898, 43.904235 ], [ 11.0519528, 43.9041079 ], [ 11.0518336, 43.9040941 ], [ 11.0516595, 43.9040855 ], [ 11.0504958, 43.9039292 ], [ 11.049947, 43.903884 ], [ 11.0497682, 43.9038272 ], [ 11.0495187, 43.9037674 ], [ 11.0493251, 43.9037255 ], [ 11.0480799, 43.9034662 ], [ 11.0480096, 43.9034422 ], [ 11.0479367, 43.9034111 ], [ 11.047857, 43.9033717 ], [ 11.0477583, 43.9033126 ], [ 11.0473901, 43.9030524 ], [ 11.0464483, 43.9024061 ], [ 11.0462171, 43.9025373 ], [ 11.0449687, 43.9032939 ], [ 11.0452037, 43.9034797 ], [ 11.0449672, 43.9036369 ], [ 11.0440515, 43.9029673 ], [ 11.0421086, 43.9041175 ], [ 11.0410235, 43.9032136 ], [ 11.0402924, 43.9026633 ], [ 11.0391706, 43.9034536 ], [ 11.0388674, 43.9036511 ], [ 11.0387084, 43.9035732 ], [ 11.0380795, 43.9030805 ], [ 11.03744, 43.9027253 ], [ 11.0374934, 43.9026748 ], [ 11.0368005, 43.9021953 ], [ 11.0359301, 43.9015267 ], [ 11.0353003, 43.9010429 ], [ 11.0351065, 43.9010693 ], [ 11.0345593, 43.9008447 ], [ 11.0332479, 43.9011166 ], [ 11.0323436, 43.9012989 ], [ 11.0306952, 43.9016312 ], [ 11.0301741, 43.9017362 ], [ 11.0299913, 43.9017277 ], [ 11.0295874, 43.9014006 ], [ 11.0291257, 43.9009903 ], [ 11.0287211, 43.9006276 ], [ 11.0285836, 43.9004494 ], [ 11.0281967, 43.9000554 ], [ 11.0279442, 43.8997722 ], [ 11.0271356, 43.8989146 ], [ 11.0267519, 43.8984852 ], [ 11.0262098, 43.8979003 ], [ 11.0259223, 43.8976472 ], [ 11.0257886, 43.8975251 ], [ 11.025267, 43.8969909 ], [ 11.0249087, 43.8965177 ], [ 11.0248431, 43.8964057 ], [ 11.0248091, 43.8963304 ], [ 11.0247497, 43.8962372 ], [ 11.0245814, 43.8961253 ], [ 11.024461, 43.8960095 ], [ 11.0242425, 43.8958021 ], [ 11.0240908, 43.895614 ], [ 11.0240042, 43.8954621 ], [ 11.0237101, 43.8949329 ], [ 11.0235683, 43.8947594 ], [ 11.0233869, 43.8945309 ], [ 11.0232663, 43.894418 ], [ 11.023079, 43.8942546 ], [ 11.0229241, 43.8940238 ], [ 11.0224133, 43.8933237 ], [ 11.0222722, 43.8931526 ], [ 11.0221403, 43.8929287 ], [ 11.0220073, 43.892571 ], [ 11.0219507, 43.8924904 ], [ 11.0218465, 43.8922944 ], [ 11.021622, 43.8919785 ], [ 11.0214551, 43.8916556 ], [ 11.0212809, 43.891376 ], [ 11.0212222, 43.8911956 ], [ 11.0211941, 43.891049 ], [ 11.0211683, 43.8906495 ], [ 11.021102, 43.8904721 ], [ 11.0209243, 43.8902066 ], [ 11.0207963, 43.8898955 ], [ 11.0207373, 43.8896487 ], [ 11.0206203, 43.8894193 ], [ 11.0204267, 43.8891637 ], [ 11.0201178, 43.8888729 ], [ 11.0200064, 43.8887066 ], [ 11.0198861, 43.8883406 ], [ 11.019753, 43.8879866 ], [ 11.0194186, 43.8870357 ], [ 11.0193212, 43.8868437 ], [ 11.019176, 43.8866734 ], [ 11.0189695, 43.8864767 ], [ 11.0187928, 43.886273 ], [ 11.0185848, 43.8859074 ], [ 11.0183203, 43.8852862 ], [ 11.0182393, 43.8851707 ], [ 11.0181273, 43.8850658 ], [ 11.0177649, 43.8847903 ], [ 11.0176428, 43.8846759 ], [ 11.0175799, 43.8845636 ], [ 11.0174162, 43.884314 ], [ 11.0172349, 43.8840521 ], [ 11.0170596, 43.8838453 ], [ 11.016798, 43.8834514 ], [ 11.0166683, 43.8832629 ], [ 11.0163701, 43.8828302 ], [ 11.0161858, 43.8825316 ], [ 11.0161072, 43.8823576 ], [ 11.0158935, 43.8816437 ], [ 11.0158067, 43.8814231 ], [ 11.0157305, 43.8813085 ], [ 11.0152615, 43.880657 ], [ 11.0152019, 43.8804484 ], [ 11.015171, 43.8802077 ], [ 11.0152547, 43.8799806 ], [ 11.0153396, 43.8797926 ], [ 11.0153561, 43.8797015 ], [ 11.0153421, 43.879646 ], [ 11.0153023, 43.8795697 ], [ 11.0151129, 43.879324 ], [ 11.0150027, 43.8791779 ], [ 11.0149319, 43.879045 ], [ 11.014923, 43.8789739 ], [ 11.0149161, 43.8787422 ], [ 11.0149722, 43.87825 ], [ 11.014961, 43.8779458 ], [ 11.0148474, 43.8772007 ], [ 11.0147907, 43.8770519 ], [ 11.0146582, 43.876867 ], [ 11.014494, 43.8766994 ], [ 11.0144199, 43.8765917 ], [ 11.0143952, 43.8764796 ], [ 11.0144121, 43.8763785 ], [ 11.0144514, 43.8763039 ], [ 11.0145713, 43.8760579 ], [ 11.0145809, 43.8759987 ], [ 11.0145695, 43.8758576 ], [ 11.0144897, 43.8756344 ], [ 11.0144157, 43.8754146 ], [ 11.014396, 43.8752533 ], [ 11.0143427, 43.874517 ], [ 11.0141653, 43.8738945 ], [ 11.0141499, 43.87372 ], [ 11.0141352, 43.8732738 ], [ 11.0140997, 43.8730756 ], [ 11.0139885, 43.8728499 ], [ 11.0138114, 43.8724534 ], [ 11.01377, 43.8723032 ], [ 11.0137632, 43.8721316 ], [ 11.0137769, 43.8718769 ], [ 11.0137312, 43.8716672 ], [ 11.0136313, 43.8714653 ], [ 11.013523, 43.8713051 ], [ 11.0133407, 43.8710152 ], [ 11.0132617, 43.8707406 ], [ 11.0132331, 43.8705526 ], [ 11.0131948, 43.8702988 ], [ 11.0131705, 43.8701382 ] ] ] } }
]
}
