{
"type": "FeatureCollection",
"name": "reims_fr",
"crs": { "type": "name", "properties": { "name": "urn:ogc:def:crs:OGC:1.3:CRS84" } },
"features": [
{ "type": "Feature", "properties": { }, "geometry": { "type": "Polygon", "coordinates": [ [ [ 3.9858192, 49.2933503 ], [ 3.9894566, 49.2913819 ], [ 3.9895574, 49.2913274 ], [ 3.9898079, 49.2911918 ], [ 3.9945411, 49.2886373 ], [ 3.9941608, 49.2885347 ], [ 3.9937793, 49.2883932 ], [ 3.9923634, 49.2876262 ], [ 3.9922807, 49.2875814 ], [ 3.991986, 49.2874122 ], [ 3.991787, 49.2873727 ], [ 3.9914484, 49.2873054 ], [ 3.9905626, 49.2871649 ], [ 3.9891061, 49.2870104 ], [ 3.9883987, 49.2868831 ], [ 3.9874779, 49.2867233 ], [ 3.9873652, 49.2866883 ], [ 3.9873037, 49.2866378 ], [ 3.9873008, 49.2865964 ], [ 3.9873404, 49.2865453 ], [ 3.9900361, 49.2844734 ], [ 3.9911983, 49.2835802 ], [ 3.9914481, 49.2834599 ], [ 3.9923123, 49.2829516 ], [ 3.9922892, 49.282936 ], [ 3.9922272, 49.2828802 ], [ 3.9929378, 49.2822958 ], [ 3.9930189, 49.2822572 ], [ 3.9941876, 49.2817788 ], [ 3.9942803, 49.2818403 ], [ 3.9944254, 49.2819315 ], [ 3.9957557, 49.2828018 ], [ 3.9957679, 49.2828052 ], [ 3.9959485, 49.282855 ], [ 3.99596, 49.2830296 ], [ 3.9960169, 49.2832194 ], [ 3.9960803, 49.2833981 ], [ 3.9961445, 49.2835516 ], [ 3.9962395, 49.2837574 ], [ 3.9964173, 49.2840732 ], [ 3.9972266, 49.2855079 ], [ 3.9980407, 49.2869333 ], [ 3.9983068, 49.2867467 ], [ 3.9999634, 49.2855613 ], [ 4.0000113, 49.2855322 ], [ 4.0011846, 49.2846682 ], [ 4.0044854, 49.2822362 ], [ 4.0075982, 49.2796308 ], [ 4.0076298, 49.2796021 ], [ 4.0066934, 49.2790683 ], [ 4.0062741, 49.2788354 ], [ 4.0051077, 49.2781654 ], [ 4.0050657, 49.2781413 ], [ 4.0047612, 49.2779673 ], [ 4.0044126, 49.2778207 ], [ 4.0043948, 49.2776454 ], [ 4.0043745, 49.2774443 ], [ 4.0043529, 49.2772635 ], [ 4.0042041, 49.2768592 ], [ 4.0032526, 49.2764078 ], [ 4.0025884, 49.2759897 ], [ 4.0023256, 49.2758189 ], [ 4.001942, 49.2755571 ], [ 4.0007916, 49.2748724 ], [ 3.9999131, 49.2743621 ], [ 3.9990637, 49.273859 ], [ 3.9980252, 49.2726171 ], [ 3.99756, 49.2721526 ], [ 3.9974425, 49.2719918 ], [ 3.997409, 49.2718814 ], [ 3.9974099, 49.2717915 ], [ 3.9971148, 49.271777 ], [ 3.9974687, 49.2683757 ], [ 3.9975256, 49.2679145 ], [ 3.9979905, 49.2668131 ], [ 3.9983411, 49.2663157 ], [ 3.9983236, 49.266076 ], [ 3.9982815, 49.2654972 ], [ 3.998196, 49.2647134 ], [ 3.9973332, 49.264739 ], [ 3.997222, 49.2635476 ], [ 3.9972331, 49.2634569 ], [ 3.9966213, 49.2635111 ], [ 3.9958613, 49.263579 ], [ 3.9957824, 49.2635861 ], [ 3.9957662, 49.2635274 ], [ 3.995477, 49.2623574 ], [ 3.9954551, 49.262262 ], [ 3.995424, 49.2621228 ], [ 3.9951235, 49.2607771 ], [ 3.9947907, 49.260671 ], [ 3.9953316, 49.2580202 ], [ 3.9962376, 49.2582043 ], [ 3.9964619, 49.2582198 ], [ 3.9967526, 49.2582878 ], [ 3.9969126, 49.2583359 ], [ 3.99806, 49.2587795 ], [ 3.9983606, 49.2588549 ], [ 3.9984347, 49.2588797 ], [ 3.9984744, 49.2588921 ], [ 3.9991684, 49.2591457 ], [ 3.9991053, 49.2587159 ], [ 3.9988045, 49.2571379 ], [ 3.9985362, 49.2555668 ], [ 3.9987235, 49.2555555 ], [ 3.9989166, 49.2555414 ], [ 3.9992042, 49.255505 ], [ 3.9994366, 49.2554636 ], [ 3.9997409, 49.2554257 ], [ 4.0009266, 49.2553275 ], [ 4.0010235, 49.2552904 ], [ 4.0010869, 49.255248 ], [ 4.0012202, 49.2551248 ], [ 4.0013847, 49.2549566 ], [ 4.0016168, 49.2546984 ], [ 4.001673, 49.2546435 ], [ 4.0017747, 49.2545445 ], [ 4.0019478, 49.2543764 ], [ 4.001969, 49.2543684 ], [ 4.0020366, 49.2543606 ], [ 4.0020983, 49.2543634 ], [ 4.0021604, 49.2543773 ], [ 4.0025391, 49.2545201 ], [ 4.0031329, 49.2547526 ], [ 4.0033018, 49.2548128 ], [ 4.0033919, 49.2548354 ], [ 4.003578, 49.2548731 ], [ 4.0037268, 49.2548993 ], [ 4.0039418, 49.2549278 ], [ 4.0040128, 49.254936 ], [ 4.0042237, 49.2549509 ], [ 4.0041822, 49.2549596 ], [ 4.0045821, 49.2550024 ], [ 4.0049532, 49.2550474 ], [ 4.0050187, 49.2550524 ], [ 4.0053047, 49.2550334 ], [ 4.0059728, 49.2547294 ], [ 4.0060709, 49.2546847 ], [ 4.0065098, 49.2544754 ], [ 4.0066725, 49.2543809 ], [ 4.0067487, 49.2543459 ], [ 4.0068402, 49.2543298 ], [ 4.0069419, 49.2543362 ], [ 4.0070535, 49.2543569 ], [ 4.0071771, 49.2544184 ], [ 4.0074972, 49.2546086 ], [ 4.0076364, 49.2547 ], [ 4.0079411, 49.2549421 ], [ 4.0080768, 49.2550836 ], [ 4.0083484, 49.2552488 ], [ 4.0086881, 49.255351 ], [ 4.0094449, 49.2553713 ], [ 4.0101619, 49.2554014 ], [ 4.0102315, 49.255395 ], [ 4.0111062, 49.255314 ], [ 4.011485, 49.2552477 ], [ 4.0118978, 49.2550432 ], [ 4.0121682, 49.2548528 ], [ 4.0122799, 49.2547843 ], [ 4.01244, 49.2546733 ], [ 4.0127915, 49.2544599 ], [ 4.0129275, 49.2543913 ], [ 4.0130276, 49.2543518 ], [ 4.013163, 49.2543096 ], [ 4.0131302, 49.2542411 ], [ 4.0128142, 49.2541895 ], [ 4.012586, 49.2541263 ], [ 4.0125422, 49.2537152 ], [ 4.0122475, 49.2538025 ], [ 4.0122021, 49.2537501 ], [ 4.0120207, 49.2535409 ], [ 4.011941, 49.253449 ], [ 4.0116687, 49.253135 ], [ 4.0116387, 49.2531004 ], [ 4.0109343, 49.2522881 ], [ 4.0108343, 49.2522832 ], [ 4.0095498, 49.2508305 ], [ 4.0093699, 49.2506409 ], [ 4.0092515, 49.2506671 ], [ 4.0089851, 49.2502994 ], [ 4.0089871, 49.2502244 ], [ 4.0089874, 49.2501808 ], [ 4.0085377, 49.2491474 ], [ 4.0081701, 49.2483632 ], [ 4.0081158, 49.2483759 ], [ 4.0080652, 49.2481546 ], [ 4.0081128, 49.2479578 ], [ 4.0078903, 49.2479254 ], [ 4.0079288, 49.2477461 ], [ 4.0080903, 49.2477491 ], [ 4.0081789, 49.2477508 ], [ 4.0085373, 49.2477601 ], [ 4.008733, 49.2477611 ], [ 4.0091012, 49.2477674 ], [ 4.0089504, 49.2474456 ], [ 4.0082759, 49.2460111 ], [ 4.0076139, 49.2457655 ], [ 4.0075337, 49.2457357 ], [ 4.0072254, 49.2456245 ], [ 4.0066015, 49.2454216 ], [ 4.0059256, 49.2451943 ], [ 4.004919, 49.2448527 ], [ 4.0047807, 49.2448051 ], [ 4.0046976, 49.2447795 ], [ 4.0045799, 49.2447391 ], [ 4.0044859, 49.24471 ], [ 4.0044404, 49.2446942 ], [ 4.004059, 49.2445631 ], [ 4.002087, 49.2438858 ], [ 4.0017071, 49.2437571 ], [ 4.0010161, 49.2435295 ], [ 4.0005483, 49.2433447 ], [ 4.0002977, 49.2432155 ], [ 3.9999335, 49.2430275 ], [ 3.9995187, 49.2428573 ], [ 3.9996194, 49.2428099 ], [ 3.9996426, 49.242799 ], [ 3.9996595, 49.2427758 ], [ 3.9996571, 49.2427363 ], [ 3.9996429, 49.2424997 ], [ 3.9996055, 49.2423917 ], [ 3.9995798, 49.2423661 ], [ 3.9991859, 49.2422624 ], [ 3.9990291, 49.2422276 ], [ 3.9985669, 49.2419541 ], [ 3.9978449, 49.2415154 ], [ 3.9975048, 49.2411225 ], [ 3.9971096, 49.2408128 ], [ 3.9966079, 49.2406261 ], [ 3.9969232, 49.2405168 ], [ 3.9963731, 49.2399071 ], [ 3.9960085, 49.2390856 ], [ 3.9959826, 49.2386299 ], [ 3.9969789, 49.2356076 ], [ 3.9972355, 49.2348254 ], [ 3.9976424, 49.2321865 ], [ 3.9979777, 49.2320674 ], [ 3.9972305, 49.231188 ], [ 3.9957929, 49.2296602 ], [ 3.9954646, 49.2293141 ], [ 3.9954594, 49.2293086 ], [ 3.9953939, 49.2292257 ], [ 3.9953773, 49.2292047 ], [ 3.995266, 49.2290516 ], [ 3.9953322, 49.2290312 ], [ 3.9954088, 49.2290077 ], [ 3.9955676, 49.228959 ], [ 3.9958233, 49.2288742 ], [ 3.9958563, 49.2288632 ], [ 3.997313, 49.22838 ], [ 4.0014483, 49.2270505 ], [ 4.0015777, 49.2271687 ], [ 4.0088203, 49.224754 ], [ 4.0115375, 49.2238437 ], [ 4.0134589, 49.2232 ], [ 4.0135025, 49.2226491 ], [ 4.0135156, 49.2224828 ], [ 4.0121405, 49.2213566 ], [ 4.0116121, 49.2208028 ], [ 4.0109348, 49.2200174 ], [ 4.0110906, 49.2199714 ], [ 4.0102026, 49.2188225 ], [ 4.0091998, 49.2175251 ], [ 4.0083836, 49.2162903 ], [ 4.0082953, 49.2161695 ], [ 4.0073235, 49.2148395 ], [ 4.0081142, 49.2145773 ], [ 4.0079076, 49.2142638 ], [ 4.011053, 49.2130647 ], [ 4.0131553, 49.212304 ], [ 4.0134223, 49.2122417 ], [ 4.0137045, 49.2122162 ], [ 4.0137018, 49.2123292 ], [ 4.0175884, 49.2106588 ], [ 4.0177937, 49.2095862 ], [ 4.0177965, 49.2095113 ], [ 4.0178235, 49.2077432 ], [ 4.0178295, 49.2049338 ], [ 4.0178297, 49.2048427 ], [ 4.0178303, 49.2045452 ], [ 4.0219139, 49.204276 ], [ 4.0271169, 49.2039186 ], [ 4.0270781, 49.2049389 ], [ 4.0270747, 49.2050289 ], [ 4.0270482, 49.2057257 ], [ 4.0269667, 49.2079287 ], [ 4.0269008, 49.2089222 ], [ 4.027293, 49.2088924 ], [ 4.0312434, 49.2085925 ], [ 4.0312499, 49.208611 ], [ 4.0312454, 49.2086671 ], [ 4.0311345, 49.2090685 ], [ 4.0307879, 49.2103229 ], [ 4.0305729, 49.211101 ], [ 4.0303512, 49.2119035 ], [ 4.0304111, 49.2123899 ], [ 4.0304672, 49.2128453 ], [ 4.0307111, 49.2137677 ], [ 4.030793, 49.214047 ], [ 4.0308099, 49.2141241 ], [ 4.0310243, 49.214749 ], [ 4.0310636, 49.2148804 ], [ 4.0311967, 49.2151556 ], [ 4.031764, 49.2163281 ], [ 4.0319569, 49.2165868 ], [ 4.0323434, 49.2171051 ], [ 4.0332599, 49.2182493 ], [ 4.0338003, 49.2189194 ], [ 4.0342298, 49.2194991 ], [ 4.0347726, 49.220039 ], [ 4.0355365, 49.220861 ], [ 4.0355136, 49.2208826 ], [ 4.0356617, 49.2210388 ], [ 4.0356897, 49.2210684 ], [ 4.0358853, 49.2208913 ], [ 4.0361413, 49.2206238 ], [ 4.0364102, 49.2203378 ], [ 4.0369228, 49.2198294 ], [ 4.0369151, 49.2198174 ], [ 4.036985, 49.219748 ], [ 4.0373302, 49.2201538 ], [ 4.0377705, 49.2206368 ], [ 4.0379126, 49.2207925 ], [ 4.0382417, 49.2211535 ], [ 4.0383341, 49.2212448 ], [ 4.0384139, 49.2213282 ], [ 4.0392115, 49.2222215 ], [ 4.0399114, 49.2230054 ], [ 4.0404396, 49.2235969 ], [ 4.0425812, 49.2259862 ], [ 4.0425093, 49.2260171 ], [ 4.0422769, 49.226117 ], [ 4.0422937, 49.2261291 ], [ 4.0423606, 49.2261773 ], [ 4.0425178, 49.2262905 ], [ 4.043464, 49.2270068 ], [ 4.0435189, 49.2270469 ], [ 4.0436358, 49.2271324 ], [ 4.0442015, 49.2275453 ], [ 4.0444113, 49.2274239 ], [ 4.0452845, 49.2279508 ], [ 4.0453881, 49.2280352 ], [ 4.0460064, 49.2284486 ], [ 4.0470371, 49.2291151 ], [ 4.0471546, 49.2291911 ], [ 4.0471632, 49.2291487 ], [ 4.047378, 49.2292784 ], [ 4.0475001, 49.2293522 ], [ 4.0475702, 49.2290255 ], [ 4.0475847, 49.2289494 ], [ 4.0476216, 49.2288284 ], [ 4.0476867, 49.2286704 ], [ 4.0477222, 49.2286032 ], [ 4.048072, 49.2280624 ], [ 4.0484051, 49.2275586 ], [ 4.0485795, 49.2272165 ], [ 4.0487218, 49.227037 ], [ 4.0488164, 49.2269601 ], [ 4.0489646, 49.2268921 ], [ 4.0502553, 49.2265941 ], [ 4.0523103, 49.2261816 ], [ 4.0524755, 49.2262151 ], [ 4.052761, 49.2262094 ], [ 4.0533717, 49.2263484 ], [ 4.0534798, 49.2263761 ], [ 4.0542294, 49.2265714 ], [ 4.0543955, 49.226315 ], [ 4.0544347, 49.226229 ], [ 4.0544396, 49.2261846 ], [ 4.0544251, 49.2261349 ], [ 4.0543908, 49.2260928 ], [ 4.0543318, 49.2260525 ], [ 4.0542407, 49.2259793 ], [ 4.0545466, 49.2259519 ], [ 4.0555145, 49.2257731 ], [ 4.0562619, 49.2256046 ], [ 4.0569335, 49.2254683 ], [ 4.0570138, 49.2254539 ], [ 4.0572102, 49.2254069 ], [ 4.0572779, 49.2253971 ], [ 4.0573868, 49.22539 ], [ 4.057499, 49.2253923 ], [ 4.0576405, 49.2253985 ], [ 4.0577598, 49.2254109 ], [ 4.0578177, 49.2254208 ], [ 4.0582053, 49.2254631 ], [ 4.058472, 49.2254712 ], [ 4.0587155, 49.2254896 ], [ 4.0588347, 49.2254906 ], [ 4.0591017, 49.2254603 ], [ 4.0593176, 49.225416 ], [ 4.0594147, 49.2253905 ], [ 4.0596122, 49.2252906 ], [ 4.0596539, 49.2252425 ], [ 4.0598782, 49.2250735 ], [ 4.0600242, 49.2249299 ], [ 4.060207, 49.2247679 ], [ 4.0602361, 49.224748 ], [ 4.0602787, 49.2247273 ], [ 4.0603513, 49.2246762 ], [ 4.0605639, 49.2246104 ], [ 4.0608927, 49.2245232 ], [ 4.0614202, 49.2244101 ], [ 4.0615974, 49.2243758 ], [ 4.0618028, 49.2243211 ], [ 4.0624761, 49.2241243 ], [ 4.0625325, 49.2241124 ], [ 4.0625756, 49.2241078 ], [ 4.0626254, 49.2240983 ], [ 4.0626903, 49.2240944 ], [ 4.0627737, 49.2240872 ], [ 4.062879, 49.2240837 ], [ 4.0630125, 49.2240744 ], [ 4.0631872, 49.2240703 ], [ 4.0633265, 49.224073 ], [ 4.0634845, 49.2240975 ], [ 4.0636331, 49.2241027 ], [ 4.0637029, 49.2240895 ], [ 4.0638724, 49.2240414 ], [ 4.0639607, 49.2240234 ], [ 4.0641457, 49.2239922 ], [ 4.064393, 49.2239454 ], [ 4.0645764, 49.2239252 ], [ 4.0647013, 49.2238928 ], [ 4.0647978, 49.2238517 ], [ 4.0648587, 49.223821 ], [ 4.0649022, 49.2238027 ], [ 4.0649374, 49.2237852 ], [ 4.0650504, 49.2237594 ], [ 4.0652293, 49.2237617 ], [ 4.0653908, 49.2237947 ], [ 4.0656306, 49.2238101 ], [ 4.0666239, 49.2238268 ], [ 4.0668975, 49.2238273 ], [ 4.0671169, 49.2238149 ], [ 4.0672279, 49.2238166 ], [ 4.0674517, 49.223823 ], [ 4.0675485, 49.2238351 ], [ 4.0676291, 49.2238667 ], [ 4.0677029, 49.2239298 ], [ 4.0677644, 49.2239936 ], [ 4.0678636, 49.2241308 ], [ 4.0680132, 49.2243198 ], [ 4.068239, 49.2245564 ], [ 4.068268, 49.2245736 ], [ 4.0683736, 49.2246192 ], [ 4.0684933, 49.2246409 ], [ 4.0690011, 49.2246475 ], [ 4.0694299, 49.2246415 ], [ 4.0698463, 49.2246125 ], [ 4.0707788, 49.2245291 ], [ 4.0713975, 49.2244521 ], [ 4.0717642, 49.224365 ], [ 4.072045, 49.2242941 ], [ 4.0722604, 49.2242069 ], [ 4.0725843, 49.2240226 ], [ 4.0727813, 49.2239017 ], [ 4.0729701, 49.2237794 ], [ 4.073184, 49.223549 ], [ 4.0734463, 49.223312 ], [ 4.0735745, 49.2232008 ], [ 4.0736636, 49.2231158 ], [ 4.0738735, 49.2228889 ], [ 4.0742305, 49.2224817 ], [ 4.0746449, 49.2219706 ], [ 4.0747433, 49.2220979 ], [ 4.0846392, 49.2198198 ], [ 4.0847403, 49.2198147 ], [ 4.0848365, 49.2198069 ], [ 4.0849411, 49.2197867 ], [ 4.0853044, 49.2196769 ], [ 4.0853534, 49.2196742 ], [ 4.0854234, 49.2196864 ], [ 4.0855849, 49.2197419 ], [ 4.085762, 49.2198575 ], [ 4.0858597, 49.2199289 ], [ 4.0860659, 49.2201852 ], [ 4.0861268, 49.2202329 ], [ 4.086252, 49.2202859 ], [ 4.0864482, 49.2203409 ], [ 4.0865214, 49.2203802 ], [ 4.0865877, 49.2204565 ], [ 4.0866771, 49.2206741 ], [ 4.086973, 49.2207855 ], [ 4.087224, 49.2208344 ], [ 4.0874106, 49.2208386 ], [ 4.0877512, 49.2208053 ], [ 4.0881106, 49.2208281 ], [ 4.0882079, 49.2208132 ], [ 4.0885219, 49.220683 ], [ 4.0885545, 49.2206876 ], [ 4.0889882, 49.2211646 ], [ 4.0894464, 49.2217358 ], [ 4.0898515, 49.2223322 ], [ 4.0908704, 49.222089 ], [ 4.0911626, 49.2220126 ], [ 4.0922175, 49.2217057 ], [ 4.0926846, 49.2215787 ], [ 4.0949368, 49.2210195 ], [ 4.0954596, 49.2208933 ], [ 4.0960704, 49.2215255 ], [ 4.0956813, 49.2216713 ], [ 4.0960554, 49.2222008 ], [ 4.0963914, 49.2226202 ], [ 4.096398, 49.2226285 ], [ 4.096317, 49.2226624 ], [ 4.0957277, 49.2230607 ], [ 4.0953328, 49.2232076 ], [ 4.0953777, 49.2232817 ], [ 4.0955034, 49.2234618 ], [ 4.095607, 49.2235995 ], [ 4.0960787, 49.224174 ], [ 4.0964374, 49.224605 ], [ 4.0964896, 49.2246607 ], [ 4.0965745, 49.2247655 ], [ 4.0968336, 49.2251048 ], [ 4.0973972, 49.2257667 ], [ 4.0975359, 49.2259336 ], [ 4.0977796, 49.2262212 ], [ 4.0979036, 49.2263674 ], [ 4.0980366, 49.226478 ], [ 4.0980658, 49.226505 ], [ 4.0981926, 49.2264377 ], [ 4.0982748, 49.2264017 ], [ 4.0989842, 49.226022 ], [ 4.0998274, 49.2255789 ], [ 4.1004813, 49.2252013 ], [ 4.1011351, 49.2248114 ], [ 4.1014541, 49.2246117 ], [ 4.1021931, 49.224133 ], [ 4.1025777, 49.2238466 ], [ 4.1030694, 49.2234716 ], [ 4.1038027, 49.222847 ], [ 4.1037995, 49.2228395 ], [ 4.1038461, 49.2227977 ], [ 4.1038896, 49.2228092 ], [ 4.1040102, 49.222794 ], [ 4.1040888, 49.2227505 ], [ 4.1042521, 49.2225146 ], [ 4.1052111, 49.2217725 ], [ 4.1058969, 49.2212497 ], [ 4.1071302, 49.2202785 ], [ 4.1080692, 49.2195457 ], [ 4.1102668, 49.217848 ], [ 4.1131767, 49.2155646 ], [ 4.113625, 49.2152971 ], [ 4.115005, 49.2142049 ], [ 4.1167378, 49.2128685 ], [ 4.1189599, 49.2151021 ], [ 4.1193228, 49.2151596 ], [ 4.1202567, 49.2156839 ], [ 4.1203851, 49.2159439 ], [ 4.1197638, 49.2164322 ], [ 4.1242612, 49.2200685 ], [ 4.1235484, 49.2202899 ], [ 4.1274705, 49.2236699 ], [ 4.1302563, 49.2259371 ], [ 4.1282725, 49.2271347 ], [ 4.1280835, 49.2273179 ], [ 4.128111, 49.227463 ], [ 4.1194039, 49.2317945 ], [ 4.1143695, 49.2279208 ], [ 4.1047251, 49.231901 ], [ 4.1045008, 49.2319936 ], [ 4.0972023, 49.2343268 ], [ 4.0929129, 49.2354914 ], [ 4.092483, 49.2356073 ], [ 4.091187, 49.2359596 ], [ 4.0901081, 49.236257 ], [ 4.088678, 49.2366496 ], [ 4.0872732, 49.2370432 ], [ 4.0871829, 49.2373525 ], [ 4.0877437, 49.2378704 ], [ 4.0895317, 49.2399266 ], [ 4.0909913, 49.2413882 ], [ 4.0912681, 49.2417325 ], [ 4.091415, 49.2419597 ], [ 4.0923384, 49.2436119 ], [ 4.0935081, 49.2456905 ], [ 4.0953691, 49.2489868 ], [ 4.0882871, 49.2503161 ], [ 4.0837803, 49.2511898 ], [ 4.0852258, 49.2548721 ], [ 4.0855885, 49.2565846 ], [ 4.0860731, 49.2567814 ], [ 4.0876054, 49.2584984 ], [ 4.0893347, 49.2603828 ], [ 4.089376, 49.2604784 ], [ 4.0893562, 49.2605388 ], [ 4.0859926, 49.2601181 ], [ 4.0856315, 49.2600729 ], [ 4.0854867, 49.2600548 ], [ 4.0851063, 49.2600072 ], [ 4.0832877, 49.2597797 ], [ 4.0816904, 49.2595798 ], [ 4.0816327, 49.259847 ], [ 4.0807667, 49.2620321 ], [ 4.0802196, 49.2633884 ], [ 4.0792433, 49.2656703 ], [ 4.0785665, 49.2672053 ], [ 4.0785345, 49.2672586 ], [ 4.0784388, 49.2673886 ], [ 4.0781669, 49.26784 ], [ 4.0781068, 49.268045 ], [ 4.0815426, 49.2686587 ], [ 4.0819187, 49.2687259 ], [ 4.0821451, 49.2688711 ], [ 4.0821803, 49.2688889 ], [ 4.0823954, 49.2689976 ], [ 4.0792599, 49.2721414 ], [ 4.0806302, 49.2726634 ], [ 4.0810829, 49.2728642 ], [ 4.0810594, 49.2728928 ], [ 4.0810138, 49.2729479 ], [ 4.0811069, 49.2729839 ], [ 4.0812207, 49.2730267 ], [ 4.0826524, 49.2735345 ], [ 4.0831723, 49.2737322 ], [ 4.0835828, 49.2739111 ], [ 4.0832035, 49.2743365 ], [ 4.0831008, 49.2744926 ], [ 4.0830186, 49.2746454 ], [ 4.0830004, 49.2746764 ], [ 4.082965, 49.2747366 ], [ 4.0829041, 49.274823 ], [ 4.0818596, 49.2763056 ], [ 4.0818183, 49.2763141 ], [ 4.0813616, 49.27703 ], [ 4.0812908, 49.2770224 ], [ 4.0803775, 49.2769247 ], [ 4.0802387, 49.2769098 ], [ 4.0800763, 49.2768924 ], [ 4.0799862, 49.2768704 ], [ 4.0798842, 49.2768455 ], [ 4.0768137, 49.276736 ], [ 4.0764264, 49.2774097 ], [ 4.0750646, 49.2771491 ], [ 4.074865, 49.2770893 ], [ 4.0743623, 49.2781757 ], [ 4.0719757, 49.2778527 ], [ 4.0707864, 49.2777152 ], [ 4.0706301, 49.2776938 ], [ 4.0696811, 49.2775777 ], [ 4.068675, 49.2773527 ], [ 4.0681512, 49.2773009 ], [ 4.0675589, 49.277134 ], [ 4.067259, 49.2769727 ], [ 4.0669459, 49.2767969 ], [ 4.0633663, 49.2755975 ], [ 4.0631282, 49.2757149 ], [ 4.0614335, 49.2768108 ], [ 4.0588446, 49.2752619 ], [ 4.0583947, 49.2749915 ], [ 4.05841, 49.274975 ], [ 4.0579302, 49.2747024 ], [ 4.0577399, 49.2745947 ], [ 4.0571828, 49.2742793 ], [ 4.0570629, 49.2742114 ], [ 4.056572, 49.2739335 ], [ 4.0562352, 49.2737339 ], [ 4.0561285, 49.2736499 ], [ 4.0560829, 49.2736696 ], [ 4.0548667, 49.2729132 ], [ 4.0545547, 49.2727224 ], [ 4.0536348, 49.2721598 ], [ 4.0525718, 49.2714988 ], [ 4.0523367, 49.2713495 ], [ 4.0518051, 49.2710245 ], [ 4.0512967, 49.2707188 ], [ 4.0512216, 49.2706736 ], [ 4.0511001, 49.2706 ], [ 4.0509575, 49.2705122 ], [ 4.0508894, 49.2704676 ], [ 4.0508529, 49.2704436 ], [ 4.051584, 49.2700006 ], [ 4.0512355, 49.2696763 ], [ 4.0501744, 49.2686906 ], [ 4.0499484, 49.2684792 ], [ 4.0498852, 49.26842 ], [ 4.0498127, 49.2683503 ], [ 4.0482396, 49.2692288 ], [ 4.0481244, 49.2691164 ], [ 4.0479352, 49.2689319 ], [ 4.0478642, 49.2689676 ], [ 4.0474266, 49.2692163 ], [ 4.0474082, 49.2692316 ], [ 4.0473707, 49.2692556 ], [ 4.0472796, 49.2693138 ], [ 4.0469886, 49.2694996 ], [ 4.0468215, 49.2696064 ], [ 4.046737, 49.2696678 ], [ 4.0465405, 49.2698105 ], [ 4.0462527, 49.2700195 ], [ 4.0461414, 49.2699514 ], [ 4.0460177, 49.2700031 ], [ 4.0459553, 49.2700263 ], [ 4.0458423, 49.2699051 ], [ 4.0458132, 49.2698691 ], [ 4.045772, 49.2699019 ], [ 4.0445926, 49.2709909 ], [ 4.0445729, 49.2710091 ], [ 4.0438062, 49.2707423 ], [ 4.0436905, 49.2707159 ], [ 4.0436874, 49.270725 ], [ 4.0436313, 49.2708689 ], [ 4.0435509, 49.271029 ], [ 4.0434782, 49.2711296 ], [ 4.0434007, 49.2712169 ], [ 4.0433183, 49.2712793 ], [ 4.043046, 49.2714225 ], [ 4.0426043, 49.2716354 ], [ 4.0417531, 49.2720358 ], [ 4.0413173, 49.2722408 ], [ 4.0410545, 49.2723612 ], [ 4.0408931, 49.2724341 ], [ 4.0406017, 49.2725716 ], [ 4.040507, 49.2726165 ], [ 4.0402707, 49.2727486 ], [ 4.040226, 49.2727724 ], [ 4.040104, 49.2728422 ], [ 4.03989, 49.2729664 ], [ 4.0398607, 49.272981 ], [ 4.0397514, 49.2730417 ], [ 4.0393012, 49.2732883 ], [ 4.0385726, 49.2736861 ], [ 4.0388197, 49.273886 ], [ 4.0391344, 49.2741359 ], [ 4.0394262, 49.2743075 ], [ 4.0396011, 49.2744548 ], [ 4.0403989, 49.2751265 ], [ 4.0407386, 49.2753759 ], [ 4.0392552, 49.275946 ], [ 4.0390511, 49.2760245 ], [ 4.0384611, 49.2762513 ], [ 4.039104, 49.2771699 ], [ 4.0395455, 49.2777777 ], [ 4.0396294, 49.2777605 ], [ 4.0368834, 49.2787612 ], [ 4.0365841, 49.2788718 ], [ 4.0352754, 49.2793553 ], [ 4.0353202, 49.2796188 ], [ 4.0355445, 49.2806838 ], [ 4.0356416, 49.2817892 ], [ 4.0356628, 49.2823044 ], [ 4.0356489, 49.2823802 ], [ 4.033872, 49.2833703 ], [ 4.034429, 49.2838631 ], [ 4.0338585, 49.2840989 ], [ 4.0328392, 49.2852484 ], [ 4.0322493, 49.285152 ], [ 4.0275145, 49.284373 ], [ 4.0274759, 49.2844118 ], [ 4.0274878, 49.2845088 ], [ 4.0275741, 49.2853057 ], [ 4.0276055, 49.2855959 ], [ 4.0276287, 49.2858097 ], [ 4.0276155, 49.2858157 ], [ 4.0276227, 49.2859442 ], [ 4.0276299, 49.2860208 ], [ 4.0276324, 49.2860471 ], [ 4.0276387, 49.2861087 ], [ 4.0276507, 49.2862263 ], [ 4.0276561, 49.286274 ], [ 4.0276592, 49.2863379 ], [ 4.0276627, 49.2864057 ], [ 4.027677, 49.2865203 ], [ 4.0280055, 49.2902887 ], [ 4.028029, 49.2906119 ], [ 4.028074, 49.2912104 ], [ 4.0282085, 49.2924292 ], [ 4.0287869, 49.2977198 ], [ 4.0285913, 49.2977285 ], [ 4.0259597, 49.2977408 ], [ 4.0234301, 49.2977643 ], [ 4.0207019, 49.2977889 ], [ 4.0180583, 49.2975681 ], [ 4.017999, 49.2976317 ], [ 4.0177327, 49.2991977 ], [ 4.0143529, 49.300802 ], [ 4.014001, 49.3008579 ], [ 4.0127994, 49.3011743 ], [ 4.0120818, 49.301374 ], [ 4.0120692, 49.3013774 ], [ 4.0119039, 49.3015967 ], [ 4.0114444, 49.3022062 ], [ 4.0107049, 49.303187 ], [ 4.0084791, 49.302382 ], [ 4.0012214, 49.2997393 ], [ 3.9980975, 49.2985606 ], [ 3.9980611, 49.2985473 ], [ 3.9966535, 49.2980309 ], [ 3.9973313, 49.2973327 ], [ 3.996239, 49.2969345 ], [ 3.9942439, 49.2962458 ], [ 3.9937587, 49.2960736 ], [ 3.9935839, 49.296012 ], [ 3.9874362, 49.2939051 ], [ 3.9858192, 49.2933503 ] ] ] } }
]
}
