{
"type": "FeatureCollection",
"name": "rivne_ua",
"crs": { "type": "name", "properties": { "name": "urn:ogc:def:crs:OGC:1.3:CRS84" } },
"features": [
{ "type": "Feature", "properties": { "bbox_west": 26.1475993, "bbox_south": 50.5693221, "bbox_east": 26.3409096, "bbox_north": 50.6523081, "place_id": 199734072, "osm_type": "relation", "osm_id": 448930, "lat": 50.6196175, "lon": 26.2513165, "class": "place", "type": "city", "place_rank": 16, "importance": 0.60691343161731059, "addresstype": "city", "name": "Rivne", "display_name": "Rivne, Rivne Urban Hromada, Rivne Raion, Rivne Oblast, Ukraine" }, "geometry": { "type": "Polygon", "coordinates": [ [ [ 26.1475993, 50.6098848 ], [ 26.1481625, 50.6088747 ], [ 26.1481765, 50.6086803 ], [ 26.1489147, 50.6072337 ], [ 26.1525898, 50.6059955 ], [ 26.1624032, 50.6028033 ], [ 26.1652567, 50.6039837 ], [ 26.1661131, 50.6030432 ], [ 26.1662629, 50.6029411 ], [ 26.1665637, 50.602594 ], [ 26.1664503, 50.6024613 ], [ 26.1669299, 50.6015601 ], [ 26.1640031, 50.6003143 ], [ 26.1656548, 50.5972744 ], [ 26.1657758, 50.5971097 ], [ 26.1657922, 50.596991 ], [ 26.1669704, 50.5976308 ], [ 26.1695183, 50.5989626 ], [ 26.1699749, 50.5991422 ], [ 26.1704574, 50.598645 ], [ 26.1705827, 50.5987107 ], [ 26.1720049, 50.5990272 ], [ 26.1749945, 50.5995401 ], [ 26.1752289, 50.5990157 ], [ 26.1766629, 50.5991292 ], [ 26.1769731, 50.59907 ], [ 26.1773755, 50.598965 ], [ 26.1777543, 50.5981424 ], [ 26.1790701, 50.5983968 ], [ 26.1793408, 50.5974888 ], [ 26.1808413, 50.5977368 ], [ 26.181233, 50.5978568 ], [ 26.1815045, 50.5978453 ], [ 26.1816671, 50.5978992 ], [ 26.1826205, 50.5978464 ], [ 26.1832471, 50.5975089 ], [ 26.1837498, 50.5973371 ], [ 26.1840202, 50.5971489 ], [ 26.1851874, 50.5972721 ], [ 26.1859471, 50.5972343 ], [ 26.1859062, 50.5962809 ], [ 26.1866695, 50.5960649 ], [ 26.1882653, 50.5969412 ], [ 26.1891112, 50.5962042 ], [ 26.1900561, 50.5969539 ], [ 26.1908766, 50.5973812 ], [ 26.1910847, 50.597418 ], [ 26.191025, 50.5979867 ], [ 26.1910292, 50.5980684 ], [ 26.1906031, 50.5981607 ], [ 26.1902101, 50.5979146 ], [ 26.1892754, 50.5981513 ], [ 26.1932712, 50.5996642 ], [ 26.198558, 50.6000571 ], [ 26.201498, 50.6003883 ], [ 26.2027204, 50.6008755 ], [ 26.205991, 50.6023756 ], [ 26.207274, 50.6003778 ], [ 26.2076103, 50.6000865 ], [ 26.2090158, 50.5995635 ], [ 26.2096096, 50.5994761 ], [ 26.2180407, 50.5986038 ], [ 26.226378, 50.5977542 ], [ 26.2280878, 50.5976115 ], [ 26.2324765, 50.5978708 ], [ 26.2324528, 50.5980302 ], [ 26.2324132, 50.5983332 ], [ 26.2322286, 50.5997498 ], [ 26.232227, 50.6002877 ], [ 26.2321106, 50.6011064 ], [ 26.2332336, 50.6015472 ], [ 26.2340367, 50.6011989 ], [ 26.234034, 50.6005784 ], [ 26.2343411, 50.6005003 ], [ 26.234368, 50.6000416 ], [ 26.2343898, 50.5999155 ], [ 26.234419, 50.5995014 ], [ 26.2343884, 50.5981939 ], [ 26.2344078, 50.5980314 ], [ 26.2341104, 50.5979941 ], [ 26.2341207, 50.5978464 ], [ 26.234702, 50.5979016 ], [ 26.2347273, 50.5975612 ], [ 26.2341804, 50.5975111 ], [ 26.2345666, 50.5955333 ], [ 26.2346475, 50.5952224 ], [ 26.2348496, 50.5949403 ], [ 26.2354491, 50.5931666 ], [ 26.2369206, 50.5897261 ], [ 26.2374094, 50.5884078 ], [ 26.2383862, 50.5867074 ], [ 26.2393758, 50.584617 ], [ 26.2399701, 50.5848177 ], [ 26.242732, 50.5808846 ], [ 26.2424851, 50.5805541 ], [ 26.2437458, 50.5790303 ], [ 26.2458976, 50.5768228 ], [ 26.2464467, 50.5771053 ], [ 26.2479979, 50.5754311 ], [ 26.2476436, 50.5753194 ], [ 26.2505323, 50.5721422 ], [ 26.2509085, 50.5712971 ], [ 26.2511373, 50.5707805 ], [ 26.2512692, 50.5708533 ], [ 26.2543746, 50.5713625 ], [ 26.2561046, 50.5746491 ], [ 26.2562784, 50.5746557 ], [ 26.2564167, 50.5745431 ], [ 26.2566878, 50.5744419 ], [ 26.2568468, 50.5743435 ], [ 26.2569257, 50.5741729 ], [ 26.2568922, 50.5740658 ], [ 26.2567669, 50.5739025 ], [ 26.2567929, 50.5737982 ], [ 26.2568952, 50.573711 ], [ 26.2570824, 50.5736697 ], [ 26.257305, 50.5737158 ], [ 26.2574374, 50.5738411 ], [ 26.2575606, 50.5739005 ], [ 26.2577668, 50.5738678 ], [ 26.2579938, 50.5737608 ], [ 26.2581866, 50.5735489 ], [ 26.2583611, 50.5733337 ], [ 26.2585811, 50.5732236 ], [ 26.2588929, 50.5731081 ], [ 26.2594387, 50.5730384 ], [ 26.2598837, 50.5728734 ], [ 26.260075, 50.5728825 ], [ 26.2603031, 50.5728521 ], [ 26.260377, 50.5727766 ], [ 26.2603804, 50.572587 ], [ 26.2604523, 50.5722868 ], [ 26.2603436, 50.5720725 ], [ 26.2603381, 50.5719633 ], [ 26.2604269, 50.5718917 ], [ 26.2606335, 50.5718987 ], [ 26.26082, 50.5718686 ], [ 26.2609215, 50.5718037 ], [ 26.2608723, 50.5716545 ], [ 26.2607866, 50.5714556 ], [ 26.2608532, 50.5713403 ], [ 26.2610184, 50.5713093 ], [ 26.2609704, 50.5711665 ], [ 26.2609602, 50.5709588 ], [ 26.2613175, 50.5708806 ], [ 26.2623577, 50.570749 ], [ 26.262584, 50.5704949 ], [ 26.2627389, 50.5701621 ], [ 26.2627247, 50.5700175 ], [ 26.2627775, 50.5699295 ], [ 26.2629017, 50.5698704 ], [ 26.2630016, 50.569869 ], [ 26.2631592, 50.5700244 ], [ 26.2632323, 50.5701269 ], [ 26.2633051, 50.5701909 ], [ 26.2634059, 50.5702099 ], [ 26.2637234, 50.5701524 ], [ 26.2638886, 50.5701305 ], [ 26.2641013, 50.5702041 ], [ 26.2641986, 50.5703235 ], [ 26.2642453, 50.5704476 ], [ 26.2645181, 50.5705217 ], [ 26.2648821, 50.5704651 ], [ 26.26526, 50.5705762 ], [ 26.2654316, 50.5705938 ], [ 26.2655509, 50.5705539 ], [ 26.2658405, 50.5703495 ], [ 26.2660995, 50.5703704 ], [ 26.2662007, 50.5704051 ], [ 26.2662281, 50.5704818 ], [ 26.2660877, 50.5706822 ], [ 26.2660797, 50.570781 ], [ 26.2661328, 50.5708527 ], [ 26.2663802, 50.5709192 ], [ 26.2666745, 50.57092 ], [ 26.2669881, 50.5708218 ], [ 26.2675861, 50.5705004 ], [ 26.2683314, 50.5702198 ], [ 26.2689394, 50.570254 ], [ 26.2691406, 50.5702553 ], [ 26.2692736, 50.5702291 ], [ 26.2695243, 50.5699771 ], [ 26.2698519, 50.5699676 ], [ 26.2700598, 50.570039 ], [ 26.2702377, 50.5700196 ], [ 26.270318, 50.5699397 ], [ 26.2703, 50.5698253 ], [ 26.2701472, 50.5695848 ], [ 26.2701928, 50.5694524 ], [ 26.2704043, 50.5693861 ], [ 26.2706403, 50.5694292 ], [ 26.2707924, 50.569544 ], [ 26.2709535, 50.5695783 ], [ 26.2713274, 50.5695612 ], [ 26.2717377, 50.5695932 ], [ 26.2719492, 50.5695761 ], [ 26.2722522, 50.5693801 ], [ 26.2727076, 50.5693504 ], [ 26.2728843, 50.5693221 ], [ 26.2730337, 50.569473 ], [ 26.2731193, 50.5695857 ], [ 26.2732155, 50.5696903 ], [ 26.2745243, 50.5711126 ], [ 26.2751828, 50.571894 ], [ 26.2753828, 50.5721434 ], [ 26.2775952, 50.5750654 ], [ 26.2867084, 50.5741243 ], [ 26.2877073, 50.5743366 ], [ 26.2893594, 50.5747334 ], [ 26.2905278, 50.5751658 ], [ 26.291538, 50.5754068 ], [ 26.2923929, 50.5755383 ], [ 26.2925047, 50.576895 ], [ 26.2928705, 50.5815542 ], [ 26.2930475, 50.5844561 ], [ 26.2935486, 50.5898412 ], [ 26.2935918, 50.5900107 ], [ 26.2961559, 50.5899465 ], [ 26.2961696, 50.5885791 ], [ 26.2971982, 50.5882261 ], [ 26.299023, 50.587882 ], [ 26.3002857, 50.5877998 ], [ 26.3007802, 50.5876649 ], [ 26.3009389, 50.5876122 ], [ 26.3016373, 50.5875869 ], [ 26.3020875, 50.5875552 ], [ 26.3033734, 50.587496 ], [ 26.3039508, 50.5874605 ], [ 26.3045282, 50.5874015 ], [ 26.3052884, 50.5872805 ], [ 26.3061177, 50.5871586 ], [ 26.3063592, 50.5871414 ], [ 26.3066949, 50.5871471 ], [ 26.307059, 50.5871999 ], [ 26.3072226, 50.5872496 ], [ 26.3074088, 50.587349 ], [ 26.3082577, 50.5880094 ], [ 26.3084331, 50.5882485 ], [ 26.3084252, 50.5885157 ], [ 26.3082925, 50.5888493 ], [ 26.3079512, 50.5892576 ], [ 26.3077419, 50.5893902 ], [ 26.3073448, 50.5893999 ], [ 26.3071661, 50.5894228 ], [ 26.3069413, 50.5894896 ], [ 26.3009654, 50.5931066 ], [ 26.3018939, 50.5937379 ], [ 26.3001566, 50.5947184 ], [ 26.3006273, 50.595044 ], [ 26.3001151, 50.59532 ], [ 26.2990802, 50.5958806 ], [ 26.2984979, 50.5954869 ], [ 26.2982531, 50.5953053 ], [ 26.2974564, 50.5957294 ], [ 26.2971931, 50.595543 ], [ 26.296602, 50.5951622 ], [ 26.2959265, 50.595547 ], [ 26.2971776, 50.5964478 ], [ 26.2970823, 50.5965014 ], [ 26.2968941, 50.596357 ], [ 26.2950668, 50.5974093 ], [ 26.2952529, 50.5975618 ], [ 26.2939874, 50.5982585 ], [ 26.293848, 50.5982361 ], [ 26.2938485, 50.5985393 ], [ 26.2938633, 50.5988441 ], [ 26.293893, 50.5994528 ], [ 26.2941166, 50.5996683 ], [ 26.2942123, 50.5996851 ], [ 26.2986878, 50.597167 ], [ 26.298869, 50.5972875 ], [ 26.2989221, 50.5973523 ], [ 26.299451, 50.5976715 ], [ 26.2996562, 50.5978119 ], [ 26.2996533, 50.5978466 ], [ 26.2998036, 50.597935 ], [ 26.3002422, 50.5976735 ], [ 26.3006341, 50.5974065 ], [ 26.3009799, 50.5972017 ], [ 26.3016428, 50.5966586 ], [ 26.3022122, 50.5963035 ], [ 26.3022946, 50.5962571 ], [ 26.302606, 50.5961299 ], [ 26.3031652, 50.5958647 ], [ 26.3036112, 50.595574 ], [ 26.3044316, 50.5951355 ], [ 26.3047964, 50.5950113 ], [ 26.304948, 50.5949931 ], [ 26.3050867, 50.5949695 ], [ 26.3053917, 50.5994337 ], [ 26.3069236, 50.5993957 ], [ 26.3091927, 50.5993394 ], [ 26.3110669, 50.5992241 ], [ 26.3119475, 50.5991855 ], [ 26.3123434, 50.599119 ], [ 26.3128917, 50.5991379 ], [ 26.3134006, 50.5992065 ], [ 26.3135349, 50.5991961 ], [ 26.3140139, 50.5991973 ], [ 26.3141973, 50.599245 ], [ 26.3149698, 50.5992132 ], [ 26.3149858, 50.5993588 ], [ 26.31514, 50.6015343 ], [ 26.3152779, 50.6028713 ], [ 26.3145825, 50.6029054 ], [ 26.3135732, 50.6029745 ], [ 26.3128015, 50.6030014 ], [ 26.3099363, 50.6030662 ], [ 26.3097867, 50.6005126 ], [ 26.3096797, 50.5994729 ], [ 26.3076905, 50.5995168 ], [ 26.3056821, 50.5995659 ], [ 26.3002195, 50.599735 ], [ 26.295033, 50.5999052 ], [ 26.2941876, 50.5999815 ], [ 26.2940236, 50.6000323 ], [ 26.293434, 50.6003334 ], [ 26.2929876, 50.6005516 ], [ 26.2924255, 50.6007738 ], [ 26.2909785, 50.6011425 ], [ 26.2884522, 50.6016751 ], [ 26.2884186, 50.6020119 ], [ 26.2883223, 50.602037 ], [ 26.2894038, 50.6042832 ], [ 26.2901663, 50.6057007 ], [ 26.2907642, 50.6068477 ], [ 26.2928706, 50.6092119 ], [ 26.2944202, 50.6092014 ], [ 26.2963894, 50.6092019 ], [ 26.2998325, 50.6090623 ], [ 26.3027572, 50.6089668 ], [ 26.3056184, 50.6089215 ], [ 26.3067942, 50.6089688 ], [ 26.3078475, 50.6089724 ], [ 26.3078691, 50.6074052 ], [ 26.3087995, 50.6074183 ], [ 26.310574, 50.6076882 ], [ 26.3109815, 50.6089816 ], [ 26.3124043, 50.6089863 ], [ 26.315201, 50.6089956 ], [ 26.3174841, 50.6088942 ], [ 26.3196107, 50.6087998 ], [ 26.3204162, 50.6087309 ], [ 26.3227969, 50.6086218 ], [ 26.3235986, 50.6085851 ], [ 26.3235063, 50.6088231 ], [ 26.3257097, 50.608651 ], [ 26.3275652, 50.6084654 ], [ 26.3296971, 50.60823 ], [ 26.3293812, 50.6034966 ], [ 26.3264457, 50.6035518 ], [ 26.328158, 50.5989458 ], [ 26.3265179, 50.598995 ], [ 26.3262656, 50.5998157 ], [ 26.3239943, 50.5999247 ], [ 26.3240049, 50.599753 ], [ 26.3235162, 50.5997538 ], [ 26.3235075, 50.5990469 ], [ 26.3265307, 50.598968 ], [ 26.3272454, 50.5989465 ], [ 26.3281725, 50.5989188 ], [ 26.3299756, 50.5988707 ], [ 26.3301622, 50.6034818 ], [ 26.3304809, 50.6082414 ], [ 26.3322645, 50.6081881 ], [ 26.3357696, 50.6081074 ], [ 26.3357025, 50.6099528 ], [ 26.3358019, 50.6105113 ], [ 26.3368404, 50.6103962 ], [ 26.3376159, 50.6103529 ], [ 26.3379088, 50.6103366 ], [ 26.3381689, 50.6103383 ], [ 26.3392852, 50.6103455 ], [ 26.3406205, 50.6106664 ], [ 26.3409096, 50.6124989 ], [ 26.3409026, 50.6125496 ], [ 26.340885, 50.612677 ], [ 26.3407329, 50.6137806 ], [ 26.3402417, 50.6138152 ], [ 26.3381671, 50.6139949 ], [ 26.3358969, 50.6141614 ], [ 26.3325412, 50.6143973 ], [ 26.3323885, 50.6137421 ], [ 26.326967, 50.6142116 ], [ 26.3236296, 50.6145182 ], [ 26.3236111, 50.6144945 ], [ 26.3236043, 50.6144667 ], [ 26.3222261, 50.6145803 ], [ 26.3210908, 50.6174505 ], [ 26.3211784, 50.6178811 ], [ 26.3210899, 50.6178947 ], [ 26.314245, 50.6185353 ], [ 26.3033469, 50.6194965 ], [ 26.3007241, 50.6197338 ], [ 26.2963641, 50.6200594 ], [ 26.2950073, 50.6201459 ], [ 26.2951035, 50.6206293 ], [ 26.2957314, 50.6245288 ], [ 26.2980806, 50.6245648 ], [ 26.2980213, 50.625835 ], [ 26.2966053, 50.6258089 ], [ 26.2927802, 50.6266547 ], [ 26.2927361, 50.6272461 ], [ 26.2938678, 50.6272274 ], [ 26.2954643, 50.6266551 ], [ 26.2967894, 50.6267505 ], [ 26.2971456, 50.6265775 ], [ 26.2986412, 50.6265516 ], [ 26.2998956, 50.6267887 ], [ 26.3004024, 50.6269076 ], [ 26.3006604, 50.6269567 ], [ 26.3011003, 50.6270164 ], [ 26.3016495, 50.6271866 ], [ 26.3018407, 50.6272295 ], [ 26.3019793, 50.627248 ], [ 26.3020942, 50.6272299 ], [ 26.3022151, 50.6271989 ], [ 26.3030134, 50.6270155 ], [ 26.3034105, 50.6269766 ], [ 26.3034776, 50.6269432 ], [ 26.3035743, 50.6267031 ], [ 26.3036561, 50.6265876 ], [ 26.3038382, 50.6264997 ], [ 26.3040872, 50.6264423 ], [ 26.304532, 50.6264278 ], [ 26.3049575, 50.6264772 ], [ 26.3050719, 50.6265717 ], [ 26.3050953, 50.6267087 ], [ 26.3050448, 50.6268115 ], [ 26.3049942, 50.6268576 ], [ 26.3051375, 50.6269065 ], [ 26.3054194, 50.6269648 ], [ 26.3058019, 50.6270141 ], [ 26.30639, 50.6270516 ], [ 26.3066528, 50.6271159 ], [ 26.3067524, 50.6273199 ], [ 26.3067367, 50.6275985 ], [ 26.3075426, 50.6274979 ], [ 26.3089707, 50.6291918 ], [ 26.3097421, 50.6299134 ], [ 26.3116416, 50.6304637 ], [ 26.3122724, 50.6316159 ], [ 26.3146949, 50.6318823 ], [ 26.3133775, 50.6354322 ], [ 26.312805, 50.6371074 ], [ 26.312528, 50.6378056 ], [ 26.3120428, 50.6377394 ], [ 26.309508, 50.6374783 ], [ 26.3092867, 50.6374475 ], [ 26.3094338, 50.6366964 ], [ 26.3095445, 50.6355562 ], [ 26.3089922, 50.6353152 ], [ 26.3076378, 50.6345809 ], [ 26.3063896, 50.6337833 ], [ 26.3064189, 50.6336938 ], [ 26.3065194, 50.6335778 ], [ 26.3067418, 50.6334371 ], [ 26.3070425, 50.6332882 ], [ 26.3074564, 50.6331008 ], [ 26.3077962, 50.6329824 ], [ 26.3079703, 50.6329481 ], [ 26.3080192, 50.6329814 ], [ 26.3080024, 50.6330917 ], [ 26.3080021, 50.6331645 ], [ 26.3080412, 50.633202 ], [ 26.3081229, 50.6332229 ], [ 26.3085385, 50.633182 ], [ 26.3088102, 50.6331242 ], [ 26.3088857, 50.6330744 ], [ 26.3089319, 50.6329725 ], [ 26.3088548, 50.6326125 ], [ 26.3085799, 50.6326516 ], [ 26.3081143, 50.6327821 ], [ 26.3078329, 50.6322218 ], [ 26.3075304, 50.6322773 ], [ 26.3055514, 50.6327741 ], [ 26.304172, 50.6314093 ], [ 26.3041392, 50.6314151 ], [ 26.3040204, 50.6312961 ], [ 26.3039659, 50.6312989 ], [ 26.3039453, 50.6312747 ], [ 26.3036314, 50.6312742 ], [ 26.3031781, 50.6313095 ], [ 26.3025749, 50.6313333 ], [ 26.3014225, 50.6314666 ], [ 26.3004154, 50.6315716 ], [ 26.2997767, 50.631605 ], [ 26.2995873, 50.6315977 ], [ 26.2990252, 50.6314143 ], [ 26.2981095, 50.6312439 ], [ 26.29829, 50.6306529 ], [ 26.2983491, 50.6298113 ], [ 26.2973988, 50.6298157 ], [ 26.2973841, 50.6293698 ], [ 26.2965694, 50.6291348 ], [ 26.2965178, 50.6288576 ], [ 26.2964698, 50.6287124 ], [ 26.2964556, 50.6286475 ], [ 26.2964606, 50.6286198 ], [ 26.2947361, 50.6286988 ], [ 26.2949486, 50.6294113 ], [ 26.2867582, 50.6295995 ], [ 26.2883606, 50.6325535 ], [ 26.2839299, 50.6359177 ], [ 26.28398, 50.6361349 ], [ 26.2833875, 50.6365997 ], [ 26.2830641, 50.6366015 ], [ 26.2806708, 50.638439 ], [ 26.2764957, 50.641601 ], [ 26.2760904, 50.6419126 ], [ 26.2774697, 50.6426085 ], [ 26.2816517, 50.6449404 ], [ 26.2797444, 50.6464012 ], [ 26.2786509, 50.6472175 ], [ 26.277933, 50.647749 ], [ 26.2764522, 50.6488721 ], [ 26.2739484, 50.6474946 ], [ 26.2735766, 50.647785 ], [ 26.2726781, 50.6484625 ], [ 26.2726931, 50.6484706 ], [ 26.2721972, 50.6488446 ], [ 26.26918, 50.6472855 ], [ 26.2690852, 50.64724 ], [ 26.2689379, 50.6472246 ], [ 26.2685456, 50.6471905 ], [ 26.2680649, 50.6471912 ], [ 26.26806, 50.6471803 ], [ 26.2677505, 50.6471802 ], [ 26.2599562, 50.6473369 ], [ 26.259759, 50.6473288 ], [ 26.2594205, 50.6474015 ], [ 26.2578021, 50.6475457 ], [ 26.2577956, 50.6489805 ], [ 26.2561081, 50.6490233 ], [ 26.2548925, 50.6490745 ], [ 26.2544271, 50.6499895 ], [ 26.2542884, 50.6505143 ], [ 26.2540742, 50.6510373 ], [ 26.2535407, 50.6510143 ], [ 26.252914, 50.6523081 ], [ 26.2523877, 50.6517281 ], [ 26.2519453, 50.651267 ], [ 26.2515993, 50.6506365 ], [ 26.2510089, 50.6454916 ], [ 26.2518343, 50.6454436 ], [ 26.2517738, 50.6454984 ], [ 26.2528357, 50.6454094 ], [ 26.2526753, 50.645358 ], [ 26.2522591, 50.6451389 ], [ 26.2500312, 50.6432791 ], [ 26.2496597, 50.6431791 ], [ 26.2492373, 50.6430344 ], [ 26.2482852, 50.642359 ], [ 26.2482055, 50.6425978 ], [ 26.247613, 50.6434156 ], [ 26.247605, 50.6437769 ], [ 26.2471116, 50.6440835 ], [ 26.2465572, 50.6441311 ], [ 26.245388, 50.6438155 ], [ 26.2454028, 50.6437102 ], [ 26.2448555, 50.6431008 ], [ 26.2452461, 50.6428989 ], [ 26.2438709, 50.6418234 ], [ 26.2437255, 50.6417446 ], [ 26.2430533, 50.6415647 ], [ 26.2433211, 50.6418364 ], [ 26.2428143, 50.6420602 ], [ 26.2422709, 50.6423997 ], [ 26.2418471, 50.6426179 ], [ 26.2421807, 50.6431608 ], [ 26.2422015, 50.6434748 ], [ 26.2420881, 50.6436957 ], [ 26.2420271, 50.6438636 ], [ 26.2420401, 50.6438617 ], [ 26.2420238, 50.6438987 ], [ 26.2420635, 50.643962 ], [ 26.242051, 50.6439641 ], [ 26.2422522, 50.6444522 ], [ 26.2426425, 50.6448883 ], [ 26.2431567, 50.645239 ], [ 26.2440987, 50.6455496 ], [ 26.2444561, 50.6456342 ], [ 26.2454189, 50.6460287 ], [ 26.2455861, 50.6462217 ], [ 26.2456747, 50.646443 ], [ 26.2457065, 50.6467855 ], [ 26.2456485, 50.6471421 ], [ 26.2455703, 50.6474185 ], [ 26.2442491, 50.6486229 ], [ 26.2440935, 50.6488435 ], [ 26.2432887, 50.6498407 ], [ 26.2430397, 50.6502948 ], [ 26.2430319, 50.6504089 ], [ 26.2429674, 50.6505843 ], [ 26.2428608, 50.6506361 ], [ 26.2424489, 50.6513849 ], [ 26.241185, 50.6510861 ], [ 26.2409529, 50.6506226 ], [ 26.2408874, 50.650502 ], [ 26.2377413, 50.6502855 ], [ 26.2369464, 50.6511235 ], [ 26.2357689, 50.6510882 ], [ 26.2358111, 50.6505824 ], [ 26.2358807, 50.6504253 ], [ 26.2359351, 50.6502705 ], [ 26.235185, 50.6502031 ], [ 26.2344268, 50.6500651 ], [ 26.2320818, 50.6498387 ], [ 26.2310041, 50.6493613 ], [ 26.2304221, 50.6491168 ], [ 26.2299994, 50.6494415 ], [ 26.22996, 50.6494811 ], [ 26.2289884, 50.6503223 ], [ 26.2286172, 50.6506357 ], [ 26.2278228, 50.6503096 ], [ 26.2276577, 50.6503991 ], [ 26.2271311, 50.6508906 ], [ 26.2266476, 50.650701 ], [ 26.2270801, 50.6500832 ], [ 26.2249001, 50.6492283 ], [ 26.2255217, 50.6482272 ], [ 26.2258391, 50.6478846 ], [ 26.2231489, 50.646778 ], [ 26.2234924, 50.6463145 ], [ 26.2248121, 50.6453614 ], [ 26.22421, 50.6452334 ], [ 26.2189714, 50.6446525 ], [ 26.2162924, 50.6444642 ], [ 26.2154665, 50.6446613 ], [ 26.2144239, 50.6451755 ], [ 26.2142997, 50.6452589 ], [ 26.2135211, 50.6458193 ], [ 26.2132171, 50.6459562 ], [ 26.2127748, 50.6462 ], [ 26.2127241, 50.6463593 ], [ 26.2107627, 50.6476503 ], [ 26.2107056, 50.6476572 ], [ 26.2100608, 50.6476561 ], [ 26.2091533, 50.6476658 ], [ 26.2091372, 50.647248 ], [ 26.2088122, 50.6472575 ], [ 26.2045931, 50.6473253 ], [ 26.2043599, 50.6473291 ], [ 26.2043366, 50.6473116 ], [ 26.2043234, 50.6468545 ], [ 26.2042576, 50.6454376 ], [ 26.2012961, 50.6455051 ], [ 26.2011884, 50.6445605 ], [ 26.2002444, 50.6445718 ], [ 26.199331, 50.6451181 ], [ 26.1981143, 50.6459729 ], [ 26.1963755, 50.6468081 ], [ 26.1962653, 50.6467373 ], [ 26.1959811, 50.64656 ], [ 26.1933192, 50.6448995 ], [ 26.1938822, 50.6445035 ], [ 26.1940507, 50.6439147 ], [ 26.1944278, 50.6436566 ], [ 26.193186, 50.6430286 ], [ 26.1930159, 50.6430031 ], [ 26.1894137, 50.6412787 ], [ 26.1903587, 50.6404224 ], [ 26.1915079, 50.6409856 ], [ 26.1920424, 50.6405345 ], [ 26.1962317, 50.6374738 ], [ 26.1949839, 50.6367269 ], [ 26.196814, 50.6353808 ], [ 26.1969796, 50.635463 ], [ 26.197886, 50.6348346 ], [ 26.1979996, 50.6345231 ], [ 26.1982582, 50.6345188 ], [ 26.1983834, 50.6340419 ], [ 26.1990041, 50.6341382 ], [ 26.1991614, 50.6336772 ], [ 26.1997533, 50.6337608 ], [ 26.2002466, 50.6325639 ], [ 26.2011803, 50.6300738 ], [ 26.2012059, 50.6300197 ], [ 26.2009334, 50.6299738 ], [ 26.2007264, 50.6298827 ], [ 26.2000152, 50.6297903 ], [ 26.1993219, 50.6296867 ], [ 26.198937, 50.6295876 ], [ 26.1986112, 50.6295188 ], [ 26.1983562, 50.6295257 ], [ 26.1961526, 50.6291835 ], [ 26.1963398, 50.6286657 ], [ 26.1914761, 50.6279083 ], [ 26.1884106, 50.6274689 ], [ 26.1825969, 50.6265862 ], [ 26.1838492, 50.6231317 ], [ 26.1854645, 50.6187722 ], [ 26.1840789, 50.6185587 ], [ 26.1737264, 50.6170435 ], [ 26.1665994, 50.6159866 ], [ 26.1591529, 50.6149191 ], [ 26.1520776, 50.6137036 ], [ 26.1521819, 50.6115281 ], [ 26.149073, 50.6110587 ], [ 26.1475993, 50.6098848 ] ] ] } }
]
}
