{
"type": "FeatureCollection",
"name": "slovyansk_ua",
"crs": { "type": "name", "properties": { "name": "urn:ogc:def:crs:OGC:1.3:CRS84" } },
"features": [
{ "type": "Feature", "properties": { }, "geometry": { "type": "Polygon", "coordinates": [ [ [ 37.5088959, 48.857324 ], [ 37.5111054, 48.8529449 ], [ 37.5161695, 48.8530155 ], [ 37.5155042, 48.8540108 ], [ 37.5202381, 48.8539154 ], [ 37.5218739, 48.8539071 ], [ 37.5222038, 48.8538012 ], [ 37.524379, 48.8508892 ], [ 37.5246902, 48.8503738 ], [ 37.5248373, 48.8497104 ], [ 37.5252105, 48.8496572 ], [ 37.5256289, 48.8489512 ], [ 37.5263254, 48.8474453 ], [ 37.52678, 48.8461943 ], [ 37.5280894, 48.8461387 ], [ 37.5283494, 48.8437947 ], [ 37.5276036, 48.842327 ], [ 37.5276298, 48.842167 ], [ 37.5279148, 48.8381432 ], [ 37.5280945, 48.8378378 ], [ 37.528114, 48.8375265 ], [ 37.5284324, 48.837573 ], [ 37.5286899, 48.837573 ], [ 37.5291834, 48.8374318 ], [ 37.5294678, 48.8374141 ], [ 37.5296559, 48.8373 ], [ 37.5319056, 48.8373779 ], [ 37.534939, 48.8345454 ], [ 37.540388, 48.8323632 ], [ 37.5410138, 48.8307389 ], [ 37.5412215, 48.8294935 ], [ 37.5407754, 48.8277718 ], [ 37.5407539, 48.8273904 ], [ 37.54099, 48.8269808 ], [ 37.5414191, 48.8265711 ], [ 37.5421058, 48.8262179 ], [ 37.5427495, 48.8260626 ], [ 37.5432001, 48.8258507 ], [ 37.5431572, 48.8253986 ], [ 37.5427066, 48.8252715 ], [ 37.5424062, 48.8249465 ], [ 37.5422345, 48.8244662 ], [ 37.5423204, 48.823661 ], [ 37.5426422, 48.8231241 ], [ 37.5432645, 48.822446 ], [ 37.544552, 48.8221635 ], [ 37.5454999, 48.8218029 ], [ 37.5478564, 48.8205953 ], [ 37.5485967, 48.8200655 ], [ 37.5484069, 48.8199068 ], [ 37.5461806, 48.8204826 ], [ 37.5448288, 48.8200446 ], [ 37.544185, 48.8193241 ], [ 37.5443782, 48.8188861 ], [ 37.5447643, 48.8186874 ], [ 37.546245, 48.8179253 ], [ 37.5461874, 48.8177433 ], [ 37.5458266, 48.8166043 ], [ 37.540708, 48.8169255 ], [ 37.5377263, 48.8167385 ], [ 37.5357414, 48.8139903 ], [ 37.5394268, 48.8132661 ], [ 37.5396682, 48.8131707 ], [ 37.5411059, 48.8116729 ], [ 37.5418998, 48.8116022 ], [ 37.5434877, 48.8119979 ], [ 37.5481869, 48.8138772 ], [ 37.5491203, 48.8141104 ], [ 37.550397, 48.8151207 ], [ 37.5506223, 48.8154386 ], [ 37.5508369, 48.8162016 ], [ 37.5510086, 48.8165265 ], [ 37.5508369, 48.8170352 ], [ 37.550794, 48.8173602 ], [ 37.550338, 48.8178723 ], [ 37.5498394, 48.8178682 ], [ 37.5497906, 48.8178678 ], [ 37.5494797, 48.8178653 ], [ 37.5494392, 48.817877 ], [ 37.5491761, 48.8179532 ], [ 37.5490774, 48.8179818 ], [ 37.549071, 48.8180221 ], [ 37.5502924, 48.8182803 ], [ 37.5504877, 48.8188027 ], [ 37.5503807, 48.8190134 ], [ 37.5505928, 48.8202654 ], [ 37.5509254, 48.8207528 ], [ 37.5509898, 48.8211484 ], [ 37.5514833, 48.8217983 ], [ 37.5518696, 48.8221091 ], [ 37.5523738, 48.8223139 ], [ 37.5535325, 48.8224976 ], [ 37.5583082, 48.8223463 ], [ 37.5586019, 48.8253619 ], [ 37.5607366, 48.8253438 ], [ 37.5611129, 48.8254268 ], [ 37.5620564, 48.8254106 ], [ 37.5630469, 48.8254887 ], [ 37.5657473, 48.8260611 ], [ 37.5678852, 48.827258 ], [ 37.5680057, 48.8271665 ], [ 37.570247, 48.8267528 ], [ 37.5705963, 48.8265652 ], [ 37.5712642, 48.8263954 ], [ 37.5733138, 48.8256732 ], [ 37.5757412, 48.8247297 ], [ 37.5766425, 48.8242211 ], [ 37.5778119, 48.8233805 ], [ 37.5782107, 48.8229822 ], [ 37.5789834, 48.8217864 ], [ 37.5793503, 48.8207785 ], [ 37.5823823, 48.8226459 ], [ 37.584158, 48.8226565 ], [ 37.5856125, 48.8229961 ], [ 37.5857305, 48.8225793 ], [ 37.5857673, 48.8219007 ], [ 37.5852738, 48.8215405 ], [ 37.5859122, 48.8205267 ], [ 37.5859424, 48.8197068 ], [ 37.5859325, 48.8186529 ], [ 37.5858478, 48.8185488 ], [ 37.5858907, 48.8182379 ], [ 37.5857781, 48.8180436 ], [ 37.5860838, 48.8178564 ], [ 37.5864608, 48.8179556 ], [ 37.5868137, 48.8178359 ], [ 37.5872117, 48.8177154 ], [ 37.5875658, 48.8176942 ], [ 37.5878447, 48.817899 ], [ 37.5878759, 48.8181891 ], [ 37.5879939, 48.8184011 ], [ 37.5882836, 48.8184999 ], [ 37.5886924, 48.8184784 ], [ 37.5892932, 48.8184642 ], [ 37.5899036, 48.8185988 ], [ 37.5905163, 48.8187892 ], [ 37.5908918, 48.8188669 ], [ 37.5916428, 48.8188528 ], [ 37.5922962, 48.8188461 ], [ 37.5935085, 48.818952 ], [ 37.5944967, 48.8190647 ], [ 37.5951929, 48.8190298 ], [ 37.5954836, 48.8189625 ], [ 37.5957519, 48.8189023 ], [ 37.5962991, 48.818821 ], [ 37.5965237, 48.8187794 ], [ 37.5978145, 48.8192793 ], [ 37.5987877, 48.8197774 ], [ 37.6007806, 48.8202304 ], [ 37.6027721, 48.8198668 ], [ 37.604822, 48.8192366 ], [ 37.5993186, 48.8125584 ], [ 37.6153421, 48.8076443 ], [ 37.6254245, 48.8076531 ], [ 37.6325806, 48.8056676 ], [ 37.6364645, 48.810218 ], [ 37.6382455, 48.810006 ], [ 37.6420518, 48.811662 ], [ 37.6435831, 48.8133797 ], [ 37.644172, 48.8129052 ], [ 37.6472309, 48.8104405 ], [ 37.6565006, 48.8188619 ], [ 37.6527777, 48.8215109 ], [ 37.657316, 48.8254736 ], [ 37.6581958, 48.8249792 ], [ 37.6612213, 48.8255725 ], [ 37.6625946, 48.8284967 ], [ 37.6656523, 48.8281718 ], [ 37.6667614, 48.8307312 ], [ 37.6675291, 48.8303925 ], [ 37.6699753, 48.8294602 ], [ 37.6703079, 48.8290859 ], [ 37.6720674, 48.8286621 ], [ 37.6735694, 48.8290576 ], [ 37.6743419, 48.8291424 ], [ 37.6772172, 48.8290011 ], [ 37.6783545, 48.8285632 ], [ 37.679642, 48.8283937 ], [ 37.6818736, 48.8293825 ], [ 37.6820661, 48.8295076 ], [ 37.6820393, 48.8297724 ], [ 37.6820661, 48.8300867 ], [ 37.6823027, 48.8300041 ], [ 37.6829894, 48.8303713 ], [ 37.6834936, 48.8302936 ], [ 37.6846008, 48.8302459 ], [ 37.6854378, 48.8305033 ], [ 37.6862646, 48.8301433 ], [ 37.6937199, 48.8295587 ], [ 37.6945497, 48.8301489 ], [ 37.6947435, 48.8307956 ], [ 37.6947536, 48.8313919 ], [ 37.6962502, 48.8316708 ], [ 37.6960417, 48.832766 ], [ 37.6961912, 48.8332492 ], [ 37.6961528, 48.8337708 ], [ 37.6954026, 48.8357387 ], [ 37.6952846, 48.8359717 ], [ 37.694555, 48.838062 ], [ 37.6944719, 48.8388274 ], [ 37.6927097, 48.8391636 ], [ 37.6921917, 48.8398599 ], [ 37.6920767, 48.8406112 ], [ 37.6922068, 48.8413037 ], [ 37.6908858, 48.8467541 ], [ 37.691221, 48.8477447 ], [ 37.6908804, 48.8490982 ], [ 37.6959103, 48.8498134 ], [ 37.696792, 48.8506689 ], [ 37.6966989, 48.8511724 ], [ 37.696674, 48.8516784 ], [ 37.6935768, 48.8515078 ], [ 37.6942199, 48.8521314 ], [ 37.6947355, 48.8527785 ], [ 37.694757, 48.8530468 ], [ 37.6945424, 48.854981 ], [ 37.6942849, 48.8560258 ], [ 37.6936412, 48.8557152 ], [ 37.6931905, 48.8552211 ], [ 37.6928687, 48.8550799 ], [ 37.6927024, 48.8550057 ], [ 37.6924824, 48.854981 ], [ 37.6899343, 48.8550693 ], [ 37.6889975, 48.8550211 ], [ 37.6865728, 48.8549222 ], [ 37.6865191, 48.8550917 ], [ 37.6853209, 48.8547799 ], [ 37.6840408, 48.8542587 ], [ 37.6819895, 48.8536005 ], [ 37.6752432, 48.8518797 ], [ 37.6754094, 48.8509725 ], [ 37.6725547, 48.8501036 ], [ 37.6752574, 48.8476283 ], [ 37.6759271, 48.8476949 ], [ 37.6760773, 48.8472571 ], [ 37.6730303, 48.8468618 ], [ 37.6738983, 48.8448567 ], [ 37.6763946, 48.8451236 ], [ 37.6765394, 48.8437062 ], [ 37.6769355, 48.8422864 ], [ 37.6722908, 48.841715 ], [ 37.6689434, 48.8412772 ], [ 37.6657133, 48.8406765 ], [ 37.6632456, 48.8460145 ], [ 37.6628165, 48.8467206 ], [ 37.6624946, 48.8472854 ], [ 37.6636489, 48.8476059 ], [ 37.6640951, 48.8477298 ], [ 37.6640717, 48.8481679 ], [ 37.6627199, 48.8493116 ], [ 37.6623122, 48.8494246 ], [ 37.6612525, 48.8512927 ], [ 37.6600806, 48.851006 ], [ 37.659566, 48.851924 ], [ 37.6560096, 48.8511261 ], [ 37.6554672, 48.8514296 ], [ 37.6531508, 48.8540093 ], [ 37.6527321, 48.8540351 ], [ 37.6520455, 48.8539998 ], [ 37.6510792, 48.8537819 ], [ 37.6503771, 48.853488 ], [ 37.649653, 48.8527264 ], [ 37.648614, 48.8517176 ], [ 37.6468734, 48.8510484 ], [ 37.6462765, 48.8508999 ], [ 37.6456718, 48.8517685 ], [ 37.6453285, 48.8516132 ], [ 37.6445345, 48.8512602 ], [ 37.643011, 48.8502577 ], [ 37.6427106, 48.8499612 ], [ 37.6413159, 48.8490575 ], [ 37.6417343, 48.8487327 ], [ 37.6407687, 48.8477372 ], [ 37.6403932, 48.847942 ], [ 37.6377754, 48.8499894 ], [ 37.6388805, 48.8517896 ], [ 37.6389469, 48.8525235 ], [ 37.6401679, 48.853611 ], [ 37.6438595, 48.8564312 ], [ 37.646562, 48.8582349 ], [ 37.6531078, 48.8613414 ], [ 37.6542241, 48.8622345 ], [ 37.6547549, 48.8626592 ], [ 37.6572007, 48.8626933 ], [ 37.6589618, 48.8631578 ], [ 37.661113, 48.863267 ], [ 37.6608968, 48.8633602 ], [ 37.6599036, 48.8638599 ], [ 37.6593995, 48.864107 ], [ 37.6556896, 48.8644216 ], [ 37.6556388, 48.8667244 ], [ 37.6571839, 48.8672621 ], [ 37.6607554, 48.8675614 ], [ 37.6606589, 48.8681968 ], [ 37.6623152, 48.8687819 ], [ 37.6633211, 48.8712089 ], [ 37.663839, 48.872792 ], [ 37.6617457, 48.8729215 ], [ 37.6611342, 48.8733774 ], [ 37.6610442, 48.8736076 ], [ 37.6600118, 48.8743418 ], [ 37.658515, 48.8757238 ], [ 37.6573563, 48.8765282 ], [ 37.6589012, 48.8773891 ], [ 37.6594974, 48.8775132 ], [ 37.6602879, 48.877913 ], [ 37.6616826, 48.8790123 ], [ 37.6614738, 48.8822778 ], [ 37.6600343, 48.8832532 ], [ 37.6590581, 48.8843838 ], [ 37.6584573, 48.8845672 ], [ 37.6582213, 48.8850187 ], [ 37.6554103, 48.8855831 ], [ 37.6545306, 48.8860205 ], [ 37.6533075, 48.886726 ], [ 37.6529427, 48.8864156 ], [ 37.6525135, 48.8865708 ], [ 37.6523848, 48.8864438 ], [ 37.6496597, 48.8878406 ], [ 37.6483293, 48.8867542 ], [ 37.6431877, 48.8871818 ], [ 37.6426998, 48.8880589 ], [ 37.6407561, 48.8903251 ], [ 37.636822, 48.8904781 ], [ 37.6366885, 48.8893715 ], [ 37.6367377, 48.8889446 ], [ 37.6327617, 48.8904014 ], [ 37.6280411, 48.891784 ], [ 37.6244549, 48.8921007 ], [ 37.6156922, 48.8920309 ], [ 37.6100194, 48.8915447 ], [ 37.595767, 48.8903879 ], [ 37.5969566, 48.8881911 ], [ 37.5996908, 48.8838877 ], [ 37.5994977, 48.8838171 ], [ 37.5991436, 48.8837607 ], [ 37.5965365, 48.8832739 ], [ 37.5944739, 48.8829158 ], [ 37.5936048, 48.882683 ], [ 37.593401, 48.8826265 ], [ 37.5927573, 48.8822808 ], [ 37.5926178, 48.8819986 ], [ 37.5927358, 48.8813495 ], [ 37.5928602, 48.8809206 ], [ 37.5924528, 48.880843 ], [ 37.5876014, 48.8799195 ], [ 37.581853, 48.8789743 ], [ 37.5794079, 48.8806069 ], [ 37.5768544, 48.8823955 ], [ 37.5751137, 48.8836743 ], [ 37.5742661, 48.8843727 ], [ 37.572238, 48.8859814 ], [ 37.5697749, 48.8885727 ], [ 37.5649446, 48.8911457 ], [ 37.5640885, 48.8877198 ], [ 37.5632857, 48.8844739 ], [ 37.5644109, 48.8846072 ], [ 37.5668612, 48.8851413 ], [ 37.5670654, 48.8848051 ], [ 37.5634991, 48.8716339 ], [ 37.5679328, 48.8707755 ], [ 37.5672109, 48.8689406 ], [ 37.566673, 48.8649765 ], [ 37.5619374, 48.8658588 ], [ 37.5613766, 48.8638877 ], [ 37.5595716, 48.8637995 ], [ 37.5577323, 48.863657 ], [ 37.5574634, 48.8626904 ], [ 37.5572104, 48.8617812 ], [ 37.5566326, 48.8597043 ], [ 37.5565161, 48.8593108 ], [ 37.540558, 48.8580097 ], [ 37.540449, 48.8529594 ], [ 37.5429989, 48.8530421 ], [ 37.5425581, 48.8497618 ], [ 37.54035, 48.849646 ], [ 37.5389092, 48.8514182 ], [ 37.5387322, 48.8510934 ], [ 37.5386357, 48.8509417 ], [ 37.5384962, 48.8508746 ], [ 37.5383017, 48.8508349 ], [ 37.5381301, 48.8508419 ], [ 37.5377492, 48.8509231 ], [ 37.5379369, 48.8502701 ], [ 37.5379155, 48.84991 ], [ 37.5377103, 48.848859 ], [ 37.5372503, 48.8477861 ], [ 37.5359665, 48.8469154 ], [ 37.5349353, 48.8469278 ], [ 37.5324183, 48.8480418 ], [ 37.5288686, 48.8495051 ], [ 37.5261624, 48.8509702 ], [ 37.5260635, 48.8513198 ], [ 37.5276279, 48.8539049 ], [ 37.5302766, 48.8568538 ], [ 37.5205254, 48.8571098 ], [ 37.5088959, 48.857324 ] ] ] } }
]
}
