{
"type": "FeatureCollection",
"name": "soligorsk_by",
"crs": { "type": "name", "properties": { "name": "urn:ogc:def:crs:OGC:1.3:CRS84" } },
"features": [
{ "type": "Feature", "properties": { }, "geometry": { "type": "Polygon", "coordinates": [ [ [ 27.4857416, 52.7814549 ], [ 27.4932199, 52.7813553 ], [ 27.5020364, 52.7811997 ], [ 27.5021416, 52.781055 ], [ 27.5022265, 52.7790542 ], [ 27.5018372, 52.7785585 ], [ 27.5012629, 52.7779783 ], [ 27.4991882, 52.7756078 ], [ 27.4997711, 52.7753196 ], [ 27.4998454, 52.7749611 ], [ 27.4999294, 52.7748768 ], [ 27.5003981, 52.7746794 ], [ 27.5010309, 52.7714624 ], [ 27.5014776, 52.7712411 ], [ 27.5015876, 52.7697269 ], [ 27.5009593, 52.7695246 ], [ 27.5005858, 52.7695382 ], [ 27.5007044, 52.7688462 ], [ 27.5015176, 52.7689057 ], [ 27.5022761, 52.7690366 ], [ 27.5024404, 52.7685878 ], [ 27.5025637, 52.7682511 ], [ 27.5040194, 52.7680604 ], [ 27.5041971, 52.7665573 ], [ 27.5043772, 52.7637618 ], [ 27.5034498, 52.7633121 ], [ 27.5031309, 52.7630856 ], [ 27.5033914, 52.7627519 ], [ 27.5033494, 52.7623481 ], [ 27.5031566, 52.761544 ], [ 27.5031793, 52.7612611 ], [ 27.5044265, 52.7616185 ], [ 27.5046853, 52.7615996 ], [ 27.5057027, 52.7617437 ], [ 27.5057613, 52.7618024 ], [ 27.5061883, 52.7618463 ], [ 27.5067103, 52.7619001 ], [ 27.5071815, 52.7619007 ], [ 27.5080665, 52.763009 ], [ 27.5085212, 52.7632475 ], [ 27.5101508, 52.763682 ], [ 27.5117179, 52.7639295 ], [ 27.512458, 52.7641352 ], [ 27.5149497, 52.7641501 ], [ 27.5153338, 52.7642512 ], [ 27.5159427, 52.7644951 ], [ 27.519613, 52.7640922 ], [ 27.5213031, 52.7636949 ], [ 27.5188615, 52.7629655 ], [ 27.5188697, 52.7623049 ], [ 27.5191974, 52.7622972 ], [ 27.5197053, 52.7621628 ], [ 27.5191144, 52.7620417 ], [ 27.5181019, 52.7620368 ], [ 27.5177502, 52.7616009 ], [ 27.5180077, 52.7611342 ], [ 27.5189, 52.7611782 ], [ 27.5190336, 52.7609763 ], [ 27.5191241, 52.7606008 ], [ 27.5199566, 52.7605533 ], [ 27.5207735, 52.7606605 ], [ 27.5207048, 52.7611978 ], [ 27.5205355, 52.7613729 ], [ 27.5210379, 52.7614456 ], [ 27.5216114, 52.761634 ], [ 27.5217086, 52.7619938 ], [ 27.5219663, 52.7624106 ], [ 27.5221295, 52.7629886 ], [ 27.5223766, 52.76346 ], [ 27.5229935, 52.7634014 ], [ 27.5235506, 52.7631358 ], [ 27.5236168, 52.7626501 ], [ 27.5235609, 52.7626191 ], [ 27.5235125, 52.7625845 ], [ 27.5234976, 52.7625436 ], [ 27.5235043, 52.7624945 ], [ 27.5235535, 52.7624439 ], [ 27.5236444, 52.7624281 ], [ 27.5237228, 52.7624368 ], [ 27.5238202, 52.7624588 ], [ 27.5238271, 52.7624813 ], [ 27.5238144, 52.7625219 ], [ 27.5237752, 52.7625663 ], [ 27.5238429, 52.7626322 ], [ 27.524403, 52.7629576 ], [ 27.5244948, 52.7634946 ], [ 27.5253387, 52.7642189 ], [ 27.5254806, 52.7642553 ], [ 27.5257426, 52.7643225 ], [ 27.5275344, 52.7654116 ], [ 27.5279116, 52.7655437 ], [ 27.5283244, 52.7656883 ], [ 27.5295246, 52.7661485 ], [ 27.5297169, 52.7664778 ], [ 27.5299008, 52.7667909 ], [ 27.5307861, 52.7672062 ], [ 27.5320278, 52.7676744 ], [ 27.533007, 52.768094 ], [ 27.5332977, 52.7682016 ], [ 27.5331049, 52.7685447 ], [ 27.5330438, 52.7686517 ], [ 27.532981, 52.7687223 ], [ 27.5330071, 52.7688025 ], [ 27.5331483, 52.7687558 ], [ 27.5335047, 52.7684286 ], [ 27.5337433, 52.7680987 ], [ 27.5340088, 52.7680919 ], [ 27.5340216, 52.7683338 ], [ 27.5341922, 52.7684785 ], [ 27.5346822, 52.7688426 ], [ 27.5349863, 52.7690048 ], [ 27.5353491, 52.7691244 ], [ 27.5354043, 52.7691785 ], [ 27.5356509, 52.7692088 ], [ 27.5359298, 52.7694079 ], [ 27.5364858, 52.7694062 ], [ 27.5371428, 52.7694682 ], [ 27.5371812, 52.7698359 ], [ 27.5368604, 52.770127 ], [ 27.5393928, 52.7721741 ], [ 27.5416022, 52.7726837 ], [ 27.5436007, 52.7731436 ], [ 27.5458948, 52.7735684 ], [ 27.5466198, 52.7738322 ], [ 27.5477768, 52.7738165 ], [ 27.5482542, 52.7739631 ], [ 27.5483942, 52.7740956 ], [ 27.548583, 52.7741454 ], [ 27.5487212, 52.7741369 ], [ 27.5487517, 52.7740994 ], [ 27.5492869, 52.7742564 ], [ 27.5493318, 52.7743674 ], [ 27.5496011, 52.7744131 ], [ 27.5505376, 52.7746972 ], [ 27.5512618, 52.7744601 ], [ 27.552082, 52.7745607 ], [ 27.5521199, 52.7745026 ], [ 27.5522609, 52.774479 ], [ 27.5523252, 52.7745706 ], [ 27.5525182, 52.7746251 ], [ 27.552909, 52.7746888 ], [ 27.5535187, 52.7749955 ], [ 27.5541621, 52.7759587 ], [ 27.5533888, 52.77682 ], [ 27.5532377, 52.7774348 ], [ 27.5526613, 52.7777121 ], [ 27.5521402, 52.7792493 ], [ 27.5536643, 52.7802601 ], [ 27.5538602, 52.7804132 ], [ 27.5540737, 52.7804443 ], [ 27.5544076, 52.7804 ], [ 27.5546487, 52.7804156 ], [ 27.5556871, 52.7803554 ], [ 27.5568951, 52.7801344 ], [ 27.5574811, 52.7800932 ], [ 27.558182, 52.7800869 ], [ 27.5584342, 52.7801286 ], [ 27.5586939, 52.7802156 ], [ 27.5588596, 52.7805273 ], [ 27.5595844, 52.7815606 ], [ 27.5600248, 52.782075 ], [ 27.5602247, 52.7825934 ], [ 27.5601342, 52.7828747 ], [ 27.559491, 52.783672 ], [ 27.5588686, 52.7844064 ], [ 27.5588201, 52.7846418 ], [ 27.5588032, 52.7847648 ], [ 27.5589031, 52.7852997 ], [ 27.5590178, 52.7854063 ], [ 27.5592255, 52.7863727 ], [ 27.5591851, 52.7872077 ], [ 27.559096, 52.7876503 ], [ 27.5589539, 52.7879312 ], [ 27.558952, 52.7880419 ], [ 27.5588549, 52.7881972 ], [ 27.5588077, 52.7884331 ], [ 27.5589001, 52.7885855 ], [ 27.5591139, 52.7887122 ], [ 27.5584309, 52.7887277 ], [ 27.558014, 52.7888069 ], [ 27.5576658, 52.7889378 ], [ 27.5575216, 52.7890686 ], [ 27.5569954, 52.7899231 ], [ 27.5581546, 52.7930095 ], [ 27.556549, 52.7946252 ], [ 27.5557161, 52.7951446 ], [ 27.5552392, 52.7956596 ], [ 27.5633869, 52.794373 ], [ 27.5695205, 52.7993315 ], [ 27.569755, 52.8000696 ], [ 27.5706921, 52.8009078 ], [ 27.5707897, 52.8038727 ], [ 27.5702222, 52.8066851 ], [ 27.5728197, 52.8090249 ], [ 27.5745939, 52.8110239 ], [ 27.5756682, 52.8118247 ], [ 27.5753087, 52.8181042 ], [ 27.5786411, 52.8194353 ], [ 27.5805004, 52.8178014 ], [ 27.5819166, 52.8180582 ], [ 27.5823812, 52.8187448 ], [ 27.5807729, 52.8201492 ], [ 27.5804747, 52.8204164 ], [ 27.5904054, 52.824094 ], [ 27.59175, 52.823732 ], [ 27.5902124, 52.8231103 ], [ 27.5926042, 52.820914 ], [ 27.597949, 52.8229777 ], [ 27.6009403, 52.824107 ], [ 27.5999983, 52.8249563 ], [ 27.5971529, 52.8238711 ], [ 27.5969298, 52.8239242 ], [ 27.5948186, 52.8258874 ], [ 27.5963587, 52.8264748 ], [ 27.593375, 52.8291197 ], [ 27.5778726, 52.8232924 ], [ 27.5708241, 52.8207055 ], [ 27.5656721, 52.8202439 ], [ 27.5597863, 52.8225831 ], [ 27.5570397, 52.8204941 ], [ 27.5553338, 52.8195423 ], [ 27.5500187, 52.8195747 ], [ 27.5502558, 52.8166654 ], [ 27.5482978, 52.816358 ], [ 27.5470672, 52.8156882 ], [ 27.5512163, 52.8112863 ], [ 27.5490523, 52.8105052 ], [ 27.5505286, 52.808845 ], [ 27.5450654, 52.8062669 ], [ 27.5447221, 52.8059168 ], [ 27.5442931, 52.8050411 ], [ 27.5438535, 52.8043277 ], [ 27.5429903, 52.8021401 ], [ 27.5402608, 52.8009938 ], [ 27.5395735, 52.8001192 ], [ 27.5369519, 52.7996109 ], [ 27.5347448, 52.7991136 ], [ 27.5338505, 52.8003654 ], [ 27.5331397, 52.800169 ], [ 27.5325516, 52.8009728 ], [ 27.5313422, 52.8006976 ], [ 27.5310728, 52.8006991 ], [ 27.529619, 52.8005519 ], [ 27.5293308, 52.8003717 ], [ 27.5276184, 52.7999126 ], [ 27.5263921, 52.8013099 ], [ 27.5260501, 52.8011977 ], [ 27.5255988, 52.8010398 ], [ 27.5253268, 52.8009476 ], [ 27.5246057, 52.8007062 ], [ 27.5238286, 52.8004664 ], [ 27.5225676, 52.8000834 ], [ 27.5219408, 52.7998896 ], [ 27.5196489, 52.799182 ], [ 27.5189486, 52.7989813 ], [ 27.5179238, 52.7986707 ], [ 27.5172787, 52.7984691 ], [ 27.5152557, 52.7978362 ], [ 27.5146525, 52.797819 ], [ 27.5160329, 52.7961325 ], [ 27.5160464, 52.7961011 ], [ 27.5160345, 52.7960332 ], [ 27.5142894, 52.7957415 ], [ 27.5143747, 52.795628 ], [ 27.514907, 52.7949337 ], [ 27.5144226, 52.7948723 ], [ 27.5143914, 52.7947147 ], [ 27.5145863, 52.7942147 ], [ 27.513212, 52.7941164 ], [ 27.5133435, 52.7933809 ], [ 27.5128889, 52.7932888 ], [ 27.5130692, 52.792607 ], [ 27.5128483, 52.7923213 ], [ 27.5128574, 52.7920455 ], [ 27.5122228, 52.7920292 ], [ 27.5121553, 52.7930281 ], [ 27.5077573, 52.7930244 ], [ 27.5076591, 52.7915415 ], [ 27.506414, 52.7914751 ], [ 27.5064943, 52.7926723 ], [ 27.5049514, 52.7927291 ], [ 27.5045243, 52.7931882 ], [ 27.5034588, 52.7932516 ], [ 27.5036234, 52.7939255 ], [ 27.5025381, 52.7939497 ], [ 27.502627, 52.7941805 ], [ 27.5042958, 52.7941879 ], [ 27.5042817, 52.7944278 ], [ 27.5060143, 52.7945605 ], [ 27.5058574, 52.7951069 ], [ 27.506221, 52.7951506 ], [ 27.5061983, 52.7953567 ], [ 27.5040498, 52.7953973 ], [ 27.5024861, 52.7956398 ], [ 27.50247, 52.7948134 ], [ 27.5021187, 52.7938971 ], [ 27.5020118, 52.7932295 ], [ 27.5019963, 52.7914931 ], [ 27.4906744, 52.7915991 ], [ 27.4861327, 52.7916564 ], [ 27.4861293, 52.7916024 ], [ 27.4857416, 52.7814549 ] ] ] } }
]
}
