{
"type": "FeatureCollection",
"name": "szeged_hu",
"crs": { "type": "name", "properties": { "name": "urn:ogc:def:crs:OGC:1.3:CRS84" } },
"features": [
{ "type": "Feature", "properties": { "bbox_west": 19.9724302, "bbox_south": 46.1157964, "bbox_east": 20.3085507, "bbox_north": 46.3498908, "place_id": 63351966, "osm_type": "relation", "osm_id": 1025105, "lat": 46.2546312, "lon": 20.1486016, "class": "boundary", "type": "administrative", "place_rank": 16, "importance": 0.65396361259178071, "addresstype": "city", "name": "Szeged", "display_name": "Szeged, Szegedi járás, Csongrád-Csanád, South Great Plain, Great Plain and North, Hungary" }, "geometry": { "type": "Polygon", "coordinates": [ [ [ 19.9724302, 46.290371 ], [ 19.9773343, 46.2880435 ], [ 19.982238, 46.285722 ], [ 19.9860551, 46.2841654 ], [ 19.9896723, 46.2821863 ], [ 19.991055, 46.2814102 ], [ 19.9954209, 46.2779759 ], [ 20.0026043, 46.2733048 ], [ 20.007488, 46.2688793 ], [ 20.0123906, 46.2678815 ], [ 20.0171313, 46.2666915 ], [ 20.0201986, 46.2654179 ], [ 20.0219564, 46.2648195 ], [ 20.0281685, 46.2631281 ], [ 20.0316001, 46.2626912 ], [ 20.0334497, 46.2624323 ], [ 20.0394386, 46.2600925 ], [ 20.0416294, 46.2596951 ], [ 20.046004, 46.2585159 ], [ 20.0476478, 46.2585013 ], [ 20.0509444, 46.258472 ], [ 20.0520361, 46.258078 ], [ 20.0542249, 46.2580584 ], [ 20.058599, 46.2568787 ], [ 20.0596835, 46.2561066 ], [ 20.0613202, 46.2557138 ], [ 20.0656939, 46.2545276 ], [ 20.0662317, 46.2541446 ], [ 20.0738781, 46.2521723 ], [ 20.0744319, 46.2521673 ], [ 20.0747097, 46.2519668 ], [ 20.0749695, 46.2517781 ], [ 20.0754999, 46.2510108 ], [ 20.0754928, 46.2506328 ], [ 20.0760393, 46.2502435 ], [ 20.076577, 46.2498605 ], [ 20.0765625, 46.2490982 ], [ 20.0760105, 46.2487252 ], [ 20.0749045, 46.248351 ], [ 20.0748901, 46.2475887 ], [ 20.0748756, 46.2468265 ], [ 20.0759526, 46.2456761 ], [ 20.0759454, 46.2452981 ], [ 20.0759381, 46.2449139 ], [ 20.0749843, 46.244731 ], [ 20.0748251, 46.2441616 ], [ 20.0742731, 46.2437886 ], [ 20.0737194, 46.2437936 ], [ 20.073153, 46.2426583 ], [ 20.0731241, 46.2411338 ], [ 20.0756629, 46.2388262 ], [ 20.0752544, 46.2380648 ], [ 20.0747096, 46.2380698 ], [ 20.0741504, 46.2373125 ], [ 20.073052, 46.2373225 ], [ 20.0697496, 46.2369744 ], [ 20.0681064, 46.2369893 ], [ 20.0659025, 46.2366312 ], [ 20.0642521, 46.2362618 ], [ 20.0631537, 46.2362718 ], [ 20.0554667, 46.2359628 ], [ 20.0554526, 46.2352005 ], [ 20.0548706, 46.2336809 ], [ 20.0542905, 46.2317833 ], [ 20.0537016, 46.2298857 ], [ 20.0531286, 46.228366 ], [ 20.0525397, 46.2264684 ], [ 20.0525185, 46.2253219 ], [ 20.0525115, 46.2249439 ], [ 20.051394, 46.2234291 ], [ 20.0502606, 46.2215363 ], [ 20.0491343, 46.2200216 ], [ 20.0474546, 46.2185117 ], [ 20.0468961, 46.2177605 ], [ 20.0463305, 46.2166189 ], [ 20.0463235, 46.2162408 ], [ 20.046854, 46.2154737 ], [ 20.0479449, 46.2150797 ], [ 20.0495874, 46.2150651 ], [ 20.0501479, 46.2154444 ], [ 20.052335, 46.2154249 ], [ 20.05344, 46.2157931 ], [ 20.0539935, 46.2157882 ], [ 20.053433, 46.2154151 ], [ 20.0528885, 46.21542 ], [ 20.0517833, 46.2150455 ], [ 20.0512388, 46.2150504 ], [ 20.0506854, 46.2150553 ], [ 20.0517693, 46.2142895 ], [ 20.0528673, 46.2142797 ], [ 20.0534118, 46.2142748 ], [ 20.0545098, 46.214265 ], [ 20.0550561, 46.2138758 ], [ 20.0566915, 46.213483 ], [ 20.0527966, 46.2104684 ], [ 20.0505868, 46.2097257 ], [ 20.0511402, 46.2097208 ], [ 20.0571934, 46.2111914 ], [ 20.0632274, 46.2111371 ], [ 20.064893, 46.2118844 ], [ 20.0665068, 46.210345 ], [ 20.0670369, 46.2095778 ], [ 20.0686811, 46.2091848 ], [ 20.0681133, 46.2084276 ], [ 20.0670012, 46.2076753 ], [ 20.0642325, 46.2061755 ], [ 20.0642254, 46.2057975 ], [ 20.0603449, 46.2035454 ], [ 20.0597862, 46.202788 ], [ 20.0614141, 46.202011 ], [ 20.0591832, 46.2001282 ], [ 20.0580642, 46.1989978 ], [ 20.0602311, 46.1974535 ], [ 20.0585678, 46.196328 ], [ 20.070487, 46.1889806 ], [ 20.0710906, 46.1916466 ], [ 20.0754644, 46.1912224 ], [ 20.0749057, 46.1904651 ], [ 20.0743309, 46.1893299 ], [ 20.0726532, 46.1874423 ], [ 20.0692748, 46.1828987 ], [ 20.0670533, 46.181016 ], [ 20.0642718, 46.1787603 ], [ 20.0620488, 46.1772556 ], [ 20.0592818, 46.1757557 ], [ 20.0576174, 46.1750083 ], [ 20.0537606, 46.1739024 ], [ 20.0526563, 46.173528 ], [ 20.0488069, 46.1728062 ], [ 20.0455244, 46.1728354 ], [ 20.0411497, 46.1736303 ], [ 20.0384253, 46.1744168 ], [ 20.0318857, 46.1763771 ], [ 20.0280638, 46.1771728 ], [ 20.0269666, 46.1771824 ], [ 20.0253163, 46.1771968 ], [ 20.0247653, 46.1768235 ], [ 20.0242053, 46.1764441 ], [ 20.0236476, 46.1756927 ], [ 20.0230898, 46.1749352 ], [ 20.0229765, 46.1732993 ], [ 20.0233024, 46.1714052 ], [ 20.023675, 46.1701489 ], [ 20.0249569, 46.1674066 ], [ 20.0254718, 46.1658761 ], [ 20.0259187, 46.1644916 ], [ 20.0269936, 46.160185 ], [ 20.027519, 46.1586705 ], [ 20.0288462, 46.1542609 ], [ 20.0293629, 46.1531691 ], [ 20.0299698, 46.1512781 ], [ 20.0313388, 46.1485862 ], [ 20.0317804, 46.1479296 ], [ 20.0328437, 46.1468756 ], [ 20.0344381, 46.1457582 ], [ 20.0359006, 46.1450638 ], [ 20.0372417, 46.1446413 ], [ 20.0390205, 46.1444438 ], [ 20.0409369, 46.1444767 ], [ 20.0432502, 46.1446088 ], [ 20.0455948, 46.1449689 ], [ 20.047908, 46.1455603 ], [ 20.0489746, 46.145876 ], [ 20.0550243, 46.147863 ], [ 20.0568871, 46.1479694 ], [ 20.0580824, 46.1479143 ], [ 20.0592135, 46.1477175 ], [ 20.0607478, 46.1472666 ], [ 20.0616815, 46.1468695 ], [ 20.0626192, 46.146045 ], [ 20.0637374, 46.1436661 ], [ 20.0642344, 46.1446083 ], [ 20.0671328, 46.148462 ], [ 20.0685583, 46.1503586 ], [ 20.0712706, 46.1530866 ], [ 20.0745137, 46.1567606 ], [ 20.0771892, 46.159366 ], [ 20.0808552, 46.163178 ], [ 20.0831967, 46.165255 ], [ 20.0924767, 46.1742278 ], [ 20.0941319, 46.1757361 ], [ 20.0958112, 46.1772401 ], [ 20.1005025, 46.1818544 ], [ 20.1072053, 46.1878844 ], [ 20.1077643, 46.1886353 ], [ 20.1166926, 46.1965528 ], [ 20.1189479, 46.1995747 ], [ 20.1206426, 46.2022238 ], [ 20.1217931, 46.2048781 ], [ 20.1223616, 46.2056351 ], [ 20.1267059, 46.2036906 ], [ 20.1326932, 46.2013458 ], [ 20.1586845, 46.2125069 ], [ 20.1772121, 46.20586 ], [ 20.1777487, 46.2054765 ], [ 20.1777328, 46.2047143 ], [ 20.1779515, 46.2041423 ], [ 20.1789025, 46.2033309 ], [ 20.1831169, 46.2000918 ], [ 20.1836622, 46.199702 ], [ 20.1882089, 46.1960486 ], [ 20.1899186, 46.1947928 ], [ 20.1900601, 46.1947005 ], [ 20.1903518, 46.1943347 ], [ 20.1908897, 46.1931989 ], [ 20.1917285, 46.1923867 ], [ 20.1943559, 46.186645 ], [ 20.2073758, 46.1545215 ], [ 20.2174448, 46.1388033 ], [ 20.2179804, 46.1384196 ], [ 20.2185248, 46.1380296 ], [ 20.2298221, 46.1290693 ], [ 20.233185, 46.1238099 ], [ 20.2482128, 46.1298279 ], [ 20.2499793, 46.1275782 ], [ 20.251565, 46.1264588 ], [ 20.25147, 46.1252813 ], [ 20.2495843, 46.1234952 ], [ 20.250075, 46.1213899 ], [ 20.2495541, 46.1198675 ], [ 20.2515607, 46.1184674 ], [ 20.2519717, 46.1173343 ], [ 20.2524215, 46.1170117 ], [ 20.2532479, 46.116429 ], [ 20.2532392, 46.1164153 ], [ 20.2549185, 46.1157964 ], [ 20.2621215, 46.124936 ], [ 20.2609754, 46.1257773 ], [ 20.2539395, 46.1296589 ], [ 20.2590209, 46.1364597 ], [ 20.2568452, 46.1372456 ], [ 20.2585366, 46.1391303 ], [ 20.257984, 46.1391362 ], [ 20.2602363, 46.1417773 ], [ 20.2580688, 46.1429412 ], [ 20.2569979, 46.1440994 ], [ 20.2553999, 46.1460195 ], [ 20.2554253, 46.1471598 ], [ 20.2554422, 46.147922 ], [ 20.2554676, 46.1490622 ], [ 20.2566236, 46.1517152 ], [ 20.2566321, 46.1520994 ], [ 20.2572014, 46.1532338 ], [ 20.2577712, 46.15399 ], [ 20.2588765, 46.1543624 ], [ 20.2594288, 46.1547346 ], [ 20.2610954, 46.155479 ], [ 20.2632884, 46.1558334 ], [ 20.2638499, 46.1562116 ], [ 20.2672681, 46.1622677 ], [ 20.2695647, 46.166811 ], [ 20.2741504, 46.1755196 ], [ 20.2781414, 46.1823315 ], [ 20.2783228, 46.1903256 ], [ 20.2766636, 46.1899656 ], [ 20.2711768, 46.1896473 ], [ 20.2678674, 46.1889209 ], [ 20.2634781, 46.1885841 ], [ 20.2585358, 46.1882594 ], [ 20.2541293, 46.1875443 ], [ 20.2486513, 46.187603 ], [ 20.243709, 46.1872713 ], [ 20.24097, 46.1873004 ], [ 20.2398811, 46.1876963 ], [ 20.238792, 46.1880859 ], [ 20.2382478, 46.1880917 ], [ 20.2371336, 46.1873411 ], [ 20.2349389, 46.1873643 ], [ 20.2283801, 46.1881958 ], [ 20.2212762, 46.1894168 ], [ 20.2169119, 46.1902247 ], [ 20.2136605, 46.1921614 ], [ 20.210962, 46.1940923 ], [ 20.2093357, 46.1952496 ], [ 20.2066451, 46.1975646 ], [ 20.2055801, 46.1991004 ], [ 20.2045149, 46.2006299 ], [ 20.2045311, 46.2013922 ], [ 20.2045556, 46.2025386 ], [ 20.2035154, 46.2048304 ], [ 20.2035317, 46.2055926 ], [ 20.2030028, 46.2067447 ], [ 20.2024989, 46.2086528 ], [ 20.2025394, 46.2105553 ], [ 20.2025799, 46.2124578 ], [ 20.2037184, 46.2143491 ], [ 20.2076871, 46.2204013 ], [ 20.2091118, 46.227732 ], [ 20.2095337, 46.229903 ], [ 20.2073535, 46.2306879 ], [ 20.2062716, 46.2314615 ], [ 20.2057351, 46.2318513 ], [ 20.2051895, 46.232235 ], [ 20.2052139, 46.2333753 ], [ 20.2057757, 46.2337538 ], [ 20.2063367, 46.2345105 ], [ 20.2068985, 46.2348828 ], [ 20.2074432, 46.2348772 ], [ 20.2107382, 46.2348432 ], [ 20.2123895, 46.2352104 ], [ 20.2140407, 46.2355714 ], [ 20.2157009, 46.2359323 ], [ 20.2162539, 46.2363108 ], [ 20.216824, 46.2370673 ], [ 20.2168322, 46.2374454 ], [ 20.2173933, 46.2382019 ], [ 20.2168815, 46.2397321 ], [ 20.2163607, 46.2412623 ], [ 20.2163771, 46.2420246 ], [ 20.219689, 46.2427463 ], [ 20.2207958, 46.2431191 ], [ 20.2229845, 46.242712 ], [ 20.2246196, 46.2423168 ], [ 20.2262546, 46.2419216 ], [ 20.2284266, 46.2407521 ], [ 20.2295085, 46.2399783 ], [ 20.2311434, 46.239583 ], [ 20.2322418, 46.2395715 ], [ 20.2344387, 46.2395483 ], [ 20.2388571, 46.2410265 ], [ 20.2399638, 46.2413929 ], [ 20.2410623, 46.2413812 ], [ 20.2421525, 46.2409915 ], [ 20.2432425, 46.2405957 ], [ 20.2437704, 46.2398276 ], [ 20.2448353, 46.2382977 ], [ 20.2453805, 46.2379076 ], [ 20.2464531, 46.2371337 ], [ 20.2475431, 46.236744 ], [ 20.2491866, 46.2363422 ], [ 20.2519281, 46.2363129 ], [ 20.2546781, 46.2366677 ], [ 20.2574196, 46.2366383 ], [ 20.2596163, 46.2366146 ], [ 20.2618215, 46.236969 ], [ 20.2662148, 46.2373058 ], [ 20.2700547, 46.2372642 ], [ 20.2755466, 46.2372044 ], [ 20.2810295, 46.2371444 ], [ 20.284878, 46.2374803 ], [ 20.287637, 46.2382124 ], [ 20.2892891, 46.2381941 ], [ 20.2903875, 46.238182 ], [ 20.2931115, 46.2373895 ], [ 20.2958442, 46.2369811 ], [ 20.2975049, 46.2377251 ], [ 20.2985121, 46.238121 ], [ 20.3002815, 46.2392129 ], [ 20.302496, 46.2399506 ], [ 20.3041658, 46.2406944 ], [ 20.3063538, 46.24067 ], [ 20.3074522, 46.2406577 ], [ 20.3085507, 46.2406454 ], [ 20.3058444, 46.2422005 ], [ 20.3047636, 46.242975 ], [ 20.3031644, 46.2448958 ], [ 20.3026283, 46.2456642 ], [ 20.302646, 46.2464265 ], [ 20.3032262, 46.2475605 ], [ 20.3054409, 46.2486763 ], [ 20.3078684, 46.2585545 ], [ 20.3078862, 46.2593168 ], [ 20.306375, 46.2650426 ], [ 20.3059096, 46.2688599 ], [ 20.3021645, 46.273092 ], [ 20.3021733, 46.27347 ], [ 20.3021821, 46.273848 ], [ 20.3022086, 46.2749944 ], [ 20.3022263, 46.2757567 ], [ 20.3022615, 46.2772749 ], [ 20.3023057, 46.2791836 ], [ 20.3017693, 46.2795677 ], [ 20.3006877, 46.2803422 ], [ 20.3001602, 46.2811104 ], [ 20.2990872, 46.2822629 ], [ 20.2990715, 46.2836732 ], [ 20.2985683, 46.2837935 ], [ 20.2977889, 46.2840344 ], [ 20.2974778, 46.2841838 ], [ 20.2965438, 46.2841656 ], [ 20.2959952, 46.283865 ], [ 20.2958157, 46.2834398 ], [ 20.2958069, 46.2830617 ], [ 20.2960418, 46.2825029 ], [ 20.297232, 46.2812761 ], [ 20.2979528, 46.2807507 ], [ 20.2979352, 46.2799884 ], [ 20.2973636, 46.2792385 ], [ 20.2957017, 46.2784945 ], [ 20.2951477, 46.2781164 ], [ 20.2940485, 46.2781285 ], [ 20.2934944, 46.2781347 ], [ 20.2929493, 46.2781407 ], [ 20.2913224, 46.2789211 ], [ 20.2907683, 46.2789272 ], [ 20.2902232, 46.2789332 ], [ 20.2885699, 46.2789515 ], [ 20.2830307, 46.2767313 ], [ 20.2797158, 46.2760052 ], [ 20.2753408, 46.2757634 ], [ 20.2736661, 46.2756869 ], [ 20.2720133, 46.2753267 ], [ 20.2709054, 46.2749545 ], [ 20.2697891, 46.2742042 ], [ 20.2685498, 46.2731424 ], [ 20.267425, 46.2720141 ], [ 20.2653159, 46.2704467 ], [ 20.2642084, 46.2700806 ], [ 20.2636547, 46.2697022 ], [ 20.2625472, 46.2693361 ], [ 20.2608855, 46.2689697 ], [ 20.2592415, 46.2689874 ], [ 20.2575974, 46.2690051 ], [ 20.2543455, 46.268718 ], [ 20.2543003, 46.2690404 ], [ 20.2515572, 46.2690698 ], [ 20.2504751, 46.2698438 ], [ 20.2499385, 46.2702338 ], [ 20.2499553, 46.2709899 ], [ 20.2499639, 46.2713741 ], [ 20.2499722, 46.2717521 ], [ 20.2516673, 46.2740213 ], [ 20.2522293, 46.2747777 ], [ 20.2522547, 46.2759179 ], [ 20.251735, 46.2770702 ], [ 20.2517434, 46.2774482 ], [ 20.2506526, 46.277838 ], [ 20.2484796, 46.2790079 ], [ 20.246307, 46.2797935 ], [ 20.2452161, 46.2801832 ], [ 20.2408694, 46.2825166 ], [ 20.2403326, 46.2829004 ], [ 20.2425559, 46.2844016 ], [ 20.2442514, 46.2862866 ], [ 20.2481877, 46.2904349 ], [ 20.2487499, 46.2911913 ], [ 20.2493294, 46.2923257 ], [ 20.2493632, 46.2938502 ], [ 20.2499255, 46.2946066 ], [ 20.2499508, 46.2957469 ], [ 20.2494308, 46.2968929 ], [ 20.2484072, 46.3003316 ], [ 20.2473666, 46.3030081 ], [ 20.2468466, 46.3041604 ], [ 20.2419022, 46.3042129 ], [ 20.2287141, 46.3043519 ], [ 20.2292345, 46.3031997 ], [ 20.2297723, 46.3024378 ], [ 20.2297557, 46.3016756 ], [ 20.2292014, 46.3016814 ], [ 20.22644, 46.3009479 ], [ 20.2220419, 46.3006095 ], [ 20.2235546, 46.2945006 ], [ 20.2229927, 46.2937441 ], [ 20.2224221, 46.2929938 ], [ 20.2207524, 46.2918645 ], [ 20.2223641, 46.2903228 ], [ 20.215727, 46.2881108 ], [ 20.2157187, 46.2877266 ], [ 20.216777, 46.2858127 ], [ 20.2167689, 46.2854347 ], [ 20.2051411, 46.2809803 ], [ 20.2051656, 46.2821267 ], [ 20.2057434, 46.2836456 ], [ 20.2058085, 46.2866884 ], [ 20.2058248, 46.2874506 ], [ 20.2047742, 46.2897487 ], [ 20.2048555, 46.2935537 ], [ 20.2004663, 46.2935987 ], [ 20.1922242, 46.2936828 ], [ 20.1889256, 46.2937162 ], [ 20.1889176, 46.2933382 ], [ 20.187827, 46.2933492 ], [ 20.1879714, 46.3002033 ], [ 20.1869197, 46.302495 ], [ 20.185852, 46.3040306 ], [ 20.1848322, 46.3078467 ], [ 20.1846828, 46.3092342 ], [ 20.1754802, 46.3075626 ], [ 20.1743813, 46.3071893 ], [ 20.1744131, 46.3087138 ], [ 20.1733528, 46.3106273 ], [ 20.1724192, 46.3186388 ], [ 20.1650659, 46.3350883 ], [ 20.1640283, 46.338142 ], [ 20.1579802, 46.3382017 ], [ 20.1552336, 46.3382288 ], [ 20.1431144, 46.3372066 ], [ 20.1381515, 46.3364924 ], [ 20.137051, 46.336503 ], [ 20.1353973, 46.3361409 ], [ 20.1347952, 46.3361163 ], [ 20.1348591, 46.3365242 ], [ 20.1348898, 46.3380487 ], [ 20.1349356, 46.3403292 ], [ 20.1338442, 46.3418459 ], [ 20.1300717, 46.3445662 ], [ 20.1273614, 46.3468794 ], [ 20.1268231, 46.3472626 ], [ 20.1179741, 46.3446817 ], [ 20.1141565, 46.3462426 ], [ 20.1125175, 46.3466362 ], [ 20.1108846, 46.3477983 ], [ 20.1076213, 46.3493477 ], [ 20.1037199, 46.3471033 ], [ 20.0905814, 46.3498908 ], [ 20.0784752, 46.3496179 ], [ 20.0779221, 46.3492448 ], [ 20.0779004, 46.3481045 ], [ 20.0773383, 46.3477253 ], [ 20.0778931, 46.3477203 ], [ 20.0784317, 46.3473373 ], [ 20.0789503, 46.3454296 ], [ 20.0800363, 46.3446573 ], [ 20.079467, 46.3439001 ], [ 20.0794452, 46.3427598 ], [ 20.0783228, 46.3416234 ], [ 20.0771861, 46.3397309 ], [ 20.0776538, 46.3351584 ], [ 20.0797747, 46.3309489 ], [ 20.080255, 46.3275168 ], [ 20.0829574, 46.3252048 ], [ 20.0834537, 46.3221569 ], [ 20.0828991, 46.322162 ], [ 20.0796076, 46.3221921 ], [ 20.0790603, 46.3225753 ], [ 20.0779747, 46.3233476 ], [ 20.0746759, 46.3229996 ], [ 20.0735613, 46.3222473 ], [ 20.0729995, 46.3218682 ], [ 20.0724539, 46.3218731 ], [ 20.0718993, 46.3218782 ], [ 20.0713537, 46.3218831 ], [ 20.0702536, 46.3218931 ], [ 20.0691463, 46.321525 ], [ 20.0631071, 46.3219577 ], [ 20.0631, 46.3215797 ], [ 20.0636546, 46.3215747 ], [ 20.0651714, 46.3147056 ], [ 20.0651499, 46.3135653 ], [ 20.071539, 46.3028401 ], [ 20.0720862, 46.3024571 ], [ 20.0726316, 46.3024521 ], [ 20.0720718, 46.3016948 ], [ 20.0715174, 46.3016998 ], [ 20.0720574, 46.3009325 ], [ 20.0703907, 46.2998072 ], [ 20.0698364, 46.2998122 ], [ 20.0692981, 46.3001952 ], [ 20.0693054, 46.3005794 ], [ 20.0676729, 46.3017347 ], [ 20.0595451, 46.3075229 ], [ 20.0589907, 46.3075278 ], [ 20.0492277, 46.3144642 ], [ 20.040003, 46.3206449 ], [ 20.0296895, 46.3275844 ], [ 20.0274477, 46.3253229 ], [ 20.0268931, 46.3253277 ], [ 20.0241058, 46.3230648 ], [ 20.0240989, 46.3226867 ], [ 20.0207662, 46.3204284 ], [ 20.0185934, 46.3219719 ], [ 20.0113586, 46.3170816 ], [ 20.0113519, 46.3167035 ], [ 20.0102112, 46.3144261 ], [ 20.0090976, 46.3136732 ], [ 20.0074386, 46.312925 ], [ 20.0074116, 46.3114066 ], [ 20.0070404, 46.3106231 ], [ 20.0069799, 46.3101462 ], [ 20.005971, 46.3085866 ], [ 20.0040137, 46.3071137 ], [ 20.0047034, 46.3067062 ], [ 20.0046275, 46.3066468 ], [ 19.9973339, 46.3008248 ], [ 19.9906915, 46.2978373 ], [ 19.9901305, 46.2974577 ], [ 19.9890464, 46.297851 ], [ 19.9884921, 46.2978556 ], [ 19.9821944, 46.2938933 ], [ 19.9811657, 46.2943706 ], [ 19.9801864, 46.2947304 ], [ 19.9724302, 46.290371 ] ] ] } }
]
}
