{
"type": "FeatureCollection",
"name": "toulon_fr",
"crs": { "type": "name", "properties": { "name": "urn:ogc:def:crs:OGC:1.3:CRS84" } },
"features": [
{ "type": "Feature", "properties": { "bbox_west": 5.8795028, "bbox_south": 43.1010435, "bbox_east": 5.9873841, "bbox_north": 43.171494, "place_id": 83274691, "osm_type": "relation", "osm_id": 35280, "lat": 43.1257311, "lon": 5.9304919, "class": "boundary", "type": "administrative", "place_rank": 16, "importance": 0.66159948605897978, "addresstype": "city", "name": "Toulon", "display_name": "Toulon, Var, Provence-Alpes-Côte d'Azur, Metropolitan France, France" }, "geometry": { "type": "MultiPolygon", "coordinates": [ [ [ [ 5.8795028, 43.1342168 ], [ 5.8796324, 43.1341329 ], [ 5.8797346, 43.134218 ], [ 5.8798656, 43.1342164 ], [ 5.8799182, 43.1342696 ], [ 5.8804404, 43.1345275 ], [ 5.880679, 43.1343229 ], [ 5.8808293, 43.1337015 ], [ 5.8805167, 43.1336934 ], [ 5.8799243, 43.1335988 ], [ 5.8802025, 43.133172 ], [ 5.8802958, 43.1325884 ], [ 5.8806488, 43.132585 ], [ 5.8811522, 43.1326383 ], [ 5.8814284, 43.1326321 ], [ 5.8814634, 43.1326115 ], [ 5.8812581, 43.1318942 ], [ 5.8817027, 43.1318389 ], [ 5.8817863, 43.1310238 ], [ 5.8817035, 43.1303284 ], [ 5.8816665, 43.1302669 ], [ 5.8815201, 43.129479 ], [ 5.8814481, 43.128302 ], [ 5.8814569, 43.1281981 ], [ 5.8823246, 43.1282078 ], [ 5.8826745, 43.1297241 ], [ 5.8847628, 43.1297233 ], [ 5.8858714, 43.130211 ], [ 5.8860938, 43.1289126 ], [ 5.8860282, 43.128386 ], [ 5.8861294, 43.1275398 ], [ 5.8861642, 43.1271871 ], [ 5.8862278, 43.1266489 ], [ 5.8862125, 43.1266226 ], [ 5.8862215, 43.1265549 ], [ 5.886328, 43.1257665 ], [ 5.8864378, 43.1247546 ], [ 5.8869054, 43.1205249 ], [ 5.8869382, 43.1201708 ], [ 5.8869745, 43.1198076 ], [ 5.8869488, 43.1196358 ], [ 5.8870502, 43.1192435 ], [ 5.8870655, 43.1190343 ], [ 5.8874057, 43.1162568 ], [ 5.887579, 43.1162351 ], [ 5.8876994, 43.1161658 ], [ 5.8877694, 43.1161413 ], [ 5.8877791, 43.1161553 ], [ 5.8880067, 43.1161153 ], [ 5.888057, 43.1161475 ], [ 5.8880809, 43.1162168 ], [ 5.8883902, 43.1161887 ], [ 5.888458, 43.1161251 ], [ 5.8885504, 43.1161244 ], [ 5.8886052, 43.1161776 ], [ 5.8886202, 43.116223 ], [ 5.8886305, 43.1163549 ], [ 5.8886303, 43.1164505 ], [ 5.8886638, 43.1165249 ], [ 5.8886933, 43.1166795 ], [ 5.8886819, 43.1167877 ], [ 5.8888061, 43.1173994 ], [ 5.8887781, 43.1174038 ], [ 5.8889229, 43.1179601 ], [ 5.888899, 43.1179762 ], [ 5.8889054, 43.1180183 ], [ 5.8889419, 43.1180286 ], [ 5.8890022, 43.11827 ], [ 5.8892197, 43.1182426 ], [ 5.8899648, 43.1181454 ], [ 5.8899114, 43.1177736 ], [ 5.8898591, 43.1174018 ], [ 5.8898457, 43.1173088 ], [ 5.8898314, 43.1172159 ], [ 5.8898011, 43.1170299 ], [ 5.8897383, 43.1166577 ], [ 5.889712, 43.1165969 ], [ 5.8896212, 43.1163871 ], [ 5.8896355, 43.1163494 ], [ 5.8895993, 43.1161443 ], [ 5.8895961, 43.1161123 ], [ 5.8896035, 43.116088 ], [ 5.8896381, 43.1160553 ], [ 5.8896872, 43.1160313 ], [ 5.8898606, 43.1160296 ], [ 5.8899457, 43.1160247 ], [ 5.8903357, 43.1158699 ], [ 5.8904476, 43.1158594 ], [ 5.8905354, 43.1158662 ], [ 5.890629, 43.1158871 ], [ 5.890708, 43.1159233 ], [ 5.8907622, 43.1160071 ], [ 5.8908684, 43.116075 ], [ 5.8909156, 43.1161491 ], [ 5.8912533, 43.1166274 ], [ 5.8913431, 43.116833 ], [ 5.8914304, 43.1169873 ], [ 5.8914691, 43.1170734 ], [ 5.8916084, 43.1171569 ], [ 5.892131, 43.1178314 ], [ 5.8922057, 43.1178837 ], [ 5.8923602, 43.1181137 ], [ 5.892483, 43.1182766 ], [ 5.8926069, 43.1184014 ], [ 5.8926861, 43.1183222 ], [ 5.8926772, 43.1182359 ], [ 5.8921999, 43.1176559 ], [ 5.8912582, 43.1160023 ], [ 5.8912438, 43.1159394 ], [ 5.8912609, 43.1158748 ], [ 5.8912972, 43.1158236 ], [ 5.8927082, 43.1154436 ], [ 5.8927885, 43.1154349 ], [ 5.8928406, 43.1154407 ], [ 5.8928672, 43.1154681 ], [ 5.8928659, 43.1155131 ], [ 5.892831, 43.1155584 ], [ 5.892764, 43.1155809 ], [ 5.8927392, 43.1156285 ], [ 5.8927461, 43.1156759 ], [ 5.8928183, 43.1158179 ], [ 5.8928989, 43.1157933 ], [ 5.8930077, 43.1160028 ], [ 5.8929312, 43.1160287 ], [ 5.8932295, 43.1165575 ], [ 5.8932858, 43.1165457 ], [ 5.8938219, 43.1175718 ], [ 5.8946438, 43.11734 ], [ 5.8946251, 43.1173121 ], [ 5.8946492, 43.1172963 ], [ 5.8943146, 43.1166281 ], [ 5.8942648, 43.1166439 ], [ 5.8940795, 43.1162897 ], [ 5.8941408, 43.1162689 ], [ 5.893863, 43.1157473 ], [ 5.8938091, 43.1157633 ], [ 5.8936166, 43.1154149 ], [ 5.8936681, 43.1153961 ], [ 5.8936256, 43.1153493 ], [ 5.8935551, 43.1153373 ], [ 5.8934474, 43.1153504 ], [ 5.893392, 43.1153506 ], [ 5.8933715, 43.1152876 ], [ 5.8933629, 43.1152611 ], [ 5.8948602, 43.1148473 ], [ 5.8950813, 43.114799 ], [ 5.895077, 43.1148339 ], [ 5.8950408, 43.1148475 ], [ 5.8949981, 43.1148947 ], [ 5.8949903, 43.114953 ], [ 5.8949994, 43.1150219 ], [ 5.8952282, 43.1154714 ], [ 5.8952882, 43.115458 ], [ 5.8954607, 43.1158102 ], [ 5.8954152, 43.1158301 ], [ 5.8956291, 43.1162696 ], [ 5.8956966, 43.1162588 ], [ 5.8958869, 43.1166041 ], [ 5.8958317, 43.1166259 ], [ 5.8959751, 43.1168827 ], [ 5.8961287, 43.1169306 ], [ 5.896614, 43.1167954 ], [ 5.8966385, 43.1168215 ], [ 5.8974456, 43.1165771 ], [ 5.8974906, 43.1165139 ], [ 5.8975176, 43.1164878 ], [ 5.8975539, 43.1164367 ], [ 5.8975304, 43.1162861 ], [ 5.8974771, 43.116211 ], [ 5.8964099, 43.1153639 ], [ 5.8957134, 43.1147943 ], [ 5.8955765, 43.1147932 ], [ 5.8955339, 43.1147261 ], [ 5.8955698, 43.1146894 ], [ 5.8956801, 43.1146645 ], [ 5.895963, 43.1144681 ], [ 5.8959223, 43.1144385 ], [ 5.8959576, 43.1144163 ], [ 5.8960713, 43.1144043 ], [ 5.897039, 43.1142584 ], [ 5.897408, 43.1145335 ], [ 5.8974344, 43.1145205 ], [ 5.8975416, 43.1146187 ], [ 5.8975215, 43.1146357 ], [ 5.897648, 43.1147473 ], [ 5.8976784, 43.1147355 ], [ 5.8979555, 43.114982 ], [ 5.8979262, 43.1150053 ], [ 5.8980208, 43.1150767 ], [ 5.8980473, 43.1150651 ], [ 5.8981311, 43.1151285 ], [ 5.8981073, 43.1151472 ], [ 5.8981239, 43.1151664 ], [ 5.8984299, 43.1154041 ], [ 5.8985307, 43.1154405 ], [ 5.8987951, 43.1156587 ], [ 5.8988877, 43.1157115 ], [ 5.8989814, 43.1156976 ], [ 5.8990268, 43.1157154 ], [ 5.8990861, 43.1157526 ], [ 5.8991351, 43.115747 ], [ 5.8991917, 43.1156427 ], [ 5.8992008, 43.1155973 ], [ 5.8991526, 43.1155523 ], [ 5.8989525, 43.115461 ], [ 5.8988536, 43.1154246 ], [ 5.8987958, 43.1153829 ], [ 5.8987674, 43.1153382 ], [ 5.8987565, 43.115252 ], [ 5.8987422, 43.115203 ], [ 5.8987009, 43.1151676 ], [ 5.8986472, 43.1151663 ], [ 5.8985864, 43.1151523 ], [ 5.89842, 43.1150573 ], [ 5.8982032, 43.1149159 ], [ 5.8980628, 43.1147848 ], [ 5.8979407, 43.1146381 ], [ 5.8978753, 43.1145998 ], [ 5.8978224, 43.1145477 ], [ 5.8977713, 43.1143031 ], [ 5.8977242, 43.1142305 ], [ 5.8976176, 43.1141381 ], [ 5.8975562, 43.1141198 ], [ 5.8973488, 43.1138189 ], [ 5.8972857, 43.1137455 ], [ 5.8971496, 43.113675 ], [ 5.8970911, 43.1135885 ], [ 5.8970502, 43.1134808 ], [ 5.897058, 43.1132693 ], [ 5.8972255, 43.1130285 ], [ 5.8974254, 43.1129683 ], [ 5.8975146, 43.1129113 ], [ 5.8976382, 43.1129189 ], [ 5.8976966, 43.1128897 ], [ 5.8977357, 43.1129034 ], [ 5.8977455, 43.1129405 ], [ 5.897808, 43.1129703 ], [ 5.8978838, 43.1129704 ], [ 5.8978902, 43.112918 ], [ 5.8979241, 43.1128814 ], [ 5.8980342, 43.1128348 ], [ 5.8981686, 43.1128129 ], [ 5.8982779, 43.1128156 ], [ 5.8983339, 43.11284 ], [ 5.898419, 43.1128584 ], [ 5.8992233, 43.1129443 ], [ 5.8995961, 43.1130235 ], [ 5.8997565, 43.1130421 ], [ 5.8998806, 43.1130729 ], [ 5.9000535, 43.1131733 ], [ 5.9002027, 43.113286 ], [ 5.9002301, 43.1133597 ], [ 5.9003291, 43.1134164 ], [ 5.9003804, 43.1134714 ], [ 5.9006391, 43.1136163 ], [ 5.9006936, 43.1136639 ], [ 5.9007895, 43.1137671 ], [ 5.9008742, 43.113801 ], [ 5.9008898, 43.1137798 ], [ 5.9010565, 43.1138777 ], [ 5.9015199, 43.1141052 ], [ 5.9017027, 43.1141665 ], [ 5.9018371, 43.1141634 ], [ 5.9018496, 43.1141121 ], [ 5.9018794, 43.1140931 ], [ 5.9023364, 43.1141446 ], [ 5.9027878, 43.1114532 ], [ 5.9028368, 43.1114288 ], [ 5.9031388, 43.1114555 ], [ 5.903168, 43.1114886 ], [ 5.9026955, 43.1143691 ], [ 5.9028538, 43.1143864 ], [ 5.9028975, 43.1143681 ], [ 5.9028989, 43.1143435 ], [ 5.90288, 43.1143141 ], [ 5.9028893, 43.114289 ], [ 5.9029574, 43.1142766 ], [ 5.9036215, 43.1143282 ], [ 5.9036711, 43.1143471 ], [ 5.9036828, 43.1143653 ], [ 5.9036619, 43.1143925 ], [ 5.9036324, 43.1144144 ], [ 5.9036318, 43.1144462 ], [ 5.9036695, 43.1144658 ], [ 5.9037834, 43.1144754 ], [ 5.9038846, 43.1144771 ], [ 5.904254, 43.112176 ], [ 5.9042799, 43.1121587 ], [ 5.9045446, 43.1121889 ], [ 5.9045546, 43.1122086 ], [ 5.9041297, 43.1143811 ], [ 5.9051777, 43.1144722 ], [ 5.905149, 43.1145967 ], [ 5.9053911, 43.1146282 ], [ 5.9057631, 43.1123477 ], [ 5.905791, 43.1123303 ], [ 5.9060265, 43.1123462 ], [ 5.906041, 43.1123714 ], [ 5.9056684, 43.1146458 ], [ 5.9059112, 43.1146758 ], [ 5.9059137, 43.1147003 ], [ 5.906653, 43.1147665 ], [ 5.9066644, 43.1147427 ], [ 5.9069168, 43.1147692 ], [ 5.9071671, 43.1131885 ], [ 5.9071973, 43.1131738 ], [ 5.9074312, 43.1131941 ], [ 5.9074432, 43.1132137 ], [ 5.9071771, 43.1148524 ], [ 5.908402, 43.1149786 ], [ 5.9086718, 43.1133318 ], [ 5.9089728, 43.1133687 ], [ 5.9086981, 43.1149616 ], [ 5.9087864, 43.1150305 ], [ 5.9089237, 43.1150359 ], [ 5.9089428, 43.11499 ], [ 5.909687, 43.1150588 ], [ 5.9097766, 43.1151016 ], [ 5.9099309, 43.1151176 ], [ 5.9102001, 43.113504 ], [ 5.9104728, 43.1135352 ], [ 5.9102231, 43.115043 ], [ 5.9105533, 43.1150754 ], [ 5.91052, 43.1152131 ], [ 5.9108254, 43.1152541 ], [ 5.9111021, 43.115382 ], [ 5.9110101, 43.1154304 ], [ 5.9114678, 43.116266 ], [ 5.9113158, 43.1170358 ], [ 5.9112915, 43.117069 ], [ 5.9112507, 43.117077 ], [ 5.9076507, 43.1167147 ], [ 5.9075719, 43.1171389 ], [ 5.9091589, 43.1173837 ], [ 5.9091355, 43.1174834 ], [ 5.9094125, 43.1175173 ], [ 5.9094442, 43.117556 ], [ 5.9094487, 43.1175992 ], [ 5.9094279, 43.1176466 ], [ 5.9093861, 43.1176836 ], [ 5.9083556, 43.1175482 ], [ 5.9082698, 43.1175616 ], [ 5.9077315, 43.1174987 ], [ 5.90743, 43.1189491 ], [ 5.9113016, 43.1193507 ], [ 5.911344, 43.1193585 ], [ 5.9113702, 43.1193816 ], [ 5.9126571, 43.1228945 ], [ 5.9126853, 43.1229716 ], [ 5.9126857, 43.1229846 ], [ 5.9126919, 43.1231693 ], [ 5.9126649, 43.1231954 ], [ 5.9127556, 43.1244528 ], [ 5.9127681, 43.1245157 ], [ 5.9127946, 43.1245605 ], [ 5.9128387, 43.1246044 ], [ 5.9128952, 43.1246331 ], [ 5.9129524, 43.1246458 ], [ 5.913023, 43.124639 ], [ 5.9130774, 43.1246288 ], [ 5.9131325, 43.1246055 ], [ 5.9131715, 43.1245614 ], [ 5.9131978, 43.1245093 ], [ 5.9130885, 43.1231881 ], [ 5.9130584, 43.1231651 ], [ 5.9130529, 43.1229789 ], [ 5.9131852, 43.1229745 ], [ 5.9132678, 43.1231774 ], [ 5.9133367, 43.1233465 ], [ 5.913318, 43.1233764 ], [ 5.9139412, 43.1246553 ], [ 5.9141893, 43.1249077 ], [ 5.9143881, 43.1248562 ], [ 5.9143646, 43.1245726 ], [ 5.9137061, 43.1232682 ], [ 5.9136831, 43.1232565 ], [ 5.9136111, 43.123097 ], [ 5.9140088, 43.1229955 ], [ 5.9140891, 43.1231588 ], [ 5.9140715, 43.1231801 ], [ 5.9147102, 43.1244655 ], [ 5.9149652, 43.1247074 ], [ 5.9151738, 43.1246554 ], [ 5.915166, 43.1244273 ], [ 5.9144724, 43.1230619 ], [ 5.91444, 43.1230551 ], [ 5.9143679, 43.1229154 ], [ 5.9143631, 43.1229061 ], [ 5.9143751, 43.1228881 ], [ 5.9144271, 43.1228737 ], [ 5.9144184, 43.1228467 ], [ 5.9147921, 43.1227435 ], [ 5.9147153, 43.1225857 ], [ 5.9137319, 43.1205652 ], [ 5.9136378, 43.1195052 ], [ 5.9136418, 43.1194674 ], [ 5.9136568, 43.1194405 ], [ 5.9136968, 43.1194253 ], [ 5.9137437, 43.1194183 ], [ 5.9153306, 43.1195715 ], [ 5.9155763, 43.119602 ], [ 5.91558, 43.1195613 ], [ 5.9156622, 43.1195712 ], [ 5.9156587, 43.1196133 ], [ 5.9198608, 43.1200361 ], [ 5.9198931, 43.1200416 ], [ 5.919905, 43.1200612 ], [ 5.9196784, 43.1213121 ], [ 5.9196652, 43.1213374 ], [ 5.9196319, 43.1213407 ], [ 5.9177241, 43.1211614 ], [ 5.9177079, 43.1211767 ], [ 5.9174056, 43.1211472 ], [ 5.9173833, 43.1211614 ], [ 5.9155703, 43.120961 ], [ 5.9154965, 43.1209564 ], [ 5.9154439, 43.1209651 ], [ 5.915396, 43.1209996 ], [ 5.9153698, 43.1210343 ], [ 5.9153629, 43.1210824 ], [ 5.9153753, 43.1211251 ], [ 5.9153966, 43.1211586 ], [ 5.9154272, 43.1211859 ], [ 5.9154806, 43.1212046 ], [ 5.9173589, 43.1213776 ], [ 5.9173832, 43.1216309 ], [ 5.9171571, 43.1216867 ], [ 5.9171176, 43.1216687 ], [ 5.9161225, 43.1218944 ], [ 5.9160673, 43.1219162 ], [ 5.9160244, 43.1219605 ], [ 5.9160034, 43.1220065 ], [ 5.9160021, 43.1220514 ], [ 5.9160277, 43.1220876 ], [ 5.9160649, 43.1221217 ], [ 5.9161008, 43.1221429 ], [ 5.9161619, 43.1221583 ], [ 5.916209, 43.1221542 ], [ 5.9172453, 43.1219111 ], [ 5.917253, 43.1218717 ], [ 5.9174571, 43.1218141 ], [ 5.91751, 43.1218271 ], [ 5.9175597, 43.1218475 ], [ 5.9207428, 43.1241011 ], [ 5.9217502, 43.1236585 ], [ 5.9217085, 43.1236001 ], [ 5.9217598, 43.1235784 ], [ 5.921789, 43.1235739 ], [ 5.9218175, 43.1235622 ], [ 5.9218504, 43.1235358 ], [ 5.9218611, 43.1235049 ], [ 5.9218486, 43.1234801 ], [ 5.9214082, 43.1232456 ], [ 5.9210756, 43.123076 ], [ 5.9210509, 43.1230484 ], [ 5.9209875, 43.12301 ], [ 5.9207667, 43.1229056 ], [ 5.9207261, 43.1228775 ], [ 5.920707, 43.1228453 ], [ 5.920719, 43.1228085 ], [ 5.9211384, 43.1221161 ], [ 5.9211638, 43.1221132 ], [ 5.9213027, 43.121876 ], [ 5.9213826, 43.1218441 ], [ 5.9222, 43.1218176 ], [ 5.9234801, 43.1233548 ], [ 5.9245527, 43.1229082 ], [ 5.9245959, 43.1228667 ], [ 5.9251393, 43.1226226 ], [ 5.9251164, 43.1225935 ], [ 5.9251609, 43.1224833 ], [ 5.9257959, 43.1222052 ], [ 5.9258305, 43.1221758 ], [ 5.9259984, 43.1221122 ], [ 5.9260876, 43.1222085 ], [ 5.9268082, 43.121897 ], [ 5.926769, 43.121863 ], [ 5.9268604, 43.1218087 ], [ 5.926706, 43.121677 ], [ 5.9267198, 43.1216574 ], [ 5.9268399, 43.1215601 ], [ 5.9268645, 43.1215486 ], [ 5.9268937, 43.1215629 ], [ 5.9277799, 43.1221964 ], [ 5.9280964, 43.1220241 ], [ 5.9270408, 43.1209082 ], [ 5.9269455, 43.1209124 ], [ 5.9265218, 43.1213063 ], [ 5.9264977, 43.1213221 ], [ 5.9264757, 43.1213204 ], [ 5.9261566, 43.1211502 ], [ 5.9261369, 43.1211325 ], [ 5.9261489, 43.1211145 ], [ 5.9274207, 43.119884 ], [ 5.92715, 43.1193553 ], [ 5.9270747, 43.1192082 ], [ 5.9270304, 43.1192208 ], [ 5.9269982, 43.1191648 ], [ 5.9268974, 43.1189895 ], [ 5.9268952, 43.1189115 ], [ 5.9266999, 43.1185232 ], [ 5.926669, 43.1184931 ], [ 5.926618, 43.1184785 ], [ 5.9265662, 43.1184756 ], [ 5.9265219, 43.1184882 ], [ 5.9264823, 43.1185077 ], [ 5.9264562, 43.1185424 ], [ 5.9264483, 43.1185805 ], [ 5.9264608, 43.1186246 ], [ 5.9266122, 43.1189911 ], [ 5.9266931, 43.1190445 ], [ 5.9267791, 43.1192234 ], [ 5.926431, 43.1193281 ], [ 5.926111, 43.1186678 ], [ 5.9260348, 43.1186402 ], [ 5.9259346, 43.1186675 ], [ 5.925902, 43.1187344 ], [ 5.9261764, 43.1192729 ], [ 5.9262021, 43.1193922 ], [ 5.926226, 43.1195031 ], [ 5.9259688, 43.1195708 ], [ 5.9258382, 43.1193039 ], [ 5.9258504, 43.1192873 ], [ 5.9256108, 43.1188407 ], [ 5.9255735, 43.1188066 ], [ 5.9255228, 43.1187949 ], [ 5.9254648, 43.1187894 ], [ 5.9253997, 43.1188118 ], [ 5.9253686, 43.1188367 ], [ 5.9253448, 43.1188742 ], [ 5.9253432, 43.1189162 ], [ 5.9255632, 43.1193873 ], [ 5.9255828, 43.1193848 ], [ 5.9257218, 43.1196389 ], [ 5.9254452, 43.1197236 ], [ 5.9253377, 43.1196037 ], [ 5.924634, 43.1195192 ], [ 5.9246515, 43.1194321 ], [ 5.9249853, 43.1177742 ], [ 5.9254168, 43.1156305 ], [ 5.9254279, 43.1155753 ], [ 5.9254347, 43.1155417 ], [ 5.9254744, 43.1155424 ], [ 5.9254994, 43.1154789 ], [ 5.9255319, 43.1154669 ], [ 5.9263357, 43.1155396 ], [ 5.9263663, 43.115548 ], [ 5.9263858, 43.1155643 ], [ 5.9265843, 43.1159959 ], [ 5.9274497, 43.1178777 ], [ 5.9277513, 43.117806 ], [ 5.9277897, 43.1178892 ], [ 5.9287422, 43.1176097 ], [ 5.9287722, 43.1176317 ], [ 5.928796, 43.1176506 ], [ 5.9288847, 43.1178554 ], [ 5.9289104, 43.1178555 ], [ 5.9290029, 43.1180398 ], [ 5.9289934, 43.1180621 ], [ 5.928937, 43.1180791 ], [ 5.9287637, 43.1181402 ], [ 5.9284492, 43.118235 ], [ 5.9283752, 43.1182276 ], [ 5.928301, 43.1182201 ], [ 5.9279293, 43.1183146 ], [ 5.9275903, 43.1184008 ], [ 5.9275153, 43.1184199 ], [ 5.9274845, 43.1184476 ], [ 5.9274708, 43.1184874 ], [ 5.9274776, 43.1185333 ], [ 5.9278058, 43.1192137 ], [ 5.9278293, 43.1192109 ], [ 5.9281798, 43.1198755 ], [ 5.92822, 43.1198805 ], [ 5.9281546, 43.120286 ], [ 5.9280947, 43.120657 ], [ 5.9282564, 43.1208404 ], [ 5.9282999, 43.1208177 ], [ 5.9285472, 43.121099 ], [ 5.9291827, 43.1207702 ], [ 5.9292379, 43.1207483 ], [ 5.9292891, 43.1207455 ], [ 5.9293353, 43.1207516 ], [ 5.9293773, 43.1207739 ], [ 5.9296339, 43.1210367 ], [ 5.9296743, 43.1210782 ], [ 5.9297121, 43.1211169 ], [ 5.9312493, 43.1203208 ], [ 5.931165, 43.1201976 ], [ 5.9317344, 43.1199083 ], [ 5.9318626, 43.1200035 ], [ 5.932204, 43.1198281 ], [ 5.9325932, 43.1196397 ], [ 5.9330638, 43.1193979 ], [ 5.933316, 43.1192689 ], [ 5.9333591, 43.1192485 ], [ 5.9334452, 43.1192029 ], [ 5.9337839, 43.1190275 ], [ 5.9337953, 43.119005 ], [ 5.9344352, 43.1186783 ], [ 5.9339985, 43.1181201 ], [ 5.933681, 43.1180892 ], [ 5.9336612, 43.1180873 ], [ 5.9332681, 43.1180582 ], [ 5.9328407, 43.1180246 ], [ 5.9324306, 43.1179894 ], [ 5.9324069, 43.1179893 ], [ 5.9323325, 43.1179357 ], [ 5.9322578, 43.1178819 ], [ 5.9312698, 43.1172503 ], [ 5.9305919, 43.1170476 ], [ 5.9304434, 43.1171561 ], [ 5.9304155, 43.1171811 ], [ 5.9303874, 43.1172026 ], [ 5.9299881, 43.1175019 ], [ 5.9299636, 43.117521 ], [ 5.9296897, 43.117728 ], [ 5.9296659, 43.1177463 ], [ 5.9296517, 43.1177476 ], [ 5.9296339, 43.1177583 ], [ 5.929599, 43.1177576 ], [ 5.9295699, 43.1177488 ], [ 5.9295541, 43.1177329 ], [ 5.9294482, 43.1176403 ], [ 5.9292598, 43.1174853 ], [ 5.9291911, 43.1172056 ], [ 5.9293695, 43.1172156 ], [ 5.9295508, 43.1172193 ], [ 5.9296934, 43.1156938 ], [ 5.9300476, 43.1157863 ], [ 5.9299693, 43.1159412 ], [ 5.9299054, 43.1160675 ], [ 5.9308059, 43.1163388 ], [ 5.9335994, 43.1171612 ], [ 5.9335902, 43.117178 ], [ 5.9337344, 43.1172242 ], [ 5.9338482, 43.1171973 ], [ 5.9338936, 43.1170968 ], [ 5.9336617, 43.1155059 ], [ 5.9341502, 43.115451 ], [ 5.9341395, 43.1153566 ], [ 5.9337327, 43.1153991 ], [ 5.9336568, 43.1154151 ], [ 5.933638, 43.1153583 ], [ 5.9337209, 43.1153432 ], [ 5.9341329, 43.115295 ], [ 5.9341303, 43.1152185 ], [ 5.9340955, 43.1149202 ], [ 5.9336323, 43.1150344 ], [ 5.9336172, 43.1149999 ], [ 5.9340962, 43.1148793 ], [ 5.9340742, 43.1144891 ], [ 5.9336514, 43.1146577 ], [ 5.9336188, 43.1146166 ], [ 5.933639, 43.114605 ], [ 5.9340619, 43.1144248 ], [ 5.934041, 43.1140574 ], [ 5.93364, 43.1142526 ], [ 5.933596, 43.1142051 ], [ 5.9336204, 43.1141938 ], [ 5.9340405, 43.1139799 ], [ 5.934188, 43.113905 ], [ 5.9343086, 43.1140269 ], [ 5.9343538, 43.1140033 ], [ 5.9342354, 43.1138791 ], [ 5.9343812, 43.1138042 ], [ 5.9346407, 43.1136747 ], [ 5.9346306, 43.1135929 ], [ 5.9344809, 43.1134156 ], [ 5.9344741, 43.1134075 ], [ 5.9327863, 43.1136933 ], [ 5.9323876, 43.1137588 ], [ 5.9320479, 43.1138285 ], [ 5.9320058, 43.1138356 ], [ 5.9319429, 43.1138444 ], [ 5.9318575, 43.1138562 ], [ 5.9318483, 43.1138317 ], [ 5.9317281, 43.1138533 ], [ 5.9317372, 43.1138797 ], [ 5.9314081, 43.113932 ], [ 5.9309167, 43.1140185 ], [ 5.9308971, 43.114043 ], [ 5.9310242, 43.1149499 ], [ 5.9310251, 43.1149582 ], [ 5.9309857, 43.1149594 ], [ 5.9309683, 43.1148543 ], [ 5.9309516, 43.1148366 ], [ 5.9309329, 43.1148361 ], [ 5.9309137, 43.1148365 ], [ 5.9308798, 43.1148133 ], [ 5.9308751, 43.1147315 ], [ 5.9308043, 43.11434 ], [ 5.9307889, 43.114217 ], [ 5.9307468, 43.1141745 ], [ 5.9306019, 43.1141553 ], [ 5.9305086, 43.1141429 ], [ 5.9302601, 43.1140927 ], [ 5.9301489, 43.1140027 ], [ 5.9299749, 43.1133664 ], [ 5.929834, 43.1129355 ], [ 5.9297267, 43.1127543 ], [ 5.9297401, 43.1126564 ], [ 5.9299548, 43.1124703 ], [ 5.9299629, 43.1124634 ], [ 5.930109, 43.1123381 ], [ 5.9302834, 43.1122451 ], [ 5.9306188, 43.1122206 ], [ 5.9307798, 43.1121422 ], [ 5.9308249, 43.111968 ], [ 5.9299654, 43.1106147 ], [ 5.9288953, 43.1088557 ], [ 5.9275435, 43.1066472 ], [ 5.9276954, 43.1066015 ], [ 5.928016, 43.1071033 ], [ 5.9289531, 43.1067837 ], [ 5.9281857, 43.1055768 ], [ 5.9272823, 43.1059306 ], [ 5.9274612, 43.106256 ], [ 5.9273971, 43.1063265 ], [ 5.9273013, 43.1063012 ], [ 5.9267793, 43.1054826 ], [ 5.9268025, 43.1054755 ], [ 5.9267486, 43.1053869 ], [ 5.9267242, 43.1053483 ], [ 5.925985, 43.1042019 ], [ 5.9259008, 43.1041026 ], [ 5.9257968, 43.10398 ], [ 5.9256411, 43.1038988 ], [ 5.9254012, 43.1037737 ], [ 5.9251752, 43.1035055 ], [ 5.9250905, 43.1031342 ], [ 5.925166, 43.1030705 ], [ 5.9251158, 43.1028641 ], [ 5.9251424, 43.1026715 ], [ 5.925175, 43.1025773 ], [ 5.9252223, 43.1024967 ], [ 5.9253447, 43.1024123 ], [ 5.9253727, 43.1023651 ], [ 5.9255446, 43.1023096 ], [ 5.9256837, 43.1022803 ], [ 5.9257641, 43.1022079 ], [ 5.9258111, 43.1022245 ], [ 5.9258297, 43.1022704 ], [ 5.9258366, 43.1023048 ], [ 5.9257896, 43.102341 ], [ 5.9254879, 43.1023988 ], [ 5.9254329, 43.1024575 ], [ 5.9253538, 43.1025075 ], [ 5.9253162, 43.1025721 ], [ 5.9252773, 43.1026514 ], [ 5.9252639, 43.1027464 ], [ 5.9252223, 43.1028257 ], [ 5.9252411, 43.1029001 ], [ 5.9252639, 43.1029569 ], [ 5.9253135, 43.1030333 ], [ 5.9253712, 43.1030451 ], [ 5.9254087, 43.1030323 ], [ 5.9254087, 43.1029305 ], [ 5.9253739, 43.1027503 ], [ 5.9253994, 43.102626 ], [ 5.9254275, 43.1025545 ], [ 5.9255308, 43.1024703 ], [ 5.9255978, 43.1024331 ], [ 5.9256609, 43.1024507 ], [ 5.925964, 43.1023851 ], [ 5.9259103, 43.1022588 ], [ 5.9259138, 43.1022306 ], [ 5.9259962, 43.1021746 ], [ 5.9259821, 43.1020032 ], [ 5.9260156, 43.101989 ], [ 5.9260532, 43.1020169 ], [ 5.9260672, 43.1021726 ], [ 5.9262751, 43.1021677 ], [ 5.9262738, 43.1022284 ], [ 5.9264453, 43.1022217 ], [ 5.9265769, 43.1022656 ], [ 5.9267331, 43.1023351 ], [ 5.9267378, 43.1023033 ], [ 5.9267143, 43.1021016 ], [ 5.9266097, 43.1015038 ], [ 5.9265252, 43.1014671 ], [ 5.9264575, 43.1014475 ], [ 5.9261893, 43.10147 ], [ 5.9261202, 43.1014656 ], [ 5.926084, 43.1014431 ], [ 5.9260894, 43.1014083 ], [ 5.9261323, 43.1013922 ], [ 5.9262617, 43.1013819 ], [ 5.9264159, 43.1013706 ], [ 5.9264629, 43.1013604 ], [ 5.9265286, 43.1013702 ], [ 5.9265547, 43.1013501 ], [ 5.9265795, 43.1013339 ], [ 5.9264857, 43.1012438 ], [ 5.9262061, 43.101294 ], [ 5.9261342, 43.1012688 ], [ 5.9261162, 43.1012131 ], [ 5.9260996, 43.1012145 ], [ 5.9260852, 43.101174 ], [ 5.9261062, 43.1011506 ], [ 5.9261208, 43.1011412 ], [ 5.926119, 43.1010947 ], [ 5.9261467, 43.1010903 ], [ 5.926144, 43.1010737 ], [ 5.9261859, 43.1010666 ], [ 5.9261987, 43.1011021 ], [ 5.9262754, 43.1010899 ], [ 5.9262677, 43.10105 ], [ 5.9263106, 43.1010463 ], [ 5.926318, 43.1010835 ], [ 5.9264497, 43.101054 ], [ 5.9265002, 43.1010435 ], [ 5.9265078, 43.1010737 ], [ 5.9264702, 43.1010835 ], [ 5.9265322, 43.1010943 ], [ 5.9265412, 43.1011166 ], [ 5.9265303, 43.1011206 ], [ 5.9265433, 43.1011503 ], [ 5.9265249, 43.1011577 ], [ 5.9265489, 43.10118 ], [ 5.9265261, 43.1012031 ], [ 5.9266687, 43.1013378 ], [ 5.9266996, 43.10133 ], [ 5.9267257, 43.1013589 ], [ 5.9267291, 43.1014069 ], [ 5.9267177, 43.1014793 ], [ 5.9267324, 43.1015738 ], [ 5.9267519, 43.1015988 ], [ 5.9267539, 43.1016698 ], [ 5.9267458, 43.1016933 ], [ 5.9267331, 43.101732 ], [ 5.9267633, 43.1017868 ], [ 5.926774, 43.1018338 ], [ 5.9267666, 43.1018681 ], [ 5.9267894, 43.1019087 ], [ 5.9267941, 43.1019738 ], [ 5.9267887, 43.1020096 ], [ 5.9267961, 43.1020722 ], [ 5.9268008, 43.1021134 ], [ 5.9268223, 43.1021437 ], [ 5.9268283, 43.1021824 ], [ 5.926839, 43.1022617 ], [ 5.9268297, 43.1023048 ], [ 5.9268129, 43.1023518 ], [ 5.9273224, 43.1025567 ], [ 5.9277462, 43.1025773 ], [ 5.9282942, 43.1025553 ], [ 5.9287771, 43.1022832 ], [ 5.9291216, 43.1022388 ], [ 5.9291065, 43.1021087 ], [ 5.9292436, 43.1020409 ], [ 5.9295583, 43.1022851 ], [ 5.9296141, 43.1022086 ], [ 5.9298219, 43.1023112 ], [ 5.9299043, 43.102232 ], [ 5.9299948, 43.1023787 ], [ 5.9303604, 43.1025001 ], [ 5.9307924, 43.1026489 ], [ 5.9309753, 43.1025834 ], [ 5.9309671, 43.1027217 ], [ 5.9311648, 43.1029073 ], [ 5.9314191, 43.1031136 ], [ 5.9316734, 43.1033405 ], [ 5.9318994, 43.1034849 ], [ 5.9322512, 43.1036727 ], [ 5.9325353, 43.103818 ], [ 5.9330838, 43.1039131 ], [ 5.9331835, 43.1040161 ], [ 5.933353, 43.104178 ], [ 5.9335282, 43.1042808 ], [ 5.9336283, 43.1043798 ], [ 5.9337542, 43.1045242 ], [ 5.9338814, 43.1046046 ], [ 5.9339879, 43.1047233 ], [ 5.9339927, 43.1047866 ], [ 5.934062, 43.104879 ], [ 5.9341391, 43.104924 ], [ 5.9342326, 43.1049817 ], [ 5.9343359, 43.1049889 ], [ 5.9348377, 43.1051124 ], [ 5.9348961, 43.105249 ], [ 5.935033, 43.1053505 ], [ 5.935418, 43.1055487 ], [ 5.9355418, 43.1057785 ], [ 5.9357224, 43.1059532 ], [ 5.9359619, 43.1061277 ], [ 5.9367108, 43.1060799 ], [ 5.9367181, 43.1061827 ], [ 5.9362969, 43.1062121 ], [ 5.9359686, 43.1062365 ], [ 5.9360855, 43.1068172 ], [ 5.9364511, 43.1069917 ], [ 5.9369409, 43.1070062 ], [ 5.9369296, 43.1070651 ], [ 5.937299, 43.1070808 ], [ 5.9373024, 43.107017 ], [ 5.937316, 43.1070177 ], [ 5.9374219, 43.1070231 ], [ 5.9381138, 43.1070581 ], [ 5.9383064, 43.107103 ], [ 5.9384366, 43.1069471 ], [ 5.9382958, 43.1067613 ], [ 5.9381098, 43.1065556 ], [ 5.9369233, 43.1058885 ], [ 5.9370302, 43.1058013 ], [ 5.9377507, 43.1062225 ], [ 5.9382545, 43.1065112 ], [ 5.9385073, 43.1067625 ], [ 5.9385346, 43.1067346 ], [ 5.9386183, 43.1066895 ], [ 5.938666, 43.1066772 ], [ 5.9387168, 43.1066685 ], [ 5.9388054, 43.1066605 ], [ 5.938899, 43.1066648 ], [ 5.9389916, 43.1066895 ], [ 5.9390642, 43.1067273 ], [ 5.9391369, 43.1067862 ], [ 5.9391648, 43.1068233 ], [ 5.9391942, 43.1068685 ], [ 5.9391991, 43.1069085 ], [ 5.9391504, 43.1070107 ], [ 5.9390066, 43.1069733 ], [ 5.9390001, 43.1070095 ], [ 5.938988, 43.1070767 ], [ 5.9389874, 43.10708 ], [ 5.9391189, 43.1072608 ], [ 5.939261, 43.1073937 ], [ 5.9394115, 43.1074528 ], [ 5.9394218, 43.1074559 ], [ 5.9397782, 43.1075635 ], [ 5.939972, 43.1072607 ], [ 5.9400474, 43.1072668 ], [ 5.940092, 43.1072963 ], [ 5.9399044, 43.1076048 ], [ 5.9399283, 43.1076494 ], [ 5.9400217, 43.1077279 ], [ 5.9402867, 43.1077347 ], [ 5.9408136, 43.1078384 ], [ 5.9411018, 43.1078412 ], [ 5.9413015, 43.1078001 ], [ 5.9414921, 43.1077221 ], [ 5.9416306, 43.1076227 ], [ 5.9416833, 43.1075659 ], [ 5.941712, 43.1075068 ], [ 5.9414613, 43.1073843 ], [ 5.9415273, 43.1073364 ], [ 5.9417068, 43.1073772 ], [ 5.9417144, 43.107115 ], [ 5.9415805, 43.1070728 ], [ 5.9414573, 43.1070306 ], [ 5.9413888, 43.1070561 ], [ 5.9413736, 43.1070373 ], [ 5.9413358, 43.1069887 ], [ 5.9421425, 43.1067145 ], [ 5.9421906, 43.1067996 ], [ 5.9420307, 43.1068584 ], [ 5.9421064, 43.1069257 ], [ 5.942182, 43.1069585 ], [ 5.9423425, 43.1069782 ], [ 5.9425362, 43.1069516 ], [ 5.9427304, 43.1068564 ], [ 5.942862, 43.106774 ], [ 5.9429895, 43.106674 ], [ 5.9430485, 43.1066137 ], [ 5.9431028, 43.1065123 ], [ 5.9431236, 43.1063995 ], [ 5.9430789, 43.1061836 ], [ 5.9424041, 43.1059935 ], [ 5.9422955, 43.1059392 ], [ 5.9423881, 43.1058173 ], [ 5.9425646, 43.1058221 ], [ 5.9429805, 43.1059585 ], [ 5.9437301, 43.1061719 ], [ 5.9437983, 43.1061287 ], [ 5.9438516, 43.1061419 ], [ 5.9439209, 43.1061644 ], [ 5.9438571, 43.1062387 ], [ 5.9440829, 43.106309 ], [ 5.9443739, 43.1063858 ], [ 5.9444678, 43.1064512 ], [ 5.9443652, 43.1065819 ], [ 5.9439478, 43.1064664 ], [ 5.94388, 43.1065178 ], [ 5.9438364, 43.1065929 ], [ 5.943812, 43.1066972 ], [ 5.9438242, 43.106799 ], [ 5.9438771, 43.1069068 ], [ 5.9439984, 43.1070633 ], [ 5.9442733, 43.1072424 ], [ 5.944556, 43.1073658 ], [ 5.9449918, 43.1074661 ], [ 5.9452269, 43.1074815 ], [ 5.9454198, 43.1074815 ], [ 5.9455677, 43.1074699 ], [ 5.9456971, 43.1074506 ], [ 5.9460855, 43.1073426 ], [ 5.9463768, 43.1071805 ], [ 5.9466353, 43.106958 ], [ 5.9467036, 43.1068149 ], [ 5.9467149, 43.106663 ], [ 5.9466723, 43.1065738 ], [ 5.9459907, 43.1064965 ], [ 5.9459135, 43.1064025 ], [ 5.946026, 43.1063244 ], [ 5.9476129, 43.1065153 ], [ 5.947673, 43.1066219 ], [ 5.94757, 43.1066845 ], [ 5.9471985, 43.1066345 ], [ 5.9471062, 43.106776 ], [ 5.9471169, 43.1068847 ], [ 5.9471479, 43.1069935 ], [ 5.9472603, 43.1071249 ], [ 5.9474515, 43.1072583 ], [ 5.9477805, 43.1073938 ], [ 5.9480954, 43.1074554 ], [ 5.9482528, 43.1074615 ], [ 5.9485557, 43.1074433 ], [ 5.9488234, 43.1074096 ], [ 5.9490485, 43.107322 ], [ 5.9493948, 43.1072246 ], [ 5.9494936, 43.107052 ], [ 5.9495493, 43.1069187 ], [ 5.9494281, 43.1067554 ], [ 5.9495153, 43.1065861 ], [ 5.9494571, 43.1064473 ], [ 5.9491198, 43.1062696 ], [ 5.94911, 43.1061909 ], [ 5.949244, 43.1061567 ], [ 5.949668, 43.106311 ], [ 5.9497914, 43.1063933 ], [ 5.9500167, 43.1064652 ], [ 5.9501763, 43.1065127 ], [ 5.9504899, 43.1066528 ], [ 5.9507811, 43.1066669 ], [ 5.9508629, 43.1066845 ], [ 5.9509434, 43.1066757 ], [ 5.9511258, 43.1066777 ], [ 5.9514128, 43.1066767 ], [ 5.9517997, 43.1066878 ], [ 5.9520176, 43.1066909 ], [ 5.9521704, 43.1066889 ], [ 5.9522691, 43.106735 ], [ 5.9524614, 43.1068424 ], [ 5.952774, 43.106735 ], [ 5.9531931, 43.1066028 ], [ 5.9539656, 43.1063551 ], [ 5.9542163, 43.1062748 ], [ 5.9543967, 43.1062288 ], [ 5.9544847, 43.1062112 ], [ 5.9545245, 43.1062209 ], [ 5.9545728, 43.1062571 ], [ 5.9545964, 43.106305 ], [ 5.9545825, 43.1063132 ], [ 5.9546508, 43.1064151 ], [ 5.9547159, 43.106507 ], [ 5.9545829, 43.10654 ], [ 5.9547188, 43.1067568 ], [ 5.9547691, 43.1068358 ], [ 5.9547137, 43.1069369 ], [ 5.9546886, 43.1069773 ], [ 5.9546483, 43.1070563 ], [ 5.9546307, 43.1070894 ], [ 5.9545275, 43.107071 ], [ 5.9542306, 43.1069755 ], [ 5.9541651, 43.1070618 ], [ 5.9540645, 43.1072198 ], [ 5.9540343, 43.10733 ], [ 5.9540443, 43.1074201 ], [ 5.9541148, 43.1075946 ], [ 5.9542532, 43.1077177 ], [ 5.9544368, 43.1078343 ], [ 5.9548093, 43.1079639 ], [ 5.9551868, 43.1081072 ], [ 5.9557782, 43.1082928 ], [ 5.9564625, 43.1084148 ], [ 5.9572599, 43.1082209 ], [ 5.9573334, 43.1081726 ], [ 5.9575389, 43.108023 ], [ 5.9577327, 43.1077601 ], [ 5.958019, 43.1074973 ], [ 5.9582405, 43.107322 ], [ 5.9584436, 43.1072007 ], [ 5.9587391, 43.1070928 ], [ 5.9589367, 43.1071137 ], [ 5.9591344, 43.1071687 ], [ 5.9597122, 43.107148 ], [ 5.9597809, 43.1071827 ], [ 5.9598494, 43.1071939 ], [ 5.9598934, 43.107201 ], [ 5.9600424, 43.1071718 ], [ 5.9601346, 43.1071848 ], [ 5.96048, 43.1071206 ], [ 5.9609034, 43.1070588 ], [ 5.9610449, 43.1071014 ], [ 5.9616656, 43.1071756 ], [ 5.9627101, 43.1071275 ], [ 5.9630489, 43.107045 ], [ 5.9636511, 43.1067222 ], [ 5.9641498, 43.1064817 ], [ 5.9645356, 43.1062481 ], [ 5.9646862, 43.1061932 ], [ 5.9651661, 43.1061588 ], [ 5.9656174, 43.106047 ], [ 5.9656648, 43.1060352 ], [ 5.9661071, 43.1058634 ], [ 5.9668881, 43.1054237 ], [ 5.9674472, 43.1051576 ], [ 5.9676315, 43.1048535 ], [ 5.9675089, 43.1047821 ], [ 5.9673099, 43.1046711 ], [ 5.9672219, 43.104571 ], [ 5.9673192, 43.1044811 ], [ 5.9672936, 43.1043679 ], [ 5.9674105, 43.1041567 ], [ 5.9675288, 43.1041427 ], [ 5.9676053, 43.1041819 ], [ 5.9676576, 43.1041349 ], [ 5.9676095, 43.1040986 ], [ 5.9676468, 43.1040477 ], [ 5.9676602, 43.1038597 ], [ 5.9679177, 43.1037931 ], [ 5.9679158, 43.1037072 ], [ 5.9681595, 43.1036565 ], [ 5.9683043, 43.1037643 ], [ 5.9683427, 43.1039249 ], [ 5.9682101, 43.1039694 ], [ 5.9682525, 43.1040191 ], [ 5.9682327, 43.1040883 ], [ 5.9681228, 43.1041569 ], [ 5.9681715, 43.1041975 ], [ 5.9681364, 43.1042322 ], [ 5.9681911, 43.1042725 ], [ 5.9683373, 43.1041746 ], [ 5.9684672, 43.1041775 ], [ 5.9685118, 43.1041401 ], [ 5.9685614, 43.1041237 ], [ 5.9686853, 43.1041458 ], [ 5.9687427, 43.1042059 ], [ 5.96865, 43.1042794 ], [ 5.968686, 43.1043961 ], [ 5.9686669, 43.1044856 ], [ 5.968604, 43.1045681 ], [ 5.9687505, 43.1045496 ], [ 5.9687969, 43.1045937 ], [ 5.9688355, 43.1045237 ], [ 5.9689234, 43.1044221 ], [ 5.9690421, 43.1043608 ], [ 5.9691898, 43.104343 ], [ 5.9693289, 43.104447 ], [ 5.969457, 43.1044434 ], [ 5.9694814, 43.1044667 ], [ 5.969675, 43.1044589 ], [ 5.9698335, 43.104561 ], [ 5.9700254, 43.1045613 ], [ 5.9703333, 43.1046804 ], [ 5.9704652, 43.1048076 ], [ 5.9702607, 43.104927 ], [ 5.9702828, 43.1050538 ], [ 5.9703607, 43.1051604 ], [ 5.9704739, 43.1051072 ], [ 5.9705259, 43.1051104 ], [ 5.9706897, 43.1050733 ], [ 5.9707754, 43.1051246 ], [ 5.9708805, 43.1053673 ], [ 5.9710536, 43.1053342 ], [ 5.9710137, 43.1051451 ], [ 5.9710606, 43.1049424 ], [ 5.9712732, 43.1047508 ], [ 5.9712863, 43.1046417 ], [ 5.9713954, 43.1045375 ], [ 5.9715339, 43.1045058 ], [ 5.9716952, 43.1043518 ], [ 5.9717855, 43.1044208 ], [ 5.9719274, 43.1043214 ], [ 5.9720231, 43.1043204 ], [ 5.9721522, 43.1044146 ], [ 5.9722463, 43.1044353 ], [ 5.9722839, 43.1046206 ], [ 5.9722249, 43.1047471 ], [ 5.9721011, 43.1047848 ], [ 5.9721033, 43.1050846 ], [ 5.9721683, 43.1051251 ], [ 5.9721175, 43.1052395 ], [ 5.9720094, 43.1054381 ], [ 5.9720135, 43.1055713 ], [ 5.9719611, 43.1056237 ], [ 5.9718338, 43.1056633 ], [ 5.9716898, 43.1056545 ], [ 5.9714288, 43.105774 ], [ 5.9715038, 43.1057836 ], [ 5.9715138, 43.1059714 ], [ 5.9714301, 43.106007 ], [ 5.9714288, 43.106099 ], [ 5.97141, 43.1061304 ], [ 5.9714194, 43.1061862 ], [ 5.971364, 43.1062443 ], [ 5.971435, 43.1064127 ], [ 5.9715928, 43.1065785 ], [ 5.9717595, 43.1067038 ], [ 5.9719431, 43.106792 ], [ 5.9722285, 43.1069292 ], [ 5.9723146, 43.1070662 ], [ 5.9725012, 43.1071753 ], [ 5.9726398, 43.1072191 ], [ 5.9729099, 43.1073437 ], [ 5.9731474, 43.1074787 ], [ 5.9733374, 43.1075192 ], [ 5.9735478, 43.1075718 ], [ 5.9737113, 43.1075716 ], [ 5.9737717, 43.1075863 ], [ 5.9738143, 43.1076165 ], [ 5.9740412, 43.1076568 ], [ 5.9741338, 43.1077425 ], [ 5.974414, 43.1077606 ], [ 5.9744556, 43.1078046 ], [ 5.9745119, 43.1078144 ], [ 5.9745616, 43.1077782 ], [ 5.9745951, 43.1078115 ], [ 5.9748687, 43.1078296 ], [ 5.9751114, 43.107835 ], [ 5.9751798, 43.1078056 ], [ 5.975488, 43.1077885 ], [ 5.9759582, 43.1077101 ], [ 5.976246, 43.1076118 ], [ 5.9762896, 43.1076 ], [ 5.9763432, 43.1076093 ], [ 5.9764666, 43.1075574 ], [ 5.9765206, 43.1075246 ], [ 5.9765766, 43.107505 ], [ 5.9767348, 43.1074292 ], [ 5.976761, 43.107389 ], [ 5.9769852, 43.1072515 ], [ 5.9773717, 43.1068862 ], [ 5.9773638, 43.1068461 ], [ 5.97738, 43.1067266 ], [ 5.9773643, 43.1066134 ], [ 5.9772518, 43.1065837 ], [ 5.9771278, 43.1065716 ], [ 5.9771271, 43.1065499 ], [ 5.9773638, 43.1065328 ], [ 5.977331, 43.1064373 ], [ 5.9771358, 43.1063996 ], [ 5.9770842, 43.1065759 ], [ 5.976997, 43.1066268 ], [ 5.9769849, 43.1066155 ], [ 5.9770473, 43.1065675 ], [ 5.977103, 43.1063884 ], [ 5.9770989, 43.1063644 ], [ 5.9770815, 43.1063558 ], [ 5.9770862, 43.1063438 ], [ 5.9770057, 43.1063198 ], [ 5.976993, 43.1063286 ], [ 5.9769712, 43.106324 ], [ 5.9769635, 43.1063399 ], [ 5.9769474, 43.106337 ], [ 5.9769139, 43.1065445 ], [ 5.9768991, 43.1065455 ], [ 5.9768917, 43.1065852 ], [ 5.97682, 43.1066003 ], [ 5.9768066, 43.1065817 ], [ 5.9768616, 43.1063888 ], [ 5.9769036, 43.1062932 ], [ 5.9768954, 43.1062727 ], [ 5.9768656, 43.1062811 ], [ 5.9768039, 43.106266 ], [ 5.976824, 43.1062121 ], [ 5.9769226, 43.1062288 ], [ 5.9769467, 43.1061935 ], [ 5.9769863, 43.1061808 ], [ 5.9770507, 43.1060687 ], [ 5.9771231, 43.1059688 ], [ 5.9772639, 43.1058954 ], [ 5.9773122, 43.1058866 ], [ 5.9773484, 43.1058709 ], [ 5.9774423, 43.1058748 ], [ 5.9776005, 43.1058366 ], [ 5.977677, 43.1058631 ], [ 5.9777239, 43.105864 ], [ 5.977744, 43.1058915 ], [ 5.9778084, 43.1059042 ], [ 5.9778325, 43.1059708 ], [ 5.9779975, 43.106052 ], [ 5.9781678, 43.1060775 ], [ 5.9782335, 43.1061588 ], [ 5.9783703, 43.1061666 ], [ 5.9785232, 43.1062596 ], [ 5.9786989, 43.1062361 ], [ 5.9787565, 43.1062988 ], [ 5.9788625, 43.1062978 ], [ 5.9789228, 43.1062674 ], [ 5.9789242, 43.1062283 ], [ 5.9790298, 43.1061375 ], [ 5.9791267, 43.1062146 ], [ 5.979246, 43.1062635 ], [ 5.9791978, 43.1063418 ], [ 5.9790623, 43.1064868 ], [ 5.9790127, 43.1065308 ], [ 5.978943, 43.1065974 ], [ 5.978786, 43.1066189 ], [ 5.9786962, 43.1066385 ], [ 5.9786855, 43.1066836 ], [ 5.9787136, 43.1068853 ], [ 5.9787197, 43.106897 ], [ 5.9787123, 43.1069136 ], [ 5.978809, 43.107025 ], [ 5.9788261, 43.1070702 ], [ 5.9786687, 43.107165 ], [ 5.9785204, 43.1070478 ], [ 5.9782104, 43.1070213 ], [ 5.9782494, 43.10706 ], [ 5.9782923, 43.1071093 ], [ 5.9783298, 43.1071644 ], [ 5.9783468, 43.1071967 ], [ 5.9783598, 43.1073022 ], [ 5.9783698, 43.1073761 ], [ 5.9783858, 43.107442 ], [ 5.9784075, 43.1074824 ], [ 5.9784434, 43.1075299 ], [ 5.9784765, 43.1075626 ], [ 5.9785244, 43.1075952 ], [ 5.9785918, 43.1076283 ], [ 5.9788412, 43.1076888 ], [ 5.9789143, 43.1077065 ], [ 5.9789704, 43.107726 ], [ 5.9790044, 43.1077387 ], [ 5.979027, 43.1077476 ], [ 5.9790624, 43.1077552 ], [ 5.9791071, 43.1077618 ], [ 5.979163, 43.1077691 ], [ 5.9792141, 43.1077747 ], [ 5.9792535, 43.1077793 ], [ 5.9792976, 43.10779 ], [ 5.9793762, 43.1078203 ], [ 5.9793961, 43.1078293 ], [ 5.9796327, 43.1080489 ], [ 5.9800433, 43.1083676 ], [ 5.9801773, 43.1085641 ], [ 5.9806021, 43.1091321 ], [ 5.9806282, 43.1093182 ], [ 5.9804527, 43.1098594 ], [ 5.9801895, 43.1102654 ], [ 5.9801605, 43.110367 ], [ 5.98017, 43.1105494 ], [ 5.9802188, 43.1108196 ], [ 5.9802976, 43.1116069 ], [ 5.9802806, 43.1117629 ], [ 5.9801091, 43.1123498 ], [ 5.980088, 43.1124264 ], [ 5.9800667, 43.112531 ], [ 5.9800509, 43.1126084 ], [ 5.9800673, 43.1128344 ], [ 5.9800961, 43.1129962 ], [ 5.9801405, 43.1131407 ], [ 5.9801752, 43.1131506 ], [ 5.9811151, 43.1151748 ], [ 5.9810898, 43.1154295 ], [ 5.981711, 43.115826 ], [ 5.9821034, 43.1159528 ], [ 5.9825559, 43.1159314 ], [ 5.9830843, 43.1157854 ], [ 5.9833879, 43.1156611 ], [ 5.9838935, 43.1153857 ], [ 5.9841802, 43.1156551 ], [ 5.9844667, 43.115803 ], [ 5.9845437, 43.1163855 ], [ 5.9842988, 43.1165415 ], [ 5.984175, 43.1165372 ], [ 5.9843245, 43.1172631 ], [ 5.9842822, 43.1177495 ], [ 5.9842731, 43.1178536 ], [ 5.9844015, 43.1181723 ], [ 5.98444, 43.1186034 ], [ 5.9845058, 43.1188997 ], [ 5.9846609, 43.11914 ], [ 5.9847141, 43.1193046 ], [ 5.9847339, 43.1194206 ], [ 5.9847766, 43.1195799 ], [ 5.9841656, 43.1195254 ], [ 5.9841608, 43.1195664 ], [ 5.9842301, 43.1195872 ], [ 5.984184, 43.1199046 ], [ 5.98413, 43.1202265 ], [ 5.9840469, 43.1204874 ], [ 5.9841888, 43.1205541 ], [ 5.9841879, 43.120568 ], [ 5.9841943, 43.12064 ], [ 5.9843087, 43.121192 ], [ 5.9843307, 43.1211897 ], [ 5.9844253, 43.1217103 ], [ 5.9844041, 43.1217143 ], [ 5.9844551, 43.1220296 ], [ 5.9846349, 43.1227398 ], [ 5.984523, 43.1231319 ], [ 5.9857312, 43.1232959 ], [ 5.985783, 43.123334 ], [ 5.9861935, 43.1236355 ], [ 5.9871504, 43.1240707 ], [ 5.9872617, 43.124216 ], [ 5.9873841, 43.1242785 ], [ 5.9871015, 43.1250253 ], [ 5.9868426, 43.1258678 ], [ 5.9866712, 43.1263758 ], [ 5.9866238, 43.1264783 ], [ 5.9863759, 43.1269592 ], [ 5.9862076, 43.1273181 ], [ 5.9861809, 43.1273962 ], [ 5.9861255, 43.1276391 ], [ 5.9860712, 43.1279013 ], [ 5.9859645, 43.1284076 ], [ 5.9858663, 43.1287856 ], [ 5.9858056, 43.1289953 ], [ 5.9857626, 43.1291663 ], [ 5.9857487, 43.1292172 ], [ 5.9857274, 43.1292952 ], [ 5.9857026, 43.1293707 ], [ 5.9856951, 43.1293935 ], [ 5.9855831, 43.129747 ], [ 5.9855103, 43.1299713 ], [ 5.9853508, 43.1306275 ], [ 5.9852925, 43.1313121 ], [ 5.9852679, 43.1315828 ], [ 5.9852712, 43.1316651 ], [ 5.985253, 43.1319296 ], [ 5.9851925, 43.1325467 ], [ 5.9851677, 43.1329606 ], [ 5.9850978, 43.1332634 ], [ 5.9850586, 43.1333607 ], [ 5.985023, 43.1334548 ], [ 5.9832349, 43.1328892 ], [ 5.9830737, 43.1328164 ], [ 5.9826364, 43.1331763 ], [ 5.9822909, 43.1334884 ], [ 5.9807116, 43.1348878 ], [ 5.9804124, 43.1351529 ], [ 5.9798642, 43.1345701 ], [ 5.9791419, 43.1347368 ], [ 5.9784467, 43.1348973 ], [ 5.9782035, 43.1349522 ], [ 5.9781048, 43.1349783 ], [ 5.9779415, 43.1350231 ], [ 5.9778576, 43.1350458 ], [ 5.9778306, 43.1350528 ], [ 5.9778086, 43.1350585 ], [ 5.977711, 43.135085 ], [ 5.9775933, 43.1351155 ], [ 5.9774484, 43.1352161 ], [ 5.977393, 43.1353041 ], [ 5.9774784, 43.1355882 ], [ 5.9774858, 43.1357495 ], [ 5.9774924, 43.1358232 ], [ 5.9775407, 43.1367458 ], [ 5.97773, 43.1374819 ], [ 5.9783164, 43.1384682 ], [ 5.9783751, 43.138764 ], [ 5.9784573, 43.1391786 ], [ 5.9784452, 43.1393801 ], [ 5.9783907, 43.1395195 ], [ 5.9783623, 43.1396142 ], [ 5.979085, 43.140795 ], [ 5.9791194, 43.1408552 ], [ 5.9792952, 43.1411146 ], [ 5.9794575, 43.1413541 ], [ 5.9795776, 43.1418385 ], [ 5.9795957, 43.1420901 ], [ 5.9795943, 43.1421138 ], [ 5.9795934, 43.1421301 ], [ 5.979586, 43.1425257 ], [ 5.9797436, 43.1431347 ], [ 5.9798138, 43.1434072 ], [ 5.9798928, 43.1436819 ], [ 5.9799081, 43.1437235 ], [ 5.9799389, 43.1437852 ], [ 5.9801514, 43.144322 ], [ 5.9801844, 43.1444252 ], [ 5.9801883, 43.1445156 ], [ 5.9801718, 43.1445982 ], [ 5.9801319, 43.1446851 ], [ 5.9801071, 43.1447157 ], [ 5.980017, 43.1448273 ], [ 5.9798787, 43.1449695 ], [ 5.9795193, 43.145287 ], [ 5.9791862, 43.1455301 ], [ 5.9787283, 43.1459431 ], [ 5.9780922, 43.1469032 ], [ 5.9776663, 43.1475451 ], [ 5.9773381, 43.1477886 ], [ 5.977194, 43.148105 ], [ 5.9774598, 43.1480923 ], [ 5.9777017, 43.1480682 ], [ 5.9777967, 43.1480463 ], [ 5.9777949, 43.148157 ], [ 5.9773739, 43.1483757 ], [ 5.9770899, 43.1486203 ], [ 5.9767698, 43.1487931 ], [ 5.9765309, 43.1490362 ], [ 5.9764091, 43.1491197 ], [ 5.9762596, 43.1492671 ], [ 5.9761237, 43.1493412 ], [ 5.9760091, 43.1494675 ], [ 5.9758592, 43.1495354 ], [ 5.9757682, 43.1496776 ], [ 5.9757421, 43.1497712 ], [ 5.9755263, 43.1500965 ], [ 5.97529, 43.1503064 ], [ 5.975022, 43.1505173 ], [ 5.9747882, 43.1506432 ], [ 5.9739929, 43.150584 ], [ 5.9736365, 43.1505791 ], [ 5.9734365, 43.1506304 ], [ 5.9733198, 43.1506922 ], [ 5.9731631, 43.1507917 ], [ 5.9730342, 43.150898 ], [ 5.9726458, 43.1510204 ], [ 5.9721972, 43.1512018 ], [ 5.9714738, 43.1512249 ], [ 5.9711693, 43.1512949 ], [ 5.9709583, 43.1515016 ], [ 5.970656, 43.1516521 ], [ 5.9701369, 43.1518965 ], [ 5.9694373, 43.1520715 ], [ 5.9689089, 43.1519131 ], [ 5.9687293, 43.1518312 ], [ 5.9683417, 43.1517701 ], [ 5.9678818, 43.1522135 ], [ 5.9675892, 43.1523273 ], [ 5.9673521, 43.1523803 ], [ 5.9655667, 43.1534933 ], [ 5.9648993, 43.1539924 ], [ 5.9644488, 43.1544062 ], [ 5.9641651, 43.1546862 ], [ 5.9636479, 43.1544427 ], [ 5.9615765, 43.1550451 ], [ 5.9617224, 43.1553096 ], [ 5.9611629, 43.1551001 ], [ 5.9608802, 43.1550802 ], [ 5.9602584, 43.1551015 ], [ 5.9601053, 43.1551067 ], [ 5.9598777, 43.155164 ], [ 5.9592298, 43.1554546 ], [ 5.9591535, 43.1554888 ], [ 5.9590139, 43.1555743 ], [ 5.9585697, 43.1557734 ], [ 5.9576101, 43.1561684 ], [ 5.9574898, 43.1562327 ], [ 5.9574634, 43.1562468 ], [ 5.9573463, 43.156262 ], [ 5.9571579, 43.1562747 ], [ 5.9570244, 43.1562753 ], [ 5.9568067, 43.1563093 ], [ 5.9565717, 43.1563721 ], [ 5.9565357, 43.1563967 ], [ 5.9565298, 43.156433 ], [ 5.9566098, 43.1566033 ], [ 5.9565604, 43.1567098 ], [ 5.9564413, 43.1569003 ], [ 5.9564768, 43.1570282 ], [ 5.9564486, 43.1572309 ], [ 5.9563114, 43.1578531 ], [ 5.9561299, 43.1580519 ], [ 5.956052, 43.1583085 ], [ 5.9558907, 43.1584859 ], [ 5.9555961, 43.1587778 ], [ 5.9554168, 43.159007 ], [ 5.9553927, 43.1590379 ], [ 5.9552811, 43.1591452 ], [ 5.9549839, 43.1594179 ], [ 5.9545275, 43.1598124 ], [ 5.9543801, 43.1599442 ], [ 5.954264, 43.1600155 ], [ 5.9532191, 43.1606303 ], [ 5.952622, 43.1609816 ], [ 5.9517738, 43.1614809 ], [ 5.9516189, 43.1616027 ], [ 5.9514981, 43.1616601 ], [ 5.9512133, 43.1617953 ], [ 5.9510945, 43.1618707 ], [ 5.9506363, 43.162008 ], [ 5.9505648, 43.162073 ], [ 5.9504807, 43.162108 ], [ 5.9503835, 43.1621517 ], [ 5.9500874, 43.1622982 ], [ 5.9498882, 43.1624026 ], [ 5.949714, 43.1625129 ], [ 5.9496336, 43.1625518 ], [ 5.9494619, 43.1626348 ], [ 5.9490462, 43.1628467 ], [ 5.9487864, 43.1629799 ], [ 5.9486063, 43.1630667 ], [ 5.948421, 43.1631041 ], [ 5.9463284, 43.1633858 ], [ 5.9457756, 43.1635494 ], [ 5.9454144, 43.1636496 ], [ 5.9452523, 43.1636883 ], [ 5.9450784, 43.1637148 ], [ 5.9444602, 43.163829 ], [ 5.9440514, 43.1639164 ], [ 5.9436182, 43.1640637 ], [ 5.9435498, 43.1640869 ], [ 5.94293, 43.1643042 ], [ 5.9427187, 43.1643589 ], [ 5.942653, 43.1643759 ], [ 5.941936, 43.1643679 ], [ 5.9413272, 43.1645526 ], [ 5.9411589, 43.1646069 ], [ 5.9408587, 43.1646823 ], [ 5.9407834, 43.1646881 ], [ 5.9407326, 43.164692 ], [ 5.9402326, 43.1647309 ], [ 5.9400501, 43.1647955 ], [ 5.9394824, 43.1650892 ], [ 5.9392387, 43.1651543 ], [ 5.9380688, 43.1653627 ], [ 5.9369858, 43.1653565 ], [ 5.9367892, 43.1653196 ], [ 5.9365156, 43.1653533 ], [ 5.9363465, 43.1652657 ], [ 5.9360255, 43.1652137 ], [ 5.9355858, 43.1651605 ], [ 5.9351137, 43.1650539 ], [ 5.9346048, 43.1648893 ], [ 5.934455, 43.1648347 ], [ 5.9344, 43.1648026 ], [ 5.9341287, 43.1646267 ], [ 5.9337427, 43.1644363 ], [ 5.933627, 43.1643879 ], [ 5.9331517, 43.1642351 ], [ 5.9325461, 43.1640558 ], [ 5.9319635, 43.1638966 ], [ 5.9317109, 43.1638536 ], [ 5.9313242, 43.1637632 ], [ 5.9308425, 43.1636313 ], [ 5.9304508, 43.1634937 ], [ 5.9301532, 43.1633841 ], [ 5.929592, 43.1632883 ], [ 5.9284664, 43.1629705 ], [ 5.9281885, 43.1629839 ], [ 5.9279314, 43.1630141 ], [ 5.9277651, 43.1630787 ], [ 5.9277503, 43.1630854 ], [ 5.9276583, 43.1631271 ], [ 5.927375, 43.1632895 ], [ 5.9273238, 43.1633188 ], [ 5.9242812, 43.1632228 ], [ 5.9237384, 43.1631871 ], [ 5.9227594, 43.1631316 ], [ 5.9207653, 43.1630084 ], [ 5.9205009, 43.163094 ], [ 5.9203468, 43.1631962 ], [ 5.9204166, 43.163254 ], [ 5.9205465, 43.1638618 ], [ 5.9205532, 43.1639731 ], [ 5.9204703, 43.1640244 ], [ 5.9202517, 43.1640943 ], [ 5.9202031, 43.1640643 ], [ 5.9201439, 43.1640548 ], [ 5.9199846, 43.1640685 ], [ 5.9197945, 43.1640917 ], [ 5.9198307, 43.1641504 ], [ 5.9197795, 43.1641637 ], [ 5.9198612, 43.1642592 ], [ 5.9195571, 43.1643442 ], [ 5.9194779, 43.1643725 ], [ 5.9194389, 43.1643898 ], [ 5.9193829, 43.1643901 ], [ 5.9192202, 43.1643504 ], [ 5.9191925, 43.1644028 ], [ 5.9189896, 43.1644705 ], [ 5.9189202, 43.1644889 ], [ 5.9188742, 43.164529 ], [ 5.9185593, 43.1647131 ], [ 5.9181888, 43.1648506 ], [ 5.9181347, 43.1648298 ], [ 5.9180698, 43.1648464 ], [ 5.9180223, 43.1649223 ], [ 5.9177815, 43.1649105 ], [ 5.91766, 43.1647885 ], [ 5.9176212, 43.1647956 ], [ 5.9175411, 43.1648852 ], [ 5.9174867, 43.1648641 ], [ 5.9174432, 43.1647929 ], [ 5.9174182, 43.1642934 ], [ 5.9173816, 43.1642802 ], [ 5.917314, 43.1643855 ], [ 5.917272, 43.1643978 ], [ 5.9172287, 43.1643493 ], [ 5.9170762, 43.1645992 ], [ 5.9170172, 43.1645915 ], [ 5.9169208, 43.1649946 ], [ 5.9168928, 43.1649884 ], [ 5.9166793, 43.1651725 ], [ 5.9166634, 43.1651516 ], [ 5.9162497, 43.1653034 ], [ 5.9162011, 43.1653938 ], [ 5.9147241, 43.1657371 ], [ 5.9146847, 43.1659827 ], [ 5.9145189, 43.1661435 ], [ 5.914466, 43.1663233 ], [ 5.9141671, 43.1666689 ], [ 5.9140968, 43.1664933 ], [ 5.9139048, 43.1663412 ], [ 5.9133192, 43.1661139 ], [ 5.9131453, 43.1659295 ], [ 5.9130184, 43.1658654 ], [ 5.9129543, 43.1659624 ], [ 5.912763, 43.1661024 ], [ 5.9126341, 43.1661162 ], [ 5.9125391, 43.1661411 ], [ 5.9124618, 43.1661826 ], [ 5.9122152, 43.1662318 ], [ 5.9120964, 43.1661918 ], [ 5.9119958, 43.1661779 ], [ 5.9119002, 43.1661931 ], [ 5.911781, 43.1662578 ], [ 5.911697, 43.1663554 ], [ 5.9115868, 43.1664612 ], [ 5.911455, 43.1664264 ], [ 5.9112847, 43.1664708 ], [ 5.9111884, 43.1665299 ], [ 5.9111741, 43.1665693 ], [ 5.9110569, 43.166668 ], [ 5.9110395, 43.1667683 ], [ 5.9109799, 43.1668847 ], [ 5.9109669, 43.167058 ], [ 5.9109894, 43.1671571 ], [ 5.9106236, 43.167383 ], [ 5.9105012, 43.1672262 ], [ 5.9104155, 43.1671826 ], [ 5.9103419, 43.1671752 ], [ 5.9101898, 43.1671922 ], [ 5.9100427, 43.1672359 ], [ 5.9098782, 43.1673214 ], [ 5.9097627, 43.1674493 ], [ 5.9096665, 43.1675108 ], [ 5.9095658, 43.1676065 ], [ 5.9095009, 43.1676354 ], [ 5.9094039, 43.1676263 ], [ 5.9090293, 43.1675359 ], [ 5.9085706, 43.1673167 ], [ 5.9084378, 43.167265 ], [ 5.9083223, 43.1672808 ], [ 5.9076875, 43.1675712 ], [ 5.907585, 43.1675818 ], [ 5.9074784, 43.1675779 ], [ 5.9073056, 43.1675249 ], [ 5.9073268, 43.1676022 ], [ 5.907394, 43.1678387 ], [ 5.9070463, 43.1678083 ], [ 5.9069489, 43.1679332 ], [ 5.9066434, 43.1683641 ], [ 5.906289, 43.1685579 ], [ 5.905817, 43.1696297 ], [ 5.9034553, 43.1706445 ], [ 5.9024261, 43.171494 ], [ 5.9004294, 43.1701342 ], [ 5.8990573, 43.1696584 ], [ 5.8988721, 43.1696347 ], [ 5.8983444, 43.1695529 ], [ 5.8957943, 43.1668914 ], [ 5.8954665, 43.1661968 ], [ 5.8954977, 43.1660488 ], [ 5.8951855, 43.1653655 ], [ 5.8950137, 43.1650581 ], [ 5.8942956, 43.1644432 ], [ 5.8940458, 43.164204 ], [ 5.8940302, 43.1639877 ], [ 5.8941863, 43.163851 ], [ 5.8943112, 43.1636119 ], [ 5.8942019, 43.1634069 ], [ 5.893109, 43.1626212 ], [ 5.8922348, 43.1621315 ], [ 5.8913605, 43.1618696 ], [ 5.8909702, 43.1616874 ], [ 5.8905487, 43.1612091 ], [ 5.8903769, 43.1610838 ], [ 5.8902208, 43.1611294 ], [ 5.8902208, 43.1613116 ], [ 5.8911888, 43.1632133 ], [ 5.8910951, 43.1633386 ], [ 5.8908609, 43.1632816 ], [ 5.8883161, 43.1620859 ], [ 5.8880507, 43.1619834 ], [ 5.8877697, 43.1620632 ], [ 5.8875667, 43.1622795 ], [ 5.8874106, 43.1626439 ], [ 5.8874106, 43.1632133 ], [ 5.8873794, 43.1634752 ], [ 5.887192, 43.1635891 ], [ 5.8867861, 43.1635094 ], [ 5.8858955, 43.1631322 ], [ 5.8854123, 43.1629172 ], [ 5.8844287, 43.1623137 ], [ 5.8842257, 43.1619834 ], [ 5.8843819, 43.161471 ], [ 5.8842726, 43.1609471 ], [ 5.8840696, 43.1607649 ], [ 5.8831011, 43.1605107 ], [ 5.8823608, 43.1603855 ], [ 5.8824516, 43.1596614 ], [ 5.8825025, 43.1592516 ], [ 5.8836211, 43.1508727 ], [ 5.8838577, 43.1486542 ], [ 5.8839311, 43.1479668 ], [ 5.8840688, 43.1466756 ], [ 5.8840972, 43.1464546 ], [ 5.8841177, 43.1462945 ], [ 5.8844353, 43.143816 ], [ 5.8844427, 43.1437716 ], [ 5.8844561, 43.143681 ], [ 5.8846593, 43.1423049 ], [ 5.8847428, 43.1417395 ], [ 5.884859, 43.1409531 ], [ 5.8849038, 43.1407979 ], [ 5.8849637, 43.1405901 ], [ 5.8849928, 43.1404892 ], [ 5.885011, 43.1402723 ], [ 5.8850469, 43.1398451 ], [ 5.8850859, 43.1393807 ], [ 5.8852112, 43.1378893 ], [ 5.885255, 43.1373677 ], [ 5.8853385, 43.1365831 ], [ 5.8854202, 43.1349993 ], [ 5.8855059, 43.1343062 ], [ 5.884433, 43.1344491 ], [ 5.8841876, 43.1344818 ], [ 5.8840734, 43.1344971 ], [ 5.8840312, 43.1342501 ], [ 5.8828775, 43.1344075 ], [ 5.8828818, 43.1344388 ], [ 5.8829176, 43.134692 ], [ 5.8829584, 43.13508 ], [ 5.8829835, 43.135319 ], [ 5.8829411, 43.1353189 ], [ 5.8830068, 43.1355233 ], [ 5.8831301, 43.1361169 ], [ 5.8831552, 43.1362378 ], [ 5.8831262, 43.1366304 ], [ 5.8830484, 43.137323 ], [ 5.8829462, 43.137549 ], [ 5.8828974, 43.1377946 ], [ 5.8828837, 43.1387225 ], [ 5.8838755, 43.1390659 ], [ 5.8838739, 43.1393814 ], [ 5.8838735, 43.1394509 ], [ 5.8838731, 43.1395214 ], [ 5.8833617, 43.1396625 ], [ 5.8828711, 43.1396762 ], [ 5.8826819, 43.13968 ], [ 5.8826823, 43.1396555 ], [ 5.8827127, 43.1380571 ], [ 5.8824622, 43.1380673 ], [ 5.8823961, 43.1376663 ], [ 5.880834, 43.1376483 ], [ 5.880786, 43.1374339 ], [ 5.8804282, 43.1372719 ], [ 5.8802628, 43.1370506 ], [ 5.8806025, 43.1368928 ], [ 5.8812111, 43.1364873 ], [ 5.8814886, 43.1363025 ], [ 5.8817123, 43.1360495 ], [ 5.8818694, 43.1354739 ], [ 5.8821354, 43.1354963 ], [ 5.8824356, 43.1354476 ], [ 5.8822933, 43.135403 ], [ 5.8822459, 43.1353478 ], [ 5.8822709, 43.1352219 ], [ 5.8822277, 43.1351865 ], [ 5.8821263, 43.1351857 ], [ 5.8820781, 43.1351626 ], [ 5.8820472, 43.1350468 ], [ 5.8817735, 43.1350844 ], [ 5.881541, 43.135238 ], [ 5.8801926, 43.1345752 ], [ 5.8801382, 43.1344914 ], [ 5.8798123, 43.1343757 ], [ 5.8795028, 43.1342168 ] ] ], [ [ [ 5.9123112, 43.1170332 ], [ 5.9124725, 43.1162389 ], [ 5.9124894, 43.1162105 ], [ 5.9125335, 43.1161965 ], [ 5.9131993, 43.1161033 ], [ 5.9134022, 43.1151255 ], [ 5.9134149, 43.1150959 ], [ 5.9134468, 43.1150782 ], [ 5.9134842, 43.1150761 ], [ 5.9135158, 43.1150946 ], [ 5.9135919, 43.1151598 ], [ 5.9145099, 43.1146521 ], [ 5.9145584, 43.1146421 ], [ 5.9145892, 43.114652 ], [ 5.9146096, 43.1146769 ], [ 5.914614, 43.1146998 ], [ 5.9145857, 43.1147332 ], [ 5.9135086, 43.115328 ], [ 5.9133866, 43.11612 ], [ 5.913927, 43.1162058 ], [ 5.9142041, 43.1163366 ], [ 5.9142338, 43.1163176 ], [ 5.914839, 43.1166028 ], [ 5.9148809, 43.1165672 ], [ 5.9150475, 43.1166475 ], [ 5.9161243, 43.1150701 ], [ 5.9160787, 43.1150544 ], [ 5.9163576, 43.1134724 ], [ 5.9165695, 43.113488 ], [ 5.9162852, 43.1151308 ], [ 5.9162182, 43.1151053 ], [ 5.915124, 43.1166843 ], [ 5.9156526, 43.116939 ], [ 5.9156986, 43.1169813 ], [ 5.9157306, 43.1170229 ], [ 5.9157436, 43.1170714 ], [ 5.9157432, 43.1171249 ], [ 5.9156455, 43.1171187 ], [ 5.9155377, 43.1177027 ], [ 5.9169014, 43.1178366 ], [ 5.9171784, 43.116239 ], [ 5.9173876, 43.1162625 ], [ 5.9171115, 43.1178572 ], [ 5.9182122, 43.1179665 ], [ 5.9184766, 43.1163682 ], [ 5.9186938, 43.1163868 ], [ 5.9184329, 43.117991 ], [ 5.9193218, 43.1180898 ], [ 5.9194134, 43.1181 ], [ 5.9201289, 43.1181795 ], [ 5.9201674, 43.1182063 ], [ 5.9209294, 43.1190338 ], [ 5.9209755, 43.1191918 ], [ 5.9209441, 43.1192514 ], [ 5.9209012, 43.119316 ], [ 5.9208342, 43.1193761 ], [ 5.9207577, 43.119431 ], [ 5.9206684, 43.1194677 ], [ 5.9205715, 43.119489 ], [ 5.9204547, 43.1194954 ], [ 5.9200529, 43.11945 ], [ 5.9190818, 43.1193503 ], [ 5.9190751, 43.1192089 ], [ 5.9190111, 43.1192038 ], [ 5.918974, 43.1192854 ], [ 5.918952, 43.1192837 ], [ 5.9189257, 43.1193358 ], [ 5.9154416, 43.118981 ], [ 5.9139462, 43.1188212 ], [ 5.9139132, 43.1188085 ], [ 5.9132622, 43.1174416 ], [ 5.9124325, 43.1170569 ], [ 5.9123967, 43.1170748 ], [ 5.9123587, 43.1170711 ], [ 5.9123216, 43.1170572 ], [ 5.9123112, 43.1170332 ] ] ], [ [ [ 5.9220045, 43.1187723 ], [ 5.9221322, 43.1181096 ], [ 5.922698, 43.1151738 ], [ 5.922734, 43.1151432 ], [ 5.9227721, 43.1151333 ], [ 5.9237229, 43.1152175 ], [ 5.9237137, 43.1152638 ], [ 5.9232078, 43.1178212 ], [ 5.9229242, 43.1192547 ], [ 5.922913, 43.1193324 ], [ 5.9225109, 43.1192974 ], [ 5.9220045, 43.1187723 ] ] ], [ [ [ 5.9234172, 43.1193931 ], [ 5.9234335, 43.1193054 ], [ 5.9237419, 43.1178699 ], [ 5.9242887, 43.1153246 ], [ 5.9243007, 43.1152687 ], [ 5.9248057, 43.1153135 ], [ 5.9247757, 43.1154561 ], [ 5.9249518, 43.1154758 ], [ 5.9249411, 43.1155267 ], [ 5.9249291, 43.1155836 ], [ 5.9244788, 43.1177236 ], [ 5.9241292, 43.1193848 ], [ 5.9241126, 43.1194637 ], [ 5.9234172, 43.1193931 ] ] ], [ [ [ 5.954727, 43.1061508 ], [ 5.9549167, 43.1060517 ], [ 5.9550741, 43.1060107 ], [ 5.9554129, 43.1060059 ], [ 5.9556359, 43.1060246 ], [ 5.9557855, 43.1060739 ], [ 5.9559256, 43.1061294 ], [ 5.9560559, 43.1061798 ], [ 5.9562698, 43.1062235 ], [ 5.9566876, 43.1062144 ], [ 5.9567718, 43.1062625 ], [ 5.9568121, 43.10632 ], [ 5.9567466, 43.1063759 ], [ 5.9566082, 43.1064026 ], [ 5.9563127, 43.1063796 ], [ 5.9561237, 43.1066856 ], [ 5.9562421, 43.1067936 ], [ 5.9563994, 43.1069679 ], [ 5.9563705, 43.1070106 ], [ 5.9563142, 43.1070386 ], [ 5.9562501, 43.1070429 ], [ 5.9562178, 43.1070211 ], [ 5.9561656, 43.1069479 ], [ 5.9561127, 43.1068854 ], [ 5.9560264, 43.1067822 ], [ 5.9559961, 43.1067507 ], [ 5.9559595, 43.1067266 ], [ 5.9555992, 43.1065907 ], [ 5.955409, 43.1065333 ], [ 5.9551549, 43.1063674 ], [ 5.9549212, 43.1064376 ], [ 5.9548915, 43.1063769 ], [ 5.9547978, 43.1062401 ], [ 5.9547468, 43.1062273 ], [ 5.954727, 43.1061508 ] ] ] ] } }
]
}
