{
"type": "FeatureCollection",
"name": "valladolid_es",
"crs": { "type": "name", "properties": { "name": "urn:ogc:def:crs:OGC:1.3:CRS84" } },
"features": [
{ "type": "Feature", "properties": { "bbox_west": -4.9281803, "bbox_south": 41.5231281, "bbox_east": -4.6308064, "bbox_north": 41.8155086, "place_id": 292248941, "osm_type": "relation", "osm_id": 348849, "lat": 41.6200024, "lon": -4.7259906, "class": "boundary", "type": "administrative", "place_rank": 16, "importance": 0.6679664703202588, "addresstype": "city", "name": "Valladolid", "display_name": "Valladolid, Castile and León, Spain" }, "geometry": { "type": "MultiPolygon", "coordinates": [ [ [ [ -4.9281803, 41.8004367 ], [ -4.9271014, 41.7997793 ], [ -4.9252423, 41.7995943 ], [ -4.9239915, 41.799228 ], [ -4.9234051, 41.7985354 ], [ -4.9229744, 41.7958046 ], [ -4.9223606, 41.7941938 ], [ -4.9219323, 41.7923456 ], [ -4.9204754, 41.7903075 ], [ -4.9190197, 41.7887107 ], [ -4.9162782, 41.7851539 ], [ -4.9148594, 41.7835744 ], [ -4.9135432, 41.7818041 ], [ -4.9126818, 41.7803504 ], [ -4.9125861, 41.7791541 ], [ -4.9115421, 41.778442 ], [ -4.9094664, 41.7778281 ], [ -4.9052807, 41.7762584 ], [ -4.9036846, 41.7751771 ], [ -4.9017677, 41.7746415 ], [ -4.9002188, 41.7739376 ], [ -4.8993707, 41.7733302 ], [ -4.8979166, 41.7725707 ], [ -4.8964539, 41.7719283 ], [ -4.8943224, 41.76982 ], [ -4.8931874, 41.7684517 ], [ -4.8920827, 41.7672991 ], [ -4.8913624, 41.7661221 ], [ -4.8891485, 41.76406 ], [ -4.8881373, 41.7636263 ], [ -4.8867811, 41.7633244 ], [ -4.8859698, 41.7627343 ], [ -4.8849218, 41.7622741 ], [ -4.8854057, 41.7603118 ], [ -4.8862631, 41.7596042 ], [ -4.8866027, 41.7576442 ], [ -4.8884711, 41.7524438 ], [ -4.8885848, 41.749758 ], [ -4.8896854, 41.7475063 ], [ -4.8922501, 41.7443298 ], [ -4.8947806, 41.7420455 ], [ -4.8965726, 41.7400075 ], [ -4.8973558, 41.7393084 ], [ -4.8993379, 41.7375391 ], [ -4.9035495, 41.7319304 ], [ -4.9050581, 41.7304914 ], [ -4.9058701, 41.7290819 ], [ -4.9096352, 41.7303613 ], [ -4.913029, 41.7312776 ], [ -4.916387, 41.731798 ], [ -4.9196906, 41.7321031 ], [ -4.9194845, 41.7308367 ], [ -4.9204247, 41.725264 ], [ -4.9207881, 41.7245464 ], [ -4.9202905, 41.7231767 ], [ -4.9201314, 41.7218734 ], [ -4.9193795, 41.7192291 ], [ -4.9191048, 41.7172702 ], [ -4.9170521, 41.7173676 ], [ -4.9150696, 41.7178059 ], [ -4.9135205, 41.718264 ], [ -4.9102857, 41.7194437 ], [ -4.9098499, 41.7197481 ], [ -4.9088817, 41.7195301 ], [ -4.907207, 41.7198101 ], [ -4.904639, 41.7207803 ], [ -4.9028151, 41.7213059 ], [ -4.9009466, 41.7219493 ], [ -4.8982422, 41.7227865 ], [ -4.8973566, 41.7233325 ], [ -4.8960208, 41.7236968 ], [ -4.8944768, 41.7243437 ], [ -4.8830229, 41.7285849 ], [ -4.8800047, 41.7293999 ], [ -4.8780327, 41.7298104 ], [ -4.8750262, 41.7306161 ], [ -4.8711172, 41.7314003 ], [ -4.8690046, 41.729039 ], [ -4.8675087, 41.7276222 ], [ -4.8659189, 41.7262791 ], [ -4.8638162, 41.7250793 ], [ -4.862037, 41.7242525 ], [ -4.8589948, 41.7229868 ], [ -4.8580872, 41.722362 ], [ -4.8566842, 41.7220695 ], [ -4.8558683, 41.7221277 ], [ -4.8542922, 41.7225044 ], [ -4.851943, 41.7231727 ], [ -4.8511137, 41.7227628 ], [ -4.8501442, 41.7237511 ], [ -4.8460599, 41.7255461 ], [ -4.8447573, 41.7262425 ], [ -4.8435255, 41.7264695 ], [ -4.8388561, 41.7292643 ], [ -4.838132, 41.7295911 ], [ -4.8375913, 41.7300231 ], [ -4.83625, 41.7318999 ], [ -4.8340082, 41.7329805 ], [ -4.8324141, 41.7331591 ], [ -4.8317249, 41.7338726 ], [ -4.8299119, 41.7343878 ], [ -4.8251802, 41.7350216 ], [ -4.824022, 41.7353102 ], [ -4.8230499, 41.7358029 ], [ -4.8216767, 41.7357167 ], [ -4.8171092, 41.7366356 ], [ -4.8157575, 41.7373145 ], [ -4.8125876, 41.7374817 ], [ -4.8173921, 41.7449623 ], [ -4.8176569, 41.7458227 ], [ -4.8179704, 41.747556 ], [ -4.818785, 41.748723 ], [ -4.825438, 41.7568585 ], [ -4.8293485, 41.7645239 ], [ -4.8301253, 41.7668802 ], [ -4.8313826, 41.7679409 ], [ -4.8314757, 41.7691013 ], [ -4.8348657, 41.7732262 ], [ -4.8375667, 41.7772269 ], [ -4.8398495, 41.7800545 ], [ -4.847924, 41.7792312 ], [ -4.8499984, 41.7810712 ], [ -4.8514631, 41.7822094 ], [ -4.8512546, 41.7854191 ], [ -4.8512769, 41.7878685 ], [ -4.851427, 41.7897394 ], [ -4.8517296, 41.7918871 ], [ -4.8523719, 41.7937141 ], [ -4.8529593, 41.7978116 ], [ -4.8536872, 41.8009341 ], [ -4.8541602, 41.8027277 ], [ -4.853618, 41.8052133 ], [ -4.8532522, 41.8058857 ], [ -4.8523343, 41.8070353 ], [ -4.8516444, 41.8085775 ], [ -4.851081, 41.8103339 ], [ -4.8507092, 41.8124744 ], [ -4.8506812, 41.8135917 ], [ -4.8513263, 41.8155086 ], [ -4.8542824, 41.8148935 ], [ -4.8568366, 41.8141227 ], [ -4.8600475, 41.8119182 ], [ -4.8609615, 41.811471 ], [ -4.8633177, 41.8109374 ], [ -4.8657578, 41.8108077 ], [ -4.867635, 41.8103629 ], [ -4.8686664, 41.8098148 ], [ -4.8699908, 41.8094059 ], [ -4.8714564, 41.809301 ], [ -4.8729375, 41.8093128 ], [ -4.8746662, 41.8087352 ], [ -4.8759548, 41.8087502 ], [ -4.876897, 41.8088609 ], [ -4.8772993, 41.8086201 ], [ -4.8767585, 41.8078274 ], [ -4.8766367, 41.8069558 ], [ -4.8767491, 41.8062694 ], [ -4.8774547, 41.8052852 ], [ -4.885579, 41.7999103 ], [ -4.8876363, 41.7990569 ], [ -4.8894178, 41.7986493 ], [ -4.8911863, 41.7986202 ], [ -4.8933383, 41.798945 ], [ -4.8956424, 41.7987088 ], [ -4.9005652, 41.7995191 ], [ -4.9068323, 41.8001987 ], [ -4.9086898, 41.80033 ], [ -4.9101688, 41.8006836 ], [ -4.913461, 41.8017006 ], [ -4.9167665, 41.8039691 ], [ -4.9223515, 41.80275 ], [ -4.9259687, 41.802149 ], [ -4.9281803, 41.8004367 ] ] ], [ [ [ -4.916255, 41.6289635 ], [ -4.9149638, 41.6267063 ], [ -4.9134287, 41.6235075 ], [ -4.912807, 41.6219687 ], [ -4.9128597, 41.6204998 ], [ -4.9131853, 41.6193325 ], [ -4.9091071, 41.6165812 ], [ -4.9039788, 41.6148379 ], [ -4.9023518, 41.6141983 ], [ -4.900679, 41.6140458 ], [ -4.9007793, 41.6158275 ], [ -4.9013274, 41.6169172 ], [ -4.9026646, 41.6183092 ], [ -4.9000779, 41.6201443 ], [ -4.8958704, 41.6174667 ], [ -4.8914689, 41.6175842 ], [ -4.8908719, 41.6176931 ], [ -4.8878916, 41.6190929 ], [ -4.8884226, 41.6197394 ], [ -4.8892491, 41.6208991 ], [ -4.8906358, 41.623173 ], [ -4.8922078, 41.6252097 ], [ -4.8924255, 41.6256744 ], [ -4.8931593, 41.6261397 ], [ -4.8943412, 41.627147 ], [ -4.8953164, 41.6284729 ], [ -4.8960383, 41.629758 ], [ -4.8977757, 41.6308731 ], [ -4.8987426, 41.631911 ], [ -4.8989699, 41.6331141 ], [ -4.8994176, 41.6344577 ], [ -4.9000175, 41.6351261 ], [ -4.9015525, 41.6368362 ], [ -4.9021682, 41.638177 ], [ -4.9044224, 41.641337 ], [ -4.9070344, 41.64441 ], [ -4.9084695, 41.6429901 ], [ -4.9110167, 41.6402008 ], [ -4.9115342, 41.6382108 ], [ -4.9132443, 41.6355434 ], [ -4.9134323, 41.6349999 ], [ -4.9136454, 41.6336814 ], [ -4.9140738, 41.6323322 ], [ -4.916255, 41.6289635 ] ] ], [ [ [ -4.8619703, 41.554353 ], [ -4.8593625, 41.5526113 ], [ -4.8582839, 41.5517465 ], [ -4.8570212, 41.5509537 ], [ -4.8553632, 41.5500137 ], [ -4.854288, 41.5495723 ], [ -4.8518902, 41.5483286 ], [ -4.8511915, 41.5477576 ], [ -4.8500153, 41.5471753 ], [ -4.8485634, 41.5462149 ], [ -4.8475282, 41.5456287 ], [ -4.845202, 41.5437937 ], [ -4.8434009, 41.5426209 ], [ -4.8422072, 41.5418787 ], [ -4.8398979, 41.5406115 ], [ -4.8390885, 41.5399962 ], [ -4.8368495, 41.5387109 ], [ -4.8362867, 41.5381831 ], [ -4.8354837, 41.5374937 ], [ -4.8350386, 41.5370631 ], [ -4.8342872, 41.536459 ], [ -4.8336219, 41.5357081 ], [ -4.832578, 41.5347438 ], [ -4.832223, 41.5341484 ], [ -4.8315298, 41.5335363 ], [ -4.8314062, 41.5336111 ], [ -4.8311941, 41.5331032 ], [ -4.831401, 41.5331726 ], [ -4.8314884, 41.5331009 ], [ -4.8314191, 41.5328022 ], [ -4.8314811, 41.5318883 ], [ -4.8325914, 41.529975 ], [ -4.8328261, 41.5293859 ], [ -4.8328326, 41.528308 ], [ -4.830548, 41.5282342 ], [ -4.8299543, 41.5278972 ], [ -4.8292175, 41.5277043 ], [ -4.8278881, 41.5274642 ], [ -4.8266018, 41.5273184 ], [ -4.825191, 41.5272311 ], [ -4.8240234, 41.5271177 ], [ -4.8234898, 41.5270111 ], [ -4.8221946, 41.526678 ], [ -4.8209837, 41.5263066 ], [ -4.8194805, 41.5258089 ], [ -4.8180929, 41.525626 ], [ -4.8171782, 41.5255197 ], [ -4.8170164, 41.5254957 ], [ -4.8158825, 41.525224 ], [ -4.8150953, 41.525004 ], [ -4.8140548, 41.524736 ], [ -4.8133471, 41.5246047 ], [ -4.8132966, 41.524777 ], [ -4.8127455, 41.5257892 ], [ -4.8116085, 41.5256275 ], [ -4.8111069, 41.5256083 ], [ -4.8108737, 41.5256455 ], [ -4.8100104, 41.5256115 ], [ -4.809651, 41.5256471 ], [ -4.809196, 41.5256488 ], [ -4.8088311, 41.5256235 ], [ -4.8082541, 41.5255391 ], [ -4.807812, 41.5255194 ], [ -4.8076484, 41.5254735 ], [ -4.8071106, 41.5254571 ], [ -4.8069013, 41.5255274 ], [ -4.8065981, 41.5255467 ], [ -4.8063711, 41.5255841 ], [ -4.8054617, 41.5256541 ], [ -4.8053986, 41.525686 ], [ -4.8048725, 41.5256841 ], [ -4.8045507, 41.525695 ], [ -4.8044113, 41.5257714 ], [ -4.8036356, 41.5257872 ], [ -4.8024657, 41.5262051 ], [ -4.8014493, 41.526355 ], [ -4.800205, 41.5266454 ], [ -4.7995211, 41.5264994 ], [ -4.7991353, 41.5261756 ], [ -4.7987745, 41.5260279 ], [ -4.7979686, 41.5259462 ], [ -4.7974792, 41.5260781 ], [ -4.7971775, 41.526074 ], [ -4.7967538, 41.5259801 ], [ -4.7961877, 41.5258062 ], [ -4.7957781, 41.525512 ], [ -4.7957755, 41.5252008 ], [ -4.7957517, 41.5251361 ], [ -4.7949141, 41.5253943 ], [ -4.7942665, 41.524813 ], [ -4.793508, 41.5245804 ], [ -4.793352, 41.5242996 ], [ -4.7931986, 41.5237044 ], [ -4.7931289, 41.5235844 ], [ -4.7928562, 41.5235413 ], [ -4.7922117, 41.5240619 ], [ -4.7916656, 41.5244373 ], [ -4.7909881, 41.5241925 ], [ -4.7901314, 41.5245884 ], [ -4.7894778, 41.5245226 ], [ -4.7884145, 41.5239062 ], [ -4.7877849, 41.5231281 ], [ -4.7874995, 41.5232679 ], [ -4.7854954, 41.5240924 ], [ -4.784477, 41.5243994 ], [ -4.7827624, 41.5246904 ], [ -4.7833309, 41.5265788 ], [ -4.7838744, 41.528341 ], [ -4.782637, 41.5284167 ], [ -4.7819735, 41.5285678 ], [ -4.7801339, 41.5288525 ], [ -4.7780112, 41.5293991 ], [ -4.7766774, 41.5296907 ], [ -4.7759347, 41.5297902 ], [ -4.7745354, 41.5300801 ], [ -4.7717793, 41.5303774 ], [ -4.7705367, 41.530326 ], [ -4.7688429, 41.5304587 ], [ -4.7669534, 41.5306365 ], [ -4.7654024, 41.5306111 ], [ -4.7651434, 41.531763 ], [ -4.7645105, 41.5322253 ], [ -4.7649556, 41.5328774 ], [ -4.7658624, 41.532593 ], [ -4.7664118, 41.5331643 ], [ -4.766899, 41.5334058 ], [ -4.7674134, 41.5341378 ], [ -4.7678419, 41.5339092 ], [ -4.7684626, 41.5332871 ], [ -4.7687277, 41.5326499 ], [ -4.7686598, 41.5325017 ], [ -4.7698282, 41.5314985 ], [ -4.7705965, 41.5317463 ], [ -4.7698088, 41.5324935 ], [ -4.7701866, 41.5329295 ], [ -4.7715531, 41.5325126 ], [ -4.7719669, 41.5327681 ], [ -4.7718268, 41.5333047 ], [ -4.7707193, 41.5335273 ], [ -4.7697247, 41.533882 ], [ -4.7692796, 41.5343482 ], [ -4.7691849, 41.534788 ], [ -4.769394, 41.5348945 ], [ -4.7698256, 41.5349108 ], [ -4.7705938, 41.5346919 ], [ -4.7710245, 41.5348007 ], [ -4.7714049, 41.5352514 ], [ -4.7711806, 41.5354577 ], [ -4.7715388, 41.5358777 ], [ -4.7722544, 41.5356628 ], [ -4.7725583, 41.535906 ], [ -4.773246, 41.535723 ], [ -4.7732147, 41.5359089 ], [ -4.7727479, 41.536391 ], [ -4.7728761, 41.5364984 ], [ -4.7737223, 41.5359598 ], [ -4.7738924, 41.5360692 ], [ -4.77356, 41.5367579 ], [ -4.7739863, 41.5370198 ], [ -4.7741371, 41.5373693 ], [ -4.7750909, 41.5370426 ], [ -4.7753434, 41.5370881 ], [ -4.7761962, 41.5368703 ], [ -4.7764455, 41.5369852 ], [ -4.7761664, 41.5373211 ], [ -4.7763066, 41.537537 ], [ -4.7768423, 41.5375775 ], [ -4.7776081, 41.53786 ], [ -4.7788849, 41.5382096 ], [ -4.7788369, 41.5396195 ], [ -4.7784756, 41.5400084 ], [ -4.7780591, 41.5406833 ], [ -4.7780069, 41.5407549 ], [ -4.7779657, 41.5407351 ], [ -4.7771718, 41.5420291 ], [ -4.7771167, 41.5421376 ], [ -4.7764838, 41.5433996 ], [ -4.7759393, 41.5448865 ], [ -4.7756029, 41.5457906 ], [ -4.7745141, 41.5475062 ], [ -4.7739127, 41.5480785 ], [ -4.771497, 41.5475955 ], [ -4.771348, 41.5474553 ], [ -4.7706942, 41.5474585 ], [ -4.7706651, 41.547693 ], [ -4.7704731, 41.54773 ], [ -4.7693782, 41.5477103 ], [ -4.7693089, 41.5476282 ], [ -4.7691359, 41.5475684 ], [ -4.7688111, 41.547726 ], [ -4.7680118, 41.5481759 ], [ -4.7676904, 41.5484518 ], [ -4.7675429, 41.5487517 ], [ -4.7675223, 41.549161 ], [ -4.768308, 41.5492404 ], [ -4.7687342, 41.549315 ], [ -4.7693224, 41.5494558 ], [ -4.7701565, 41.5498924 ], [ -4.7708939, 41.5504898 ], [ -4.7711605, 41.5511328 ], [ -4.7718228, 41.5530106 ], [ -4.7720527, 41.5534108 ], [ -4.772257, 41.5535212 ], [ -4.7724664, 41.553618 ], [ -4.7727099, 41.5536764 ], [ -4.7730815, 41.5536794 ], [ -4.7734521, 41.5535964 ], [ -4.7740448, 41.5533005 ], [ -4.7740569, 41.553431 ], [ -4.7739404, 41.5546179 ], [ -4.773918, 41.5548185 ], [ -4.7733897, 41.5550413 ], [ -4.7696678, 41.5562424 ], [ -4.769139, 41.5563313 ], [ -4.7668135, 41.5564135 ], [ -4.7649745, 41.556493 ], [ -4.762009, 41.5566664 ], [ -4.7618914, 41.5567044 ], [ -4.7612851, 41.5567515 ], [ -4.7600977, 41.5577407 ], [ -4.7597746, 41.5580201 ], [ -4.7594462, 41.5583458 ], [ -4.759162, 41.5587896 ], [ -4.7582992, 41.5601927 ], [ -4.7577573, 41.5611968 ], [ -4.7571736, 41.5630258 ], [ -4.756891, 41.5639344 ], [ -4.7564095, 41.5665835 ], [ -4.7564577, 41.5675679 ], [ -4.7565135, 41.5686254 ], [ -4.7573118, 41.5717878 ], [ -4.7574169, 41.5723931 ], [ -4.7575627, 41.573151 ], [ -4.7581051, 41.5754837 ], [ -4.7577911, 41.5773218 ], [ -4.7576735, 41.5776723 ], [ -4.7572272, 41.5790859 ], [ -4.756352, 41.5810649 ], [ -4.7549982, 41.5836685 ], [ -4.7544761, 41.5842321 ], [ -4.7537097, 41.5842664 ], [ -4.7501253, 41.5885742 ], [ -4.7495211, 41.5886401 ], [ -4.7490407, 41.5886711 ], [ -4.7482603, 41.5887028 ], [ -4.7474102, 41.588707 ], [ -4.7466615, 41.5887117 ], [ -4.7466331, 41.5887721 ], [ -4.7452947, 41.5889352 ], [ -4.7427757, 41.5897176 ], [ -4.7396687, 41.5904037 ], [ -4.7385969, 41.5909482 ], [ -4.7377928, 41.5909693 ], [ -4.737342, 41.5915861 ], [ -4.7372907, 41.5916563 ], [ -4.7365938, 41.5913475 ], [ -4.7344624, 41.5919327 ], [ -4.7337409, 41.5925236 ], [ -4.7334056, 41.5927163 ], [ -4.7328125, 41.5930585 ], [ -4.7322515, 41.593143 ], [ -4.7319699, 41.5928557 ], [ -4.7302378, 41.5945269 ], [ -4.7284116, 41.5962883 ], [ -4.7283236, 41.5959727 ], [ -4.7263308, 41.5966271 ], [ -4.7243354, 41.5968129 ], [ -4.7230613, 41.5962553 ], [ -4.7230434, 41.596074 ], [ -4.7216001, 41.5953548 ], [ -4.7209357, 41.5951338 ], [ -4.7196569, 41.5948325 ], [ -4.7178601, 41.5941169 ], [ -4.716669, 41.5937656 ], [ -4.7161261, 41.5937138 ], [ -4.714585, 41.5935666 ], [ -4.7147071, 41.5934292 ], [ -4.7140657, 41.5932931 ], [ -4.7119125, 41.5922273 ], [ -4.7110317, 41.591684 ], [ -4.710085, 41.5915048 ], [ -4.7102032, 41.5910989 ], [ -4.7091438, 41.5912075 ], [ -4.7085331, 41.5912841 ], [ -4.7083874, 41.5912443 ], [ -4.7071493, 41.5915666 ], [ -4.7063302, 41.591751 ], [ -4.7057233, 41.5919415 ], [ -4.7052263, 41.5921696 ], [ -4.7048846, 41.592389 ], [ -4.7036076, 41.5926934 ], [ -4.7024755, 41.5927351 ], [ -4.7019959, 41.592843 ], [ -4.7013756, 41.5930506 ], [ -4.7004179, 41.592987 ], [ -4.6997687, 41.5932349 ], [ -4.6967806, 41.5935752 ], [ -4.6951704, 41.5935578 ], [ -4.6951148, 41.5936182 ], [ -4.6948644, 41.5938549 ], [ -4.6947489, 41.5941061 ], [ -4.6945538, 41.5951594 ], [ -4.6938689, 41.5973653 ], [ -4.6936878, 41.5977823 ], [ -4.693099, 41.598619 ], [ -4.6930355, 41.5991584 ], [ -4.6926554, 41.5998058 ], [ -4.6925597, 41.6010311 ], [ -4.6925914, 41.6015555 ], [ -4.6925757, 41.6017436 ], [ -4.6925353, 41.6018259 ], [ -4.6925524, 41.6018877 ], [ -4.6921859, 41.6020739 ], [ -4.6929577, 41.6033742 ], [ -4.6926731, 41.603578 ], [ -4.6931792, 41.6041934 ], [ -4.692951, 41.604336 ], [ -4.6924138, 41.6047131 ], [ -4.6922946, 41.6047731 ], [ -4.6925284, 41.605075 ], [ -4.6928966, 41.6055476 ], [ -4.6927491, 41.6056041 ], [ -4.6934252, 41.6061699 ], [ -4.6935371, 41.6062632 ], [ -4.6937589, 41.606102 ], [ -4.6937736, 41.6061469 ], [ -4.6940439, 41.607154 ], [ -4.6940761, 41.6072714 ], [ -4.6942273, 41.6078371 ], [ -4.6943654, 41.6083437 ], [ -4.6948091, 41.6091611 ], [ -4.6943605, 41.6095102 ], [ -4.6957992, 41.6108074 ], [ -4.6954289, 41.6109993 ], [ -4.6946263, 41.6125938 ], [ -4.6948501, 41.6129562 ], [ -4.6944514, 41.6131019 ], [ -4.694229, 41.6135618 ], [ -4.694046, 41.6145903 ], [ -4.6939748, 41.6146047 ], [ -4.6915278, 41.6160233 ], [ -4.6914205, 41.6161006 ], [ -4.6913162, 41.6161754 ], [ -4.691331, 41.6161907 ], [ -4.6906032, 41.6165303 ], [ -4.6901457, 41.6166988 ], [ -4.6893384, 41.6169195 ], [ -4.6883525, 41.6171308 ], [ -4.6877036, 41.6176201 ], [ -4.6871911, 41.6174654 ], [ -4.6856899, 41.6175913 ], [ -4.6843096, 41.6182204 ], [ -4.6826712, 41.6194606 ], [ -4.6831742, 41.6197866 ], [ -4.682559, 41.6198861 ], [ -4.6816465, 41.6201187 ], [ -4.6814587, 41.6202275 ], [ -4.6816731, 41.6202828 ], [ -4.6818632, 41.6204544 ], [ -4.6818287, 41.6206569 ], [ -4.6811679, 41.6208244 ], [ -4.6807948, 41.6206692 ], [ -4.6805289, 41.6205122 ], [ -4.6794245, 41.6204446 ], [ -4.6785777, 41.620452 ], [ -4.6782556, 41.6206905 ], [ -4.6779827, 41.620975 ], [ -4.6775876, 41.6217422 ], [ -4.6773787, 41.6219008 ], [ -4.6768729, 41.6221926 ], [ -4.6765197, 41.6224695 ], [ -4.6762506, 41.6226364 ], [ -4.6754404, 41.6228051 ], [ -4.6736083, 41.6229356 ], [ -4.6731403, 41.6228458 ], [ -4.6727275, 41.6228269 ], [ -4.6722574, 41.6229184 ], [ -4.6718995, 41.6230746 ], [ -4.6707148, 41.6233295 ], [ -4.6695832, 41.6235748 ], [ -4.6690921, 41.6237201 ], [ -4.6685985, 41.6238589 ], [ -4.6680782, 41.6240097 ], [ -4.6674476, 41.6241935 ], [ -4.667076, 41.6243054 ], [ -4.6670441, 41.624315 ], [ -4.6666874, 41.624471 ], [ -4.6661962, 41.6249718 ], [ -4.6658198, 41.6253679 ], [ -4.6651981, 41.6258383 ], [ -4.66448, 41.6260388 ], [ -4.663708, 41.6263359 ], [ -4.6630454, 41.6264318 ], [ -4.6626341, 41.6263566 ], [ -4.6615896, 41.6259785 ], [ -4.6598721, 41.6257905 ], [ -4.6589514, 41.6257582 ], [ -4.6574398, 41.6259203 ], [ -4.6562504, 41.6260076 ], [ -4.6552195, 41.6260111 ], [ -4.653461, 41.6257711 ], [ -4.6532927, 41.625699 ], [ -4.6524218, 41.626188 ], [ -4.6521317, 41.6264408 ], [ -4.6517889, 41.6268739 ], [ -4.6513735, 41.6261321 ], [ -4.6469364, 41.6274001 ], [ -4.6467865, 41.6274083 ], [ -4.6469562, 41.6275888 ], [ -4.6473912, 41.6278728 ], [ -4.6472173, 41.6285402 ], [ -4.6471193, 41.62935 ], [ -4.6473036, 41.6299736 ], [ -4.6474962, 41.6319069 ], [ -4.6477354, 41.633066 ], [ -4.6493035, 41.634418 ], [ -4.6498236, 41.6347389 ], [ -4.6528362, 41.6372787 ], [ -4.6540597, 41.6392131 ], [ -4.6546381, 41.6401191 ], [ -4.6547486, 41.6404222 ], [ -4.6556809, 41.6429368 ], [ -4.6566433, 41.6455883 ], [ -4.6569003, 41.6462589 ], [ -4.6565241, 41.6467773 ], [ -4.6563185, 41.6472106 ], [ -4.6562378, 41.647632 ], [ -4.6562292, 41.6479443 ], [ -4.6562774, 41.6483552 ], [ -4.6564858, 41.6492741 ], [ -4.6569252, 41.6497939 ], [ -4.6566794, 41.6500241 ], [ -4.6560716, 41.6506117 ], [ -4.6554826, 41.6511859 ], [ -4.6551465, 41.6524588 ], [ -4.655171, 41.6535586 ], [ -4.6544939, 41.653752 ], [ -4.6546372, 41.6545628 ], [ -4.6544881, 41.6558091 ], [ -4.6544797, 41.6560074 ], [ -4.6545027, 41.6562072 ], [ -4.6548353, 41.6562053 ], [ -4.6550776, 41.6574376 ], [ -4.6552615, 41.6581759 ], [ -4.6543202, 41.6584305 ], [ -4.6543976, 41.6589806 ], [ -4.6549768, 41.6595209 ], [ -4.6559846, 41.6601287 ], [ -4.6568681, 41.6606351 ], [ -4.6571251, 41.660764 ], [ -4.6580249, 41.6610653 ], [ -4.6587631, 41.661368 ], [ -4.6593871, 41.6624994 ], [ -4.6601052, 41.6642133 ], [ -4.6608507, 41.6661143 ], [ -4.6612633, 41.6671718 ], [ -4.662092, 41.6686797 ], [ -4.6584115, 41.669569 ], [ -4.657656, 41.6695584 ], [ -4.6572612, 41.6707858 ], [ -4.6564628, 41.6711323 ], [ -4.6558944, 41.6728135 ], [ -4.6556138, 41.6731892 ], [ -4.6544338, 41.6749771 ], [ -4.6518712, 41.6757473 ], [ -4.6505613, 41.6756991 ], [ -4.6491052, 41.6761492 ], [ -4.6484173, 41.677306 ], [ -4.6474937, 41.6771704 ], [ -4.6469259, 41.6780905 ], [ -4.6462772, 41.6785768 ], [ -4.6456911, 41.6790348 ], [ -4.6460026, 41.6799311 ], [ -4.646523, 41.6799707 ], [ -4.6477307, 41.6822813 ], [ -4.6452119, 41.6830601 ], [ -4.6447164, 41.6835578 ], [ -4.6437954, 41.6842657 ], [ -4.6418975, 41.6839703 ], [ -4.638803, 41.6857426 ], [ -4.6363629, 41.6859336 ], [ -4.6362752, 41.6846802 ], [ -4.634442, 41.6844539 ], [ -4.6341296, 41.685283 ], [ -4.6322909, 41.685154 ], [ -4.6308064, 41.6874333 ], [ -4.6313086, 41.6893826 ], [ -4.6319334, 41.6907673 ], [ -4.6326375, 41.6918849 ], [ -4.6326567, 41.6919136 ], [ -4.6331791, 41.6919588 ], [ -4.6337281, 41.6916307 ], [ -4.6339512, 41.692016 ], [ -4.6347368, 41.6920691 ], [ -4.6347555, 41.6921224 ], [ -4.6354507, 41.6918597 ], [ -4.6369067, 41.6910391 ], [ -4.637945, 41.6908621 ], [ -4.6397456, 41.6903964 ], [ -4.6404813, 41.6897342 ], [ -4.6419532, 41.6883713 ], [ -4.642168, 41.6873949 ], [ -4.6424329, 41.6861334 ], [ -4.6440892, 41.6855215 ], [ -4.646081, 41.6849764 ], [ -4.65059, 41.6853269 ], [ -4.6532254, 41.6850416 ], [ -4.6555149, 41.6851429 ], [ -4.6567532, 41.6854071 ], [ -4.6577548, 41.6858516 ], [ -4.6578354, 41.6855269 ], [ -4.6605557, 41.6854711 ], [ -4.6621294, 41.6846056 ], [ -4.6619342, 41.6840849 ], [ -4.6619629, 41.6840666 ], [ -4.6629586, 41.6834307 ], [ -4.6639468, 41.6831403 ], [ -4.6650331, 41.6825085 ], [ -4.6650832, 41.6825084 ], [ -4.6678507, 41.6825049 ], [ -4.6698868, 41.6821407 ], [ -4.6706681, 41.682668 ], [ -4.6716245, 41.6828987 ], [ -4.6720733, 41.6831455 ], [ -4.6725985, 41.6829147 ], [ -4.6742695, 41.6833322 ], [ -4.6762925, 41.682866 ], [ -4.6771402, 41.6837885 ], [ -4.6784313, 41.6832567 ], [ -4.678627, 41.6827491 ], [ -4.6787248, 41.6824425 ], [ -4.679701, 41.6826576 ], [ -4.6796392, 41.6829036 ], [ -4.6816667, 41.6834225 ], [ -4.6817352, 41.6833696 ], [ -4.6822681, 41.6837438 ], [ -4.6832213, 41.682926 ], [ -4.6842942, 41.6835736 ], [ -4.6849659, 41.6839813 ], [ -4.6859761, 41.6840564 ], [ -4.6864295, 41.6840901 ], [ -4.6866711, 41.6838934 ], [ -4.6869914, 41.684019 ], [ -4.6874226, 41.683642 ], [ -4.6877251, 41.6838394 ], [ -4.6874636, 41.6842032 ], [ -4.6877917, 41.6843394 ], [ -4.6883753, 41.6844624 ], [ -4.6882479, 41.6846084 ], [ -4.6882079, 41.6847682 ], [ -4.6882062, 41.6849946 ], [ -4.6882421, 41.6851623 ], [ -4.6883591, 41.6852894 ], [ -4.6890263, 41.6856725 ], [ -4.6906223, 41.6864934 ], [ -4.6956348, 41.6884646 ], [ -4.6977113, 41.6899938 ], [ -4.6987007, 41.691746 ], [ -4.6991642, 41.6933367 ], [ -4.6994627, 41.6946248 ], [ -4.69945, 41.6968924 ], [ -4.6988689, 41.6983966 ], [ -4.6974036, 41.6987744 ], [ -4.6956014, 41.6988193 ], [ -4.6912535, 41.6984502 ], [ -4.6881742, 41.6982758 ], [ -4.6855039, 41.698863 ], [ -4.6832154, 41.7004884 ], [ -4.6824549, 41.7018775 ], [ -4.6816419, 41.7036464 ], [ -4.6815373, 41.7049609 ], [ -4.68314, 41.7066362 ], [ -4.6831544, 41.708054 ], [ -4.6827663, 41.7099548 ], [ -4.6831499, 41.7105857 ], [ -4.6839262, 41.7115759 ], [ -4.6841784, 41.7121854 ], [ -4.6844161, 41.7126751 ], [ -4.6850672, 41.7137226 ], [ -4.6856279, 41.7143653 ], [ -4.6860184, 41.7147204 ], [ -4.6869269, 41.7153276 ], [ -4.6876825, 41.7155563 ], [ -4.6881477, 41.7155727 ], [ -4.6891132, 41.7154734 ], [ -4.6894997, 41.7155052 ], [ -4.6897141, 41.7156903 ], [ -4.6899338, 41.714873 ], [ -4.6900986, 41.7147256 ], [ -4.690552, 41.7145543 ], [ -4.6912525, 41.7147227 ], [ -4.6915049, 41.7150035 ], [ -4.6912269, 41.7154874 ], [ -4.6915347, 41.7155763 ], [ -4.6922676, 41.7151573 ], [ -4.6950347, 41.7170171 ], [ -4.696549, 41.7156908 ], [ -4.6967893, 41.7154742 ], [ -4.696975, 41.7153258 ], [ -4.6972072, 41.7150751 ], [ -4.6990114, 41.7141209 ], [ -4.6997323, 41.7134177 ], [ -4.7002157, 41.713708 ], [ -4.7008531, 41.7131343 ], [ -4.7044994, 41.7111099 ], [ -4.7050749, 41.7114157 ], [ -4.7061476, 41.7112054 ], [ -4.7102617, 41.7031784 ], [ -4.7109632, 41.7019385 ], [ -4.7115563, 41.7007303 ], [ -4.7122224, 41.6998198 ], [ -4.7127182, 41.6991046 ], [ -4.7128384, 41.6988434 ], [ -4.7138411, 41.6973779 ], [ -4.7154744, 41.6979979 ], [ -4.7159504, 41.6977631 ], [ -4.7168269, 41.6965931 ], [ -4.7183029, 41.6951268 ], [ -4.7195829, 41.6939472 ], [ -4.7214565, 41.6922848 ], [ -4.7225583, 41.6920791 ], [ -4.7288838, 41.6944646 ], [ -4.7316889, 41.6950263 ], [ -4.7364892, 41.6962 ], [ -4.7384578, 41.69646 ], [ -4.739232, 41.6959502 ], [ -4.7406311, 41.6950494 ], [ -4.741166, 41.6945901 ], [ -4.7435074, 41.6931144 ], [ -4.7441291, 41.6928732 ], [ -4.7456401, 41.692204 ], [ -4.7467414, 41.6918225 ], [ -4.747663, 41.6913687 ], [ -4.7497625, 41.6912218 ], [ -4.7505939, 41.6909969 ], [ -4.7517916, 41.6904883 ], [ -4.7523478, 41.6903402 ], [ -4.7526272, 41.6902954 ], [ -4.7548148, 41.6905359 ], [ -4.755501, 41.6905004 ], [ -4.7559349, 41.6904508 ], [ -4.7582679, 41.6901819 ], [ -4.7595133, 41.6902863 ], [ -4.7606178, 41.6906187 ], [ -4.7608183, 41.6909044 ], [ -4.7626521, 41.6905751 ], [ -4.7626564, 41.6909216 ], [ -4.7653773, 41.691099 ], [ -4.7655263, 41.6913312 ], [ -4.7697911, 41.6912963 ], [ -4.769858, 41.6915791 ], [ -4.7709381, 41.6922083 ], [ -4.7716942, 41.6916633 ], [ -4.7725053, 41.6931514 ], [ -4.7740368, 41.6930178 ], [ -4.7735953, 41.6938958 ], [ -4.7748021, 41.6936416 ], [ -4.775192, 41.6939888 ], [ -4.7765033, 41.6937937 ], [ -4.7775196, 41.693905 ], [ -4.7781435, 41.6937346 ], [ -4.7790281, 41.6932813 ], [ -4.7803188, 41.6930002 ], [ -4.780634, 41.6934814 ], [ -4.7830111, 41.6930572 ], [ -4.7831258, 41.6928433 ], [ -4.7827416, 41.6925544 ], [ -4.7837138, 41.69253 ], [ -4.7840759, 41.6929948 ], [ -4.7850653, 41.6926152 ], [ -4.7854485, 41.6931495 ], [ -4.7861948, 41.6926515 ], [ -4.788684, 41.6936503 ], [ -4.790247, 41.6941328 ], [ -4.7909702, 41.6942659 ], [ -4.7929665, 41.6953805 ], [ -4.7931255, 41.6953364 ], [ -4.7933643, 41.6954006 ], [ -4.7941716, 41.6954224 ], [ -4.7946852, 41.6951103 ], [ -4.7943795, 41.6947281 ], [ -4.7942864, 41.6943506 ], [ -4.7941204, 41.6939115 ], [ -4.7946478, 41.6934936 ], [ -4.7939764, 41.693188 ], [ -4.7945942, 41.6929331 ], [ -4.7960646, 41.6927379 ], [ -4.7972502, 41.6928264 ], [ -4.7997279, 41.6925648 ], [ -4.8016057, 41.6915913 ], [ -4.8038008, 41.6909655 ], [ -4.8048328, 41.6908983 ], [ -4.8053255, 41.6901599 ], [ -4.8080494, 41.6892678 ], [ -4.8085151, 41.6887011 ], [ -4.8091423, 41.6884408 ], [ -4.8112607, 41.6875061 ], [ -4.8102352, 41.6870446 ], [ -4.8100541, 41.686377 ], [ -4.8098298, 41.6860164 ], [ -4.8094263, 41.6869469 ], [ -4.8089299, 41.6871657 ], [ -4.8084127, 41.6871707 ], [ -4.8078346, 41.686855 ], [ -4.807633, 41.6869442 ], [ -4.8076424, 41.6872517 ], [ -4.8070879, 41.6874327 ], [ -4.8064559, 41.6878511 ], [ -4.8054377, 41.6883906 ], [ -4.8052086, 41.6884455 ], [ -4.8047578, 41.6886051 ], [ -4.8043486, 41.6884506 ], [ -4.8035887, 41.6889214 ], [ -4.8030498, 41.6890297 ], [ -4.80228, 41.688984 ], [ -4.8016026, 41.6890755 ], [ -4.8008123, 41.6879717 ], [ -4.800734, 41.6872399 ], [ -4.7998181, 41.68735 ], [ -4.7987572, 41.686925 ], [ -4.7983787, 41.6868952 ], [ -4.7990941, 41.6862579 ], [ -4.7990331, 41.6859329 ], [ -4.7979024, 41.6859428 ], [ -4.7966735, 41.6863079 ], [ -4.7962065, 41.6865376 ], [ -4.796017, 41.6865982 ], [ -4.7957071, 41.6866468 ], [ -4.7953308, 41.6869854 ], [ -4.7944457, 41.687181 ], [ -4.7940803, 41.6870056 ], [ -4.7932367, 41.6875805 ], [ -4.7930853, 41.6863837 ], [ -4.7939172, 41.6849104 ], [ -4.7925792, 41.6848738 ], [ -4.7923057, 41.6841825 ], [ -4.7907734, 41.6847715 ], [ -4.7899156, 41.6843962 ], [ -4.7896314, 41.6846476 ], [ -4.7891039, 41.6846142 ], [ -4.7888039, 41.6843775 ], [ -4.7874834, 41.6839855 ], [ -4.7874079, 41.6835346 ], [ -4.7872685, 41.682993 ], [ -4.7874812, 41.6827575 ], [ -4.7876247, 41.6820037 ], [ -4.7882219, 41.6817282 ], [ -4.7887228, 41.6811698 ], [ -4.7885103, 41.6805133 ], [ -4.7888157, 41.6793794 ], [ -4.7904413, 41.6798858 ], [ -4.7909453, 41.6798927 ], [ -4.7918559, 41.6801774 ], [ -4.7922978, 41.6800336 ], [ -4.7929072, 41.6800814 ], [ -4.7927403, 41.6795622 ], [ -4.7920472, 41.6786107 ], [ -4.7920844, 41.6781049 ], [ -4.7929329, 41.6777181 ], [ -4.7947801, 41.6758356 ], [ -4.7934914, 41.6735331 ], [ -4.7926611, 41.6736163 ], [ -4.792658, 41.673126 ], [ -4.7936712, 41.6730544 ], [ -4.7937134, 41.6714733 ], [ -4.7914383, 41.6699483 ], [ -4.7890677, 41.6685843 ], [ -4.7888593, 41.6678727 ], [ -4.786174, 41.6666307 ], [ -4.7852506, 41.666883 ], [ -4.784555, 41.6659052 ], [ -4.7826633, 41.6659955 ], [ -4.7816113, 41.6655994 ], [ -4.7818595, 41.6651513 ], [ -4.7812114, 41.6646404 ], [ -4.7801938, 41.6646479 ], [ -4.7785047, 41.6648617 ], [ -4.7779762, 41.6648168 ], [ -4.7770435, 41.6649837 ], [ -4.7747713, 41.6647141 ], [ -4.7727346, 41.6649316 ], [ -4.77177, 41.6651465 ], [ -4.7712446, 41.6648501 ], [ -4.7690741, 41.6648865 ], [ -4.7675463, 41.6649035 ], [ -4.7675318, 41.6650309 ], [ -4.7665701, 41.6650788 ], [ -4.7661752, 41.6649395 ], [ -4.7643461, 41.6634781 ], [ -4.7633802, 41.6629755 ], [ -4.7603956, 41.6634584 ], [ -4.7604516, 41.6626599 ], [ -4.7605254, 41.6621246 ], [ -4.760777, 41.6611875 ], [ -4.7609497, 41.6607733 ], [ -4.7611339, 41.6603237 ], [ -4.7615081, 41.6596472 ], [ -4.7628603, 41.6577453 ], [ -4.7636521, 41.6567081 ], [ -4.7642945, 41.6558397 ], [ -4.7645926, 41.6553233 ], [ -4.7649689, 41.6545047 ], [ -4.7653026, 41.6535008 ], [ -4.7645844, 41.6530342 ], [ -4.7632915, 41.6521629 ], [ -4.7625239, 41.6516455 ], [ -4.7620956, 41.6514244 ], [ -4.7612522, 41.6510874 ], [ -4.7620232, 41.6499346 ], [ -4.762321, 41.6494902 ], [ -4.7633067, 41.6490439 ], [ -4.7637852, 41.6490512 ], [ -4.7637326, 41.6487806 ], [ -4.7637818, 41.6486469 ], [ -4.763944, 41.6486627 ], [ -4.7639897, 41.6482028 ], [ -4.7639446, 41.6481866 ], [ -4.7638023, 41.6471822 ], [ -4.7636718, 41.6462624 ], [ -4.7642901, 41.6449224 ], [ -4.7650307, 41.6441305 ], [ -4.7645524, 41.6436889 ], [ -4.7644916, 41.643204 ], [ -4.7650387, 41.6432135 ], [ -4.7655138, 41.6432664 ], [ -4.765911, 41.6433419 ], [ -4.7662975, 41.6434496 ], [ -4.7668505, 41.6436433 ], [ -4.7673166, 41.6438397 ], [ -4.768486, 41.6426122 ], [ -4.7688512, 41.6422866 ], [ -4.7694518, 41.6417204 ], [ -4.7703726, 41.6409244 ], [ -4.7713872, 41.6401792 ], [ -4.7713365, 41.640023 ], [ -4.7723806, 41.6392271 ], [ -4.7731094, 41.6386734 ], [ -4.7742484, 41.6380284 ], [ -4.7747598, 41.6371456 ], [ -4.7753209, 41.636173 ], [ -4.7761068, 41.6348029 ], [ -4.7747763, 41.6338275 ], [ -4.7745296, 41.6332921 ], [ -4.7744448, 41.6331406 ], [ -4.7741677, 41.6327401 ], [ -4.7738468, 41.6324046 ], [ -4.7734842, 41.6320313 ], [ -4.7731552, 41.6316932 ], [ -4.7727976, 41.6313145 ], [ -4.772633, 41.6311459 ], [ -4.7724376, 41.6309438 ], [ -4.7720764, 41.6304463 ], [ -4.7718966, 41.6301987 ], [ -4.7716906, 41.6299255 ], [ -4.771642, 41.6298594 ], [ -4.7713853, 41.6294949 ], [ -4.7712867, 41.6293973 ], [ -4.771173, 41.6292628 ], [ -4.7706162, 41.628726 ], [ -4.7704679, 41.6285818 ], [ -4.7701535, 41.6282677 ], [ -4.7700552, 41.6281694 ], [ -4.7695695, 41.6275704 ], [ -4.7678806, 41.6263777 ], [ -4.767686, 41.6262437 ], [ -4.7669278, 41.6256695 ], [ -4.7664501, 41.6253066 ], [ -4.766238, 41.6251673 ], [ -4.7661174, 41.6250816 ], [ -4.765942, 41.6249569 ], [ -4.765807, 41.6248609 ], [ -4.7657133, 41.624892 ], [ -4.7656647, 41.624856 ], [ -4.7654424, 41.6247861 ], [ -4.7650482, 41.6247311 ], [ -4.7644758, 41.6247648 ], [ -4.7643589, 41.6248417 ], [ -4.7628827, 41.6251673 ], [ -4.7627771, 41.6251842 ], [ -4.7623812, 41.6251758 ], [ -4.7622698, 41.6250001 ], [ -4.7621297, 41.6251045 ], [ -4.7616899, 41.6243992 ], [ -4.7628134, 41.6240008 ], [ -4.7627861, 41.6237273 ], [ -4.762692, 41.6234097 ], [ -4.7625695, 41.6232097 ], [ -4.7625473, 41.6228416 ], [ -4.7635747, 41.6226987 ], [ -4.7642792, 41.6224651 ], [ -4.766528, 41.6217072 ], [ -4.767053, 41.621511 ], [ -4.7684944, 41.62081 ], [ -4.7696267, 41.6201694 ], [ -4.7704068, 41.619652 ], [ -4.7713795, 41.618827 ], [ -4.7726766, 41.6175211 ], [ -4.7735395, 41.6166608 ], [ -4.7739348, 41.6163461 ], [ -4.7754032, 41.6148582 ], [ -4.7776881, 41.6124747 ], [ -4.779083, 41.6111803 ], [ -4.780563, 41.6106799 ], [ -4.7828778, 41.6101108 ], [ -4.7838394, 41.6098204 ], [ -4.7884919, 41.6081664 ], [ -4.790413, 41.6077128 ], [ -4.79285, 41.6074198 ], [ -4.794307, 41.6073121 ], [ -4.794799, 41.6072887 ], [ -4.7962068, 41.6072217 ], [ -4.7973404, 41.6069893 ], [ -4.7971922, 41.6064813 ], [ -4.7970701, 41.6059132 ], [ -4.7976573, 41.6058159 ], [ -4.7953117, 41.602417 ], [ -4.7951783, 41.6024369 ], [ -4.7950173, 41.6022959 ], [ -4.7947132, 41.6024356 ], [ -4.7946983, 41.6024425 ], [ -4.7939053, 41.6015607 ], [ -4.7936214, 41.6016889 ], [ -4.7923996, 41.5993054 ], [ -4.7925252, 41.5992256 ], [ -4.7907698, 41.5947162 ], [ -4.7901288, 41.5935025 ], [ -4.7882125, 41.5916274 ], [ -4.7878205, 41.5912859 ], [ -4.788442, 41.5910679 ], [ -4.7902351, 41.5897855 ], [ -4.7869028, 41.5883573 ], [ -4.7863496, 41.5883539 ], [ -4.7860622, 41.5880453 ], [ -4.7834187, 41.5885295 ], [ -4.7804615, 41.5895597 ], [ -4.778263, 41.5906492 ], [ -4.7784571, 41.5908544 ], [ -4.7749078, 41.5926738 ], [ -4.7751201, 41.5919151 ], [ -4.775215, 41.5914362 ], [ -4.7753723, 41.5910241 ], [ -4.7756102, 41.5906185 ], [ -4.7758162, 41.5903106 ], [ -4.7762657, 41.5897664 ], [ -4.7776799, 41.5876703 ], [ -4.7786406, 41.5862192 ], [ -4.7793227, 41.5851425 ], [ -4.7801037, 41.5840464 ], [ -4.7809903, 41.5832452 ], [ -4.7826367, 41.5815542 ], [ -4.7830301, 41.5806962 ], [ -4.7834811, 41.5796758 ], [ -4.7838913, 41.5789847 ], [ -4.7844787, 41.5783669 ], [ -4.7846193, 41.578197 ], [ -4.78523, 41.5775768 ], [ -4.7857359, 41.5756967 ], [ -4.7866935, 41.5756135 ], [ -4.7879472, 41.5755557 ], [ -4.7881997, 41.5754333 ], [ -4.7890984, 41.574654 ], [ -4.7893789, 41.5743538 ], [ -4.7898039, 41.5736443 ], [ -4.7906204, 41.5726456 ], [ -4.7907397, 41.5722661 ], [ -4.7912164, 41.5707289 ], [ -4.7915362, 41.5691992 ], [ -4.7921264, 41.5667386 ], [ -4.7923922, 41.5661068 ], [ -4.7931446, 41.5642942 ], [ -4.793355, 41.5637151 ], [ -4.7955299, 41.5637467 ], [ -4.7965709, 41.5640371 ], [ -4.798752, 41.5648906 ], [ -4.7993439, 41.5646608 ], [ -4.8001109, 41.5652469 ], [ -4.8011274, 41.5654568 ], [ -4.8021835, 41.5656684 ], [ -4.8032689, 41.5658064 ], [ -4.8049696, 41.5663769 ], [ -4.8057548, 41.5666469 ], [ -4.8075655, 41.5672272 ], [ -4.8090101, 41.5673472 ], [ -4.8109234, 41.5670652 ], [ -4.8119129, 41.5668514 ], [ -4.8128071, 41.5662339 ], [ -4.8139197, 41.5648473 ], [ -4.8144367, 41.5640375 ], [ -4.8148095, 41.5636443 ], [ -4.8159765, 41.5629234 ], [ -4.8164224, 41.5626673 ], [ -4.8171279, 41.562276 ], [ -4.8175836, 41.5620693 ], [ -4.8183047, 41.5618494 ], [ -4.8192706, 41.5618147 ], [ -4.8200988, 41.5618815 ], [ -4.8215072, 41.5620407 ], [ -4.8231787, 41.5624585 ], [ -4.8236069, 41.5628008 ], [ -4.8240651, 41.5632456 ], [ -4.8244798, 41.5634513 ], [ -4.8251014, 41.5636713 ], [ -4.8256506, 41.5636967 ], [ -4.8262003, 41.5635444 ], [ -4.8267044, 41.5631587 ], [ -4.8278269, 41.5624441 ], [ -4.8284348, 41.5620975 ], [ -4.8302909, 41.5614753 ], [ -4.8317312, 41.5612912 ], [ -4.8328939, 41.5611649 ], [ -4.8355117, 41.560903 ], [ -4.8378517, 41.5606376 ], [ -4.8394135, 41.5605719 ], [ -4.8408622, 41.5606634 ], [ -4.8427072, 41.5610781 ], [ -4.8444107, 41.5612236 ], [ -4.8454675, 41.5611736 ], [ -4.8475477, 41.560871 ], [ -4.8489929, 41.560462 ], [ -4.8503328, 41.5599647 ], [ -4.8535347, 41.5589618 ], [ -4.8571166, 41.5578985 ], [ -4.8583742, 41.5574438 ], [ -4.8600112, 41.5563943 ], [ -4.860847, 41.5556691 ], [ -4.8619703, 41.554353 ] ] ] ] } }
]
}
