{
"type": "FeatureCollection",
"name": "vejle_dk",
"crs": { "type": "name", "properties": { "name": "urn:ogc:def:crs:OGC:1.3:CRS84" } },
"features": [
{ "type": "Feature", "properties": { "id": "30fb55ec-9c1d-4019-e053-d380220a510f", "skrivemaade": "Vejle", "skrivemaade_officiel": "Vejle", "skrivemaade_uofficiel": null, "visningstekst": "Vejle (By i Vejle Kommune)", "stednavn_type": "bebyggelse", "stednavn_subtype": "by", "kommunekode": "0630", "bbox": "POLYGON ((530878.6477 6169056.7047, 530878.6477 6178710.53, 540130.1366 6178710.53, 540130.1366 6169056.7047, 530878.6477 6169056.7047))" }, "geometry": { "type": "Polygon", "coordinates": [ [ [ 9.494241635960162, 55.726179970723969 ], [ 9.493192198021138, 55.724634741778274 ], [ 9.492598787291314, 55.724795563387929 ], [ 9.492101266785733, 55.723465125135604 ], [ 9.492292097600922, 55.72256213285953 ], [ 9.494249694538672, 55.721654106833974 ], [ 9.49157234915708, 55.721005015368519 ], [ 9.49227061330903, 55.720260467316145 ], [ 9.495282701102793, 55.718636473963024 ], [ 9.498901574303094, 55.717941211036312 ], [ 9.501360469688191, 55.718026715702649 ], [ 9.502412958275114, 55.71734167522655 ], [ 9.504952374500514, 55.716859794314402 ], [ 9.505282625802355, 55.717485084231313 ], [ 9.506824442853533, 55.717803198533808 ], [ 9.507135396720122, 55.719897061009164 ], [ 9.507391415233593, 55.719298289351585 ], [ 9.511011892302859, 55.71834951009992 ], [ 9.511322625647855, 55.717594244649554 ], [ 9.512275885735939, 55.717514793999129 ], [ 9.512404653635855, 55.717890929600316 ], [ 9.514266307260918, 55.717394069711517 ], [ 9.514913871749695, 55.719536642915052 ], [ 9.518116860949085, 55.718977217028183 ], [ 9.521406110748062, 55.722103369575834 ], [ 9.52173282890832, 55.720231472927445 ], [ 9.523009583163345, 55.718946599423546 ], [ 9.522257104651096, 55.718064100642529 ], [ 9.52036531312797, 55.718372424186548 ], [ 9.518328963628239, 55.717130881682884 ], [ 9.516821273815005, 55.717280912245805 ], [ 9.516927196368428, 55.716743583295148 ], [ 9.515984910865454, 55.717568908903736 ], [ 9.515315356182777, 55.716272686752994 ], [ 9.51089133362, 55.715918358980545 ], [ 9.509669398022218, 55.716863945471196 ], [ 9.508474971220556, 55.716231285033693 ], [ 9.508965253502797, 55.715620487547561 ], [ 9.506110025135916, 55.714996113777744 ], [ 9.504986116244686, 55.715206235734286 ], [ 9.501780785028359, 55.714505474010863 ], [ 9.501535461220019, 55.71530977863813 ], [ 9.500386041664809, 55.714809391966561 ], [ 9.499618616642321, 55.715365842103033 ], [ 9.498826030210536, 55.715123669596146 ], [ 9.499424385155946, 55.714427019461006 ], [ 9.495821427133466, 55.713346733832481 ], [ 9.499055476652826, 55.712944924611485 ], [ 9.498649647511767, 55.711448421749751 ], [ 9.50113507620822, 55.711487636972613 ], [ 9.506828965152021, 55.710505701661518 ], [ 9.506985313789265, 55.709514764569683 ], [ 9.504478636744018, 55.709435320507048 ], [ 9.503456591908867, 55.708916469059915 ], [ 9.499144555037862, 55.709095686668753 ], [ 9.499163348709832, 55.706997569294927 ], [ 9.506503493541363, 55.706758304966129 ], [ 9.50675452748472, 55.70578126758501 ], [ 9.509586958374747, 55.706068211356644 ], [ 9.510052938587972, 55.704445650971884 ], [ 9.518264193314669, 55.705061018332771 ], [ 9.520230678600612, 55.703079665279944 ], [ 9.514519034911283, 55.701912516578403 ], [ 9.510879559611615, 55.700611242289682 ], [ 9.50169194104534, 55.699685511563729 ], [ 9.501616512629077, 55.698815033697556 ], [ 9.500883614281106, 55.698711187309868 ], [ 9.500621595974625, 55.699398119808912 ], [ 9.499777044343993, 55.699223287087904 ], [ 9.499232123543875, 55.700698138655056 ], [ 9.498263721538621, 55.698544111347175 ], [ 9.49902488205125, 55.697645076228483 ], [ 9.50012339713369, 55.697663699384712 ], [ 9.499599871504129, 55.696584513515454 ], [ 9.506502363596072, 55.694915842129234 ], [ 9.507780081416815, 55.694994310551685 ], [ 9.512215071871335, 55.692537759589811 ], [ 9.515463137315548, 55.692739731159939 ], [ 9.515873695830736, 55.691601697020431 ], [ 9.517821601764723, 55.691698539197695 ], [ 9.519428612150138, 55.690787358199266 ], [ 9.522283204699105, 55.690967360710033 ], [ 9.522931325893417, 55.689624409659409 ], [ 9.520527460292188, 55.688282300033954 ], [ 9.521243401937866, 55.685866555662237 ], [ 9.524273366495363, 55.683678165492132 ], [ 9.52552727019434, 55.683428577853121 ], [ 9.523460875397328, 55.681290038688552 ], [ 9.524605411487725, 55.679813500128304 ], [ 9.526033606830975, 55.679833717031912 ], [ 9.527962318889996, 55.678074782627995 ], [ 9.526625719358131, 55.676996325860102 ], [ 9.527419557650672, 55.676064170822499 ], [ 9.526280451585601, 55.675631192840903 ], [ 9.526003473892116, 55.674850636170383 ], [ 9.529080945220752, 55.674368006319078 ], [ 9.530373968603106, 55.673026453380423 ], [ 9.534390696110256, 55.673354799071582 ], [ 9.531057137414653, 55.67128452328474 ], [ 9.533176660861807, 55.671375435368681 ], [ 9.532526189928355, 55.67061277810199 ], [ 9.534487614244263, 55.670048586215103 ], [ 9.536146712561374, 55.670481734310236 ], [ 9.537540184515466, 55.669373470084558 ], [ 9.538854985527573, 55.669904055596916 ], [ 9.540093542838106, 55.668982891779706 ], [ 9.539794036011303, 55.668441660033785 ], [ 9.542335426329585, 55.667180205108004 ], [ 9.541392398825181, 55.66652608421527 ], [ 9.543550911273533, 55.666407101870689 ], [ 9.550640872327449, 55.669474629748706 ], [ 9.55121634621686, 55.670510780223282 ], [ 9.552290426843649, 55.670415646727612 ], [ 9.552795020677978, 55.670841000243371 ], [ 9.552860661041283, 55.671978189173345 ], [ 9.546297388523158, 55.672594059748342 ], [ 9.545532166937221, 55.673191498844076 ], [ 9.545915778019182, 55.673940807755869 ], [ 9.542973563779263, 55.675090800029018 ], [ 9.544996869633401, 55.675609737894064 ], [ 9.543583347325038, 55.67653423803597 ], [ 9.548925749817526, 55.676518285960206 ], [ 9.5533051077251, 55.675924898263446 ], [ 9.55394176281648, 55.675427191738152 ], [ 9.555143491912183, 55.675432636111168 ], [ 9.554877474907496, 55.674927771117275 ], [ 9.556363568195406, 55.674770177555082 ], [ 9.556338908376839, 55.675441421990939 ], [ 9.557233790476321, 55.675159170036615 ], [ 9.558298025556024, 55.675570636735856 ], [ 9.56034119498071, 55.675071344743046 ], [ 9.559276761819218, 55.6747691612387 ], [ 9.558137510369507, 55.675308718175621 ], [ 9.55790127501332, 55.674820976541767 ], [ 9.55987409116786, 55.674541709282025 ], [ 9.560025191119697, 55.672808151841835 ], [ 9.560724872744288, 55.672646721045822 ], [ 9.561022392462492, 55.673148823922077 ], [ 9.560344636669081, 55.673320758393352 ], [ 9.561162057575066, 55.673586322536018 ], [ 9.56442958684471, 55.671906763692427 ], [ 9.569705244035106, 55.67067823546347 ], [ 9.570976494560544, 55.670936505645066 ], [ 9.571732687924735, 55.671853740494498 ], [ 9.571756370443731, 55.673379740742497 ], [ 9.573196383805183, 55.673515359202696 ], [ 9.572526433234472, 55.672280450124219 ], [ 9.574369194563909, 55.671908734549845 ], [ 9.574530323075136, 55.67128375152911 ], [ 9.572871876127756, 55.671100917557823 ], [ 9.57299123785973, 55.669857653080605 ], [ 9.571460106928756, 55.669580575957774 ], [ 9.571324112552919, 55.669238228876516 ], [ 9.572990738606856, 55.669725567189808 ], [ 9.573451207203886, 55.668472115488917 ], [ 9.574315473342624, 55.668604778337119 ], [ 9.575292467631616, 55.667102414139507 ], [ 9.577740367596324, 55.666677947469068 ], [ 9.578676579324469, 55.665978451014261 ], [ 9.582869023927486, 55.666903174985549 ], [ 9.581448370946804, 55.671348583604811 ], [ 9.584115153056857, 55.671238519794187 ], [ 9.586342916304034, 55.670329699042369 ], [ 9.592821745238259, 55.669483588584782 ], [ 9.59246068409483, 55.668768100651256 ], [ 9.59442187608424, 55.668261446035828 ], [ 9.594722734133079, 55.668873526114133 ], [ 9.598455427645927, 55.668417067491703 ], [ 9.599039484121031, 55.672971988247504 ], [ 9.597968489039047, 55.672912333551182 ], [ 9.598069680725786, 55.673719286878715 ], [ 9.598995324627914, 55.673734542298767 ], [ 9.598939452723661, 55.674625647477725 ], [ 9.593101282410274, 55.674678342165159 ], [ 9.593097922275668, 55.676243020345773 ], [ 9.591681983479756, 55.676238709521655 ], [ 9.591595105710212, 55.674959939706071 ], [ 9.589691190108674, 55.675303184009053 ], [ 9.590826087926541, 55.676835162722966 ], [ 9.590778489097112, 55.678298336051121 ], [ 9.588748556091087, 55.678584573809339 ], [ 9.588807172838028, 55.681470463404942 ], [ 9.587552606238514, 55.681539013172305 ], [ 9.587699317767429, 55.682488266936232 ], [ 9.588975460355753, 55.682424734042151 ], [ 9.589047667184186, 55.68303864214576 ], [ 9.586830296024171, 55.683166521896666 ], [ 9.585816356958599, 55.679971956948378 ], [ 9.586095726975001, 55.683191327278479 ], [ 9.585280225331301, 55.683302773860426 ], [ 9.58356469140417, 55.682517334001695 ], [ 9.582584858181409, 55.680432119656842 ], [ 9.581559382080075, 55.680494039781713 ], [ 9.58291284472179, 55.683344855595031 ], [ 9.58001836185054, 55.683524976978077 ], [ 9.579770022899242, 55.682122602564419 ], [ 9.57870347652417, 55.681678984246766 ], [ 9.573718645975045, 55.685342793736361 ], [ 9.574637985928035, 55.685853727294173 ], [ 9.573530096036663, 55.686076807283904 ], [ 9.573465118561403, 55.685451715084568 ], [ 9.571600660901012, 55.685895758747108 ], [ 9.571818359427143, 55.686982449056607 ], [ 9.570868576997903, 55.686018853269772 ], [ 9.567000674917974, 55.686842960249649 ], [ 9.570034815382726, 55.693902435861823 ], [ 9.566170981700578, 55.69466674087316 ], [ 9.558859057550626, 55.698235867371849 ], [ 9.554501876625679, 55.699424998332056 ], [ 9.555787846258605, 55.701587125307157 ], [ 9.561370542807667, 55.700724100992289 ], [ 9.562646351091322, 55.703317779491961 ], [ 9.542854769665587, 55.706571196788019 ], [ 9.543145232842026, 55.707158913642289 ], [ 9.550851737294719, 55.705957282350091 ], [ 9.551375293466322, 55.706759677846094 ], [ 9.553128317331925, 55.706705368282037 ], [ 9.555008513099954, 55.706136342113382 ], [ 9.554500674738851, 55.705800292063195 ], [ 9.555215858796315, 55.705619754124328 ], [ 9.556169814225019, 55.706900546785953 ], [ 9.553795679390415, 55.707417018688979 ], [ 9.553176530115906, 55.706865898650996 ], [ 9.553615968106802, 55.707779074907329 ], [ 9.555859514692212, 55.707331610762793 ], [ 9.557343815451276, 55.710338362441831 ], [ 9.560757484895197, 55.710292811663663 ], [ 9.564484493736229, 55.709260683122999 ], [ 9.565020697515571, 55.709671464023529 ], [ 9.562095734860558, 55.711518340930951 ], [ 9.561309395968538, 55.711200794172349 ], [ 9.557719417169952, 55.711611971244054 ], [ 9.555565517485762, 55.711353695072965 ], [ 9.55564786986776, 55.711717325183386 ], [ 9.5477939329603, 55.712872467992504 ], [ 9.549456567997503, 55.714460689847549 ], [ 9.553810792191038, 55.714289370260644 ], [ 9.553845948821829, 55.713230448118075 ], [ 9.558562534545034, 55.713244403834722 ], [ 9.560180548760323, 55.713351241501996 ], [ 9.560945186122991, 55.71412922286482 ], [ 9.561799727886992, 55.714126665295758 ], [ 9.561868443349571, 55.714733412853967 ], [ 9.564806676563249, 55.714871793082615 ], [ 9.575032208120628, 55.712433479669912 ], [ 9.578165451644299, 55.713951343964901 ], [ 9.581607981308323, 55.714232153822536 ], [ 9.58314883638973, 55.715392338714359 ], [ 9.584884967043596, 55.715712865942628 ], [ 9.585664853521093, 55.717122932845662 ], [ 9.582783667043882, 55.717411413320505 ], [ 9.582631566391079, 55.71813313366885 ], [ 9.581821030827594, 55.718135627524624 ], [ 9.585100676822218, 55.719250249898082 ], [ 9.590105428653303, 55.717780807670991 ], [ 9.590978047003675, 55.715870600925847 ], [ 9.58993739333903, 55.711268357794147 ], [ 9.588780812682216, 55.71101557297694 ], [ 9.587236438050974, 55.711498481089201 ], [ 9.586972630162879, 55.711001502791355 ], [ 9.583947958524567, 55.710024701541123 ], [ 9.584003635116282, 55.708253420598091 ], [ 9.586022898443499, 55.706026045955838 ], [ 9.589415136428393, 55.706686709221181 ], [ 9.593105513448666, 55.705558688955136 ], [ 9.596074701206669, 55.707120021220653 ], [ 9.598639008864691, 55.707384753762604 ], [ 9.603000986154351, 55.704990869206185 ], [ 9.603678516415926, 55.706287930959071 ], [ 9.610012110150418, 55.707375609072322 ], [ 9.614392738730228, 55.707391064043129 ], [ 9.618062461797393, 55.708322606028695 ], [ 9.622491849229377, 55.707864347090094 ], [ 9.625668406068558, 55.708075900847156 ], [ 9.627761460255913, 55.708808956456586 ], [ 9.625636547352663, 55.712107706877894 ], [ 9.621909485252345, 55.71050599826826 ], [ 9.624574428991922, 55.712025772544564 ], [ 9.62268796870613, 55.712060599913166 ], [ 9.622538533697712, 55.712582160490463 ], [ 9.616252813371608, 55.712528944740804 ], [ 9.617952438406601, 55.714389400618167 ], [ 9.621710292287753, 55.71491011065703 ], [ 9.623519288734444, 55.716049115801177 ], [ 9.621420058754413, 55.716129482376004 ], [ 9.620177136912186, 55.72207296483429 ], [ 9.618671010941306, 55.722037967616174 ], [ 9.618839182312799, 55.723843484290803 ], [ 9.621863356818288, 55.724985372295606 ], [ 9.621665100185133, 55.725323871734915 ], [ 9.620759961875502, 55.725163294398541 ], [ 9.618596927332417, 55.72812928408068 ], [ 9.620232080936766, 55.727812797503056 ], [ 9.623419970241436, 55.728094762050901 ], [ 9.625315352004945, 55.72937817106245 ], [ 9.624970554903161, 55.730637020928349 ], [ 9.625941404069309, 55.730750950032274 ], [ 9.626327919545536, 55.729893106051748 ], [ 9.628127868973065, 55.73047827341972 ], [ 9.628426240508258, 55.731051110384584 ], [ 9.629646261484446, 55.731102476615668 ], [ 9.630254455296235, 55.730946920360097 ], [ 9.62843533361016, 55.72934989387462 ], [ 9.628417641726298, 55.728325767541172 ], [ 9.631492139271689, 55.726547416518841 ], [ 9.634632082026982, 55.727017085975909 ], [ 9.636243835872946, 55.72824336374066 ], [ 9.636797176395641, 55.727697008775372 ], [ 9.638968138421815, 55.728037596595598 ], [ 9.638576087986912, 55.731513396572161 ], [ 9.632849679235141, 55.732145468670254 ], [ 9.630071230699205, 55.731636714825896 ], [ 9.632134236368422, 55.732671879967931 ], [ 9.633828109163172, 55.732841743637856 ], [ 9.63444534573428, 55.734237811867281 ], [ 9.631334107188104, 55.734658000005197 ], [ 9.630730479322279, 55.735340610412607 ], [ 9.629380897455523, 55.735592702898664 ], [ 9.628892956568073, 55.736693571867583 ], [ 9.631631930581474, 55.736144457412976 ], [ 9.631625347786295, 55.736487818530478 ], [ 9.632958534916247, 55.736387405108573 ], [ 9.632740701849192, 55.736987638291446 ], [ 9.626906978930585, 55.73740268416396 ], [ 9.625640453635478, 55.736404519900503 ], [ 9.623423367286419, 55.73762214876033 ], [ 9.621786916826636, 55.73753058911462 ], [ 9.621780683681289, 55.736523592272306 ], [ 9.623159538118573, 55.735647435162186 ], [ 9.6217752194016, 55.735380390559293 ], [ 9.620684107355812, 55.737026251651088 ], [ 9.620083618910824, 55.736955683106025 ], [ 9.619356685386471, 55.736131243629977 ], [ 9.610194497349296, 55.733061949737809 ], [ 9.611333722284334, 55.732086296599753 ], [ 9.613073129392006, 55.73248156934671 ], [ 9.614234327005406, 55.732029232136874 ], [ 9.615677113843541, 55.730822316836218 ], [ 9.616785494991889, 55.731307657752822 ], [ 9.615475544477789, 55.729085021921264 ], [ 9.613605672515973, 55.731765440323557 ], [ 9.610838686232441, 55.731659588506183 ], [ 9.610223139820226, 55.732625461486258 ], [ 9.606559908583078, 55.73254587960998 ], [ 9.604099337264429, 55.731849093288041 ], [ 9.60571965198784, 55.732581343057589 ], [ 9.605751705913196, 55.73390061879342 ], [ 9.604053442484737, 55.733713544707598 ], [ 9.605089087262428, 55.734437263275552 ], [ 9.602072400186927, 55.734056181588912 ], [ 9.602755281814225, 55.733281965891393 ], [ 9.597560636673679, 55.73212502572737 ], [ 9.596731771042855, 55.733502490196926 ], [ 9.59307122340879, 55.733203744273823 ], [ 9.593545223117049, 55.73208617342739 ], [ 9.591848443981977, 55.731619653997264 ], [ 9.592150739683015, 55.730792338757155 ], [ 9.590504992479481, 55.730568702930803 ], [ 9.59045384401138, 55.7288150658703 ], [ 9.589531404825603, 55.731677069003965 ], [ 9.587530322473761, 55.73170462544477 ], [ 9.587803945620653, 55.731071904750735 ], [ 9.585782313539145, 55.730554559829422 ], [ 9.586826696378182, 55.729458015783727 ], [ 9.585563149424255, 55.728412469743063 ], [ 9.585966871885349, 55.727896932791225 ], [ 9.584418488110604, 55.727401298885773 ], [ 9.58214544700987, 55.730164353027398 ], [ 9.584562426150001, 55.731738819675464 ], [ 9.58361144900163, 55.732187764725545 ], [ 9.583544898787654, 55.734974844865626 ], [ 9.579645626729564, 55.734602971642325 ], [ 9.575652691440716, 55.733553457620246 ], [ 9.575608370156251, 55.734491571870954 ], [ 9.571123520037462, 55.734371787514384 ], [ 9.570966123505968, 55.736473687512508 ], [ 9.572150981635721, 55.736503848373076 ], [ 9.571445807911219, 55.73791210183014 ], [ 9.569516195509468, 55.737871998942964 ], [ 9.569590976920619, 55.737068619733741 ], [ 9.567563922605087, 55.737016359163029 ], [ 9.567602305564986, 55.73656645796234 ], [ 9.566687428039879, 55.736494573669717 ], [ 9.566658909335207, 55.735977140811336 ], [ 9.567450896837226, 55.735987952405452 ], [ 9.567714206146187, 55.734038680743623 ], [ 9.563798351913837, 55.734465821185587 ], [ 9.563708806609366, 55.735258393115181 ], [ 9.562683689052207, 55.734461675842077 ], [ 9.54923171684783, 55.734100045876488 ], [ 9.549137331135375, 55.734580023127549 ], [ 9.546482158524544, 55.735084265669414 ], [ 9.545392045509857, 55.733940766282252 ], [ 9.545526747216162, 55.732568801714592 ], [ 9.548869694896188, 55.732621304622661 ], [ 9.548947371499308, 55.731518078682775 ], [ 9.542467539378411, 55.731307485885949 ], [ 9.541040772904012, 55.729846087643359 ], [ 9.541690942185664, 55.726477977702714 ], [ 9.540754622066505, 55.726492794371374 ], [ 9.540807787587919, 55.725593382031676 ], [ 9.541457414818053, 55.725480358467394 ], [ 9.543365487284749, 55.721501248661539 ], [ 9.545698100179152, 55.722643957452121 ], [ 9.54518158551177, 55.724369904046043 ], [ 9.546090200741199, 55.723373876565034 ], [ 9.548070079678016, 55.723379324181529 ], [ 9.549873045050555, 55.723984642000993 ], [ 9.551544604000487, 55.722605515372642 ], [ 9.549210799552295, 55.72192596711556 ], [ 9.548997548158262, 55.721034613889429 ], [ 9.547715639717342, 55.721075318399542 ], [ 9.547407036240855, 55.720136462389604 ], [ 9.541875403560262, 55.720609004455397 ], [ 9.53997874846567, 55.7176895197466 ], [ 9.538287079357499, 55.716506814148126 ], [ 9.53905454997758, 55.719794659009736 ], [ 9.537349078475954, 55.720544602850822 ], [ 9.534725802669355, 55.724582989044627 ], [ 9.534204393118358, 55.723114062654915 ], [ 9.534725119957463, 55.73062627167765 ], [ 9.534191281823833, 55.730748729807829 ], [ 9.535199301052229, 55.732149133258204 ], [ 9.533721462101163, 55.735435441077556 ], [ 9.532458839962683, 55.735888394869278 ], [ 9.533801499060347, 55.736515686621601 ], [ 9.534857755612526, 55.738918121865076 ], [ 9.53606868120786, 55.739963785692368 ], [ 9.536961881668663, 55.739708023018089 ], [ 9.53740773653724, 55.740175295183725 ], [ 9.536789426499688, 55.741695014598356 ], [ 9.5380499587618, 55.742353617657123 ], [ 9.538470549032766, 55.744036909839664 ], [ 9.543928594966445, 55.743941976679473 ], [ 9.545910350775836, 55.743361982458616 ], [ 9.547095008183348, 55.744263797206564 ], [ 9.544901515874638, 55.744523249384031 ], [ 9.545776405164293, 55.743694051444095 ], [ 9.543983418850413, 55.744047043694209 ], [ 9.540952498819529, 55.744086032048287 ], [ 9.542950204757584, 55.744387221267807 ], [ 9.542304688727034, 55.744910868443391 ], [ 9.539731234707844, 55.744629722262765 ], [ 9.539716569965574, 55.745656105569829 ], [ 9.53863427050811, 55.745954229572156 ], [ 9.538692254260472, 55.746520598688221 ], [ 9.541007265107337, 55.747756443024429 ], [ 9.537420168996064, 55.747025580288046 ], [ 9.537378255700814, 55.747511158151234 ], [ 9.53579762944228, 55.747801371266448 ], [ 9.535575400838347, 55.75032509684771 ], [ 9.53442801416262, 55.750244100950702 ], [ 9.535311277938227, 55.752793293612022 ], [ 9.534903286279697, 55.752435473140814 ], [ 9.533958973409089, 55.752925691488713 ], [ 9.533736746411899, 55.751387897331043 ], [ 9.531951208567431, 55.751537609855028 ], [ 9.531372303647291, 55.751050317261338 ], [ 9.532200379547016, 55.748892291856485 ], [ 9.531519465440036, 55.749183491211831 ], [ 9.530780119682843, 55.748868153211326 ], [ 9.531045987505504, 55.748291935501889 ], [ 9.529447418071301, 55.746710024555547 ], [ 9.530420142410147, 55.746735751486391 ], [ 9.53116173995366, 55.745754391319629 ], [ 9.530677931246732, 55.744649472875381 ], [ 9.531899466612565, 55.746048620030045 ], [ 9.53329701080494, 55.746225056887425 ], [ 9.533915901784141, 55.74552617605795 ], [ 9.534144363336598, 55.746099533900065 ], [ 9.536774835320346, 55.74525035755839 ], [ 9.53712974557633, 55.743673295450009 ], [ 9.535272570504199, 55.741088193505952 ], [ 9.534970678392343, 55.741002348250596 ], [ 9.53506328339933, 55.741135110589795 ], [ 9.534896730843474, 55.741080755682397 ], [ 9.534550742552309, 55.741590747994209 ], [ 9.534047374897183, 55.741844439900703 ], [ 9.534587609583427, 55.742435131624859 ], [ 9.533518211885701, 55.742040734735625 ], [ 9.534545556806485, 55.741502802827611 ], [ 9.534471006624051, 55.740709800141957 ], [ 9.534142676357858, 55.741066872617878 ], [ 9.532878835113229, 55.740461437909801 ], [ 9.531682234967892, 55.740839248585488 ], [ 9.53275976801039, 55.739730087789781 ], [ 9.531704911848315, 55.738430326038937 ], [ 9.532437531566824, 55.738137014622531 ], [ 9.530208478223651, 55.735942964523552 ], [ 9.530783506819711, 55.734929974515452 ], [ 9.528882825092282, 55.734706705618983 ], [ 9.525390509845835, 55.733183914448141 ], [ 9.526783681392242, 55.732717263878072 ], [ 9.528585123640037, 55.732934613258756 ], [ 9.528968946327939, 55.733561854911613 ], [ 9.527951367306784, 55.734164664211058 ], [ 9.5287760752481, 55.734361315054308 ], [ 9.530011802808678, 55.732899444154889 ], [ 9.53192067575433, 55.732290605560728 ], [ 9.531797636958034, 55.731123295304812 ], [ 9.532795862308429, 55.730933510222982 ], [ 9.53038814709026, 55.729015283830535 ], [ 9.530343136436827, 55.728537450399244 ], [ 9.53147846478188, 55.728481597504498 ], [ 9.531280509482025, 55.72761122013145 ], [ 9.52935141193837, 55.727462301119068 ], [ 9.529350911437108, 55.727048702279667 ], [ 9.53093266913138, 55.726794505440992 ], [ 9.52873923866446, 55.72666397107961 ], [ 9.529593039590104, 55.725115957832827 ], [ 9.531367671051855, 55.72516571225087 ], [ 9.530048685570515, 55.723586280680628 ], [ 9.53133749199951, 55.722767165879283 ], [ 9.530713081281636, 55.72221456146859 ], [ 9.531681985572405, 55.722320264505534 ], [ 9.533009226123136, 55.721371485375833 ], [ 9.53072600492818, 55.7188122374301 ], [ 9.529778138788108, 55.719548557098506 ], [ 9.530462580953516, 55.72018878531658 ], [ 9.527921436017166, 55.72090122962981 ], [ 9.527847944316111, 55.722239215766365 ], [ 9.526284052934491, 55.72378603843746 ], [ 9.524185324438328, 55.72421023067087 ], [ 9.523666249387365, 55.726145581714015 ], [ 9.526717220505793, 55.726338127058241 ], [ 9.525885236133512, 55.726972741778603 ], [ 9.526676875828763, 55.728131443218423 ], [ 9.524959247770472, 55.727545393194418 ], [ 9.520714044450985, 55.728335491664687 ], [ 9.518673877326954, 55.727506674958647 ], [ 9.519656721333778, 55.728498831642362 ], [ 9.517740381136242, 55.728531722149896 ], [ 9.514182157282255, 55.733561636931732 ], [ 9.514559195789333, 55.732237487255233 ], [ 9.510284617239705, 55.73205134463543 ], [ 9.510057885835609, 55.730062723352212 ], [ 9.508366914915726, 55.730240994799225 ], [ 9.506932287019653, 55.727911418817527 ], [ 9.506120157866809, 55.727868131602833 ], [ 9.510715694663221, 55.725928739027474 ], [ 9.508354968442145, 55.725816686974731 ], [ 9.507562786943769, 55.72534409151254 ], [ 9.50529966539332, 55.726724388401443 ], [ 9.504560742570412, 55.726319520755226 ], [ 9.501331751602212, 55.72731618868098 ], [ 9.501528881858519, 55.727752111234928 ], [ 9.498444905429864, 55.72773613301004 ], [ 9.497951027052801, 55.727234719429859 ], [ 9.497269949409961, 55.727554162768143 ], [ 9.499635905881142, 55.724214765182971 ], [ 9.501160605151577, 55.723825502189378 ], [ 9.493644726759991, 55.7226753582299 ], [ 9.4938732184218, 55.724450157970907 ], [ 9.496232830582288, 55.726040935055501 ], [ 9.495819053375092, 55.726898771749013 ], [ 9.494991061381489, 55.726098051230473 ], [ 9.494241635960162, 55.726179970723969 ] ] ] } }
]
}
