{
"type": "FeatureCollection",
"name": "winterthur_ch",
"crs": { "type": "name", "properties": { "name": "urn:ogc:def:crs:OGC:1.3:CRS84" } },
"features": [
{ "type": "Feature", "properties": { "bbox_west": 8.6566078, "bbox_south": 47.4497181, "bbox_east": 8.8099412, "bbox_north": 47.5480027, "place_id": 72376160, "osm_type": "relation", "osm_id": 1682243, "lat": 47.4991723, "lon": 8.7291498, "class": "boundary", "type": "administrative", "place_rank": 16, "importance": 0.60761499074983816, "addresstype": "city", "name": "Winterthur", "display_name": "Winterthur, Bezirk Winterthur, Zurich, Switzerland" }, "geometry": { "type": "Polygon", "coordinates": [ [ [ 8.6566078, 47.5085845 ], [ 8.6566198, 47.5084578 ], [ 8.656693, 47.508209 ], [ 8.6567671, 47.5080807 ], [ 8.6569136, 47.5078951 ], [ 8.6570829, 47.5076903 ], [ 8.6574861, 47.5073605 ], [ 8.6578841, 47.5070795 ], [ 8.658108, 47.5069588 ], [ 8.658227, 47.5068647 ], [ 8.6584831, 47.5066004 ], [ 8.6587779, 47.5063836 ], [ 8.6589079, 47.5062789 ], [ 8.6590456, 47.5061441 ], [ 8.6592796, 47.5058953 ], [ 8.6594535, 47.5056824 ], [ 8.6595699, 47.5055075 ], [ 8.6596048, 47.5054328 ], [ 8.6596008, 47.5054311 ], [ 8.6594107, 47.5054714 ], [ 8.6585085, 47.5053776 ], [ 8.6587292, 47.5051196 ], [ 8.6587707, 47.5050286 ], [ 8.6589044, 47.5048447 ], [ 8.6589068, 47.5047385 ], [ 8.6589243, 47.5046881 ], [ 8.6589129, 47.5045969 ], [ 8.658846, 47.5044958 ], [ 8.6588353, 47.5044384 ], [ 8.6588792, 47.5043876 ], [ 8.6589361, 47.5043315 ], [ 8.6588722, 47.5043061 ], [ 8.658586, 47.5041384 ], [ 8.6582905, 47.5039568 ], [ 8.6582571, 47.5039275 ], [ 8.6582302, 47.5038911 ], [ 8.6582146, 47.5038518 ], [ 8.6582109, 47.5038112 ], [ 8.6582195, 47.5037709 ], [ 8.6583722, 47.5033844 ], [ 8.6584115, 47.5033085 ], [ 8.6591231, 47.5023891 ], [ 8.6591543, 47.5023415 ], [ 8.6591666, 47.5023168 ], [ 8.6592366, 47.501961 ], [ 8.6592542, 47.5019114 ], [ 8.6592833, 47.5018586 ], [ 8.6593345, 47.5017955 ], [ 8.6598962, 47.5012341 ], [ 8.6598862, 47.5011886 ], [ 8.6587657, 47.5005967 ], [ 8.6586975, 47.5006026 ], [ 8.6586582, 47.5005855 ], [ 8.6597876, 47.4993851 ], [ 8.659766, 47.4993495 ], [ 8.6596501, 47.4993139 ], [ 8.6593807, 47.4991899 ], [ 8.6593264, 47.4991976 ], [ 8.6593096, 47.4991674 ], [ 8.6596105, 47.4989559 ], [ 8.6599627, 47.4986248 ], [ 8.6598054, 47.498496 ], [ 8.6589972, 47.4979257 ], [ 8.6586231, 47.4976741 ], [ 8.6583422, 47.4974629 ], [ 8.6583259, 47.4974374 ], [ 8.6582329, 47.4972952 ], [ 8.6581258, 47.4970566 ], [ 8.6579309, 47.4968571 ], [ 8.6579082, 47.4966689 ], [ 8.6579294, 47.4963605 ], [ 8.6580394, 47.496179 ], [ 8.6580652, 47.4959045 ], [ 8.6580282, 47.4955759 ], [ 8.6580178, 47.4953702 ], [ 8.6584463, 47.4953572 ], [ 8.6590601, 47.4952507 ], [ 8.6592604, 47.4951254 ], [ 8.65949, 47.4949345 ], [ 8.6597043, 47.4948976 ], [ 8.6599585, 47.4949443 ], [ 8.6595684, 47.4943181 ], [ 8.6591136, 47.4936053 ], [ 8.6592963, 47.4933738 ], [ 8.6593132, 47.4933415 ], [ 8.6593205, 47.4933111 ], [ 8.659318, 47.4932697 ], [ 8.6593014, 47.4932296 ], [ 8.6591704, 47.4930657 ], [ 8.6592387, 47.4931047 ], [ 8.659426, 47.4931618 ], [ 8.6595818, 47.4931919 ], [ 8.6599815, 47.4932271 ], [ 8.6603761, 47.4932777 ], [ 8.6607526, 47.4933615 ], [ 8.6610757, 47.4927318 ], [ 8.6610494, 47.4911307 ], [ 8.6610741, 47.4910863 ], [ 8.6609928, 47.4910589 ], [ 8.6609152, 47.4910187 ], [ 8.6608602, 47.4909756 ], [ 8.6608142, 47.4909222 ], [ 8.6607935, 47.4908868 ], [ 8.6604835, 47.4902293 ], [ 8.6605402, 47.4901502 ], [ 8.6609456, 47.489755 ], [ 8.6609868, 47.4897236 ], [ 8.6610336, 47.4896961 ], [ 8.6610794, 47.4896753 ], [ 8.6611347, 47.4896563 ], [ 8.6630733, 47.4892037 ], [ 8.6631372, 47.4892024 ], [ 8.6631946, 47.489213 ], [ 8.6634301, 47.4893056 ], [ 8.6634539, 47.4892785 ], [ 8.6636652, 47.4893208 ], [ 8.6638217, 47.4891815 ], [ 8.6638977, 47.4891484 ], [ 8.6639209, 47.4890947 ], [ 8.6640473, 47.4889893 ], [ 8.6640773, 47.4889315 ], [ 8.6641419, 47.4888949 ], [ 8.6642527, 47.4888788 ], [ 8.6646139, 47.4886268 ], [ 8.6646676, 47.4885998 ], [ 8.6649651, 47.4883937 ], [ 8.6652739, 47.4882672 ], [ 8.6653726, 47.4882124 ], [ 8.6653983, 47.4881906 ], [ 8.665535, 47.4881006 ], [ 8.6655465, 47.4880819 ], [ 8.665195, 47.4879794 ], [ 8.6648771, 47.4877927 ], [ 8.6649185, 47.4877628 ], [ 8.6648832, 47.4876815 ], [ 8.6649337, 47.4875538 ], [ 8.6650311, 47.4874704 ], [ 8.6652232, 47.4874174 ], [ 8.6654994, 47.4872988 ], [ 8.6656682, 47.4871914 ], [ 8.6660811, 47.4867911 ], [ 8.6662447, 47.4866801 ], [ 8.6665952, 47.4865271 ], [ 8.6666524, 47.4864977 ], [ 8.6667349, 47.4864392 ], [ 8.6667985, 47.4863708 ], [ 8.6668343, 47.4863108 ], [ 8.6668543, 47.4862531 ], [ 8.6668967, 47.4859488 ], [ 8.6669517, 47.4857366 ], [ 8.6670375, 47.4854817 ], [ 8.6672556, 47.484912 ], [ 8.6673596, 47.484665 ], [ 8.6674598, 47.4845253 ], [ 8.6676213, 47.4844163 ], [ 8.6677763, 47.4843386 ], [ 8.668018, 47.4842328 ], [ 8.6681851, 47.4841359 ], [ 8.6683246, 47.4840225 ], [ 8.6684745, 47.4838621 ], [ 8.6685968, 47.483679 ], [ 8.6686675, 47.4834817 ], [ 8.668661, 47.4833531 ], [ 8.6685534, 47.4832423 ], [ 8.6682711, 47.4831024 ], [ 8.6682649, 47.4830589 ], [ 8.6685624, 47.4830692 ], [ 8.6690929, 47.4831625 ], [ 8.6692394, 47.4832597 ], [ 8.6693766, 47.4832725 ], [ 8.6695186, 47.4833227 ], [ 8.6699091, 47.4833447 ], [ 8.6699692, 47.4833732 ], [ 8.6700234, 47.4833699 ], [ 8.6700422, 47.4832142 ], [ 8.6701938, 47.4831125 ], [ 8.6704011, 47.4830776 ], [ 8.6709523, 47.4831202 ], [ 8.6712387, 47.4831185 ], [ 8.6716275, 47.4831495 ], [ 8.6717241, 47.4831472 ], [ 8.6718258, 47.483132 ], [ 8.6719215, 47.4831043 ], [ 8.6720137, 47.4830616 ], [ 8.6720914, 47.4830073 ], [ 8.6721514, 47.4829435 ], [ 8.6721828, 47.4828923 ], [ 8.6722027, 47.4828385 ], [ 8.6722259, 47.4826638 ], [ 8.6722502, 47.4825591 ], [ 8.6723226, 47.4824659 ], [ 8.6726603, 47.4821461 ], [ 8.6727738, 47.482068 ], [ 8.6729277, 47.4820423 ], [ 8.6730731, 47.4820874 ], [ 8.6732911, 47.4821275 ], [ 8.673428, 47.482116 ], [ 8.6738664, 47.4821701 ], [ 8.6741656, 47.482174 ], [ 8.6745203, 47.4821674 ], [ 8.6753728, 47.4829055 ], [ 8.6759694, 47.4833831 ], [ 8.6761652, 47.4835909 ], [ 8.6764544, 47.4838068 ], [ 8.6768617, 47.4840609 ], [ 8.6772686, 47.4843365 ], [ 8.6778476, 47.4848068 ], [ 8.6780484, 47.4850385 ], [ 8.678304, 47.4853121 ], [ 8.679079, 47.4858404 ], [ 8.6797968, 47.4861565 ], [ 8.6807061, 47.4864771 ], [ 8.6815933, 47.4868197 ], [ 8.6817894, 47.4866093 ], [ 8.681973, 47.4864318 ], [ 8.6820309, 47.4863837 ], [ 8.6820703, 47.486337 ], [ 8.6820967, 47.4860714 ], [ 8.6821757, 47.4856933 ], [ 8.6821673, 47.4854699 ], [ 8.6820386, 47.4850268 ], [ 8.6822139, 47.4846908 ], [ 8.6825683, 47.4843308 ], [ 8.6829371, 47.4842749 ], [ 8.682946, 47.4839673 ], [ 8.6832301, 47.4836358 ], [ 8.6833069, 47.4831919 ], [ 8.6834385, 47.4830539 ], [ 8.6836915, 47.4827751 ], [ 8.6837818, 47.4826953 ], [ 8.6844214, 47.4823677 ], [ 8.6846219, 47.4822589 ], [ 8.6849326, 47.4822437 ], [ 8.685019, 47.4821109 ], [ 8.6851862, 47.4815935 ], [ 8.6853206, 47.4813993 ], [ 8.6856147, 47.4810706 ], [ 8.6861873, 47.4809112 ], [ 8.6865413, 47.4806406 ], [ 8.6867968, 47.4803726 ], [ 8.6870353, 47.4801072 ], [ 8.6872677, 47.4799303 ], [ 8.6875164, 47.4797835 ], [ 8.6879076, 47.4797762 ], [ 8.6884628, 47.4798033 ], [ 8.688777, 47.479691 ], [ 8.6891608, 47.4790475 ], [ 8.6896164, 47.4788781 ], [ 8.6904505, 47.4783844 ], [ 8.6907739, 47.4781983 ], [ 8.6912669, 47.4773511 ], [ 8.6916467, 47.4767785 ], [ 8.6917661, 47.4766056 ], [ 8.6921567, 47.4761517 ], [ 8.6927695, 47.4759188 ], [ 8.6934325, 47.4757789 ], [ 8.6941933, 47.4757607 ], [ 8.6947828, 47.4756159 ], [ 8.6949564, 47.4752123 ], [ 8.6952497, 47.4749404 ], [ 8.6954862, 47.474744 ], [ 8.6962021, 47.4741314 ], [ 8.6962069, 47.4739177 ], [ 8.6960576, 47.4734657 ], [ 8.6959341, 47.4731292 ], [ 8.6956662, 47.4725697 ], [ 8.6956164, 47.472489 ], [ 8.6959807, 47.4723361 ], [ 8.6963867, 47.4722889 ], [ 8.6968571, 47.4723111 ], [ 8.6972395, 47.4723704 ], [ 8.6975418, 47.4723429 ], [ 8.698111, 47.4713069 ], [ 8.6981111, 47.4710025 ], [ 8.6986809, 47.4708461 ], [ 8.6991678, 47.4707037 ], [ 8.6993905, 47.4706553 ], [ 8.6996863, 47.4704256 ], [ 8.6999564, 47.4701309 ], [ 8.700086, 47.4700224 ], [ 8.7000157, 47.4698426 ], [ 8.7000229, 47.4696273 ], [ 8.6999689, 47.4694665 ], [ 8.6999174, 47.4693452 ], [ 8.6998968, 47.4692099 ], [ 8.6995635, 47.4692348 ], [ 8.6988154, 47.4692294 ], [ 8.6971419, 47.4691876 ], [ 8.6970379, 47.4691885 ], [ 8.6968935, 47.4692014 ], [ 8.6967621, 47.4692255 ], [ 8.6966718, 47.4692494 ], [ 8.6965889, 47.4692772 ], [ 8.6963864, 47.4693658 ], [ 8.6963031, 47.4693584 ], [ 8.6962397, 47.4693214 ], [ 8.6960773, 47.4691788 ], [ 8.6957267, 47.4688347 ], [ 8.6954057, 47.4685111 ], [ 8.6952319, 47.4683739 ], [ 8.6950271, 47.4682603 ], [ 8.6947921, 47.4681765 ], [ 8.6945406, 47.4681191 ], [ 8.6944952, 47.4681126 ], [ 8.6945664, 47.4677166 ], [ 8.6947466, 47.4676427 ], [ 8.6949565, 47.467645 ], [ 8.6949637, 47.4676095 ], [ 8.694456, 47.4675629 ], [ 8.6941826, 47.4675433 ], [ 8.6937176, 47.4675675 ], [ 8.6932777, 47.467611 ], [ 8.6930316, 47.4676671 ], [ 8.6928616, 47.4674083 ], [ 8.6928896, 47.4673433 ], [ 8.6929645, 47.467211 ], [ 8.6932022, 47.4671164 ], [ 8.6932168, 47.4670553 ], [ 8.6935058, 47.4669049 ], [ 8.6936561, 47.4668659 ], [ 8.6937249, 47.4667762 ], [ 8.6938351, 47.4667012 ], [ 8.6940416, 47.4666048 ], [ 8.6941228, 47.4664879 ], [ 8.6941904, 47.466474 ], [ 8.6942799, 47.4664481 ], [ 8.6943544, 47.466388 ], [ 8.6945136, 47.4663728 ], [ 8.6947176, 47.4665215 ], [ 8.694926, 47.4664847 ], [ 8.6951126, 47.4665524 ], [ 8.695476, 47.4665257 ], [ 8.6956201, 47.4666442 ], [ 8.6958187, 47.4666238 ], [ 8.6959338, 47.4666843 ], [ 8.6961186, 47.4666967 ], [ 8.6962849, 47.4667948 ], [ 8.6963633, 47.4667705 ], [ 8.6965153, 47.4668519 ], [ 8.6970287, 47.4668933 ], [ 8.6971692, 47.4668408 ], [ 8.6973535, 47.4669032 ], [ 8.6975481, 47.4669026 ], [ 8.6976568, 47.4669359 ], [ 8.6978522, 47.4669769 ], [ 8.6979377, 47.4670405 ], [ 8.6984, 47.4671207 ], [ 8.698541, 47.4671035 ], [ 8.6987169, 47.4671109 ], [ 8.6990236, 47.4672338 ], [ 8.6991723, 47.4672143 ], [ 8.6992951, 47.4671773 ], [ 8.6994275, 47.4672842 ], [ 8.699536, 47.4673205 ], [ 8.6997004, 47.46734 ], [ 8.6999205, 47.4673104 ], [ 8.7000866, 47.4673834 ], [ 8.7002834, 47.4674283 ], [ 8.7005461, 47.4673552 ], [ 8.7008668, 47.4675006 ], [ 8.7012038, 47.4675016 ], [ 8.7013646, 47.4675939 ], [ 8.7014755, 47.4675093 ], [ 8.7015222, 47.4674233 ], [ 8.7016402, 47.4673747 ], [ 8.7018045, 47.4674198 ], [ 8.7019658, 47.4675032 ], [ 8.702041, 47.4676623 ], [ 8.7021355, 47.4677154 ], [ 8.7023896, 47.4676886 ], [ 8.7024869, 47.4677245 ], [ 8.7024734, 47.4678989 ], [ 8.7024896, 47.4679224 ], [ 8.7027032, 47.4674526 ], [ 8.702879, 47.4672532 ], [ 8.7033826, 47.4668396 ], [ 8.7037336, 47.4667102 ], [ 8.7042424, 47.4664796 ], [ 8.704314, 47.4665475 ], [ 8.7043585, 47.4666361 ], [ 8.7044914, 47.4667334 ], [ 8.7045255, 47.4667933 ], [ 8.7046225, 47.4668627 ], [ 8.7046328, 47.4669258 ], [ 8.704748, 47.4669847 ], [ 8.7047416, 47.4670355 ], [ 8.7047461, 47.4671499 ], [ 8.7048055, 47.467204 ], [ 8.7047683, 47.4672585 ], [ 8.7047914, 47.4673434 ], [ 8.7048598, 47.4674194 ], [ 8.7050249, 47.4673078 ], [ 8.7057498, 47.4669644 ], [ 8.7059663, 47.4668976 ], [ 8.7062754, 47.4668558 ], [ 8.7063069, 47.4668146 ], [ 8.706313, 47.4668161 ], [ 8.706361, 47.4667425 ], [ 8.7064295, 47.4665851 ], [ 8.7064573, 47.4664218 ], [ 8.7064636, 47.4662707 ], [ 8.7064602, 47.4662706 ], [ 8.7065304, 47.4646799 ], [ 8.7065531, 47.4644418 ], [ 8.7066014, 47.464206 ], [ 8.7066737, 47.4639729 ], [ 8.7067706, 47.4637438 ], [ 8.7070875, 47.4630934 ], [ 8.7070623, 47.4630323 ], [ 8.7070046, 47.4629361 ], [ 8.7062137, 47.4627766 ], [ 8.7059992, 47.4623406 ], [ 8.7058445, 47.4620717 ], [ 8.7057397, 47.4618661 ], [ 8.7055659, 47.4616769 ], [ 8.7049588, 47.4614405 ], [ 8.7044705, 47.4612335 ], [ 8.7042555, 47.461193 ], [ 8.7040163, 47.4610911 ], [ 8.7036511, 47.4609476 ], [ 8.70328, 47.4608883 ], [ 8.7031616, 47.4608811 ], [ 8.7032347, 47.4607948 ], [ 8.703007, 47.4603248 ], [ 8.7028147, 47.4600474 ], [ 8.7026964, 47.4597095 ], [ 8.7026884, 47.4594373 ], [ 8.702692, 47.4591448 ], [ 8.7024536, 47.4588501 ], [ 8.7023609, 47.4585318 ], [ 8.7024758, 47.4584865 ], [ 8.7025604, 47.4585072 ], [ 8.7026705, 47.4584904 ], [ 8.7027335, 47.4585111 ], [ 8.7029, 47.4585024 ], [ 8.7029911, 47.4585221 ], [ 8.7031212, 47.4585397 ], [ 8.7032083, 47.4585851 ], [ 8.7034428, 47.4585743 ], [ 8.7036916, 47.458507 ], [ 8.7038239, 47.4584474 ], [ 8.7038743, 47.4583978 ], [ 8.7040798, 47.4583457 ], [ 8.7041243, 47.4583029 ], [ 8.7043544, 47.458273 ], [ 8.7045219, 47.458315 ], [ 8.704668, 47.4583305 ], [ 8.7047212, 47.4583483 ], [ 8.7051146, 47.458367 ], [ 8.7054178, 47.4584681 ], [ 8.7055624, 47.4584509 ], [ 8.7056675, 47.4584435 ], [ 8.7058043, 47.4584734 ], [ 8.7058551, 47.4585067 ], [ 8.7060372, 47.4585391 ], [ 8.7061436, 47.4585318 ], [ 8.7062607, 47.4584879 ], [ 8.7064074, 47.4584701 ], [ 8.7065575, 47.4584299 ], [ 8.7066228, 47.4584337 ], [ 8.7067166, 47.4583912 ], [ 8.7069715, 47.458296 ], [ 8.7071854, 47.4582493 ], [ 8.7071601, 47.4581943 ], [ 8.7074011, 47.4582901 ], [ 8.7076923, 47.458275 ], [ 8.7078147, 47.4582572 ], [ 8.7068703, 47.4552929 ], [ 8.7067989, 47.4551222 ], [ 8.7067531, 47.4549401 ], [ 8.7067402, 47.4547559 ], [ 8.7067841, 47.4545749 ], [ 8.7068825, 47.4543172 ], [ 8.706885, 47.4541477 ], [ 8.7068745, 47.4540581 ], [ 8.7067206, 47.4536001 ], [ 8.7066175, 47.4534374 ], [ 8.7064823, 47.4532738 ], [ 8.7063834, 47.4531684 ], [ 8.706324, 47.4530771 ], [ 8.7062028, 47.452725 ], [ 8.7061232, 47.4525858 ], [ 8.7059367, 47.4522991 ], [ 8.7056701, 47.4516891 ], [ 8.7055392, 47.451419 ], [ 8.7060983, 47.4511163 ], [ 8.7061294, 47.4511055 ], [ 8.7062047, 47.4510628 ], [ 8.7062446, 47.4510064 ], [ 8.7063057, 47.4510044 ], [ 8.7064774, 47.4509378 ], [ 8.7065526, 47.450933 ], [ 8.706631, 47.4508796 ], [ 8.7066877, 47.4508332 ], [ 8.7067988, 47.4508591 ], [ 8.706944, 47.4507815 ], [ 8.7071255, 47.4507267 ], [ 8.7073468, 47.4506398 ], [ 8.7074129, 47.4505587 ], [ 8.7074975, 47.4505481 ], [ 8.7074921, 47.4504589 ], [ 8.7076046, 47.450399 ], [ 8.707587, 47.4503492 ], [ 8.7076418, 47.4503386 ], [ 8.7077495, 47.4503623 ], [ 8.7078581, 47.450306 ], [ 8.7079469, 47.4502448 ], [ 8.7080992, 47.4501951 ], [ 8.7081409, 47.4501759 ], [ 8.7082216, 47.4501743 ], [ 8.7082387, 47.45014 ], [ 8.7083296, 47.4501508 ], [ 8.7083856, 47.4501342 ], [ 8.708448, 47.4501396 ], [ 8.7086093, 47.4501228 ], [ 8.7086704, 47.4501283 ], [ 8.7088588, 47.4500395 ], [ 8.7089585, 47.4500175 ], [ 8.7090175, 47.4500762 ], [ 8.7091108, 47.4500272 ], [ 8.7092369, 47.4500142 ], [ 8.709277, 47.4499784 ], [ 8.7093966, 47.4499475 ], [ 8.7094738, 47.4498669 ], [ 8.7095906, 47.4498498 ], [ 8.7096237, 47.4498267 ], [ 8.7098938, 47.4504242 ], [ 8.7099973, 47.4505859 ], [ 8.7102308, 47.45089 ], [ 8.7104997, 47.4513831 ], [ 8.7105598, 47.4515672 ], [ 8.7106242, 47.4518477 ], [ 8.7109397, 47.4518017 ], [ 8.7112572, 47.4516768 ], [ 8.7118452, 47.451317 ], [ 8.7121347, 47.4512604 ], [ 8.7124967, 47.4510249 ], [ 8.7127166, 47.4508113 ], [ 8.7129134, 47.4506832 ], [ 8.7132042, 47.450431 ], [ 8.7134136, 47.450275 ], [ 8.7136651, 47.4501662 ], [ 8.7143371, 47.4497704 ], [ 8.7145093, 47.4499368 ], [ 8.7149979, 47.4497181 ], [ 8.7155101, 47.4503592 ], [ 8.7159624, 47.4512872 ], [ 8.7158453, 47.4516425 ], [ 8.7154931, 47.4520517 ], [ 8.7152768, 47.4523766 ], [ 8.7149484, 47.4527831 ], [ 8.7146306, 47.453023 ], [ 8.7146435, 47.4530483 ], [ 8.7151846, 47.4532396 ], [ 8.7153872, 47.4533944 ], [ 8.7157354, 47.453621 ], [ 8.7165056, 47.4539034 ], [ 8.7166972, 47.4538579 ], [ 8.7168384, 47.4537738 ], [ 8.7169629, 47.4538828 ], [ 8.7170218, 47.4540494 ], [ 8.7171834, 47.4541677 ], [ 8.717348, 47.4543734 ], [ 8.7174498, 47.4547985 ], [ 8.7176373, 47.455214 ], [ 8.7177284, 47.4553366 ], [ 8.7179041, 47.4554594 ], [ 8.7180205, 47.4556057 ], [ 8.7180172, 47.45591 ], [ 8.7180462, 47.4560973 ], [ 8.7179575, 47.4565038 ], [ 8.7179727, 47.4565075 ], [ 8.7180293, 47.4564919 ], [ 8.7182276, 47.4565726 ], [ 8.7183588, 47.4565593 ], [ 8.7185251, 47.4564815 ], [ 8.7185887, 47.4564912 ], [ 8.718607, 47.4564841 ], [ 8.7187069, 47.4564108 ], [ 8.7187542, 47.4564071 ], [ 8.7188381, 47.4564885 ], [ 8.7186592, 47.4567107 ], [ 8.7185348, 47.4569432 ], [ 8.7184012, 47.4572633 ], [ 8.7182779, 47.4576415 ], [ 8.7179646, 47.4584897 ], [ 8.7176686, 47.4593963 ], [ 8.7175093, 47.4598483 ], [ 8.7175493, 47.4602247 ], [ 8.7178077, 47.460737 ], [ 8.717898, 47.4611809 ], [ 8.7180908, 47.4611658 ], [ 8.7189279, 47.460959 ], [ 8.7195467, 47.4607938 ], [ 8.7203721, 47.4605842 ], [ 8.7210426, 47.4603782 ], [ 8.7218597, 47.4602413 ], [ 8.7225186, 47.4604683 ], [ 8.7232134, 47.4605097 ], [ 8.7234858, 47.4604516 ], [ 8.7241511, 47.4607151 ], [ 8.7247132, 47.4609175 ], [ 8.7253062, 47.4610654 ], [ 8.7286815, 47.4616233 ], [ 8.7290126, 47.4616318 ], [ 8.729116, 47.4598406 ], [ 8.7291377, 47.4596726 ], [ 8.7291615, 47.4595725 ], [ 8.7291931, 47.4594735 ], [ 8.7292331, 47.4593761 ], [ 8.7292805, 47.4592803 ], [ 8.7293359, 47.4591848 ], [ 8.7293992, 47.4590908 ], [ 8.729566, 47.4588832 ], [ 8.729672, 47.4587674 ], [ 8.7297799, 47.4586661 ], [ 8.729905, 47.4585652 ], [ 8.7300406, 47.4584701 ], [ 8.7301878, 47.45838 ], [ 8.7303312, 47.4583039 ], [ 8.7304822, 47.4582346 ], [ 8.7306541, 47.4581668 ], [ 8.7308177, 47.4581122 ], [ 8.7310017, 47.4580618 ], [ 8.7311905, 47.4580203 ], [ 8.731367, 47.4579901 ], [ 8.7315631, 47.4579661 ], [ 8.731745, 47.4579526 ], [ 8.7319272, 47.4579474 ], [ 8.7321259, 47.4579511 ], [ 8.732307, 47.4579632 ], [ 8.7324866, 47.4579833 ], [ 8.7326645, 47.4580112 ], [ 8.732839, 47.4580474 ], [ 8.7330094, 47.4580919 ], [ 8.7331901, 47.4581486 ], [ 8.7333643, 47.4582137 ], [ 8.7335166, 47.4582809 ], [ 8.7336755, 47.4583619 ], [ 8.7338141, 47.458443 ], [ 8.733944, 47.4585303 ], [ 8.7340645, 47.4586232 ], [ 8.7341859, 47.4587304 ], [ 8.7342872, 47.4588337 ], [ 8.734385, 47.4589509 ], [ 8.7344633, 47.4590623 ], [ 8.7345197, 47.459156 ], [ 8.7345684, 47.4592517 ], [ 8.7346092, 47.4593488 ], [ 8.7346423, 47.4594473 ], [ 8.734667, 47.4595472 ], [ 8.7346836, 47.4596481 ], [ 8.7346924, 47.4597493 ], [ 8.7346934, 47.4598502 ], [ 8.7346752, 47.4600293 ], [ 8.7344169, 47.4614666 ], [ 8.7343181, 47.4620425 ], [ 8.7343104, 47.4621377 ], [ 8.7343131, 47.4622312 ], [ 8.7343254, 47.4623244 ], [ 8.734347, 47.4624171 ], [ 8.7343779, 47.4625088 ], [ 8.734418, 47.4625987 ], [ 8.734467, 47.4626862 ], [ 8.7345186, 47.4627627 ], [ 8.7345843, 47.4628449 ], [ 8.7346508, 47.4629161 ], [ 8.7347321, 47.4629917 ], [ 8.7348117, 47.4630567 ], [ 8.7348971, 47.4631183 ], [ 8.7349982, 47.4631821 ], [ 8.7350944, 47.4632353 ], [ 8.7352067, 47.4632896 ], [ 8.7353246, 47.4633382 ], [ 8.7354472, 47.4633814 ], [ 8.7355613, 47.4634151 ], [ 8.7356917, 47.4634466 ], [ 8.7358253, 47.4634719 ], [ 8.7359626, 47.4634911 ], [ 8.7361016, 47.4635036 ], [ 8.7362457, 47.4635096 ], [ 8.7401041, 47.4635303 ], [ 8.7407229, 47.4635329 ], [ 8.7409108, 47.4635285 ], [ 8.7411801, 47.4635093 ], [ 8.7414228, 47.4634773 ], [ 8.7414565, 47.4634729 ], [ 8.7416012, 47.4634469 ], [ 8.741744, 47.4634162 ], [ 8.7418839, 47.4633811 ], [ 8.7420213, 47.4633416 ], [ 8.7421561, 47.4632977 ], [ 8.7423023, 47.4632439 ], [ 8.7424297, 47.4631913 ], [ 8.7425531, 47.4631348 ], [ 8.7427503, 47.4630318 ], [ 8.7429411, 47.4629147 ], [ 8.743043, 47.4628438 ], [ 8.7435955, 47.462437 ], [ 8.7437257, 47.4623498 ], [ 8.7438603, 47.4622686 ], [ 8.7440432, 47.4621708 ], [ 8.7442486, 47.4620761 ], [ 8.7444446, 47.4619983 ], [ 8.7446616, 47.4619252 ], [ 8.7449287, 47.4618525 ], [ 8.7466591, 47.4614415 ], [ 8.7470098, 47.4613605 ], [ 8.7471704, 47.4613314 ], [ 8.7473067, 47.4613147 ], [ 8.7474568, 47.4613042 ], [ 8.74759, 47.4613015 ], [ 8.7477232, 47.4613052 ], [ 8.7478453, 47.4613147 ], [ 8.7479813, 47.4613321 ], [ 8.7481144, 47.4613563 ], [ 8.7482423, 47.4613864 ], [ 8.7484141, 47.4614386 ], [ 8.7485829, 47.4615043 ], [ 8.7487336, 47.461578 ], [ 8.748868, 47.4616586 ], [ 8.7489908, 47.4617482 ], [ 8.7491004, 47.4618461 ], [ 8.7492059, 47.4619624 ], [ 8.7492867, 47.4620754 ], [ 8.7521196, 47.4676034 ], [ 8.7522912, 47.4679287 ], [ 8.7523401, 47.468006 ], [ 8.7523898, 47.4680733 ], [ 8.7524521, 47.4681466 ], [ 8.7525209, 47.4682172 ], [ 8.7526054, 47.4682907 ], [ 8.752697, 47.4683602 ], [ 8.7527944, 47.4684262 ], [ 8.7528977, 47.4684882 ], [ 8.753007, 47.4685453 ], [ 8.7531225, 47.4685973 ], [ 8.7532428, 47.4686438 ], [ 8.7533548, 47.4686809 ], [ 8.7534829, 47.4687168 ], [ 8.7536143, 47.4687465 ], [ 8.753748, 47.4687701 ], [ 8.753884, 47.4687875 ], [ 8.7540075, 47.4687977 ], [ 8.7541455, 47.4688031 ], [ 8.7542698, 47.4688025 ], [ 8.75438, 47.4687978 ], [ 8.7545564, 47.4687808 ], [ 8.7546595, 47.4687708 ], [ 8.7548469, 47.4687399 ], [ 8.7550276, 47.4686949 ], [ 8.7551884, 47.4686408 ], [ 8.7553808, 47.4685519 ], [ 8.7555751, 47.4684456 ], [ 8.7556855, 47.4683768 ], [ 8.7557448, 47.4683348 ], [ 8.7558285, 47.4682662 ], [ 8.7559121, 47.4681862 ], [ 8.756194, 47.4678791 ], [ 8.757168, 47.4668572 ], [ 8.7575141, 47.4664717 ], [ 8.7580003, 47.4659824 ], [ 8.7580962, 47.4658694 ], [ 8.7581725, 47.4657581 ], [ 8.7582247, 47.4656625 ], [ 8.7582761, 47.4655432 ], [ 8.7583157, 47.4654231 ], [ 8.7583413, 47.4653135 ], [ 8.7583543, 47.4652151 ], [ 8.7583578, 47.4651062 ], [ 8.7583515, 47.4649981 ], [ 8.7583357, 47.4648921 ], [ 8.7583135, 47.4647974 ], [ 8.7582931, 47.4647388 ], [ 8.7581783, 47.4644503 ], [ 8.7579385, 47.463949 ], [ 8.7578061, 47.463686 ], [ 8.7577805, 47.4636244 ], [ 8.7577477, 47.463531 ], [ 8.7577239, 47.463444 ], [ 8.7577041, 47.4633449 ], [ 8.757696, 47.4632729 ], [ 8.7576962, 47.4631617 ], [ 8.7577079, 47.4630598 ], [ 8.757731, 47.4629574 ], [ 8.7577652, 47.4628564 ], [ 8.7578714, 47.4626925 ], [ 8.7579927, 47.462546 ], [ 8.7580902, 47.4624482 ], [ 8.7582052, 47.4623561 ], [ 8.758334, 47.4622718 ], [ 8.7584776, 47.4621951 ], [ 8.7593798, 47.4617845 ], [ 8.7599401, 47.4615448 ], [ 8.7610528, 47.4610556 ], [ 8.7614642, 47.4608877 ], [ 8.7615299, 47.4611309 ], [ 8.7618086, 47.4610238 ], [ 8.7619487, 47.4611756 ], [ 8.7617977, 47.4612533 ], [ 8.7616527, 47.4613366 ], [ 8.7617563, 47.4613695 ], [ 8.7619965, 47.4612503 ], [ 8.7623515, 47.4611165 ], [ 8.7627145, 47.4609948 ], [ 8.7630766, 47.4609052 ], [ 8.7633302, 47.460816 ], [ 8.763968, 47.4606792 ], [ 8.7643584, 47.4607345 ], [ 8.7652879, 47.4605307 ], [ 8.7662573, 47.460313 ], [ 8.7667386, 47.4602093 ], [ 8.7671878, 47.4601189 ], [ 8.76788, 47.4599688 ], [ 8.7686016, 47.4598062 ], [ 8.7706704, 47.4593498 ], [ 8.7719004, 47.4590861 ], [ 8.7720014, 47.4593558 ], [ 8.771694, 47.4594502 ], [ 8.771621, 47.4595732 ], [ 8.7716318, 47.459715 ], [ 8.7719421, 47.4597723 ], [ 8.7718674, 47.4599461 ], [ 8.7727665, 47.4600054 ], [ 8.7734387, 47.4601503 ], [ 8.7734457, 47.4600923 ], [ 8.7740722, 47.4599734 ], [ 8.7743528, 47.45989 ], [ 8.7746583, 47.4598506 ], [ 8.7746543, 47.4599274 ], [ 8.7749621, 47.4599945 ], [ 8.7753345, 47.4601354 ], [ 8.7755864, 47.4603953 ], [ 8.7756147, 47.4603926 ], [ 8.7756643, 47.4603969 ], [ 8.7756535, 47.4604842 ], [ 8.7761182, 47.4607933 ], [ 8.7762779, 47.4607143 ], [ 8.7767117, 47.460943 ], [ 8.7768441, 47.4609929 ], [ 8.7777266, 47.4613629 ], [ 8.7784221, 47.4614866 ], [ 8.7790042, 47.4616448 ], [ 8.7803331, 47.4619712 ], [ 8.7803524, 47.4620106 ], [ 8.7804414, 47.4620167 ], [ 8.7805149, 47.4620562 ], [ 8.7805918, 47.4621296 ], [ 8.7807015, 47.4621871 ], [ 8.7810522, 47.462299 ], [ 8.7813072, 47.4624242 ], [ 8.7814622, 47.4625169 ], [ 8.7815534, 47.4625845 ], [ 8.7816368, 47.4626285 ], [ 8.7818403, 47.4626943 ], [ 8.78191, 47.4627825 ], [ 8.7820167, 47.4630649 ], [ 8.7820557, 47.4631982 ], [ 8.7821079, 47.4631932 ], [ 8.7831651, 47.4634719 ], [ 8.7839417, 47.4633993 ], [ 8.7841368, 47.4634166 ], [ 8.7843371, 47.4634817 ], [ 8.7843432, 47.4635013 ], [ 8.7848083, 47.4636024 ], [ 8.785302, 47.4636643 ], [ 8.7857897, 47.463699 ], [ 8.7864264, 47.4636755 ], [ 8.7869393, 47.4637634 ], [ 8.7869116, 47.4639004 ], [ 8.7871984, 47.4639405 ], [ 8.7874119, 47.464024 ], [ 8.7877752, 47.4642431 ], [ 8.7880572, 47.4644027 ], [ 8.7880894, 47.4644171 ], [ 8.7881503, 47.46443 ], [ 8.7882142, 47.4644282 ], [ 8.7882698, 47.4644132 ], [ 8.7883182, 47.4643849 ], [ 8.7891058, 47.4648583 ], [ 8.7892955, 47.4649604 ], [ 8.7892759, 47.4649789 ], [ 8.7893413, 47.46501 ], [ 8.7893603, 47.4649914 ], [ 8.7895139, 47.4650575 ], [ 8.7896601, 47.4651115 ], [ 8.7898118, 47.4651593 ], [ 8.7899833, 47.4652042 ], [ 8.7901266, 47.465235 ], [ 8.7910682, 47.4654146 ], [ 8.7913134, 47.4654724 ], [ 8.7914769, 47.465521 ], [ 8.7916212, 47.4655717 ], [ 8.7917744, 47.4656341 ], [ 8.7919215, 47.465703 ], [ 8.7932317, 47.4663877 ], [ 8.7933735, 47.4664676 ], [ 8.7935088, 47.4665525 ], [ 8.7936246, 47.466633 ], [ 8.7950521, 47.4676837 ], [ 8.7952161, 47.4678234 ], [ 8.7952902, 47.4678972 ], [ 8.7953585, 47.4679735 ], [ 8.7954508, 47.4680919 ], [ 8.7955292, 47.4682152 ], [ 8.7955984, 47.4683522 ], [ 8.7956479, 47.4684821 ], [ 8.7956728, 47.46857 ], [ 8.7957103, 47.4687399 ], [ 8.795684, 47.4687428 ], [ 8.7956959, 47.4687961 ], [ 8.7957223, 47.4687932 ], [ 8.7959821, 47.4699769 ], [ 8.7962189, 47.4710214 ], [ 8.7962694, 47.4711673 ], [ 8.7963366, 47.4713088 ], [ 8.7964214, 47.4714476 ], [ 8.796515, 47.4715716 ], [ 8.7966136, 47.4716815 ], [ 8.7967137, 47.4717779 ], [ 8.7968232, 47.4718694 ], [ 8.7969522, 47.4719635 ], [ 8.8004319, 47.4742486 ], [ 8.8006527, 47.4743811 ], [ 8.8007689, 47.4744426 ], [ 8.8009044, 47.4745073 ], [ 8.8010441, 47.4745675 ], [ 8.8011719, 47.474617 ], [ 8.8013198, 47.4746681 ], [ 8.8014709, 47.4747147 ], [ 8.8016079, 47.4747515 ], [ 8.8017649, 47.4747878 ], [ 8.801942, 47.474822 ], [ 8.8040402, 47.4751796 ], [ 8.8041861, 47.475197 ], [ 8.8056221, 47.475411 ], [ 8.805616, 47.4754284 ], [ 8.8056937, 47.4754397 ], [ 8.8057002, 47.4754225 ], [ 8.8071493, 47.4756363 ], [ 8.8077086, 47.4757044 ], [ 8.8081479, 47.4757372 ], [ 8.8082923, 47.4757419 ], [ 8.8082905, 47.4757635 ], [ 8.8083697, 47.4757632 ], [ 8.8083718, 47.4757445 ], [ 8.8094561, 47.4757616 ], [ 8.8093479, 47.4760068 ], [ 8.8092278, 47.4761297 ], [ 8.8090248, 47.4763237 ], [ 8.8088005, 47.4765773 ], [ 8.8085619, 47.4768567 ], [ 8.8083287, 47.477157 ], [ 8.8082014, 47.4773424 ], [ 8.8081148, 47.4774962 ], [ 8.8079321, 47.4777135 ], [ 8.807787, 47.4779103 ], [ 8.8077073, 47.4781554 ], [ 8.8076013, 47.4783046 ], [ 8.8074602, 47.4785965 ], [ 8.8076503, 47.4787858 ], [ 8.808002, 47.4790266 ], [ 8.8077222, 47.4792062 ], [ 8.8075641, 47.4792493 ], [ 8.8077589, 47.4793319 ], [ 8.8077941, 47.479357 ], [ 8.807831, 47.4793921 ], [ 8.8078568, 47.4794268 ], [ 8.8078765, 47.4794677 ], [ 8.8078858, 47.4795058 ], [ 8.8078843, 47.4795657 ], [ 8.8078035, 47.4798894 ], [ 8.8077896, 47.4803304 ], [ 8.8077542, 47.4805763 ], [ 8.8076154, 47.4807525 ], [ 8.8074503, 47.4808699 ], [ 8.8072605, 47.4809483 ], [ 8.806958, 47.4810036 ], [ 8.8067388, 47.4810052 ], [ 8.8064637, 47.4809568 ], [ 8.8061972, 47.4808603 ], [ 8.8059412, 47.4807009 ], [ 8.8051915, 47.4812867 ], [ 8.8046201, 47.4820516 ], [ 8.8050575, 47.4822208 ], [ 8.8056657, 47.4825326 ], [ 8.8061887, 47.4827861 ], [ 8.8068119, 47.4829585 ], [ 8.8072054, 47.4830335 ], [ 8.8075569, 47.4830798 ], [ 8.8078758, 47.4830917 ], [ 8.8085018, 47.4830465 ], [ 8.8088891, 47.4830332 ], [ 8.8089431, 47.4830348 ], [ 8.809019, 47.4830466 ], [ 8.8090896, 47.4830689 ], [ 8.8091516, 47.483101 ], [ 8.8092058, 47.4831449 ], [ 8.8092296, 47.4831734 ], [ 8.8092495, 47.4832076 ], [ 8.8092801, 47.4833072 ], [ 8.8093462, 47.4832996 ], [ 8.8093839, 47.4834479 ], [ 8.8078493, 47.4836319 ], [ 8.8078599, 47.4836775 ], [ 8.8078097, 47.4837391 ], [ 8.8074611, 47.4850284 ], [ 8.8071654, 47.4861207 ], [ 8.8072112, 47.4861711 ], [ 8.8072006, 47.4862017 ], [ 8.8079094, 47.4863538 ], [ 8.8081136, 47.4863832 ], [ 8.8093024, 47.486517 ], [ 8.8097008, 47.4865766 ], [ 8.8094724, 47.4878549 ], [ 8.8094626, 47.4878862 ], [ 8.8099412, 47.4879551 ], [ 8.8095901, 47.489396 ], [ 8.80816, 47.489123 ], [ 8.8081468, 47.4891534 ], [ 8.8081793, 47.4892022 ], [ 8.8079505, 47.4904421 ], [ 8.8079648, 47.4905318 ], [ 8.8082377, 47.4909715 ], [ 8.8057409, 47.4909972 ], [ 8.8057541, 47.4921151 ], [ 8.8058017, 47.4921476 ], [ 8.8057915, 47.4921798 ], [ 8.8055662, 47.4921454 ], [ 8.805348, 47.4921407 ], [ 8.8049041, 47.49221 ], [ 8.8047028, 47.4922187 ], [ 8.804317, 47.4921804 ], [ 8.8036564, 47.4920981 ], [ 8.8027458, 47.4919777 ], [ 8.8025387, 47.4919604 ], [ 8.802144, 47.4919597 ], [ 8.8014675, 47.4918453 ], [ 8.8010368, 47.4918355 ], [ 8.8007171, 47.4917784 ], [ 8.8005954, 47.4917698 ], [ 8.7997634, 47.491773 ], [ 8.7996256, 47.4917842 ], [ 8.7995936, 47.4918261 ], [ 8.7994223, 47.4917209 ], [ 8.7993461, 47.4916605 ], [ 8.7993058, 47.4916172 ], [ 8.7992758, 47.4915766 ], [ 8.7992519, 47.4915341 ], [ 8.7992329, 47.4914846 ], [ 8.7991565, 47.4914934 ], [ 8.7991813, 47.4915645 ], [ 8.7992199, 47.491633 ], [ 8.7992716, 47.4916974 ], [ 8.7993272, 47.4917483 ], [ 8.7993344, 47.4917922 ], [ 8.7993078, 47.4918328 ], [ 8.799277, 47.4918654 ], [ 8.7992643, 47.491906 ], [ 8.7993153, 47.4921606 ], [ 8.7992924, 47.4921879 ], [ 8.7990329, 47.4922929 ], [ 8.798965, 47.4923063 ], [ 8.7988816, 47.4923006 ], [ 8.7987311, 47.4922808 ], [ 8.7986498, 47.4922419 ], [ 8.7985516, 47.4921342 ], [ 8.7984734, 47.4920824 ], [ 8.7983531, 47.4920456 ], [ 8.7982289, 47.4920463 ], [ 8.7976893, 47.4921539 ], [ 8.7969908, 47.4922659 ], [ 8.7969863, 47.4922823 ], [ 8.7961988, 47.4923281 ], [ 8.7962095, 47.4922168 ], [ 8.7960713, 47.4922972 ], [ 8.7959143, 47.4923659 ], [ 8.7956671, 47.4924288 ], [ 8.795519, 47.4924429 ], [ 8.7950151, 47.4924192 ], [ 8.7944777, 47.4923663 ], [ 8.7937633, 47.4922549 ], [ 8.7935077, 47.4922255 ], [ 8.7931059, 47.4922058 ], [ 8.7927617, 47.4921967 ], [ 8.7923213, 47.4921987 ], [ 8.792199, 47.4922194 ], [ 8.7916636, 47.4923932 ], [ 8.7915922, 47.4924394 ], [ 8.7912714, 47.4928498 ], [ 8.791157, 47.4930462 ], [ 8.791129, 47.4932538 ], [ 8.7911465, 47.4936346 ], [ 8.7911853, 47.4939411 ], [ 8.7911563, 47.4944224 ], [ 8.7911354, 47.4946101 ], [ 8.7910887, 47.4947953 ], [ 8.7909922, 47.4950625 ], [ 8.7909101, 47.4950469 ], [ 8.7910236, 47.4947855 ], [ 8.7906845, 47.494555 ], [ 8.7903559, 47.4943462 ], [ 8.7902991, 47.4942713 ], [ 8.789812, 47.4944663 ], [ 8.7897815, 47.4945095 ], [ 8.789489, 47.4946523 ], [ 8.7895011, 47.4946955 ], [ 8.7894944, 47.4947962 ], [ 8.7895403, 47.4949194 ], [ 8.7894504, 47.494992 ], [ 8.7894541, 47.495028 ], [ 8.7888698, 47.495153 ], [ 8.7883089, 47.4952893 ], [ 8.7882448, 47.4953014 ], [ 8.7880111, 47.4952795 ], [ 8.7879263, 47.4952797 ], [ 8.7878505, 47.4952859 ], [ 8.787768, 47.4952994 ], [ 8.7876809, 47.4953221 ], [ 8.7875994, 47.4953525 ], [ 8.7875311, 47.4953866 ], [ 8.7874638, 47.4954302 ], [ 8.7874009, 47.4954844 ], [ 8.7872115, 47.4956788 ], [ 8.786576, 47.4963563 ], [ 8.7865216, 47.4964 ], [ 8.7864533, 47.4964426 ], [ 8.7863845, 47.4964757 ], [ 8.7863026, 47.4965053 ], [ 8.7862159, 47.4965272 ], [ 8.7861256, 47.4965411 ], [ 8.7860334, 47.4965468 ], [ 8.7859491, 47.4965447 ], [ 8.7855342, 47.4965007 ], [ 8.7847832, 47.4963947 ], [ 8.7847133, 47.4963906 ], [ 8.7846498, 47.4963943 ], [ 8.7845586, 47.4964127 ], [ 8.7841343, 47.4965457 ], [ 8.783927, 47.4966335 ], [ 8.7838619, 47.4966684 ], [ 8.7838068, 47.4967104 ], [ 8.7837631, 47.4967582 ], [ 8.7837322, 47.4968105 ], [ 8.7835805, 47.4966666 ], [ 8.7834554, 47.4965777 ], [ 8.7831252, 47.4964239 ], [ 8.7830602, 47.4963863 ], [ 8.7828205, 47.4965508 ], [ 8.7827821, 47.4967877 ], [ 8.7826801, 47.4969229 ], [ 8.7826518, 47.4970716 ], [ 8.7824677, 47.4972289 ], [ 8.7820668, 47.4971638 ], [ 8.7820489, 47.4972935 ], [ 8.7820228, 47.4973817 ], [ 8.7819763, 47.4974732 ], [ 8.7819065, 47.4975651 ], [ 8.7818433, 47.4976275 ], [ 8.7817705, 47.4976849 ], [ 8.781313, 47.4979746 ], [ 8.7812016, 47.4980554 ], [ 8.7810986, 47.4981406 ], [ 8.7810194, 47.4982155 ], [ 8.7809841, 47.4982666 ], [ 8.780965, 47.49833 ], [ 8.7809696, 47.4983938 ], [ 8.7809923, 47.4984471 ], [ 8.7810929, 47.4985995 ], [ 8.7813166, 47.4988661 ], [ 8.7813561, 47.4989052 ], [ 8.7814018, 47.4989413 ], [ 8.7814531, 47.4989736 ], [ 8.781503, 47.4989988 ], [ 8.7816056, 47.4990367 ], [ 8.7817243, 47.499062 ], [ 8.7824892, 47.4991201 ], [ 8.7829314, 47.4991917 ], [ 8.7833755, 47.4992569 ], [ 8.7835321, 47.4993052 ], [ 8.7836187, 47.499373 ], [ 8.7836613, 47.4994866 ], [ 8.7836366, 47.4996006 ], [ 8.7835362, 47.4996837 ], [ 8.7834086, 47.4997477 ], [ 8.7831052, 47.4998503 ], [ 8.7829356, 47.4999433 ], [ 8.7825433, 47.5002199 ], [ 8.7823743, 47.5003204 ], [ 8.7823917, 47.5003441 ], [ 8.7819153, 47.5005142 ], [ 8.7818997, 47.5004941 ], [ 8.7817644, 47.5006149 ], [ 8.7816934, 47.5006628 ], [ 8.7815691, 47.5006989 ], [ 8.7813199, 47.5007303 ], [ 8.7813911, 47.5009386 ], [ 8.7812296, 47.5009998 ], [ 8.7813863, 47.5011514 ], [ 8.7814835, 47.5013289 ], [ 8.7818215, 47.5015576 ], [ 8.7819113, 47.5015911 ], [ 8.7820264, 47.501676 ], [ 8.782142, 47.5018042 ], [ 8.7814672, 47.5019529 ], [ 8.7811105, 47.5020252 ], [ 8.7804684, 47.5021809 ], [ 8.7800387, 47.502275 ], [ 8.7797595, 47.5023293 ], [ 8.7794782, 47.5023788 ], [ 8.7791657, 47.5024282 ], [ 8.7788874, 47.502467 ], [ 8.7789719, 47.5027233 ], [ 8.7789647, 47.502724 ], [ 8.7791008, 47.5030451 ], [ 8.7806296, 47.5048494 ], [ 8.7807878, 47.5047902 ], [ 8.7814587, 47.5045013 ], [ 8.7817974, 47.504862 ], [ 8.7819375, 47.5048017 ], [ 8.7820014, 47.5048698 ], [ 8.7820339, 47.5048612 ], [ 8.7820687, 47.5048603 ], [ 8.7821026, 47.5048673 ], [ 8.7821291, 47.5048802 ], [ 8.7821567, 47.5049035 ], [ 8.7821942, 47.5049456 ], [ 8.782263, 47.5050425 ], [ 8.7823043, 47.5051221 ], [ 8.7823775, 47.5053038 ], [ 8.7824253, 47.5053732 ], [ 8.7827941, 47.5062875 ], [ 8.7827941, 47.5063053 ], [ 8.7827839, 47.5063217 ], [ 8.782765, 47.5063342 ], [ 8.7827431, 47.5063403 ], [ 8.7827456, 47.5063717 ], [ 8.7828099, 47.5063802 ], [ 8.7828774, 47.5063975 ], [ 8.7836196, 47.5066488 ], [ 8.7836491, 47.5066707 ], [ 8.7836661, 47.5066985 ], [ 8.783667, 47.5067993 ], [ 8.783686, 47.5068531 ], [ 8.7837071, 47.5068807 ], [ 8.7837318, 47.506903 ], [ 8.783795, 47.5069384 ], [ 8.785629, 47.50751 ], [ 8.7877323, 47.5084773 ], [ 8.787832, 47.5085106 ], [ 8.7879419, 47.5085241 ], [ 8.788638, 47.5085533 ], [ 8.7887758, 47.5085535 ], [ 8.7919245, 47.5083095 ], [ 8.7914106, 47.509074 ], [ 8.7913359, 47.5091646 ], [ 8.791247, 47.5092491 ], [ 8.7918039, 47.5096557 ], [ 8.7922026, 47.5098898 ], [ 8.7924569, 47.509943 ], [ 8.7927135, 47.5097605 ], [ 8.7930835, 47.5094841 ], [ 8.7935508, 47.5090762 ], [ 8.7936397, 47.508943 ], [ 8.7936713, 47.5088237 ], [ 8.794404, 47.509062 ], [ 8.7948717, 47.509146 ], [ 8.795152, 47.5093194 ], [ 8.7955013, 47.5093032 ], [ 8.7960717, 47.5094388 ], [ 8.7964757, 47.5095059 ], [ 8.7968092, 47.509587 ], [ 8.7969814, 47.5095817 ], [ 8.7971891, 47.5096176 ], [ 8.7978279, 47.5099826 ], [ 8.7980382, 47.5100912 ], [ 8.7987795, 47.5103889 ], [ 8.799137, 47.5105778 ], [ 8.799456, 47.5107218 ], [ 8.7992502, 47.510879 ], [ 8.7989672, 47.5110822 ], [ 8.7987064, 47.5112498 ], [ 8.7984464, 47.5113816 ], [ 8.7982128, 47.5115277 ], [ 8.798017, 47.5116703 ], [ 8.7978512, 47.5118037 ], [ 8.7976433, 47.5120264 ], [ 8.7975145, 47.5122122 ], [ 8.7973976, 47.5123928 ], [ 8.7970797, 47.5126791 ], [ 8.7969606, 47.5128929 ], [ 8.7969224, 47.5129989 ], [ 8.7967723, 47.5130201 ], [ 8.7967663, 47.5130377 ], [ 8.7964113, 47.5129677 ], [ 8.7960996, 47.5129147 ], [ 8.795774, 47.5128681 ], [ 8.7957347, 47.512866 ], [ 8.7956557, 47.5128692 ], [ 8.7955852, 47.5128806 ], [ 8.7955241, 47.5128977 ], [ 8.7954098, 47.5128119 ], [ 8.7951318, 47.512816 ], [ 8.7945084, 47.5127059 ], [ 8.7941537, 47.5126517 ], [ 8.7938653, 47.512594 ], [ 8.7935949, 47.5125483 ], [ 8.7930204, 47.5124757 ], [ 8.7927313, 47.5124425 ], [ 8.7924237, 47.512386 ], [ 8.7921221, 47.5123213 ], [ 8.7913006, 47.5121615 ], [ 8.7912275, 47.5121433 ], [ 8.7911328, 47.5118049 ], [ 8.7894997, 47.5115758 ], [ 8.789259, 47.5115445 ], [ 8.7889017, 47.5115258 ], [ 8.7886753, 47.5115232 ], [ 8.7879508, 47.5115717 ], [ 8.7872694, 47.511602 ], [ 8.7869394, 47.5116211 ], [ 8.7868774, 47.5116278 ], [ 8.7868163, 47.5116378 ], [ 8.7867564, 47.5116512 ], [ 8.7866982, 47.5116676 ], [ 8.7866421, 47.5116874 ], [ 8.78658, 47.5117094 ], [ 8.7865203, 47.5117341 ], [ 8.7864631, 47.5117615 ], [ 8.7864088, 47.5117916 ], [ 8.7863576, 47.5118241 ], [ 8.7863098, 47.5118589 ], [ 8.7862286, 47.5119318 ], [ 8.7861543, 47.5120081 ], [ 8.7860874, 47.5120874 ], [ 8.7860279, 47.5121696 ], [ 8.7859763, 47.5122542 ], [ 8.7859328, 47.5123409 ], [ 8.7858231, 47.512608 ], [ 8.7857727, 47.5126924 ], [ 8.7857396, 47.5127363 ], [ 8.7857026, 47.5127786 ], [ 8.7856618, 47.5128192 ], [ 8.7855035, 47.5129588 ], [ 8.7854759, 47.51299 ], [ 8.7854522, 47.5130225 ], [ 8.7854324, 47.5130562 ], [ 8.7848386, 47.5142159 ], [ 8.7848358, 47.5142273 ], [ 8.7848392, 47.5142426 ], [ 8.7848499, 47.5142562 ], [ 8.7848667, 47.5142665 ], [ 8.7848306, 47.5142548 ], [ 8.7847541, 47.5142388 ], [ 8.7847092, 47.5142342 ], [ 8.7846562, 47.5142331 ], [ 8.7845897, 47.5142383 ], [ 8.7842289, 47.5142865 ], [ 8.7841554, 47.5142924 ], [ 8.7840816, 47.5142955 ], [ 8.7840076, 47.5142959 ], [ 8.7835908, 47.5142846 ], [ 8.7834598, 47.514276 ], [ 8.783386, 47.5142596 ], [ 8.7833677, 47.514289 ], [ 8.783401, 47.5143585 ], [ 8.7828665, 47.515499 ], [ 8.7828228, 47.5155448 ], [ 8.7827749, 47.5155675 ], [ 8.7824848, 47.5154676 ], [ 8.7819888, 47.5152053 ], [ 8.781938, 47.5152136 ], [ 8.7819651, 47.5152503 ], [ 8.7818121, 47.5152116 ], [ 8.7818003, 47.5151648 ], [ 8.781679, 47.51511 ], [ 8.7815399, 47.5150792 ], [ 8.7812344, 47.5150299 ], [ 8.7811161, 47.5150131 ], [ 8.7809396, 47.5149935 ], [ 8.7801384, 47.5149342 ], [ 8.7800014, 47.5149319 ], [ 8.7798588, 47.5149372 ], [ 8.7794889, 47.5149728 ], [ 8.7790285, 47.5150347 ], [ 8.7784944, 47.5151331 ], [ 8.7785046, 47.5151701 ], [ 8.7783214, 47.5151923 ], [ 8.7781338, 47.5151875 ], [ 8.7776023, 47.5151368 ], [ 8.7771706, 47.5151229 ], [ 8.7768239, 47.5151013 ], [ 8.7762079, 47.5150524 ], [ 8.7753996, 47.515015 ], [ 8.7749252, 47.5149776 ], [ 8.7747838, 47.5149493 ], [ 8.7747375, 47.514949 ], [ 8.7747245, 47.5150439 ], [ 8.7745664, 47.5159998 ], [ 8.7744112, 47.5169185 ], [ 8.7743951, 47.5171099 ], [ 8.7743248, 47.518765 ], [ 8.7743039, 47.5188026 ], [ 8.7740633, 47.5187277 ], [ 8.7722731, 47.5182614 ], [ 8.7720232, 47.5179483 ], [ 8.7718792, 47.5180047 ], [ 8.7713767, 47.5174127 ], [ 8.7696935, 47.5180633 ], [ 8.769973, 47.5183798 ], [ 8.7708185, 47.5193537 ], [ 8.7705263, 47.5194485 ], [ 8.7692466, 47.5197541 ], [ 8.7690246, 47.5198208 ], [ 8.7690574, 47.519898 ], [ 8.7685569, 47.5201812 ], [ 8.7680973, 47.5204251 ], [ 8.7675363, 47.5207057 ], [ 8.7674757, 47.520732 ], [ 8.767412, 47.520755 ], [ 8.7673457, 47.5207743 ], [ 8.7672773, 47.5207898 ], [ 8.7672073, 47.5208014 ], [ 8.7671416, 47.5208595 ], [ 8.7673227, 47.5222529 ], [ 8.7674017, 47.5222979 ], [ 8.7679419, 47.5238503 ], [ 8.7679628, 47.524682 ], [ 8.7680209, 47.5249748 ], [ 8.7679694, 47.5253395 ], [ 8.768003, 47.5255679 ], [ 8.7680881, 47.5255944 ], [ 8.7685872, 47.5256708 ], [ 8.7688909, 47.5257332 ], [ 8.7693194, 47.525851 ], [ 8.7694462, 47.5259474 ], [ 8.7708165, 47.529278 ], [ 8.7707131, 47.5293413 ], [ 8.7706903, 47.5293775 ], [ 8.7710815, 47.5294814 ], [ 8.7710902, 47.5295018 ], [ 8.7719017, 47.5290431 ], [ 8.7719231, 47.5290236 ], [ 8.7719473, 47.5289952 ], [ 8.7719663, 47.5289791 ], [ 8.772226, 47.5288096 ], [ 8.7722473, 47.5287898 ], [ 8.7722635, 47.5287677 ], [ 8.7723137, 47.5286284 ], [ 8.77234, 47.5286034 ], [ 8.7722727, 47.5284973 ], [ 8.7725798, 47.5284092 ], [ 8.7726259, 47.5284842 ], [ 8.7726751, 47.5285235 ], [ 8.7727521, 47.5285258 ], [ 8.7728366, 47.5285015 ], [ 8.772914, 47.5284678 ], [ 8.7730386, 47.5285882 ], [ 8.7728733, 47.5287072 ], [ 8.7728338, 47.5287846 ], [ 8.7728791, 47.5288601 ], [ 8.7732666, 47.5293342 ], [ 8.7734892, 47.5294696 ], [ 8.7737277, 47.5295911 ], [ 8.7738748, 47.529638 ], [ 8.7740016, 47.5296362 ], [ 8.7741128, 47.5296112 ], [ 8.7743967, 47.5294983 ], [ 8.7745424, 47.529446 ], [ 8.7746984, 47.5294067 ], [ 8.7748613, 47.5293954 ], [ 8.7751055, 47.5294065 ], [ 8.7752758, 47.5294212 ], [ 8.7755165, 47.5294766 ], [ 8.7757185, 47.5295955 ], [ 8.7758561, 47.5297244 ], [ 8.7759759, 47.5298713 ], [ 8.7760771, 47.5300233 ], [ 8.7761845, 47.5301749 ], [ 8.776292, 47.530296 ], [ 8.7763596, 47.5303647 ], [ 8.7764585, 47.5304519 ], [ 8.7766895, 47.5306128 ], [ 8.7769487, 47.53075 ], [ 8.7772359, 47.5308597 ], [ 8.7775393, 47.5309409 ], [ 8.7778464, 47.5309972 ], [ 8.7781569, 47.5310374 ], [ 8.7782287, 47.5310267 ], [ 8.7783763, 47.5310836 ], [ 8.7789295, 47.5311273 ], [ 8.7790458, 47.5312411 ], [ 8.7791513, 47.53134 ], [ 8.7793276, 47.5314946 ], [ 8.7794093, 47.531553 ], [ 8.7794688, 47.5315899 ], [ 8.7795583, 47.5316382 ], [ 8.779639, 47.5316748 ], [ 8.7796052, 47.5317049 ], [ 8.7798958, 47.5317885 ], [ 8.7847451, 47.5337141 ], [ 8.784625, 47.533857 ], [ 8.7849836, 47.5340188 ], [ 8.7854455, 47.5342332 ], [ 8.7854317, 47.5342727 ], [ 8.7854002, 47.5345043 ], [ 8.7854315, 47.5345186 ], [ 8.7854055, 47.5345552 ], [ 8.7854004, 47.5345866 ], [ 8.7853411, 47.5345806 ], [ 8.7852822, 47.5345731 ], [ 8.7852236, 47.5345644 ], [ 8.7851655, 47.5345543 ], [ 8.7851493, 47.5345512 ], [ 8.7851332, 47.534548 ], [ 8.785117, 47.5345447 ], [ 8.7850566, 47.5345314 ], [ 8.784997, 47.5345166 ], [ 8.7849381, 47.5345003 ], [ 8.7847623, 47.5344506 ], [ 8.784546, 47.5343845 ], [ 8.7841051, 47.5342496 ], [ 8.7834979, 47.5352918 ], [ 8.7830648, 47.5360238 ], [ 8.7831993, 47.5360506 ], [ 8.7836444, 47.5361395 ], [ 8.7836294, 47.5361645 ], [ 8.7837999, 47.5361984 ], [ 8.784526, 47.5362549 ], [ 8.7845282, 47.5362802 ], [ 8.7845289, 47.5363055 ], [ 8.7845281, 47.5363308 ], [ 8.7845219, 47.536399 ], [ 8.7845072, 47.5364521 ], [ 8.7844715, 47.5365004 ], [ 8.7844176, 47.5365402 ], [ 8.7843496, 47.5365685 ], [ 8.7842728, 47.536583 ], [ 8.784193, 47.5365826 ], [ 8.7839634, 47.5365576 ], [ 8.7838185, 47.5365413 ], [ 8.7836722, 47.5365319 ], [ 8.7835255, 47.5365294 ], [ 8.7833788, 47.5365339 ], [ 8.7825033, 47.5365777 ], [ 8.7824909, 47.5365783 ], [ 8.7824785, 47.5365789 ], [ 8.7824661, 47.5365796 ], [ 8.782335, 47.5365925 ], [ 8.7822067, 47.5366148 ], [ 8.7820828, 47.5366466 ], [ 8.7819647, 47.5366872 ], [ 8.7818681, 47.536729 ], [ 8.7817778, 47.5367768 ], [ 8.7816945, 47.5368301 ], [ 8.7816189, 47.5368885 ], [ 8.7815966, 47.5369079 ], [ 8.7815753, 47.5369279 ], [ 8.7815548, 47.5369483 ], [ 8.7812385, 47.5372872 ], [ 8.7812104, 47.5373072 ], [ 8.7811733, 47.5373186 ], [ 8.7811326, 47.5373198 ], [ 8.7810942, 47.5373104 ], [ 8.7810638, 47.537292 ], [ 8.7805941, 47.5368711 ], [ 8.7796502, 47.5362216 ], [ 8.7795452, 47.5361386 ], [ 8.7794655, 47.5360597 ], [ 8.7794501, 47.5360319 ], [ 8.7794421, 47.5359867 ], [ 8.7794271, 47.5360761 ], [ 8.7793728, 47.5360749 ], [ 8.7793642, 47.5361191 ], [ 8.7792679, 47.5363842 ], [ 8.7790925, 47.5366933 ], [ 8.7788897, 47.5370307 ], [ 8.7787265, 47.5372673 ], [ 8.7786209, 47.5374247 ], [ 8.7781944, 47.5380557 ], [ 8.7776778, 47.5388751 ], [ 8.7771699, 47.539676 ], [ 8.7766214, 47.5405396 ], [ 8.7763349, 47.5409902 ], [ 8.7763198, 47.5410047 ], [ 8.776298, 47.5410147 ], [ 8.7762724, 47.5410188 ], [ 8.7762464, 47.5410165 ], [ 8.7764057, 47.5410717 ], [ 8.7771433, 47.5413495 ], [ 8.7774689, 47.5414383 ], [ 8.7774395, 47.5414981 ], [ 8.7769891, 47.5425528 ], [ 8.7769758, 47.542583 ], [ 8.7767363, 47.5431154 ], [ 8.7758659, 47.5441037 ], [ 8.7758369, 47.5441361 ], [ 8.7749792, 47.5437433 ], [ 8.7746926, 47.5436642 ], [ 8.7746137, 47.5437201 ], [ 8.7745491, 47.5437303 ], [ 8.7745848, 47.5438322 ], [ 8.7746558, 47.5439328 ], [ 8.7745959, 47.5439082 ], [ 8.774527, 47.5438997 ], [ 8.774492, 47.543902 ], [ 8.7744541, 47.5439096 ], [ 8.7743953, 47.5439354 ], [ 8.7742855, 47.5440332 ], [ 8.773957, 47.5443898 ], [ 8.7738827, 47.5444477 ], [ 8.773794, 47.5444954 ], [ 8.7737236, 47.5445227 ], [ 8.7736409, 47.544545 ], [ 8.7735543, 47.5445592 ], [ 8.773417, 47.544571 ], [ 8.773363, 47.5445824 ], [ 8.7733119, 47.5445988 ], [ 8.7732597, 47.5446225 ], [ 8.7728844, 47.5448256 ], [ 8.7726838, 47.5449202 ], [ 8.7725496, 47.5449708 ], [ 8.7724172, 47.5450068 ], [ 8.7719325, 47.5451095 ], [ 8.7713447, 47.5452945 ], [ 8.7709123, 47.5454065 ], [ 8.770678, 47.5454728 ], [ 8.770637, 47.5454883 ], [ 8.7706005, 47.5455084 ], [ 8.7705697, 47.5455324 ], [ 8.7705454, 47.5455596 ], [ 8.7705284, 47.5455892 ], [ 8.7705191, 47.5456204 ], [ 8.7705179, 47.5456522 ], [ 8.7705237, 47.5456802 ], [ 8.770561, 47.5457461 ], [ 8.7705002, 47.5457399 ], [ 8.7705842, 47.5458809 ], [ 8.7706344, 47.5459845 ], [ 8.7707153, 47.5461831 ], [ 8.7707265, 47.5462294 ], [ 8.7707295, 47.5462762 ], [ 8.7690208, 47.5462349 ], [ 8.7690114, 47.5462903 ], [ 8.7689008, 47.5466551 ], [ 8.7688707, 47.5467119 ], [ 8.7688289, 47.54676 ], [ 8.7687652, 47.5468087 ], [ 8.7686879, 47.5468473 ], [ 8.7683405, 47.5469761 ], [ 8.7682648, 47.5469982 ], [ 8.7681951, 47.5470135 ], [ 8.768051, 47.5470313 ], [ 8.767539, 47.5470513 ], [ 8.76739, 47.5470652 ], [ 8.7669141, 47.5469368 ], [ 8.7668374, 47.5469111 ], [ 8.7667648, 47.5468806 ], [ 8.7666546, 47.5468196 ], [ 8.7665545, 47.5467422 ], [ 8.766498, 47.5466827 ], [ 8.7663762, 47.5465256 ], [ 8.7663256, 47.5464672 ], [ 8.7662548, 47.5463975 ], [ 8.7661757, 47.5463319 ], [ 8.7657761, 47.5460313 ], [ 8.7654492, 47.545826 ], [ 8.7650705, 47.5455516 ], [ 8.7650437, 47.5455408 ], [ 8.7650152, 47.5455391 ], [ 8.7649882, 47.5455457 ], [ 8.7649665, 47.5455607 ], [ 8.7643967, 47.5462901 ], [ 8.7643074, 47.5463867 ], [ 8.7642311, 47.5464517 ], [ 8.76414, 47.5465155 ], [ 8.7636854, 47.5467838 ], [ 8.7636105, 47.5468197 ], [ 8.7635367, 47.546846 ], [ 8.7634586, 47.5468659 ], [ 8.7633774, 47.5468789 ], [ 8.7629498, 47.5469163 ], [ 8.7624286, 47.5469461 ], [ 8.7622517, 47.5469487 ], [ 8.7622807, 47.5469549 ], [ 8.7623027, 47.5469695 ], [ 8.7623123, 47.5469873 ], [ 8.7623096, 47.5470078 ], [ 8.7621931, 47.5471276 ], [ 8.7621307, 47.5471823 ], [ 8.7620589, 47.547233 ], [ 8.7619734, 47.5472812 ], [ 8.7616346, 47.5474304 ], [ 8.7614975, 47.5474548 ], [ 8.7613719, 47.5474425 ], [ 8.7610587, 47.5474351 ], [ 8.760802, 47.5473815 ], [ 8.7602718, 47.5472423 ], [ 8.7595517, 47.5470179 ], [ 8.75953, 47.5470449 ], [ 8.7592222, 47.546905 ], [ 8.7588188, 47.5468191 ], [ 8.7582, 47.5466474 ], [ 8.7577561, 47.5469042 ], [ 8.7574585, 47.5470978 ], [ 8.7572059, 47.5472799 ], [ 8.756745, 47.5476298 ], [ 8.7567065, 47.5476046 ], [ 8.7566004, 47.5476072 ], [ 8.7562812, 47.5474181 ], [ 8.7562354, 47.5473969 ], [ 8.7561886, 47.5473844 ], [ 8.7561389, 47.5473785 ], [ 8.7560939, 47.5473792 ], [ 8.7560448, 47.5473866 ], [ 8.7559948, 47.5474023 ], [ 8.7559514, 47.5474252 ], [ 8.7553154, 47.5478868 ], [ 8.7552173, 47.5479498 ], [ 8.755122, 47.5480027 ], [ 8.7545885, 47.5470791 ], [ 8.7545562, 47.547051 ], [ 8.7544441, 47.5471035 ], [ 8.7543243, 47.5471474 ], [ 8.7537106, 47.5473199 ], [ 8.7535009, 47.5473889 ], [ 8.7534435, 47.5473945 ], [ 8.7533868, 47.5473862 ], [ 8.7533378, 47.547365 ], [ 8.7533028, 47.5473336 ], [ 8.7532202, 47.5472047 ], [ 8.7531772, 47.5471467 ], [ 8.7531542, 47.5470602 ], [ 8.7531716, 47.5469102 ], [ 8.7531918, 47.5467972 ], [ 8.7532205, 47.5467164 ], [ 8.7532505, 47.5466685 ], [ 8.7532893, 47.5466235 ], [ 8.7533362, 47.5465824 ], [ 8.7533904, 47.5465456 ], [ 8.7534448, 47.5465168 ], [ 8.7535104, 47.5464899 ], [ 8.7537676, 47.5464104 ], [ 8.7538224, 47.5463769 ], [ 8.7538602, 47.546334 ], [ 8.7538768, 47.5462921 ], [ 8.7538771, 47.5462486 ], [ 8.7538676, 47.5462192 ], [ 8.753805, 47.546093 ], [ 8.7537571, 47.5459678 ], [ 8.7537394, 47.5458647 ], [ 8.753745, 47.5458405 ], [ 8.7537586, 47.5458203 ], [ 8.7537878, 47.5457982 ], [ 8.7538263, 47.5457842 ], [ 8.7539988, 47.5457694 ], [ 8.7540728, 47.5457554 ], [ 8.7541363, 47.5457384 ], [ 8.7541165, 47.545705 ], [ 8.7540088, 47.5457309 ], [ 8.7539041, 47.5457428 ], [ 8.7537898, 47.5457423 ], [ 8.7536776, 47.5457279 ], [ 8.7536082, 47.5457115 ], [ 8.7535421, 47.5456898 ], [ 8.7532792, 47.5455779 ], [ 8.7534935, 47.544723 ], [ 8.7528425, 47.5443859 ], [ 8.7527343, 47.5442557 ], [ 8.7522979, 47.5438674 ], [ 8.7517341, 47.5435007 ], [ 8.7513592, 47.5428924 ], [ 8.75131, 47.5425785 ], [ 8.751353, 47.5424271 ], [ 8.7524778, 47.5420305 ], [ 8.7523676, 47.541556 ], [ 8.752096, 47.5415938 ], [ 8.7521125, 47.5415102 ], [ 8.7521872, 47.5410126 ], [ 8.7521015, 47.5407324 ], [ 8.7519889, 47.5404391 ], [ 8.7519859, 47.5402921 ], [ 8.7519103, 47.5396367 ], [ 8.7519071, 47.5394943 ], [ 8.751842, 47.5393625 ], [ 8.7517462, 47.5393133 ], [ 8.751592, 47.5392543 ], [ 8.751367, 47.5391392 ], [ 8.7512301, 47.5390901 ], [ 8.7507524, 47.5389755 ], [ 8.7504203, 47.5391012 ], [ 8.7499903, 47.5392543 ], [ 8.7496652, 47.5393144 ], [ 8.749634, 47.5393165 ], [ 8.7494641, 47.5389228 ], [ 8.7497855, 47.5388907 ], [ 8.7498618, 47.5388782 ], [ 8.7499275, 47.5388625 ], [ 8.7500139, 47.5388343 ], [ 8.7500872, 47.5388024 ], [ 8.7501608, 47.5387609 ], [ 8.750226, 47.5387134 ], [ 8.7502906, 47.5386505 ], [ 8.7503436, 47.5385763 ], [ 8.7505836, 47.5380775 ], [ 8.7506936, 47.5378923 ], [ 8.7506448, 47.5378775 ], [ 8.7504645, 47.5379297 ], [ 8.7499816, 47.5378168 ], [ 8.7497864, 47.537784 ], [ 8.7496618, 47.5377723 ], [ 8.7487296, 47.5377152 ], [ 8.7489273, 47.5367707 ], [ 8.7486585, 47.536618 ], [ 8.7482918, 47.5364293 ], [ 8.7479729, 47.5364744 ], [ 8.7476163, 47.5365197 ], [ 8.7471946, 47.5365835 ], [ 8.7470434, 47.53639 ], [ 8.7467731, 47.5363951 ], [ 8.7464083, 47.5363624 ], [ 8.746346, 47.5360445 ], [ 8.7462123, 47.5357591 ], [ 8.7461661, 47.5355155 ], [ 8.7461672, 47.5352721 ], [ 8.7462008, 47.5352538 ], [ 8.7461296, 47.5348741 ], [ 8.7461945, 47.5348509 ], [ 8.7462302, 47.5348223 ], [ 8.7462134, 47.5347274 ], [ 8.7461781, 47.5346297 ], [ 8.7460747, 47.5344287 ], [ 8.746028, 47.5343261 ], [ 8.7459101, 47.5339848 ], [ 8.7458518, 47.5338501 ], [ 8.7457589, 47.5336888 ], [ 8.7455709, 47.5334251 ], [ 8.745568, 47.5333984 ], [ 8.7455782, 47.5333751 ], [ 8.7455994, 47.5333552 ], [ 8.7456322, 47.5333406 ], [ 8.7455985, 47.5332676 ], [ 8.7454236, 47.5333146 ], [ 8.745269, 47.5330504 ], [ 8.7451195, 47.5331015 ], [ 8.7448845, 47.5331719 ], [ 8.7448053, 47.533094 ], [ 8.7446479, 47.5328572 ], [ 8.7448163, 47.5327839 ], [ 8.7443945, 47.5319063 ], [ 8.744372, 47.5318838 ], [ 8.7443417, 47.5318726 ], [ 8.7443072, 47.531871 ], [ 8.7435327, 47.5319747 ], [ 8.7433679, 47.5319922 ], [ 8.7432205, 47.5320034 ], [ 8.7430356, 47.5320116 ], [ 8.742869, 47.5320133 ], [ 8.7426839, 47.5320091 ], [ 8.7424994, 47.5319984 ], [ 8.7425027, 47.5318406 ], [ 8.7422513, 47.5318211 ], [ 8.7422042, 47.5318037 ], [ 8.7421712, 47.5317751 ], [ 8.741758, 47.5311566 ], [ 8.7417152, 47.5311076 ], [ 8.7416536, 47.531056 ], [ 8.7416354, 47.53103 ], [ 8.7416289, 47.5310068 ], [ 8.7416303, 47.5309832 ], [ 8.7416828, 47.5308537 ], [ 8.7416913, 47.5307903 ], [ 8.7416758, 47.5307233 ], [ 8.741617, 47.5306182 ], [ 8.7415792, 47.5305614 ], [ 8.7415355, 47.5305084 ], [ 8.7414128, 47.5303814 ], [ 8.7413114, 47.5302938 ], [ 8.7410543, 47.5300925 ], [ 8.7410434, 47.5300751 ], [ 8.741042, 47.5300562 ], [ 8.7410504, 47.5300381 ], [ 8.7410675, 47.5300231 ], [ 8.740996, 47.5300155 ], [ 8.7409778, 47.5300258 ], [ 8.7409529, 47.5300314 ], [ 8.7409292, 47.5300305 ], [ 8.7409075, 47.530024 ], [ 8.7394412, 47.5292485 ], [ 8.7393883, 47.5292243 ], [ 8.7393313, 47.5292047 ], [ 8.7392299, 47.529183 ], [ 8.7391159, 47.5291752 ], [ 8.7389956, 47.5291793 ], [ 8.7388683, 47.5291969 ], [ 8.7367812, 47.5296931 ], [ 8.7370568, 47.5273206 ], [ 8.736864, 47.5272624 ], [ 8.7366281, 47.5272062 ], [ 8.7362337, 47.5271238 ], [ 8.7360115, 47.5270897 ], [ 8.735972, 47.5270871 ], [ 8.7359369, 47.5270894 ], [ 8.7358989, 47.5270972 ], [ 8.7358641, 47.5271101 ], [ 8.735837, 47.5271254 ], [ 8.7360101, 47.5256794 ], [ 8.736103, 47.5256156 ], [ 8.7361015, 47.5255796 ], [ 8.7367007, 47.5255652 ], [ 8.7367481, 47.5248107 ], [ 8.7367601, 47.5247756 ], [ 8.7369375, 47.524796 ], [ 8.7367591, 47.5236375 ], [ 8.7361728, 47.5237399 ], [ 8.7361609, 47.5237049 ], [ 8.7360279, 47.5237194 ], [ 8.7358932, 47.5237222 ], [ 8.7357593, 47.5237132 ], [ 8.7356333, 47.5236937 ], [ 8.7363209, 47.5233768 ], [ 8.736501, 47.5232874 ], [ 8.7369188, 47.5230423 ], [ 8.7370122, 47.5229281 ], [ 8.7371248, 47.5227483 ], [ 8.7370524, 47.5225785 ], [ 8.7370187, 47.5224786 ], [ 8.7366542, 47.5224957 ], [ 8.7363112, 47.5224883 ], [ 8.7359934, 47.5224311 ], [ 8.7355786, 47.522363 ], [ 8.7350939, 47.5223521 ], [ 8.7348942, 47.5223636 ], [ 8.7346886, 47.5223486 ], [ 8.734482, 47.5222369 ], [ 8.7342385, 47.5220271 ], [ 8.7340567, 47.5222655 ], [ 8.7337621, 47.522446 ], [ 8.7333738, 47.522559 ], [ 8.7330262, 47.5222782 ], [ 8.732653, 47.5220058 ], [ 8.7325401, 47.5219789 ], [ 8.7323957, 47.5219916 ], [ 8.7320388, 47.5221475 ], [ 8.7318206, 47.5221705 ], [ 8.7316073, 47.5221615 ], [ 8.7312228, 47.5220422 ], [ 8.7310667, 47.5219436 ], [ 8.7306636, 47.5216553 ], [ 8.7308055, 47.521485 ], [ 8.7309927, 47.5213694 ], [ 8.7310654, 47.5212474 ], [ 8.7310801, 47.5209743 ], [ 8.7309286, 47.5205399 ], [ 8.7308659, 47.5204551 ], [ 8.7307601, 47.5204307 ], [ 8.7304417, 47.5204482 ], [ 8.7299702, 47.5205324 ], [ 8.7295122, 47.5206767 ], [ 8.729225, 47.5208199 ], [ 8.7291226, 47.5209163 ], [ 8.7289313, 47.5212286 ], [ 8.728468, 47.5214223 ], [ 8.7278022, 47.5215135 ], [ 8.727551, 47.5216324 ], [ 8.7270735, 47.5217439 ], [ 8.7265265, 47.5219197 ], [ 8.7260697, 47.521914 ], [ 8.7254308, 47.521841 ], [ 8.7250371, 47.5218565 ], [ 8.7247269, 47.5218459 ], [ 8.7244635, 47.5218483 ], [ 8.7246164, 47.5220052 ], [ 8.7239247, 47.5220853 ], [ 8.723295, 47.5221782 ], [ 8.7230287, 47.5223208 ], [ 8.7227853, 47.5224183 ], [ 8.7226223, 47.522503 ], [ 8.7222924, 47.522643 ], [ 8.7219579, 47.5228059 ], [ 8.7215774, 47.5228722 ], [ 8.7209509, 47.5229013 ], [ 8.7201529, 47.5230376 ], [ 8.7199747, 47.5230431 ], [ 8.7197845, 47.5232547 ], [ 8.7197503, 47.5231967 ], [ 8.71935, 47.5231155 ], [ 8.7193181, 47.5230568 ], [ 8.7189232, 47.52297 ], [ 8.7187199, 47.5229355 ], [ 8.7182769, 47.5228842 ], [ 8.7178345, 47.5228482 ], [ 8.7170493, 47.5228206 ], [ 8.7165096, 47.52282 ], [ 8.7162624, 47.5228436 ], [ 8.7162222, 47.5229061 ], [ 8.7158672, 47.5229568 ], [ 8.7155843, 47.5229724 ], [ 8.7155091, 47.5229598 ], [ 8.7144344, 47.5231638 ], [ 8.7132078, 47.5234581 ], [ 8.7130272, 47.5233879 ], [ 8.7127541, 47.5235179 ], [ 8.7121745, 47.523739 ], [ 8.711398, 47.5240634 ], [ 8.7110599, 47.5241904 ], [ 8.7107199, 47.5243037 ], [ 8.710783, 47.5242704 ], [ 8.7108328, 47.524234 ], [ 8.7108725, 47.5241929 ], [ 8.7109044, 47.5241438 ], [ 8.7111129, 47.5235189 ], [ 8.7110609, 47.5235109 ], [ 8.7108464, 47.5235197 ], [ 8.7104727, 47.5234815 ], [ 8.709866, 47.5236065 ], [ 8.7093098, 47.5237332 ], [ 8.7089676, 47.5238049 ], [ 8.7084432, 47.5239223 ], [ 8.7082013, 47.5239924 ], [ 8.7077463, 47.5240966 ], [ 8.7074719, 47.5241376 ], [ 8.7072065, 47.5241609 ], [ 8.7069362, 47.5242137 ], [ 8.706574, 47.5241819 ], [ 8.7062097, 47.5241388 ], [ 8.7057033, 47.5239988 ], [ 8.7055346, 47.5239058 ], [ 8.7055056, 47.5239953 ], [ 8.7047701, 47.5235484 ], [ 8.7043652, 47.5232978 ], [ 8.7033735, 47.5226099 ], [ 8.7032779, 47.5225192 ], [ 8.7029808, 47.5221801 ], [ 8.7025162, 47.5217497 ], [ 8.7022788, 47.5215877 ], [ 8.7016411, 47.5221291 ], [ 8.7015505, 47.5220724 ], [ 8.7015175, 47.5220946 ], [ 8.701138, 47.5218227 ], [ 8.7009899, 47.5217355 ], [ 8.7000547, 47.5222207 ], [ 8.6995103, 47.523098 ], [ 8.699795, 47.5234126 ], [ 8.6998605, 47.5235104 ], [ 8.699818, 47.5235313 ], [ 8.6997772, 47.5234975 ], [ 8.6997256, 47.5234629 ], [ 8.699621, 47.523412 ], [ 8.6995035, 47.5233761 ], [ 8.6993778, 47.5233568 ], [ 8.6993135, 47.5233535 ], [ 8.699241, 47.5233552 ], [ 8.6986436, 47.5234032 ], [ 8.698372, 47.5253603 ], [ 8.6983535, 47.5253915 ], [ 8.6985698, 47.525461 ], [ 8.6987586, 47.5255326 ], [ 8.6988591, 47.5255638 ], [ 8.6995055, 47.5256812 ], [ 8.6999488, 47.5257669 ], [ 8.7000897, 47.5258089 ], [ 8.700366, 47.5258606 ], [ 8.7009372, 47.5259944 ], [ 8.7009919, 47.5260163 ], [ 8.7010105, 47.526034 ], [ 8.70102, 47.5260525 ], [ 8.7010177, 47.5260869 ], [ 8.7008083, 47.5265463 ], [ 8.7001478, 47.5279644 ], [ 8.6996876, 47.5286134 ], [ 8.7004989, 47.5291957 ], [ 8.6999669, 47.52954 ], [ 8.6997046, 47.5298925 ], [ 8.7003906, 47.5301191 ], [ 8.7009974, 47.530356 ], [ 8.7013173, 47.5305115 ], [ 8.7020784, 47.5309339 ], [ 8.7014539, 47.5324388 ], [ 8.7013831, 47.5325723 ], [ 8.7013263, 47.5326523 ], [ 8.7012607, 47.532729 ], [ 8.7011862, 47.5328019 ], [ 8.7011035, 47.5328708 ], [ 8.7010131, 47.532935 ], [ 8.7009256, 47.5329885 ], [ 8.700822, 47.5330429 ], [ 8.7007125, 47.5330915 ], [ 8.699528, 47.5329627 ], [ 8.6993651, 47.5329479 ], [ 8.6991605, 47.5329358 ], [ 8.6983847, 47.5329134 ], [ 8.6983516, 47.5329037 ], [ 8.6983295, 47.5328867 ], [ 8.6982796, 47.5328991 ], [ 8.6982455, 47.5328496 ], [ 8.6981143, 47.5327975 ], [ 8.6981223, 47.5329381 ], [ 8.6980555, 47.5329533 ], [ 8.6979892, 47.532955 ], [ 8.6979049, 47.5329406 ], [ 8.6978581, 47.5329351 ], [ 8.6978535, 47.5328378 ], [ 8.6975447, 47.5328407 ], [ 8.6972362, 47.5328505 ], [ 8.6969283, 47.5328671 ], [ 8.6966214, 47.5328906 ], [ 8.6953463, 47.5329914 ], [ 8.6938016, 47.5331138 ], [ 8.6937914, 47.5330793 ], [ 8.6937655, 47.5330489 ], [ 8.6937263, 47.5330257 ], [ 8.6936784, 47.5330123 ], [ 8.6936397, 47.533001 ], [ 8.6936105, 47.5329804 ], [ 8.6935954, 47.5329538 ], [ 8.6935967, 47.5329253 ], [ 8.6936459, 47.5327879 ], [ 8.6936974, 47.5326511 ], [ 8.6937513, 47.5325146 ], [ 8.6937967, 47.5324044 ], [ 8.6938435, 47.5322944 ], [ 8.693892, 47.5321848 ], [ 8.6939147, 47.532141 ], [ 8.6939377, 47.5320972 ], [ 8.6939609, 47.5320535 ], [ 8.693776, 47.532068 ], [ 8.6937319, 47.5320581 ], [ 8.6932991, 47.5321898 ], [ 8.6923779, 47.5322091 ], [ 8.6913736, 47.5320293 ], [ 8.6911001, 47.5319804 ], [ 8.6898928, 47.5317646 ], [ 8.6897129, 47.5317327 ], [ 8.6896696, 47.5317503 ], [ 8.6896583, 47.5317548 ], [ 8.6895623, 47.5317407 ], [ 8.6895905, 47.5316508 ], [ 8.6895119, 47.5316568 ], [ 8.6893958, 47.5316378 ], [ 8.6892789, 47.5316222 ], [ 8.6891608, 47.53161 ], [ 8.6890423, 47.5316012 ], [ 8.6875927, 47.5315152 ], [ 8.6879879, 47.5309028 ], [ 8.6882274, 47.5305342 ], [ 8.6885156, 47.5300225 ], [ 8.6880289, 47.5299504 ], [ 8.6875181, 47.5298269 ], [ 8.6874064, 47.5298001 ], [ 8.6878532, 47.5288921 ], [ 8.687248, 47.5287428 ], [ 8.6868715, 47.5286814 ], [ 8.6868607, 47.5286463 ], [ 8.6869032, 47.5286264 ], [ 8.6870211, 47.5278245 ], [ 8.6870282, 47.5275939 ], [ 8.6862995, 47.5276514 ], [ 8.6861399, 47.5273841 ], [ 8.686006, 47.5274208 ], [ 8.6857412, 47.5273106 ], [ 8.6855438, 47.5270826 ], [ 8.6851911, 47.5266767 ], [ 8.6846142, 47.5261975 ], [ 8.6838853, 47.5256731 ], [ 8.6837703, 47.5257821 ], [ 8.6837075, 47.525748 ], [ 8.6831333, 47.5254398 ], [ 8.6825343, 47.5251125 ], [ 8.6825029, 47.5250961 ], [ 8.6828977, 47.5244233 ], [ 8.6828914, 47.52441 ], [ 8.6828868, 47.5243963 ], [ 8.6828841, 47.5243825 ], [ 8.6828097, 47.5236973 ], [ 8.6827911, 47.5236201 ], [ 8.6827447, 47.5234568 ], [ 8.6826917, 47.5234357 ], [ 8.6821839, 47.5235488 ], [ 8.6817354, 47.5236526 ], [ 8.6816958, 47.5235724 ], [ 8.681613, 47.5232043 ], [ 8.6814901, 47.522989 ], [ 8.6814163, 47.5229187 ], [ 8.6813707, 47.5228752 ], [ 8.681341, 47.5228922 ], [ 8.6813126, 47.5229101 ], [ 8.6812856, 47.5229288 ], [ 8.6812599, 47.5229486 ], [ 8.6810549, 47.5231386 ], [ 8.680954, 47.5232061 ], [ 8.6806763, 47.5233431 ], [ 8.680534, 47.5231232 ], [ 8.6802012, 47.5226157 ], [ 8.6798297, 47.5220559 ], [ 8.6794796, 47.5215483 ], [ 8.6790777, 47.5209646 ], [ 8.6792116, 47.5208357 ], [ 8.6792636, 47.5207935 ], [ 8.6793209, 47.5207545 ], [ 8.6793831, 47.5207193 ], [ 8.6794498, 47.520688 ], [ 8.6795153, 47.5206615 ], [ 8.6795839, 47.520639 ], [ 8.679655, 47.5206204 ], [ 8.6797282, 47.520606 ], [ 8.6798348, 47.5206046 ], [ 8.6798272, 47.5205563 ], [ 8.6795745, 47.5205112 ], [ 8.6793282, 47.5204437 ], [ 8.6791392, 47.5203237 ], [ 8.6789618, 47.5199961 ], [ 8.6786863, 47.5195689 ], [ 8.6786099, 47.5193646 ], [ 8.6784958, 47.5194181 ], [ 8.6779508, 47.5187566 ], [ 8.677927, 47.5187348 ], [ 8.6780169, 47.518685 ], [ 8.6776387, 47.5184114 ], [ 8.6775503, 47.5183179 ], [ 8.6774813, 47.5182443 ], [ 8.6774571, 47.5182193 ], [ 8.6771037, 47.5178468 ], [ 8.677039, 47.5178949 ], [ 8.6769729, 47.5179422 ], [ 8.6769054, 47.5179885 ], [ 8.6768335, 47.5180353 ], [ 8.6767603, 47.518081 ], [ 8.6766856, 47.5181257 ], [ 8.6766097, 47.5181694 ], [ 8.6764831, 47.5182347 ], [ 8.67635, 47.5182938 ], [ 8.676211, 47.5183464 ], [ 8.6760669, 47.5183922 ], [ 8.6760056, 47.5184095 ], [ 8.6759436, 47.5184256 ], [ 8.6758808, 47.5184404 ], [ 8.6757867, 47.5184622 ], [ 8.6756917, 47.5184824 ], [ 8.6755961, 47.5185011 ], [ 8.6754998, 47.5185182 ], [ 8.6754034, 47.5185354 ], [ 8.6753076, 47.5185541 ], [ 8.6752124, 47.5185744 ], [ 8.675118, 47.5185961 ], [ 8.6751136, 47.5184263 ], [ 8.6751121, 47.5184021 ], [ 8.6751045, 47.51833 ], [ 8.6752828, 47.5179694 ], [ 8.6748926, 47.5179035 ], [ 8.6745781, 47.5178971 ], [ 8.6742762, 47.5179076 ], [ 8.6739656, 47.5178284 ], [ 8.6736706, 47.5177586 ], [ 8.6733539, 47.5177719 ], [ 8.6729918, 47.517719 ], [ 8.6724333, 47.5176308 ], [ 8.6722353, 47.5175599 ], [ 8.6721316, 47.5175213 ], [ 8.6721001, 47.5175137 ], [ 8.671853, 47.5174445 ], [ 8.6715734, 47.5173407 ], [ 8.671208, 47.5171786 ], [ 8.6706485, 47.5169367 ], [ 8.6700908, 47.5166927 ], [ 8.6700606, 47.5167302 ], [ 8.6694729, 47.5164955 ], [ 8.6686738, 47.5161755 ], [ 8.6685107, 47.5161149 ], [ 8.66828, 47.5160329 ], [ 8.6682965, 47.5160184 ], [ 8.6679593, 47.5158972 ], [ 8.666787, 47.5158075 ], [ 8.6665729, 47.5158056 ], [ 8.6662944, 47.5158113 ], [ 8.6653008, 47.5158712 ], [ 8.6645114, 47.5159273 ], [ 8.6645071, 47.515914 ], [ 8.6635873, 47.5159784 ], [ 8.6629622, 47.5160633 ], [ 8.6625652, 47.5161003 ], [ 8.6621983, 47.5161411 ], [ 8.6615391, 47.5161997 ], [ 8.6611418, 47.5162355 ], [ 8.6610051, 47.5150706 ], [ 8.6598061, 47.5151823 ], [ 8.6595433, 47.5152006 ], [ 8.6592872, 47.5152373 ], [ 8.6589334, 47.5153158 ], [ 8.6589186, 47.515286 ], [ 8.6590414, 47.5152135 ], [ 8.6591596, 47.5151328 ], [ 8.6592123, 47.5150379 ], [ 8.659198, 47.5149228 ], [ 8.6591769, 47.5149087 ], [ 8.6591696, 47.5148629 ], [ 8.6586607, 47.5134929 ], [ 8.6586553, 47.5134607 ], [ 8.6585433, 47.5134485 ], [ 8.6585657, 47.5133042 ], [ 8.6585307, 47.513137 ], [ 8.6583228, 47.5126525 ], [ 8.6582395, 47.5123979 ], [ 8.6584096, 47.5120889 ], [ 8.6584561, 47.5119745 ], [ 8.6581473, 47.5115156 ], [ 8.6577591, 47.5109533 ], [ 8.6576894, 47.5109649 ], [ 8.6574114, 47.5101662 ], [ 8.6574397, 47.5097381 ], [ 8.6572943, 47.5097094 ], [ 8.6573125, 47.5096485 ], [ 8.6573049, 47.5095635 ], [ 8.6572432, 47.5094264 ], [ 8.6571716, 47.5093707 ], [ 8.6570835, 47.5093236 ], [ 8.6568859, 47.5092393 ], [ 8.656832, 47.509208 ], [ 8.6567896, 47.5091756 ], [ 8.6567574, 47.5091437 ], [ 8.6567307, 47.5091094 ], [ 8.6567079, 47.5090685 ], [ 8.6566548, 47.5090759 ], [ 8.6566078, 47.5085845 ] ] ] } }
]
}
