{
"type": "FeatureCollection",
"name": "zaanstad_nl",
"crs": { "type": "name", "properties": { "name": "urn:ogc:def:crs:OGC:1.3:CRS84" } },
"features": [
{ "type": "Feature", "properties": { "bbox_west": 4.6748481, "bbox_south": 52.4166622, "bbox_east": 4.8628051, "bbox_north": 52.5212536, "place_id": 154815689, "osm_type": "relation", "osm_id": 337720, "lat": 52.4689235, "lon": 4.7737835, "class": "boundary", "type": "administrative", "place_rank": 14, "importance": 0.51453992450090003, "addresstype": "municipality", "name": "Zaanstad", "display_name": "Zaanstad, North Holland, Netherlands" }, "geometry": { "type": "Polygon", "coordinates": [ [ [ 4.6748481, 52.4555204 ], [ 4.6773984, 52.454135 ], [ 4.6804878, 52.4524566 ], [ 4.6810896, 52.4521314 ], [ 4.6856063, 52.44969 ], [ 4.6875545, 52.4486369 ], [ 4.6899654, 52.4473293 ], [ 4.6908138, 52.4468769 ], [ 4.691519, 52.4465009 ], [ 4.6938744, 52.4452448 ], [ 4.6959253, 52.4441511 ], [ 4.6964151, 52.4438899 ], [ 4.7004833, 52.4416863 ], [ 4.7021315, 52.440799 ], [ 4.7045526, 52.4394956 ], [ 4.7060583, 52.438678 ], [ 4.7062833, 52.4385565 ], [ 4.7078445, 52.437714 ], [ 4.7086864, 52.4372751 ], [ 4.7094026, 52.4369181 ], [ 4.7099688, 52.4366452 ], [ 4.710613, 52.4363539 ], [ 4.7107538, 52.4362902 ], [ 4.7109658, 52.4361943 ], [ 4.7114461, 52.4359891 ], [ 4.7119563, 52.4357972 ], [ 4.7125065, 52.4356057 ], [ 4.71349, 52.4352862 ], [ 4.7144641, 52.4350009 ], [ 4.7150703, 52.434825 ], [ 4.7155612, 52.4346937 ], [ 4.7163304, 52.4344954 ], [ 4.717174, 52.434279 ], [ 4.7174329, 52.4342094 ], [ 4.7178112, 52.4341296 ], [ 4.7183034, 52.4340208 ], [ 4.7191934, 52.4338349 ], [ 4.7197945, 52.4337253 ], [ 4.7218629, 52.4333567 ], [ 4.7219832, 52.4333362 ], [ 4.7227331, 52.4332235 ], [ 4.7249423, 52.4329341 ], [ 4.7392082, 52.4310638 ], [ 4.7393941, 52.4310394 ], [ 4.7402436, 52.430928 ], [ 4.741078, 52.4308185 ], [ 4.7472413, 52.4300099 ], [ 4.7486562, 52.4298242 ], [ 4.7502214, 52.4296187 ], [ 4.7511973, 52.4294952 ], [ 4.7532052, 52.4292409 ], [ 4.7542383, 52.4291101 ], [ 4.7549748, 52.4290168 ], [ 4.7612349, 52.4282238 ], [ 4.7647562, 52.4277776 ], [ 4.7656253, 52.4276675 ], [ 4.7665604, 52.4275489 ], [ 4.7671837, 52.4274681 ], [ 4.7672552, 52.427676 ], [ 4.7675379, 52.4284981 ], [ 4.7682163, 52.4284113 ], [ 4.7696892, 52.4282228 ], [ 4.7698692, 52.4281998 ], [ 4.7705887, 52.4281077 ], [ 4.7724596, 52.4278682 ], [ 4.7736634, 52.4277093 ], [ 4.7752127, 52.4275048 ], [ 4.781854, 52.426628 ], [ 4.7822092, 52.4265811 ], [ 4.7834418, 52.4264183 ], [ 4.7843469, 52.4263026 ], [ 4.7844184, 52.4262934 ], [ 4.7856416, 52.426137 ], [ 4.7883458, 52.4257881 ], [ 4.7888862, 52.4257184 ], [ 4.789205, 52.4256774 ], [ 4.7921119, 52.4253037 ], [ 4.7952328, 52.4249104 ], [ 4.7962004, 52.4247858 ], [ 4.7983722, 52.4245062 ], [ 4.7991458, 52.4244066 ], [ 4.8018794, 52.4240548 ], [ 4.8031956, 52.4238877 ], [ 4.8045452, 52.4237162 ], [ 4.8066674, 52.4234489 ], [ 4.8070035, 52.4234034 ], [ 4.8071521, 52.4233842 ], [ 4.8099396, 52.4230242 ], [ 4.8101679, 52.4229947 ], [ 4.8101905, 52.4229918 ], [ 4.8126239, 52.4226758 ], [ 4.8138679, 52.4225143 ], [ 4.813872, 52.4225137 ], [ 4.8153371, 52.4223243 ], [ 4.8157299, 52.4222736 ], [ 4.8507756, 52.4175768 ], [ 4.8514485, 52.4174337 ], [ 4.8515676, 52.4174141 ], [ 4.8521575, 52.417316 ], [ 4.8548551, 52.4168673 ], [ 4.8554733, 52.4167645 ], [ 4.8559492, 52.4166838 ], [ 4.8560781, 52.4166622 ], [ 4.8567591, 52.4172836 ], [ 4.8568546, 52.417371 ], [ 4.8580238, 52.4184409 ], [ 4.8582105, 52.4186118 ], [ 4.85877, 52.4191235 ], [ 4.858779, 52.4191318 ], [ 4.8590989, 52.4194267 ], [ 4.8591143, 52.4194408 ], [ 4.8593738, 52.4196784 ], [ 4.8594701, 52.4197671 ], [ 4.859556, 52.4198596 ], [ 4.8596311, 52.4199556 ], [ 4.8597517, 52.420176 ], [ 4.8597837, 52.4202597 ], [ 4.8598303, 52.4203818 ], [ 4.859867, 52.4205148 ], [ 4.8598843, 52.4206494 ], [ 4.8598819, 52.4207843 ], [ 4.8598542, 52.4209905 ], [ 4.8598068, 52.4211275 ], [ 4.8597241, 52.4212797 ], [ 4.8596974, 52.4213218 ], [ 4.8596649, 52.4213711 ], [ 4.8596034, 52.4214501 ], [ 4.8594826, 52.4216112 ], [ 4.8590822, 52.4221312 ], [ 4.8584794, 52.4229139 ], [ 4.8583294, 52.423112 ], [ 4.8582013, 52.4232789 ], [ 4.8580322, 52.4235141 ], [ 4.8579833, 52.4235894 ], [ 4.8579641, 52.423622 ], [ 4.8579618, 52.423626 ], [ 4.8579386, 52.4236654 ], [ 4.8579067, 52.4237292 ], [ 4.8578661, 52.4238293 ], [ 4.8578464, 52.4238978 ], [ 4.8578294, 52.423984 ], [ 4.8578168, 52.4240775 ], [ 4.8578114, 52.4241801 ], [ 4.8578171, 52.4242744 ], [ 4.8578339, 52.4243626 ], [ 4.8578557, 52.4244564 ], [ 4.8578626, 52.4244795 ], [ 4.8578783, 52.4245325 ], [ 4.857899, 52.4245936 ], [ 4.8579239, 52.4246635 ], [ 4.8579476, 52.4247171 ], [ 4.8579487, 52.4247191 ], [ 4.8579862, 52.4247879 ], [ 4.8580198, 52.4248451 ], [ 4.8580469, 52.4248872 ], [ 4.8580806, 52.4249372 ], [ 4.8581107, 52.4249776 ], [ 4.8581456, 52.4250193 ], [ 4.858188, 52.4250656 ], [ 4.8582431, 52.4251224 ], [ 4.8583882, 52.4252539 ], [ 4.8590383, 52.4258191 ], [ 4.8604002, 52.4270032 ], [ 4.8605615, 52.4271434 ], [ 4.8608848, 52.4274313 ], [ 4.8612712, 52.4277636 ], [ 4.8615007, 52.4279589 ], [ 4.8617047, 52.4281325 ], [ 4.8617329, 52.4281565 ], [ 4.8622113, 52.4285622 ], [ 4.8623941, 52.4287182 ], [ 4.8624538, 52.428776 ], [ 4.8625118, 52.4288447 ], [ 4.862562, 52.42892 ], [ 4.86262, 52.4290162 ], [ 4.8626689, 52.4291049 ], [ 4.8627064, 52.4291975 ], [ 4.8627367, 52.429314 ], [ 4.8627448, 52.4293782 ], [ 4.8627444, 52.4294415 ], [ 4.8627328, 52.4295082 ], [ 4.8627022, 52.4295993 ], [ 4.8627585, 52.429612 ], [ 4.8628051, 52.4296226 ], [ 4.8627729, 52.4297034 ], [ 4.8627696, 52.4297115 ], [ 4.8627391, 52.4297859 ], [ 4.8627378, 52.4297889 ], [ 4.8627298, 52.4298086 ], [ 4.8626775, 52.4299413 ], [ 4.8626424, 52.4298369 ], [ 4.8626055, 52.4298287 ], [ 4.8626174, 52.4297919 ], [ 4.8625835, 52.4297853 ], [ 4.8625594, 52.4298196 ], [ 4.8625531, 52.4298168 ], [ 4.8625255, 52.4298159 ], [ 4.8624169, 52.4298216 ], [ 4.8623618, 52.4298487 ], [ 4.862342, 52.4298799 ], [ 4.8623396, 52.4298994 ], [ 4.8622082, 52.4298754 ], [ 4.862056, 52.4298475 ], [ 4.8620479, 52.4298239 ], [ 4.8620344, 52.4297861 ], [ 4.8620235, 52.4297692 ], [ 4.8620179, 52.4297667 ], [ 4.8620145, 52.4297653 ], [ 4.8619977, 52.429759 ], [ 4.8619709, 52.4297517 ], [ 4.8619414, 52.4297437 ], [ 4.8618778, 52.4297307 ], [ 4.8617634, 52.4296838 ], [ 4.861712, 52.4297757 ], [ 4.861442, 52.4302232 ], [ 4.8607386, 52.4312365 ], [ 4.8606572, 52.4313539 ], [ 4.8604676, 52.431627 ], [ 4.860386, 52.4317445 ], [ 4.8596597, 52.4327908 ], [ 4.858817, 52.4340369 ], [ 4.8579594, 52.4352946 ], [ 4.8575722, 52.4358644 ], [ 4.8575124, 52.4359361 ], [ 4.8574702, 52.4359868 ], [ 4.8569421, 52.4366548 ], [ 4.8561819, 52.4377972 ], [ 4.8559139, 52.4380694 ], [ 4.855568, 52.43861 ], [ 4.8552487, 52.4392269 ], [ 4.8542615, 52.4409548 ], [ 4.8538786, 52.4417968 ], [ 4.8535722, 52.4422743 ], [ 4.8532589, 52.4426247 ], [ 4.8530074, 52.442891 ], [ 4.8507536, 52.4448996 ], [ 4.848309, 52.4471668 ], [ 4.8482684, 52.4472045 ], [ 4.8481954, 52.4472958 ], [ 4.8479138, 52.4476391 ], [ 4.8478536, 52.4476924 ], [ 4.8475552, 52.4479556 ], [ 4.8466314, 52.4488308 ], [ 4.8465281, 52.4489282 ], [ 4.846238, 52.4491972 ], [ 4.845839, 52.4495531 ], [ 4.845142, 52.4501762 ], [ 4.8449285, 52.4503659 ], [ 4.8448202, 52.4504625 ], [ 4.8434031, 52.4518793 ], [ 4.842951, 52.4522608 ], [ 4.8431658, 52.4523495 ], [ 4.8431991, 52.4523628 ], [ 4.8434299, 52.4524638 ], [ 4.8437697, 52.4526133 ], [ 4.8451243, 52.4532482 ], [ 4.8450986, 52.4533013 ], [ 4.8448803, 52.4536156 ], [ 4.8447667, 52.4537787 ], [ 4.8447151, 52.4538497 ], [ 4.8445123, 52.4541449 ], [ 4.8444244, 52.4543772 ], [ 4.8443882, 52.4544617 ], [ 4.8443923, 52.4546581 ], [ 4.8444487, 52.4548532 ], [ 4.8445628, 52.4553081 ], [ 4.8446725, 52.4557162 ], [ 4.844775, 52.4560717 ], [ 4.8447918, 52.4561517 ], [ 4.8447969, 52.456172 ], [ 4.8449113, 52.4564484 ], [ 4.8449186, 52.4564628 ], [ 4.8449245, 52.4564817 ], [ 4.845189, 52.4567362 ], [ 4.8452757, 52.4568077 ], [ 4.8453103, 52.4568288 ], [ 4.8454801, 52.4569538 ], [ 4.8457858, 52.4571652 ], [ 4.845827, 52.4571926 ], [ 4.8460534, 52.4573523 ], [ 4.8461276, 52.4574022 ], [ 4.8465643, 52.4577255 ], [ 4.8466642, 52.4578091 ], [ 4.846928, 52.4580277 ], [ 4.8471992, 52.4582574 ], [ 4.8473065, 52.4583537 ], [ 4.8474101, 52.458462 ], [ 4.8476724, 52.4587484 ], [ 4.8478252, 52.4589237 ], [ 4.8480169, 52.4591656 ], [ 4.8481671, 52.4593546 ], [ 4.8482178, 52.4594184 ], [ 4.8482809, 52.4594978 ], [ 4.8483078, 52.4595316 ], [ 4.8485685, 52.4595687 ], [ 4.8485935, 52.4596196 ], [ 4.848606, 52.4596462 ], [ 4.848651, 52.4597418 ], [ 4.848688, 52.4598229 ], [ 4.8487017, 52.4598528 ], [ 4.8487062, 52.4598626 ], [ 4.8487269, 52.4599089 ], [ 4.8488017, 52.4600896 ], [ 4.8489286, 52.4603508 ], [ 4.8490513, 52.4606504 ], [ 4.8491396, 52.4606519 ], [ 4.8491535, 52.4606772 ], [ 4.8492866, 52.4610806 ], [ 4.8493092, 52.4611478 ], [ 4.8494286, 52.4615023 ], [ 4.8494675, 52.4616173 ], [ 4.8495303, 52.4618166 ], [ 4.849557, 52.4618829 ], [ 4.8496888, 52.4622825 ], [ 4.8497305, 52.4623933 ], [ 4.8498657, 52.4627709 ], [ 4.8498852, 52.4628205 ], [ 4.8499846, 52.4631058 ], [ 4.8500334, 52.4632597 ], [ 4.8501264, 52.4634996 ], [ 4.8503387, 52.4640315 ], [ 4.850313, 52.4640612 ], [ 4.8502206, 52.4641997 ], [ 4.8502064, 52.4642232 ], [ 4.8503263, 52.4645258 ], [ 4.850379, 52.464645 ], [ 4.8504691, 52.4648769 ], [ 4.8504954, 52.4649445 ], [ 4.8505175, 52.4649929 ], [ 4.8506209, 52.465254 ], [ 4.8507983, 52.4656931 ], [ 4.8508256, 52.465765 ], [ 4.8511382, 52.4665425 ], [ 4.8511589, 52.4665931 ], [ 4.8512286, 52.4667652 ], [ 4.851104, 52.4668516 ], [ 4.8511842, 52.4670361 ], [ 4.8513846, 52.4675172 ], [ 4.851647, 52.4681821 ], [ 4.8517961, 52.468579 ], [ 4.8521502, 52.4694384 ], [ 4.8523131, 52.4698832 ], [ 4.852505, 52.4703671 ], [ 4.8523279, 52.470388 ], [ 4.8510198, 52.4705101 ], [ 4.8509066, 52.4705035 ], [ 4.8501213, 52.4705813 ], [ 4.849602, 52.4706088 ], [ 4.84648, 52.4707244 ], [ 4.8463524, 52.4707507 ], [ 4.8461805, 52.4707978 ], [ 4.8450895, 52.4711306 ], [ 4.8443766, 52.4713725 ], [ 4.8437462, 52.4716035 ], [ 4.8429543, 52.4718988 ], [ 4.8426659, 52.4719751 ], [ 4.8425556, 52.4720043 ], [ 4.8423836, 52.4721204 ], [ 4.8423292, 52.472162 ], [ 4.8422561, 52.4722127 ], [ 4.8422225, 52.4722433 ], [ 4.8421303, 52.4723258 ], [ 4.8420569, 52.4724028 ], [ 4.8419687, 52.4724994 ], [ 4.8416603, 52.4728708 ], [ 4.8415712, 52.4729794 ], [ 4.8415657, 52.472986 ], [ 4.8415058, 52.4730591 ], [ 4.8414964, 52.4730705 ], [ 4.8414892, 52.4730793 ], [ 4.8414316, 52.4731494 ], [ 4.8414288, 52.4731529 ], [ 4.8413981, 52.4731902 ], [ 4.8413915, 52.4731983 ], [ 4.8413682, 52.4732267 ], [ 4.8409068, 52.4737736 ], [ 4.8405666, 52.4741568 ], [ 4.840225, 52.4745737 ], [ 4.8397591, 52.4750521 ], [ 4.8393734, 52.4753711 ], [ 4.8388224, 52.4757846 ], [ 4.8382057, 52.4762398 ], [ 4.8379641, 52.4765219 ], [ 4.8375466, 52.4770939 ], [ 4.8373369, 52.4774537 ], [ 4.8373344, 52.477458 ], [ 4.8367236, 52.4786754 ], [ 4.8366182, 52.4789029 ], [ 4.8365119, 52.4791567 ], [ 4.8365068, 52.4792344 ], [ 4.8365264, 52.4793072 ], [ 4.8367739, 52.4795803 ], [ 4.8370806, 52.4798604 ], [ 4.8368508, 52.4798835 ], [ 4.8368341, 52.4798851 ], [ 4.8367565, 52.4798929 ], [ 4.8366798, 52.4799006 ], [ 4.8364975, 52.4799189 ], [ 4.8357166, 52.4799974 ], [ 4.8350851, 52.4800609 ], [ 4.8347873, 52.4800908 ], [ 4.8331205, 52.4802792 ], [ 4.8328162, 52.480313 ], [ 4.8325446, 52.480343 ], [ 4.8323755, 52.4803618 ], [ 4.8314918, 52.4804585 ], [ 4.831202, 52.4804902 ], [ 4.8307704, 52.4805381 ], [ 4.8305027, 52.4805678 ], [ 4.8296747, 52.4806621 ], [ 4.8295817, 52.4806727 ], [ 4.8288646, 52.4807543 ], [ 4.8287618, 52.480766 ], [ 4.8278359, 52.4808671 ], [ 4.8277253, 52.4808792 ], [ 4.8271336, 52.4809442 ], [ 4.8264433, 52.4810424 ], [ 4.8255784, 52.4811804 ], [ 4.8244544, 52.4813614 ], [ 4.8230199, 52.4815871 ], [ 4.822861, 52.4816121 ], [ 4.8223715, 52.4816891 ], [ 4.8215209, 52.4818294 ], [ 4.8212598, 52.4818718 ], [ 4.8205663, 52.4819845 ], [ 4.8193555, 52.4821676 ], [ 4.8181604, 52.4823587 ], [ 4.8178069, 52.4824376 ], [ 4.8172546, 52.4825017 ], [ 4.8168455, 52.4825609 ], [ 4.816587, 52.4826122 ], [ 4.81649, 52.482638 ], [ 4.8163785, 52.4826702 ], [ 4.8162203, 52.4827197 ], [ 4.8156379, 52.4828897 ], [ 4.8154003, 52.4829661 ], [ 4.8152191, 52.4830186 ], [ 4.8151439, 52.4830408 ], [ 4.8150399, 52.4830751 ], [ 4.8146671, 52.4831995 ], [ 4.8146595, 52.4832021 ], [ 4.814615, 52.4832169 ], [ 4.8144547, 52.4832919 ], [ 4.8143968, 52.4833189 ], [ 4.8141281, 52.4834485 ], [ 4.8141401, 52.4834571 ], [ 4.8140046, 52.4835278 ], [ 4.8139288, 52.4834969 ], [ 4.8139088, 52.4834924 ], [ 4.8138687, 52.4834659 ], [ 4.8130783, 52.4837295 ], [ 4.8123648, 52.4839676 ], [ 4.8119277, 52.4849446 ], [ 4.8117795, 52.4853746 ], [ 4.8116971, 52.4855656 ], [ 4.8115767, 52.4857368 ], [ 4.8114042, 52.485891 ], [ 4.8111249, 52.4860186 ], [ 4.8109128, 52.4860925 ], [ 4.8105428, 52.4862094 ], [ 4.81011, 52.4863119 ], [ 4.8100841, 52.486318 ], [ 4.8098104, 52.486372 ], [ 4.8094369, 52.4864569 ], [ 4.8085697, 52.4867191 ], [ 4.8043029, 52.4891324 ], [ 4.8041009, 52.4891704 ], [ 4.8038638, 52.4892303 ], [ 4.803558, 52.4893063 ], [ 4.8028995, 52.4894642 ], [ 4.8024736, 52.489575 ], [ 4.8020311, 52.4897414 ], [ 4.8018209, 52.4898051 ], [ 4.8015262, 52.4899051 ], [ 4.8009708, 52.4901438 ], [ 4.8004204, 52.4903945 ], [ 4.799724, 52.4907385 ], [ 4.7996884, 52.4907545 ], [ 4.7993486, 52.4909069 ], [ 4.7990566, 52.4910101 ], [ 4.7988429, 52.4911053 ], [ 4.798741, 52.4911241 ], [ 4.7985715, 52.4911465 ], [ 4.7983757, 52.491174 ], [ 4.7982575, 52.4911859 ], [ 4.7974601, 52.4912666 ], [ 4.7965342, 52.49128 ], [ 4.7962163, 52.491242 ], [ 4.7957089, 52.4911402 ], [ 4.7950151, 52.4910114 ], [ 4.7948805, 52.4909633 ], [ 4.7947505, 52.4909477 ], [ 4.7939516, 52.490866 ], [ 4.7936932, 52.4908763 ], [ 4.7936153, 52.4908853 ], [ 4.7932689, 52.4908896 ], [ 4.7930784, 52.4909036 ], [ 4.7929223, 52.4909291 ], [ 4.792749, 52.4909664 ], [ 4.7926213, 52.4910019 ], [ 4.7924669, 52.4910676 ], [ 4.7923589, 52.4911316 ], [ 4.7921997, 52.4912421 ], [ 4.7920768, 52.4913348 ], [ 4.7920171, 52.4913953 ], [ 4.7919385, 52.4914757 ], [ 4.7918436, 52.4915716 ], [ 4.7917603, 52.4916677 ], [ 4.7917119, 52.4917446 ], [ 4.7916473, 52.4918462 ], [ 4.7916042, 52.4919658 ], [ 4.791587, 52.4920442 ], [ 4.7915891, 52.4921446 ], [ 4.7916096, 52.4922213 ], [ 4.7916514, 52.4923067 ], [ 4.7917622, 52.4924296 ], [ 4.7919585, 52.492627 ], [ 4.792372, 52.4930293 ], [ 4.7927536, 52.4933962 ], [ 4.7930787, 52.4936954 ], [ 4.7933357, 52.4939327 ], [ 4.793518, 52.4941082 ], [ 4.7937348, 52.4943388 ], [ 4.7939773, 52.494598 ], [ 4.7941908, 52.4948249 ], [ 4.7943456, 52.4949905 ], [ 4.7945177, 52.4951705 ], [ 4.7945636, 52.4952228 ], [ 4.7945746, 52.4952352 ], [ 4.7946823, 52.4953795 ], [ 4.7947626, 52.4955103 ], [ 4.794888, 52.4957207 ], [ 4.7949607, 52.4958656 ], [ 4.7950332, 52.4960312 ], [ 4.7950777, 52.4962183 ], [ 4.7951029, 52.4964122 ], [ 4.7950992, 52.4965769 ], [ 4.7950508, 52.4968428 ], [ 4.7950095, 52.4970516 ], [ 4.7949473, 52.4973073 ], [ 4.7948787, 52.4975887 ], [ 4.7948094, 52.4978765 ], [ 4.7947499, 52.4981749 ], [ 4.7947071, 52.4984195 ], [ 4.7946894, 52.4985766 ], [ 4.7946617, 52.4988303 ], [ 4.7946486, 52.4990405 ], [ 4.794638, 52.4992208 ], [ 4.7946383, 52.4994869 ], [ 4.7946424, 52.4997158 ], [ 4.7946424, 52.4997169 ], [ 4.7946252, 52.5002615 ], [ 4.7946241, 52.5004548 ], [ 4.794616, 52.5006305 ], [ 4.7945951, 52.5007813 ], [ 4.7945725, 52.5009912 ], [ 4.7945549, 52.501144 ], [ 4.7945375, 52.501334 ], [ 4.7945247, 52.501455 ], [ 4.794521, 52.5016952 ], [ 4.7945202, 52.5020234 ], [ 4.7945188, 52.5022164 ], [ 4.7945225, 52.5023385 ], [ 4.7945291, 52.5024049 ], [ 4.7945364, 52.502472 ], [ 4.7945325, 52.5025637 ], [ 4.7945308, 52.502629 ], [ 4.7945064, 52.5026854 ], [ 4.7944681, 52.5027488 ], [ 4.7944337, 52.502814 ], [ 4.7943215, 52.5029495 ], [ 4.7942495, 52.5030331 ], [ 4.7940387, 52.5032465 ], [ 4.7938999, 52.5033852 ], [ 4.793841, 52.5034623 ], [ 4.7937032, 52.5036455 ], [ 4.7936241, 52.5037844 ], [ 4.7935462, 52.5039332 ], [ 4.7934804, 52.5040956 ], [ 4.7934545, 52.5042047 ], [ 4.7934435, 52.5042506 ], [ 4.7934267, 52.5043754 ], [ 4.7934122, 52.5045729 ], [ 4.7934156, 52.5047347 ], [ 4.7934177, 52.5048425 ], [ 4.7935154, 52.5053095 ], [ 4.7935194, 52.5057094 ], [ 4.7935697, 52.5060087 ], [ 4.7935438, 52.5061657 ], [ 4.7935901, 52.5064785 ], [ 4.7935579, 52.506637 ], [ 4.7933457, 52.5070042 ], [ 4.792607, 52.5076098 ], [ 4.7925395, 52.5076644 ], [ 4.7924701, 52.507722 ], [ 4.7919219, 52.5080652 ], [ 4.7916463, 52.5082281 ], [ 4.7914367, 52.5083498 ], [ 4.7909758, 52.508631 ], [ 4.7909284, 52.5086579 ], [ 4.7908806, 52.5086856 ], [ 4.7904056, 52.508961 ], [ 4.7897515, 52.5094262 ], [ 4.7894349, 52.509769 ], [ 4.7891714, 52.5101637 ], [ 4.7888174, 52.5109644 ], [ 4.7887686, 52.5110706 ], [ 4.7887085, 52.5112415 ], [ 4.7887042, 52.5113628 ], [ 4.7886997, 52.5114664 ], [ 4.7886929, 52.5122338 ], [ 4.7887107, 52.5129657 ], [ 4.7887118, 52.5131684 ], [ 4.7887121, 52.5132202 ], [ 4.7887948, 52.513855 ], [ 4.7890054, 52.515022 ], [ 4.7890326, 52.5152893 ], [ 4.7890762, 52.5155319 ], [ 4.7891553, 52.5161893 ], [ 4.7892394, 52.5169307 ], [ 4.7892936, 52.5171931 ], [ 4.7892987, 52.5173164 ], [ 4.7892434, 52.5175999 ], [ 4.7892199, 52.5176647 ], [ 4.7891562, 52.5178405 ], [ 4.7890748, 52.5181452 ], [ 4.7890946, 52.5183989 ], [ 4.7892355, 52.5186414 ], [ 4.7894373, 52.5188913 ], [ 4.789861, 52.5192359 ], [ 4.7883734, 52.5191642 ], [ 4.7875772, 52.5192511 ], [ 4.7849713, 52.5194197 ], [ 4.7831461, 52.5195377 ], [ 4.7824765, 52.519581 ], [ 4.7822176, 52.5195616 ], [ 4.7819588, 52.5195422 ], [ 4.7815241, 52.5195036 ], [ 4.7810747, 52.5194468 ], [ 4.780931, 52.5194377 ], [ 4.7807836, 52.5194286 ], [ 4.7804816, 52.5194283 ], [ 4.7802016, 52.5194348 ], [ 4.7799068, 52.5194458 ], [ 4.7796599, 52.5194546 ], [ 4.7789819, 52.5194833 ], [ 4.7778321, 52.519525 ], [ 4.7775593, 52.5195383 ], [ 4.7772056, 52.5195605 ], [ 4.7765276, 52.5195891 ], [ 4.7763765, 52.5195845 ], [ 4.7761702, 52.5195664 ], [ 4.7760267, 52.5195459 ], [ 4.7758719, 52.5195211 ], [ 4.7757946, 52.5195029 ], [ 4.7757983, 52.5195052 ], [ 4.7757247, 52.5194871 ], [ 4.7756547, 52.51946 ], [ 4.7755921, 52.5194351 ], [ 4.7755223, 52.5193991 ], [ 4.775481, 52.5193776 ], [ 4.7753959, 52.5193939 ], [ 4.7752787, 52.5194156 ], [ 4.7751502, 52.5194421 ], [ 4.7750265, 52.5194606 ], [ 4.7749148, 52.519472 ], [ 4.7748287, 52.5194719 ], [ 4.7747454, 52.5194719 ], [ 4.7746091, 52.5194735 ], [ 4.7744758, 52.5194721 ], [ 4.7744006, 52.5194733 ], [ 4.7743281, 52.5194835 ], [ 4.7742087, 52.5195029 ], [ 4.7741335, 52.5195239 ], [ 4.7740222, 52.5195466 ], [ 4.7738802, 52.5195616 ], [ 4.773743, 52.5195664 ], [ 4.77302, 52.5195944 ], [ 4.7725115, 52.5196007 ], [ 4.7717782, 52.5196325 ], [ 4.7711798, 52.5196384 ], [ 4.7701367, 52.5196964 ], [ 4.7696535, 52.5196783 ], [ 4.7691511, 52.5196977 ], [ 4.7686102, 52.5197049 ], [ 4.7671318, 52.5197428 ], [ 4.7670901, 52.5194263 ], [ 4.7671218, 52.5192524 ], [ 4.7671451, 52.5191637 ], [ 4.7671739, 52.5190837 ], [ 4.7672195, 52.5189711 ], [ 4.767226, 52.5189348 ], [ 4.7672183, 52.5189064 ], [ 4.767183, 52.5188843 ], [ 4.7671054, 52.5188707 ], [ 4.767027, 52.5188664 ], [ 4.7669702, 52.5188633 ], [ 4.7668662, 52.5188664 ], [ 4.7667842, 52.5188724 ], [ 4.7666665, 52.5188882 ], [ 4.7665389, 52.5189111 ], [ 4.766438, 52.5189317 ], [ 4.7663464, 52.5189574 ], [ 4.7661046, 52.5190398 ], [ 4.7659582, 52.519092 ], [ 4.7657179, 52.5191749 ], [ 4.7654263, 52.519288 ], [ 4.7650743, 52.519399 ], [ 4.7646948, 52.5195189 ], [ 4.7644279, 52.519565 ], [ 4.7640786, 52.5196454 ], [ 4.7638615, 52.5196783 ], [ 4.7637267, 52.519697 ], [ 4.7636195, 52.5197072 ], [ 4.7635362, 52.5196912 ], [ 4.7634335, 52.51966 ], [ 4.7633423, 52.5196174 ], [ 4.7632384, 52.5195611 ], [ 4.7631305, 52.5194926 ], [ 4.7629527, 52.5193854 ], [ 4.7628553, 52.519331 ], [ 4.7627289, 52.5192851 ], [ 4.7618608, 52.5190256 ], [ 4.7616484, 52.5188393 ], [ 4.7613527, 52.5186765 ], [ 4.7612277, 52.5185538 ], [ 4.7610966, 52.5185958 ], [ 4.7604327, 52.5188085 ], [ 4.7596996, 52.5190456 ], [ 4.7593378, 52.5191622 ], [ 4.758791, 52.5193422 ], [ 4.7583333, 52.5195231 ], [ 4.7579058, 52.5196846 ], [ 4.757896, 52.5196878 ], [ 4.7578403, 52.5197061 ], [ 4.7578385, 52.5197067 ], [ 4.7578035, 52.5197182 ], [ 4.7576005, 52.5197916 ], [ 4.7574404, 52.5198352 ], [ 4.7569816, 52.5199896 ], [ 4.7567466, 52.5200662 ], [ 4.7563791, 52.5201786 ], [ 4.7560825, 52.5202608 ], [ 4.7557697, 52.5203569 ], [ 4.7554868, 52.5204106 ], [ 4.7553119, 52.5204374 ], [ 4.7549955, 52.5205239 ], [ 4.754518, 52.5206845 ], [ 4.7540549, 52.5208496 ], [ 4.7533702, 52.5210627 ], [ 4.7530974, 52.5211393 ], [ 4.7529055, 52.5211997 ], [ 4.7527821, 52.521237 ], [ 4.7526564, 52.5212536 ], [ 4.7525172, 52.5212506 ], [ 4.7524281, 52.5212327 ], [ 4.7522813, 52.5211763 ], [ 4.7521766, 52.5211115 ], [ 4.7520895, 52.5210532 ], [ 4.7514264, 52.5208115 ], [ 4.7513139, 52.5207681 ], [ 4.751194, 52.5207175 ], [ 4.7498414, 52.520152 ], [ 4.7497533, 52.520096 ], [ 4.7497288, 52.5200747 ], [ 4.7494396, 52.5196187 ], [ 4.7492427, 52.5188797 ], [ 4.749248, 52.5185222 ], [ 4.7491833, 52.5182698 ], [ 4.7491816, 52.5182632 ], [ 4.749174, 52.5182423 ], [ 4.7491478, 52.5182152 ], [ 4.7491105, 52.5181891 ], [ 4.7490003, 52.5181014 ], [ 4.7488718, 52.5180036 ], [ 4.74877, 52.5179089 ], [ 4.7486414, 52.5178016 ], [ 4.7485173, 52.5177149 ], [ 4.7484603, 52.5176518 ], [ 4.7483413, 52.5175387 ], [ 4.7482762, 52.5174688 ], [ 4.7482529, 52.5174267 ], [ 4.748233, 52.5173712 ], [ 4.7482329, 52.5173711 ], [ 4.748205, 52.5172858 ], [ 4.748205, 52.5172856 ], [ 4.7481993, 52.5172547 ], [ 4.7481993, 52.5172544 ], [ 4.7481877, 52.5172179 ], [ 4.7481702, 52.5171751 ], [ 4.7481552, 52.5171212 ], [ 4.7481426, 52.517055 ], [ 4.7481439, 52.5169654 ], [ 4.748151, 52.5168203 ], [ 4.7481706, 52.5167143 ], [ 4.7481745, 52.5165998 ], [ 4.7481792, 52.5164659 ], [ 4.7481803, 52.5163845 ], [ 4.748157, 52.5162754 ], [ 4.7481534, 52.516212 ], [ 4.7481591, 52.5161348 ], [ 4.7481667, 52.5159879 ], [ 4.7481827, 52.5158741 ], [ 4.7482247, 52.5156208 ], [ 4.7482312, 52.5155451 ], [ 4.7482375, 52.5154186 ], [ 4.7482422, 52.5153648 ], [ 4.7482534, 52.5153165 ], [ 4.7482831, 52.5152457 ], [ 4.7483315, 52.5151709 ], [ 4.7484589, 52.514982 ], [ 4.7487311, 52.5145966 ], [ 4.7487905, 52.5145123 ], [ 4.7488714, 52.5144134 ], [ 4.7489911, 52.5142864 ], [ 4.7490867, 52.514201 ], [ 4.7491716, 52.5141313 ], [ 4.7492416, 52.5140345 ], [ 4.74928, 52.5139831 ], [ 4.749394, 52.5138674 ], [ 4.7495765, 52.5137269 ], [ 4.7498274, 52.5135321 ], [ 4.7498889, 52.5134863 ], [ 4.7501648, 52.5132506 ], [ 4.7502715, 52.5131769 ], [ 4.750365, 52.5131214 ], [ 4.7504767, 52.5130686 ], [ 4.7505854, 52.5130094 ], [ 4.7506515, 52.5129655 ], [ 4.750711, 52.5129168 ], [ 4.7507798, 52.5128358 ], [ 4.7507948, 52.5128056 ], [ 4.750843, 52.5124847 ], [ 4.7508638, 52.5123892 ], [ 4.7509017, 52.5123482 ], [ 4.7509963, 52.5122695 ], [ 4.7511896, 52.5121429 ], [ 4.7514265, 52.5119928 ], [ 4.7514963, 52.511922 ], [ 4.7515708, 52.5118473 ], [ 4.7516085, 52.5117851 ], [ 4.7516328, 52.5117403 ], [ 4.7516612, 52.5116673 ], [ 4.7516835, 52.5116205 ], [ 4.7516867, 52.5116176 ], [ 4.7527679, 52.5105919 ], [ 4.7506741, 52.5082909 ], [ 4.7506423, 52.5082661 ], [ 4.7505478, 52.5081941 ], [ 4.7504393, 52.5081153 ], [ 4.75037, 52.5080879 ], [ 4.7502514, 52.5080427 ], [ 4.7501049, 52.5079891 ], [ 4.7499582, 52.5079483 ], [ 4.7498237, 52.5079261 ], [ 4.7496513, 52.5079076 ], [ 4.7490177, 52.5078355 ], [ 4.7488566, 52.5078181 ], [ 4.7487257, 52.5077963 ], [ 4.7486204, 52.5077698 ], [ 4.7485141, 52.5077209 ], [ 4.7484105, 52.5076616 ], [ 4.7483182, 52.5075986 ], [ 4.7480468, 52.5073701 ], [ 4.7479976, 52.5073197 ], [ 4.7479375, 52.5072523 ], [ 4.7478329, 52.5071598 ], [ 4.7477045, 52.5070273 ], [ 4.7476118, 52.5069597 ], [ 4.747519, 52.5068996 ], [ 4.7474342, 52.5068444 ], [ 4.7473225, 52.5067871 ], [ 4.7472059, 52.5067474 ], [ 4.7471179, 52.5067199 ], [ 4.7470673, 52.5066884 ], [ 4.747034, 52.5066566 ], [ 4.7467758, 52.5063639 ], [ 4.746373, 52.5060976 ], [ 4.7462479, 52.5060083 ], [ 4.7462007, 52.5059747 ], [ 4.7461294, 52.5059051 ], [ 4.745913, 52.5057853 ], [ 4.7458118, 52.50574 ], [ 4.7457108, 52.5056823 ], [ 4.7455817, 52.505602 ], [ 4.7453718, 52.5054692 ], [ 4.745292, 52.505409 ], [ 4.7451876, 52.5053471 ], [ 4.7450769, 52.5052857 ], [ 4.7449774, 52.505232 ], [ 4.7448422, 52.5051652 ], [ 4.7445417, 52.5050339 ], [ 4.7442859, 52.504812 ], [ 4.7440476, 52.504592 ], [ 4.7438862, 52.5044168 ], [ 4.7436364, 52.5042439 ], [ 4.7433318, 52.5040344 ], [ 4.7431528, 52.5039096 ], [ 4.7430692, 52.5038383 ], [ 4.743039, 52.5038012 ], [ 4.7429685, 52.503718 ], [ 4.7429113, 52.5036385 ], [ 4.742886, 52.5035682 ], [ 4.7428307, 52.5034906 ], [ 4.7427646, 52.5034213 ], [ 4.7425406, 52.5032458 ], [ 4.7422657, 52.5030317 ], [ 4.742149, 52.5029573 ], [ 4.7417889, 52.5027238 ], [ 4.7415967, 52.5026115 ], [ 4.7413437, 52.5024655 ], [ 4.7412401, 52.5024158 ], [ 4.7407342, 52.5021854 ], [ 4.7405295, 52.5020938 ], [ 4.7406198, 52.5020424 ], [ 4.7406787, 52.5020462 ], [ 4.7407436, 52.5020302 ], [ 4.740772, 52.501997 ], [ 4.7407716, 52.5019968 ], [ 4.7408449, 52.5019118 ], [ 4.7409794, 52.5018371 ], [ 4.7410748, 52.5017886 ], [ 4.7402892, 52.5018431 ], [ 4.7402451, 52.501843 ], [ 4.7402098, 52.5018411 ], [ 4.7401716, 52.5018357 ], [ 4.7401362, 52.5018266 ], [ 4.7400922, 52.501814 ], [ 4.7400569, 52.501805 ], [ 4.7400334, 52.501796 ], [ 4.7400188, 52.5017888 ], [ 4.7400119, 52.501788 ], [ 4.7400107, 52.5017872 ], [ 4.7398926, 52.5017077 ], [ 4.7398636, 52.5016917 ], [ 4.7397557, 52.5016319 ], [ 4.7397253, 52.5016151 ], [ 4.739696, 52.5015913 ], [ 4.7395144, 52.5014445 ], [ 4.7394879, 52.5014253 ], [ 4.739395, 52.5013701 ], [ 4.73914, 52.5012169 ], [ 4.7390358, 52.501142 ], [ 4.7385955, 52.500896 ], [ 4.7384903, 52.5008457 ], [ 4.7382711, 52.5007336 ], [ 4.7381309, 52.5006399 ], [ 4.7380272, 52.5005879 ], [ 4.7379808, 52.5005587 ], [ 4.7379195, 52.5005367 ], [ 4.7378384, 52.5006061 ], [ 4.7377686, 52.5005731 ], [ 4.7376262, 52.5004983 ], [ 4.7374545, 52.5004124 ], [ 4.7372362, 52.5003082 ], [ 4.7368635, 52.5001344 ], [ 4.7367762, 52.5000905 ], [ 4.7367151, 52.5000578 ], [ 4.7366428, 52.4999997 ], [ 4.7364632, 52.499876 ], [ 4.7364028, 52.4998199 ], [ 4.7363567, 52.4997746 ], [ 4.7363312, 52.4997312 ], [ 4.7363028, 52.4996861 ], [ 4.7362278, 52.4996226 ], [ 4.7360335, 52.4994917 ], [ 4.7358336, 52.4993607 ], [ 4.7354824, 52.4991494 ], [ 4.735111, 52.4989163 ], [ 4.7350588, 52.49888 ], [ 4.7350272, 52.4988492 ], [ 4.7350159, 52.4988258 ], [ 4.7349963, 52.4987825 ], [ 4.7349761, 52.4987661 ], [ 4.734837, 52.4986698 ], [ 4.7344889, 52.4984495 ], [ 4.7343673, 52.4983695 ], [ 4.7342367, 52.498284 ], [ 4.7341411, 52.4982167 ], [ 4.7340634, 52.4981478 ], [ 4.7340085, 52.4981025 ], [ 4.7339537, 52.4980536 ], [ 4.7338262, 52.4979662 ], [ 4.7335857, 52.4978044 ], [ 4.7334325, 52.4976809 ], [ 4.7333372, 52.4976029 ], [ 4.7332565, 52.4975286 ], [ 4.7331507, 52.4973948 ], [ 4.7331284, 52.4973597 ], [ 4.7330699, 52.4973259 ], [ 4.7329573, 52.4972315 ], [ 4.7329112, 52.4971934 ], [ 4.7328963, 52.4971802 ], [ 4.7328804, 52.4971659 ], [ 4.7327962, 52.4970909 ], [ 4.7327145, 52.4970358 ], [ 4.7322433, 52.496762 ], [ 4.732064, 52.4966531 ], [ 4.7317729, 52.4964454 ], [ 4.7317114, 52.4964056 ], [ 4.7316621, 52.4963745 ], [ 4.7316248, 52.4963549 ], [ 4.7315773, 52.4963314 ], [ 4.7315274, 52.4963192 ], [ 4.7305629, 52.4960974 ], [ 4.7301279, 52.496007 ], [ 4.7299791, 52.4959694 ], [ 4.7298504, 52.4959346 ], [ 4.7297336, 52.4959098 ], [ 4.7296547, 52.4958918 ], [ 4.7295871, 52.4958801 ], [ 4.7294918, 52.4958717 ], [ 4.7293273, 52.495858 ], [ 4.7289867, 52.4958397 ], [ 4.7285526, 52.495815 ], [ 4.7279218, 52.4957808 ], [ 4.7255722, 52.4955565 ], [ 4.7233119, 52.4953397 ], [ 4.7230837, 52.4953091 ], [ 4.7224971, 52.4952612 ], [ 4.7217364, 52.4951803 ], [ 4.7214726, 52.495151 ], [ 4.7214258, 52.4951452 ], [ 4.7213532, 52.4951363 ], [ 4.7212893, 52.4951273 ], [ 4.7212875, 52.4951271 ], [ 4.7211884, 52.4951131 ], [ 4.7208715, 52.4950691 ], [ 4.7208695, 52.4950688 ], [ 4.7207176, 52.4950477 ], [ 4.7206674, 52.495039 ], [ 4.7206473, 52.4950338 ], [ 4.7206414, 52.4950322 ], [ 4.7206348, 52.4950304 ], [ 4.7206047, 52.4950223 ], [ 4.7205592, 52.4950059 ], [ 4.720515, 52.494986 ], [ 4.7204738, 52.4949732 ], [ 4.720422, 52.4949647 ], [ 4.7203672, 52.4949539 ], [ 4.7197128, 52.4948252 ], [ 4.7193916, 52.494762 ], [ 4.7190674, 52.4946884 ], [ 4.7188928, 52.4946554 ], [ 4.7187745, 52.4946324 ], [ 4.7186514, 52.4946138 ], [ 4.7185857, 52.4946007 ], [ 4.7185088, 52.494579 ], [ 4.7180904, 52.4944258 ], [ 4.7179625, 52.4943839 ], [ 4.7178979, 52.4943601 ], [ 4.7177199, 52.4943134 ], [ 4.7175813, 52.4942819 ], [ 4.7174731, 52.494251 ], [ 4.7173636, 52.4942207 ], [ 4.7172244, 52.494181 ], [ 4.7171238, 52.4941518 ], [ 4.7169809, 52.4941182 ], [ 4.7168697, 52.4940887 ], [ 4.7167697, 52.4940694 ], [ 4.7166601, 52.4940419 ], [ 4.716553, 52.4940043 ], [ 4.716418, 52.4939548 ], [ 4.7163114, 52.4939073 ], [ 4.7161677, 52.4938431 ], [ 4.7158468, 52.4936917 ], [ 4.7156914, 52.4936253 ], [ 4.7152475, 52.4934213 ], [ 4.7146455, 52.493195 ], [ 4.7145638, 52.4931246 ], [ 4.7144886, 52.4930485 ], [ 4.7144329, 52.4929991 ], [ 4.7143461, 52.4929408 ], [ 4.7142409, 52.4928803 ], [ 4.7140902, 52.4928033 ], [ 4.713963, 52.4927415 ], [ 4.7138658, 52.4926834 ], [ 4.7137027, 52.4925349 ], [ 4.7135849, 52.4924305 ], [ 4.7135096, 52.4923676 ], [ 4.7133221, 52.4922399 ], [ 4.7131796, 52.4921393 ], [ 4.7130935, 52.4920571 ], [ 4.7129887, 52.491942 ], [ 4.7129128, 52.4918452 ], [ 4.7128696, 52.4917796 ], [ 4.7128441, 52.4917303 ], [ 4.7128155, 52.4917022 ], [ 4.712771, 52.4916598 ], [ 4.7126978, 52.4916054 ], [ 4.7125524, 52.4915006 ], [ 4.712317, 52.4913205 ], [ 4.7122087, 52.4912399 ], [ 4.7120892, 52.4911552 ], [ 4.7120028, 52.4910991 ], [ 4.7119177, 52.4910489 ], [ 4.7118905, 52.4910346 ], [ 4.7118675, 52.491014 ], [ 4.7118325, 52.4909729 ], [ 4.7117446, 52.4908748 ], [ 4.7117069, 52.4908407 ], [ 4.7116538, 52.490797 ], [ 4.7115774, 52.4907381 ], [ 4.7114425, 52.490636 ], [ 4.7113684, 52.4905698 ], [ 4.7113462, 52.4905502 ], [ 4.7112239, 52.4904355 ], [ 4.7111559, 52.4903681 ], [ 4.7111207, 52.4903364 ], [ 4.7110577, 52.4902824 ], [ 4.7110072, 52.4902392 ], [ 4.7108771, 52.4901328 ], [ 4.7106509, 52.4899475 ], [ 4.7106234, 52.4899207 ], [ 4.7105803, 52.4898917 ], [ 4.7105384, 52.4898695 ], [ 4.7104653, 52.489837 ], [ 4.7104099, 52.4898068 ], [ 4.7103758, 52.4897825 ], [ 4.7102788, 52.4897102 ], [ 4.710134, 52.4896211 ], [ 4.70999, 52.4895387 ], [ 4.7099395, 52.4895081 ], [ 4.7098405, 52.4894483 ], [ 4.7095936, 52.4893134 ], [ 4.7093861, 52.4891964 ], [ 4.7092556, 52.4891183 ], [ 4.709115, 52.4890327 ], [ 4.7089362, 52.4889188 ], [ 4.7088375, 52.4888553 ], [ 4.7086485, 52.4887396 ], [ 4.7085383, 52.4886812 ], [ 4.7084794, 52.4886489 ], [ 4.7084451, 52.4886257 ], [ 4.7084328, 52.4885921 ], [ 4.7084099, 52.4885218 ], [ 4.708383, 52.4884736 ], [ 4.7083401, 52.4883994 ], [ 4.708265, 52.4882709 ], [ 4.7082358, 52.4882038 ], [ 4.7081928, 52.4881043 ], [ 4.7081722, 52.4880417 ], [ 4.7081481, 52.4879448 ], [ 4.7081363, 52.4878406 ], [ 4.7081148, 52.4875973 ], [ 4.7081246, 52.4875558 ], [ 4.7081927, 52.4873286 ], [ 4.7082159, 52.4872431 ], [ 4.7082271, 52.487211 ], [ 4.708222, 52.4871597 ], [ 4.7081827, 52.4869941 ], [ 4.7081506, 52.4868919 ], [ 4.7081313, 52.4868454 ], [ 4.7081005, 52.4867777 ], [ 4.7080685, 52.4867158 ], [ 4.7080142, 52.4866193 ], [ 4.7079991, 52.4865736 ], [ 4.7079831, 52.4864664 ], [ 4.707973, 52.4863918 ], [ 4.7079711, 52.4863647 ], [ 4.7079689, 52.4863324 ], [ 4.7079749, 52.486303 ], [ 4.7079824, 52.4861976 ], [ 4.707965, 52.4860444 ], [ 4.7079489, 52.485945 ], [ 4.7078437, 52.4857806 ], [ 4.7078381, 52.4857702 ], [ 4.7077753, 52.4856527 ], [ 4.7077377, 52.485581 ], [ 4.7076732, 52.4854826 ], [ 4.7076036, 52.4854366 ], [ 4.7074898, 52.485401 ], [ 4.7073625, 52.4853855 ], [ 4.7071958, 52.485355 ], [ 4.7070714, 52.485298 ], [ 4.7070213, 52.4852695 ], [ 4.7069924, 52.4852504 ], [ 4.7068715, 52.4851703 ], [ 4.7067806, 52.4850799 ], [ 4.7066851, 52.4849934 ], [ 4.7065788, 52.4849029 ], [ 4.7063457, 52.4847579 ], [ 4.7062258, 52.4846954 ], [ 4.7061168, 52.4846269 ], [ 4.7059843, 52.4845228 ], [ 4.7058985, 52.4844537 ], [ 4.70586, 52.4843837 ], [ 4.7058454, 52.4843272 ], [ 4.7058469, 52.4841609 ], [ 4.7058514, 52.4840783 ], [ 4.7058466, 52.4839575 ], [ 4.7058242, 52.4838446 ], [ 4.7058217, 52.4837171 ], [ 4.7058317, 52.4836433 ], [ 4.705854, 52.4834756 ], [ 4.7058878, 52.4834262 ], [ 4.7059257, 52.4833888 ], [ 4.7059933, 52.4832963 ], [ 4.7060655, 52.4831772 ], [ 4.7061225, 52.4830473 ], [ 4.7061595, 52.4829281 ], [ 4.7061587, 52.4828395 ], [ 4.7061292, 52.4827547 ], [ 4.7060975, 52.482674 ], [ 4.706072, 52.4826082 ], [ 4.7060687, 52.4825999 ], [ 4.706068, 52.4825979 ], [ 4.7060675, 52.4825971 ], [ 4.706066, 52.4825948 ], [ 4.7060722, 52.4825802 ], [ 4.706028, 52.4825358 ], [ 4.7060031, 52.4824928 ], [ 4.7060016, 52.4824915 ], [ 4.7059393, 52.4824363 ], [ 4.7058693, 52.4823724 ], [ 4.7058313, 52.482339 ], [ 4.705803, 52.4823122 ], [ 4.7057966, 52.4823061 ], [ 4.7057894, 52.4822993 ], [ 4.7057431, 52.4822604 ], [ 4.7057254, 52.4822311 ], [ 4.7057242, 52.4822291 ], [ 4.7056353, 52.482078 ], [ 4.7055919, 52.4820007 ], [ 4.7055737, 52.4819657 ], [ 4.7055413, 52.4819214 ], [ 4.7055258, 52.4819068 ], [ 4.7055238, 52.481905 ], [ 4.7054721, 52.4818562 ], [ 4.70543, 52.4818304 ], [ 4.7053578, 52.4817903 ], [ 4.7050399, 52.4816084 ], [ 4.7048259, 52.4814884 ], [ 4.704617, 52.4813698 ], [ 4.7045095, 52.4813065 ], [ 4.7044167, 52.4812567 ], [ 4.7043509, 52.4812214 ], [ 4.704186, 52.4811474 ], [ 4.7039593, 52.4810536 ], [ 4.7038669, 52.4810222 ], [ 4.7037931, 52.4810102 ], [ 4.7037, 52.4809962 ], [ 4.7033565, 52.4809593 ], [ 4.7031135, 52.4809344 ], [ 4.7029329, 52.4809365 ], [ 4.7028296, 52.4809392 ], [ 4.7027694, 52.480956 ], [ 4.7027038, 52.4809635 ], [ 4.7026615, 52.480959 ], [ 4.7026128, 52.4809405 ], [ 4.7025543, 52.4809208 ], [ 4.7024366, 52.4808806 ], [ 4.7023737, 52.4808626 ], [ 4.702314, 52.4808467 ], [ 4.7022084, 52.4808332 ], [ 4.7021474, 52.4808221 ], [ 4.7020847, 52.480812 ], [ 4.701969, 52.480785 ], [ 4.7018541, 52.4807603 ], [ 4.7017342, 52.4807355 ], [ 4.7017053, 52.4807286 ], [ 4.7016959, 52.4807263 ], [ 4.7016383, 52.4807124 ], [ 4.701556, 52.4806944 ], [ 4.7014949, 52.4806802 ], [ 4.70149, 52.4806791 ], [ 4.7014119, 52.4806611 ], [ 4.701335, 52.4806352 ], [ 4.7012645, 52.4806124 ], [ 4.7012098, 52.4805817 ], [ 4.7011728, 52.4805614 ], [ 4.7011677, 52.4805586 ], [ 4.7011561, 52.4805522 ], [ 4.7011006, 52.4805149 ], [ 4.7010404, 52.4804724 ], [ 4.7009735, 52.4804254 ], [ 4.7009162, 52.4803836 ], [ 4.7008507, 52.4803342 ], [ 4.7007973, 52.4802933 ], [ 4.7007578, 52.4802643 ], [ 4.700729, 52.4802368 ], [ 4.7007123, 52.4802059 ], [ 4.7007004, 52.4801652 ], [ 4.7006896, 52.4801217 ], [ 4.7006876, 52.480063 ], [ 4.7006896, 52.4800095 ], [ 4.7006874, 52.4799484 ], [ 4.7006843, 52.4798924 ], [ 4.7006817, 52.4798318 ], [ 4.7006697, 52.4797716 ], [ 4.7006694, 52.4797701 ], [ 4.700669, 52.4797677 ], [ 4.7006589, 52.4796978 ], [ 4.7006439, 52.4796295 ], [ 4.7006415, 52.4796187 ], [ 4.7006396, 52.479612 ], [ 4.7006241, 52.4795588 ], [ 4.7005996, 52.4794959 ], [ 4.7005804, 52.4794445 ], [ 4.7005506, 52.4793831 ], [ 4.7005205, 52.4793312 ], [ 4.7004857, 52.4792881 ], [ 4.7004389, 52.4792344 ], [ 4.70038, 52.4791862 ], [ 4.7003041, 52.4791303 ], [ 4.7002522, 52.479087 ], [ 4.7001332, 52.4789836 ], [ 4.7001076, 52.4789614 ], [ 4.7000187, 52.4788904 ], [ 4.6999351, 52.4788253 ], [ 4.6998508, 52.4787594 ], [ 4.6998058, 52.4787211 ], [ 4.6997804, 52.4786862 ], [ 4.6997528, 52.4786084 ], [ 4.6997272, 52.47853 ], [ 4.699711, 52.4784945 ], [ 4.6997067, 52.4784518 ], [ 4.6997066, 52.4784503 ], [ 4.6997045, 52.478449 ], [ 4.699656, 52.478419 ], [ 4.6996037, 52.4783817 ], [ 4.6995381, 52.4783407 ], [ 4.6995266, 52.4783305 ], [ 4.6995261, 52.47833 ], [ 4.6994964, 52.4783035 ], [ 4.6994826, 52.4782549 ], [ 4.6994683, 52.4781991 ], [ 4.6994576, 52.4781399 ], [ 4.699457, 52.4781369 ], [ 4.6994567, 52.4781351 ], [ 4.6994554, 52.4780579 ], [ 4.6994545, 52.4779909 ], [ 4.6994499, 52.4779249 ], [ 4.699449, 52.4779128 ], [ 4.6991803, 52.4775784 ], [ 4.6991324, 52.4775204 ], [ 4.6991313, 52.4775194 ], [ 4.6990569, 52.4774601 ], [ 4.6989903, 52.4774016 ], [ 4.6989351, 52.4773528 ], [ 4.6988687, 52.4772958 ], [ 4.6988087, 52.4772448 ], [ 4.6987806, 52.4772161 ], [ 4.6987532, 52.4771882 ], [ 4.6987445, 52.4771669 ], [ 4.698735, 52.4771369 ], [ 4.6987283, 52.4770978 ], [ 4.6987184, 52.4770373 ], [ 4.698715, 52.4769928 ], [ 4.6987132, 52.4769364 ], [ 4.6987107, 52.4768748 ], [ 4.6986881, 52.4767298 ], [ 4.6986874, 52.4767252 ], [ 4.698673, 52.4766595 ], [ 4.6986659, 52.4765844 ], [ 4.6986457, 52.4765391 ], [ 4.6986269, 52.4764925 ], [ 4.6986078, 52.4764336 ], [ 4.6986019, 52.4764041 ], [ 4.6986112, 52.476355 ], [ 4.6986245, 52.4763286 ], [ 4.6986508, 52.4762945 ], [ 4.6986841, 52.476258 ], [ 4.6987342, 52.4762223 ], [ 4.6987764, 52.4761867 ], [ 4.6987952, 52.4761743 ], [ 4.6987961, 52.4761738 ], [ 4.6988327, 52.4761497 ], [ 4.6988772, 52.476115 ], [ 4.698917, 52.4760861 ], [ 4.6989554, 52.4760521 ], [ 4.6989966, 52.4760164 ], [ 4.6990317, 52.4759833 ], [ 4.6990677, 52.4759461 ], [ 4.6991025, 52.4759062 ], [ 4.699147, 52.4758586 ], [ 4.6991875, 52.4757994 ], [ 4.6992089, 52.4757469 ], [ 4.6992303, 52.475688 ], [ 4.6992462, 52.4756272 ], [ 4.6992581, 52.4755676 ], [ 4.699273, 52.475512 ], [ 4.6992962, 52.4754511 ], [ 4.699324, 52.4753415 ], [ 4.6993269, 52.4752839 ], [ 4.6993221, 52.4752343 ], [ 4.6993116, 52.4751794 ], [ 4.6992967, 52.4751164 ], [ 4.6992796, 52.4750515 ], [ 4.6992652, 52.4749784 ], [ 4.6992522, 52.4749103 ], [ 4.6992454, 52.4748658 ], [ 4.6992346, 52.4748233 ], [ 4.6992347, 52.4747803 ], [ 4.6992493, 52.4747199 ], [ 4.6992764, 52.474647 ], [ 4.6992785, 52.4746184 ], [ 4.6992792, 52.4746088 ], [ 4.699282, 52.4745693 ], [ 4.6992788, 52.4745327 ], [ 4.6992302, 52.4744583 ], [ 4.6992145, 52.4744276 ], [ 4.699165, 52.4743767 ], [ 4.6991296, 52.4743436 ], [ 4.6991094, 52.4743211 ], [ 4.6990689, 52.4742617 ], [ 4.699031, 52.474209 ], [ 4.6989951, 52.474145 ], [ 4.6989125, 52.4740079 ], [ 4.6988084, 52.4738423 ], [ 4.6986954, 52.4736777 ], [ 4.6986677, 52.4736375 ], [ 4.6986349, 52.4735982 ], [ 4.698579, 52.4735388 ], [ 4.6985324, 52.4734811 ], [ 4.6984796, 52.4734193 ], [ 4.6983961, 52.4733146 ], [ 4.6983406, 52.4732481 ], [ 4.6982877, 52.4731863 ], [ 4.6982427, 52.4731306 ], [ 4.6982096, 52.4730811 ], [ 4.6981742, 52.4730253 ], [ 4.6981323, 52.4729609 ], [ 4.6980882, 52.4728956 ], [ 4.6980775, 52.4728752 ], [ 4.6980532, 52.4728287 ], [ 4.6980328, 52.4727895 ], [ 4.6980157, 52.47273 ], [ 4.697993, 52.4726761 ], [ 4.6979698, 52.4726267 ], [ 4.697946, 52.4725929 ], [ 4.6979219, 52.472563 ], [ 4.6979014, 52.4725421 ], [ 4.6978672, 52.4725225 ], [ 4.697834, 52.4725041 ], [ 4.6977893, 52.4724844 ], [ 4.6977776, 52.4724782 ], [ 4.6977632, 52.4724706 ], [ 4.6977581, 52.4724678 ], [ 4.6977126, 52.4724436 ], [ 4.697655, 52.4724068 ], [ 4.6976262, 52.4723858 ], [ 4.6976005, 52.4723633 ], [ 4.6975537, 52.4723151 ], [ 4.6974765, 52.4722289 ], [ 4.6972802, 52.4720099 ], [ 4.6974056, 52.472015 ], [ 4.6974217, 52.4719637 ], [ 4.6974751, 52.4719019 ], [ 4.6976575, 52.4716631 ], [ 4.6976982, 52.4716199 ], [ 4.6977483, 52.4715667 ], [ 4.6978013, 52.4714939 ], [ 4.697832, 52.4714359 ], [ 4.6978891, 52.4713307 ], [ 4.6979036, 52.4712917 ], [ 4.6979106, 52.471261 ], [ 4.6979141, 52.4712247 ], [ 4.6979076, 52.4711775 ], [ 4.6978876, 52.4711231 ], [ 4.6978621, 52.471081 ], [ 4.6978187, 52.4710338 ], [ 4.697778, 52.470992 ], [ 4.6975764, 52.4707856 ], [ 4.697531, 52.4707379 ], [ 4.6974687, 52.4706956 ], [ 4.6973761, 52.4706228 ], [ 4.6970938, 52.4704028 ], [ 4.6969491, 52.47029 ], [ 4.6969152, 52.4702638 ], [ 4.696861, 52.470196 ], [ 4.6967805, 52.4700939 ], [ 4.6967228, 52.4700222 ], [ 4.6964358, 52.4697374 ], [ 4.6963531, 52.4696637 ], [ 4.6963377, 52.4696492 ], [ 4.6962233, 52.4695417 ], [ 4.6960364, 52.4693542 ], [ 4.6959759, 52.4692943 ], [ 4.6957889, 52.4690857 ], [ 4.6957668, 52.4690633 ], [ 4.6957185, 52.4690142 ], [ 4.6955395, 52.4688328 ], [ 4.6954784, 52.4687709 ], [ 4.6954729, 52.4687652 ], [ 4.6954056, 52.4686969 ], [ 4.6953233, 52.4686142 ], [ 4.6953158, 52.4686065 ], [ 4.6952964, 52.4685873 ], [ 4.6952458, 52.4685394 ], [ 4.6952051, 52.4685115 ], [ 4.6949601, 52.4683435 ], [ 4.6948899, 52.4682949 ], [ 4.694843, 52.4682573 ], [ 4.694823, 52.4682418 ], [ 4.6947692, 52.4682019 ], [ 4.6947383, 52.4681791 ], [ 4.6946992, 52.4681506 ], [ 4.6946094, 52.4680821 ], [ 4.6944941, 52.4680073 ], [ 4.6942814, 52.4678701 ], [ 4.6941985, 52.4678155 ], [ 4.6940443, 52.4677151 ], [ 4.6937681, 52.467535 ], [ 4.6936802, 52.4674856 ], [ 4.6935333, 52.4673971 ], [ 4.6934953, 52.4673722 ], [ 4.6934853, 52.4673657 ], [ 4.6934471, 52.4673407 ], [ 4.6929751, 52.4671136 ], [ 4.6927095, 52.4669855 ], [ 4.6925984, 52.4669322 ], [ 4.6924407, 52.4668484 ], [ 4.6922806, 52.4667606 ], [ 4.6922299, 52.466734 ], [ 4.6916426, 52.4664185 ], [ 4.6916262, 52.4664097 ], [ 4.6910726, 52.4661093 ], [ 4.6908792, 52.4660065 ], [ 4.6907742, 52.4659477 ], [ 4.6906257, 52.4658758 ], [ 4.6905716, 52.4658507 ], [ 4.6904548, 52.4657966 ], [ 4.6899414, 52.4655605 ], [ 4.6899335, 52.4655568 ], [ 4.6898387, 52.4655119 ], [ 4.6898342, 52.4655099 ], [ 4.6893612, 52.4652972 ], [ 4.6893482, 52.4652913 ], [ 4.6892637, 52.4652525 ], [ 4.6892626, 52.465252 ], [ 4.6891939, 52.4652203 ], [ 4.6891603, 52.465205 ], [ 4.6890578, 52.465164 ], [ 4.6889109, 52.4651029 ], [ 4.6886843, 52.4650115 ], [ 4.6885451, 52.4649588 ], [ 4.6873749, 52.464513 ], [ 4.6859169, 52.4639544 ], [ 4.6854012, 52.4637548 ], [ 4.6851463, 52.4636618 ], [ 4.6851195, 52.4636513 ], [ 4.6850882, 52.4636446 ], [ 4.6850591, 52.4636384 ], [ 4.6849374, 52.4636232 ], [ 4.6849164, 52.463621 ], [ 4.6848975, 52.4636196 ], [ 4.6847253, 52.4636084 ], [ 4.6846101, 52.4635961 ], [ 4.6845424, 52.4635869 ], [ 4.6844793, 52.4635764 ], [ 4.6844441, 52.4635731 ], [ 4.6843735, 52.4635541 ], [ 4.6842664, 52.463521 ], [ 4.6844339, 52.4633253 ], [ 4.6844379, 52.4633207 ], [ 4.684668, 52.4632117 ], [ 4.6846808, 52.4631661 ], [ 4.6846901, 52.4631327 ], [ 4.6847608, 52.46288 ], [ 4.6850694, 52.4625568 ], [ 4.6850081, 52.4625146 ], [ 4.6849981, 52.4625078 ], [ 4.6849735, 52.4624908 ], [ 4.6847086, 52.4623086 ], [ 4.6846793, 52.4622885 ], [ 4.6846777, 52.4622874 ], [ 4.6846752, 52.4622856 ], [ 4.6845001, 52.4621649 ], [ 4.6836285, 52.4615649 ], [ 4.6836233, 52.4615614 ], [ 4.6834145, 52.4614176 ], [ 4.6834089, 52.4614138 ], [ 4.6827803, 52.4609811 ], [ 4.6827758, 52.460978 ], [ 4.6818246, 52.4603233 ], [ 4.6809682, 52.4597339 ], [ 4.6808829, 52.4596751 ], [ 4.68088, 52.4596731 ], [ 4.6808004, 52.4596183 ], [ 4.6808, 52.4596181 ], [ 4.6793801, 52.4586407 ], [ 4.67866, 52.4581417 ], [ 4.6765447, 52.4566887 ], [ 4.6764555, 52.456628 ], [ 4.6764398, 52.4566173 ], [ 4.6762626, 52.4564966 ], [ 4.6757923, 52.4561761 ], [ 4.6748481, 52.4555204 ] ] ] } }
]
}
