{
"type": "FeatureCollection",
"name": "zoetermeer_nl",
"crs": { "type": "name", "properties": { "name": "urn:ogc:def:crs:OGC:1.3:CRS84" } },
"features": [
{ "type": "Feature", "properties": { }, "geometry": { "type": "Polygon", "coordinates": [ [ [ 4.4152309, 52.0570129 ], [ 4.4152552, 52.056994 ], [ 4.4155154, 52.0567914 ], [ 4.4167442, 52.0558344 ], [ 4.4177014, 52.055087 ], [ 4.4186914, 52.0543155 ], [ 4.4196674, 52.0535511 ], [ 4.4206691, 52.0527696 ], [ 4.4212143, 52.0523439 ], [ 4.4213283, 52.0522549 ], [ 4.4213546, 52.0522344 ], [ 4.4214277, 52.0521771 ], [ 4.4214351, 52.0521713 ], [ 4.4217544, 52.0519212 ], [ 4.4218559, 52.051842 ], [ 4.4218758, 52.0518265 ], [ 4.4220724, 52.0516731 ], [ 4.4221252, 52.0516692 ], [ 4.4221527, 52.0516673 ], [ 4.423026, 52.0516038 ], [ 4.4230304, 52.0516273 ], [ 4.4230374, 52.0516655 ], [ 4.424079, 52.0515907 ], [ 4.4241179, 52.0516118 ], [ 4.4249058, 52.0515503 ], [ 4.4249868, 52.051544 ], [ 4.42521, 52.0515266 ], [ 4.4253273, 52.0515797 ], [ 4.4253808, 52.051557 ], [ 4.4255402, 52.0514839 ], [ 4.425993, 52.0514614 ], [ 4.4261878, 52.0514471 ], [ 4.4265619, 52.0514173 ], [ 4.4268585, 52.0513991 ], [ 4.4271088, 52.0513812 ], [ 4.4273483, 52.0513638 ], [ 4.4276583, 52.0513417 ], [ 4.4279201, 52.0513227 ], [ 4.4281677, 52.0513069 ], [ 4.4282028, 52.0513047 ], [ 4.4285052, 52.051278 ], [ 4.4289261, 52.0512428 ], [ 4.4294574, 52.0512036 ], [ 4.4295406, 52.0511973 ], [ 4.4299372, 52.0511671 ], [ 4.4304572, 52.0511278 ], [ 4.4307629, 52.051104 ], [ 4.430948, 52.0510895 ], [ 4.4311446, 52.0510366 ], [ 4.4311995, 52.0510218 ], [ 4.4312707, 52.0510026 ], [ 4.4321053, 52.0507778 ], [ 4.4323369, 52.0507439 ], [ 4.432429, 52.0507292 ], [ 4.4325801, 52.0507051 ], [ 4.4357878, 52.0504865 ], [ 4.435802, 52.0504853 ], [ 4.4380443, 52.0502837 ], [ 4.4389144, 52.0502078 ], [ 4.4395884, 52.0501491 ], [ 4.4395959, 52.0501484 ], [ 4.440264, 52.0500902 ], [ 4.4409682, 52.0500287 ], [ 4.4416438, 52.0499698 ], [ 4.4423336, 52.0499096 ], [ 4.4424995, 52.0498952 ], [ 4.4425641, 52.0498897 ], [ 4.4429981, 52.0498528 ], [ 4.4436784, 52.0497951 ], [ 4.4443955, 52.0497342 ], [ 4.4450459, 52.049679 ], [ 4.44577, 52.0496175 ], [ 4.4464727, 52.0495578 ], [ 4.4471094, 52.0495037 ], [ 4.4478042, 52.0494447 ], [ 4.4485113, 52.0493846 ], [ 4.4491894, 52.049327 ], [ 4.4498611, 52.0492699 ], [ 4.4505642, 52.0492102 ], [ 4.450579, 52.0491858 ], [ 4.4509872, 52.0485142 ], [ 4.4510433, 52.0484218 ], [ 4.4510699, 52.048378 ], [ 4.4512436, 52.0480921 ], [ 4.4513069, 52.0479879 ], [ 4.4513468, 52.0479223 ], [ 4.4524375, 52.0461272 ], [ 4.4524641, 52.0460835 ], [ 4.4525743, 52.0459021 ], [ 4.4526122, 52.0458397 ], [ 4.4538856, 52.0437437 ], [ 4.4539612, 52.0436193 ], [ 4.4540204, 52.0435219 ], [ 4.4543236, 52.0430228 ], [ 4.4544281, 52.0428507 ], [ 4.4564381, 52.0395418 ], [ 4.4569948, 52.0396722 ], [ 4.45703, 52.0396151 ], [ 4.4572888, 52.039195 ], [ 4.4573156, 52.0391516 ], [ 4.4576439, 52.0386187 ], [ 4.4587912, 52.0388281 ], [ 4.4588269, 52.0388346 ], [ 4.4593654, 52.0389329 ], [ 4.4605527, 52.0391497 ], [ 4.4607098, 52.0391783 ], [ 4.4617104, 52.039361 ], [ 4.4623344, 52.0394225 ], [ 4.4629538, 52.0394836 ], [ 4.4641886, 52.0396054 ], [ 4.4643843, 52.0396248 ], [ 4.4652156, 52.0397067 ], [ 4.4653922, 52.0397242 ], [ 4.4659873, 52.0397828 ], [ 4.4672029, 52.0399027 ], [ 4.4689608, 52.0400761 ], [ 4.4690398, 52.0400838 ], [ 4.4696069, 52.0402149 ], [ 4.4707437, 52.0404777 ], [ 4.4708844, 52.0402305 ], [ 4.4713374, 52.0394347 ], [ 4.4714356, 52.0392622 ], [ 4.4715885, 52.0389935 ], [ 4.4716192, 52.0389967 ], [ 4.4719195, 52.0390282 ], [ 4.4719558, 52.0390307 ], [ 4.472066, 52.0387807 ], [ 4.4722227, 52.0384747 ], [ 4.47223, 52.0384252 ], [ 4.4722344, 52.0383912 ], [ 4.4721416, 52.0383669 ], [ 4.4722254, 52.0382516 ], [ 4.4723393, 52.0382727 ], [ 4.4723731, 52.0382789 ], [ 4.4724776, 52.0380689 ], [ 4.4725312, 52.0379724 ], [ 4.4728159, 52.0380267 ], [ 4.4728432, 52.0379759 ], [ 4.4728507, 52.0379614 ], [ 4.472953, 52.0377644 ], [ 4.4729999, 52.0376742 ], [ 4.4730238, 52.0376281 ], [ 4.4730715, 52.0375403 ], [ 4.4730991, 52.037492 ], [ 4.4731202, 52.0374552 ], [ 4.4731671, 52.0373918 ], [ 4.4731487, 52.0373878 ], [ 4.4731145, 52.0373803 ], [ 4.4734924, 52.0366719 ], [ 4.4734925, 52.0366717 ], [ 4.4735414, 52.0366821 ], [ 4.4735745, 52.0366193 ], [ 4.473646, 52.0364837 ], [ 4.4737057, 52.0363705 ], [ 4.4737718, 52.0362451 ], [ 4.47377, 52.0362447 ], [ 4.4738259, 52.0361431 ], [ 4.4738842, 52.036037 ], [ 4.4739136, 52.0359806 ], [ 4.4739478, 52.0359147 ], [ 4.4740215, 52.035773 ], [ 4.4740383, 52.0357438 ], [ 4.4743251, 52.035244 ], [ 4.4745036, 52.0349138 ], [ 4.4745657, 52.0347922 ], [ 4.4745774, 52.0347693 ], [ 4.4747013, 52.0345984 ], [ 4.4750765, 52.0340807 ], [ 4.4751692, 52.0339529 ], [ 4.4753102, 52.0337871 ], [ 4.4755236, 52.0334674 ], [ 4.475654, 52.0332687 ], [ 4.4758367, 52.0329905 ], [ 4.4758846, 52.032925 ], [ 4.4759288, 52.0328645 ], [ 4.4759799, 52.0327945 ], [ 4.4759964, 52.0327719 ], [ 4.4760035, 52.0327604 ], [ 4.4762514, 52.0323586 ], [ 4.4762658, 52.0323353 ], [ 4.4762741, 52.0323255 ], [ 4.4763695, 52.0322126 ], [ 4.476485, 52.0320759 ], [ 4.4765761, 52.031959 ], [ 4.4767903, 52.0316845 ], [ 4.4767062, 52.0316421 ], [ 4.4767909, 52.0315469 ], [ 4.477028, 52.0312806 ], [ 4.4770948, 52.0312923 ], [ 4.4772198, 52.0313141 ], [ 4.4774139, 52.0313481 ], [ 4.4775603, 52.0313737 ], [ 4.477681, 52.0313948 ], [ 4.4776249, 52.0314698 ], [ 4.4773845, 52.0317916 ], [ 4.4778125, 52.0317946 ], [ 4.4830847, 52.0318314 ], [ 4.4837028, 52.0318346 ], [ 4.4847741, 52.0318403 ], [ 4.4850578, 52.0318424 ], [ 4.4859508, 52.0318491 ], [ 4.4901129, 52.0318801 ], [ 4.4908243, 52.0318837 ], [ 4.4938198, 52.0318988 ], [ 4.4938224, 52.0318988 ], [ 4.4967909, 52.0319137 ], [ 4.496845, 52.0319141 ], [ 4.4968701, 52.0319142 ], [ 4.4980963, 52.0319213 ], [ 4.4982742, 52.0319224 ], [ 4.500599, 52.0319359 ], [ 4.5013924, 52.0319404 ], [ 4.5037396, 52.031954 ], [ 4.5046748, 52.0319594 ], [ 4.5047096, 52.0319306 ], [ 4.5049236, 52.0320288 ], [ 4.5054038, 52.0322501 ], [ 4.5055535, 52.0321995 ], [ 4.5057299, 52.0321399 ], [ 4.5059359, 52.0322528 ], [ 4.50626, 52.0324138 ], [ 4.506683, 52.0326245 ], [ 4.5068967, 52.0327311 ], [ 4.5069277, 52.032747 ], [ 4.5069661, 52.0327675 ], [ 4.5069956, 52.0327846 ], [ 4.507027, 52.0328037 ], [ 4.5070604, 52.0328253 ], [ 4.507091, 52.0328469 ], [ 4.5071174, 52.0328667 ], [ 4.5071377, 52.0328832 ], [ 4.5071516, 52.0328955 ], [ 4.5072321, 52.0329668 ], [ 4.5073081, 52.0330354 ], [ 4.5075484, 52.0332508 ], [ 4.5079906, 52.0336431 ], [ 4.5083538, 52.0339593 ], [ 4.5084361, 52.0340289 ], [ 4.5084993, 52.0340836 ], [ 4.508589, 52.0341484 ], [ 4.5087023, 52.0342216 ], [ 4.5089988, 52.0344188 ], [ 4.5092465, 52.0345879 ], [ 4.5092697, 52.0346067 ], [ 4.5093981, 52.034705 ], [ 4.5096359, 52.0348985 ], [ 4.5097417, 52.0349857 ], [ 4.5107241, 52.0357901 ], [ 4.51095, 52.0359761 ], [ 4.5112156, 52.0361819 ], [ 4.511656, 52.036515 ], [ 4.5118736, 52.0366769 ], [ 4.5120366, 52.0367987 ], [ 4.5121539, 52.0368846 ], [ 4.5123113, 52.0370055 ], [ 4.5124199, 52.0370886 ], [ 4.5124976, 52.0371476 ], [ 4.5126655, 52.0372741 ], [ 4.5127396, 52.0373291 ], [ 4.5127417, 52.0373306 ], [ 4.5130094, 52.0375298 ], [ 4.5133503, 52.037783 ], [ 4.5136595, 52.0380194 ], [ 4.5137589, 52.0380979 ], [ 4.5138378, 52.0381606 ], [ 4.513935, 52.0382383 ], [ 4.5140384, 52.0383219 ], [ 4.5142149, 52.0384645 ], [ 4.5143318, 52.0385586 ], [ 4.5145199, 52.0387093 ], [ 4.5146085, 52.0387729 ], [ 4.5146661, 52.0388104 ], [ 4.5148261, 52.0389165 ], [ 4.5149137, 52.0389742 ], [ 4.5150552, 52.0390662 ], [ 4.5151571, 52.0391312 ], [ 4.5152916, 52.039216 ], [ 4.515529, 52.0393582 ], [ 4.5158935, 52.0395767 ], [ 4.5159323, 52.0395999 ], [ 4.51612, 52.0397121 ], [ 4.5167481, 52.0400862 ], [ 4.5173624, 52.040453 ], [ 4.5178362, 52.0407336 ], [ 4.5181862, 52.04094 ], [ 4.5181977, 52.0409463 ], [ 4.5183364, 52.0410223 ], [ 4.5185987, 52.0411662 ], [ 4.5186516, 52.0411952 ], [ 4.5191875, 52.0414891 ], [ 4.5192573, 52.0415274 ], [ 4.5193542, 52.0415806 ], [ 4.5193593, 52.0415833 ], [ 4.5194385, 52.0416261 ], [ 4.5195896, 52.0417034 ], [ 4.5197618, 52.0417911 ], [ 4.5199226, 52.0418745 ], [ 4.5200696, 52.0419521 ], [ 4.5201433, 52.0419921 ], [ 4.5202399, 52.0420481 ], [ 4.5203133, 52.0420933 ], [ 4.5204139, 52.0421561 ], [ 4.5206012, 52.0422856 ], [ 4.5206665, 52.0423289 ], [ 4.5208227, 52.0424451 ], [ 4.5210344, 52.0425616 ], [ 4.5210657, 52.0425779 ], [ 4.522439, 52.0432891 ], [ 4.5224466, 52.0432944 ], [ 4.5226169, 52.0434153 ], [ 4.5226879, 52.043453 ], [ 4.5239139, 52.0441529 ], [ 4.5243528, 52.044392 ], [ 4.5251979, 52.0448935 ], [ 4.5262901, 52.0455238 ], [ 4.5266036, 52.045703 ], [ 4.5266707, 52.0457437 ], [ 4.5267024, 52.0457643 ], [ 4.5267203, 52.0457888 ], [ 4.526739, 52.0458044 ], [ 4.5268817, 52.0458169 ], [ 4.52678, 52.0458767 ], [ 4.5269642, 52.0458609 ], [ 4.5271511, 52.0459472 ], [ 4.527363, 52.0460451 ], [ 4.5277527, 52.0462228 ], [ 4.5280132, 52.0463439 ], [ 4.5283161, 52.0464842 ], [ 4.5286608, 52.046635 ], [ 4.5291744, 52.0468646 ], [ 4.5297991, 52.0471508 ], [ 4.5303224, 52.0473943 ], [ 4.5308685, 52.0476385 ], [ 4.5317583, 52.0480376 ], [ 4.5324384, 52.0483403 ], [ 4.5328702, 52.0485339 ], [ 4.5330652, 52.0486222 ], [ 4.533242, 52.0487152 ], [ 4.5337754, 52.0489955 ], [ 4.5341279, 52.0491726 ], [ 4.5343529, 52.0492829 ], [ 4.5344029, 52.0493089 ], [ 4.5344299, 52.0493253 ], [ 4.5344565, 52.0493416 ], [ 4.5343329, 52.0494078 ], [ 4.5345103, 52.049494 ], [ 4.5346657, 52.0495633 ], [ 4.5347434, 52.0495915 ], [ 4.534796, 52.0496028 ], [ 4.5348738, 52.0496136 ], [ 4.5349772, 52.0496188 ], [ 4.5350255, 52.0496186 ], [ 4.5350991, 52.0496142 ], [ 4.5351651, 52.0496078 ], [ 4.5353126, 52.0495845 ], [ 4.536039, 52.0494653 ], [ 4.5361769, 52.049447 ], [ 4.5363133, 52.0494325 ], [ 4.5364182, 52.0494255 ], [ 4.5370618, 52.049385 ], [ 4.5373615, 52.0493622 ], [ 4.5380136, 52.0493209 ], [ 4.5386713, 52.0492879 ], [ 4.5392176, 52.0492636 ], [ 4.5394231, 52.0492506 ], [ 4.5395771, 52.0492376 ], [ 4.5397583, 52.0492182 ], [ 4.5398953, 52.0492106 ], [ 4.5402451, 52.0491951 ], [ 4.5408727, 52.0491879 ], [ 4.5409172, 52.0491525 ], [ 4.5409713, 52.0491491 ], [ 4.5416699, 52.0490587 ], [ 4.542689, 52.0489902 ], [ 4.5443184, 52.0488959 ], [ 4.5450136, 52.0488586 ], [ 4.5450795, 52.048861 ], [ 4.5451222, 52.0488681 ], [ 4.5451811, 52.0488837 ], [ 4.5452405, 52.0489001 ], [ 4.5452944, 52.0489227 ], [ 4.5453354, 52.0489363 ], [ 4.5453757, 52.0489595 ], [ 4.5462438, 52.0495243 ], [ 4.5468087, 52.0498919 ], [ 4.5469777, 52.0500013 ], [ 4.5471044, 52.0500833 ], [ 4.5475468, 52.0503697 ], [ 4.5473516, 52.0504629 ], [ 4.5472993, 52.0504878 ], [ 4.5475522, 52.0508072 ], [ 4.5477693, 52.0510816 ], [ 4.5480678, 52.0514587 ], [ 4.5481295, 52.0515988 ], [ 4.5484962, 52.0524707 ], [ 4.5488053, 52.0531982 ], [ 4.5488377, 52.0533087 ], [ 4.5488309, 52.0538114 ], [ 4.54887, 52.054004 ], [ 4.5488843, 52.0540636 ], [ 4.5489364, 52.0541546 ], [ 4.5490828, 52.0543692 ], [ 4.5491918, 52.0545396 ], [ 4.5496287, 52.0551318 ], [ 4.5496967, 52.05522 ], [ 4.5499729, 52.055578 ], [ 4.5502448, 52.0559304 ], [ 4.5505331, 52.056304 ], [ 4.5505656, 52.0563373 ], [ 4.5505881, 52.0563534 ], [ 4.551721, 52.057141 ], [ 4.5528124, 52.0578439 ], [ 4.5530808, 52.0580168 ], [ 4.5535404, 52.0583129 ], [ 4.555707, 52.0596957 ], [ 4.5560471, 52.0599128 ], [ 4.5561328, 52.0599675 ], [ 4.5576187, 52.0609096 ], [ 4.5576864, 52.0609525 ], [ 4.5572179, 52.061155 ], [ 4.5571802, 52.0612394 ], [ 4.5560122, 52.0617874 ], [ 4.5556927, 52.0619373 ], [ 4.5548083, 52.0623523 ], [ 4.5527717, 52.0633078 ], [ 4.5527055, 52.0634129 ], [ 4.5532098, 52.0638315 ], [ 4.5524021, 52.0642088 ], [ 4.5523826, 52.0642179 ], [ 4.5505132, 52.0650912 ], [ 4.5486999, 52.0659381 ], [ 4.5486754, 52.0659496 ], [ 4.5483219, 52.0661259 ], [ 4.5481743, 52.0663242 ], [ 4.5474886, 52.066648 ], [ 4.5471828, 52.0667924 ], [ 4.5463473, 52.067187 ], [ 4.5461343, 52.0672876 ], [ 4.5452568, 52.067702 ], [ 4.5449545, 52.0678447 ], [ 4.5447896, 52.0679226 ], [ 4.5443933, 52.0681099 ], [ 4.5436737, 52.06845 ], [ 4.5433245, 52.0686151 ], [ 4.5429317, 52.0687962 ], [ 4.5428352, 52.0688381 ], [ 4.5427277, 52.068888 ], [ 4.5424666, 52.0690092 ], [ 4.5419648, 52.0692378 ], [ 4.5417187, 52.0693499 ], [ 4.5412828, 52.0695442 ], [ 4.5412741, 52.0695481 ], [ 4.5412341, 52.0695659 ], [ 4.5409488, 52.0696928 ], [ 4.5409, 52.0697154 ], [ 4.5408495, 52.0697378 ], [ 4.5407983, 52.0697602 ], [ 4.5407443, 52.0697836 ], [ 4.5403758, 52.0699551 ], [ 4.5403674, 52.0699592 ], [ 4.5403141, 52.0699847 ], [ 4.5402513, 52.0700121 ], [ 4.5402078, 52.0700303 ], [ 4.5398754, 52.0701671 ], [ 4.5397858, 52.0702007 ], [ 4.5394699, 52.0703141 ], [ 4.5393392, 52.0703611 ], [ 4.5393144, 52.070372 ], [ 4.5392916, 52.0703803 ], [ 4.5392682, 52.0703894 ], [ 4.5392476, 52.0703984 ], [ 4.5392238, 52.0704073 ], [ 4.5388763, 52.0705622 ], [ 4.538713, 52.0706349 ], [ 4.5386945, 52.070643 ], [ 4.5386615, 52.0706573 ], [ 4.5386391, 52.070666 ], [ 4.5386167, 52.0706741 ], [ 4.5385937, 52.0706818 ], [ 4.5385662, 52.0706929 ], [ 4.5385394, 52.0707046 ], [ 4.5385096, 52.0707175 ], [ 4.5384838, 52.0707294 ], [ 4.5384554, 52.0707435 ], [ 4.538433, 52.0707551 ], [ 4.5384078, 52.07077 ], [ 4.5383621, 52.0707993 ], [ 4.5383455, 52.0708104 ], [ 4.5382169, 52.0708978 ], [ 4.5381934, 52.070913 ], [ 4.5381592, 52.0709357 ], [ 4.538135, 52.0709507 ], [ 4.5381091, 52.070965 ], [ 4.5380518, 52.0709915 ], [ 4.5380262, 52.0710017 ], [ 4.5379991, 52.071012 ], [ 4.5379756, 52.0710194 ], [ 4.5379166, 52.0710399 ], [ 4.5374086, 52.0712166 ], [ 4.5372889, 52.0712581 ], [ 4.5372463, 52.0712744 ], [ 4.5372043, 52.0712892 ], [ 4.5371543, 52.0713078 ], [ 4.5371057, 52.0713257 ], [ 4.5370617, 52.0713438 ], [ 4.5370229, 52.0713595 ], [ 4.5369793, 52.0713773 ], [ 4.536946, 52.0713921 ], [ 4.5369024, 52.07141 ], [ 4.5368609, 52.0714282 ], [ 4.5367952, 52.0714586 ], [ 4.5367622, 52.0714732 ], [ 4.5367364, 52.0714874 ], [ 4.5367071, 52.0715025 ], [ 4.5366695, 52.0715222 ], [ 4.5366347, 52.0715412 ], [ 4.536594, 52.0715632 ], [ 4.5365546, 52.071585 ], [ 4.5364881, 52.0716226 ], [ 4.5364466, 52.0716463 ], [ 4.5364093, 52.0716681 ], [ 4.5363851, 52.0716832 ], [ 4.5363566, 52.0716995 ], [ 4.5362995, 52.0717364 ], [ 4.5362697, 52.071757 ], [ 4.5362439, 52.0717746 ], [ 4.5362388, 52.0717781 ], [ 4.5362083, 52.0717994 ], [ 4.5361575, 52.0718378 ], [ 4.5361274, 52.0718595 ], [ 4.5361023, 52.0718792 ], [ 4.5360726, 52.0719024 ], [ 4.5360526, 52.0719184 ], [ 4.5360303, 52.0719369 ], [ 4.5360093, 52.0719534 ], [ 4.5359874, 52.0719697 ], [ 4.5359613, 52.0719863 ], [ 4.5359394, 52.072002 ], [ 4.5359205, 52.0720136 ], [ 4.5358975, 52.0720272 ], [ 4.5358762, 52.072039 ], [ 4.5356497, 52.0721468 ], [ 4.5354596, 52.0722372 ], [ 4.5348249, 52.072539 ], [ 4.5346853, 52.072603 ], [ 4.5346748, 52.0726078 ], [ 4.5340322, 52.0728986 ], [ 4.5340186, 52.0729047 ], [ 4.5339253, 52.0729469 ], [ 4.533695, 52.0730511 ], [ 4.5339192, 52.073265 ], [ 4.5341025, 52.0734398 ], [ 4.5351734, 52.074461 ], [ 4.5351686, 52.074463 ], [ 4.5350386, 52.0745162 ], [ 4.534816, 52.0746065 ], [ 4.534846, 52.0746354 ], [ 4.5349027, 52.07469 ], [ 4.5339042, 52.0752151 ], [ 4.5342136, 52.0756053 ], [ 4.5343288, 52.0756885 ], [ 4.5349011, 52.0761021 ], [ 4.5356652, 52.0766527 ], [ 4.5360474, 52.0769281 ], [ 4.5356235, 52.0771531 ], [ 4.5341512, 52.0779344 ], [ 4.5338269, 52.0781065 ], [ 4.5326364, 52.0787381 ], [ 4.5303106, 52.0799723 ], [ 4.5302873, 52.0799846 ], [ 4.5302764, 52.0799904 ], [ 4.5302686, 52.0799945 ], [ 4.5301035, 52.0800821 ], [ 4.5301844, 52.0801527 ], [ 4.5304996, 52.0804279 ], [ 4.53058, 52.080498 ], [ 4.5305552, 52.0805107 ], [ 4.5271766, 52.0822435 ], [ 4.5228269, 52.0844327 ], [ 4.5224709, 52.0846009 ], [ 4.5221034, 52.0847981 ], [ 4.521955, 52.0848659 ], [ 4.5217768, 52.0848702 ], [ 4.521238, 52.085093 ], [ 4.5188781, 52.0862891 ], [ 4.5159055, 52.0877594 ], [ 4.5158478, 52.0877581 ], [ 4.5157873, 52.0877327 ], [ 4.5148571, 52.0881845 ], [ 4.5149048, 52.0883516 ], [ 4.5146932, 52.0884576 ], [ 4.5142674, 52.0885871 ], [ 4.5141559, 52.0885875 ], [ 4.5140044, 52.0885472 ], [ 4.5138934, 52.0885699 ], [ 4.5131345, 52.0884452 ], [ 4.5123227, 52.0889056 ], [ 4.5117863, 52.0891954 ], [ 4.5109083, 52.0896426 ], [ 4.5101269, 52.0900281 ], [ 4.509249, 52.0905079 ], [ 4.5083534, 52.090955 ], [ 4.5079649, 52.0911122 ], [ 4.5077623, 52.0912336 ], [ 4.5073453, 52.0915531 ], [ 4.5062289, 52.0921118 ], [ 4.5053344, 52.092517 ], [ 4.5051773, 52.0926127 ], [ 4.504896, 52.0928442 ], [ 4.5044497, 52.0932903 ], [ 4.5033655, 52.0928604 ], [ 4.5022717, 52.0925265 ], [ 4.501321, 52.0921386 ], [ 4.5010067, 52.092049 ], [ 4.5007193, 52.0919807 ], [ 4.5005207, 52.0919113 ], [ 4.4999859, 52.0916725 ], [ 4.49989, 52.0915844 ], [ 4.4996693, 52.0910383 ], [ 4.4996012, 52.0909508 ], [ 4.4993302, 52.0906875 ], [ 4.4991394, 52.0903544 ], [ 4.499067, 52.0900801 ], [ 4.4990784, 52.0899001 ], [ 4.4990628, 52.0897814 ], [ 4.4988993, 52.0894228 ], [ 4.4989798, 52.0892922 ], [ 4.4992306, 52.0890089 ], [ 4.4994441, 52.0887307 ], [ 4.4994449, 52.0886554 ], [ 4.4993679, 52.0884599 ], [ 4.4993138, 52.0883877 ], [ 4.4991797, 52.0883073 ], [ 4.497806, 52.0878376 ], [ 4.4927379, 52.0899156 ], [ 4.4925325, 52.0899853 ], [ 4.492413, 52.090013 ], [ 4.492219, 52.0900098 ], [ 4.4922404, 52.0899409 ], [ 4.49301, 52.0877747 ], [ 4.4930181, 52.0877519 ], [ 4.4791365, 52.0859195 ], [ 4.4742748, 52.0852607 ], [ 4.4751453, 52.0828011 ], [ 4.4756599, 52.0812963 ], [ 4.4740839, 52.0811106 ], [ 4.473528, 52.0810011 ], [ 4.4731302, 52.0809416 ], [ 4.472599, 52.0808839 ], [ 4.4715084, 52.08071 ], [ 4.4709721, 52.0806809 ], [ 4.4704695, 52.0806083 ], [ 4.4697798, 52.0805349 ], [ 4.469015, 52.0804183 ], [ 4.4686109, 52.0803801 ], [ 4.4679245, 52.0802965 ], [ 4.4670842, 52.0801648 ], [ 4.4659822, 52.0800204 ], [ 4.4654399, 52.0799267 ], [ 4.4644332, 52.0798106 ], [ 4.4623079, 52.0795158 ], [ 4.4614571, 52.0794148 ], [ 4.4601312, 52.0792328 ], [ 4.4597502, 52.0791998 ], [ 4.4567521, 52.0788148 ], [ 4.4567787, 52.0786749 ], [ 4.4563137, 52.0786165 ], [ 4.4554625, 52.0783131 ], [ 4.4422899, 52.0724864 ], [ 4.4400645, 52.0714944 ], [ 4.4398439, 52.0713783 ], [ 4.4385751, 52.0708111 ], [ 4.4342481, 52.0689242 ], [ 4.4260737, 52.0653594 ], [ 4.4214043, 52.0633035 ], [ 4.4216307, 52.0630592 ], [ 4.4217117, 52.0628942 ], [ 4.4208325, 52.06258 ], [ 4.4207801, 52.0625613 ], [ 4.420777, 52.0625475 ], [ 4.420773, 52.0625338 ], [ 4.4207681, 52.0625202 ], [ 4.4207625, 52.0625067 ], [ 4.420756, 52.0624933 ], [ 4.4207488, 52.0624801 ], [ 4.4207314, 52.0624564 ], [ 4.420713, 52.0624329 ], [ 4.4206937, 52.0624097 ], [ 4.4206733, 52.0623869 ], [ 4.4206519, 52.0623644 ], [ 4.4206344, 52.062347 ], [ 4.420616, 52.06233 ], [ 4.4205967, 52.0623133 ], [ 4.4205767, 52.0622971 ], [ 4.4205557, 52.0622812 ], [ 4.4205383, 52.0622709 ], [ 4.4205201, 52.062261 ], [ 4.4205013, 52.0622518 ], [ 4.4204817, 52.062243 ], [ 4.4204615, 52.0622348 ], [ 4.4204407, 52.0622272 ], [ 4.4204194, 52.0622203 ], [ 4.4203956, 52.0622136 ], [ 4.4203715, 52.0622076 ], [ 4.420347, 52.0622021 ], [ 4.4203223, 52.0621972 ], [ 4.4202972, 52.0621928 ], [ 4.4203091, 52.062179 ], [ 4.4203202, 52.0621683 ], [ 4.4203317, 52.0621596 ], [ 4.4203513, 52.0621478 ], [ 4.4203693, 52.0621387 ], [ 4.4203877, 52.062131 ], [ 4.420405, 52.0621203 ], [ 4.420415, 52.0621121 ], [ 4.420424, 52.0621011 ], [ 4.4204383, 52.0620774 ], [ 4.4204995, 52.0619828 ], [ 4.4205157, 52.0619548 ], [ 4.4206514, 52.0615994 ], [ 4.4207538, 52.0613288 ], [ 4.4208075, 52.0611868 ], [ 4.4210815, 52.0604541 ], [ 4.4212858, 52.0599005 ], [ 4.4212981, 52.0598691 ], [ 4.4212967, 52.0598686 ], [ 4.4215995, 52.0591931 ], [ 4.4218916, 52.0585378 ], [ 4.421913, 52.0584899 ], [ 4.4220874, 52.0581005 ], [ 4.4220942, 52.0580855 ], [ 4.4222165, 52.0578142 ], [ 4.4223151, 52.0575954 ], [ 4.4223375, 52.0575457 ], [ 4.4223757, 52.0574574 ], [ 4.422395, 52.0574127 ], [ 4.422467, 52.0572464 ], [ 4.4224897, 52.057194 ], [ 4.4223511, 52.0572162 ], [ 4.422326, 52.0571978 ], [ 4.4222833, 52.0571936 ], [ 4.4214197, 52.0572672 ], [ 4.4206826, 52.0573276 ], [ 4.4206252, 52.0573006 ], [ 4.4204916, 52.0572317 ], [ 4.4201693, 52.0573205 ], [ 4.4195811, 52.0573264 ], [ 4.4195388, 52.0573268 ], [ 4.4174755, 52.0573438 ], [ 4.4159804, 52.0573571 ], [ 4.4161086, 52.0574247 ], [ 4.4161066, 52.0574248 ], [ 4.4153946, 52.0574413 ], [ 4.4153788, 52.0570744 ], [ 4.4152666, 52.0570277 ], [ 4.4152309, 52.0570129 ] ] ] } }
]
}
