{
"type": "FeatureCollection",
"name": "andorra-city_boundary",
"crs": { "type": "name", "properties": { "name": "urn:ogc:def:crs:EPSG::3857" } },
"features": [
{ "type": "Feature", "properties": { "bbox_west": 1.4077997, "bbox_south": 42.4288238, "bbox_east": 1.7868662, "bbox_north": 42.6559357, "place_id": 84363931, "osm_type": "relation", "osm_id": 9407, "lat": 42.5407167, "lon": 1.5732033, "class": "boundary", "type": "administrative", "place_rank": 4, "importance": 0.71882492182957969, "addresstype": "country", "name": "Andorra", "display_name": "Andorra" }, "geometry": { "type": "Polygon", "coordinates": [ [ [ 157161.0, 5234404.0 ], [ 157341.0, 5234609.0 ], [ 157600.0, 5234842.0 ], [ 157694.0, 5234938.0 ], [ 157748.0, 5234967.0 ], [ 157812.0, 5235040.0 ], [ 157876.0, 5235040.0 ], [ 158158.0, 5235056.0 ], [ 158373.0, 5235069.0 ], [ 158386.0, 5235082.0 ], [ 158476.0, 5235169.0 ], [ 158490.0, 5235166.0 ], [ 158539.0, 5235155.0 ], [ 158593.0, 5235152.0 ], [ 158613.0, 5235151.0 ], [ 158680.0, 5235145.0 ], [ 158719.0, 5235120.0 ], [ 158732.0, 5235112.0 ], [ 158873.0, 5235094.0 ], [ 158916.0, 5235107.0 ], [ 158938.0, 5235108.0 ], [ 159006.0, 5235086.0 ], [ 159106.0, 5235229.0 ], [ 159369.0, 5235232.0 ], [ 159370.0, 5235232.0 ], [ 159688.0, 5235269.0 ], [ 160030.0, 5235330.0 ], [ 160484.0, 5235436.0 ], [ 160704.0, 5235468.0 ], [ 160902.0, 5235695.0 ], [ 161633.0, 5236163.0 ], [ 161791.0, 5236377.0 ], [ 162017.0, 5236540.0 ], [ 162135.0, 5236670.0 ], [ 162218.0, 5236761.0 ], [ 162272.0, 5236798.0 ], [ 162305.0, 5236812.0 ], [ 162364.0, 5236834.0 ], [ 162375.0, 5236856.0 ], [ 162401.0, 5236850.0 ], [ 162451.0, 5236851.0 ], [ 162462.0, 5236851.0 ], [ 162563.0, 5236849.0 ], [ 162582.0, 5236902.0 ], [ 162606.0, 5236970.0 ], [ 162691.0, 5237066.0 ], [ 162804.0, 5237174.0 ], [ 163028.0, 5237372.0 ], [ 163287.0, 5237600.0 ], [ 163338.0, 5237624.0 ], [ 163462.0, 5237683.0 ], [ 163364.0, 5237915.0 ], [ 163264.0, 5238121.0 ], [ 163172.0, 5238315.0 ], [ 163012.0, 5238643.0 ], [ 162897.0, 5239069.0 ], [ 162556.0, 5239559.0 ], [ 162530.0, 5239631.0 ], [ 162521.0, 5239718.0 ], [ 162250.0, 5240040.0 ], [ 162169.0, 5240106.0 ], [ 162004.0, 5240166.0 ], [ 161954.0, 5240335.0 ], [ 161905.0, 5240431.0 ], [ 161769.0, 5240698.0 ], [ 161708.0, 5240804.0 ], [ 161639.0, 5240885.0 ], [ 161563.0, 5241138.0 ], [ 161544.0, 5241329.0 ], [ 161619.0, 5241410.0 ], [ 161663.0, 5241673.0 ], [ 161669.0, 5241693.0 ], [ 161705.0, 5241832.0 ], [ 161709.0, 5241882.0 ], [ 161696.0, 5241941.0 ], [ 161695.0, 5242021.0 ], [ 161632.0, 5242133.0 ], [ 161494.0, 5242227.0 ], [ 161072.0, 5242442.0 ], [ 160752.0, 5242605.0 ], [ 160624.0, 5242691.0 ], [ 160502.0, 5242739.0 ], [ 160374.0, 5242759.0 ], [ 160261.0, 5242773.0 ], [ 160150.0, 5242771.0 ], [ 160000.0, 5242720.0 ], [ 159941.0, 5242686.0 ], [ 159885.0, 5242636.0 ], [ 159764.0, 5242486.0 ], [ 159666.0, 5242399.0 ], [ 159526.0, 5242269.0 ], [ 159482.0, 5242227.0 ], [ 159300.0, 5242155.0 ], [ 159091.0, 5242107.0 ], [ 158791.0, 5242106.0 ], [ 158673.0, 5242084.0 ], [ 158632.0, 5242065.0 ], [ 158186.0, 5241756.0 ], [ 158147.0, 5241737.0 ], [ 157827.0, 5241582.0 ], [ 157645.0, 5241554.0 ], [ 157359.0, 5241517.0 ], [ 157392.0, 5241613.0 ], [ 157399.0, 5241728.0 ], [ 157412.0, 5241773.0 ], [ 157430.0, 5241836.0 ], [ 157442.0, 5241896.0 ], [ 157445.0, 5242059.0 ], [ 157448.0, 5242226.0 ], [ 157518.0, 5242329.0 ], [ 157557.0, 5242387.0 ], [ 157638.0, 5242503.0 ], [ 157661.0, 5242540.0 ], [ 157677.0, 5242566.0 ], [ 157719.0, 5242652.0 ], [ 157781.0, 5242758.0 ], [ 157911.0, 5242831.0 ], [ 157942.0, 5242869.0 ], [ 157981.0, 5242981.0 ], [ 158010.0, 5243021.0 ], [ 157991.0, 5243268.0 ], [ 157966.0, 5243542.0 ], [ 157993.0, 5243655.0 ], [ 158013.0, 5243667.0 ], [ 158132.0, 5243693.0 ], [ 158164.0, 5243723.0 ], [ 158170.0, 5243759.0 ], [ 158217.0, 5243868.0 ], [ 158330.0, 5244051.0 ], [ 158352.0, 5244162.0 ], [ 158363.0, 5244216.0 ], [ 158385.0, 5244273.0 ], [ 158412.0, 5244555.0 ], [ 158444.0, 5244620.0 ], [ 158486.0, 5244666.0 ], [ 158575.0, 5244786.0 ], [ 158656.0, 5244929.0 ], [ 158790.0, 5245015.0 ], [ 158963.0, 5245097.0 ], [ 159270.0, 5245319.0 ], [ 159385.0, 5245379.0 ], [ 159726.0, 5245558.0 ], [ 159810.0, 5245606.0 ], [ 159929.0, 5245705.0 ], [ 159973.0, 5245722.0 ], [ 160039.0, 5245732.0 ], [ 160307.0, 5245822.0 ], [ 160375.0, 5245866.0 ], [ 160422.0, 5245890.0 ], [ 160542.0, 5246048.0 ], [ 160579.0, 5246098.0 ], [ 160616.0, 5246148.0 ], [ 160682.0, 5246238.0 ], [ 160785.0, 5246332.0 ], [ 160854.0, 5246477.0 ], [ 160789.0, 5246572.0 ], [ 160734.0, 5246654.0 ], [ 160695.0, 5246788.0 ], [ 160697.0, 5246856.0 ], [ 160699.0, 5246953.0 ], [ 160680.0, 5247032.0 ], [ 160679.0, 5247040.0 ], [ 160423.0, 5247159.0 ], [ 160305.0, 5247170.0 ], [ 160011.0, 5247196.0 ], [ 159895.0, 5247230.0 ], [ 159876.0, 5247242.0 ], [ 159833.0, 5247270.0 ], [ 159618.0, 5247399.0 ], [ 159508.0, 5247503.0 ], [ 159496.0, 5247514.0 ], [ 159461.0, 5247548.0 ], [ 159387.0, 5247609.0 ], [ 159363.0, 5247773.0 ], [ 159261.0, 5247858.0 ], [ 159064.0, 5248147.0 ], [ 158982.0, 5248217.0 ], [ 158986.0, 5248274.0 ], [ 158945.0, 5248388.0 ], [ 158926.0, 5248442.0 ], [ 158914.0, 5248475.0 ], [ 158893.0, 5248533.0 ], [ 158874.0, 5248586.0 ], [ 158906.0, 5249004.0 ], [ 158902.0, 5249277.0 ], [ 158926.0, 5249388.0 ], [ 159080.0, 5249435.0 ], [ 159228.0, 5249434.0 ], [ 159459.0, 5249624.0 ], [ 159652.0, 5249811.0 ], [ 159840.0, 5250026.0 ], [ 160032.0, 5250043.0 ], [ 160121.0, 5250120.0 ], [ 160366.0, 5250444.0 ], [ 160358.0, 5250503.0 ], [ 160393.0, 5250698.0 ], [ 160473.0, 5250881.0 ], [ 160544.0, 5251042.0 ], [ 160612.0, 5251097.0 ], [ 160609.0, 5251263.0 ], [ 160619.0, 5251512.0 ], [ 160598.0, 5251701.0 ], [ 160522.0, 5251848.0 ], [ 160671.0, 5251818.0 ], [ 160931.0, 5251818.0 ], [ 161093.0, 5251849.0 ], [ 161211.0, 5251829.0 ], [ 161520.0, 5251643.0 ], [ 161721.0, 5251657.0 ], [ 161871.0, 5251672.0 ], [ 162100.0, 5251591.0 ], [ 162386.0, 5251789.0 ], [ 162472.0, 5252006.0 ], [ 162494.0, 5252017.0 ], [ 162602.0, 5252074.0 ], [ 162693.0, 5252139.0 ], [ 162878.0, 5252122.0 ], [ 162965.0, 5252265.0 ], [ 162974.0, 5252311.0 ], [ 163043.0, 5252331.0 ], [ 163184.0, 5252310.0 ], [ 163316.0, 5252275.0 ], [ 163348.0, 5252266.0 ], [ 163526.0, 5252262.0 ], [ 163694.0, 5252640.0 ], [ 163959.0, 5252811.0 ], [ 164183.0, 5253054.0 ], [ 164201.0, 5253155.0 ], [ 164201.0, 5253156.0 ], [ 164261.0, 5253215.0 ], [ 164375.0, 5253263.0 ], [ 164406.0, 5253320.0 ], [ 164479.0, 5253499.0 ], [ 164305.0, 5253770.0 ], [ 164197.0, 5254012.0 ], [ 164129.0, 5254307.0 ], [ 164036.0, 5254622.0 ], [ 163926.0, 5254713.0 ], [ 163871.0, 5254878.0 ], [ 163770.0, 5255022.0 ], [ 163704.0, 5255226.0 ], [ 163786.0, 5255557.0 ], [ 163762.0, 5255733.0 ], [ 163419.0, 5255957.0 ], [ 163579.0, 5256404.0 ], [ 163644.0, 5256742.0 ], [ 163675.0, 5256688.0 ], [ 163897.0, 5256832.0 ], [ 164029.0, 5256999.0 ], [ 164418.0, 5257432.0 ], [ 164501.0, 5257689.0 ], [ 164525.0, 5257873.0 ], [ 164414.0, 5258024.0 ], [ 164448.0, 5258192.0 ], [ 164473.0, 5258233.0 ], [ 164529.0, 5258367.0 ], [ 164620.0, 5258648.0 ], [ 164605.0, 5258689.0 ], [ 164616.0, 5258712.0 ], [ 164609.0, 5258750.0 ], [ 164597.0, 5258901.0 ], [ 164600.0, 5258989.0 ], [ 164617.0, 5259069.0 ], [ 164667.0, 5259071.0 ], [ 164762.0, 5259033.0 ], [ 165538.0, 5259140.0 ], [ 166190.0, 5259336.0 ], [ 166233.0, 5259347.0 ], [ 166284.0, 5259377.0 ], [ 166285.0, 5259376.0 ], [ 166602.0, 5258845.0 ], [ 166756.0, 5258567.0 ], [ 166908.0, 5258234.0 ], [ 167114.0, 5258164.0 ], [ 167715.0, 5258133.0 ], [ 168335.0, 5258248.0 ], [ 168414.0, 5258250.0 ], [ 168877.0, 5258222.0 ], [ 169063.0, 5258164.0 ], [ 169291.0, 5258342.0 ], [ 169449.0, 5258647.0 ], [ 169653.0, 5258785.0 ], [ 169784.0, 5258935.0 ], [ 170136.0, 5259122.0 ], [ 170517.0, 5258974.0 ], [ 170700.0, 5258812.0 ], [ 171019.0, 5258952.0 ], [ 171257.0, 5259223.0 ], [ 171621.0, 5259313.0 ], [ 171766.0, 5259443.0 ], [ 171971.0, 5259518.0 ], [ 172224.0, 5259610.0 ], [ 172454.0, 5259740.0 ], [ 172467.0, 5259748.0 ], [ 172570.0, 5259631.0 ], [ 172703.0, 5259562.0 ], [ 172763.0, 5259532.0 ], [ 172811.0, 5259508.0 ], [ 172817.0, 5259506.0 ], [ 172838.0, 5259496.0 ], [ 173198.0, 5259320.0 ], [ 173452.0, 5259159.0 ], [ 173566.0, 5259274.0 ], [ 173728.0, 5259374.0 ], [ 173913.0, 5259388.0 ], [ 174078.0, 5259277.0 ], [ 174250.0, 5259161.0 ], [ 174385.0, 5258995.0 ], [ 174416.0, 5258865.0 ], [ 174497.0, 5258791.0 ], [ 174585.0, 5258628.0 ], [ 174721.0, 5258562.0 ], [ 174912.0, 5258535.0 ], [ 175059.0, 5258557.0 ], [ 175220.0, 5258541.0 ], [ 175305.0, 5258537.0 ], [ 175298.0, 5258474.0 ], [ 175324.0, 5258415.0 ], [ 175423.0, 5258278.0 ], [ 175441.0, 5257830.0 ], [ 175503.0, 5257765.0 ], [ 175576.0, 5257722.0 ], [ 175664.0, 5257700.0 ], [ 175792.0, 5257624.0 ], [ 175810.0, 5257524.0 ], [ 175834.0, 5257447.0 ], [ 175798.0, 5257249.0 ], [ 175809.0, 5257196.0 ], [ 175804.0, 5257153.0 ], [ 175870.0, 5257072.0 ], [ 175881.0, 5256949.0 ], [ 175924.0, 5256856.0 ], [ 176003.0, 5256819.0 ], [ 176191.0, 5256673.0 ], [ 176251.0, 5256595.0 ], [ 176322.0, 5256536.0 ], [ 176335.0, 5256463.0 ], [ 176368.0, 5256418.0 ], [ 176459.0, 5256383.0 ], [ 176521.0, 5256346.0 ], [ 176570.0, 5256352.0 ], [ 176625.0, 5256389.0 ], [ 176768.0, 5256379.0 ], [ 176813.0, 5256352.0 ], [ 176896.0, 5256335.0 ], [ 176991.0, 5256345.0 ], [ 177066.0, 5256326.0 ], [ 177145.0, 5256337.0 ], [ 177207.0, 5256322.0 ], [ 177278.0, 5256324.0 ], [ 177298.0, 5256286.0 ], [ 177492.0, 5256218.0 ], [ 177520.0, 5256164.0 ], [ 177571.0, 5256115.0 ], [ 177619.0, 5255958.0 ], [ 177767.0, 5255842.0 ], [ 178154.0, 5255199.0 ], [ 178392.0, 5255148.0 ], [ 178543.0, 5255182.0 ], [ 178643.0, 5255333.0 ], [ 178831.0, 5255435.0 ], [ 179020.0, 5255590.0 ], [ 179084.0, 5255585.0 ], [ 179156.0, 5255606.0 ], [ 179276.0, 5255479.0 ], [ 179292.0, 5255424.0 ], [ 179373.0, 5255328.0 ], [ 179856.0, 5255329.0 ], [ 179953.0, 5255347.0 ], [ 180023.0, 5255306.0 ], [ 180053.0, 5255255.0 ], [ 180130.0, 5255213.0 ], [ 180165.0, 5255188.0 ], [ 180243.0, 5255181.0 ], [ 180322.0, 5255219.0 ], [ 180590.0, 5255455.0 ], [ 180778.0, 5255369.0 ], [ 181058.0, 5255316.0 ], [ 181291.0, 5255317.0 ], [ 181439.0, 5255406.0 ], [ 181502.0, 5255491.0 ], [ 181936.0, 5255717.0 ], [ 182244.0, 5255870.0 ], [ 182402.0, 5255603.0 ], [ 182492.0, 5255548.0 ], [ 182614.0, 5255566.0 ], [ 182809.0, 5255565.0 ], [ 183176.0, 5255486.0 ], [ 183195.0, 5255482.0 ], [ 183657.0, 5255383.0 ], [ 184028.0, 5255273.0 ], [ 184244.0, 5254980.0 ], [ 184275.0, 5254685.0 ], [ 184753.0, 5254384.0 ], [ 184853.0, 5254375.0 ], [ 184931.0, 5254282.0 ], [ 185014.0, 5254228.0 ], [ 185080.0, 5254229.0 ], [ 185143.0, 5254172.0 ], [ 185192.0, 5254177.0 ], [ 185225.0, 5254156.0 ], [ 185280.0, 5254214.0 ], [ 185362.0, 5254382.0 ], [ 185473.0, 5254472.0 ], [ 185647.0, 5254564.0 ], [ 185832.0, 5254510.0 ], [ 185990.0, 5254532.0 ], [ 186233.0, 5254478.0 ], [ 186421.0, 5254656.0 ], [ 186682.0, 5254678.0 ], [ 186848.0, 5254688.0 ], [ 186988.0, 5254927.0 ], [ 187070.0, 5255029.0 ], [ 187120.0, 5255048.0 ], [ 187166.0, 5255048.0 ], [ 187312.0, 5255048.0 ], [ 187400.0, 5255057.0 ], [ 187469.0, 5255034.0 ], [ 187665.0, 5254940.0 ], [ 187849.0, 5254906.0 ], [ 188021.0, 5254892.0 ], [ 188189.0, 5254817.0 ], [ 188216.0, 5254740.0 ], [ 188261.0, 5254719.0 ], [ 188323.0, 5254657.0 ], [ 188367.0, 5254609.0 ], [ 188414.0, 5254631.0 ], [ 188630.0, 5254694.0 ], [ 188632.0, 5254694.0 ], [ 188724.0, 5254685.0 ], [ 188864.0, 5254671.0 ], [ 188865.0, 5254671.0 ], [ 189084.0, 5254739.0 ], [ 189240.0, 5254694.0 ], [ 189338.0, 5254661.0 ], [ 189697.0, 5254311.0 ], [ 189850.0, 5254187.0 ], [ 190120.0, 5254032.0 ], [ 190502.0, 5253733.0 ], [ 190724.0, 5253553.0 ], [ 190968.0, 5253489.0 ], [ 191450.0, 5253579.0 ], [ 191626.0, 5253683.0 ], [ 191774.0, 5253815.0 ], [ 192609.0, 5253495.0 ], [ 192803.0, 5253508.0 ], [ 192943.0, 5253641.0 ], [ 193010.0, 5253745.0 ], [ 193145.0, 5253925.0 ], [ 193260.0, 5253983.0 ], [ 193263.0, 5253652.0 ], [ 193472.0, 5253184.0 ], [ 193519.0, 5253056.0 ], [ 193234.0, 5252706.0 ], [ 193211.0, 5252678.0 ], [ 193014.0, 5252429.0 ], [ 192974.0, 5252181.0 ], [ 192915.0, 5251817.0 ], [ 192606.0, 5251353.0 ], [ 192324.0, 5251436.0 ], [ 192251.0, 5250807.0 ], [ 192249.0, 5250063.0 ], [ 192171.0, 5249984.0 ], [ 192228.0, 5249755.0 ], [ 192228.0, 5249631.0 ], [ 192322.0, 5249511.0 ], [ 192434.0, 5249496.0 ], [ 192609.0, 5249466.0 ], [ 192761.0, 5249464.0 ], [ 192905.0, 5249517.0 ], [ 192996.0, 5249591.0 ], [ 193126.0, 5249492.0 ], [ 193373.0, 5249449.0 ], [ 193912.0, 5249451.0 ], [ 194275.0, 5249220.0 ], [ 194609.0, 5249029.0 ], [ 194788.0, 5248952.0 ], [ 195074.0, 5248651.0 ], [ 195260.0, 5248560.0 ], [ 195311.0, 5248666.0 ], [ 195422.0, 5248658.0 ], [ 195681.0, 5248587.0 ], [ 195925.0, 5248406.0 ], [ 195933.0, 5248400.0 ], [ 196846.0, 5248282.0 ], [ 197586.0, 5248478.0 ], [ 197748.0, 5248516.0 ], [ 197750.0, 5248517.0 ], [ 198140.0, 5248610.0 ], [ 198152.0, 5248612.0 ], [ 198280.0, 5248643.0 ], [ 198499.0, 5248554.0 ], [ 198736.0, 5247607.0 ], [ 198762.0, 5247563.0 ], [ 198794.0, 5247531.0 ], [ 198824.0, 5247504.0 ], [ 198852.0, 5247477.0 ], [ 198864.0, 5247468.0 ], [ 198906.0, 5247436.0 ], [ 198913.0, 5247431.0 ], [ 198891.0, 5247381.0 ], [ 198860.0, 5247346.0 ], [ 198809.0, 5247271.0 ], [ 198797.0, 5247248.0 ], [ 198779.0, 5247238.0 ], [ 198755.0, 5247243.0 ], [ 198729.0, 5247247.0 ], [ 198713.0, 5247240.0 ], [ 198713.0, 5247224.0 ], [ 198716.0, 5247205.0 ], [ 198722.0, 5247166.0 ], [ 198719.0, 5247143.0 ], [ 198717.0, 5247129.0 ], [ 198701.0, 5247102.0 ], [ 198693.0, 5247097.0 ], [ 198648.0, 5247070.0 ], [ 198571.0, 5247061.0 ], [ 198526.0, 5247041.0 ], [ 198457.0, 5246990.0 ], [ 198391.0, 5246944.0 ], [ 198367.0, 5246906.0 ], [ 198353.0, 5246866.0 ], [ 198344.0, 5246835.0 ], [ 198317.0, 5246816.0 ], [ 198279.0, 5246807.0 ], [ 198260.0, 5246804.0 ], [ 198253.0, 5246799.0 ], [ 198229.0, 5246784.0 ], [ 198221.0, 5246766.0 ], [ 198208.0, 5246745.0 ], [ 198173.0, 5246726.0 ], [ 198114.0, 5246687.0 ], [ 198043.0, 5246652.0 ], [ 198006.0, 5246622.0 ], [ 197988.0, 5246600.0 ], [ 197972.0, 5246573.0 ], [ 197907.0, 5246552.0 ], [ 197889.0, 5246543.0 ], [ 197870.0, 5246544.0 ], [ 197841.0, 5246535.0 ], [ 197814.0, 5246520.0 ], [ 197811.0, 5246496.0 ], [ 197799.0, 5246459.0 ], [ 197774.0, 5246447.0 ], [ 197729.0, 5246420.0 ], [ 197695.0, 5246418.0 ], [ 197670.0, 5246430.0 ], [ 197633.0, 5246438.0 ], [ 197615.0, 5246437.0 ], [ 197604.0, 5246436.0 ], [ 197593.0, 5246427.0 ], [ 197592.0, 5246384.0 ], [ 197595.0, 5246341.0 ], [ 197587.0, 5246328.0 ], [ 197534.0, 5246283.0 ], [ 197512.0, 5246279.0 ], [ 197489.0, 5246272.0 ], [ 197471.0, 5246255.0 ], [ 197462.0, 5246232.0 ], [ 197433.0, 5246222.0 ], [ 197410.0, 5246197.0 ], [ 197392.0, 5246176.0 ], [ 197362.0, 5246173.0 ], [ 197343.0, 5246175.0 ], [ 197315.0, 5246189.0 ], [ 197300.0, 5246186.0 ], [ 197272.0, 5246171.0 ], [ 197235.0, 5246164.0 ], [ 197205.0, 5246179.0 ], [ 197186.0, 5246205.0 ], [ 197161.0, 5246203.0 ], [ 197151.0, 5246187.0 ], [ 197159.0, 5246154.0 ], [ 197155.0, 5246135.0 ], [ 197135.0, 5246108.0 ], [ 197105.0, 5246102.0 ], [ 197073.0, 5246097.0 ], [ 197062.0, 5246079.0 ], [ 197058.0, 5246046.0 ], [ 197027.0, 5246016.0 ], [ 197012.0, 5245999.0 ], [ 197011.0, 5245980.0 ], [ 196994.0, 5245969.0 ], [ 196966.0, 5245965.0 ], [ 196920.0, 5245977.0 ], [ 196885.0, 5245973.0 ], [ 196865.0, 5245952.0 ], [ 196845.0, 5245939.0 ], [ 196819.0, 5245922.0 ], [ 196794.0, 5245927.0 ], [ 196777.0, 5245939.0 ], [ 196763.0, 5245956.0 ], [ 196737.0, 5245997.0 ], [ 196723.0, 5246009.0 ], [ 196708.0, 5246008.0 ], [ 196656.0, 5246000.0 ], [ 196606.0, 5245993.0 ], [ 196575.0, 5245995.0 ], [ 196553.0, 5246002.0 ], [ 196542.0, 5246021.0 ], [ 196542.0, 5246029.0 ], [ 196541.0, 5246054.0 ], [ 196529.0, 5246067.0 ], [ 196504.0, 5246076.0 ], [ 196484.0, 5246078.0 ], [ 196454.0, 5246064.0 ], [ 196421.0, 5246051.0 ], [ 196408.0, 5246063.0 ], [ 196389.0, 5246081.0 ], [ 196372.0, 5246084.0 ], [ 196356.0, 5246081.0 ], [ 196349.0, 5246071.0 ], [ 196337.0, 5246054.0 ], [ 196315.0, 5246050.0 ], [ 196267.0, 5246041.0 ], [ 196249.0, 5246044.0 ], [ 196228.0, 5246057.0 ], [ 196212.0, 5246059.0 ], [ 196188.0, 5246043.0 ], [ 196153.0, 5246013.0 ], [ 196142.0, 5246011.0 ], [ 196119.0, 5246018.0 ], [ 196112.0, 5246025.0 ], [ 196081.0, 5246046.0 ], [ 196051.0, 5246046.0 ], [ 196018.0, 5246035.0 ], [ 195984.0, 5246025.0 ], [ 195938.0, 5246040.0 ], [ 195882.0, 5246053.0 ], [ 195840.0, 5246053.0 ], [ 195809.0, 5246027.0 ], [ 195780.0, 5246000.0 ], [ 195747.0, 5245998.0 ], [ 195718.0, 5245982.0 ], [ 195671.0, 5245966.0 ], [ 195634.0, 5245980.0 ], [ 195609.0, 5245997.0 ], [ 195587.0, 5246001.0 ], [ 195556.0, 5245983.0 ], [ 195533.0, 5245971.0 ], [ 195501.0, 5245977.0 ], [ 195446.0, 5246014.0 ], [ 195422.0, 5246004.0 ], [ 195378.0, 5245988.0 ], [ 195350.0, 5246003.0 ], [ 195327.0, 5246000.0 ], [ 195286.0, 5245974.0 ], [ 195243.0, 5245976.0 ], [ 195214.0, 5245975.0 ], [ 195185.0, 5245947.0 ], [ 195149.0, 5245931.0 ], [ 195124.0, 5245901.0 ], [ 195099.0, 5245886.0 ], [ 195046.0, 5245873.0 ], [ 194975.0, 5245884.0 ], [ 194960.0, 5245857.0 ], [ 194944.0, 5245844.0 ], [ 194915.0, 5245854.0 ], [ 194879.0, 5245871.0 ], [ 194847.0, 5245860.0 ], [ 194799.0, 5245808.0 ], [ 194786.0, 5245750.0 ], [ 194751.0, 5245711.0 ], [ 194697.0, 5245708.0 ], [ 194637.0, 5245706.0 ], [ 194598.0, 5245718.0 ], [ 194577.0, 5245663.0 ], [ 194534.0, 5245649.0 ], [ 194485.0, 5245634.0 ], [ 194474.0, 5245600.0 ], [ 194453.0, 5245591.0 ], [ 194451.0, 5245579.0 ], [ 194462.0, 5245542.0 ], [ 194443.0, 5245527.0 ], [ 194382.0, 5245484.0 ], [ 194319.0, 5245436.0 ], [ 194268.0, 5245416.0 ], [ 194243.0, 5245392.0 ], [ 194267.0, 5245338.0 ], [ 194270.0, 5245315.0 ], [ 194238.0, 5245294.0 ], [ 194240.0, 5245280.0 ], [ 194235.0, 5245264.0 ], [ 194198.0, 5245261.0 ], [ 194192.0, 5245235.0 ], [ 194175.0, 5245210.0 ], [ 194127.0, 5245184.0 ], [ 194101.0, 5245161.0 ], [ 194100.0, 5245134.0 ], [ 194087.0, 5245116.0 ], [ 194067.0, 5245102.0 ], [ 194054.0, 5245086.0 ], [ 194058.0, 5245024.0 ], [ 194051.0, 5245014.0 ], [ 194021.0, 5245011.0 ], [ 194010.0, 5244999.0 ], [ 194024.0, 5244976.0 ], [ 193987.0, 5244967.0 ], [ 193937.0, 5244973.0 ], [ 193926.0, 5244953.0 ], [ 193924.0, 5244912.0 ], [ 193916.0, 5244871.0 ], [ 193907.0, 5244852.0 ], [ 193878.0, 5244850.0 ], [ 193849.0, 5244862.0 ], [ 193808.0, 5244839.0 ], [ 193780.0, 5244790.0 ], [ 193772.0, 5244786.0 ], [ 193732.0, 5244764.0 ], [ 193699.0, 5244768.0 ], [ 193673.0, 5244761.0 ], [ 193660.0, 5244745.0 ], [ 193664.0, 5244720.0 ], [ 193686.0, 5244696.0 ], [ 193694.0, 5244664.0 ], [ 193683.0, 5244636.0 ], [ 193590.0, 5244597.0 ], [ 193576.0, 5244578.0 ], [ 193576.0, 5244569.0 ], [ 193593.0, 5244558.0 ], [ 193556.0, 5244489.0 ], [ 193524.0, 5244417.0 ], [ 193474.0, 5244368.0 ], [ 193482.0, 5244323.0 ], [ 193510.0, 5244297.0 ], [ 193520.0, 5244276.0 ], [ 193520.0, 5244246.0 ], [ 193506.0, 5244191.0 ], [ 193488.0, 5244172.0 ], [ 193475.0, 5244140.0 ], [ 193441.0, 5244047.0 ], [ 193419.0, 5244026.0 ], [ 193371.0, 5244003.0 ], [ 193357.0, 5243991.0 ], [ 193363.0, 5243972.0 ], [ 193349.0, 5243949.0 ], [ 193352.0, 5243907.0 ], [ 193364.0, 5243884.0 ], [ 193356.0, 5243874.0 ], [ 193293.0, 5243844.0 ], [ 193272.0, 5243811.0 ], [ 193237.0, 5243765.0 ], [ 193213.0, 5243729.0 ], [ 193191.0, 5243719.0 ], [ 193179.0, 5243713.0 ], [ 193171.0, 5243706.0 ], [ 193141.0, 5243732.0 ], [ 193133.0, 5243720.0 ], [ 193077.0, 5243577.0 ], [ 193090.0, 5243549.0 ], [ 193119.0, 5243484.0 ], [ 193150.0, 5243513.0 ], [ 193191.0, 5243541.0 ], [ 193225.0, 5243561.0 ], [ 193251.0, 5243574.0 ], [ 193306.0, 5243594.0 ], [ 193317.0, 5243645.0 ], [ 193323.0, 5243652.0 ], [ 193331.0, 5243658.0 ], [ 193348.0, 5243668.0 ], [ 193401.0, 5243663.0 ], [ 193431.0, 5243660.0 ], [ 193455.0, 5243657.0 ], [ 193464.0, 5243656.0 ], [ 193460.0, 5243635.0 ], [ 193434.0, 5243619.0 ], [ 193427.0, 5243610.0 ], [ 193417.0, 5243593.0 ], [ 193417.0, 5243591.0 ], [ 193416.0, 5243588.0 ], [ 193416.0, 5243585.0 ], [ 193416.0, 5243583.0 ], [ 193416.0, 5243580.0 ], [ 193417.0, 5243577.0 ], [ 193418.0, 5243574.0 ], [ 193419.0, 5243572.0 ], [ 193420.0, 5243569.0 ], [ 193421.0, 5243567.0 ], [ 193423.0, 5243565.0 ], [ 193431.0, 5243553.0 ], [ 193437.0, 5243543.0 ], [ 193448.0, 5243519.0 ], [ 193447.0, 5243508.0 ], [ 193444.0, 5243508.0 ], [ 193391.0, 5243518.0 ], [ 193383.0, 5243520.0 ], [ 193335.0, 5243530.0 ], [ 193284.0, 5243511.0 ], [ 193268.0, 5243504.0 ], [ 193247.0, 5243491.0 ], [ 193205.0, 5243462.0 ], [ 193179.0, 5243446.0 ], [ 193142.0, 5243418.0 ], [ 193131.0, 5243406.0 ], [ 193116.0, 5243386.0 ], [ 193103.0, 5243362.0 ], [ 193100.0, 5243352.0 ], [ 193105.0, 5243331.0 ], [ 193111.0, 5243315.0 ], [ 193115.0, 5243306.0 ], [ 193120.0, 5243295.0 ], [ 193133.0, 5243276.0 ], [ 193153.0, 5243251.0 ], [ 193160.0, 5243242.0 ], [ 193183.0, 5243214.0 ], [ 193188.0, 5243205.0 ], [ 193192.0, 5243194.0 ], [ 193195.0, 5243177.0 ], [ 193195.0, 5243160.0 ], [ 193183.0, 5243087.0 ], [ 193182.0, 5243062.0 ], [ 193187.0, 5243016.0 ], [ 193194.0, 5242979.0 ], [ 193197.0, 5242957.0 ], [ 193197.0, 5242954.0 ], [ 193197.0, 5242952.0 ], [ 193197.0, 5242948.0 ], [ 193196.0, 5242944.0 ], [ 193195.0, 5242942.0 ], [ 193194.0, 5242939.0 ], [ 193193.0, 5242936.0 ], [ 193191.0, 5242933.0 ], [ 193188.0, 5242929.0 ], [ 193176.0, 5242915.0 ], [ 193154.0, 5242886.0 ], [ 193143.0, 5242872.0 ], [ 193141.0, 5242863.0 ], [ 193142.0, 5242848.0 ], [ 193148.0, 5242823.0 ], [ 193151.0, 5242810.0 ], [ 193152.0, 5242799.0 ], [ 193152.0, 5242791.0 ], [ 193153.0, 5242781.0 ], [ 193156.0, 5242774.0 ], [ 193161.0, 5242770.0 ], [ 193164.0, 5242769.0 ], [ 193172.0, 5242767.0 ], [ 193180.0, 5242765.0 ], [ 193188.0, 5242763.0 ], [ 193194.0, 5242759.0 ], [ 193198.0, 5242754.0 ], [ 193206.0, 5242744.0 ], [ 193211.0, 5242734.0 ], [ 193212.0, 5242731.0 ], [ 193213.0, 5242729.0 ], [ 193215.0, 5242722.0 ], [ 193216.0, 5242709.0 ], [ 193212.0, 5242674.0 ], [ 193204.0, 5242643.0 ], [ 193187.0, 5242627.0 ], [ 193166.0, 5242624.0 ], [ 193159.0, 5242618.0 ], [ 193149.0, 5242600.0 ], [ 193139.0, 5242588.0 ], [ 193104.0, 5242553.0 ], [ 193068.0, 5242527.0 ], [ 193056.0, 5242517.0 ], [ 193036.0, 5242469.0 ], [ 193030.0, 5242450.0 ], [ 193032.0, 5242429.0 ], [ 193042.0, 5242415.0 ], [ 193038.0, 5242389.0 ], [ 193031.0, 5242376.0 ], [ 193026.0, 5242346.0 ], [ 193031.0, 5242333.0 ], [ 193047.0, 5242327.0 ], [ 193077.0, 5242285.0 ], [ 193076.0, 5242272.0 ], [ 193068.0, 5242253.0 ], [ 193060.0, 5242231.0 ], [ 193064.0, 5242208.0 ], [ 193061.0, 5242193.0 ], [ 193054.0, 5242175.0 ], [ 193042.0, 5242154.0 ], [ 193039.0, 5242131.0 ], [ 193040.0, 5242126.0 ], [ 193040.0, 5242103.0 ], [ 193037.0, 5242087.0 ], [ 193031.0, 5242082.0 ], [ 193014.0, 5242082.0 ], [ 193006.0, 5242081.0 ], [ 192989.0, 5242067.0 ], [ 192972.0, 5242033.0 ], [ 192977.0, 5241983.0 ], [ 192972.0, 5241959.0 ], [ 192973.0, 5241946.0 ], [ 192986.0, 5241934.0 ], [ 192998.0, 5241928.0 ], [ 193015.0, 5241907.0 ], [ 193017.0, 5241887.0 ], [ 193004.0, 5241869.0 ], [ 192989.0, 5241847.0 ], [ 192991.0, 5241832.0 ], [ 192993.0, 5241808.0 ], [ 193003.0, 5241783.0 ], [ 193019.0, 5241766.0 ], [ 193039.0, 5241764.0 ], [ 193049.0, 5241756.0 ], [ 193054.0, 5241732.0 ], [ 193067.0, 5241726.0 ], [ 193076.0, 5241694.0 ], [ 193076.0, 5241669.0 ], [ 193061.0, 5241637.0 ], [ 193065.0, 5241621.0 ], [ 193074.0, 5241590.0 ], [ 193072.0, 5241567.0 ], [ 193071.0, 5241541.0 ], [ 193068.0, 5241530.0 ], [ 193053.0, 5241465.0 ], [ 193073.0, 5241422.0 ], [ 193073.0, 5241391.0 ], [ 193087.0, 5241377.0 ], [ 193094.0, 5241322.0 ], [ 193124.0, 5241261.0 ], [ 193096.0, 5241224.0 ], [ 193082.0, 5241196.0 ], [ 193060.0, 5241153.0 ], [ 193055.0, 5241104.0 ], [ 193044.0, 5241089.0 ], [ 192990.0, 5241046.0 ], [ 192983.0, 5241029.0 ], [ 192991.0, 5241006.0 ], [ 192991.0, 5240980.0 ], [ 192977.0, 5240934.0 ], [ 192972.0, 5240894.0 ], [ 192938.0, 5240854.0 ], [ 192937.0, 5240848.0 ], [ 192928.0, 5240800.0 ], [ 192930.0, 5240755.0 ], [ 192951.0, 5240717.0 ], [ 192965.0, 5240710.0 ], [ 192965.0, 5240610.0 ], [ 192982.0, 5240387.0 ], [ 192959.0, 5240318.0 ], [ 192936.0, 5240248.0 ], [ 192887.0, 5240250.0 ], [ 192845.0, 5240252.0 ], [ 192844.0, 5240262.0 ], [ 192841.0, 5240277.0 ], [ 192805.0, 5240504.0 ], [ 192765.0, 5240544.0 ], [ 192748.0, 5240534.0 ], [ 192731.0, 5240498.0 ], [ 192732.0, 5240450.0 ], [ 192726.0, 5240370.0 ], [ 192690.0, 5240282.0 ], [ 192650.0, 5240215.0 ], [ 192650.0, 5240202.0 ], [ 192651.0, 5240179.0 ], [ 192648.0, 5240172.0 ], [ 192545.0, 5240103.0 ], [ 192523.0, 5240065.0 ], [ 192480.0, 5239999.0 ], [ 192458.0, 5239904.0 ], [ 192447.0, 5239590.0 ], [ 192548.0, 5239255.0 ], [ 192356.0, 5239117.0 ], [ 192314.0, 5238993.0 ], [ 192202.0, 5238960.0 ], [ 192056.0, 5239018.0 ], [ 191839.0, 5238919.0 ], [ 191959.0, 5238829.0 ], [ 192054.0, 5238666.0 ], [ 192051.0, 5238530.0 ], [ 192094.0, 5238417.0 ], [ 192131.0, 5237892.0 ], [ 192156.0, 5237777.0 ], [ 192101.0, 5237421.0 ], [ 192117.0, 5236980.0 ], [ 192125.0, 5236581.0 ], [ 191870.0, 5236199.0 ], [ 191483.0, 5235824.0 ], [ 190844.0, 5235371.0 ], [ 190509.0, 5235005.0 ], [ 190289.0, 5234900.0 ], [ 190067.0, 5234824.0 ], [ 189924.0, 5234730.0 ], [ 189839.0, 5234684.0 ], [ 189737.0, 5234630.0 ], [ 189671.0, 5234594.0 ], [ 189611.0, 5234609.0 ], [ 189530.0, 5234653.0 ], [ 189484.0, 5234678.0 ], [ 189309.0, 5234824.0 ], [ 189069.0, 5234811.0 ], [ 188576.0, 5235048.0 ], [ 188423.0, 5235118.0 ], [ 188237.0, 5235253.0 ], [ 188134.0, 5235269.0 ], [ 187987.0, 5235376.0 ], [ 187751.0, 5235480.0 ], [ 187683.0, 5235502.0 ], [ 187647.0, 5235501.0 ], [ 187300.0, 5235346.0 ], [ 187218.0, 5235318.0 ], [ 187148.0, 5235304.0 ], [ 187002.0, 5235347.0 ], [ 186958.0, 5235371.0 ], [ 186815.0, 5235365.0 ], [ 186668.0, 5235360.0 ], [ 186567.0, 5235356.0 ], [ 186309.0, 5235324.0 ], [ 185874.0, 5235269.0 ], [ 185786.0, 5235179.0 ], [ 185711.0, 5235101.0 ], [ 185227.0, 5235108.0 ], [ 185152.0, 5235061.0 ], [ 185098.0, 5234966.0 ], [ 185104.0, 5234936.0 ], [ 185041.0, 5234688.0 ], [ 185049.0, 5234530.0 ], [ 185051.0, 5234432.0 ], [ 184994.0, 5233775.0 ], [ 185006.0, 5233719.0 ], [ 185157.0, 5233385.0 ], [ 185151.0, 5233132.0 ], [ 184885.0, 5233006.0 ], [ 184959.0, 5232751.0 ], [ 185004.0, 5232678.0 ], [ 185089.0, 5232477.0 ], [ 185056.0, 5232364.0 ], [ 185068.0, 5232246.0 ], [ 185048.0, 5232218.0 ], [ 184997.0, 5232149.0 ], [ 184813.0, 5231994.0 ], [ 184698.0, 5231868.0 ], [ 184658.0, 5231807.0 ], [ 184541.0, 5231510.0 ], [ 184505.0, 5231458.0 ], [ 184459.0, 5231411.0 ], [ 184406.0, 5231378.0 ], [ 184076.0, 5231240.0 ], [ 183778.0, 5231210.0 ], [ 183633.0, 5231220.0 ], [ 183535.0, 5231246.0 ], [ 183353.0, 5231401.0 ], [ 183312.0, 5231441.0 ], [ 183253.0, 5231447.0 ], [ 183204.0, 5231461.0 ], [ 183125.0, 5231444.0 ], [ 182965.0, 5231286.0 ], [ 182876.0, 5231220.0 ], [ 182845.0, 5231161.0 ], [ 182816.0, 5231149.0 ], [ 182622.0, 5231129.0 ], [ 182282.0, 5231275.0 ], [ 182138.0, 5231357.0 ], [ 182012.0, 5231224.0 ], [ 181930.0, 5231205.0 ], [ 181770.0, 5231105.0 ], [ 181732.0, 5231041.0 ], [ 181712.0, 5230977.0 ], [ 181667.0, 5230701.0 ], [ 181634.0, 5230606.0 ], [ 181638.0, 5230551.0 ], [ 181595.0, 5230593.0 ], [ 181555.0, 5230610.0 ], [ 181518.0, 5230640.0 ], [ 181490.0, 5230686.0 ], [ 181434.0, 5230737.0 ], [ 181356.0, 5230779.0 ], [ 181293.0, 5230795.0 ], [ 181254.0, 5230767.0 ], [ 181176.0, 5230751.0 ], [ 181096.0, 5230756.0 ], [ 180947.0, 5230873.0 ], [ 180713.0, 5230970.0 ], [ 180623.0, 5230993.0 ], [ 180549.0, 5230997.0 ], [ 180401.0, 5230961.0 ], [ 180212.0, 5230847.0 ], [ 180010.0, 5230885.0 ], [ 179971.0, 5230891.0 ], [ 179806.0, 5230906.0 ], [ 179768.0, 5230935.0 ], [ 179682.0, 5230935.0 ], [ 179528.0, 5230934.0 ], [ 179472.0, 5230944.0 ], [ 179387.0, 5230887.0 ], [ 179281.0, 5230932.0 ], [ 179258.0, 5230894.0 ], [ 179198.0, 5230857.0 ], [ 179137.0, 5230831.0 ], [ 178825.0, 5230796.0 ], [ 178759.0, 5230852.0 ], [ 178722.0, 5230859.0 ], [ 178646.0, 5230905.0 ], [ 178614.0, 5230917.0 ], [ 178532.0, 5230973.0 ], [ 178307.0, 5231068.0 ], [ 178268.0, 5231109.0 ], [ 178176.0, 5231167.0 ], [ 178116.0, 5231181.0 ], [ 177970.0, 5231290.0 ], [ 177926.0, 5231298.0 ], [ 177845.0, 5231286.0 ], [ 177764.0, 5231239.0 ], [ 177669.0, 5231136.0 ], [ 177529.0, 5231025.0 ], [ 177253.0, 5230847.0 ], [ 177035.0, 5230653.0 ], [ 176932.0, 5230594.0 ], [ 176788.0, 5230535.0 ], [ 176632.0, 5230399.0 ], [ 176568.0, 5230312.0 ], [ 176516.0, 5230210.0 ], [ 176500.0, 5230003.0 ], [ 176399.0, 5229799.0 ], [ 176354.0, 5229710.0 ], [ 176345.0, 5229679.0 ], [ 176315.0, 5229666.0 ], [ 176317.0, 5229644.0 ], [ 176305.0, 5229620.0 ], [ 176288.0, 5229611.0 ], [ 176284.0, 5229580.0 ], [ 176285.0, 5229531.0 ], [ 176265.0, 5229436.0 ], [ 176181.0, 5229190.0 ], [ 176159.0, 5229061.0 ], [ 176125.0, 5228947.0 ], [ 176087.0, 5228866.0 ], [ 176018.0, 5228657.0 ], [ 175757.0, 5228610.0 ], [ 175617.0, 5228641.0 ], [ 175504.0, 5228803.0 ], [ 175358.0, 5228879.0 ], [ 175269.0, 5228940.0 ], [ 175014.0, 5229232.0 ], [ 174984.0, 5229284.0 ], [ 174922.0, 5229464.0 ], [ 174891.0, 5229516.0 ], [ 174792.0, 5229609.0 ], [ 174771.0, 5229643.0 ], [ 174727.0, 5229757.0 ], [ 174598.0, 5229900.0 ], [ 174488.0, 5229967.0 ], [ 174436.0, 5229983.0 ], [ 174368.0, 5229976.0 ], [ 174318.0, 5229957.0 ], [ 174262.0, 5229918.0 ], [ 174030.0, 5229856.0 ], [ 173843.0, 5229938.0 ], [ 173785.0, 5229933.0 ], [ 173761.0, 5229866.0 ], [ 173700.0, 5229829.0 ], [ 173491.0, 5229540.0 ], [ 173445.0, 5229476.0 ], [ 173369.0, 5229381.0 ], [ 173331.0, 5229294.0 ], [ 173326.0, 5229219.0 ], [ 173337.0, 5229156.0 ], [ 173424.0, 5229059.0 ], [ 173443.0, 5228988.0 ], [ 173490.0, 5228948.0 ], [ 173520.0, 5228905.0 ], [ 173554.0, 5228739.0 ], [ 173677.0, 5228525.0 ], [ 173674.0, 5228470.0 ], [ 173659.0, 5228422.0 ], [ 173622.0, 5228371.0 ], [ 173600.0, 5228294.0 ], [ 173592.0, 5228211.0 ], [ 173651.0, 5228139.0 ], [ 173660.0, 5228024.0 ], [ 173643.0, 5227814.0 ], [ 173384.0, 5227503.0 ], [ 172999.0, 5227146.0 ], [ 172911.0, 5227011.0 ], [ 172922.0, 5226820.0 ], [ 172848.0, 5226475.0 ], [ 172908.0, 5226379.0 ], [ 172872.0, 5226184.0 ], [ 172838.0, 5226132.0 ], [ 172666.0, 5226005.0 ], [ 172588.0, 5226041.0 ], [ 172496.0, 5226043.0 ], [ 172337.0, 5226099.0 ], [ 172131.0, 5226021.0 ], [ 172095.0, 5226017.0 ], [ 171961.0, 5226005.0 ], [ 171936.0, 5226003.0 ], [ 171892.0, 5225999.0 ], [ 171713.0, 5225969.0 ], [ 171540.0, 5225939.0 ], [ 171382.0, 5226066.0 ], [ 171320.0, 5226074.0 ], [ 171235.0, 5226059.0 ], [ 171000.0, 5225996.0 ], [ 170873.0, 5225985.0 ], [ 170476.0, 5225978.0 ], [ 170264.0, 5225975.0 ], [ 169888.0, 5225893.0 ], [ 169668.0, 5225778.0 ], [ 169538.0, 5225776.0 ], [ 169297.0, 5225759.0 ], [ 169168.0, 5225766.0 ], [ 169076.0, 5225756.0 ], [ 169027.0, 5225731.0 ], [ 168875.0, 5225523.0 ], [ 168792.0, 5225450.0 ], [ 168733.0, 5225433.0 ], [ 168409.0, 5225445.0 ], [ 168140.0, 5225541.0 ], [ 168048.0, 5225592.0 ], [ 167904.0, 5225571.0 ], [ 167794.0, 5225596.0 ], [ 167695.0, 5225683.0 ], [ 167557.0, 5225716.0 ], [ 167418.0, 5225846.0 ], [ 166649.0, 5226063.0 ], [ 166542.0, 5226084.0 ], [ 166381.0, 5226096.0 ], [ 165356.0, 5226056.0 ], [ 165335.0, 5226047.0 ], [ 165290.0, 5226031.0 ], [ 165032.0, 5226087.0 ], [ 164860.0, 5226179.0 ], [ 164722.0, 5226213.0 ], [ 164660.0, 5226223.0 ], [ 164587.0, 5226240.0 ], [ 164470.0, 5226308.0 ], [ 164364.0, 5226371.0 ], [ 164330.0, 5226395.0 ], [ 164295.0, 5226403.0 ], [ 164262.0, 5226404.0 ], [ 164236.0, 5226400.0 ], [ 164210.0, 5226397.0 ], [ 164147.0, 5226389.0 ], [ 164103.0, 5226398.0 ], [ 164062.0, 5226406.0 ], [ 164018.0, 5226404.0 ], [ 163983.0, 5226392.0 ], [ 163968.0, 5226392.0 ], [ 163959.0, 5226401.0 ], [ 163953.0, 5226407.0 ], [ 163947.0, 5226412.0 ], [ 163942.0, 5226418.0 ], [ 163914.0, 5226447.0 ], [ 163570.0, 5226471.0 ], [ 162779.0, 5226532.0 ], [ 162514.0, 5226524.0 ], [ 162286.0, 5226516.0 ], [ 162150.0, 5226463.0 ], [ 161990.0, 5226525.0 ], [ 161681.0, 5226663.0 ], [ 161418.0, 5226816.0 ], [ 161105.0, 5227035.0 ], [ 160782.0, 5227287.0 ], [ 160726.0, 5227469.0 ], [ 160647.0, 5227638.0 ], [ 160631.0, 5227672.0 ], [ 160588.0, 5227829.0 ], [ 160702.0, 5227796.0 ], [ 160856.0, 5227748.0 ], [ 160887.0, 5227739.0 ], [ 161057.0, 5227688.0 ], [ 160966.0, 5227867.0 ], [ 160916.0, 5227967.0 ], [ 160892.0, 5228117.0 ], [ 160894.0, 5228122.0 ], [ 160920.0, 5228208.0 ], [ 160991.0, 5228357.0 ], [ 160754.0, 5228631.0 ], [ 160715.0, 5228677.0 ], [ 160498.0, 5228876.0 ], [ 160478.0, 5228938.0 ], [ 160528.0, 5229048.0 ], [ 160510.0, 5229197.0 ], [ 160461.0, 5229428.0 ], [ 160504.0, 5229510.0 ], [ 160668.0, 5229697.0 ], [ 160752.0, 5229755.0 ], [ 160880.0, 5229876.0 ], [ 160958.0, 5229931.0 ], [ 160986.0, 5229990.0 ], [ 161063.0, 5230067.0 ], [ 161132.0, 5230156.0 ], [ 161104.0, 5230225.0 ], [ 160856.0, 5230383.0 ], [ 160803.0, 5230421.0 ], [ 160626.0, 5230578.0 ], [ 160356.0, 5230706.0 ], [ 160314.0, 5230795.0 ], [ 160366.0, 5231025.0 ], [ 160375.0, 5231275.0 ], [ 160359.0, 5231595.0 ], [ 160324.0, 5231825.0 ], [ 160345.0, 5232017.0 ], [ 160437.0, 5232335.0 ], [ 160439.0, 5232399.0 ], [ 160415.0, 5232472.0 ], [ 160277.0, 5232609.0 ], [ 159610.0, 5233299.0 ], [ 159564.0, 5233422.0 ], [ 159329.0, 5233523.0 ], [ 159004.0, 5233499.0 ], [ 158762.0, 5233516.0 ], [ 158443.0, 5233540.0 ], [ 158099.0, 5233570.0 ], [ 157684.0, 5233629.0 ], [ 157571.0, 5233796.0 ], [ 157309.0, 5233788.0 ], [ 157083.0, 5233695.0 ], [ 156806.0, 5233810.0 ], [ 156804.0, 5233990.0 ], [ 156716.0, 5234105.0 ], [ 157161.0, 5234404.0 ] ] ] } }
]
}
