{
"type": "FeatureCollection",
"name": "andorra-grid",
"crs": { "type": "name", "properties": { "name": "urn:ogc:def:crs:EPSG::3857" } },
"features": [
{ "type": "Feature", "properties": { "osmid": 3670518487.0 }, "geometry": { "type": "Point", "coordinates": [ 178711.0, 5254614.0 ] } },
{ "type": "Feature", "properties": { "osmid": 11222624463.0 }, "geometry": { "type": "Point", "coordinates": [ 186035.0, 5252436.0 ] } },
{ "type": "Feature", "properties": { "osmid": 53319705.0 }, "geometry": { "type": "Point", "coordinates": [ 168706.0, 5242452.0 ] } },
{ "type": "Feature", "properties": { "osmid": 894259189.0 }, "geometry": { "type": "Point", "coordinates": [ 177124.0, 5243910.0 ] } },
{ "type": "Feature", "properties": { "osmid": 52263669.0 }, "geometry": { "type": "Point", "coordinates": [ 167707.0, 5228425.0 ] } },
{ "type": "Feature", "properties": { "osmid": 2186958702.0 }, "geometry": { "type": "Point", "coordinates": [ 173076.0, 5227650.0 ] } },
{ "type": "Feature", "properties": { "osmid": 6666497150.0 }, "geometry": { "type": "Point", "coordinates": [ 170086.0, 5244412.0 ] } },
{ "type": "Feature", "properties": { "osmid": 7796359204.0 }, "geometry": { "type": "Point", "coordinates": [ 166481.0, 5245522.0 ] } },
{ "type": "Feature", "properties": { "osmid": 11248934236.0 }, "geometry": { "type": "Point", "coordinates": [ 171763.0, 5244751.0 ] } },
{ "type": "Feature", "properties": { "osmid": 4229732565.0 }, "geometry": { "type": "Point", "coordinates": [ 162712.0, 5227552.0 ] } },
{ "type": "Feature", "properties": { "osmid": 3846295899.0 }, "geometry": { "type": "Point", "coordinates": [ 186109.0, 5242092.0 ] } },
{ "type": "Feature", "properties": { "osmid": 2565225101.0 }, "geometry": { "type": "Point", "coordinates": [ 184632.0, 5250419.0 ] } },
{ "type": "Feature", "properties": { "osmid": 1367865575.0 }, "geometry": { "type": "Point", "coordinates": [ 176921.0, 5235282.0 ] } },
{ "type": "Feature", "properties": { "osmid": 321679568.0 }, "geometry": { "type": "Point", "coordinates": [ 175498.0, 5233246.0 ] } },
{ "type": "Feature", "properties": { "osmid": 4235071402.0 }, "geometry": { "type": "Point", "coordinates": [ 161454.0, 5234251.0 ] } },
{ "type": "Feature", "properties": { "osmid": 1922592477.0 }, "geometry": { "type": "Point", "coordinates": [ 166508.0, 5235101.0 ] } },
{ "type": "Feature", "properties": { "osmid": 3405895873.0 }, "geometry": { "type": "Point", "coordinates": [ 169941.0, 5235685.0 ] } },
{ "type": "Feature", "properties": { "osmid": 7647392496.0 }, "geometry": { "type": "Point", "coordinates": [ 179359.0, 5240908.0 ] } },
{ "type": "Feature", "properties": { "osmid": 51930500.0 }, "geometry": { "type": "Point", "coordinates": [ 176600.0, 5247292.0 ] } },
{ "type": "Feature", "properties": { "osmid": 2423079870.0 }, "geometry": { "type": "Point", "coordinates": [ 169752.0, 5246144.0 ] } },
{ "type": "Feature", "properties": { "osmid": 5167538017.0 }, "geometry": { "type": "Point", "coordinates": [ 164239.0, 5248567.0 ] } },
{ "type": "Feature", "properties": { "osmid": 3143415098.0 }, "geometry": { "type": "Point", "coordinates": [ 177332.0, 5252707.0 ] } },
{ "type": "Feature", "properties": { "osmid": 3378368634.0 }, "geometry": { "type": "Point", "coordinates": [ 185509.0, 5245485.0 ] } },
{ "type": "Feature", "properties": { "osmid": 2418165546.0 }, "geometry": { "type": "Point", "coordinates": [ 188430.0, 5239055.0 ] } },
{ "type": "Feature", "properties": { "osmid": 6643256430.0 }, "geometry": { "type": "Point", "coordinates": [ 169635.0, 5227028.0 ] } },
{ "type": "Feature", "properties": { "osmid": 11913301100.0 }, "geometry": { "type": "Point", "coordinates": [ 168111.0, 5256202.0 ] } },
{ "type": "Feature", "properties": { "osmid": 11105754133.0 }, "geometry": { "type": "Point", "coordinates": [ 166796.0, 5243775.0 ] } },
{ "type": "Feature", "properties": { "osmid": 4314075359.0 }, "geometry": { "type": "Point", "coordinates": [ 165032.0, 5253870.0 ] } },
{ "type": "Feature", "properties": { "osmid": 4314075416.0 }, "geometry": { "type": "Point", "coordinates": [ 164714.0, 5255692.0 ] } },
{ "type": "Feature", "properties": { "osmid": 5331843683.0 }, "geometry": { "type": "Point", "coordinates": [ 166304.0, 5226347.0 ] } },
{ "type": "Feature", "properties": { "osmid": 52322475.0 }, "geometry": { "type": "Point", "coordinates": [ 167056.0, 5231828.0 ] } },
{ "type": "Feature", "properties": { "osmid": 10087089308.0 }, "geometry": { "type": "Point", "coordinates": [ 192952.0, 5243228.0 ] } },
{ "type": "Feature", "properties": { "osmid": 3907021289.0 }, "geometry": { "type": "Point", "coordinates": [ 182169.0, 5255166.0 ] } },
{ "type": "Feature", "properties": { "osmid": 3658865171.0 }, "geometry": { "type": "Point", "coordinates": [ 170797.0, 5249750.0 ] } },
{ "type": "Feature", "properties": { "osmid": 2204960461.0 }, "geometry": { "type": "Point", "coordinates": [ 171180.0, 5229068.0 ] } },
{ "type": "Feature", "properties": { "osmid": 10920225230.0 }, "geometry": { "type": "Point", "coordinates": [ 173090.0, 5237983.0 ] } },
{ "type": "Feature", "properties": { "osmid": 7626981213.0 }, "geometry": { "type": "Point", "coordinates": [ 161873.0, 5232664.0 ] } },
{ "type": "Feature", "properties": { "osmid": 8914768173.0 }, "geometry": { "type": "Point", "coordinates": [ 164262.0, 5257238.0 ] } },
{ "type": "Feature", "properties": { "osmid": 3870463588.0 }, "geometry": { "type": "Point", "coordinates": [ 176900.0, 5245725.0 ] } },
{ "type": "Feature", "properties": { "osmid": 9716984566.0 }, "geometry": { "type": "Point", "coordinates": [ 169140.0, 5240713.0 ] } },
{ "type": "Feature", "properties": { "osmid": 12188839624.0 }, "geometry": { "type": "Point", "coordinates": [ 181456.0, 5248121.0 ] } },
{ "type": "Feature", "properties": { "osmid": 9806946286.0 }, "geometry": { "type": "Point", "coordinates": [ 179989.0, 5248000.0 ] } },
{ "type": "Feature", "properties": { "osmid": 3748126268.0 }, "geometry": { "type": "Point", "coordinates": [ 170689.0, 5251339.0 ] } },
{ "type": "Feature", "properties": { "osmid": 3378338267.0 }, "geometry": { "type": "Point", "coordinates": [ 187176.0, 5245577.0 ] } },
{ "type": "Feature", "properties": { "osmid": 1922638419.0 }, "geometry": { "type": "Point", "coordinates": [ 183304.0, 5248342.0 ] } },
{ "type": "Feature", "properties": { "osmid": 3965381784.0 }, "geometry": { "type": "Point", "coordinates": [ 177275.0, 5242291.0 ] } },
{ "type": "Feature", "properties": { "osmid": 3160100131.0 }, "geometry": { "type": "Point", "coordinates": [ 178879.0, 5244370.0 ] } },
{ "type": "Feature", "properties": { "osmid": 9025875302.0 }, "geometry": { "type": "Point", "coordinates": [ 189646.0, 5242643.0 ] } },
{ "type": "Feature", "properties": { "osmid": 2204961409.0 }, "geometry": { "type": "Point", "coordinates": [ 169035.0, 5230525.0 ] } },
{ "type": "Feature", "properties": { "osmid": 12201390111.0 }, "geometry": { "type": "Point", "coordinates": [ 185075.0, 5248690.0 ] } },
{ "type": "Feature", "properties": { "osmid": 9889480325.0 }, "geometry": { "type": "Point", "coordinates": [ 158438.0, 5242488.0 ] } },
{ "type": "Feature", "properties": { "osmid": 52812447.0 }, "geometry": { "type": "Point", "coordinates": [ 186489.0, 5250745.0 ] } },
{ "type": "Feature", "properties": { "osmid": 9025875260.0 }, "geometry": { "type": "Point", "coordinates": [ 188236.0, 5240776.0 ] } },
{ "type": "Feature", "properties": { "osmid": 3733323378.0 }, "geometry": { "type": "Point", "coordinates": [ 191589.0, 5239572.0 ] } },
{ "type": "Feature", "properties": { "osmid": 3276744410.0 }, "geometry": { "type": "Point", "coordinates": [ 170549.0, 5240978.0 ] } },
{ "type": "Feature", "properties": { "osmid": 2163870026.0 }, "geometry": { "type": "Point", "coordinates": [ 176881.0, 5254222.0 ] } },
{ "type": "Feature", "properties": { "osmid": 3378338717.0 }, "geometry": { "type": "Point", "coordinates": [ 185059.0, 5247084.0 ] } },
{ "type": "Feature", "properties": { "osmid": 1894342408.0 }, "geometry": { "type": "Point", "coordinates": [ 182895.0, 5239852.0 ] } },
{ "type": "Feature", "properties": { "osmid": 12093789890.0 }, "geometry": { "type": "Point", "coordinates": [ 187745.0, 5242525.0 ] } },
{ "type": "Feature", "properties": { "osmid": 3659451985.0 }, "geometry": { "type": "Point", "coordinates": [ 173423.0, 5255586.0 ] } },
{ "type": "Feature", "properties": { "osmid": 8764581777.0 }, "geometry": { "type": "Point", "coordinates": [ 163561.0, 5243167.0 ] } },
{ "type": "Feature", "properties": { "osmid": 9064120616.0 }, "geometry": { "type": "Point", "coordinates": [ 164003.0, 5239689.0 ] } },
{ "type": "Feature", "properties": { "osmid": 1922592392.0 }, "geometry": { "type": "Point", "coordinates": [ 174161.0, 5239967.0 ] } },
{ "type": "Feature", "properties": { "osmid": 3956239190.0 }, "geometry": { "type": "Point", "coordinates": [ 164767.0, 5236550.0 ] } },
{ "type": "Feature", "properties": { "osmid": 3947875259.0 }, "geometry": { "type": "Point", "coordinates": [ 169527.0, 5256413.0 ] } },
{ "type": "Feature", "properties": { "osmid": 11098914884.0 }, "geometry": { "type": "Point", "coordinates": [ 160973.0, 5246467.0 ] } },
{ "type": "Feature", "properties": { "osmid": 51973260.0 }, "geometry": { "type": "Point", "coordinates": [ 176247.0, 5240290.0 ] } },
{ "type": "Feature", "properties": { "osmid": 13146885495.0 }, "geometry": { "type": "Point", "coordinates": [ 192603.0, 5253480.0 ] } },
{ "type": "Feature", "properties": { "osmid": 2204964606.0 }, "geometry": { "type": "Point", "coordinates": [ 189800.0, 5249773.0 ] } },
{ "type": "Feature", "properties": { "osmid": 52579121.0 }, "geometry": { "type": "Point", "coordinates": [ 164012.0, 5229706.0 ] } },
{ "type": "Feature", "properties": { "osmid": 9815275548.0 }, "geometry": { "type": "Point", "coordinates": [ 174276.0, 5241636.0 ] } },
{ "type": "Feature", "properties": { "osmid": 7796376757.0 }, "geometry": { "type": "Point", "coordinates": [ 167970.0, 5245662.0 ] } },
{ "type": "Feature", "properties": { "osmid": 3659031545.0 }, "geometry": { "type": "Point", "coordinates": [ 168623.0, 5233547.0 ] } },
{ "type": "Feature", "properties": { "osmid": 3655214782.0 }, "geometry": { "type": "Point", "coordinates": [ 191637.0, 5241417.0 ] } },
{ "type": "Feature", "properties": { "osmid": 8863068519.0 }, "geometry": { "type": "Point", "coordinates": [ 171910.0, 5243196.0 ] } },
{ "type": "Feature", "properties": { "osmid": 3139635903.0 }, "geometry": { "type": "Point", "coordinates": [ 173030.0, 5236301.0 ] } },
{ "type": "Feature", "properties": { "osmid": 3316624913.0 }, "geometry": { "type": "Point", "coordinates": [ 184036.0, 5245279.0 ] } },
{ "type": "Feature", "properties": { "osmid": 52804002.0 }, "geometry": { "type": "Point", "coordinates": [ 182443.0, 5251939.0 ] } },
{ "type": "Feature", "properties": { "osmid": 3378368624.0 }, "geometry": { "type": "Point", "coordinates": [ 185873.0, 5243975.0 ] } },
{ "type": "Feature", "properties": { "osmid": 3887356614.0 }, "geometry": { "type": "Point", "coordinates": [ 187660.0, 5254445.0 ] } },
{ "type": "Feature", "properties": { "osmid": 12853576378.0 }, "geometry": { "type": "Point", "coordinates": [ 179248.0, 5242755.0 ] } },
{ "type": "Feature", "properties": { "osmid": 9214491242.0 }, "geometry": { "type": "Point", "coordinates": [ 170156.0, 5255026.0 ] } },
{ "type": "Feature", "properties": { "osmid": 9215023070.0 }, "geometry": { "type": "Point", "coordinates": [ 168147.0, 5235168.0 ] } },
{ "type": "Feature", "properties": { "osmid": 10087236552.0 }, "geometry": { "type": "Point", "coordinates": [ 173135.0, 5248498.0 ] } },
{ "type": "Feature", "properties": { "osmid": 51973491.0 }, "geometry": { "type": "Point", "coordinates": [ 177957.0, 5240731.0 ] } },
{ "type": "Feature", "properties": { "osmid": 2423110758.0 }, "geometry": { "type": "Point", "coordinates": [ 162984.0, 5245198.0 ] } },
{ "type": "Feature", "properties": { "osmid": 3406287104.0 }, "geometry": { "type": "Point", "coordinates": [ 159788.0, 5242826.0 ] } },
{ "type": "Feature", "properties": { "osmid": 4313073280.0 }, "geometry": { "type": "Point", "coordinates": [ 172717.0, 5231150.0 ] } },
{ "type": "Feature", "properties": { "osmid": 51951879.0 }, "geometry": { "type": "Point", "coordinates": [ 166616.0, 5255772.0 ] } },
{ "type": "Feature", "properties": { "osmid": 9859119325.0 }, "geometry": { "type": "Point", "coordinates": [ 190056.0, 5238992.0 ] } },
{ "type": "Feature", "properties": { "osmid": 3745203182.0 }, "geometry": { "type": "Point", "coordinates": [ 165809.0, 5227941.0 ] } },
{ "type": "Feature", "properties": { "osmid": 12887038929.0 }, "geometry": { "type": "Point", "coordinates": [ 184142.0, 5241763.0 ] } },
{ "type": "Feature", "properties": { "osmid": 2565304751.0 }, "geometry": { "type": "Point", "coordinates": [ 191211.0, 5243247.0 ] } },
{ "type": "Feature", "properties": { "osmid": 366578014.0 }, "geometry": { "type": "Point", "coordinates": [ 174071.0, 5243329.0 ] } },
{ "type": "Feature", "properties": { "osmid": 2369811567.0 }, "geometry": { "type": "Point", "coordinates": [ 161830.0, 5241011.0 ] } },
{ "type": "Feature", "properties": { "osmid": 11024884176.0 }, "geometry": { "type": "Point", "coordinates": [ 175429.0, 5245177.0 ] } },
{ "type": "Feature", "properties": { "osmid": 5143799373.0 }, "geometry": { "type": "Point", "coordinates": [ 162702.0, 5229143.0 ] } },
{ "type": "Feature", "properties": { "osmid": 9713081162.0 }, "geometry": { "type": "Point", "coordinates": [ 169630.0, 5239053.0 ] } },
{ "type": "Feature", "properties": { "osmid": 2758542231.0 }, "geometry": { "type": "Point", "coordinates": [ 168137.0, 5236874.0 ] } },
{ "type": "Feature", "properties": { "osmid": 2186959781.0 }, "geometry": { "type": "Point", "coordinates": [ 171919.0, 5232483.0 ] } },
{ "type": "Feature", "properties": { "osmid": 321679332.0 }, "geometry": { "type": "Point", "coordinates": [ 174265.0, 5231582.0 ] } },
{ "type": "Feature", "properties": { "osmid": 3658842707.0 }, "geometry": { "type": "Point", "coordinates": [ 175321.0, 5252317.0 ] } },
{ "type": "Feature", "properties": { "osmid": 12049747390.0 }, "geometry": { "type": "Point", "coordinates": [ 181684.0, 5237479.0 ] } },
{ "type": "Feature", "properties": { "osmid": 3378337253.0 }, "geometry": { "type": "Point", "coordinates": [ 183823.0, 5243407.0 ] } },
{ "type": "Feature", "properties": { "osmid": 3658843056.0 }, "geometry": { "type": "Point", "coordinates": [ 174589.0, 5250320.0 ] } },
{ "type": "Feature", "properties": { "osmid": 366076606.0 }, "geometry": { "type": "Point", "coordinates": [ 165509.0, 5248878.0 ] } },
{ "type": "Feature", "properties": { "osmid": 5740750859.0 }, "geometry": { "type": "Point", "coordinates": [ 173120.0, 5258835.0 ] } },
{ "type": "Feature", "properties": { "osmid": 1889149689.0 }, "geometry": { "type": "Point", "coordinates": [ 182430.0, 5253872.0 ] } },
{ "type": "Feature", "properties": { "osmid": 3748126254.0 }, "geometry": { "type": "Point", "coordinates": [ 187177.0, 5243925.0 ] } },
{ "type": "Feature", "properties": { "osmid": 1889149367.0 }, "geometry": { "type": "Point", "coordinates": [ 180741.0, 5253579.0 ] } },
{ "type": "Feature", "properties": { "osmid": 3406046705.0 }, "geometry": { "type": "Point", "coordinates": [ 179793.0, 5249867.0 ] } },
{ "type": "Feature", "properties": { "osmid": 2008251200.0 }, "geometry": { "type": "Point", "coordinates": [ 182760.0, 5233058.0 ] } },
{ "type": "Feature", "properties": { "osmid": 52205070.0 }, "geometry": { "type": "Point", "coordinates": [ 164644.0, 5247215.0 ] } },
{ "type": "Feature", "properties": { "osmid": 3747000049.0 }, "geometry": { "type": "Point", "coordinates": [ 163330.0, 5234215.0 ] } },
{ "type": "Feature", "properties": { "osmid": 12328879963.0 }, "geometry": { "type": "Point", "coordinates": [ 165397.0, 5243391.0 ] } },
{ "type": "Feature", "properties": { "osmid": 5167437610.0 }, "geometry": { "type": "Point", "coordinates": [ 160572.0, 5248269.0 ] } },
{ "type": "Feature", "properties": { "osmid": 3629405775.0 }, "geometry": { "type": "Point", "coordinates": [ 170794.0, 5258270.0 ] } },
{ "type": "Feature", "properties": { "osmid": 51929858.0 }, "geometry": { "type": "Point", "coordinates": [ 173504.0, 5244659.0 ] } },
{ "type": "Feature", "properties": { "osmid": 2189431115.0 }, "geometry": { "type": "Point", "coordinates": [ 166602.0, 5252407.0 ] } },
{ "type": "Feature", "properties": { "osmid": 2188740468.0 }, "geometry": { "type": "Point", "coordinates": [ 184695.0, 5238534.0 ] } },
{ "type": "Feature", "properties": { "osmid": 1832214253.0 }, "geometry": { "type": "Point", "coordinates": [ 191188.0, 5244822.0 ] } },
{ "type": "Feature", "properties": { "osmid": 3378338682.0 }, "geometry": { "type": "Point", "coordinates": [ 183363.0, 5246486.0 ] } },
{ "type": "Feature", "properties": { "osmid": 12694676816.0 }, "geometry": { "type": "Point", "coordinates": [ 162419.0, 5246554.0 ] } },
{ "type": "Feature", "properties": { "osmid": 8592736502.0 }, "geometry": { "type": "Point", "coordinates": [ 161750.0, 5230737.0 ] } },
{ "type": "Feature", "properties": { "osmid": 3887636947.0 }, "geometry": { "type": "Point", "coordinates": [ 181796.0, 5244796.0 ] } },
{ "type": "Feature", "properties": { "osmid": 3659094415.0 }, "geometry": { "type": "Point", "coordinates": [ 165752.0, 5257360.0 ] } },
{ "type": "Feature", "properties": { "osmid": 3651082969.0 }, "geometry": { "type": "Point", "coordinates": [ 172057.0, 5255021.0 ] } },
{ "type": "Feature", "properties": { "osmid": 3953329535.0 }, "geometry": { "type": "Point", "coordinates": [ 165262.0, 5240156.0 ] } },
{ "type": "Feature", "properties": { "osmid": 3143427998.0 }, "geometry": { "type": "Point", "coordinates": [ 178857.0, 5253301.0 ] } },
{ "type": "Feature", "properties": { "osmid": 1367751624.0 }, "geometry": { "type": "Point", "coordinates": [ 167917.0, 5247885.0 ] } },
{ "type": "Feature", "properties": { "osmid": 277377767.0 }, "geometry": { "type": "Point", "coordinates": [ 174268.0, 5248955.0 ] } },
{ "type": "Feature", "properties": { "osmid": 3953384168.0 }, "geometry": { "type": "Point", "coordinates": [ 160242.0, 5232653.0 ] } },
{ "type": "Feature", "properties": { "osmid": 4314074735.0 }, "geometry": { "type": "Point", "coordinates": [ 160697.0, 5250034.0 ] } },
{ "type": "Feature", "properties": { "osmid": 7677958121.0 }, "geometry": { "type": "Point", "coordinates": [ 182251.0, 5235830.0 ] } },
{ "type": "Feature", "properties": { "osmid": 3904343900.0 }, "geometry": { "type": "Point", "coordinates": [ 163190.0, 5252065.0 ] } },
{ "type": "Feature", "properties": { "osmid": 8863068552.0 }, "geometry": { "type": "Point", "coordinates": [ 170243.0, 5242371.0 ] } },
{ "type": "Feature", "properties": { "osmid": 3658842922.0 }, "geometry": { "type": "Point", "coordinates": [ 171996.0, 5252051.0 ] } },
{ "type": "Feature", "properties": { "osmid": 3405894628.0 }, "geometry": { "type": "Point", "coordinates": [ 170386.0, 5233671.0 ] } },
{ "type": "Feature", "properties": { "osmid": 9813830363.0 }, "geometry": { "type": "Point", "coordinates": [ 178234.0, 5247164.0 ] } },
{ "type": "Feature", "properties": { "osmid": 2188739950.0 }, "geometry": { "type": "Point", "coordinates": [ 185524.0, 5237104.0 ] } },
{ "type": "Feature", "properties": { "osmid": 1473162187.0 }, "geometry": { "type": "Point", "coordinates": [ 167055.0, 5240806.0 ] } },
{ "type": "Feature", "properties": { "osmid": 3750383649.0 }, "geometry": { "type": "Point", "coordinates": [ 165859.0, 5250879.0 ] } },
{ "type": "Feature", "properties": { "osmid": 1889150824.0 }, "geometry": { "type": "Point", "coordinates": [ 180824.0, 5254802.0 ] } },
{ "type": "Feature", "properties": { "osmid": 3378336631.0 }, "geometry": { "type": "Point", "coordinates": [ 189371.0, 5241135.0 ] } },
{ "type": "Feature", "properties": { "osmid": 9724338874.0 }, "geometry": { "type": "Point", "coordinates": [ 171149.0, 5239809.0 ] } },
{ "type": "Feature", "properties": { "osmid": 2188740773.0 }, "geometry": { "type": "Point", "coordinates": [ 186429.0, 5239038.0 ] } },
{ "type": "Feature", "properties": { "osmid": 5292726149.0 }, "geometry": { "type": "Point", "coordinates": [ 164730.0, 5227549.0 ] } },
{ "type": "Feature", "properties": { "osmid": 7728593092.0 }, "geometry": { "type": "Point", "coordinates": [ 186552.0, 5247668.0 ] } },
{ "type": "Feature", "properties": { "osmid": 9856983826.0 }, "geometry": { "type": "Point", "coordinates": [ 188025.0, 5251513.0 ] } },
{ "type": "Feature", "properties": { "osmid": 321679164.0 }, "geometry": { "type": "Point", "coordinates": [ 174095.0, 5229884.0 ] } },
{ "type": "Feature", "properties": { "osmid": 2670024591.0 }, "geometry": { "type": "Point", "coordinates": [ 180647.0, 5233690.0 ] } },
{ "type": "Feature", "properties": { "osmid": 276993930.0 }, "geometry": { "type": "Point", "coordinates": [ 174051.0, 5259280.0 ] } },
{ "type": "Feature", "properties": { "osmid": 3671517544.0 }, "geometry": { "type": "Point", "coordinates": [ 185268.0, 5254182.0 ] } },
{ "type": "Feature", "properties": { "osmid": 3629302677.0 }, "geometry": { "type": "Point", "coordinates": [ 169863.0, 5258019.0 ] } },
{ "type": "Feature", "properties": { "osmid": 10116676091.0 }, "geometry": { "type": "Point", "coordinates": [ 177102.0, 5236986.0 ] } },
{ "type": "Feature", "properties": { "osmid": 12070279503.0 }, "geometry": { "type": "Point", "coordinates": [ 179835.0, 5235966.0 ] } },
{ "type": "Feature", "properties": { "osmid": 482124370.0 }, "geometry": { "type": "Point", "coordinates": [ 167975.0, 5254198.0 ] } },
{ "type": "Feature", "properties": { "osmid": 4505206320.0 }, "geometry": { "type": "Point", "coordinates": [ 168590.0, 5250802.0 ] } },
{ "type": "Feature", "properties": { "osmid": 3854395740.0 }, "geometry": { "type": "Point", "coordinates": [ 177643.0, 5239205.0 ] } },
{ "type": "Feature", "properties": { "osmid": 4314074947.0 }, "geometry": { "type": "Point", "coordinates": [ 162206.0, 5250457.0 ] } },
{ "type": "Feature", "properties": { "osmid": 2418165402.0 }, "geometry": { "type": "Point", "coordinates": [ 190344.0, 5238093.0 ] } },
{ "type": "Feature", "properties": { "osmid": 4314075269.0 }, "geometry": { "type": "Point", "coordinates": [ 164987.0, 5252648.0 ] } },
{ "type": "Feature", "properties": { "osmid": 5287339578.0 }, "geometry": { "type": "Point", "coordinates": [ 163955.0, 5232742.0 ] } },
{ "type": "Feature", "properties": { "osmid": 3893057737.0 }, "geometry": { "type": "Point", "coordinates": [ 185932.0, 5240370.0 ] } },
{ "type": "Feature", "properties": { "osmid": 4235462236.0 }, "geometry": { "type": "Point", "coordinates": [ 165544.0, 5233469.0 ] } },
{ "type": "Feature", "properties": { "osmid": 51386346.0 }, "geometry": { "type": "Point", "coordinates": [ 165532.0, 5229227.0 ] } },
{ "type": "Feature", "properties": { "osmid": 10920169085.0 }, "geometry": { "type": "Point", "coordinates": [ 165389.0, 5228705.0 ] } },
{ "type": "Feature", "properties": { "osmid": 10920212698.0 }, "geometry": { "type": "Point", "coordinates": [ 165633.0, 5229886.0 ] } },
{ "type": "Feature", "properties": { "osmid": 10920200707.0 }, "geometry": { "type": "Point", "coordinates": [ 164994.0, 5228072.0 ] } },
{ "type": "Feature", "properties": { "osmid": 2050328122.0 }, "geometry": { "type": "Point", "coordinates": [ 165968.0, 5230668.0 ] } },
{ "type": "Feature", "properties": { "osmid": 52288545.0 }, "geometry": { "type": "Point", "coordinates": [ 167195.0, 5230524.0 ] } },
{ "type": "Feature", "properties": { "osmid": 5292726179.0 }, "geometry": { "type": "Point", "coordinates": [ 164154.0, 5226579.0 ] } },
{ "type": "Feature", "properties": { "osmid": 2188667477.0 }, "geometry": { "type": "Point", "coordinates": [ 165745.0, 5232669.0 ] } },
{ "type": "Feature", "properties": { "osmid": 10732120402.0 }, "geometry": { "type": "Point", "coordinates": [ 167057.0, 5235259.0 ] } },
{ "type": "Feature", "properties": { "osmid": 10922667538.0 }, "geometry": { "type": "Point", "coordinates": [ 167321.0, 5235804.0 ] } },
{ "type": "Feature", "properties": { "osmid": 10922667520.0 }, "geometry": { "type": "Point", "coordinates": [ 167986.0, 5236236.0 ] } },
{ "type": "Feature", "properties": { "osmid": 10058361217.0 }, "geometry": { "type": "Point", "coordinates": [ 168556.0, 5236301.0 ] } },
{ "type": "Feature", "properties": { "osmid": 8717088458.0 }, "geometry": { "type": "Point", "coordinates": [ 169146.0, 5236786.0 ] } },
{ "type": "Feature", "properties": { "osmid": 3096113265.0 }, "geometry": { "type": "Point", "coordinates": [ 169792.0, 5237121.0 ] } },
{ "type": "Feature", "properties": { "osmid": 2021666162.0 }, "geometry": { "type": "Point", "coordinates": [ 169381.0, 5237441.0 ] } },
{ "type": "Feature", "properties": { "osmid": 2878769850.0 }, "geometry": { "type": "Point", "coordinates": [ 170251.0, 5237490.0 ] } },
{ "type": "Feature", "properties": { "osmid": 9730033640.0 }, "geometry": { "type": "Point", "coordinates": [ 170784.0, 5237355.0 ] } },
{ "type": "Feature", "properties": { "osmid": 51400770.0 }, "geometry": { "type": "Point", "coordinates": [ 171295.0, 5237405.0 ] } },
{ "type": "Feature", "properties": { "osmid": 9737207065.0 }, "geometry": { "type": "Point", "coordinates": [ 171320.0, 5237953.0 ] } },
{ "type": "Feature", "properties": { "osmid": 9736186140.0 }, "geometry": { "type": "Point", "coordinates": [ 172040.0, 5237521.0 ] } },
{ "type": "Feature", "properties": { "osmid": 2188646409.0 }, "geometry": { "type": "Point", "coordinates": [ 170497.0, 5238572.0 ] } },
{ "type": "Feature", "properties": { "osmid": 2188646252.0 }, "geometry": { "type": "Point", "coordinates": [ 171821.0, 5238147.0 ] } },
{ "type": "Feature", "properties": { "osmid": 2341126867.0 }, "geometry": { "type": "Point", "coordinates": [ 162814.0, 5240284.0 ] } },
{ "type": "Feature", "properties": { "osmid": 2341074540.0 }, "geometry": { "type": "Point", "coordinates": [ 162119.0, 5240177.0 ] } },
{ "type": "Feature", "properties": { "osmid": 2341074769.0 }, "geometry": { "type": "Point", "coordinates": [ 163841.0, 5240607.0 ] } },
{ "type": "Feature", "properties": { "osmid": 2341178965.0 }, "geometry": { "type": "Point", "coordinates": [ 164535.0, 5240986.0 ] } },
{ "type": "Feature", "properties": { "osmid": 7843128457.0 }, "geometry": { "type": "Point", "coordinates": [ 163513.0, 5241051.0 ] } },
{ "type": "Feature", "properties": { "osmid": 13076207426.0 }, "geometry": { "type": "Point", "coordinates": [ 165383.0, 5241527.0 ] } },
{ "type": "Feature", "properties": { "osmid": 7022030188.0 }, "geometry": { "type": "Point", "coordinates": [ 164076.0, 5241462.0 ] } },
{ "type": "Feature", "properties": { "osmid": 2369811753.0 }, "geometry": { "type": "Point", "coordinates": [ 166005.0, 5241593.0 ] } },
{ "type": "Feature", "properties": { "osmid": 2369811745.0 }, "geometry": { "type": "Point", "coordinates": [ 164724.0, 5241584.0 ] } },
{ "type": "Feature", "properties": { "osmid": 3979454688.0 }, "geometry": { "type": "Point", "coordinates": [ 174775.0, 5237528.0 ] } },
{ "type": "Feature", "properties": { "osmid": 12029769634.0 }, "geometry": { "type": "Point", "coordinates": [ 168770.0, 5241265.0 ] } },
{ "type": "Feature", "properties": { "osmid": 9856957751.0 }, "geometry": { "type": "Point", "coordinates": [ 174524.0, 5238147.0 ] } },
{ "type": "Feature", "properties": { "osmid": 3956223559.0 }, "geometry": { "type": "Point", "coordinates": [ 167444.0, 5241856.0 ] } },
{ "type": "Feature", "properties": { "osmid": 7842901739.0 }, "geometry": { "type": "Point", "coordinates": [ 166671.0, 5242008.0 ] } },
{ "type": "Feature", "properties": { "osmid": 9593695111.0 }, "geometry": { "type": "Point", "coordinates": [ 170036.0, 5241607.0 ] } },
{ "type": "Feature", "properties": { "osmid": 5344583373.0 }, "geometry": { "type": "Point", "coordinates": [ 174818.0, 5238589.0 ] } },
{ "type": "Feature", "properties": { "osmid": 3658334069.0 }, "geometry": { "type": "Point", "coordinates": [ 171651.0, 5241050.0 ] } },
{ "type": "Feature", "properties": { "osmid": 7842733158.0 }, "geometry": { "type": "Point", "coordinates": [ 161599.0, 5242277.0 ] } },
{ "type": "Feature", "properties": { "osmid": 321683364.0 }, "geometry": { "type": "Point", "coordinates": [ 167487.0, 5242899.0 ] } },
{ "type": "Feature", "properties": { "osmid": 13056035795.0 }, "geometry": { "type": "Point", "coordinates": [ 166646.0, 5243108.0 ] } },
{ "type": "Feature", "properties": { "osmid": 9719550146.0 }, "geometry": { "type": "Point", "coordinates": [ 172247.0, 5241636.0 ] } },
{ "type": "Feature", "properties": { "osmid": 7842733270.0 }, "geometry": { "type": "Point", "coordinates": [ 161678.0, 5242846.0 ] } },
{ "type": "Feature", "properties": { "osmid": 2341179241.0 }, "geometry": { "type": "Point", "coordinates": [ 167480.0, 5243486.0 ] } },
{ "type": "Feature", "properties": { "osmid": 9872239463.0 }, "geometry": { "type": "Point", "coordinates": [ 169357.0, 5243198.0 ] } },
{ "type": "Feature", "properties": { "osmid": 367678093.0 }, "geometry": { "type": "Point", "coordinates": [ 160323.0, 5243070.0 ] } },
{ "type": "Feature", "properties": { "osmid": 11105739009.0 }, "geometry": { "type": "Point", "coordinates": [ 168103.0, 5243861.0 ] } },
{ "type": "Feature", "properties": { "osmid": 11460634466.0 }, "geometry": { "type": "Point", "coordinates": [ 167681.0, 5244282.0 ] } },
{ "type": "Feature", "properties": { "osmid": 13112611801.0 }, "geometry": { "type": "Point", "coordinates": [ 173226.0, 5242732.0 ] } },
{ "type": "Feature", "properties": { "osmid": 13112593351.0 }, "geometry": { "type": "Point", "coordinates": [ 172781.0, 5243106.0 ] } },
{ "type": "Feature", "properties": { "osmid": 11476756912.0 }, "geometry": { "type": "Point", "coordinates": [ 175803.0, 5241432.0 ] } },
{ "type": "Feature", "properties": { "osmid": 9721807143.0 }, "geometry": { "type": "Point", "coordinates": [ 171055.0, 5244193.0 ] } },
{ "type": "Feature", "properties": { "osmid": 9721845828.0 }, "geometry": { "type": "Point", "coordinates": [ 170676.0, 5244588.0 ] } },
{ "type": "Feature", "properties": { "osmid": 3417087275.0 }, "geometry": { "type": "Point", "coordinates": [ 170052.0, 5245719.0 ] } },
{ "type": "Feature", "properties": { "osmid": 8146220220.0 }, "geometry": { "type": "Point", "coordinates": [ 165599.0, 5246903.0 ] } },
{ "type": "Feature", "properties": { "osmid": 11847430636.0 }, "geometry": { "type": "Point", "coordinates": [ 165175.0, 5247189.0 ] } },
{ "type": "Feature", "properties": { "osmid": 51581979.0 }, "geometry": { "type": "Point", "coordinates": [ 168907.0, 5247864.0 ] } },
{ "type": "Feature", "properties": { "osmid": 51582090.0 }, "geometry": { "type": "Point", "coordinates": [ 169339.0, 5249235.0 ] } },
{ "type": "Feature", "properties": { "osmid": 3887318875.0 }, "geometry": { "type": "Point", "coordinates": [ 178116.0, 5246140.0 ] } },
{ "type": "Feature", "properties": { "osmid": 51582159.0 }, "geometry": { "type": "Point", "coordinates": [ 169968.0, 5250443.0 ] } },
{ "type": "Feature", "properties": { "osmid": 12136159186.0 }, "geometry": { "type": "Point", "coordinates": [ 185360.0, 5247894.0 ] } },
{ "type": "Feature", "properties": { "osmid": 5434937231.0 }, "geometry": { "type": "Point", "coordinates": [ 192754.0, 5242475.0 ] } }
]
}
