{
"type": "FeatureCollection",
"name": "athens-rail",
"crs": { "type": "name", "properties": { "name": "urn:ogc:def:crs:EPSG::3857" } },
"features": [
{ "type": "Feature", "properties": { "osmid": 336335784.0 }, "geometry": { "type": "Point", "coordinates": [ 2643122.0, 4576897.0 ] } },
{ "type": "Feature", "properties": { "osmid": 12382339420.0 }, "geometry": { "type": "Point", "coordinates": [ 2641644.0, 4578447.0 ] } },
{ "type": "Feature", "properties": { "osmid": 9661391018.0 }, "geometry": { "type": "Point", "coordinates": [ 2643170.0, 4576646.0 ] } },
{ "type": "Feature", "properties": { "osmid": 355617565.0 }, "geometry": { "type": "Point", "coordinates": [ 2639833.0, 4579800.0 ] } },
{ "type": "Feature", "properties": { "osmid": 8634089255.0 }, "geometry": { "type": "Point", "coordinates": [ 2640583.0, 4578341.0 ] } },
{ "type": "Feature", "properties": { "osmid": 354628169.0 }, "geometry": { "type": "Point", "coordinates": [ 2641256.0, 4574437.0 ] } },
{ "type": "Feature", "properties": { "osmid": 303232159.0 }, "geometry": { "type": "Point", "coordinates": [ 2645350.0, 4578476.0 ] } },
{ "type": "Feature", "properties": { "osmid": 2299705045.0 }, "geometry": { "type": "Point", "coordinates": [ 2643506.0, 4576053.0 ] } },
{ "type": "Feature", "properties": { "osmid": 250920248.0 }, "geometry": { "type": "Point", "coordinates": [ 2640639.0, 4577435.0 ] } },
{ "type": "Feature", "properties": { "osmid": 2848911548.0 }, "geometry": { "type": "Point", "coordinates": [ 2641476.0, 4581118.0 ] } },
{ "type": "Feature", "properties": { "osmid": 524144068.0 }, "geometry": { "type": "Point", "coordinates": [ 2641826.0, 4582261.0 ] } },
{ "type": "Feature", "properties": { "osmid": 11474763144.0 }, "geometry": { "type": "Point", "coordinates": [ 2642220.0, 4575964.0 ] } },
{ "type": "Feature", "properties": { "osmid": 2848911638.0 }, "geometry": { "type": "Point", "coordinates": [ 2642309.0, 4582793.0 ] } },
{ "type": "Feature", "properties": { "osmid": 827183362.0 }, "geometry": { "type": "Point", "coordinates": [ 2641431.0, 4573418.0 ] } },
{ "type": "Feature", "properties": { "osmid": 3922079468.0 }, "geometry": { "type": "Point", "coordinates": [ 2640775.0, 4579354.0 ] } },
{ "type": "Feature", "properties": { "osmid": 3013373077.0 }, "geometry": { "type": "Point", "coordinates": [ 2641342.0, 4577166.0 ] } },
{ "type": "Feature", "properties": { "osmid": 843139987.0 }, "geometry": { "type": "Point", "coordinates": [ 2642096.0, 4573324.0 ] } },
{ "type": "Feature", "properties": { "osmid": 5866185025.0 }, "geometry": { "type": "Point", "coordinates": [ 2639825.0, 4576102.0 ] } },
{ "type": "Feature", "properties": { "osmid": 353771685.0 }, "geometry": { "type": "Point", "coordinates": [ 2640363.0, 4575817.0 ] } },
{ "type": "Feature", "properties": { "osmid": 251144763.0 }, "geometry": { "type": "Point", "coordinates": [ 2639195.0, 4576276.0 ] } },
{ "type": "Feature", "properties": { "osmid": 251136597.0 }, "geometry": { "type": "Point", "coordinates": [ 2640045.0, 4576851.0 ] } },
{ "type": "Feature", "properties": { "osmid": 6779972867.0 }, "geometry": { "type": "Point", "coordinates": [ 2640640.0, 4576281.0 ] } },
{ "type": "Feature", "properties": { "osmid": 727429513.0 }, "geometry": { "type": "Point", "coordinates": [ 2641002.0, 4575904.0 ] } },
{ "type": "Feature", "properties": { "osmid": 7559389316.0 }, "geometry": { "type": "Point", "coordinates": [ 2640722.0, 4575213.0 ] } },
{ "type": "Feature", "properties": { "osmid": 353767898.0 }, "geometry": { "type": "Point", "coordinates": [ 2641074.0, 4576627.0 ] } },
{ "type": "Feature", "properties": { "osmid": 632323802.0 }, "geometry": { "type": "Point", "coordinates": [ 2639585.0, 4577523.0 ] } },
{ "type": "Feature", "properties": { "osmid": 4481448754.0 }, "geometry": { "type": "Point", "coordinates": [ 2639237.0, 4574663.0 ] } },
{ "type": "Feature", "properties": { "osmid": 251134301.0 }, "geometry": { "type": "Point", "coordinates": [ 2641525.0, 4575789.0 ] } },
{ "type": "Feature", "properties": { "osmid": 353791322.0 }, "geometry": { "type": "Point", "coordinates": [ 2641515.0, 4575214.0 ] } },
{ "type": "Feature", "properties": { "osmid": 13388963243.0 }, "geometry": { "type": "Point", "coordinates": [ 2641823.0, 4576556.0 ] } },
{ "type": "Feature", "properties": { "osmid": 4456910108.0 }, "geometry": { "type": "Point", "coordinates": [ 2642542.0, 4576802.0 ] } },
{ "type": "Feature", "properties": { "osmid": 7229807073.0 }, "geometry": { "type": "Point", "coordinates": [ 2642474.0, 4574998.0 ] } },
{ "type": "Feature", "properties": { "osmid": 1548471279.0 }, "geometry": { "type": "Point", "coordinates": [ 2642488.0, 4577689.0 ] } },
{ "type": "Feature", "properties": { "osmid": 251110530.0 }, "geometry": { "type": "Point", "coordinates": [ 2643239.0, 4575439.0 ] } },
{ "type": "Feature", "properties": { "osmid": 353811906.0 }, "geometry": { "type": "Point", "coordinates": [ 2641230.0, 4572865.0 ] } },
{ "type": "Feature", "properties": { "osmid": 4435735545.0 }, "geometry": { "type": "Point", "coordinates": [ 2643232.0, 4578153.0 ] } },
{ "type": "Feature", "properties": { "osmid": 250719538.0 }, "geometry": { "type": "Point", "coordinates": [ 2639353.0, 4580058.0 ] } },
{ "type": "Feature", "properties": { "osmid": 9002405162.0 }, "geometry": { "type": "Point", "coordinates": [ 2641465.0, 4580220.0 ] } },
{ "type": "Feature", "properties": { "osmid": 359590542.0 }, "geometry": { "type": "Point", "coordinates": [ 2644280.0, 4576247.0 ] } },
{ "type": "Feature", "properties": { "osmid": 6184164253.0 }, "geometry": { "type": "Point", "coordinates": [ 2644736.0, 4577734.0 ] } },
{ "type": "Feature", "properties": { "osmid": 4451351682.0 }, "geometry": { "type": "Point", "coordinates": [ 2644501.0, 4578342.0 ] } },
{ "type": "Feature", "properties": { "osmid": 1579946872.0 }, "geometry": { "type": "Point", "coordinates": [ 2643656.0, 4579662.0 ] } },
{ "type": "Feature", "properties": { "osmid": 524795215.0 }, "geometry": { "type": "Point", "coordinates": [ 2640823.0, 4581687.0 ] } },
{ "type": "Feature", "properties": { "osmid": 942366608.0 }, "geometry": { "type": "Point", "coordinates": [ 2645006.0, 4579844.0 ] } },
{ "type": "Feature", "properties": { "osmid": 360402524.0 }, "geometry": { "type": "Point", "coordinates": [ 2646681.0, 4579464.0 ] } },
{ "type": "Feature", "properties": { "osmid": 1164146443.0 }, "geometry": { "type": "Point", "coordinates": [ 2647064.0, 4579133.0 ] } },
{ "type": "Feature", "properties": { "osmid": 360468909.0 }, "geometry": { "type": "Point", "coordinates": [ 2647919.0, 4579600.0 ] } }
]
}
