{
"type": "FeatureCollection",
"name": "athens-city_boundary",
"crs": { "type": "name", "properties": { "name": "urn:ogc:def:crs:EPSG::3857" } },
"features": [
{ "type": "Feature", "properties": { "bbox_west": 23.6870046, "bbox_south": 37.9488434, "bbox_east": 23.7904386, "bbox_north": 38.03276, "place_id": 51201788, "osm_type": "relation", "osm_id": 1370736, "lat": 37.9908581, "lon": 23.7414742, "class": "boundary", "type": "administrative", "place_rank": 14, "importance": 0.4208741617559113, "addresstype": "municipality", "name": "Municipality of Athens", "display_name": "Municipality of Athens, Regional Unit of Central Athens, Attica, Greece" }, "geometry": { "type": "Polygon", "coordinates": [ [ [ 2636836.0, 4576395.0 ], [ 2636853.0, 4576417.0 ], [ 2636922.0, 4576494.0 ], [ 2636957.0, 4576537.0 ], [ 2636980.0, 4576564.0 ], [ 2636994.0, 4576581.0 ], [ 2637014.0, 4576605.0 ], [ 2637053.0, 4576654.0 ], [ 2637067.0, 4576672.0 ], [ 2637078.0, 4576686.0 ], [ 2637108.0, 4576722.0 ], [ 2637135.0, 4576766.0 ], [ 2637109.0, 4576787.0 ], [ 2637118.0, 4576798.0 ], [ 2637241.0, 4576965.0 ], [ 2637285.0, 4577021.0 ], [ 2637368.0, 4577118.0 ], [ 2637430.0, 4577198.0 ], [ 2637502.0, 4577315.0 ], [ 2637537.0, 4577378.0 ], [ 2637557.0, 4577418.0 ], [ 2637563.0, 4577430.0 ], [ 2637615.0, 4577560.0 ], [ 2637648.0, 4577637.0 ], [ 2637646.0, 4577652.0 ], [ 2637650.0, 4577664.0 ], [ 2637653.0, 4577671.0 ], [ 2637655.0, 4577677.0 ], [ 2637664.0, 4577703.0 ], [ 2637668.0, 4577712.0 ], [ 2637677.0, 4577735.0 ], [ 2637701.0, 4577814.0 ], [ 2637717.0, 4577865.0 ], [ 2637733.0, 4577915.0 ], [ 2637767.0, 4577997.0 ], [ 2637768.0, 4578000.0 ], [ 2637772.0, 4578009.0 ], [ 2637774.0, 4578013.0 ], [ 2637813.0, 4578104.0 ], [ 2637839.0, 4578167.0 ], [ 2637848.0, 4578188.0 ], [ 2637853.0, 4578198.0 ], [ 2637865.0, 4578220.0 ], [ 2637880.0, 4578248.0 ], [ 2637889.0, 4578264.0 ], [ 2637904.0, 4578294.0 ], [ 2637953.0, 4578368.0 ], [ 2637987.0, 4578419.0 ], [ 2637990.0, 4578424.0 ], [ 2637993.0, 4578427.0 ], [ 2637996.0, 4578430.0 ], [ 2638000.0, 4578432.0 ], [ 2638003.0, 4578433.0 ], [ 2637998.0, 4578437.0 ], [ 2637992.0, 4578439.0 ], [ 2637986.0, 4578440.0 ], [ 2637979.0, 4578441.0 ], [ 2637959.0, 4578444.0 ], [ 2637870.0, 4578456.0 ], [ 2637777.0, 4578486.0 ], [ 2637759.0, 4578493.0 ], [ 2637748.0, 4578498.0 ], [ 2637738.0, 4578503.0 ], [ 2637719.0, 4578516.0 ], [ 2637707.0, 4578526.0 ], [ 2637645.0, 4578582.0 ], [ 2637603.0, 4578614.0 ], [ 2637560.0, 4578641.0 ], [ 2637532.0, 4578657.0 ], [ 2637505.0, 4578672.0 ], [ 2637497.0, 4578677.0 ], [ 2637482.0, 4578689.0 ], [ 2637474.0, 4578696.0 ], [ 2637497.0, 4578724.0 ], [ 2637598.0, 4578844.0 ], [ 2637613.0, 4578858.0 ], [ 2637646.0, 4578892.0 ], [ 2637811.0, 4579055.0 ], [ 2637888.0, 4579122.0 ], [ 2637937.0, 4579157.0 ], [ 2638075.0, 4579236.0 ], [ 2638115.0, 4579259.0 ], [ 2638361.0, 4579400.0 ], [ 2638544.0, 4579497.0 ], [ 2638717.0, 4579578.0 ], [ 2638789.0, 4579612.0 ], [ 2638822.0, 4579632.0 ], [ 2638853.0, 4579652.0 ], [ 2638886.0, 4579677.0 ], [ 2638917.0, 4579701.0 ], [ 2638987.0, 4579759.0 ], [ 2639014.0, 4579784.0 ], [ 2639040.0, 4579808.0 ], [ 2639066.0, 4579834.0 ], [ 2639091.0, 4579860.0 ], [ 2639231.0, 4580013.0 ], [ 2639275.0, 4580052.0 ], [ 2639310.0, 4580077.0 ], [ 2639354.0, 4580101.0 ], [ 2639520.0, 4580178.0 ], [ 2639593.0, 4580227.0 ], [ 2639635.0, 4580265.0 ], [ 2639795.0, 4580455.0 ], [ 2639936.0, 4580618.0 ], [ 2639980.0, 4580651.0 ], [ 2640086.0, 4580728.0 ], [ 2640111.0, 4580748.0 ], [ 2640151.0, 4580779.0 ], [ 2640166.0, 4580792.0 ], [ 2640180.0, 4580805.0 ], [ 2640190.0, 4580815.0 ], [ 2640195.0, 4580820.0 ], [ 2640208.0, 4580835.0 ], [ 2640221.0, 4580852.0 ], [ 2640260.0, 4580922.0 ], [ 2640273.0, 4580963.0 ], [ 2640277.0, 4580981.0 ], [ 2640288.0, 4581130.0 ], [ 2640295.0, 4581190.0 ], [ 2640309.0, 4581284.0 ], [ 2640317.0, 4581323.0 ], [ 2640329.0, 4581381.0 ], [ 2640340.0, 4581427.0 ], [ 2640352.0, 4581470.0 ], [ 2640371.0, 4581524.0 ], [ 2640375.0, 4581534.0 ], [ 2640393.0, 4581570.0 ], [ 2640417.0, 4581617.0 ], [ 2640442.0, 4581662.0 ], [ 2640470.0, 4581715.0 ], [ 2640486.0, 4581744.0 ], [ 2640519.0, 4581781.0 ], [ 2640574.0, 4581842.0 ], [ 2640668.0, 4581929.0 ], [ 2640758.0, 4582010.0 ], [ 2640821.0, 4582075.0 ], [ 2640852.0, 4582112.0 ], [ 2640912.0, 4582200.0 ], [ 2640942.0, 4582250.0 ], [ 2641028.0, 4582250.0 ], [ 2641055.0, 4582259.0 ], [ 2641079.0, 4582270.0 ], [ 2641111.0, 4582297.0 ], [ 2641131.0, 4582319.0 ], [ 2641148.0, 4582346.0 ], [ 2641230.0, 4582498.0 ], [ 2641266.0, 4582560.0 ], [ 2641288.0, 4582588.0 ], [ 2641330.0, 4582617.0 ], [ 2641389.0, 4582652.0 ], [ 2641414.0, 4582667.0 ], [ 2641431.0, 4582683.0 ], [ 2641447.0, 4582707.0 ], [ 2641466.0, 4582783.0 ], [ 2641481.0, 4582828.0 ], [ 2641496.0, 4582857.0 ], [ 2641525.0, 4582894.0 ], [ 2641555.0, 4582927.0 ], [ 2641639.0, 4583015.0 ], [ 2641707.0, 4583063.0 ], [ 2641753.0, 4583089.0 ], [ 2641840.0, 4583147.0 ], [ 2641876.0, 4583176.0 ], [ 2641906.0, 4583196.0 ], [ 2641936.0, 4583212.0 ], [ 2641997.0, 4583245.0 ], [ 2642020.0, 4583256.0 ], [ 2642045.0, 4583267.0 ], [ 2642124.0, 4583279.0 ], [ 2642160.0, 4583284.0 ], [ 2642238.0, 4583280.0 ], [ 2642260.0, 4583282.0 ], [ 2642280.0, 4583286.0 ], [ 2642291.0, 4583290.0 ], [ 2642305.0, 4583299.0 ], [ 2642317.0, 4583311.0 ], [ 2642326.0, 4583323.0 ], [ 2642335.0, 4583338.0 ], [ 2642353.0, 4583388.0 ], [ 2642376.0, 4583483.0 ], [ 2642400.0, 4583554.0 ], [ 2642403.0, 4583575.0 ], [ 2642408.0, 4583593.0 ], [ 2642423.0, 4583619.0 ], [ 2642470.0, 4583691.0 ], [ 2642492.0, 4583730.0 ], [ 2642498.0, 4583747.0 ], [ 2642511.0, 4583772.0 ], [ 2642540.0, 4583806.0 ], [ 2642570.0, 4583828.0 ], [ 2642607.0, 4583855.0 ], [ 2642616.0, 4583865.0 ], [ 2642634.0, 4583892.0 ], [ 2642687.0, 4583972.0 ], [ 2642726.0, 4584043.0 ], [ 2642739.0, 4584051.0 ], [ 2642754.0, 4584055.0 ], [ 2642775.0, 4584049.0 ], [ 2642824.0, 4584033.0 ], [ 2642855.0, 4584027.0 ], [ 2642885.0, 4584033.0 ], [ 2643035.0, 4583984.0 ], [ 2643185.0, 4583938.0 ], [ 2643169.0, 4583893.0 ], [ 2643162.0, 4583871.0 ], [ 2643173.0, 4583869.0 ], [ 2643195.0, 4583870.0 ], [ 2643223.0, 4583870.0 ], [ 2643240.0, 4583870.0 ], [ 2643338.0, 4583823.0 ], [ 2643404.0, 4583787.0 ], [ 2643411.0, 4583783.0 ], [ 2643415.0, 4583781.0 ], [ 2643458.0, 4583757.0 ], [ 2643483.0, 4583744.0 ], [ 2643520.0, 4583720.0 ], [ 2643530.0, 4583714.0 ], [ 2643536.0, 4583711.0 ], [ 2643601.0, 4583676.0 ], [ 2643608.0, 4583672.0 ], [ 2643648.0, 4583650.0 ], [ 2643661.0, 4583642.0 ], [ 2643711.0, 4583614.0 ], [ 2643784.0, 4583572.0 ], [ 2643838.0, 4583542.0 ], [ 2643885.0, 4583516.0 ], [ 2643892.0, 4583515.0 ], [ 2643897.0, 4583514.0 ], [ 2643906.0, 4583510.0 ], [ 2643950.0, 4583487.0 ], [ 2643975.0, 4583474.0 ], [ 2643980.0, 4583468.0 ], [ 2643983.0, 4583464.0 ], [ 2644003.0, 4583453.0 ], [ 2644010.0, 4583450.0 ], [ 2644014.0, 4583447.0 ], [ 2644023.0, 4583443.0 ], [ 2644084.0, 4583410.0 ], [ 2644147.0, 4583376.0 ], [ 2644152.0, 4583374.0 ], [ 2644070.0, 4583229.0 ], [ 2644004.0, 4583111.0 ], [ 2643958.0, 4583030.0 ], [ 2643921.0, 4582966.0 ], [ 2643874.0, 4582880.0 ], [ 2643811.0, 4582767.0 ], [ 2643749.0, 4582657.0 ], [ 2643743.0, 4582647.0 ], [ 2643739.0, 4582639.0 ], [ 2643734.0, 4582631.0 ], [ 2643734.0, 4582630.0 ], [ 2643731.0, 4582626.0 ], [ 2643724.0, 4582613.0 ], [ 2643718.0, 4582601.0 ], [ 2643710.0, 4582588.0 ], [ 2643705.0, 4582577.0 ], [ 2643680.0, 4582533.0 ], [ 2643679.0, 4582531.0 ], [ 2643674.0, 4582523.0 ], [ 2643642.0, 4582465.0 ], [ 2643610.0, 4582408.0 ], [ 2643587.0, 4582367.0 ], [ 2643580.0, 4582354.0 ], [ 2643576.0, 4582347.0 ], [ 2643562.0, 4582323.0 ], [ 2643547.0, 4582295.0 ], [ 2643504.0, 4582219.0 ], [ 2643457.0, 4582126.0 ], [ 2643430.0, 4582073.0 ], [ 2643402.0, 4582086.0 ], [ 2643394.0, 4582086.0 ], [ 2643390.0, 4582084.0 ], [ 2643333.0, 4582042.0 ], [ 2643371.0, 4581988.0 ], [ 2643368.0, 4581984.0 ], [ 2643359.0, 4581974.0 ], [ 2643350.0, 4581961.0 ], [ 2643343.0, 4581946.0 ], [ 2643334.0, 4581927.0 ], [ 2643332.0, 4581915.0 ], [ 2643324.0, 4581858.0 ], [ 2643316.0, 4581791.0 ], [ 2643314.0, 4581764.0 ], [ 2643306.0, 4581689.0 ], [ 2643295.0, 4581603.0 ], [ 2643294.0, 4581589.0 ], [ 2643292.0, 4581573.0 ], [ 2643292.0, 4581570.0 ], [ 2643292.0, 4581568.0 ], [ 2643289.0, 4581556.0 ], [ 2643288.0, 4581552.0 ], [ 2643284.0, 4581529.0 ], [ 2643262.0, 4581534.0 ], [ 2643251.0, 4581518.0 ], [ 2643184.0, 4581404.0 ], [ 2643105.0, 4581279.0 ], [ 2643100.0, 4581249.0 ], [ 2643100.0, 4581248.0 ], [ 2643085.0, 4580936.0 ], [ 2643108.0, 4580931.0 ], [ 2643105.0, 4580901.0 ], [ 2643100.0, 4580854.0 ], [ 2643095.0, 4580779.0 ], [ 2643087.0, 4580719.0 ], [ 2643083.0, 4580584.0 ], [ 2643240.0, 4580569.0 ], [ 2643271.0, 4580566.0 ], [ 2643293.0, 4580564.0 ], [ 2643350.0, 4580559.0 ], [ 2643369.0, 4580558.0 ], [ 2643378.0, 4580557.0 ], [ 2643395.0, 4580556.0 ], [ 2643464.0, 4580551.0 ], [ 2643655.0, 4580649.0 ], [ 2643683.0, 4580665.0 ], [ 2643728.0, 4580687.0 ], [ 2643786.0, 4580716.0 ], [ 2643791.0, 4580708.0 ], [ 2643811.0, 4580673.0 ], [ 2643861.0, 4580713.0 ], [ 2643871.0, 4580721.0 ], [ 2643901.0, 4580671.0 ], [ 2643987.0, 4580722.0 ], [ 2644015.0, 4580739.0 ], [ 2644036.0, 4580669.0 ], [ 2644040.0, 4580659.0 ], [ 2644063.0, 4580637.0 ], [ 2644066.0, 4580634.0 ], [ 2644110.0, 4580592.0 ], [ 2644158.0, 4580542.0 ], [ 2644164.0, 4580534.0 ], [ 2644152.0, 4580528.0 ], [ 2644145.0, 4580517.0 ], [ 2644150.0, 4580508.0 ], [ 2644159.0, 4580491.0 ], [ 2644206.0, 4580514.0 ], [ 2644259.0, 4580404.0 ], [ 2644305.0, 4580343.0 ], [ 2644364.0, 4580264.0 ], [ 2645102.0, 4580051.0 ], [ 2645230.0, 4579958.0 ], [ 2645255.0, 4579931.0 ], [ 2645283.0, 4579902.0 ], [ 2645298.0, 4579886.0 ], [ 2645304.0, 4579879.0 ], [ 2645347.0, 4579833.0 ], [ 2645369.0, 4579810.0 ], [ 2645386.0, 4579792.0 ], [ 2645398.0, 4579779.0 ], [ 2645408.0, 4579769.0 ], [ 2645449.0, 4579725.0 ], [ 2645455.0, 4579718.0 ], [ 2645506.0, 4579664.0 ], [ 2645549.0, 4579619.0 ], [ 2645555.0, 4579612.0 ], [ 2645588.0, 4579576.0 ], [ 2645612.0, 4579552.0 ], [ 2645615.0, 4579549.0 ], [ 2645616.0, 4579548.0 ], [ 2645637.0, 4579525.0 ], [ 2645672.0, 4579489.0 ], [ 2645698.0, 4579462.0 ], [ 2645756.0, 4579400.0 ], [ 2645876.0, 4579274.0 ], [ 2645921.0, 4579227.0 ], [ 2645953.0, 4579193.0 ], [ 2645963.0, 4579183.0 ], [ 2645970.0, 4579174.0 ], [ 2645984.0, 4579159.0 ], [ 2646016.0, 4579203.0 ], [ 2646032.0, 4579225.0 ], [ 2646056.0, 4579254.0 ], [ 2646083.0, 4579287.0 ], [ 2646154.0, 4579361.0 ], [ 2646193.0, 4579398.0 ], [ 2646223.0, 4579420.0 ], [ 2646247.0, 4579426.0 ], [ 2646279.0, 4579437.0 ], [ 2646325.0, 4579450.0 ], [ 2646351.0, 4579456.0 ], [ 2646386.0, 4579465.0 ], [ 2646419.0, 4579473.0 ], [ 2646452.0, 4579481.0 ], [ 2646475.0, 4579490.0 ], [ 2646543.0, 4579504.0 ], [ 2646611.0, 4579521.0 ], [ 2646617.0, 4579520.0 ], [ 2646681.0, 4579464.0 ], [ 2646731.0, 4579419.0 ], [ 2646768.0, 4579387.0 ], [ 2646808.0, 4579353.0 ], [ 2646854.0, 4579315.0 ], [ 2646867.0, 4579304.0 ], [ 2646896.0, 4579279.0 ], [ 2646904.0, 4579272.0 ], [ 2646939.0, 4579242.0 ], [ 2646957.0, 4579229.0 ], [ 2646971.0, 4579189.0 ], [ 2646977.0, 4579174.0 ], [ 2646986.0, 4579172.0 ], [ 2646994.0, 4579173.0 ], [ 2646998.0, 4579175.0 ], [ 2647003.0, 4579178.0 ], [ 2647007.0, 4579183.0 ], [ 2647011.0, 4579191.0 ], [ 2647073.0, 4579301.0 ], [ 2647079.0, 4579312.0 ], [ 2647113.0, 4579365.0 ], [ 2647170.0, 4579457.0 ], [ 2647186.0, 4579483.0 ], [ 2647189.0, 4579487.0 ], [ 2647275.0, 4579625.0 ], [ 2647286.0, 4579642.0 ], [ 2647292.0, 4579651.0 ], [ 2647299.0, 4579660.0 ], [ 2647422.0, 4579873.0 ], [ 2647439.0, 4579905.0 ], [ 2647472.0, 4579880.0 ], [ 2647487.0, 4579870.0 ], [ 2647572.0, 4579818.0 ], [ 2647579.0, 4579814.0 ], [ 2647700.0, 4579738.0 ], [ 2647760.0, 4579700.0 ], [ 2647812.0, 4579666.0 ], [ 2647850.0, 4579642.0 ], [ 2647889.0, 4579618.0 ], [ 2647919.0, 4579600.0 ], [ 2647960.0, 4579574.0 ], [ 2647964.0, 4579571.0 ], [ 2647973.0, 4579565.0 ], [ 2647984.0, 4579557.0 ], [ 2647967.0, 4579544.0 ], [ 2647920.0, 4579508.0 ], [ 2647904.0, 4579497.0 ], [ 2647828.0, 4579441.0 ], [ 2647760.0, 4579389.0 ], [ 2647745.0, 4579375.0 ], [ 2647681.0, 4579311.0 ], [ 2647647.0, 4579275.0 ], [ 2647598.0, 4579230.0 ], [ 2647603.0, 4579224.0 ], [ 2647610.0, 4579216.0 ], [ 2647788.0, 4579009.0 ], [ 2647979.0, 4578786.0 ], [ 2648319.0, 4578388.0 ], [ 2648340.0, 4578198.0 ], [ 2648055.0, 4578167.0 ], [ 2648038.0, 4578165.0 ], [ 2647799.0, 4578080.0 ], [ 2647748.0, 4577939.0 ], [ 2647833.0, 4577695.0 ], [ 2647887.0, 4577643.0 ], [ 2647906.0, 4577605.0 ], [ 2647676.0, 4577483.0 ], [ 2647471.0, 4577364.0 ], [ 2647410.0, 4577320.0 ], [ 2647505.0, 4577151.0 ], [ 2647439.0, 4577105.0 ], [ 2647346.0, 4577029.0 ], [ 2647186.0, 4576900.0 ], [ 2647180.0, 4576905.0 ], [ 2647177.0, 4576907.0 ], [ 2647109.0, 4576963.0 ], [ 2646977.0, 4577012.0 ], [ 2646924.0, 4577017.0 ], [ 2646881.0, 4577009.0 ], [ 2646830.0, 4577054.0 ], [ 2646785.0, 4577148.0 ], [ 2646672.0, 4577175.0 ], [ 2646608.0, 4577163.0 ], [ 2646588.0, 4577158.0 ], [ 2646403.0, 4577185.0 ], [ 2646275.0, 4577183.0 ], [ 2646235.0, 4577186.0 ], [ 2646159.0, 4577263.0 ], [ 2646094.0, 4577208.0 ], [ 2646082.0, 4577199.0 ], [ 2645998.0, 4577144.0 ], [ 2645928.0, 4577101.0 ], [ 2645924.0, 4577099.0 ], [ 2645916.0, 4577095.0 ], [ 2645909.0, 4577090.0 ], [ 2645881.0, 4577074.0 ], [ 2645871.0, 4577069.0 ], [ 2645859.0, 4577062.0 ], [ 2645815.0, 4577037.0 ], [ 2645719.0, 4576982.0 ], [ 2645696.0, 4576969.0 ], [ 2645625.0, 4576928.0 ], [ 2645603.0, 4576915.0 ], [ 2645549.0, 4576884.0 ], [ 2645490.0, 4576851.0 ], [ 2645458.0, 4576832.0 ], [ 2645424.0, 4576813.0 ], [ 2645396.0, 4576797.0 ], [ 2645340.0, 4576765.0 ], [ 2645266.0, 4576722.0 ], [ 2645227.0, 4576700.0 ], [ 2645217.0, 4576695.0 ], [ 2645209.0, 4576690.0 ], [ 2645153.0, 4576658.0 ], [ 2645144.0, 4576653.0 ], [ 2645140.0, 4576650.0 ], [ 2645124.0, 4576641.0 ], [ 2645113.0, 4576635.0 ], [ 2645100.0, 4576628.0 ], [ 2645080.0, 4576627.0 ], [ 2645069.0, 4576627.0 ], [ 2645066.0, 4576627.0 ], [ 2645058.0, 4576627.0 ], [ 2645031.0, 4576627.0 ], [ 2644998.0, 4576627.0 ], [ 2644979.0, 4576627.0 ], [ 2644908.0, 4576626.0 ], [ 2644866.0, 4576626.0 ], [ 2644848.0, 4576626.0 ], [ 2644821.0, 4576625.0 ], [ 2644810.0, 4576625.0 ], [ 2644802.0, 4576621.0 ], [ 2644767.0, 4576602.0 ], [ 2644760.0, 4576598.0 ], [ 2644681.0, 4576555.0 ], [ 2644671.0, 4576549.0 ], [ 2644614.0, 4576518.0 ], [ 2644581.0, 4576500.0 ], [ 2644597.0, 4576474.0 ], [ 2644599.0, 4576470.0 ], [ 2644637.0, 4576406.0 ], [ 2644639.0, 4576401.0 ], [ 2644690.0, 4576308.0 ], [ 2644688.0, 4576304.0 ], [ 2644685.0, 4576302.0 ], [ 2644831.0, 4576218.0 ], [ 2644753.0, 4576115.0 ], [ 2644718.0, 4576074.0 ], [ 2644716.0, 4576071.0 ], [ 2644680.0, 4576025.0 ], [ 2644682.0, 4576024.0 ], [ 2644692.0, 4576018.0 ], [ 2644758.0, 4575990.0 ], [ 2644728.0, 4575912.0 ], [ 2644792.0, 4575889.0 ], [ 2644862.0, 4575865.0 ], [ 2644908.0, 4575845.0 ], [ 2644935.0, 4575907.0 ], [ 2645006.0, 4575868.0 ], [ 2645118.0, 4575829.0 ], [ 2645232.0, 4575759.0 ], [ 2645184.0, 4575676.0 ], [ 2645307.0, 4575601.0 ], [ 2645370.0, 4575671.0 ], [ 2645680.0, 4575474.0 ], [ 2645712.0, 4575453.0 ], [ 2645668.0, 4575370.0 ], [ 2645458.0, 4575015.0 ], [ 2645340.0, 4575165.0 ], [ 2645305.0, 4575195.0 ], [ 2645238.0, 4575238.0 ], [ 2645123.0, 4575312.0 ], [ 2645026.0, 4575370.0 ], [ 2644934.0, 4575413.0 ], [ 2644832.0, 4575449.0 ], [ 2644818.0, 4575448.0 ], [ 2644812.0, 4575436.0 ], [ 2644798.0, 4575432.0 ], [ 2644794.0, 4575423.0 ], [ 2644785.0, 4575425.0 ], [ 2644761.0, 4575429.0 ], [ 2644738.0, 4575434.0 ], [ 2644713.0, 4575438.0 ], [ 2644694.0, 4575442.0 ], [ 2644611.0, 4575462.0 ], [ 2644573.0, 4575469.0 ], [ 2644563.0, 4575471.0 ], [ 2644550.0, 4575473.0 ], [ 2644528.0, 4575476.0 ], [ 2644513.0, 4575479.0 ], [ 2644491.0, 4575482.0 ], [ 2644408.0, 4575496.0 ], [ 2644405.0, 4575497.0 ], [ 2644398.0, 4575498.0 ], [ 2644336.0, 4575508.0 ], [ 2644311.0, 4575512.0 ], [ 2644298.0, 4575514.0 ], [ 2644227.0, 4575608.0 ], [ 2644220.0, 4575603.0 ], [ 2644142.0, 4575545.0 ], [ 2644129.0, 4575536.0 ], [ 2644127.0, 4575537.0 ], [ 2644120.0, 4575538.0 ], [ 2644106.0, 4575540.0 ], [ 2644100.0, 4575541.0 ], [ 2644089.0, 4575555.0 ], [ 2644065.0, 4575588.0 ], [ 2644030.0, 4575637.0 ], [ 2644008.0, 4575670.0 ], [ 2644001.0, 4575679.0 ], [ 2643992.0, 4575678.0 ], [ 2643942.0, 4575683.0 ], [ 2643865.0, 4575692.0 ], [ 2643857.0, 4575634.0 ], [ 2643849.0, 4575574.0 ], [ 2643839.0, 4575499.0 ], [ 2643846.0, 4575490.0 ], [ 2643853.0, 4575479.0 ], [ 2643859.0, 4575472.0 ], [ 2643866.0, 4575462.0 ], [ 2643892.0, 4575424.0 ], [ 2643939.0, 4575360.0 ], [ 2643941.0, 4575357.0 ], [ 2643945.0, 4575351.0 ], [ 2643974.0, 4575310.0 ], [ 2644024.0, 4575240.0 ], [ 2644088.0, 4575149.0 ], [ 2644097.0, 4575137.0 ], [ 2644135.0, 4575084.0 ], [ 2644138.0, 4575080.0 ], [ 2644140.0, 4575077.0 ], [ 2644145.0, 4575068.0 ], [ 2644227.0, 4574957.0 ], [ 2644262.0, 4574909.0 ], [ 2644284.0, 4574877.0 ], [ 2644299.0, 4574857.0 ], [ 2644307.0, 4574846.0 ], [ 2644374.0, 4574753.0 ], [ 2644385.0, 4574738.0 ], [ 2644411.0, 4574702.0 ], [ 2644431.0, 4574675.0 ], [ 2644448.0, 4574651.0 ], [ 2644482.0, 4574604.0 ], [ 2644436.0, 4574572.0 ], [ 2644396.0, 4574544.0 ], [ 2644351.0, 4574511.0 ], [ 2644284.0, 4574464.0 ], [ 2644175.0, 4574386.0 ], [ 2644172.0, 4574384.0 ], [ 2644165.0, 4574379.0 ], [ 2644160.0, 4574379.0 ], [ 2644089.0, 4574384.0 ], [ 2644056.0, 4574386.0 ], [ 2643993.0, 4574391.0 ], [ 2643963.0, 4574393.0 ], [ 2643960.0, 4574419.0 ], [ 2643951.0, 4574447.0 ], [ 2643914.0, 4574399.0 ], [ 2643861.0, 4574360.0 ], [ 2643806.0, 4574320.0 ], [ 2643741.0, 4574273.0 ], [ 2643697.0, 4574241.0 ], [ 2643658.0, 4574213.0 ], [ 2643653.0, 4574209.0 ], [ 2643616.0, 4574183.0 ], [ 2643578.0, 4574155.0 ], [ 2643467.0, 4574074.0 ], [ 2643459.0, 4574068.0 ], [ 2643399.0, 4574025.0 ], [ 2643392.0, 4574020.0 ], [ 2643341.0, 4573985.0 ], [ 2643289.0, 4573947.0 ], [ 2643258.0, 4573925.0 ], [ 2643233.0, 4573908.0 ], [ 2643328.0, 4573774.0 ], [ 2643383.0, 4573695.0 ], [ 2643413.0, 4573653.0 ], [ 2643443.0, 4573612.0 ], [ 2643469.0, 4573574.0 ], [ 2643481.0, 4573558.0 ], [ 2643538.0, 4573478.0 ], [ 2643584.0, 4573413.0 ], [ 2643566.0, 4573394.0 ], [ 2643496.0, 4573311.0 ], [ 2643452.0, 4573326.0 ], [ 2643422.0, 4573336.0 ], [ 2643390.0, 4573347.0 ], [ 2643362.0, 4573356.0 ], [ 2643353.0, 4573291.0 ], [ 2643349.0, 4573277.0 ], [ 2643317.0, 4573194.0 ], [ 2643284.0, 4573208.0 ], [ 2643233.0, 4573230.0 ], [ 2643185.0, 4573250.0 ], [ 2643177.0, 4573253.0 ], [ 2643137.0, 4573271.0 ], [ 2643135.0, 4573268.0 ], [ 2643133.0, 4573264.0 ], [ 2643111.0, 4573259.0 ], [ 2643071.0, 4573249.0 ], [ 2643053.0, 4573245.0 ], [ 2642997.0, 4573232.0 ], [ 2642993.0, 4573231.0 ], [ 2642940.0, 4573218.0 ], [ 2642884.0, 4573205.0 ], [ 2642847.0, 4573197.0 ], [ 2642813.0, 4573189.0 ], [ 2642771.0, 4573180.0 ], [ 2642738.0, 4573172.0 ], [ 2642737.0, 4573176.0 ], [ 2642724.0, 4573213.0 ], [ 2642708.0, 4573264.0 ], [ 2642591.0, 4573252.0 ], [ 2642582.0, 4573251.0 ], [ 2642443.0, 4573236.0 ], [ 2642408.0, 4573233.0 ], [ 2642360.0, 4573228.0 ], [ 2642355.0, 4573227.0 ], [ 2642297.0, 4573221.0 ], [ 2642259.0, 4573217.0 ], [ 2642252.0, 4573216.0 ], [ 2642256.0, 4573204.0 ], [ 2642266.0, 4573176.0 ], [ 2642268.0, 4573170.0 ], [ 2642221.0, 4573153.0 ], [ 2642154.0, 4573128.0 ], [ 2642145.0, 4573154.0 ], [ 2642057.0, 4573118.0 ], [ 2642056.0, 4573122.0 ], [ 2642039.0, 4573157.0 ], [ 2642033.0, 4573164.0 ], [ 2642004.0, 4573183.0 ], [ 2641972.0, 4573160.0 ], [ 2641922.0, 4573122.0 ], [ 2641869.0, 4573081.0 ], [ 2641863.0, 4573077.0 ], [ 2641825.0, 4573056.0 ], [ 2641780.0, 4573033.0 ], [ 2641753.0, 4573018.0 ], [ 2641748.0, 4573017.0 ], [ 2641740.0, 4573014.0 ], [ 2641708.0, 4572995.0 ], [ 2641700.0, 4572987.0 ], [ 2641688.0, 4572973.0 ], [ 2641667.0, 4572961.0 ], [ 2641659.0, 4572962.0 ], [ 2641601.0, 4572973.0 ], [ 2641589.0, 4572943.0 ], [ 2641582.0, 4572944.0 ], [ 2641558.0, 4572945.0 ], [ 2641537.0, 4572945.0 ], [ 2641530.0, 4572941.0 ], [ 2641517.0, 4572929.0 ], [ 2641488.0, 4572895.0 ], [ 2641445.0, 4572845.0 ], [ 2641387.0, 4572781.0 ], [ 2641343.0, 4572733.0 ], [ 2641334.0, 4572723.0 ], [ 2641323.0, 4572726.0 ], [ 2641304.0, 4572731.0 ], [ 2641263.0, 4572743.0 ], [ 2641255.0, 4572745.0 ], [ 2641247.0, 4572747.0 ], [ 2641236.0, 4572742.0 ], [ 2641229.0, 4572737.0 ], [ 2641222.0, 4572731.0 ], [ 2641219.0, 4572726.0 ], [ 2641191.0, 4572677.0 ], [ 2641159.0, 4572620.0 ], [ 2641130.0, 4572568.0 ], [ 2641102.0, 4572519.0 ], [ 2641081.0, 4572481.0 ], [ 2641067.0, 4572457.0 ], [ 2641049.0, 4572423.0 ], [ 2641035.0, 4572400.0 ], [ 2641016.0, 4572368.0 ], [ 2641004.0, 4572359.0 ], [ 2640983.0, 4572344.0 ], [ 2640947.0, 4572318.0 ], [ 2640927.0, 4572300.0 ], [ 2640915.0, 4572289.0 ], [ 2640886.0, 4572259.0 ], [ 2640854.0, 4572229.0 ], [ 2640826.0, 4572202.0 ], [ 2640803.0, 4572224.0 ], [ 2640769.0, 4572258.0 ], [ 2640716.0, 4572311.0 ], [ 2640703.0, 4572323.0 ], [ 2640696.0, 4572331.0 ], [ 2640684.0, 4572342.0 ], [ 2640660.0, 4572366.0 ], [ 2640657.0, 4572369.0 ], [ 2640619.0, 4572406.0 ], [ 2640576.0, 4572450.0 ], [ 2640524.0, 4572501.0 ], [ 2640520.0, 4572505.0 ], [ 2640516.0, 4572508.0 ], [ 2640513.0, 4572511.0 ], [ 2640510.0, 4572513.0 ], [ 2640507.0, 4572517.0 ], [ 2640500.0, 4572524.0 ], [ 2640482.0, 4572542.0 ], [ 2640435.0, 4572590.0 ], [ 2640423.0, 4572603.0 ], [ 2640395.0, 4572631.0 ], [ 2640367.0, 4572660.0 ], [ 2640344.0, 4572684.0 ], [ 2640297.0, 4572732.0 ], [ 2640266.0, 4572764.0 ], [ 2640253.0, 4572778.0 ], [ 2640236.0, 4572794.0 ], [ 2640180.0, 4572853.0 ], [ 2640162.0, 4572871.0 ], [ 2640140.0, 4572893.0 ], [ 2640113.0, 4572921.0 ], [ 2640070.0, 4572965.0 ], [ 2640030.0, 4573006.0 ], [ 2640023.0, 4573013.0 ], [ 2640000.0, 4573037.0 ], [ 2639945.0, 4573093.0 ], [ 2639927.0, 4573111.0 ], [ 2640077.0, 4573260.0 ], [ 2640125.0, 4573307.0 ], [ 2640178.0, 4573359.0 ], [ 2640373.0, 4573551.0 ], [ 2640457.0, 4573633.0 ], [ 2640513.0, 4573689.0 ], [ 2640528.0, 4573703.0 ], [ 2640465.0, 4573767.0 ], [ 2640427.0, 4573806.0 ], [ 2640349.0, 4573881.0 ], [ 2640304.0, 4573926.0 ], [ 2640291.0, 4573939.0 ], [ 2640280.0, 4573951.0 ], [ 2640271.0, 4573962.0 ], [ 2640265.0, 4573970.0 ], [ 2640259.0, 4573979.0 ], [ 2640252.0, 4573990.0 ], [ 2640248.0, 4573996.0 ], [ 2640243.0, 4574004.0 ], [ 2640238.0, 4574014.0 ], [ 2640229.0, 4574032.0 ], [ 2640224.0, 4574043.0 ], [ 2640213.0, 4574064.0 ], [ 2640206.0, 4574080.0 ], [ 2640198.0, 4574095.0 ], [ 2640191.0, 4574109.0 ], [ 2640183.0, 4574123.0 ], [ 2640177.0, 4574132.0 ], [ 2640169.0, 4574143.0 ], [ 2640162.0, 4574152.0 ], [ 2640152.0, 4574164.0 ], [ 2640139.0, 4574178.0 ], [ 2640127.0, 4574191.0 ], [ 2640054.0, 4574265.0 ], [ 2640045.0, 4574273.0 ], [ 2640033.0, 4574283.0 ], [ 2640017.0, 4574294.0 ], [ 2640006.0, 4574301.0 ], [ 2639992.0, 4574308.0 ], [ 2639981.0, 4574313.0 ], [ 2639969.0, 4574318.0 ], [ 2639957.0, 4574322.0 ], [ 2639944.0, 4574326.0 ], [ 2639930.0, 4574329.0 ], [ 2639917.0, 4574331.0 ], [ 2639903.0, 4574333.0 ], [ 2639891.0, 4574334.0 ], [ 2639878.0, 4574334.0 ], [ 2639858.0, 4574333.0 ], [ 2639844.0, 4574332.0 ], [ 2639825.0, 4574329.0 ], [ 2639810.0, 4574326.0 ], [ 2639792.0, 4574322.0 ], [ 2639752.0, 4574314.0 ], [ 2639654.0, 4574294.0 ], [ 2639605.0, 4574284.0 ], [ 2639570.0, 4574277.0 ], [ 2639530.0, 4574272.0 ], [ 2639467.0, 4574267.0 ], [ 2639402.0, 4574263.0 ], [ 2639316.0, 4574258.0 ], [ 2639243.0, 4574254.0 ], [ 2639217.0, 4574254.0 ], [ 2639209.0, 4574254.0 ], [ 2639202.0, 4574255.0 ], [ 2639193.0, 4574257.0 ], [ 2639183.0, 4574260.0 ], [ 2639175.0, 4574263.0 ], [ 2639170.0, 4574266.0 ], [ 2639165.0, 4574269.0 ], [ 2639160.0, 4574272.0 ], [ 2639143.0, 4574284.0 ], [ 2639136.0, 4574290.0 ], [ 2639036.0, 4574368.0 ], [ 2638976.0, 4574410.0 ], [ 2638972.0, 4574413.0 ], [ 2638899.0, 4574475.0 ], [ 2638790.0, 4574564.0 ], [ 2638675.0, 4574653.0 ], [ 2638601.0, 4574709.0 ], [ 2638531.0, 4574763.0 ], [ 2638486.0, 4574797.0 ], [ 2638402.0, 4574862.0 ], [ 2638386.0, 4574877.0 ], [ 2638369.0, 4574893.0 ], [ 2638357.0, 4574903.0 ], [ 2638348.0, 4574911.0 ], [ 2638336.0, 4574920.0 ], [ 2638327.0, 4574927.0 ], [ 2638317.0, 4574934.0 ], [ 2638303.0, 4574944.0 ], [ 2638290.0, 4574953.0 ], [ 2638278.0, 4574961.0 ], [ 2638268.0, 4574969.0 ], [ 2638260.0, 4574977.0 ], [ 2638245.0, 4574991.0 ], [ 2638212.0, 4575027.0 ], [ 2638238.0, 4575042.0 ], [ 2638272.0, 4575062.0 ], [ 2638310.0, 4575084.0 ], [ 2638327.0, 4575092.0 ], [ 2638345.0, 4575100.0 ], [ 2638365.0, 4575109.0 ], [ 2638387.0, 4575118.0 ], [ 2638442.0, 4575140.0 ], [ 2638477.0, 4575154.0 ], [ 2638487.0, 4575158.0 ], [ 2638498.0, 4575164.0 ], [ 2638512.0, 4575173.0 ], [ 2638525.0, 4575182.0 ], [ 2638542.0, 4575195.0 ], [ 2638566.0, 4575214.0 ], [ 2638611.0, 4575251.0 ], [ 2638696.0, 4575323.0 ], [ 2638904.0, 4575499.0 ], [ 2638836.0, 4575580.0 ], [ 2638817.0, 4575602.0 ], [ 2638791.0, 4575640.0 ], [ 2638792.0, 4575642.0 ], [ 2638692.0, 4575724.0 ], [ 2638746.0, 4575780.0 ], [ 2638752.0, 4575874.0 ], [ 2638755.0, 4575936.0 ], [ 2638712.0, 4575938.0 ], [ 2638661.0, 4575942.0 ], [ 2638582.0, 4575949.0 ], [ 2638532.0, 4575954.0 ], [ 2638379.0, 4575964.0 ], [ 2638201.0, 4575977.0 ], [ 2638028.0, 4575989.0 ], [ 2637913.0, 4575994.0 ], [ 2637860.0, 4575996.0 ], [ 2637848.0, 4576006.0 ], [ 2637841.0, 4576013.0 ], [ 2637833.0, 4576020.0 ], [ 2637830.0, 4576021.0 ], [ 2637824.0, 4576024.0 ], [ 2637812.0, 4576028.0 ], [ 2637789.0, 4576039.0 ], [ 2637736.0, 4576063.0 ], [ 2637700.0, 4576081.0 ], [ 2637661.0, 4576099.0 ], [ 2637653.0, 4576102.0 ], [ 2637576.0, 4576135.0 ], [ 2637569.0, 4576138.0 ], [ 2637493.0, 4576170.0 ], [ 2637459.0, 4576184.0 ], [ 2637452.0, 4576187.0 ], [ 2637444.0, 4576191.0 ], [ 2637430.0, 4576200.0 ], [ 2637362.0, 4576242.0 ], [ 2637327.0, 4576265.0 ], [ 2637314.0, 4576275.0 ], [ 2637307.0, 4576281.0 ], [ 2637296.0, 4576288.0 ], [ 2637288.0, 4576291.0 ], [ 2637281.0, 4576295.0 ], [ 2637263.0, 4576300.0 ], [ 2637256.0, 4576301.0 ], [ 2637239.0, 4576304.0 ], [ 2637145.0, 4576316.0 ], [ 2637130.0, 4576318.0 ], [ 2637111.0, 4576320.0 ], [ 2637093.0, 4576323.0 ], [ 2636938.0, 4576342.0 ], [ 2636910.0, 4576345.0 ], [ 2636899.0, 4576347.0 ], [ 2636892.0, 4576349.0 ], [ 2636890.0, 4576350.0 ], [ 2636879.0, 4576354.0 ], [ 2636825.0, 4576380.0 ], [ 2636836.0, 4576395.0 ] ] ] } }
]
}
