{
"type": "FeatureCollection",
"name": "bern-city_boundary",
"crs": { "type": "name", "properties": { "name": "urn:ogc:def:crs:EPSG::3857" } },
"features": [
{ "type": "Feature", "properties": { "bbox_west": 7.2943145, "bbox_south": 46.9190326, "bbox_east": 7.4955563, "bbox_north": 46.9901535, "place_id": 83474881, "osm_type": "relation", "osm_id": 1682378, "lat": 46.9484742, "lon": 7.4521749, "class": "boundary", "type": "administrative", "place_rank": 16, "importance": 0.72000516344309085, "addresstype": "city", "name": "Bern", "display_name": "Bern, Bern-Mittelland administrative district, Bernese Mittelland administrative region, Bern, Switzerland" }, "geometry": { "type": "Polygon", "coordinates": [ [ [ 812082.0, 5929794.0 ], [ 812118.0, 5929848.0 ], [ 812158.0, 5929888.0 ], [ 812208.0, 5929964.0 ], [ 812285.0, 5930040.0 ], [ 812439.0, 5930244.0 ], [ 812533.0, 5930316.0 ], [ 812632.0, 5930351.0 ], [ 812771.0, 5930382.0 ], [ 812792.0, 5930407.0 ], [ 812825.0, 5930411.0 ], [ 812875.0, 5930462.0 ], [ 812923.0, 5930553.0 ], [ 812942.0, 5930576.0 ], [ 813043.0, 5930638.0 ], [ 813087.0, 5930695.0 ], [ 813128.0, 5930724.0 ], [ 813217.0, 5930745.0 ], [ 813252.0, 5930770.0 ], [ 813264.0, 5930787.0 ], [ 813299.0, 5930789.0 ], [ 813318.0, 5930810.0 ], [ 813346.0, 5930881.0 ], [ 813333.0, 5930925.0 ], [ 813312.0, 5930997.0 ], [ 813217.0, 5931146.0 ], [ 813297.0, 5931181.0 ], [ 813251.0, 5931332.0 ], [ 813240.0, 5931358.0 ], [ 813215.0, 5931388.0 ], [ 813201.0, 5931459.0 ], [ 813136.0, 5931518.0 ], [ 813129.0, 5931542.0 ], [ 813131.0, 5931608.0 ], [ 813115.0, 5931672.0 ], [ 813149.0, 5931745.0 ], [ 813155.0, 5931775.0 ], [ 813157.0, 5931905.0 ], [ 813144.0, 5932002.0 ], [ 813150.0, 5932016.0 ], [ 813207.0, 5932083.0 ], [ 813263.0, 5932121.0 ], [ 813338.0, 5932155.0 ], [ 813345.0, 5932169.0 ], [ 813329.0, 5932195.0 ], [ 813360.0, 5932227.0 ], [ 813349.0, 5932279.0 ], [ 813396.0, 5932292.0 ], [ 813396.0, 5932347.0 ], [ 813483.0, 5932396.0 ], [ 813733.0, 5932533.0 ], [ 813806.0, 5932531.0 ], [ 813896.0, 5932554.0 ], [ 814159.0, 5932586.0 ], [ 814296.0, 5932691.0 ], [ 814341.0, 5932688.0 ], [ 814451.0, 5932655.0 ], [ 814507.0, 5932653.0 ], [ 814595.0, 5932681.0 ], [ 814738.0, 5932699.0 ], [ 814878.0, 5932738.0 ], [ 814930.0, 5932743.0 ], [ 815131.0, 5932795.0 ], [ 815235.0, 5932801.0 ], [ 815376.0, 5932820.0 ], [ 815384.0, 5932824.0 ], [ 815414.0, 5932881.0 ], [ 815482.0, 5932972.0 ], [ 815536.0, 5933033.0 ], [ 815555.0, 5933083.0 ], [ 815547.0, 5933133.0 ], [ 815594.0, 5933163.0 ], [ 815631.0, 5933207.0 ], [ 815730.0, 5933295.0 ], [ 815770.0, 5933321.0 ], [ 815800.0, 5933331.0 ], [ 815975.0, 5933354.0 ], [ 816012.0, 5933352.0 ], [ 816087.0, 5933367.0 ], [ 816121.0, 5933335.0 ], [ 816135.0, 5933302.0 ], [ 816183.0, 5933282.0 ], [ 816213.0, 5933278.0 ], [ 816349.0, 5933281.0 ], [ 816340.0, 5933309.0 ], [ 816387.0, 5933305.0 ], [ 816407.0, 5933310.0 ], [ 816425.0, 5933291.0 ], [ 816447.0, 5933298.0 ], [ 816554.0, 5933277.0 ], [ 816583.0, 5933265.0 ], [ 816610.0, 5933264.0 ], [ 816695.0, 5933280.0 ], [ 816716.0, 5933298.0 ], [ 816756.0, 5933315.0 ], [ 816812.0, 5933317.0 ], [ 816851.0, 5933315.0 ], [ 816867.0, 5933297.0 ], [ 816881.0, 5933295.0 ], [ 816904.0, 5933279.0 ], [ 816920.0, 5933284.0 ], [ 817059.0, 5933273.0 ], [ 817161.0, 5933303.0 ], [ 817215.0, 5933276.0 ], [ 817241.0, 5933277.0 ], [ 817252.0, 5933459.0 ], [ 817324.0, 5933442.0 ], [ 817334.0, 5933466.0 ], [ 817444.0, 5933472.0 ], [ 817513.0, 5933488.0 ], [ 817470.0, 5933720.0 ], [ 817825.0, 5933824.0 ], [ 817845.0, 5933610.0 ], [ 817903.0, 5933637.0 ], [ 817928.0, 5933540.0 ], [ 817937.0, 5933535.0 ], [ 818046.0, 5933564.0 ], [ 818096.0, 5933563.0 ], [ 818130.0, 5933576.0 ], [ 818148.0, 5933598.0 ], [ 818211.0, 5933633.0 ], [ 818238.0, 5933636.0 ], [ 818349.0, 5933680.0 ], [ 818261.0, 5933951.0 ], [ 818478.0, 5934003.0 ], [ 818519.0, 5934149.0 ], [ 818542.0, 5934231.0 ], [ 818961.0, 5934164.0 ], [ 819047.0, 5934139.0 ], [ 819111.0, 5934109.0 ], [ 819109.0, 5934196.0 ], [ 819181.0, 5934221.0 ], [ 819293.0, 5934287.0 ], [ 819450.0, 5934412.0 ], [ 819626.0, 5934528.0 ], [ 819820.0, 5934672.0 ], [ 819911.0, 5934774.0 ], [ 819974.0, 5934802.0 ], [ 820012.0, 5934828.0 ], [ 820102.0, 5934915.0 ], [ 820171.0, 5934949.0 ], [ 820205.0, 5934956.0 ], [ 820258.0, 5934997.0 ], [ 820320.0, 5935078.0 ], [ 820357.0, 5935114.0 ], [ 820369.0, 5935144.0 ], [ 820353.0, 5935160.0 ], [ 820479.0, 5935378.0 ], [ 820407.0, 5935425.0 ], [ 820593.0, 5935667.0 ], [ 820985.0, 5935521.0 ], [ 821372.0, 5935787.0 ], [ 821607.0, 5936440.0 ], [ 821895.0, 5936575.0 ], [ 822068.0, 5936590.0 ], [ 823074.0, 5936677.0 ], [ 823770.0, 5937045.0 ], [ 824687.0, 5936964.0 ], [ 825116.0, 5937158.0 ], [ 825539.0, 5937349.0 ], [ 826140.0, 5937433.0 ], [ 826683.0, 5937716.0 ], [ 826894.0, 5937797.0 ], [ 826900.0, 5937799.0 ], [ 827066.0, 5937790.0 ], [ 827229.0, 5937736.0 ], [ 827405.0, 5937617.0 ], [ 827548.0, 5937397.0 ], [ 827590.0, 5937213.0 ], [ 827631.0, 5937027.0 ], [ 827701.0, 5936923.0 ], [ 827826.0, 5936882.0 ], [ 827978.0, 5936923.0 ], [ 828060.0, 5937003.0 ], [ 828144.0, 5937183.0 ], [ 828172.0, 5937908.0 ], [ 828205.0, 5938055.0 ], [ 828261.0, 5938163.0 ], [ 828356.0, 5938286.0 ], [ 828469.0, 5938317.0 ], [ 828583.0, 5938291.0 ], [ 828753.0, 5938118.0 ], [ 828850.0, 5937961.0 ], [ 828998.0, 5937978.0 ], [ 829150.0, 5938099.0 ], [ 829224.0, 5938322.0 ], [ 829182.0, 5938536.0 ], [ 829074.0, 5938649.0 ], [ 828943.0, 5938649.0 ], [ 828667.0, 5938495.0 ], [ 828492.0, 5938564.0 ], [ 828391.0, 5938654.0 ], [ 828359.0, 5938781.0 ], [ 828409.0, 5938892.0 ], [ 828554.0, 5939028.0 ], [ 828766.0, 5939220.0 ], [ 828955.0, 5939522.0 ], [ 829012.0, 5939699.0 ], [ 829026.0, 5939950.0 ], [ 829067.0, 5940133.0 ], [ 829162.0, 5940322.0 ], [ 829405.0, 5940467.0 ], [ 829493.0, 5940462.0 ], [ 829576.0, 5940390.0 ], [ 829596.0, 5940287.0 ], [ 829640.0, 5939393.0 ], [ 829657.0, 5939326.0 ], [ 829681.0, 5939236.0 ], [ 829723.0, 5939053.0 ], [ 829827.0, 5938520.0 ], [ 829848.0, 5938454.0 ], [ 829887.0, 5938398.0 ], [ 829940.0, 5938355.0 ], [ 829999.0, 5938333.0 ], [ 830100.0, 5938313.0 ], [ 830844.0, 5938192.0 ], [ 831054.0, 5938194.0 ], [ 831131.0, 5938175.0 ], [ 831193.0, 5938129.0 ], [ 831225.0, 5938071.0 ], [ 831338.0, 5938129.0 ], [ 831369.0, 5938044.0 ], [ 831386.0, 5937868.0 ], [ 831400.0, 5937822.0 ], [ 831425.0, 5937781.0 ], [ 831496.0, 5937697.0 ], [ 831524.0, 5937640.0 ], [ 831539.0, 5937643.0 ], [ 831552.0, 5937557.0 ], [ 831564.0, 5937342.0 ], [ 831579.0, 5937308.0 ], [ 831627.0, 5937236.0 ], [ 831645.0, 5937178.0 ], [ 831644.0, 5937138.0 ], [ 831633.0, 5937098.0 ], [ 831648.0, 5937091.0 ], [ 831609.0, 5937019.0 ], [ 831597.0, 5936986.0 ], [ 831584.0, 5936856.0 ], [ 831597.0, 5936850.0 ], [ 831578.0, 5936756.0 ], [ 831675.0, 5936947.0 ], [ 831824.0, 5937014.0 ], [ 831940.0, 5937086.0 ], [ 831983.0, 5937102.0 ], [ 831994.0, 5937105.0 ], [ 832212.0, 5937118.0 ], [ 832226.0, 5937111.0 ], [ 832308.0, 5937129.0 ], [ 832318.0, 5937152.0 ], [ 832319.0, 5937207.0 ], [ 832337.0, 5937261.0 ], [ 832377.0, 5937302.0 ], [ 832441.0, 5937338.0 ], [ 832465.0, 5937372.0 ], [ 832634.0, 5937374.0 ], [ 832739.0, 5937430.0 ], [ 832954.0, 5937390.0 ], [ 833054.0, 5937341.0 ], [ 833106.0, 5937302.0 ], [ 833173.0, 5937204.0 ], [ 833232.0, 5937025.0 ], [ 833249.0, 5936845.0 ], [ 833352.0, 5936836.0 ], [ 833296.0, 5936656.0 ], [ 833376.0, 5936603.0 ], [ 833309.0, 5936505.0 ], [ 833312.0, 5936473.0 ], [ 833305.0, 5936431.0 ], [ 833285.0, 5936398.0 ], [ 833315.0, 5936311.0 ], [ 833275.0, 5936296.0 ], [ 833236.0, 5936281.0 ], [ 833195.0, 5936268.0 ], [ 833154.0, 5936256.0 ], [ 833113.0, 5936245.0 ], [ 833072.0, 5936235.0 ], [ 833030.0, 5936227.0 ], [ 832989.0, 5936219.0 ], [ 832900.0, 5936205.0 ], [ 832856.0, 5936197.0 ], [ 832820.0, 5936190.0 ], [ 832788.0, 5936182.0 ], [ 832758.0, 5936172.0 ], [ 832728.0, 5936160.0 ], [ 832695.0, 5936145.0 ], [ 832656.0, 5936124.0 ], [ 832561.0, 5936073.0 ], [ 832553.0, 5936053.0 ], [ 832500.0, 5936021.0 ], [ 832536.0, 5935980.0 ], [ 832526.0, 5935942.0 ], [ 832575.0, 5935894.0 ], [ 832629.0, 5935819.0 ], [ 832647.0, 5935789.0 ], [ 832682.0, 5935709.0 ], [ 832702.0, 5935658.0 ], [ 832615.0, 5935610.0 ], [ 832608.0, 5935612.0 ], [ 832626.0, 5935580.0 ], [ 832636.0, 5935558.0 ], [ 832623.0, 5935553.0 ], [ 832621.0, 5935556.0 ], [ 832619.0, 5935557.0 ], [ 832615.0, 5935558.0 ], [ 832611.0, 5935556.0 ], [ 832581.0, 5935528.0 ], [ 832615.0, 5935491.0 ], [ 832608.0, 5935409.0 ], [ 832594.0, 5935362.0 ], [ 832551.0, 5935349.0 ], [ 832614.0, 5935077.0 ], [ 832642.0, 5935028.0 ], [ 832645.0, 5934993.0 ], [ 832607.0, 5934926.0 ], [ 832571.0, 5934900.0 ], [ 832521.0, 5934881.0 ], [ 832513.0, 5934844.0 ], [ 832325.0, 5934817.0 ], [ 832356.0, 5934752.0 ], [ 832342.0, 5934744.0 ], [ 832327.0, 5934702.0 ], [ 832337.0, 5934644.0 ], [ 832339.0, 5934641.0 ], [ 832341.0, 5934639.0 ], [ 832343.0, 5934638.0 ], [ 832346.0, 5934638.0 ], [ 832350.0, 5934626.0 ], [ 832360.0, 5934589.0 ], [ 832451.0, 5934600.0 ], [ 832512.0, 5934555.0 ], [ 832551.0, 5934531.0 ], [ 832584.0, 5934502.0 ], [ 832601.0, 5934498.0 ], [ 832671.0, 5934437.0 ], [ 832670.0, 5934431.0 ], [ 832779.0, 5934328.0 ], [ 832785.0, 5934329.0 ], [ 832849.0, 5934261.0 ], [ 832919.0, 5934175.0 ], [ 832969.0, 5934096.0 ], [ 833001.0, 5934065.0 ], [ 833047.0, 5933976.0 ], [ 833076.0, 5933959.0 ], [ 833121.0, 5933916.0 ], [ 833039.0, 5933543.0 ], [ 833105.0, 5933518.0 ], [ 833080.0, 5933382.0 ], [ 833073.0, 5933229.0 ], [ 833047.0, 5933134.0 ], [ 833224.0, 5933038.0 ], [ 833252.0, 5933116.0 ], [ 833349.0, 5932982.0 ], [ 833364.0, 5932982.0 ], [ 833478.0, 5932931.0 ], [ 833560.0, 5932910.0 ], [ 833578.0, 5932899.0 ], [ 833589.0, 5932892.0 ], [ 833640.0, 5932843.0 ], [ 833717.0, 5932737.0 ], [ 833805.0, 5932663.0 ], [ 833866.0, 5932587.0 ], [ 833942.0, 5932704.0 ], [ 834093.0, 5932510.0 ], [ 834273.0, 5932331.0 ], [ 834290.0, 5932316.0 ], [ 834402.0, 5932224.0 ], [ 834400.0, 5932215.0 ], [ 834334.0, 5932061.0 ], [ 834270.0, 5932094.0 ], [ 834174.0, 5931904.0 ], [ 834115.0, 5931988.0 ], [ 834077.0, 5932019.0 ], [ 833872.0, 5932084.0 ], [ 833757.0, 5931857.0 ], [ 833727.0, 5931775.0 ], [ 833629.0, 5931799.0 ], [ 833531.0, 5931813.0 ], [ 833311.0, 5931832.0 ], [ 833336.0, 5931741.0 ], [ 833070.0, 5931808.0 ], [ 832846.0, 5931822.0 ], [ 832710.0, 5931865.0 ], [ 832580.0, 5931876.0 ], [ 832532.0, 5931864.0 ], [ 832449.0, 5931830.0 ], [ 832331.0, 5931798.0 ], [ 832299.0, 5931789.0 ], [ 832295.0, 5931779.0 ], [ 832459.0, 5931674.0 ], [ 832362.0, 5931558.0 ], [ 832319.0, 5931482.0 ], [ 832308.0, 5931489.0 ], [ 832200.0, 5931412.0 ], [ 832229.0, 5931372.0 ], [ 832080.0, 5931295.0 ], [ 832087.0, 5931244.0 ], [ 832153.0, 5931143.0 ], [ 831978.0, 5931085.0 ], [ 831988.0, 5931024.0 ], [ 832001.0, 5930962.0 ], [ 831661.0, 5930626.0 ], [ 831457.0, 5930532.0 ], [ 831469.0, 5930501.0 ], [ 831467.0, 5930443.0 ], [ 831606.0, 5930229.0 ], [ 831700.0, 5929968.0 ], [ 831653.0, 5929931.0 ], [ 831642.0, 5929923.0 ], [ 831472.0, 5930117.0 ], [ 830911.0, 5930624.0 ], [ 830798.0, 5930743.0 ], [ 830712.0, 5930843.0 ], [ 830671.0, 5930904.0 ], [ 830548.0, 5931217.0 ], [ 830509.0, 5931300.0 ], [ 830448.0, 5931368.0 ], [ 830370.0, 5931415.0 ], [ 830336.0, 5931426.0 ], [ 830321.0, 5931432.0 ], [ 830284.0, 5931444.0 ], [ 830193.0, 5931450.0 ], [ 830104.0, 5931430.0 ], [ 830024.0, 5931387.0 ], [ 829728.0, 5931201.0 ], [ 829670.0, 5931169.0 ], [ 829606.0, 5931145.0 ], [ 829544.0, 5930993.0 ], [ 829513.0, 5931018.0 ], [ 829461.0, 5931019.0 ], [ 829449.0, 5931028.0 ], [ 829379.0, 5930985.0 ], [ 829356.0, 5930987.0 ], [ 829352.0, 5930958.0 ], [ 829286.0, 5930968.0 ], [ 829206.0, 5930964.0 ], [ 829086.0, 5930743.0 ], [ 829067.0, 5930726.0 ], [ 829016.0, 5930790.0 ], [ 828959.0, 5930837.0 ], [ 828884.0, 5930880.0 ], [ 828818.0, 5930895.0 ], [ 828633.0, 5931021.0 ], [ 828336.0, 5931181.0 ], [ 828246.0, 5931250.0 ], [ 828241.0, 5931246.0 ], [ 828181.0, 5931302.0 ], [ 828131.0, 5931332.0 ], [ 828093.0, 5931343.0 ], [ 828062.0, 5931351.0 ], [ 827926.0, 5931424.0 ], [ 827785.0, 5931455.0 ], [ 827707.0, 5931465.0 ], [ 827599.0, 5931304.0 ], [ 827527.0, 5931165.0 ], [ 827671.0, 5931048.0 ], [ 827764.0, 5930972.0 ], [ 827967.0, 5930823.0 ], [ 827954.0, 5930777.0 ], [ 827832.0, 5930796.0 ], [ 827436.0, 5930858.0 ], [ 827410.0, 5930877.0 ], [ 827402.0, 5930870.0 ], [ 827393.0, 5930869.0 ], [ 827376.0, 5930866.0 ], [ 827365.0, 5930867.0 ], [ 827354.0, 5930870.0 ], [ 827343.0, 5930874.0 ], [ 827332.0, 5930878.0 ], [ 827314.0, 5930887.0 ], [ 827293.0, 5930901.0 ], [ 827281.0, 5930908.0 ], [ 827275.0, 5930911.0 ], [ 827268.0, 5930915.0 ], [ 827241.0, 5930924.0 ], [ 827239.0, 5930926.0 ], [ 827238.0, 5930929.0 ], [ 827228.0, 5930935.0 ], [ 827247.0, 5930966.0 ], [ 827249.0, 5930972.0 ], [ 827247.0, 5930976.0 ], [ 827244.0, 5930979.0 ], [ 827206.0, 5931006.0 ], [ 827185.0, 5931021.0 ], [ 827167.0, 5931036.0 ], [ 827142.0, 5931056.0 ], [ 827124.0, 5931068.0 ], [ 827104.0, 5931079.0 ], [ 827082.0, 5931090.0 ], [ 827032.0, 5931112.0 ], [ 827023.0, 5931116.0 ], [ 826867.0, 5931177.0 ], [ 826836.0, 5931181.0 ], [ 826768.0, 5931217.0 ], [ 826633.0, 5931323.0 ], [ 826546.0, 5931411.0 ], [ 826470.0, 5931280.0 ], [ 826385.0, 5931340.0 ], [ 826365.0, 5931297.0 ], [ 826254.0, 5931353.0 ], [ 826225.0, 5931370.0 ], [ 826182.0, 5931403.0 ], [ 826126.0, 5931333.0 ], [ 825733.0, 5931691.0 ], [ 825666.0, 5931694.0 ], [ 825554.0, 5931739.0 ], [ 825545.0, 5931740.0 ], [ 825400.0, 5931767.0 ], [ 825405.0, 5931738.0 ], [ 825413.0, 5931700.0 ], [ 825394.0, 5931696.0 ], [ 825399.0, 5931672.0 ], [ 825399.0, 5931627.0 ], [ 825394.0, 5931596.0 ], [ 825380.0, 5931551.0 ], [ 825368.0, 5931505.0 ], [ 825359.0, 5931440.0 ], [ 825346.0, 5931375.0 ], [ 825339.0, 5931310.0 ], [ 825330.0, 5931310.0 ], [ 825316.0, 5931228.0 ], [ 825311.0, 5931206.0 ], [ 825299.0, 5931178.0 ], [ 825283.0, 5931108.0 ], [ 825258.0, 5931077.0 ], [ 825284.0, 5930997.0 ], [ 825305.0, 5930911.0 ], [ 825055.0, 5930856.0 ], [ 825064.0, 5930811.0 ], [ 824975.0, 5930791.0 ], [ 824973.0, 5930799.0 ], [ 824962.0, 5930796.0 ], [ 824964.0, 5930789.0 ], [ 824863.0, 5930766.0 ], [ 824853.0, 5930813.0 ], [ 824809.0, 5930805.0 ], [ 824734.0, 5930802.0 ], [ 824681.0, 5930815.0 ], [ 824612.0, 5930771.0 ], [ 824608.0, 5930768.0 ], [ 824552.0, 5930718.0 ], [ 824553.0, 5930366.0 ], [ 824587.0, 5930325.0 ], [ 824595.0, 5930299.0 ], [ 824601.0, 5930257.0 ], [ 824601.0, 5930245.0 ], [ 824594.0, 5930213.0 ], [ 824570.0, 5930136.0 ], [ 824573.0, 5930075.0 ], [ 824651.0, 5929960.0 ], [ 824662.0, 5929943.0 ], [ 824554.0, 5929874.0 ], [ 824400.0, 5929792.0 ], [ 824265.0, 5929754.0 ], [ 824180.0, 5929738.0 ], [ 824073.0, 5929742.0 ], [ 824019.0, 5929724.0 ], [ 824001.0, 5929710.0 ], [ 823906.0, 5929591.0 ], [ 823865.0, 5929487.0 ], [ 823862.0, 5929453.0 ], [ 823881.0, 5929426.0 ], [ 823921.0, 5929398.0 ], [ 823936.0, 5929275.0 ], [ 823929.0, 5929220.0 ], [ 823811.0, 5929345.0 ], [ 823760.0, 5929381.0 ], [ 823722.0, 5929454.0 ], [ 823506.0, 5929683.0 ], [ 823395.0, 5929810.0 ], [ 823328.0, 5929901.0 ], [ 823244.0, 5929934.0 ], [ 823175.0, 5929978.0 ], [ 823023.0, 5930073.0 ], [ 822962.0, 5930138.0 ], [ 822919.0, 5930183.0 ], [ 822886.0, 5930229.0 ], [ 822661.0, 5930432.0 ], [ 822573.0, 5930532.0 ], [ 822545.0, 5930558.0 ], [ 822509.0, 5930582.0 ], [ 822491.0, 5930597.0 ], [ 822425.0, 5930670.0 ], [ 822381.0, 5930729.0 ], [ 822295.0, 5930658.0 ], [ 822247.0, 5930634.0 ], [ 822232.0, 5930614.0 ], [ 822235.0, 5930548.0 ], [ 822220.0, 5930529.0 ], [ 822124.0, 5930437.0 ], [ 822083.0, 5930409.0 ], [ 822030.0, 5930367.0 ], [ 821994.0, 5930407.0 ], [ 821931.0, 5930357.0 ], [ 821880.0, 5930321.0 ], [ 821851.0, 5930294.0 ], [ 821795.0, 5930213.0 ], [ 821775.0, 5930249.0 ], [ 821772.0, 5930310.0 ], [ 821769.0, 5930318.0 ], [ 821725.0, 5930391.0 ], [ 821725.0, 5930409.0 ], [ 821724.0, 5930414.0 ], [ 821686.0, 5930462.0 ], [ 821615.0, 5930546.0 ], [ 821540.0, 5930638.0 ], [ 821574.0, 5930690.0 ], [ 821579.0, 5930691.0 ], [ 821625.0, 5930714.0 ], [ 821591.0, 5930791.0 ], [ 821644.0, 5931036.0 ], [ 821635.0, 5931048.0 ], [ 821553.0, 5931040.0 ], [ 821499.0, 5931064.0 ], [ 821375.0, 5931099.0 ], [ 821357.0, 5931076.0 ], [ 821354.0, 5931064.0 ], [ 821328.0, 5930946.0 ], [ 821309.0, 5930926.0 ], [ 821090.0, 5930912.0 ], [ 820966.0, 5930889.0 ], [ 820969.0, 5931098.0 ], [ 820928.0, 5931088.0 ], [ 820895.0, 5931083.0 ], [ 820793.0, 5931071.0 ], [ 820787.0, 5931066.0 ], [ 820786.0, 5931058.0 ], [ 820778.0, 5931086.0 ], [ 820505.0, 5931021.0 ], [ 820505.0, 5931005.0 ], [ 820417.0, 5930950.0 ], [ 820396.0, 5930975.0 ], [ 820359.0, 5930999.0 ], [ 820209.0, 5931046.0 ], [ 820139.0, 5930947.0 ], [ 820248.0, 5930801.0 ], [ 820255.0, 5930745.0 ], [ 820236.0, 5930725.0 ], [ 820107.0, 5930625.0 ], [ 820025.0, 5930575.0 ], [ 819900.0, 5930528.0 ], [ 819720.0, 5930503.0 ], [ 819593.0, 5930464.0 ], [ 819403.0, 5930441.0 ], [ 819357.0, 5930426.0 ], [ 819374.0, 5930200.0 ], [ 819197.0, 5930191.0 ], [ 819045.0, 5930198.0 ], [ 818882.0, 5930170.0 ], [ 818770.0, 5930143.0 ], [ 818636.0, 5930135.0 ], [ 818638.0, 5930008.0 ], [ 818573.0, 5930004.0 ], [ 818442.0, 5930008.0 ], [ 818317.0, 5929986.0 ], [ 818235.0, 5929967.0 ], [ 818153.0, 5929932.0 ], [ 818080.0, 5929917.0 ], [ 817975.0, 5929880.0 ], [ 817640.0, 5929857.0 ], [ 817478.0, 5929817.0 ], [ 816950.0, 5929765.0 ], [ 817015.0, 5928972.0 ], [ 816108.0, 5928901.0 ], [ 815689.0, 5928868.0 ], [ 815629.0, 5929612.0 ], [ 815578.0, 5929709.0 ], [ 815572.0, 5929708.0 ], [ 815549.0, 5929729.0 ], [ 815504.0, 5929783.0 ], [ 815444.0, 5929790.0 ], [ 815388.0, 5929832.0 ], [ 815391.0, 5929860.0 ], [ 815346.0, 5929872.0 ], [ 815270.0, 5929866.0 ], [ 815218.0, 5929870.0 ], [ 815210.0, 5929870.0 ], [ 815045.0, 5929850.0 ], [ 814996.0, 5929850.0 ], [ 814933.0, 5929869.0 ], [ 814836.0, 5929859.0 ], [ 814820.0, 5929853.0 ], [ 814737.0, 5929815.0 ], [ 814563.0, 5929760.0 ], [ 814217.0, 5929563.0 ], [ 813954.0, 5929473.0 ], [ 813773.0, 5929424.0 ], [ 813548.0, 5929398.0 ], [ 813458.0, 5929400.0 ], [ 813395.0, 5929392.0 ], [ 813261.0, 5929406.0 ], [ 813206.0, 5929405.0 ], [ 812648.0, 5929474.0 ], [ 812406.0, 5929496.0 ], [ 812074.0, 5929495.0 ], [ 812018.0, 5929580.0 ], [ 812000.0, 5929621.0 ], [ 811999.0, 5929638.0 ], [ 812082.0, 5929794.0 ] ] ] } }
]
}
