{
"type": "FeatureCollection",
"name": "bern-grid",
"crs": { "type": "name", "properties": { "name": "urn:ogc:def:crs:EPSG::3857" } },
"features": [
{ "type": "Feature", "properties": { "osmid": 3097073924.0 }, "geometry": { "type": "Point", "coordinates": [ 818610.0, 5931573.0 ] } },
{ "type": "Feature", "properties": { "osmid": 281843056.0 }, "geometry": { "type": "Point", "coordinates": [ 829441.0, 5938727.0 ] } },
{ "type": "Feature", "properties": { "osmid": 373285548.0 }, "geometry": { "type": "Point", "coordinates": [ 824771.0, 5936138.0 ] } },
{ "type": "Feature", "properties": { "osmid": 2161105106.0 }, "geometry": { "type": "Point", "coordinates": [ 822216.0, 5930554.0 ] } },
{ "type": "Feature", "properties": { "osmid": 566628234.0 }, "geometry": { "type": "Point", "coordinates": [ 819918.0, 5933569.0 ] } },
{ "type": "Feature", "properties": { "osmid": 2727649976.0 }, "geometry": { "type": "Point", "coordinates": [ 823859.0, 5930789.0 ] } },
{ "type": "Feature", "properties": { "osmid": 6121410512.0 }, "geometry": { "type": "Point", "coordinates": [ 816542.0, 5932941.0 ] } },
{ "type": "Feature", "properties": { "osmid": 559110872.0 }, "geometry": { "type": "Point", "coordinates": [ 831767.0, 5935563.0 ] } },
{ "type": "Feature", "properties": { "osmid": 362011332.0 }, "geometry": { "type": "Point", "coordinates": [ 825064.0, 5934559.0 ] } },
{ "type": "Feature", "properties": { "osmid": 10584974120.0 }, "geometry": { "type": "Point", "coordinates": [ 818180.0, 5933260.0 ] } },
{ "type": "Feature", "properties": { "osmid": 308078399.0 }, "geometry": { "type": "Point", "coordinates": [ 816799.0, 5931267.0 ] } },
{ "type": "Feature", "properties": { "osmid": 6119970732.0 }, "geometry": { "type": "Point", "coordinates": [ 828104.0, 5936617.0 ] } },
{ "type": "Feature", "properties": { "osmid": 290798717.0 }, "geometry": { "type": "Point", "coordinates": [ 822912.0, 5935950.0 ] } },
{ "type": "Feature", "properties": { "osmid": 211101171.0 }, "geometry": { "type": "Point", "coordinates": [ 826455.0, 5936607.0 ] } },
{ "type": "Feature", "properties": { "osmid": 1488963762.0 }, "geometry": { "type": "Point", "coordinates": [ 813727.0, 5930767.0 ] } },
{ "type": "Feature", "properties": { "osmid": 537539550.0 }, "geometry": { "type": "Point", "coordinates": [ 834142.0, 5932432.0 ] } },
{ "type": "Feature", "properties": { "osmid": 567483379.0 }, "geometry": { "type": "Point", "coordinates": [ 821508.0, 5935744.0 ] } },
{ "type": "Feature", "properties": { "osmid": 343432492.0 }, "geometry": { "type": "Point", "coordinates": [ 815138.0, 5930774.0 ] } },
{ "type": "Feature", "properties": { "osmid": 528788443.0 }, "geometry": { "type": "Point", "coordinates": [ 831159.0, 5930449.0 ] } },
{ "type": "Feature", "properties": { "osmid": 1903842107.0 }, "geometry": { "type": "Point", "coordinates": [ 815089.0, 5932376.0 ] } },
{ "type": "Feature", "properties": { "osmid": 417619934.0 }, "geometry": { "type": "Point", "coordinates": [ 825271.0, 5931183.0 ] } },
{ "type": "Feature", "properties": { "osmid": 1479969801.0 }, "geometry": { "type": "Point", "coordinates": [ 817515.0, 5929827.0 ] } },
{ "type": "Feature", "properties": { "osmid": 343091377.0 }, "geometry": { "type": "Point", "coordinates": [ 819056.0, 5930264.0 ] } },
{ "type": "Feature", "properties": { "osmid": 558112813.0 }, "geometry": { "type": "Point", "coordinates": [ 833165.0, 5936301.0 ] } },
{ "type": "Feature", "properties": { "osmid": 31207348.0 }, "geometry": { "type": "Point", "coordinates": [ 829037.0, 5937447.0 ] } },
{ "type": "Feature", "properties": { "osmid": 621951323.0 }, "geometry": { "type": "Point", "coordinates": [ 829276.0, 5936940.0 ] } },
{ "type": "Feature", "properties": { "osmid": 12999399058.0 }, "geometry": { "type": "Point", "coordinates": [ 828667.0, 5936944.0 ] } },
{ "type": "Feature", "properties": { "osmid": 843355647.0 }, "geometry": { "type": "Point", "coordinates": [ 829619.0, 5937807.0 ] } },
{ "type": "Feature", "properties": { "osmid": 6964930912.0 }, "geometry": { "type": "Point", "coordinates": [ 828346.0, 5937636.0 ] } },
{ "type": "Feature", "properties": { "osmid": 255963740.0 }, "geometry": { "type": "Point", "coordinates": [ 829053.0, 5936463.0 ] } },
{ "type": "Feature", "properties": { "osmid": 6923429432.0 }, "geometry": { "type": "Point", "coordinates": [ 830072.0, 5938212.0 ] } },
{ "type": "Feature", "properties": { "osmid": 253220639.0 }, "geometry": { "type": "Point", "coordinates": [ 829490.0, 5936130.0 ] } },
{ "type": "Feature", "properties": { "osmid": 1038135290.0 }, "geometry": { "type": "Point", "coordinates": [ 828467.0, 5936172.0 ] } },
{ "type": "Feature", "properties": { "osmid": 610223432.0 }, "geometry": { "type": "Point", "coordinates": [ 830050.0, 5936140.0 ] } },
{ "type": "Feature", "properties": { "osmid": 280145271.0 }, "geometry": { "type": "Point", "coordinates": [ 828625.0, 5935676.0 ] } },
{ "type": "Feature", "properties": { "osmid": 608495413.0 }, "geometry": { "type": "Point", "coordinates": [ 829173.0, 5935620.0 ] } },
{ "type": "Feature", "properties": { "osmid": 255451738.0 }, "geometry": { "type": "Point", "coordinates": [ 827642.0, 5936254.0 ] } },
{ "type": "Feature", "properties": { "osmid": 3456189643.0 }, "geometry": { "type": "Point", "coordinates": [ 830847.0, 5936909.0 ] } },
{ "type": "Feature", "properties": { "osmid": 32462870.0 }, "geometry": { "type": "Point", "coordinates": [ 829796.0, 5935596.0 ] } },
{ "type": "Feature", "properties": { "osmid": 614844427.0 }, "geometry": { "type": "Point", "coordinates": [ 830627.0, 5936077.0 ] } },
{ "type": "Feature", "properties": { "osmid": 893860553.0 }, "geometry": { "type": "Point", "coordinates": [ 828040.0, 5935551.0 ] } },
{ "type": "Feature", "properties": { "osmid": 568183400.0 }, "geometry": { "type": "Point", "coordinates": [ 826973.0, 5936763.0 ] } },
{ "type": "Feature", "properties": { "osmid": 34484990.0 }, "geometry": { "type": "Point", "coordinates": [ 830303.0, 5935562.0 ] } },
{ "type": "Feature", "properties": { "osmid": 620493939.0 }, "geometry": { "type": "Point", "coordinates": [ 831341.0, 5937350.0 ] } },
{ "type": "Feature", "properties": { "osmid": 606970725.0 }, "geometry": { "type": "Point", "coordinates": [ 829096.0, 5935112.0 ] } },
{ "type": "Feature", "properties": { "osmid": 273092169.0 }, "geometry": { "type": "Point", "coordinates": [ 827509.0, 5935499.0 ] } },
{ "type": "Feature", "properties": { "osmid": 302075944.0 }, "geometry": { "type": "Point", "coordinates": [ 829602.0, 5935033.0 ] } },
{ "type": "Feature", "properties": { "osmid": 618277684.0 }, "geometry": { "type": "Point", "coordinates": [ 828611.0, 5934958.0 ] } },
{ "type": "Feature", "properties": { "osmid": 7254848536.0 }, "geometry": { "type": "Point", "coordinates": [ 831291.0, 5936306.0 ] } },
{ "type": "Feature", "properties": { "osmid": 255409836.0 }, "geometry": { "type": "Point", "coordinates": [ 831579.0, 5936854.0 ] } },
{ "type": "Feature", "properties": { "osmid": 34484969.0 }, "geometry": { "type": "Point", "coordinates": [ 830872.0, 5935472.0 ] } },
{ "type": "Feature", "properties": { "osmid": 471304589.0 }, "geometry": { "type": "Point", "coordinates": [ 827773.0, 5935065.0 ] } },
{ "type": "Feature", "properties": { "osmid": 254021024.0 }, "geometry": { "type": "Point", "coordinates": [ 828977.0, 5934510.0 ] } },
{ "type": "Feature", "properties": { "osmid": 6123854280.0 }, "geometry": { "type": "Point", "coordinates": [ 828119.0, 5934629.0 ] } },
{ "type": "Feature", "properties": { "osmid": 298540791.0 }, "geometry": { "type": "Point", "coordinates": [ 829850.0, 5934474.0 ] } },
{ "type": "Feature", "properties": { "osmid": 33064003.0 }, "geometry": { "type": "Point", "coordinates": [ 827090.0, 5935054.0 ] } },
{ "type": "Feature", "properties": { "osmid": 15747267.0 }, "geometry": { "type": "Point", "coordinates": [ 827470.0, 5934649.0 ] } },
{ "type": "Feature", "properties": { "osmid": 9071215927.0 }, "geometry": { "type": "Point", "coordinates": [ 829429.0, 5934165.0 ] } },
{ "type": "Feature", "properties": { "osmid": 3096506924.0 }, "geometry": { "type": "Point", "coordinates": [ 831286.0, 5934963.0 ] } },
{ "type": "Feature", "properties": { "osmid": 558538945.0 }, "geometry": { "type": "Point", "coordinates": [ 832160.0, 5936225.0 ] } },
{ "type": "Feature", "properties": { "osmid": 834071376.0 }, "geometry": { "type": "Point", "coordinates": [ 827765.0, 5934212.0 ] } },
{ "type": "Feature", "properties": { "osmid": 33062625.0 }, "geometry": { "type": "Point", "coordinates": [ 826969.0, 5934525.0 ] } },
{ "type": "Feature", "properties": { "osmid": 9071374394.0 }, "geometry": { "type": "Point", "coordinates": [ 830313.0, 5934093.0 ] } },
{ "type": "Feature", "properties": { "osmid": 6132236793.0 }, "geometry": { "type": "Point", "coordinates": [ 828316.0, 5933926.0 ] } },
{ "type": "Feature", "properties": { "osmid": 4989211771.0 }, "geometry": { "type": "Point", "coordinates": [ 826420.0, 5934982.0 ] } },
{ "type": "Feature", "properties": { "osmid": 4294664777.0 }, "geometry": { "type": "Point", "coordinates": [ 829066.0, 5933693.0 ] } },
{ "type": "Feature", "properties": { "osmid": 452996225.0 }, "geometry": { "type": "Point", "coordinates": [ 829583.0, 5933679.0 ] } },
{ "type": "Feature", "properties": { "osmid": 6952450179.0 }, "geometry": { "type": "Point", "coordinates": [ 831281.0, 5934347.0 ] } },
{ "type": "Feature", "properties": { "osmid": 279006720.0 }, "geometry": { "type": "Point", "coordinates": [ 832209.0, 5935187.0 ] } },
{ "type": "Feature", "properties": { "osmid": 275422329.0 }, "geometry": { "type": "Point", "coordinates": [ 830816.0, 5933955.0 ] } },
{ "type": "Feature", "properties": { "osmid": 5535788356.0 }, "geometry": { "type": "Point", "coordinates": [ 827341.0, 5933858.0 ] } },
{ "type": "Feature", "properties": { "osmid": 811399152.0 }, "geometry": { "type": "Point", "coordinates": [ 826536.0, 5934273.0 ] } },
{ "type": "Feature", "properties": { "osmid": 29870012.0 }, "geometry": { "type": "Point", "coordinates": [ 828630.0, 5933406.0 ] } },
{ "type": "Feature", "properties": { "osmid": 13503918059.0 }, "geometry": { "type": "Point", "coordinates": [ 827981.0, 5933468.0 ] } },
{ "type": "Feature", "properties": { "osmid": 543992318.0 }, "geometry": { "type": "Point", "coordinates": [ 832045.0, 5934622.0 ] } },
{ "type": "Feature", "properties": { "osmid": 265618077.0 }, "geometry": { "type": "Point", "coordinates": [ 830594.0, 5933459.0 ] } },
{ "type": "Feature", "properties": { "osmid": 543975678.0 }, "geometry": { "type": "Point", "coordinates": [ 831792.0, 5934159.0 ] } },
{ "type": "Feature", "properties": { "osmid": 274987191.0 }, "geometry": { "type": "Point", "coordinates": [ 831315.0, 5933690.0 ] } },
{ "type": "Feature", "properties": { "osmid": 4979420196.0 }, "geometry": { "type": "Point", "coordinates": [ 825948.0, 5934320.0 ] } },
{ "type": "Feature", "properties": { "osmid": 1671605885.0 }, "geometry": { "type": "Point", "coordinates": [ 827503.0, 5933250.0 ] } },
{ "type": "Feature", "properties": { "osmid": 567241413.0 }, "geometry": { "type": "Point", "coordinates": [ 829222.0, 5932960.0 ] } },
{ "type": "Feature", "properties": { "osmid": 454589193.0 }, "geometry": { "type": "Point", "coordinates": [ 829963.0, 5933037.0 ] } },
{ "type": "Feature", "properties": { "osmid": 282772613.0 }, "geometry": { "type": "Point", "coordinates": [ 827008.0, 5933380.0 ] } },
{ "type": "Feature", "properties": { "osmid": 34706720.0 }, "geometry": { "type": "Point", "coordinates": [ 828613.0, 5932815.0 ] } },
{ "type": "Feature", "properties": { "osmid": 270961537.0 }, "geometry": { "type": "Point", "coordinates": [ 831804.0, 5933554.0 ] } },
{ "type": "Feature", "properties": { "osmid": 282772629.0 }, "geometry": { "type": "Point", "coordinates": [ 826489.0, 5933380.0 ] } },
{ "type": "Feature", "properties": { "osmid": 95026393.0 }, "geometry": { "type": "Point", "coordinates": [ 830537.0, 5932887.0 ] } },
{ "type": "Feature", "properties": { "osmid": 9709852971.0 }, "geometry": { "type": "Point", "coordinates": [ 827786.0, 5932774.0 ] } },
{ "type": "Feature", "properties": { "osmid": 2341139693.0 }, "geometry": { "type": "Point", "coordinates": [ 831383.0, 5933079.0 ] } },
{ "type": "Feature", "properties": { "osmid": 2622690516.0 }, "geometry": { "type": "Point", "coordinates": [ 829551.0, 5932492.0 ] } },
{ "type": "Feature", "properties": { "osmid": 2384031259.0 }, "geometry": { "type": "Point", "coordinates": [ 829026.0, 5932290.0 ] } },
{ "type": "Feature", "properties": { "osmid": 3218710651.0 }, "geometry": { "type": "Point", "coordinates": [ 830288.0, 5932425.0 ] } },
{ "type": "Feature", "properties": { "osmid": 31615842.0 }, "geometry": { "type": "Point", "coordinates": [ 832486.0, 5933515.0 ] } },
{ "type": "Feature", "properties": { "osmid": 5387427229.0 }, "geometry": { "type": "Point", "coordinates": [ 828329.0, 5932264.0 ] } },
{ "type": "Feature", "properties": { "osmid": 71828078.0 }, "geometry": { "type": "Point", "coordinates": [ 827278.0, 5932494.0 ] } },
{ "type": "Feature", "properties": { "osmid": 734888624.0 }, "geometry": { "type": "Point", "coordinates": [ 826012.0, 5933146.0 ] } },
{ "type": "Feature", "properties": { "osmid": 700711714.0 }, "geometry": { "type": "Point", "coordinates": [ 826704.0, 5932719.0 ] } },
{ "type": "Feature", "properties": { "osmid": 2536319153.0 }, "geometry": { "type": "Point", "coordinates": [ 831094.0, 5932562.0 ] } },
{ "type": "Feature", "properties": { "osmid": 5089518061.0 }, "geometry": { "type": "Point", "coordinates": [ 824897.0, 5933854.0 ] } },
{ "type": "Feature", "properties": { "osmid": 25151704.0 }, "geometry": { "type": "Point", "coordinates": [ 825380.0, 5933265.0 ] } },
{ "type": "Feature", "properties": { "osmid": 276207842.0 }, "geometry": { "type": "Point", "coordinates": [ 831665.0, 5932529.0 ] } },
{ "type": "Feature", "properties": { "osmid": 275708855.0 }, "geometry": { "type": "Point", "coordinates": [ 830770.0, 5932144.0 ] } },
{ "type": "Feature", "properties": { "osmid": 662025751.0 }, "geometry": { "type": "Point", "coordinates": [ 827680.0, 5932032.0 ] } },
{ "type": "Feature", "properties": { "osmid": 282774161.0 }, "geometry": { "type": "Point", "coordinates": [ 826857.0, 5932202.0 ] } },
{ "type": "Feature", "properties": { "osmid": 5067392521.0 }, "geometry": { "type": "Point", "coordinates": [ 828902.0, 5931677.0 ] } },
{ "type": "Feature", "properties": { "osmid": 5330972232.0 }, "geometry": { "type": "Point", "coordinates": [ 827214.0, 5931847.0 ] } },
{ "type": "Feature", "properties": { "osmid": 277775273.0 }, "geometry": { "type": "Point", "coordinates": [ 828346.0, 5931584.0 ] } },
{ "type": "Feature", "properties": { "osmid": 281428626.0 }, "geometry": { "type": "Point", "coordinates": [ 826331.0, 5932152.0 ] } },
{ "type": "Feature", "properties": { "osmid": 3504429420.0 }, "geometry": { "type": "Point", "coordinates": [ 825415.0, 5932719.0 ] } },
{ "type": "Feature", "properties": { "osmid": 13382361952.0 }, "geometry": { "type": "Point", "coordinates": [ 824774.0, 5933236.0 ] } },
{ "type": "Feature", "properties": { "osmid": 534747700.0 }, "geometry": { "type": "Point", "coordinates": [ 832183.0, 5932341.0 ] } },
{ "type": "Feature", "properties": { "osmid": 9439660892.0 }, "geometry": { "type": "Point", "coordinates": [ 831412.0, 5931905.0 ] } },
{ "type": "Feature", "properties": { "osmid": 5089518055.0 }, "geometry": { "type": "Point", "coordinates": [ 824161.0, 5933847.0 ] } },
{ "type": "Feature", "properties": { "osmid": 280337213.0 }, "geometry": { "type": "Point", "coordinates": [ 825788.0, 5932170.0 ] } },
{ "type": "Feature", "properties": { "osmid": 280337314.0 }, "geometry": { "type": "Point", "coordinates": [ 826542.0, 5931688.0 ] } },
{ "type": "Feature", "properties": { "osmid": 5289957371.0 }, "geometry": { "type": "Point", "coordinates": [ 824924.0, 5932607.0 ] } },
{ "type": "Feature", "properties": { "osmid": 276088940.0 }, "geometry": { "type": "Point", "coordinates": [ 831893.0, 5931756.0 ] } },
{ "type": "Feature", "properties": { "osmid": 81417944.0 }, "geometry": { "type": "Point", "coordinates": [ 823658.0, 5933914.0 ] } },
{ "type": "Feature", "properties": { "osmid": 31382561.0 }, "geometry": { "type": "Point", "coordinates": [ 828834.0, 5930962.0 ] } },
{ "type": "Feature", "properties": { "osmid": 282773570.0 }, "geometry": { "type": "Point", "coordinates": [ 824060.0, 5933276.0 ] } },
{ "type": "Feature", "properties": { "osmid": 565644291.0 }, "geometry": { "type": "Point", "coordinates": [ 827165.0, 5931228.0 ] } },
{ "type": "Feature", "properties": { "osmid": 5292415337.0 }, "geometry": { "type": "Point", "coordinates": [ 824436.0, 5932811.0 ] } },
{ "type": "Feature", "properties": { "osmid": 538818944.0 }, "geometry": { "type": "Point", "coordinates": [ 832458.0, 5931874.0 ] } },
{ "type": "Feature", "properties": { "osmid": 255376925.0 }, "geometry": { "type": "Point", "coordinates": [ 833266.0, 5932286.0 ] } },
{ "type": "Feature", "properties": { "osmid": 10049678747.0 }, "geometry": { "type": "Point", "coordinates": [ 825308.0, 5931896.0 ] } },
{ "type": "Feature", "properties": { "osmid": 12441428672.0 }, "geometry": { "type": "Point", "coordinates": [ 822875.0, 5934581.0 ] } },
{ "type": "Feature", "properties": { "osmid": 7006949665.0 }, "geometry": { "type": "Point", "coordinates": [ 823498.0, 5933332.0 ] } },
{ "type": "Feature", "properties": { "osmid": 7887110077.0 }, "geometry": { "type": "Point", "coordinates": [ 823931.0, 5932788.0 ] } },
{ "type": "Feature", "properties": { "osmid": 5420226544.0 }, "geometry": { "type": "Point", "coordinates": [ 823044.0, 5933771.0 ] } },
{ "type": "Feature", "properties": { "osmid": 5265534782.0 }, "geometry": { "type": "Point", "coordinates": [ 821975.0, 5936057.0 ] } },
{ "type": "Feature", "properties": { "osmid": 282773977.0 }, "geometry": { "type": "Point", "coordinates": [ 822441.0, 5934058.0 ] } },
{ "type": "Feature", "properties": { "osmid": 281428238.0 }, "geometry": { "type": "Point", "coordinates": [ 823410.0, 5932248.0 ] } },
{ "type": "Feature", "properties": { "osmid": 5242521022.0 }, "geometry": { "type": "Point", "coordinates": [ 822974.0, 5932638.0 ] } },
{ "type": "Feature", "properties": { "osmid": 354986019.0 }, "geometry": { "type": "Point", "coordinates": [ 822362.0, 5933004.0 ] } },
{ "type": "Feature", "properties": { "osmid": 5478892076.0 }, "geometry": { "type": "Point", "coordinates": [ 823389.0, 5931640.0 ] } },
{ "type": "Feature", "properties": { "osmid": 2347874051.0 }, "geometry": { "type": "Point", "coordinates": [ 821784.0, 5933695.0 ] } },
{ "type": "Feature", "properties": { "osmid": 566447638.0 }, "geometry": { "type": "Point", "coordinates": [ 822470.0, 5932469.0 ] } },
{ "type": "Feature", "properties": { "osmid": 5239867384.0 }, "geometry": { "type": "Point", "coordinates": [ 822747.0, 5931909.0 ] } },
{ "type": "Feature", "properties": { "osmid": 5223502532.0 }, "geometry": { "type": "Point", "coordinates": [ 821807.0, 5933184.0 ] } },
{ "type": "Feature", "properties": { "osmid": 354984432.0 }, "geometry": { "type": "Point", "coordinates": [ 821935.0, 5932348.0 ] } },
{ "type": "Feature", "properties": { "osmid": 1106360533.0 }, "geometry": { "type": "Point", "coordinates": [ 822702.0, 5931233.0 ] } },
{ "type": "Feature", "properties": { "osmid": 5180710353.0 }, "geometry": { "type": "Point", "coordinates": [ 820733.0, 5933500.0 ] } },
{ "type": "Feature", "properties": { "osmid": 3595779534.0 }, "geometry": { "type": "Point", "coordinates": [ 820626.0, 5931843.0 ] } },
{ "type": "Feature", "properties": { "osmid": 2137702258.0 }, "geometry": { "type": "Point", "coordinates": [ 819560.0, 5931686.0 ] } }
]
}
