{
"type": "FeatureCollection",
"name": "bratislava-rail",
"crs": { "type": "name", "properties": { "name": "urn:ogc:def:crs:EPSG::3857" } },
"features": [
{ "type": "Feature", "properties": { "osmid": 13149734347.0 }, "geometry": { "type": "Point", "coordinates": [ 1915466.0, 6139319.0 ] } },
{ "type": "Feature", "properties": { "osmid": 5376708631.0 }, "geometry": { "type": "Point", "coordinates": [ 1908754.0, 6135504.0 ] } },
{ "type": "Feature", "properties": { "osmid": 9340979004.0 }, "geometry": { "type": "Point", "coordinates": [ 1900547.0, 6135950.0 ] } },
{ "type": "Feature", "properties": { "osmid": 9695187439.0 }, "geometry": { "type": "Point", "coordinates": [ 1904283.0, 6133374.0 ] } },
{ "type": "Feature", "properties": { "osmid": 5347998233.0 }, "geometry": { "type": "Point", "coordinates": [ 1898106.0, 6137571.0 ] } },
{ "type": "Feature", "properties": { "osmid": 32593936.0 }, "geometry": { "type": "Point", "coordinates": [ 1914776.0, 6113422.0 ] } },
{ "type": "Feature", "properties": { "osmid": 1576808347.0 }, "geometry": { "type": "Point", "coordinates": [ 1915393.0, 6111539.0 ] } },
{ "type": "Feature", "properties": { "osmid": 33564517.0 }, "geometry": { "type": "Point", "coordinates": [ 1912637.0, 6115062.0 ] } },
{ "type": "Feature", "properties": { "osmid": 710898345.0 }, "geometry": { "type": "Point", "coordinates": [ 1916461.0, 6110975.0 ] } },
{ "type": "Feature", "properties": { "osmid": 692042944.0 }, "geometry": { "type": "Point", "coordinates": [ 1910848.0, 6113102.0 ] } },
{ "type": "Feature", "properties": { "osmid": 370099636.0 }, "geometry": { "type": "Point", "coordinates": [ 1910494.0, 6113487.0 ] } },
{ "type": "Feature", "properties": { "osmid": 692042460.0 }, "geometry": { "type": "Point", "coordinates": [ 1910317.0, 6114015.0 ] } },
{ "type": "Feature", "properties": { "osmid": 7915814519.0 }, "geometry": { "type": "Point", "coordinates": [ 1910368.0, 6115044.0 ] } },
{ "type": "Feature", "properties": { "osmid": 92219297.0 }, "geometry": { "type": "Point", "coordinates": [ 1910041.0, 6114656.0 ] } },
{ "type": "Feature", "properties": { "osmid": 92221769.0 }, "geometry": { "type": "Point", "coordinates": [ 1909838.0, 6115149.0 ] } },
{ "type": "Feature", "properties": { "osmid": 8048347974.0 }, "geometry": { "type": "Point", "coordinates": [ 1909528.0, 6114712.0 ] } },
{ "type": "Feature", "properties": { "osmid": 33404664.0 }, "geometry": { "type": "Point", "coordinates": [ 1910111.0, 6116463.0 ] } },
{ "type": "Feature", "properties": { "osmid": 33324704.0 }, "geometry": { "type": "Point", "coordinates": [ 1909117.0, 6115110.0 ] } },
{ "type": "Feature", "properties": { "osmid": 33405378.0 }, "geometry": { "type": "Point", "coordinates": [ 1909081.0, 6116454.0 ] } },
{ "type": "Feature", "properties": { "osmid": 33324732.0 }, "geometry": { "type": "Point", "coordinates": [ 1908771.0, 6115834.0 ] } },
{ "type": "Feature", "properties": { "osmid": 7911840215.0 }, "geometry": { "type": "Point", "coordinates": [ 1908206.0, 6115705.0 ] } },
{ "type": "Feature", "properties": { "osmid": 8057314192.0 }, "geometry": { "type": "Point", "coordinates": [ 1908179.0, 6117213.0 ] } },
{ "type": "Feature", "properties": { "osmid": 33324611.0 }, "geometry": { "type": "Point", "coordinates": [ 1907780.0, 6116535.0 ] } },
{ "type": "Feature", "properties": { "osmid": 32590400.0 }, "geometry": { "type": "Point", "coordinates": [ 1908449.0, 6118395.0 ] } },
{ "type": "Feature", "properties": { "osmid": 8741631318.0 }, "geometry": { "type": "Point", "coordinates": [ 1910014.0, 6120777.0 ] } },
{ "type": "Feature", "properties": { "osmid": 8973865092.0 }, "geometry": { "type": "Point", "coordinates": [ 1907412.0, 6119822.0 ] } },
{ "type": "Feature", "properties": { "osmid": 13639402578.0 }, "geometry": { "type": "Point", "coordinates": [ 1905608.0, 6117463.0 ] } },
{ "type": "Feature", "properties": { "osmid": 9635563977.0 }, "geometry": { "type": "Point", "coordinates": [ 1905659.0, 6118262.0 ] } },
{ "type": "Feature", "properties": { "osmid": 348021828.0 }, "geometry": { "type": "Point", "coordinates": [ 1915393.0, 6124751.0 ] } },
{ "type": "Feature", "properties": { "osmid": 1774856694.0 }, "geometry": { "type": "Point", "coordinates": [ 1906769.0, 6121543.0 ] } },
{ "type": "Feature", "properties": { "osmid": 9066113324.0 }, "geometry": { "type": "Point", "coordinates": [ 1911808.0, 6124558.0 ] } },
{ "type": "Feature", "properties": { "osmid": 8838727371.0 }, "geometry": { "type": "Point", "coordinates": [ 1911184.0, 6124528.0 ] } },
{ "type": "Feature", "properties": { "osmid": 32593398.0 }, "geometry": { "type": "Point", "coordinates": [ 1907238.0, 6122344.0 ] } },
{ "type": "Feature", "properties": { "osmid": 32590439.0 }, "geometry": { "type": "Point", "coordinates": [ 1907014.0, 6123279.0 ] } },
{ "type": "Feature", "properties": { "osmid": 10105982514.0 }, "geometry": { "type": "Point", "coordinates": [ 1905543.0, 6122075.0 ] } },
{ "type": "Feature", "properties": { "osmid": 3786773265.0 }, "geometry": { "type": "Point", "coordinates": [ 1916756.0, 6126408.0 ] } },
{ "type": "Feature", "properties": { "osmid": 251981966.0 }, "geometry": { "type": "Point", "coordinates": [ 1905664.0, 6122962.0 ] } },
{ "type": "Feature", "properties": { "osmid": 13137563896.0 }, "geometry": { "type": "Point", "coordinates": [ 1905130.0, 6122465.0 ] } },
{ "type": "Feature", "properties": { "osmid": 13041950132.0 }, "geometry": { "type": "Point", "coordinates": [ 1904552.0, 6122210.0 ] } },
{ "type": "Feature", "properties": { "osmid": 2397949694.0 }, "geometry": { "type": "Point", "coordinates": [ 1905857.0, 6123556.0 ] } },
{ "type": "Feature", "properties": { "osmid": 346559894.0 }, "geometry": { "type": "Point", "coordinates": [ 1906723.0, 6124358.0 ] } },
{ "type": "Feature", "properties": { "osmid": 8714738212.0 }, "geometry": { "type": "Point", "coordinates": [ 1917293.0, 6126839.0 ] } },
{ "type": "Feature", "properties": { "osmid": 256517906.0 }, "geometry": { "type": "Point", "coordinates": [ 1905183.0, 6123550.0 ] } },
{ "type": "Feature", "properties": { "osmid": 12052895825.0 }, "geometry": { "type": "Point", "coordinates": [ 1904649.0, 6123197.0 ] } },
{ "type": "Feature", "properties": { "osmid": 32592922.0 }, "geometry": { "type": "Point", "coordinates": [ 1906518.0, 6124926.0 ] } },
{ "type": "Feature", "properties": { "osmid": 12255840852.0 }, "geometry": { "type": "Point", "coordinates": [ 1904444.0, 6123713.0 ] } },
{ "type": "Feature", "properties": { "osmid": 344450658.0 }, "geometry": { "type": "Point", "coordinates": [ 1906303.0, 6125528.0 ] } },
{ "type": "Feature", "properties": { "osmid": 768182875.0 }, "geometry": { "type": "Point", "coordinates": [ 1910133.0, 6127488.0 ] } },
{ "type": "Feature", "properties": { "osmid": 344859211.0 }, "geometry": { "type": "Point", "coordinates": [ 1907327.0, 6126304.0 ] } },
{ "type": "Feature", "properties": { "osmid": 1807884562.0 }, "geometry": { "type": "Point", "coordinates": [ 1904648.0, 6124473.0 ] } },
{ "type": "Feature", "properties": { "osmid": 353928684.0 }, "geometry": { "type": "Point", "coordinates": [ 1909335.0, 6127425.0 ] } },
{ "type": "Feature", "properties": { "osmid": 32987116.0 }, "geometry": { "type": "Point", "coordinates": [ 1916984.0, 6128476.0 ] } },
{ "type": "Feature", "properties": { "osmid": 32990962.0 }, "geometry": { "type": "Point", "coordinates": [ 1915758.0, 6128835.0 ] } },
{ "type": "Feature", "properties": { "osmid": 12265864589.0 }, "geometry": { "type": "Point", "coordinates": [ 1904625.0, 6125248.0 ] } },
{ "type": "Feature", "properties": { "osmid": 33033210.0 }, "geometry": { "type": "Point", "coordinates": [ 1910561.0, 6128429.0 ] } },
{ "type": "Feature", "properties": { "osmid": 243738187.0 }, "geometry": { "type": "Point", "coordinates": [ 1914719.0, 6129124.0 ] } },
{ "type": "Feature", "properties": { "osmid": 41048617.0 }, "geometry": { "type": "Point", "coordinates": [ 1909936.0, 6128461.0 ] } },
{ "type": "Feature", "properties": { "osmid": 2164515513.0 }, "geometry": { "type": "Point", "coordinates": [ 1907213.0, 6127379.0 ] } },
{ "type": "Feature", "properties": { "osmid": 12251005284.0 }, "geometry": { "type": "Point", "coordinates": [ 1904580.0, 6125820.0 ] } },
{ "type": "Feature", "properties": { "osmid": 270661849.0 }, "geometry": { "type": "Point", "coordinates": [ 1905876.0, 6126936.0 ] } },
{ "type": "Feature", "properties": { "osmid": 305940111.0 }, "geometry": { "type": "Point", "coordinates": [ 1905169.0, 6126503.0 ] } },
{ "type": "Feature", "properties": { "osmid": 25504832.0 }, "geometry": { "type": "Point", "coordinates": [ 1914663.0, 6129700.0 ] } },
{ "type": "Feature", "properties": { "osmid": 2398812272.0 }, "geometry": { "type": "Point", "coordinates": [ 1904017.0, 6125653.0 ] } },
{ "type": "Feature", "properties": { "osmid": 6852824477.0 }, "geometry": { "type": "Point", "coordinates": [ 1913628.0, 6129754.0 ] } },
{ "type": "Feature", "properties": { "osmid": 12728229575.0 }, "geometry": { "type": "Point", "coordinates": [ 1904532.0, 6126377.0 ] } },
{ "type": "Feature", "properties": { "osmid": 7779207886.0 }, "geometry": { "type": "Point", "coordinates": [ 1910415.0, 6129357.0 ] } },
{ "type": "Feature", "properties": { "osmid": 9249410515.0 }, "geometry": { "type": "Point", "coordinates": [ 1914968.0, 6130105.0 ] } },
{ "type": "Feature", "properties": { "osmid": 286189139.0 }, "geometry": { "type": "Point", "coordinates": [ 1905713.0, 6127483.0 ] } },
{ "type": "Feature", "properties": { "osmid": 12250779321.0 }, "geometry": { "type": "Point", "coordinates": [ 1905198.0, 6127200.0 ] } },
{ "type": "Feature", "properties": { "osmid": 1846102059.0 }, "geometry": { "type": "Point", "coordinates": [ 1906261.0, 6127894.0 ] } },
{ "type": "Feature", "properties": { "osmid": 8588389855.0 }, "geometry": { "type": "Point", "coordinates": [ 1901870.0, 6124218.0 ] } },
{ "type": "Feature", "properties": { "osmid": 11795091149.0 }, "geometry": { "type": "Point", "coordinates": [ 1909919.0, 6129580.0 ] } },
{ "type": "Feature", "properties": { "osmid": 252103270.0 }, "geometry": { "type": "Point", "coordinates": [ 1907469.0, 6128669.0 ] } },
{ "type": "Feature", "properties": { "osmid": 5003884878.0 }, "geometry": { "type": "Point", "coordinates": [ 1914392.0, 6130459.0 ] } },
{ "type": "Feature", "properties": { "osmid": 83395653.0 }, "geometry": { "type": "Point", "coordinates": [ 1912426.0, 6130356.0 ] } },
{ "type": "Feature", "properties": { "osmid": 1538558256.0 }, "geometry": { "type": "Point", "coordinates": [ 1916232.0, 6130597.0 ] } },
{ "type": "Feature", "properties": { "osmid": 2727664987.0 }, "geometry": { "type": "Point", "coordinates": [ 1902730.0, 6125793.0 ] } },
{ "type": "Feature", "properties": { "osmid": 5364647057.0 }, "geometry": { "type": "Point", "coordinates": [ 1905661.0, 6128100.0 ] } },
{ "type": "Feature", "properties": { "osmid": 302779234.0 }, "geometry": { "type": "Point", "coordinates": [ 1904803.0, 6127617.0 ] } },
{ "type": "Feature", "properties": { "osmid": 8485804874.0 }, "geometry": { "type": "Point", "coordinates": [ 1909443.0, 6130120.0 ] } },
{ "type": "Feature", "properties": { "osmid": 481065310.0 }, "geometry": { "type": "Point", "coordinates": [ 1914607.0, 6130971.0 ] } },
{ "type": "Feature", "properties": { "osmid": 8905627591.0 }, "geometry": { "type": "Point", "coordinates": [ 1908859.0, 6130106.0 ] } },
{ "type": "Feature", "properties": { "osmid": 5003883015.0 }, "geometry": { "type": "Point", "coordinates": [ 1913351.0, 6131069.0 ] } },
{ "type": "Feature", "properties": { "osmid": 252103279.0 }, "geometry": { "type": "Point", "coordinates": [ 1906700.0, 6129255.0 ] } },
{ "type": "Feature", "properties": { "osmid": 2423552759.0 }, "geometry": { "type": "Point", "coordinates": [ 1903345.0, 6127038.0 ] } },
{ "type": "Feature", "properties": { "osmid": 1538558326.0 }, "geometry": { "type": "Point", "coordinates": [ 1915960.0, 6131168.0 ] } },
{ "type": "Feature", "properties": { "osmid": 2191327256.0 }, "geometry": { "type": "Point", "coordinates": [ 1910313.0, 6130779.0 ] } },
{ "type": "Feature", "properties": { "osmid": 13235449284.0 }, "geometry": { "type": "Point", "coordinates": [ 1915426.0, 6131375.0 ] } },
{ "type": "Feature", "properties": { "osmid": 5703156711.0 }, "geometry": { "type": "Point", "coordinates": [ 1905385.0, 6128780.0 ] } },
{ "type": "Feature", "properties": { "osmid": 1856838483.0 }, "geometry": { "type": "Point", "coordinates": [ 1904903.0, 6128497.0 ] } },
{ "type": "Feature", "properties": { "osmid": 8007976059.0 }, "geometry": { "type": "Point", "coordinates": [ 1914503.0, 6131582.0 ] } },
{ "type": "Feature", "properties": { "osmid": 9109426519.0 }, "geometry": { "type": "Point", "coordinates": [ 1913030.0, 6131502.0 ] } },
{ "type": "Feature", "properties": { "osmid": 761036513.0 }, "geometry": { "type": "Point", "coordinates": [ 1908262.0, 6130468.0 ] } },
{ "type": "Feature", "properties": { "osmid": 2405048834.0 }, "geometry": { "type": "Point", "coordinates": [ 1909554.0, 6130912.0 ] } },
{ "type": "Feature", "properties": { "osmid": 6565203159.0 }, "geometry": { "type": "Point", "coordinates": [ 1915883.0, 6131716.0 ] } },
{ "type": "Feature", "properties": { "osmid": 278407119.0 }, "geometry": { "type": "Point", "coordinates": [ 1903360.0, 6127936.0 ] } },
{ "type": "Feature", "properties": { "osmid": 33033787.0 }, "geometry": { "type": "Point", "coordinates": [ 1913352.0, 6131908.0 ] } },
{ "type": "Feature", "properties": { "osmid": 3366283900.0 }, "geometry": { "type": "Point", "coordinates": [ 1905473.0, 6129471.0 ] } },
{ "type": "Feature", "properties": { "osmid": 3041098633.0 }, "geometry": { "type": "Point", "coordinates": [ 1906786.0, 6130222.0 ] } },
{ "type": "Feature", "properties": { "osmid": 10544347726.0 }, "geometry": { "type": "Point", "coordinates": [ 1907339.0, 6130520.0 ] } },
{ "type": "Feature", "properties": { "osmid": 1145498785.0 }, "geometry": { "type": "Point", "coordinates": [ 1912859.0, 6131996.0 ] } },
{ "type": "Feature", "properties": { "osmid": 8911843828.0 }, "geometry": { "type": "Point", "coordinates": [ 1915562.0, 6132186.0 ] } },
{ "type": "Feature", "properties": { "osmid": 8007976437.0 }, "geometry": { "type": "Point", "coordinates": [ 1914611.0, 6132230.0 ] } },
{ "type": "Feature", "properties": { "osmid": 1274998656.0 }, "geometry": { "type": "Point", "coordinates": [ 1916698.0, 6132218.0 ] } },
{ "type": "Feature", "properties": { "osmid": 401885254.0 }, "geometry": { "type": "Point", "coordinates": [ 1903876.0, 6128885.0 ] } },
{ "type": "Feature", "properties": { "osmid": 11367020690.0 }, "geometry": { "type": "Point", "coordinates": [ 1907751.0, 6131034.0 ] } },
{ "type": "Feature", "properties": { "osmid": 247425146.0 }, "geometry": { "type": "Point", "coordinates": [ 1910309.0, 6131909.0 ] } },
{ "type": "Feature", "properties": { "osmid": 248661248.0 }, "geometry": { "type": "Point", "coordinates": [ 1909154.0, 6131632.0 ] } },
{ "type": "Feature", "properties": { "osmid": 11507980442.0 }, "geometry": { "type": "Point", "coordinates": [ 1911062.0, 6132201.0 ] } },
{ "type": "Feature", "properties": { "osmid": 11200854755.0 }, "geometry": { "type": "Point", "coordinates": [ 1907243.0, 6131066.0 ] } },
{ "type": "Feature", "properties": { "osmid": 4190503372.0 }, "geometry": { "type": "Point", "coordinates": [ 1905503.0, 6130223.0 ] } },
{ "type": "Feature", "properties": { "osmid": 8007937675.0 }, "geometry": { "type": "Point", "coordinates": [ 1914006.0, 6132712.0 ] } },
{ "type": "Feature", "properties": { "osmid": 2832777065.0 }, "geometry": { "type": "Point", "coordinates": [ 1912862.0, 6132690.0 ] } },
{ "type": "Feature", "properties": { "osmid": 25474705.0 }, "geometry": { "type": "Point", "coordinates": [ 1917968.0, 6132527.0 ] } },
{ "type": "Feature", "properties": { "osmid": 1528694495.0 }, "geometry": { "type": "Point", "coordinates": [ 1904055.0, 6129589.0 ] } },
{ "type": "Feature", "properties": { "osmid": 8729058902.0 }, "geometry": { "type": "Point", "coordinates": [ 1906730.0, 6131146.0 ] } },
{ "type": "Feature", "properties": { "osmid": 1752259606.0 }, "geometry": { "type": "Point", "coordinates": [ 1906153.0, 6130880.0 ] } },
{ "type": "Feature", "properties": { "osmid": 419023286.0 }, "geometry": { "type": "Point", "coordinates": [ 1904905.0, 6130213.0 ] } },
{ "type": "Feature", "properties": { "osmid": 3981666402.0 }, "geometry": { "type": "Point", "coordinates": [ 1911885.0, 6132716.0 ] } },
{ "type": "Feature", "properties": { "osmid": 230034635.0 }, "geometry": { "type": "Point", "coordinates": [ 1907500.0, 6131699.0 ] } },
{ "type": "Feature", "properties": { "osmid": 12960752742.0 }, "geometry": { "type": "Point", "coordinates": [ 1913547.0, 6133118.0 ] } },
{ "type": "Feature", "properties": { "osmid": 8150015143.0 }, "geometry": { "type": "Point", "coordinates": [ 1906958.0, 6131607.0 ] } },
{ "type": "Feature", "properties": { "osmid": 313507537.0 }, "geometry": { "type": "Point", "coordinates": [ 1904134.0, 6130153.0 ] } },
{ "type": "Feature", "properties": { "osmid": 335894590.0 }, "geometry": { "type": "Point", "coordinates": [ 1908604.0, 6132266.0 ] } },
{ "type": "Feature", "properties": { "osmid": 280039204.0 }, "geometry": { "type": "Point", "coordinates": [ 1905065.0, 6130716.0 ] } },
{ "type": "Feature", "properties": { "osmid": 12239715876.0 }, "geometry": { "type": "Point", "coordinates": [ 1906318.0, 6131459.0 ] } },
{ "type": "Feature", "properties": { "osmid": 772040796.0 }, "geometry": { "type": "Point", "coordinates": [ 1912184.0, 6133184.0 ] } },
{ "type": "Feature", "properties": { "osmid": 12132807252.0 }, "geometry": { "type": "Point", "coordinates": [ 1903618.0, 6130132.0 ] } },
{ "type": "Feature", "properties": { "osmid": 727356458.0 }, "geometry": { "type": "Point", "coordinates": [ 1911174.0, 6133204.0 ] } },
{ "type": "Feature", "properties": { "osmid": 772040782.0 }, "geometry": { "type": "Point", "coordinates": [ 1909280.0, 6132931.0 ] } },
{ "type": "Feature", "properties": { "osmid": 432594981.0 }, "geometry": { "type": "Point", "coordinates": [ 1906557.0, 6132045.0 ] } },
{ "type": "Feature", "properties": { "osmid": 2697830666.0 }, "geometry": { "type": "Point", "coordinates": [ 1899786.0, 6127268.0 ] } },
{ "type": "Feature", "properties": { "osmid": 3826846038.0 }, "geometry": { "type": "Point", "coordinates": [ 1909702.0, 6133268.0 ] } },
{ "type": "Feature", "properties": { "osmid": 3912994820.0 }, "geometry": { "type": "Point", "coordinates": [ 1903076.0, 6130321.0 ] } },
{ "type": "Feature", "properties": { "osmid": 2469003833.0 }, "geometry": { "type": "Point", "coordinates": [ 1904377.0, 6131168.0 ] } },
{ "type": "Feature", "properties": { "osmid": 286270619.0 }, "geometry": { "type": "Point", "coordinates": [ 1908277.0, 6132957.0 ] } },
{ "type": "Feature", "properties": { "osmid": 2561232835.0 }, "geometry": { "type": "Point", "coordinates": [ 1905802.0, 6132101.0 ] } },
{ "type": "Feature", "properties": { "osmid": 327532937.0 }, "geometry": { "type": "Point", "coordinates": [ 1906907.0, 6132609.0 ] } },
{ "type": "Feature", "properties": { "osmid": 10148168975.0 }, "geometry": { "type": "Point", "coordinates": [ 1906222.0, 6132426.0 ] } },
{ "type": "Feature", "properties": { "osmid": 8891368657.0 }, "geometry": { "type": "Point", "coordinates": [ 1907451.0, 6132974.0 ] } },
{ "type": "Feature", "properties": { "osmid": 912381347.0 }, "geometry": { "type": "Point", "coordinates": [ 1902232.0, 6130427.0 ] } },
{ "type": "Feature", "properties": { "osmid": 1853547333.0 }, "geometry": { "type": "Point", "coordinates": [ 1910777.0, 6134311.0 ] } },
{ "type": "Feature", "properties": { "osmid": 12062154966.0 }, "geometry": { "type": "Point", "coordinates": [ 1905949.0, 6132861.0 ] } },
{ "type": "Feature", "properties": { "osmid": 253056968.0 }, "geometry": { "type": "Point", "coordinates": [ 1904078.0, 6131939.0 ] } },
{ "type": "Feature", "properties": { "osmid": 2484074170.0 }, "geometry": { "type": "Point", "coordinates": [ 1906740.0, 6133266.0 ] } },
{ "type": "Feature", "properties": { "osmid": 1835253175.0 }, "geometry": { "type": "Point", "coordinates": [ 1901749.0, 6130581.0 ] } },
{ "type": "Feature", "properties": { "osmid": 26884563.0 }, "geometry": { "type": "Point", "coordinates": [ 1911508.0, 6134743.0 ] } },
{ "type": "Feature", "properties": { "osmid": 1348471757.0 }, "geometry": { "type": "Point", "coordinates": [ 1900766.0, 6129861.0 ] } },
{ "type": "Feature", "properties": { "osmid": 2489330.0 }, "geometry": { "type": "Point", "coordinates": [ 1910370.0, 6134647.0 ] } },
{ "type": "Feature", "properties": { "osmid": 7537233916.0 }, "geometry": { "type": "Point", "coordinates": [ 1908973.0, 6134327.0 ] } },
{ "type": "Feature", "properties": { "osmid": 2083474467.0 }, "geometry": { "type": "Point", "coordinates": [ 1907058.0, 6133765.0 ] } },
{ "type": "Feature", "properties": { "osmid": 2547859827.0 }, "geometry": { "type": "Point", "coordinates": [ 1905878.0, 6133385.0 ] } },
{ "type": "Feature", "properties": { "osmid": 977597755.0 }, "geometry": { "type": "Point", "coordinates": [ 1910934.0, 6134962.0 ] } },
{ "type": "Feature", "properties": { "osmid": 38796928.0 }, "geometry": { "type": "Point", "coordinates": [ 1903304.0, 6132312.0 ] } },
{ "type": "Feature", "properties": { "osmid": 8676895315.0 }, "geometry": { "type": "Point", "coordinates": [ 1906232.0, 6133821.0 ] } },
{ "type": "Feature", "properties": { "osmid": 2045457374.0 }, "geometry": { "type": "Point", "coordinates": [ 1907388.0, 6134276.0 ] } },
{ "type": "Feature", "properties": { "osmid": 2511302150.0 }, "geometry": { "type": "Point", "coordinates": [ 1904060.0, 6132846.0 ] } },
{ "type": "Feature", "properties": { "osmid": 3947280581.0 }, "geometry": { "type": "Point", "coordinates": [ 1911561.0, 6135382.0 ] } },
{ "type": "Feature", "properties": { "osmid": 5029741401.0 }, "geometry": { "type": "Point", "coordinates": [ 1901080.0, 6131147.0 ] } },
{ "type": "Feature", "properties": { "osmid": 273496281.0 }, "geometry": { "type": "Point", "coordinates": [ 1901462.0, 6131474.0 ] } },
{ "type": "Feature", "properties": { "osmid": 626819441.0 }, "geometry": { "type": "Point", "coordinates": [ 1910260.0, 6135436.0 ] } },
{ "type": "Feature", "properties": { "osmid": 1717084962.0 }, "geometry": { "type": "Point", "coordinates": [ 1906431.0, 6134292.0 ] } },
{ "type": "Feature", "properties": { "osmid": 1707347714.0 }, "geometry": { "type": "Point", "coordinates": [ 1907738.0, 6134803.0 ] } },
{ "type": "Feature", "properties": { "osmid": 26824484.0 }, "geometry": { "type": "Point", "coordinates": [ 1910813.0, 6135629.0 ] } },
{ "type": "Feature", "properties": { "osmid": 5231543911.0 }, "geometry": { "type": "Point", "coordinates": [ 1903634.0, 6133167.0 ] } },
{ "type": "Feature", "properties": { "osmid": 9460393922.0 }, "geometry": { "type": "Point", "coordinates": [ 1909787.0, 6135727.0 ] } },
{ "type": "Feature", "properties": { "osmid": 1767713603.0 }, "geometry": { "type": "Point", "coordinates": [ 1908063.0, 6135303.0 ] } },
{ "type": "Feature", "properties": { "osmid": 38796975.0 }, "geometry": { "type": "Point", "coordinates": [ 1903040.0, 6133075.0 ] } },
{ "type": "Feature", "properties": { "osmid": 17972926.0 }, "geometry": { "type": "Point", "coordinates": [ 1911354.0, 6136058.0 ] } },
{ "type": "Feature", "properties": { "osmid": 273715523.0 }, "geometry": { "type": "Point", "coordinates": [ 1900223.0, 6131112.0 ] } },
{ "type": "Feature", "properties": { "osmid": 13428696318.0 }, "geometry": { "type": "Point", "coordinates": [ 1906510.0, 6134798.0 ] } },
{ "type": "Feature", "properties": { "osmid": 1653574610.0 }, "geometry": { "type": "Point", "coordinates": [ 1905236.0, 6134341.0 ] } },
{ "type": "Feature", "properties": { "osmid": 6112442270.0 }, "geometry": { "type": "Point", "coordinates": [ 1906975.0, 6135251.0 ] } },
{ "type": "Feature", "properties": { "osmid": 224534068.0 }, "geometry": { "type": "Point", "coordinates": [ 1905774.0, 6134887.0 ] } },
{ "type": "Feature", "properties": { "osmid": 59980102.0 }, "geometry": { "type": "Point", "coordinates": [ 1911673.0, 6136574.0 ] } },
{ "type": "Feature", "properties": { "osmid": 59980113.0 }, "geometry": { "type": "Point", "coordinates": [ 1912341.0, 6136655.0 ] } },
{ "type": "Feature", "properties": { "osmid": 767819344.0 }, "geometry": { "type": "Point", "coordinates": [ 1908610.0, 6136243.0 ] } },
{ "type": "Feature", "properties": { "osmid": 8391969683.0 }, "geometry": { "type": "Point", "coordinates": [ 1906057.0, 6135416.0 ] } },
{ "type": "Feature", "properties": { "osmid": 1864613280.0 }, "geometry": { "type": "Point", "coordinates": [ 1905230.0, 6135274.0 ] } },
{ "type": "Feature", "properties": { "osmid": 11210395318.0 }, "geometry": { "type": "Point", "coordinates": [ 1899010.0, 6131350.0 ] } },
{ "type": "Feature", "properties": { "osmid": 12324858146.0 }, "geometry": { "type": "Point", "coordinates": [ 1899272.0, 6131826.0 ] } },
{ "type": "Feature", "properties": { "osmid": 7468361422.0 }, "geometry": { "type": "Point", "coordinates": [ 1901394.0, 6133441.0 ] } },
{ "type": "Feature", "properties": { "osmid": 259258817.0 }, "geometry": { "type": "Point", "coordinates": [ 1902727.0, 6134356.0 ] } },
{ "type": "Feature", "properties": { "osmid": 31924433.0 }, "geometry": { "type": "Point", "coordinates": [ 1905775.0, 6135840.0 ] } },
{ "type": "Feature", "properties": { "osmid": 1864644947.0 }, "geometry": { "type": "Point", "coordinates": [ 1904783.0, 6135500.0 ] } },
{ "type": "Feature", "properties": { "osmid": 9209474801.0 }, "geometry": { "type": "Point", "coordinates": [ 1907751.0, 6136819.0 ] } },
{ "type": "Feature", "properties": { "osmid": 32033329.0 }, "geometry": { "type": "Point", "coordinates": [ 1898502.0, 6131786.0 ] } },
{ "type": "Feature", "properties": { "osmid": 279104476.0 }, "geometry": { "type": "Point", "coordinates": [ 1900993.0, 6133766.0 ] } },
{ "type": "Feature", "properties": { "osmid": 6795685252.0 }, "geometry": { "type": "Point", "coordinates": [ 1904963.0, 6135980.0 ] } },
{ "type": "Feature", "properties": { "osmid": 433472753.0 }, "geometry": { "type": "Point", "coordinates": [ 1899117.0, 6132590.0 ] } },
{ "type": "Feature", "properties": { "osmid": 998115956.0 }, "geometry": { "type": "Point", "coordinates": [ 1906729.0, 6136982.0 ] } },
{ "type": "Feature", "properties": { "osmid": 1070486879.0 }, "geometry": { "type": "Point", "coordinates": [ 1901458.0, 6134484.0 ] } },
{ "type": "Feature", "properties": { "osmid": 54676685.0 }, "geometry": { "type": "Point", "coordinates": [ 1907499.0, 6137278.0 ] } },
{ "type": "Feature", "properties": { "osmid": 436199609.0 }, "geometry": { "type": "Point", "coordinates": [ 1902794.0, 6135328.0 ] } },
{ "type": "Feature", "properties": { "osmid": 6795677616.0 }, "geometry": { "type": "Point", "coordinates": [ 1904399.0, 6136306.0 ] } },
{ "type": "Feature", "properties": { "osmid": 59970465.0 }, "geometry": { "type": "Point", "coordinates": [ 1904869.0, 6136598.0 ] } },
{ "type": "Feature", "properties": { "osmid": 6783958603.0 }, "geometry": { "type": "Point", "coordinates": [ 1897327.0, 6131643.0 ] } },
{ "type": "Feature", "properties": { "osmid": 1930570563.0 }, "geometry": { "type": "Point", "coordinates": [ 1898690.0, 6132952.0 ] } },
{ "type": "Feature", "properties": { "osmid": 1051261000.0 }, "geometry": { "type": "Point", "coordinates": [ 1907045.0, 6137542.0 ] } },
{ "type": "Feature", "properties": { "osmid": 3370252530.0 }, "geometry": { "type": "Point", "coordinates": [ 1905303.0, 6136985.0 ] } },
{ "type": "Feature", "properties": { "osmid": 7103284058.0 }, "geometry": { "type": "Point", "coordinates": [ 1900978.0, 6134908.0 ] } },
{ "type": "Feature", "properties": { "osmid": 769076604.0 }, "geometry": { "type": "Point", "coordinates": [ 1907453.0, 6138032.0 ] } },
{ "type": "Feature", "properties": { "osmid": 358833617.0 }, "geometry": { "type": "Point", "coordinates": [ 1897429.0, 6132418.0 ] } },
{ "type": "Feature", "properties": { "osmid": 279025846.0 }, "geometry": { "type": "Point", "coordinates": [ 1898530.0, 6133564.0 ] } },
{ "type": "Feature", "properties": { "osmid": 275592428.0 }, "geometry": { "type": "Point", "coordinates": [ 1896659.0, 6131929.0 ] } },
{ "type": "Feature", "properties": { "osmid": 13019827750.0 }, "geometry": { "type": "Point", "coordinates": [ 1901338.0, 6135624.0 ] } },
{ "type": "Feature", "properties": { "osmid": 4253060381.0 }, "geometry": { "type": "Point", "coordinates": [ 1907803.0, 6138495.0 ] } },
{ "type": "Feature", "properties": { "osmid": 206128298.0 }, "geometry": { "type": "Point", "coordinates": [ 1907001.0, 6138308.0 ] } },
{ "type": "Feature", "properties": { "osmid": 248770524.0 }, "geometry": { "type": "Point", "coordinates": [ 1913535.0, 6139483.0 ] } },
{ "type": "Feature", "properties": { "osmid": 922957063.0 }, "geometry": { "type": "Point", "coordinates": [ 1900520.0, 6135377.0 ] } },
{ "type": "Feature", "properties": { "osmid": 9110115590.0 }, "geometry": { "type": "Point", "coordinates": [ 1903608.0, 6137181.0 ] } },
{ "type": "Feature", "properties": { "osmid": 279078977.0 }, "geometry": { "type": "Point", "coordinates": [ 1897887.0, 6133669.0 ] } },
{ "type": "Feature", "properties": { "osmid": 1772997383.0 }, "geometry": { "type": "Point", "coordinates": [ 1914995.0, 6139904.0 ] } },
{ "type": "Feature", "properties": { "osmid": 9861334907.0 }, "geometry": { "type": "Point", "coordinates": [ 1914467.0, 6139930.0 ] } },
{ "type": "Feature", "properties": { "osmid": 5239677891.0 }, "geometry": { "type": "Point", "coordinates": [ 1907524.0, 6138941.0 ] } },
{ "type": "Feature", "properties": { "osmid": 9110100395.0 }, "geometry": { "type": "Point", "coordinates": [ 1905239.0, 6138316.0 ] } },
{ "type": "Feature", "properties": { "osmid": 5680402436.0 }, "geometry": { "type": "Point", "coordinates": [ 1911539.0, 6139902.0 ] } },
{ "type": "Feature", "properties": { "osmid": 922957078.0 }, "geometry": { "type": "Point", "coordinates": [ 1900077.0, 6135725.0 ] } },
{ "type": "Feature", "properties": { "osmid": 1404381222.0 }, "geometry": { "type": "Point", "coordinates": [ 1908430.0, 6139376.0 ] } },
{ "type": "Feature", "properties": { "osmid": 4173472459.0 }, "geometry": { "type": "Point", "coordinates": [ 1903196.0, 6137778.0 ] } },
{ "type": "Feature", "properties": { "osmid": 1520999217.0 }, "geometry": { "type": "Point", "coordinates": [ 1907132.0, 6139361.0 ] } },
{ "type": "Feature", "properties": { "osmid": 3668485277.0 }, "geometry": { "type": "Point", "coordinates": [ 1915094.0, 6140604.0 ] } },
{ "type": "Feature", "properties": { "osmid": 271613067.0 }, "geometry": { "type": "Point", "coordinates": [ 1899841.0, 6136215.0 ] } },
{ "type": "Feature", "properties": { "osmid": 1151492447.0 }, "geometry": { "type": "Point", "coordinates": [ 1908857.0, 6140174.0 ] } },
{ "type": "Feature", "properties": { "osmid": 25896829.0 }, "geometry": { "type": "Point", "coordinates": [ 1915707.0, 6141082.0 ] } },
{ "type": "Feature", "properties": { "osmid": 3868824292.0 }, "geometry": { "type": "Point", "coordinates": [ 1902866.0, 6138502.0 ] } },
{ "type": "Feature", "properties": { "osmid": 1759814170.0 }, "geometry": { "type": "Point", "coordinates": [ 1897932.0, 6135851.0 ] } },
{ "type": "Feature", "properties": { "osmid": 6780798394.0 }, "geometry": { "type": "Point", "coordinates": [ 1901904.0, 6138437.0 ] } },
{ "type": "Feature", "properties": { "osmid": 8127092929.0 }, "geometry": { "type": "Point", "coordinates": [ 1901232.0, 6138340.0 ] } },
{ "type": "Feature", "properties": { "osmid": 5819992615.0 }, "geometry": { "type": "Point", "coordinates": [ 1916871.0, 6141728.0 ] } },
{ "type": "Feature", "properties": { "osmid": 11257875934.0 }, "geometry": { "type": "Point", "coordinates": [ 1898423.0, 6136638.0 ] } },
{ "type": "Feature", "properties": { "osmid": 9637109805.0 }, "geometry": { "type": "Point", "coordinates": [ 1908982.0, 6141316.0 ] } },
{ "type": "Feature", "properties": { "osmid": 1157797765.0 }, "geometry": { "type": "Point", "coordinates": [ 1897624.0, 6136443.0 ] } },
{ "type": "Feature", "properties": { "osmid": 249672795.0 }, "geometry": { "type": "Point", "coordinates": [ 1910341.0, 6141846.0 ] } },
{ "type": "Feature", "properties": { "osmid": 8127092920.0 }, "geometry": { "type": "Point", "coordinates": [ 1900728.0, 6138752.0 ] } },
{ "type": "Feature", "properties": { "osmid": 12461462534.0 }, "geometry": { "type": "Point", "coordinates": [ 1910789.0, 6142626.0 ] } },
{ "type": "Feature", "properties": { "osmid": 26079662.0 }, "geometry": { "type": "Point", "coordinates": [ 1908249.0, 6142203.0 ] } },
{ "type": "Feature", "properties": { "osmid": 26052057.0 }, "geometry": { "type": "Point", "coordinates": [ 1909324.0, 6142717.0 ] } },
{ "type": "Feature", "properties": { "osmid": 27612217.0 }, "geometry": { "type": "Point", "coordinates": [ 1911216.0, 6143088.0 ] } },
{ "type": "Feature", "properties": { "osmid": 2296758806.0 }, "geometry": { "type": "Point", "coordinates": [ 1910534.0, 6143103.0 ] } },
{ "type": "Feature", "properties": { "osmid": 5557633550.0 }, "geometry": { "type": "Point", "coordinates": [ 1908909.0, 6143047.0 ] } },
{ "type": "Feature", "properties": { "osmid": 26079685.0 }, "geometry": { "type": "Point", "coordinates": [ 1908484.0, 6143361.0 ] } },
{ "type": "Feature", "properties": { "osmid": 25904344.0 }, "geometry": { "type": "Point", "coordinates": [ 1914358.0, 6144381.0 ] } },
{ "type": "Feature", "properties": { "osmid": 26052076.0 }, "geometry": { "type": "Point", "coordinates": [ 1908763.0, 6143809.0 ] } },
{ "type": "Feature", "properties": { "osmid": 26052080.0 }, "geometry": { "type": "Point", "coordinates": [ 1908135.0, 6143969.0 ] } },
{ "type": "Feature", "properties": { "osmid": 1780723211.0 }, "geometry": { "type": "Point", "coordinates": [ 1895375.0, 6138268.0 ] } },
{ "type": "Feature", "properties": { "osmid": 3815207868.0 }, "geometry": { "type": "Point", "coordinates": [ 1891752.0, 6135349.0 ] } },
{ "type": "Feature", "properties": { "osmid": 20828287.0 }, "geometry": { "type": "Point", "coordinates": [ 1891022.0, 6135329.0 ] } },
{ "type": "Feature", "properties": { "osmid": 1734329607.0 }, "geometry": { "type": "Point", "coordinates": [ 1891320.0, 6135848.0 ] } },
{ "type": "Feature", "properties": { "osmid": 32953931.0 }, "geometry": { "type": "Point", "coordinates": [ 1890717.0, 6135802.0 ] } },
{ "type": "Feature", "properties": { "osmid": 32038809.0 }, "geometry": { "type": "Point", "coordinates": [ 1890184.0, 6135439.0 ] } },
{ "type": "Feature", "properties": { "osmid": 2730895346.0 }, "geometry": { "type": "Point", "coordinates": [ 1896458.0, 6140944.0 ] } },
{ "type": "Feature", "properties": { "osmid": 1327301192.0 }, "geometry": { "type": "Point", "coordinates": [ 1895523.0, 6140609.0 ] } },
{ "type": "Feature", "properties": { "osmid": 1257084356.0 }, "geometry": { "type": "Point", "coordinates": [ 1890101.0, 6136065.0 ] } },
{ "type": "Feature", "properties": { "osmid": 3437810481.0 }, "geometry": { "type": "Point", "coordinates": [ 1895351.0, 6141193.0 ] } },
{ "type": "Feature", "properties": { "osmid": 1257084382.0 }, "geometry": { "type": "Point", "coordinates": [ 1890128.0, 6136789.0 ] } },
{ "type": "Feature", "properties": { "osmid": 1813037107.0 }, "geometry": { "type": "Point", "coordinates": [ 1894464.0, 6141133.0 ] } },
{ "type": "Feature", "properties": { "osmid": 8929152477.0 }, "geometry": { "type": "Point", "coordinates": [ 1894751.0, 6141732.0 ] } },
{ "type": "Feature", "properties": { "osmid": 2406699288.0 }, "geometry": { "type": "Point", "coordinates": [ 1894221.0, 6142223.0 ] } },
{ "type": "Feature", "properties": { "osmid": 33056177.0 }, "geometry": { "type": "Point", "coordinates": [ 1897677.0, 6144900.0 ] } },
{ "type": "Feature", "properties": { "osmid": 8690492982.0 }, "geometry": { "type": "Point", "coordinates": [ 1896567.0, 6144289.0 ] } },
{ "type": "Feature", "properties": { "osmid": 33051913.0 }, "geometry": { "type": "Point", "coordinates": [ 1897978.0, 6145487.0 ] } },
{ "type": "Feature", "properties": { "osmid": 2836026497.0 }, "geometry": { "type": "Point", "coordinates": [ 1897197.0, 6145117.0 ] } },
{ "type": "Feature", "properties": { "osmid": 33051908.0 }, "geometry": { "type": "Point", "coordinates": [ 1897954.0, 6146001.0 ] } },
{ "type": "Feature", "properties": { "osmid": 5928509121.0 }, "geometry": { "type": "Point", "coordinates": [ 1897231.0, 6145671.0 ] } },
{ "type": "Feature", "properties": { "osmid": 5901841594.0 }, "geometry": { "type": "Point", "coordinates": [ 1898399.0, 6146321.0 ] } },
{ "type": "Feature", "properties": { "osmid": 6835387472.0 }, "geometry": { "type": "Point", "coordinates": [ 1889929.0, 6140852.0 ] } },
{ "type": "Feature", "properties": { "osmid": 1780755126.0 }, "geometry": { "type": "Point", "coordinates": [ 1897242.0, 6146211.0 ] } },
{ "type": "Feature", "properties": { "osmid": 430634896.0 }, "geometry": { "type": "Point", "coordinates": [ 1897685.0, 6146558.0 ] } },
{ "type": "Feature", "properties": { "osmid": 5928533628.0 }, "geometry": { "type": "Point", "coordinates": [ 1896374.0, 6145949.0 ] } },
{ "type": "Feature", "properties": { "osmid": 413045778.0 }, "geometry": { "type": "Point", "coordinates": [ 1898433.0, 6147049.0 ] } },
{ "type": "Feature", "properties": { "osmid": 41288993.0 }, "geometry": { "type": "Point", "coordinates": [ 1889127.0, 6140944.0 ] } },
{ "type": "Feature", "properties": { "osmid": 6778106418.0 }, "geometry": { "type": "Point", "coordinates": [ 1897319.0, 6146980.0 ] } },
{ "type": "Feature", "properties": { "osmid": 1948969522.0 }, "geometry": { "type": "Point", "coordinates": [ 1898276.0, 6147528.0 ] } },
{ "type": "Feature", "properties": { "osmid": 1780755144.0 }, "geometry": { "type": "Point", "coordinates": [ 1896451.0, 6146620.0 ] } },
{ "type": "Feature", "properties": { "osmid": 674157940.0 }, "geometry": { "type": "Point", "coordinates": [ 1897765.0, 6147544.0 ] } },
{ "type": "Feature", "properties": { "osmid": 5054469847.0 }, "geometry": { "type": "Point", "coordinates": [ 1889067.0, 6141961.0 ] } },
{ "type": "Feature", "properties": { "osmid": 333188319.0 }, "geometry": { "type": "Point", "coordinates": [ 1890799.0, 6144011.0 ] } },
{ "type": "Feature", "properties": { "osmid": 333160306.0 }, "geometry": { "type": "Point", "coordinates": [ 1890090.0, 6143473.0 ] } },
{ "type": "Feature", "properties": { "osmid": 32315596.0 }, "geometry": { "type": "Point", "coordinates": [ 1889992.0, 6143972.0 ] } },
{ "type": "Feature", "properties": { "osmid": 1276856134.0 }, "geometry": { "type": "Point", "coordinates": [ 1890457.0, 6144376.0 ] } },
{ "type": "Feature", "properties": { "osmid": 281080624.0 }, "geometry": { "type": "Point", "coordinates": [ 1889200.0, 6143395.0 ] } },
{ "type": "Feature", "properties": { "osmid": 9828713781.0 }, "geometry": { "type": "Point", "coordinates": [ 1887967.0, 6148714.0 ] } },
{ "type": "Feature", "properties": { "osmid": 248512739.0 }, "geometry": { "type": "Point", "coordinates": [ 1887172.0, 6148782.0 ] } }
]
}
