{
"type": "FeatureCollection",
"name": "bratislava-city_boundary",
"crs": { "type": "name", "properties": { "name": "urn:ogc:def:crs:EPSG::3857" } },
"features": [
{ "type": "Feature", "properties": { "bbox_west": 16.946044, "bbox_south": 48.0066643, "bbox_east": 17.284531, "bbox_north": 48.2650685, "place_id": 390032597, "osm_type": "relation", "osm_id": 1702499, "lat": 48.1359085, "lon": 17.1597441, "class": "boundary", "type": "administrative", "place_rank": 10, "importance": 0.73465195594406008, "addresstype": "administrative", "name": "Bratislava", "display_name": "Bratislava, District of Bratislava II, Region of Bratislava, Bratislavský kraj, Slovakia" }, "geometry": { "type": "Polygon", "coordinates": [ [ [ 1899388.0, 6127162.0 ], [ 1899387.0, 6127164.0 ], [ 1899382.0, 6127176.0 ], [ 1899379.0, 6127185.0 ], [ 1899377.0, 6127189.0 ], [ 1899377.0, 6127192.0 ], [ 1899376.0, 6127198.0 ], [ 1899375.0, 6127208.0 ], [ 1899369.0, 6127250.0 ], [ 1899354.0, 6127346.0 ], [ 1899355.0, 6127349.0 ], [ 1899361.0, 6127369.0 ], [ 1899374.0, 6127381.0 ], [ 1899413.0, 6127402.0 ], [ 1899445.0, 6127418.0 ], [ 1899468.0, 6127426.0 ], [ 1899497.0, 6127428.0 ], [ 1899520.0, 6127426.0 ], [ 1899570.0, 6127418.0 ], [ 1899603.0, 6127412.0 ], [ 1899636.0, 6127394.0 ], [ 1899657.0, 6127383.0 ], [ 1899679.0, 6127382.0 ], [ 1899710.0, 6127384.0 ], [ 1899733.0, 6127390.0 ], [ 1899755.0, 6127401.0 ], [ 1899771.0, 6127413.0 ], [ 1899808.0, 6127439.0 ], [ 1899847.0, 6127456.0 ], [ 1899867.0, 6127459.0 ], [ 1899894.0, 6127452.0 ], [ 1899914.0, 6127442.0 ], [ 1899948.0, 6127427.0 ], [ 1899962.0, 6127426.0 ], [ 1899998.0, 6127431.0 ], [ 1900026.0, 6127442.0 ], [ 1900045.0, 6127452.0 ], [ 1900063.0, 6127466.0 ], [ 1900077.0, 6127479.0 ], [ 1900091.0, 6127498.0 ], [ 1900094.0, 6127528.0 ], [ 1900092.0, 6127544.0 ], [ 1900079.0, 6127571.0 ], [ 1900040.0, 6127638.0 ], [ 1900036.0, 6127642.0 ], [ 1899990.0, 6127701.0 ], [ 1899966.0, 6127725.0 ], [ 1899963.0, 6127734.0 ], [ 1899967.0, 6127746.0 ], [ 1899981.0, 6127784.0 ], [ 1899983.0, 6127804.0 ], [ 1899981.0, 6127820.0 ], [ 1899973.0, 6127835.0 ], [ 1899965.0, 6127842.0 ], [ 1899920.0, 6127879.0 ], [ 1899909.0, 6127899.0 ], [ 1899905.0, 6127913.0 ], [ 1899907.0, 6127930.0 ], [ 1899913.0, 6127946.0 ], [ 1899934.0, 6127968.0 ], [ 1899985.0, 6128012.0 ], [ 1899987.0, 6128017.0 ], [ 1899974.0, 6128042.0 ], [ 1899975.0, 6128053.0 ], [ 1899959.0, 6128081.0 ], [ 1899934.0, 6128110.0 ], [ 1899914.0, 6128124.0 ], [ 1899895.0, 6128138.0 ], [ 1899879.0, 6128154.0 ], [ 1899865.0, 6128158.0 ], [ 1899853.0, 6128165.0 ], [ 1899844.0, 6128179.0 ], [ 1899810.0, 6128209.0 ], [ 1899797.0, 6128210.0 ], [ 1899785.0, 6128206.0 ], [ 1899769.0, 6128197.0 ], [ 1899748.0, 6128192.0 ], [ 1899694.0, 6128171.0 ], [ 1899686.0, 6128169.0 ], [ 1899658.0, 6128176.0 ], [ 1899631.0, 6128176.0 ], [ 1899599.0, 6128182.0 ], [ 1899594.0, 6128186.0 ], [ 1899589.0, 6128194.0 ], [ 1899585.0, 6128207.0 ], [ 1899581.0, 6128247.0 ], [ 1899579.0, 6128268.0 ], [ 1899573.0, 6128285.0 ], [ 1899565.0, 6128300.0 ], [ 1899627.0, 6128338.0 ], [ 1899676.0, 6128364.0 ], [ 1899702.0, 6128382.0 ], [ 1899721.0, 6128395.0 ], [ 1899730.0, 6128400.0 ], [ 1899636.0, 6128501.0 ], [ 1899521.0, 6128635.0 ], [ 1899402.0, 6128805.0 ], [ 1899340.0, 6128933.0 ], [ 1899328.0, 6129084.0 ], [ 1899296.0, 6129085.0 ], [ 1899269.0, 6129088.0 ], [ 1899232.0, 6129186.0 ], [ 1899196.0, 6129284.0 ], [ 1899162.0, 6129374.0 ], [ 1899146.0, 6129416.0 ], [ 1899141.0, 6129431.0 ], [ 1899140.0, 6129434.0 ], [ 1899127.0, 6129470.0 ], [ 1899151.0, 6129470.0 ], [ 1899293.0, 6129510.0 ], [ 1899297.0, 6129557.0 ], [ 1899296.0, 6129575.0 ], [ 1899291.0, 6129663.0 ], [ 1899262.0, 6129814.0 ], [ 1899251.0, 6129879.0 ], [ 1899215.0, 6129999.0 ], [ 1899187.0, 6130057.0 ], [ 1899170.0, 6130093.0 ], [ 1899154.0, 6130121.0 ], [ 1899127.0, 6130171.0 ], [ 1899125.0, 6130172.0 ], [ 1899074.0, 6130220.0 ], [ 1899039.0, 6130236.0 ], [ 1899061.0, 6130324.0 ], [ 1899050.0, 6130378.0 ], [ 1899049.0, 6130382.0 ], [ 1898972.0, 6130431.0 ], [ 1898817.0, 6130474.0 ], [ 1898816.0, 6130477.0 ], [ 1898815.0, 6130493.0 ], [ 1898804.0, 6130701.0 ], [ 1898799.0, 6130799.0 ], [ 1898713.0, 6130778.0 ], [ 1898598.0, 6130738.0 ], [ 1898233.0, 6130603.0 ], [ 1897678.0, 6130398.0 ], [ 1897409.0, 6130305.0 ], [ 1897177.0, 6130241.0 ], [ 1896882.0, 6130173.0 ], [ 1896699.0, 6130143.0 ], [ 1896520.0, 6130131.0 ], [ 1896380.0, 6130131.0 ], [ 1896197.0, 6130142.0 ], [ 1895859.0, 6130199.0 ], [ 1895599.0, 6130261.0 ], [ 1895458.0, 6130309.0 ], [ 1895334.0, 6130370.0 ], [ 1895253.0, 6130422.0 ], [ 1895164.0, 6130492.0 ], [ 1895081.0, 6130575.0 ], [ 1894992.0, 6130689.0 ], [ 1894894.0, 6130858.0 ], [ 1894689.0, 6131227.0 ], [ 1894592.0, 6131402.0 ], [ 1894517.0, 6131523.0 ], [ 1894475.0, 6131589.0 ], [ 1894422.0, 6131668.0 ], [ 1894304.0, 6131845.0 ], [ 1894144.0, 6132061.0 ], [ 1894003.0, 6132233.0 ], [ 1893832.0, 6132401.0 ], [ 1893666.0, 6132538.0 ], [ 1893532.0, 6132634.0 ], [ 1893300.0, 6132775.0 ], [ 1892797.0, 6133057.0 ], [ 1892395.0, 6133299.0 ], [ 1892297.0, 6133364.0 ], [ 1892059.0, 6133531.0 ], [ 1891902.0, 6133652.0 ], [ 1891718.0, 6133807.0 ], [ 1891535.0, 6133969.0 ], [ 1891415.0, 6134081.0 ], [ 1891247.0, 6134248.0 ], [ 1890970.0, 6134549.0 ], [ 1890788.0, 6134748.0 ], [ 1890667.0, 6134862.0 ], [ 1890620.0, 6134905.0 ], [ 1890541.0, 6134973.0 ], [ 1890409.0, 6135074.0 ], [ 1890249.0, 6135188.0 ], [ 1890091.0, 6135298.0 ], [ 1889937.0, 6135421.0 ], [ 1889785.0, 6135545.0 ], [ 1889782.0, 6135563.0 ], [ 1889768.0, 6135643.0 ], [ 1889761.0, 6135679.0 ], [ 1889715.0, 6135939.0 ], [ 1889703.0, 6136005.0 ], [ 1889702.0, 6136024.0 ], [ 1889699.0, 6136072.0 ], [ 1889697.0, 6136168.0 ], [ 1889703.0, 6136285.0 ], [ 1889715.0, 6136382.0 ], [ 1889724.0, 6136448.0 ], [ 1889746.0, 6136554.0 ], [ 1889773.0, 6136655.0 ], [ 1889809.0, 6136769.0 ], [ 1889870.0, 6136919.0 ], [ 1889901.0, 6137030.0 ], [ 1889915.0, 6137105.0 ], [ 1889921.0, 6137238.0 ], [ 1889914.0, 6137330.0 ], [ 1889901.0, 6137420.0 ], [ 1889888.0, 6137472.0 ], [ 1889866.0, 6137546.0 ], [ 1889847.0, 6137628.0 ], [ 1889832.0, 6137708.0 ], [ 1889820.0, 6137803.0 ], [ 1889814.0, 6137930.0 ], [ 1889815.0, 6137994.0 ], [ 1889819.0, 6138038.0 ], [ 1889821.0, 6138081.0 ], [ 1889827.0, 6138193.0 ], [ 1889824.0, 6138288.0 ], [ 1889808.0, 6138417.0 ], [ 1889792.0, 6138494.0 ], [ 1889766.0, 6138587.0 ], [ 1889731.0, 6138680.0 ], [ 1889700.0, 6138747.0 ], [ 1889662.0, 6138814.0 ], [ 1889641.0, 6138853.0 ], [ 1889404.0, 6139251.0 ], [ 1889356.0, 6139342.0 ], [ 1889329.0, 6139403.0 ], [ 1889295.0, 6139486.0 ], [ 1889268.0, 6139570.0 ], [ 1889246.0, 6139655.0 ], [ 1889188.0, 6139942.0 ], [ 1889113.0, 6140333.0 ], [ 1889092.0, 6140405.0 ], [ 1889092.0, 6140406.0 ], [ 1889069.0, 6140473.0 ], [ 1889061.0, 6140491.0 ], [ 1889037.0, 6140544.0 ], [ 1889000.0, 6140612.0 ], [ 1888885.0, 6140793.0 ], [ 1888856.0, 6140846.0 ], [ 1888846.0, 6140865.0 ], [ 1888814.0, 6140939.0 ], [ 1888787.0, 6141009.0 ], [ 1888764.0, 6141072.0 ], [ 1888719.0, 6141221.0 ], [ 1888696.0, 6141317.0 ], [ 1888687.0, 6141367.0 ], [ 1888631.0, 6141669.0 ], [ 1888606.0, 6141772.0 ], [ 1888589.0, 6141826.0 ], [ 1888578.0, 6141854.0 ], [ 1888573.0, 6141867.0 ], [ 1888560.0, 6141900.0 ], [ 1888541.0, 6141939.0 ], [ 1888511.0, 6141995.0 ], [ 1888482.0, 6142040.0 ], [ 1888374.0, 6142202.0 ], [ 1888325.0, 6142287.0 ], [ 1888283.0, 6142374.0 ], [ 1888253.0, 6142458.0 ], [ 1888233.0, 6142526.0 ], [ 1888216.0, 6142606.0 ], [ 1888194.0, 6142759.0 ], [ 1888197.0, 6142904.0 ], [ 1888208.0, 6143115.0 ], [ 1888222.0, 6143248.0 ], [ 1888222.0, 6143368.0 ], [ 1888217.0, 6143454.0 ], [ 1888207.0, 6143515.0 ], [ 1888177.0, 6143672.0 ], [ 1888131.0, 6143817.0 ], [ 1888083.0, 6143943.0 ], [ 1888038.0, 6144048.0 ], [ 1888030.0, 6144067.0 ], [ 1887958.0, 6144210.0 ], [ 1887912.0, 6144297.0 ], [ 1887843.0, 6144410.0 ], [ 1887749.0, 6144556.0 ], [ 1887706.0, 6144619.0 ], [ 1887613.0, 6144739.0 ], [ 1887515.0, 6144852.0 ], [ 1887424.0, 6144946.0 ], [ 1887334.0, 6145029.0 ], [ 1887259.0, 6145095.0 ], [ 1886972.0, 6145316.0 ], [ 1886905.0, 6145372.0 ], [ 1886824.0, 6145447.0 ], [ 1886758.0, 6145519.0 ], [ 1886688.0, 6145607.0 ], [ 1886626.0, 6145699.0 ], [ 1886580.0, 6145777.0 ], [ 1886541.0, 6145853.0 ], [ 1886505.0, 6145931.0 ], [ 1886470.0, 6146031.0 ], [ 1886452.0, 6146098.0 ], [ 1886434.0, 6146187.0 ], [ 1886428.0, 6146239.0 ], [ 1886425.0, 6146317.0 ], [ 1886427.0, 6146392.0 ], [ 1886491.0, 6147080.0 ], [ 1886495.0, 6147110.0 ], [ 1886500.0, 6147153.0 ], [ 1886534.0, 6147247.0 ], [ 1886555.0, 6147285.0 ], [ 1886623.0, 6147406.0 ], [ 1886654.0, 6147472.0 ], [ 1886672.0, 6147528.0 ], [ 1886683.0, 6147588.0 ], [ 1886688.0, 6147690.0 ], [ 1886693.0, 6147789.0 ], [ 1886701.0, 6147876.0 ], [ 1886723.0, 6147959.0 ], [ 1886752.0, 6148040.0 ], [ 1886780.0, 6148108.0 ], [ 1886806.0, 6148187.0 ], [ 1886828.0, 6148275.0 ], [ 1886839.0, 6148340.0 ], [ 1886846.0, 6148425.0 ], [ 1886846.0, 6148488.0 ], [ 1886843.0, 6148552.0 ], [ 1886831.0, 6148690.0 ], [ 1886828.0, 6148754.0 ], [ 1886832.0, 6148845.0 ], [ 1886841.0, 6148922.0 ], [ 1886857.0, 6148997.0 ], [ 1886878.0, 6149076.0 ], [ 1886922.0, 6149230.0 ], [ 1886940.0, 6149298.0 ], [ 1886970.0, 6149434.0 ], [ 1886999.0, 6149560.0 ], [ 1887010.0, 6149601.0 ], [ 1887025.0, 6149659.0 ], [ 1887042.0, 6149712.0 ], [ 1887063.0, 6149763.0 ], [ 1887087.0, 6149808.0 ], [ 1887100.0, 6149831.0 ], [ 1887132.0, 6149873.0 ], [ 1887172.0, 6149922.0 ], [ 1887214.0, 6149972.0 ], [ 1887276.0, 6150048.0 ], [ 1887348.0, 6150143.0 ], [ 1887429.0, 6150246.0 ], [ 1887463.0, 6150292.0 ], [ 1887495.0, 6150348.0 ], [ 1887536.0, 6150415.0 ], [ 1887560.0, 6150459.0 ], [ 1887613.0, 6150549.0 ], [ 1887634.0, 6150597.0 ], [ 1887645.0, 6150623.0 ], [ 1887653.0, 6150641.0 ], [ 1887672.0, 6150685.0 ], [ 1887681.0, 6150724.0 ], [ 1887679.0, 6150785.0 ], [ 1887674.0, 6150801.0 ], [ 1887723.0, 6150801.0 ], [ 1887737.0, 6150781.0 ], [ 1887741.0, 6150794.0 ], [ 1887764.0, 6150865.0 ], [ 1887799.0, 6150945.0 ], [ 1887809.0, 6151067.0 ], [ 1888009.0, 6151032.0 ], [ 1888156.0, 6150996.0 ], [ 1888326.0, 6150954.0 ], [ 1888391.0, 6150920.0 ], [ 1888472.0, 6150894.0 ], [ 1888858.0, 6150803.0 ], [ 1889058.0, 6150828.0 ], [ 1889198.0, 6150746.0 ], [ 1889259.0, 6150703.0 ], [ 1889315.0, 6150645.0 ], [ 1889303.0, 6150623.0 ], [ 1889357.0, 6150589.0 ], [ 1889464.0, 6150492.0 ], [ 1889626.0, 6150365.0 ], [ 1889681.0, 6150280.0 ], [ 1889719.0, 6150256.0 ], [ 1889976.0, 6149987.0 ], [ 1890502.0, 6149502.0 ], [ 1890592.0, 6149410.0 ], [ 1890640.0, 6149340.0 ], [ 1890699.0, 6149197.0 ], [ 1890721.0, 6149161.0 ], [ 1890773.0, 6149109.0 ], [ 1890837.0, 6149066.0 ], [ 1890935.0, 6149119.0 ], [ 1890950.0, 6149058.0 ], [ 1890972.0, 6149009.0 ], [ 1891001.0, 6148985.0 ], [ 1890988.0, 6148976.0 ], [ 1891009.0, 6148923.0 ], [ 1891085.0, 6148943.0 ], [ 1891249.0, 6148967.0 ], [ 1891267.0, 6148883.0 ], [ 1891406.0, 6148910.0 ], [ 1891506.0, 6148888.0 ], [ 1891675.0, 6148934.0 ], [ 1891761.0, 6148939.0 ], [ 1891756.0, 6148985.0 ], [ 1891871.0, 6148996.0 ], [ 1891982.0, 6148983.0 ], [ 1892041.0, 6148967.0 ], [ 1892157.0, 6148901.0 ], [ 1892231.0, 6148882.0 ], [ 1892195.0, 6148753.0 ], [ 1892386.0, 6148702.0 ], [ 1892557.0, 6148677.0 ], [ 1892575.0, 6148681.0 ], [ 1892810.0, 6148705.0 ], [ 1892860.0, 6148697.0 ], [ 1893167.0, 6148621.0 ], [ 1893180.0, 6148617.0 ], [ 1893888.0, 6148395.0 ], [ 1894049.0, 6148347.0 ], [ 1894476.0, 6148222.0 ], [ 1894480.0, 6148294.0 ], [ 1894497.0, 6148331.0 ], [ 1894586.0, 6148366.0 ], [ 1894678.0, 6148390.0 ], [ 1894713.0, 6148463.0 ], [ 1894744.0, 6148568.0 ], [ 1894858.0, 6148566.0 ], [ 1894951.0, 6148606.0 ], [ 1895026.0, 6148577.0 ], [ 1895097.0, 6148567.0 ], [ 1895139.0, 6148584.0 ], [ 1895225.0, 6148643.0 ], [ 1895645.0, 6148712.0 ], [ 1895711.0, 6148577.0 ], [ 1895820.0, 6148601.0 ], [ 1895994.0, 6148658.0 ], [ 1896089.0, 6148680.0 ], [ 1896243.0, 6148737.0 ], [ 1896315.0, 6148636.0 ], [ 1896376.0, 6148662.0 ], [ 1896498.0, 6148679.0 ], [ 1896716.0, 6148666.0 ], [ 1896921.0, 6148676.0 ], [ 1897190.0, 6148729.0 ], [ 1897285.0, 6148840.0 ], [ 1897351.0, 6148893.0 ], [ 1897521.0, 6148742.0 ], [ 1897379.0, 6148606.0 ], [ 1897409.0, 6148477.0 ], [ 1897420.0, 6148429.0 ], [ 1897545.0, 6148033.0 ], [ 1897574.0, 6147976.0 ], [ 1897634.0, 6147884.0 ], [ 1897636.0, 6147862.0 ], [ 1897637.0, 6147852.0 ], [ 1897682.0, 6147796.0 ], [ 1897708.0, 6147777.0 ], [ 1897788.0, 6147735.0 ], [ 1897888.0, 6147705.0 ], [ 1897999.0, 6147705.0 ], [ 1898155.0, 6147670.0 ], [ 1898198.0, 6147667.0 ], [ 1898358.0, 6147656.0 ], [ 1898417.0, 6147644.0 ], [ 1898473.0, 6147612.0 ], [ 1898541.0, 6147586.0 ], [ 1898602.0, 6147548.0 ], [ 1898631.0, 6147541.0 ], [ 1898651.0, 6147540.0 ], [ 1898679.0, 6147538.0 ], [ 1898738.0, 6147520.0 ], [ 1898796.0, 6147503.0 ], [ 1898803.0, 6147488.0 ], [ 1898823.0, 6147487.0 ], [ 1898847.0, 6147510.0 ], [ 1898863.0, 6147516.0 ], [ 1898886.0, 6147485.0 ], [ 1898951.0, 6147475.0 ], [ 1898961.0, 6147458.0 ], [ 1898960.0, 6147425.0 ], [ 1898969.0, 6147399.0 ], [ 1899021.0, 6147364.0 ], [ 1899033.0, 6147345.0 ], [ 1899095.0, 6147321.0 ], [ 1899116.0, 6147328.0 ], [ 1899158.0, 6147323.0 ], [ 1899196.0, 6147338.0 ], [ 1899209.0, 6147333.0 ], [ 1899234.0, 6147348.0 ], [ 1899259.0, 6147334.0 ], [ 1899282.0, 6147343.0 ], [ 1899299.0, 6147330.0 ], [ 1899342.0, 6147339.0 ], [ 1899350.0, 6147329.0 ], [ 1899444.0, 6147298.0 ], [ 1899494.0, 6147306.0 ], [ 1899503.0, 6147299.0 ], [ 1899531.0, 6147297.0 ], [ 1899536.0, 6147290.0 ], [ 1899574.0, 6147306.0 ], [ 1899619.0, 6147307.0 ], [ 1899648.0, 6147319.0 ], [ 1899735.0, 6147321.0 ], [ 1899764.0, 6147302.0 ], [ 1899791.0, 6147295.0 ], [ 1899835.0, 6147262.0 ], [ 1899853.0, 6147269.0 ], [ 1899930.0, 6147236.0 ], [ 1900012.0, 6147129.0 ], [ 1900025.0, 6147089.0 ], [ 1900019.0, 6147033.0 ], [ 1899996.0, 6147005.0 ], [ 1899993.0, 6146976.0 ], [ 1899982.0, 6146955.0 ], [ 1899987.0, 6146809.0 ], [ 1900064.0, 6146658.0 ], [ 1900101.0, 6146612.0 ], [ 1900106.0, 6146597.0 ], [ 1900127.0, 6146583.0 ], [ 1900156.0, 6146543.0 ], [ 1900158.0, 6146516.0 ], [ 1900182.0, 6146447.0 ], [ 1900221.0, 6146391.0 ], [ 1900316.0, 6146317.0 ], [ 1900399.0, 6146324.0 ], [ 1900500.0, 6146240.0 ], [ 1900644.0, 6146145.0 ], [ 1900662.0, 6146143.0 ], [ 1900836.0, 6146184.0 ], [ 1900911.0, 6146179.0 ], [ 1900937.0, 6146199.0 ], [ 1900966.0, 6146193.0 ], [ 1900970.0, 6146243.0 ], [ 1900959.0, 6146278.0 ], [ 1900969.0, 6146308.0 ], [ 1900961.0, 6146331.0 ], [ 1900968.0, 6146347.0 ], [ 1900968.0, 6146396.0 ], [ 1900950.0, 6146429.0 ], [ 1900956.0, 6146451.0 ], [ 1900942.0, 6146463.0 ], [ 1900935.0, 6146496.0 ], [ 1900911.0, 6146525.0 ], [ 1900907.0, 6146563.0 ], [ 1900924.0, 6146590.0 ], [ 1900914.0, 6146611.0 ], [ 1900921.0, 6146624.0 ], [ 1900900.0, 6146679.0 ], [ 1900904.0, 6146731.0 ], [ 1900919.0, 6146737.0 ], [ 1900916.0, 6146814.0 ], [ 1900929.0, 6146845.0 ], [ 1900932.0, 6146893.0 ], [ 1900939.0, 6146897.0 ], [ 1900947.0, 6146893.0 ], [ 1901025.0, 6146949.0 ], [ 1901034.0, 6146989.0 ], [ 1901061.0, 6147037.0 ], [ 1901079.0, 6147135.0 ], [ 1901109.0, 6147184.0 ], [ 1901115.0, 6147215.0 ], [ 1901159.0, 6147255.0 ], [ 1901235.0, 6147304.0 ], [ 1901306.0, 6147309.0 ], [ 1901315.0, 6147316.0 ], [ 1901389.0, 6147326.0 ], [ 1901427.0, 6147349.0 ], [ 1901433.0, 6147402.0 ], [ 1901510.0, 6147514.0 ], [ 1901522.0, 6147556.0 ], [ 1901525.0, 6147612.0 ], [ 1901516.0, 6147677.0 ], [ 1901519.0, 6147721.0 ], [ 1901527.0, 6147729.0 ], [ 1901534.0, 6147785.0 ], [ 1901524.0, 6147856.0 ], [ 1901530.0, 6147869.0 ], [ 1901518.0, 6147904.0 ], [ 1901535.0, 6147926.0 ], [ 1901513.0, 6147941.0 ], [ 1901508.0, 6147955.0 ], [ 1901513.0, 6147985.0 ], [ 1901506.0, 6147999.0 ], [ 1901520.0, 6148024.0 ], [ 1901503.0, 6148033.0 ], [ 1901501.0, 6148043.0 ], [ 1901507.0, 6148070.0 ], [ 1901595.0, 6148039.0 ], [ 1901618.0, 6148066.0 ], [ 1901621.0, 6148113.0 ], [ 1901602.0, 6148203.0 ], [ 1901555.0, 6148322.0 ], [ 1901516.0, 6148393.0 ], [ 1901481.0, 6148424.0 ], [ 1901471.0, 6148468.0 ], [ 1901439.0, 6148487.0 ], [ 1901479.0, 6148512.0 ], [ 1901494.0, 6148522.0 ], [ 1901601.0, 6148504.0 ], [ 1901743.0, 6148428.0 ], [ 1901798.0, 6148411.0 ], [ 1901827.0, 6148409.0 ], [ 1901855.0, 6148363.0 ], [ 1901961.0, 6148316.0 ], [ 1901983.0, 6148295.0 ], [ 1901997.0, 6148250.0 ], [ 1902031.0, 6148197.0 ], [ 1902128.0, 6148200.0 ], [ 1902213.0, 6148176.0 ], [ 1902316.0, 6148082.0 ], [ 1902361.0, 6148065.0 ], [ 1902421.0, 6148058.0 ], [ 1902540.0, 6148000.0 ], [ 1902567.0, 6147994.0 ], [ 1902654.0, 6148014.0 ], [ 1902731.0, 6148057.0 ], [ 1902807.0, 6148059.0 ], [ 1902863.0, 6148081.0 ], [ 1902903.0, 6148152.0 ], [ 1902928.0, 6148183.0 ], [ 1902961.0, 6148276.0 ], [ 1903010.0, 6148347.0 ], [ 1903026.0, 6148402.0 ], [ 1903037.0, 6148418.0 ], [ 1903073.0, 6148428.0 ], [ 1903108.0, 6148420.0 ], [ 1903199.0, 6148413.0 ], [ 1903219.0, 6148432.0 ], [ 1903288.0, 6148468.0 ], [ 1903361.0, 6148451.0 ], [ 1903458.0, 6148450.0 ], [ 1903491.0, 6148443.0 ], [ 1903596.0, 6148378.0 ], [ 1903663.0, 6148321.0 ], [ 1903689.0, 6148312.0 ], [ 1903777.0, 6148294.0 ], [ 1903824.0, 6148302.0 ], [ 1903904.0, 6148303.0 ], [ 1904009.0, 6148257.0 ], [ 1904104.0, 6148246.0 ], [ 1904155.0, 6148251.0 ], [ 1904188.0, 6148245.0 ], [ 1904243.0, 6148222.0 ], [ 1904434.0, 6148184.0 ], [ 1904510.0, 6148144.0 ], [ 1904589.0, 6148113.0 ], [ 1904639.0, 6148119.0 ], [ 1904700.0, 6148094.0 ], [ 1904801.0, 6148077.0 ], [ 1904866.0, 6148030.0 ], [ 1904881.0, 6148004.0 ], [ 1904932.0, 6147955.0 ], [ 1905096.0, 6147835.0 ], [ 1905120.0, 6147810.0 ], [ 1905187.0, 6147781.0 ], [ 1905392.0, 6147715.0 ], [ 1905438.0, 6147688.0 ], [ 1905538.0, 6147665.0 ], [ 1905648.0, 6147628.0 ], [ 1905671.0, 6147632.0 ], [ 1905688.0, 6147626.0 ], [ 1905728.0, 6147627.0 ], [ 1905845.0, 6147606.0 ], [ 1905931.0, 6147618.0 ], [ 1906041.0, 6147650.0 ], [ 1906073.0, 6147670.0 ], [ 1906123.0, 6147737.0 ], [ 1906255.0, 6147933.0 ], [ 1906327.0, 6147979.0 ], [ 1906361.0, 6147987.0 ], [ 1906475.0, 6147990.0 ], [ 1906487.0, 6148009.0 ], [ 1906531.0, 6148041.0 ], [ 1906692.0, 6148141.0 ], [ 1906821.0, 6148207.0 ], [ 1907026.0, 6148209.0 ], [ 1907086.0, 6148192.0 ], [ 1907185.0, 6148183.0 ], [ 1907324.0, 6148157.0 ], [ 1907416.0, 6148132.0 ], [ 1907550.0, 6148129.0 ], [ 1907680.0, 6148142.0 ], [ 1907716.0, 6148133.0 ], [ 1907705.0, 6148121.0 ], [ 1907658.0, 6148001.0 ], [ 1907574.0, 6147676.0 ], [ 1907555.0, 6147561.0 ], [ 1907537.0, 6147514.0 ], [ 1907522.0, 6147476.0 ], [ 1907520.0, 6147472.0 ], [ 1907502.0, 6147428.0 ], [ 1907373.0, 6147350.0 ], [ 1907479.0, 6147329.0 ], [ 1907488.0, 6147327.0 ], [ 1907491.0, 6147326.0 ], [ 1907514.0, 6147313.0 ], [ 1907565.0, 6147286.0 ], [ 1907571.0, 6147282.0 ], [ 1907609.0, 6147263.0 ], [ 1907619.0, 6147256.0 ], [ 1907694.0, 6147236.0 ], [ 1907736.0, 6147229.0 ], [ 1907753.0, 6147226.0 ], [ 1907758.0, 6147225.0 ], [ 1907833.0, 6147223.0 ], [ 1907870.0, 6147221.0 ], [ 1907902.0, 6147221.0 ], [ 1907918.0, 6147229.0 ], [ 1907949.0, 6147246.0 ], [ 1907995.0, 6147271.0 ], [ 1907999.0, 6147273.0 ], [ 1908041.0, 6147295.0 ], [ 1908081.0, 6147317.0 ], [ 1908093.0, 6147331.0 ], [ 1908133.0, 6147373.0 ], [ 1908162.0, 6147406.0 ], [ 1908200.0, 6147446.0 ], [ 1908213.0, 6147451.0 ], [ 1908225.0, 6147455.0 ], [ 1908236.0, 6147459.0 ], [ 1908291.0, 6147478.0 ], [ 1908313.0, 6147486.0 ], [ 1908334.0, 6147493.0 ], [ 1908350.0, 6147499.0 ], [ 1908363.0, 6147503.0 ], [ 1908391.0, 6147484.0 ], [ 1908397.0, 6147479.0 ], [ 1908416.0, 6147466.0 ], [ 1908432.0, 6147454.0 ], [ 1908465.0, 6147431.0 ], [ 1908484.0, 6147417.0 ], [ 1908504.0, 6147375.0 ], [ 1908544.0, 6147296.0 ], [ 1908547.0, 6147278.0 ], [ 1908564.0, 6147188.0 ], [ 1908568.0, 6147167.0 ], [ 1908570.0, 6147159.0 ], [ 1908575.0, 6147132.0 ], [ 1908570.0, 6147117.0 ], [ 1908567.0, 6147106.0 ], [ 1908568.0, 6147097.0 ], [ 1908569.0, 6147092.0 ], [ 1908574.0, 6147080.0 ], [ 1908579.0, 6147068.0 ], [ 1908577.0, 6147049.0 ], [ 1908567.0, 6147024.0 ], [ 1908568.0, 6147012.0 ], [ 1908569.0, 6146999.0 ], [ 1908567.0, 6146994.0 ], [ 1908573.0, 6146966.0 ], [ 1908576.0, 6146960.0 ], [ 1908585.0, 6146940.0 ], [ 1908596.0, 6146918.0 ], [ 1908597.0, 6146916.0 ], [ 1908607.0, 6146905.0 ], [ 1908624.0, 6146888.0 ], [ 1908652.0, 6146874.0 ], [ 1908674.0, 6146871.0 ], [ 1908682.0, 6146868.0 ], [ 1908729.0, 6146874.0 ], [ 1908763.0, 6146857.0 ], [ 1908780.0, 6146842.0 ], [ 1908782.0, 6146828.0 ], [ 1908791.0, 6146820.0 ], [ 1908806.0, 6146807.0 ], [ 1908823.0, 6146792.0 ], [ 1908838.0, 6146779.0 ], [ 1908847.0, 6146772.0 ], [ 1908859.0, 6146762.0 ], [ 1908869.0, 6146750.0 ], [ 1908873.0, 6146744.0 ], [ 1908877.0, 6146740.0 ], [ 1908887.0, 6146740.0 ], [ 1908901.0, 6146741.0 ], [ 1908912.0, 6146734.0 ], [ 1908916.0, 6146731.0 ], [ 1908922.0, 6146729.0 ], [ 1908935.0, 6146725.0 ], [ 1908947.0, 6146724.0 ], [ 1908965.0, 6146726.0 ], [ 1908972.0, 6146724.0 ], [ 1908988.0, 6146720.0 ], [ 1908991.0, 6146720.0 ], [ 1909002.0, 6146719.0 ], [ 1909017.0, 6146719.0 ], [ 1909033.0, 6146718.0 ], [ 1909049.0, 6146718.0 ], [ 1909053.0, 6146718.0 ], [ 1909058.0, 6146718.0 ], [ 1909060.0, 6146719.0 ], [ 1909064.0, 6146720.0 ], [ 1909072.0, 6146722.0 ], [ 1909088.0, 6146720.0 ], [ 1909092.0, 6146719.0 ], [ 1909100.0, 6146718.0 ], [ 1909105.0, 6146715.0 ], [ 1909130.0, 6146704.0 ], [ 1909134.0, 6146701.0 ], [ 1909138.0, 6146699.0 ], [ 1909164.0, 6146697.0 ], [ 1909173.0, 6146696.0 ], [ 1909185.0, 6146693.0 ], [ 1909204.0, 6146680.0 ], [ 1909236.0, 6146670.0 ], [ 1909254.0, 6146668.0 ], [ 1909266.0, 6146662.0 ], [ 1909347.0, 6146645.0 ], [ 1909358.0, 6146652.0 ], [ 1909418.0, 6146623.0 ], [ 1909480.0, 6146618.0 ], [ 1909501.0, 6146605.0 ], [ 1909517.0, 6146610.0 ], [ 1909545.0, 6146632.0 ], [ 1909585.0, 6146632.0 ], [ 1909608.0, 6146642.0 ], [ 1909612.0, 6146643.0 ], [ 1909618.0, 6146646.0 ], [ 1909624.0, 6146648.0 ], [ 1909628.0, 6146650.0 ], [ 1909665.0, 6146666.0 ], [ 1909702.0, 6146682.0 ], [ 1909740.0, 6146699.0 ], [ 1909768.0, 6146716.0 ], [ 1909822.0, 6146746.0 ], [ 1909849.0, 6146763.0 ], [ 1909894.0, 6146813.0 ], [ 1909915.0, 6146835.0 ], [ 1909956.0, 6146885.0 ], [ 1910025.0, 6146971.0 ], [ 1910041.0, 6146997.0 ], [ 1910060.0, 6147042.0 ], [ 1910080.0, 6147086.0 ], [ 1910096.0, 6147123.0 ], [ 1910107.0, 6147152.0 ], [ 1910118.0, 6147180.0 ], [ 1910134.0, 6147221.0 ], [ 1910156.0, 6147285.0 ], [ 1910245.0, 6147367.0 ], [ 1910274.0, 6147395.0 ], [ 1910329.0, 6147447.0 ], [ 1910426.0, 6147537.0 ], [ 1910606.0, 6147612.0 ], [ 1910748.0, 6147635.0 ], [ 1910753.0, 6147636.0 ], [ 1910770.0, 6147599.0 ], [ 1910779.0, 6147570.0 ], [ 1910791.0, 6147540.0 ], [ 1910797.0, 6147527.0 ], [ 1910782.0, 6147505.0 ], [ 1910796.0, 6147466.0 ], [ 1910829.0, 6147435.0 ], [ 1910826.0, 6147414.0 ], [ 1910836.0, 6147412.0 ], [ 1910840.0, 6147394.0 ], [ 1910837.0, 6147359.0 ], [ 1910832.0, 6147329.0 ], [ 1910812.0, 6147291.0 ], [ 1910815.0, 6147264.0 ], [ 1910820.0, 6147233.0 ], [ 1910811.0, 6147225.0 ], [ 1910810.0, 6147213.0 ], [ 1910816.0, 6147198.0 ], [ 1910819.0, 6147181.0 ], [ 1910830.0, 6147173.0 ], [ 1910831.0, 6147147.0 ], [ 1910839.0, 6147142.0 ], [ 1910842.0, 6147129.0 ], [ 1910855.0, 6147118.0 ], [ 1910864.0, 6147097.0 ], [ 1910883.0, 6147068.0 ], [ 1910886.0, 6147054.0 ], [ 1910901.0, 6147040.0 ], [ 1910903.0, 6147021.0 ], [ 1910906.0, 6147012.0 ], [ 1910918.0, 6146994.0 ], [ 1910938.0, 6146976.0 ], [ 1910951.0, 6146957.0 ], [ 1910966.0, 6146937.0 ], [ 1910972.0, 6146934.0 ], [ 1910987.0, 6146916.0 ], [ 1911007.0, 6146889.0 ], [ 1911015.0, 6146881.0 ], [ 1911015.0, 6146872.0 ], [ 1911019.0, 6146864.0 ], [ 1911039.0, 6146848.0 ], [ 1911046.0, 6146822.0 ], [ 1911056.0, 6146804.0 ], [ 1911067.0, 6146787.0 ], [ 1911079.0, 6146774.0 ], [ 1911093.0, 6146750.0 ], [ 1911102.0, 6146736.0 ], [ 1911113.0, 6146718.0 ], [ 1911128.0, 6146698.0 ], [ 1911141.0, 6146691.0 ], [ 1911144.0, 6146688.0 ], [ 1911151.0, 6146684.0 ], [ 1911153.0, 6146682.0 ], [ 1911191.0, 6146665.0 ], [ 1911198.0, 6146652.0 ], [ 1911242.0, 6146633.0 ], [ 1911263.0, 6146624.0 ], [ 1911280.0, 6146618.0 ], [ 1911296.0, 6146597.0 ], [ 1911311.0, 6146563.0 ], [ 1911323.0, 6146563.0 ], [ 1911339.0, 6146549.0 ], [ 1911349.0, 6146538.0 ], [ 1911357.0, 6146510.0 ], [ 1911379.0, 6146509.0 ], [ 1911400.0, 6146497.0 ], [ 1911417.0, 6146477.0 ], [ 1911436.0, 6146453.0 ], [ 1911453.0, 6146442.0 ], [ 1911462.0, 6146441.0 ], [ 1911474.0, 6146430.0 ], [ 1911490.0, 6146425.0 ], [ 1911532.0, 6146432.0 ], [ 1911552.0, 6146425.0 ], [ 1911587.0, 6146405.0 ], [ 1911604.0, 6146382.0 ], [ 1911610.0, 6146370.0 ], [ 1911642.0, 6146363.0 ], [ 1911663.0, 6146353.0 ], [ 1911691.0, 6146336.0 ], [ 1911714.0, 6146331.0 ], [ 1911752.0, 6146328.0 ], [ 1911776.0, 6146317.0 ], [ 1911806.0, 6146327.0 ], [ 1911810.0, 6146330.0 ], [ 1911830.0, 6146344.0 ], [ 1911849.0, 6146323.0 ], [ 1911867.0, 6146312.0 ], [ 1911885.0, 6146290.0 ], [ 1911913.0, 6146276.0 ], [ 1911943.0, 6146248.0 ], [ 1911959.0, 6146228.0 ], [ 1911983.0, 6146203.0 ], [ 1912013.0, 6146179.0 ], [ 1912035.0, 6146174.0 ], [ 1912067.0, 6146163.0 ], [ 1912106.0, 6146159.0 ], [ 1912142.0, 6146157.0 ], [ 1912156.0, 6146148.0 ], [ 1912177.0, 6146146.0 ], [ 1912210.0, 6146150.0 ], [ 1912227.0, 6146146.0 ], [ 1912256.0, 6146138.0 ], [ 1912295.0, 6146125.0 ], [ 1912338.0, 6146087.0 ], [ 1912367.0, 6146041.0 ], [ 1912424.0, 6146018.0 ], [ 1912443.0, 6145991.0 ], [ 1912447.0, 6145986.0 ], [ 1912458.0, 6145979.0 ], [ 1912493.0, 6145942.0 ], [ 1912517.0, 6145934.0 ], [ 1912541.0, 6145900.0 ], [ 1912560.0, 6145895.0 ], [ 1912570.0, 6145879.0 ], [ 1912587.0, 6145870.0 ], [ 1912605.0, 6145840.0 ], [ 1912670.0, 6145815.0 ], [ 1912694.0, 6145800.0 ], [ 1912738.0, 6145799.0 ], [ 1912771.0, 6145798.0 ], [ 1912814.0, 6145793.0 ], [ 1912850.0, 6145767.0 ], [ 1912880.0, 6145740.0 ], [ 1912909.0, 6145715.0 ], [ 1912927.0, 6145684.0 ], [ 1912956.0, 6145664.0 ], [ 1912998.0, 6145627.0 ], [ 1913038.0, 6145608.0 ], [ 1913096.0, 6145549.0 ], [ 1913098.0, 6145546.0 ], [ 1913142.0, 6145496.0 ], [ 1913165.0, 6145472.0 ], [ 1913204.0, 6145433.0 ], [ 1913246.0, 6145405.0 ], [ 1913275.0, 6145394.0 ], [ 1913276.0, 6145394.0 ], [ 1913391.0, 6145317.0 ], [ 1913397.0, 6145326.0 ], [ 1913406.0, 6145328.0 ], [ 1913427.0, 6145325.0 ], [ 1913478.0, 6145278.0 ], [ 1913537.0, 6145239.0 ], [ 1913570.0, 6145189.0 ], [ 1913585.0, 6145172.0 ], [ 1913595.0, 6145172.0 ], [ 1913606.0, 6145172.0 ], [ 1913611.0, 6145168.0 ], [ 1913621.0, 6145148.0 ], [ 1913623.0, 6145144.0 ], [ 1913627.0, 6145140.0 ], [ 1913643.0, 6145121.0 ], [ 1913672.0, 6145112.0 ], [ 1913688.0, 6145101.0 ], [ 1913691.0, 6145099.0 ], [ 1913707.0, 6145089.0 ], [ 1913721.0, 6145082.0 ], [ 1913756.0, 6145053.0 ], [ 1913792.0, 6145005.0 ], [ 1913820.0, 6144968.0 ], [ 1913858.0, 6144932.0 ], [ 1913883.0, 6144907.0 ], [ 1913894.0, 6144895.0 ], [ 1913907.0, 6144879.0 ], [ 1913912.0, 6144875.0 ], [ 1913918.0, 6144871.0 ], [ 1913920.0, 6144870.0 ], [ 1913922.0, 6144869.0 ], [ 1913930.0, 6144857.0 ], [ 1913931.0, 6144856.0 ], [ 1913945.0, 6144832.0 ], [ 1913954.0, 6144818.0 ], [ 1914015.0, 6144718.0 ], [ 1914076.0, 6144660.0 ], [ 1914100.0, 6144638.0 ], [ 1914143.0, 6144597.0 ], [ 1914181.0, 6144562.0 ], [ 1914189.0, 6144554.0 ], [ 1914204.0, 6144539.0 ], [ 1914246.0, 6144501.0 ], [ 1914261.0, 6144486.0 ], [ 1914302.0, 6144448.0 ], [ 1914318.0, 6144433.0 ], [ 1914332.0, 6144419.0 ], [ 1914346.0, 6144403.0 ], [ 1914353.0, 6144395.0 ], [ 1914357.0, 6144397.0 ], [ 1914361.0, 6144394.0 ], [ 1914363.0, 6144392.0 ], [ 1914366.0, 6144390.0 ], [ 1914367.0, 6144389.0 ], [ 1914411.0, 6144349.0 ], [ 1914510.0, 6144260.0 ], [ 1914519.0, 6144252.0 ], [ 1914559.0, 6144218.0 ], [ 1914658.0, 6144134.0 ], [ 1914688.0, 6144108.0 ], [ 1914707.0, 6144092.0 ], [ 1914720.0, 6144082.0 ], [ 1914784.0, 6144027.0 ], [ 1914791.0, 6144021.0 ], [ 1914797.0, 6144017.0 ], [ 1914799.0, 6144015.0 ], [ 1914802.0, 6144013.0 ], [ 1914905.0, 6143938.0 ], [ 1914972.0, 6143889.0 ], [ 1915074.0, 6143816.0 ], [ 1915204.0, 6143721.0 ], [ 1915239.0, 6143695.0 ], [ 1915244.0, 6143691.0 ], [ 1915288.0, 6143658.0 ], [ 1915298.0, 6143651.0 ], [ 1915343.0, 6143617.0 ], [ 1915356.0, 6143607.0 ], [ 1915358.0, 6143606.0 ], [ 1915411.0, 6143569.0 ], [ 1915430.0, 6143551.0 ], [ 1915432.0, 6143549.0 ], [ 1915726.0, 6143279.0 ], [ 1915732.0, 6143271.0 ], [ 1915743.0, 6143259.0 ], [ 1915753.0, 6143249.0 ], [ 1915757.0, 6143244.0 ], [ 1915773.0, 6143226.0 ], [ 1915774.0, 6143225.0 ], [ 1915903.0, 6143083.0 ], [ 1915907.0, 6143079.0 ], [ 1915929.0, 6143053.0 ], [ 1916019.0, 6142951.0 ], [ 1916051.0, 6142916.0 ], [ 1916104.0, 6142857.0 ], [ 1916153.0, 6142803.0 ], [ 1916181.0, 6142773.0 ], [ 1916283.0, 6142663.0 ], [ 1916329.0, 6142610.0 ], [ 1916396.0, 6142533.0 ], [ 1916430.0, 6142492.0 ], [ 1916448.0, 6142467.0 ], [ 1916519.0, 6142369.0 ], [ 1916531.0, 6142353.0 ], [ 1916681.0, 6142130.0 ], [ 1916736.0, 6142046.0 ], [ 1916891.0, 6141810.0 ], [ 1916904.0, 6141764.0 ], [ 1916906.0, 6141762.0 ], [ 1916910.0, 6141753.0 ], [ 1916916.0, 6141744.0 ], [ 1916925.0, 6141729.0 ], [ 1916940.0, 6141706.0 ], [ 1916944.0, 6141698.0 ], [ 1916967.0, 6141661.0 ], [ 1917042.0, 6141539.0 ], [ 1917176.0, 6141305.0 ], [ 1917421.0, 6141115.0 ], [ 1917427.0, 6141111.0 ], [ 1917481.0, 6141061.0 ], [ 1917492.0, 6141053.0 ], [ 1917523.0, 6141030.0 ], [ 1917531.0, 6141024.0 ], [ 1917536.0, 6141020.0 ], [ 1917538.0, 6141018.0 ], [ 1917548.0, 6141011.0 ], [ 1917564.0, 6140999.0 ], [ 1917718.0, 6140868.0 ], [ 1917802.0, 6140704.0 ], [ 1917846.0, 6140630.0 ], [ 1917864.0, 6140599.0 ], [ 1917906.0, 6140530.0 ], [ 1918000.0, 6140332.0 ], [ 1918009.0, 6140314.0 ], [ 1918045.0, 6140237.0 ], [ 1918065.0, 6140192.0 ], [ 1918125.0, 6140076.0 ], [ 1918213.0, 6139939.0 ], [ 1918045.0, 6139831.0 ], [ 1917943.0, 6139809.0 ], [ 1917939.0, 6139775.0 ], [ 1917939.0, 6139769.0 ], [ 1917937.0, 6139749.0 ], [ 1917909.0, 6139560.0 ], [ 1917892.0, 6139378.0 ], [ 1917892.0, 6139373.0 ], [ 1917888.0, 6139337.0 ], [ 1917877.0, 6139316.0 ], [ 1917622.0, 6139327.0 ], [ 1917533.0, 6139290.0 ], [ 1917484.0, 6139234.0 ], [ 1917462.0, 6139209.0 ], [ 1917384.0, 6139084.0 ], [ 1917374.0, 6138973.0 ], [ 1917416.0, 6138814.0 ], [ 1917421.0, 6138785.0 ], [ 1917429.0, 6138746.0 ], [ 1917439.0, 6138695.0 ], [ 1917436.0, 6138651.0 ], [ 1917434.0, 6138622.0 ], [ 1917432.0, 6138590.0 ], [ 1917430.0, 6138550.0 ], [ 1917427.0, 6138505.0 ], [ 1917430.0, 6138468.0 ], [ 1917433.0, 6138431.0 ], [ 1917437.0, 6138381.0 ], [ 1917440.0, 6138346.0 ], [ 1917442.0, 6138315.0 ], [ 1917447.0, 6138257.0 ], [ 1917450.0, 6138214.0 ], [ 1917460.0, 6138167.0 ], [ 1917503.0, 6138093.0 ], [ 1917515.0, 6138001.0 ], [ 1917493.0, 6137919.0 ], [ 1917478.0, 6137901.0 ], [ 1917436.0, 6137851.0 ], [ 1917431.0, 6137845.0 ], [ 1917352.0, 6137784.0 ], [ 1917320.0, 6137761.0 ], [ 1917246.0, 6137704.0 ], [ 1917221.0, 6137672.0 ], [ 1917197.0, 6137641.0 ], [ 1917183.0, 6137601.0 ], [ 1917172.0, 6137570.0 ], [ 1917167.0, 6137555.0 ], [ 1917150.0, 6137505.0 ], [ 1917139.0, 6137468.0 ], [ 1917125.0, 6137416.0 ], [ 1917104.0, 6137369.0 ], [ 1917071.0, 6137318.0 ], [ 1917039.0, 6137273.0 ], [ 1917013.0, 6137253.0 ], [ 1916974.0, 6137224.0 ], [ 1916932.0, 6137217.0 ], [ 1916903.0, 6137216.0 ], [ 1916857.0, 6137214.0 ], [ 1916833.0, 6137217.0 ], [ 1916808.0, 6137224.0 ], [ 1916771.0, 6137237.0 ], [ 1916752.0, 6137242.0 ], [ 1916733.0, 6137217.0 ], [ 1916716.0, 6137193.0 ], [ 1916690.0, 6137159.0 ], [ 1916732.0, 6137092.0 ], [ 1916748.0, 6137066.0 ], [ 1916766.0, 6137036.0 ], [ 1916771.0, 6137028.0 ], [ 1916787.0, 6137003.0 ], [ 1916810.0, 6136965.0 ], [ 1916843.0, 6136907.0 ], [ 1916862.0, 6136874.0 ], [ 1916886.0, 6136831.0 ], [ 1916900.0, 6136807.0 ], [ 1916911.0, 6136787.0 ], [ 1916917.0, 6136776.0 ], [ 1916922.0, 6136768.0 ], [ 1916961.0, 6136718.0 ], [ 1916985.0, 6136687.0 ], [ 1916989.0, 6136683.0 ], [ 1916991.0, 6136682.0 ], [ 1916999.0, 6136674.0 ], [ 1917001.0, 6136673.0 ], [ 1917003.0, 6136671.0 ], [ 1917043.0, 6136615.0 ], [ 1917101.0, 6136520.0 ], [ 1917127.0, 6136472.0 ], [ 1917169.0, 6136396.0 ], [ 1917181.0, 6136374.0 ], [ 1917182.0, 6136373.0 ], [ 1917227.0, 6136290.0 ], [ 1917228.0, 6136289.0 ], [ 1917285.0, 6136185.0 ], [ 1917315.0, 6136118.0 ], [ 1917318.0, 6136110.0 ], [ 1917337.0, 6136068.0 ], [ 1917343.0, 6136054.0 ], [ 1917346.0, 6136045.0 ], [ 1917358.0, 6136012.0 ], [ 1917360.0, 6136004.0 ], [ 1917394.0, 6135872.0 ], [ 1917497.0, 6135741.0 ], [ 1917509.0, 6135726.0 ], [ 1917537.0, 6135685.0 ], [ 1917556.0, 6135657.0 ], [ 1917615.0, 6135587.0 ], [ 1917685.0, 6135515.0 ], [ 1917753.0, 6135466.0 ], [ 1917770.0, 6135447.0 ], [ 1917812.0, 6135382.0 ], [ 1917836.0, 6135357.0 ], [ 1917852.0, 6135352.0 ], [ 1917870.0, 6135347.0 ], [ 1917887.0, 6135347.0 ], [ 1917888.0, 6135344.0 ], [ 1917888.0, 6135341.0 ], [ 1917888.0, 6135334.0 ], [ 1917889.0, 6135321.0 ], [ 1917903.0, 6135277.0 ], [ 1917923.0, 6135225.0 ], [ 1917990.0, 6135152.0 ], [ 1918011.0, 6135137.0 ], [ 1918034.0, 6135120.0 ], [ 1918079.0, 6135093.0 ], [ 1918138.0, 6135075.0 ], [ 1918215.0, 6135078.0 ], [ 1918262.0, 6135089.0 ], [ 1918311.0, 6135104.0 ], [ 1918338.0, 6135120.0 ], [ 1918419.0, 6135142.0 ], [ 1918475.0, 6135144.0 ], [ 1918484.0, 6135156.0 ], [ 1918505.0, 6135158.0 ], [ 1918532.0, 6135149.0 ], [ 1918579.0, 6135124.0 ], [ 1918620.0, 6135102.0 ], [ 1918658.0, 6135091.0 ], [ 1918693.0, 6135068.0 ], [ 1918747.0, 6135037.0 ], [ 1918769.0, 6135011.0 ], [ 1918786.0, 6134983.0 ], [ 1918814.0, 6134939.0 ], [ 1918831.0, 6134916.0 ], [ 1918846.0, 6134873.0 ], [ 1918846.0, 6134866.0 ], [ 1918847.0, 6134837.0 ], [ 1918842.0, 6134812.0 ], [ 1918832.0, 6134787.0 ], [ 1918815.0, 6134755.0 ], [ 1918799.0, 6134729.0 ], [ 1918777.0, 6134700.0 ], [ 1918736.0, 6134655.0 ], [ 1918697.0, 6134624.0 ], [ 1918675.0, 6134615.0 ], [ 1918645.0, 6134610.0 ], [ 1918577.0, 6134613.0 ], [ 1918498.0, 6134607.0 ], [ 1918475.0, 6134610.0 ], [ 1918448.0, 6134618.0 ], [ 1918425.0, 6134615.0 ], [ 1918412.0, 6134617.0 ], [ 1918392.0, 6134618.0 ], [ 1918374.0, 6134624.0 ], [ 1918343.0, 6134674.0 ], [ 1918324.0, 6134692.0 ], [ 1918254.0, 6134723.0 ], [ 1918179.0, 6134741.0 ], [ 1918164.0, 6134739.0 ], [ 1918150.0, 6134737.0 ], [ 1918127.0, 6134730.0 ], [ 1918113.0, 6134729.0 ], [ 1918061.0, 6134741.0 ], [ 1918050.0, 6134746.0 ], [ 1918021.0, 6134746.0 ], [ 1918006.0, 6134743.0 ], [ 1917987.0, 6134736.0 ], [ 1917933.0, 6134707.0 ], [ 1917902.0, 6134675.0 ], [ 1917889.0, 6134654.0 ], [ 1917871.0, 6134597.0 ], [ 1917861.0, 6134525.0 ], [ 1917858.0, 6134471.0 ], [ 1917835.0, 6134419.0 ], [ 1917843.0, 6134393.0 ], [ 1917812.0, 6134366.0 ], [ 1917800.0, 6134352.0 ], [ 1917798.0, 6134350.0 ], [ 1917762.0, 6134273.0 ], [ 1917754.0, 6134256.0 ], [ 1917721.0, 6134182.0 ], [ 1917880.0, 6134159.0 ], [ 1917941.0, 6134175.0 ], [ 1918027.0, 6134198.0 ], [ 1918035.0, 6134200.0 ], [ 1918058.0, 6134206.0 ], [ 1918062.0, 6134208.0 ], [ 1918064.0, 6134208.0 ], [ 1918079.0, 6134214.0 ], [ 1918092.0, 6134223.0 ], [ 1918111.0, 6134239.0 ], [ 1918156.0, 6134268.0 ], [ 1918196.0, 6134256.0 ], [ 1918231.0, 6134248.0 ], [ 1918247.0, 6134239.0 ], [ 1918256.0, 6134231.0 ], [ 1918267.0, 6134211.0 ], [ 1918273.0, 6134181.0 ], [ 1918267.0, 6134148.0 ], [ 1918241.0, 6134095.0 ], [ 1918236.0, 6134057.0 ], [ 1918233.0, 6134037.0 ], [ 1918277.0, 6134005.0 ], [ 1918282.0, 6134006.0 ], [ 1918353.0, 6134016.0 ], [ 1918383.0, 6134016.0 ], [ 1918417.0, 6134006.0 ], [ 1918442.0, 6133993.0 ], [ 1918461.0, 6133976.0 ], [ 1918511.0, 6133861.0 ], [ 1918526.0, 6133812.0 ], [ 1918530.0, 6133771.0 ], [ 1918536.0, 6133701.0 ], [ 1918527.0, 6133524.0 ], [ 1918539.0, 6133450.0 ], [ 1918548.0, 6133396.0 ], [ 1918547.0, 6133304.0 ], [ 1918504.0, 6133261.0 ], [ 1918568.0, 6133219.0 ], [ 1918611.0, 6133172.0 ], [ 1918607.0, 6133109.0 ], [ 1918619.0, 6133073.0 ], [ 1918614.0, 6133060.0 ], [ 1918600.0, 6133042.0 ], [ 1918596.0, 6133036.0 ], [ 1918594.0, 6133033.0 ], [ 1918474.0, 6132931.0 ], [ 1918435.0, 6132898.0 ], [ 1918449.0, 6132869.0 ], [ 1918470.0, 6132831.0 ], [ 1918498.0, 6132790.0 ], [ 1918517.0, 6132765.0 ], [ 1918579.0, 6132688.0 ], [ 1918586.0, 6132680.0 ], [ 1918630.0, 6132629.0 ], [ 1918655.0, 6132604.0 ], [ 1918684.0, 6132576.0 ], [ 1918689.0, 6132571.0 ], [ 1918696.0, 6132565.0 ], [ 1918716.0, 6132545.0 ], [ 1918772.0, 6132474.0 ], [ 1918848.0, 6132446.0 ], [ 1918968.0, 6132394.0 ], [ 1918971.0, 6132364.0 ], [ 1918973.0, 6132346.0 ], [ 1918974.0, 6132333.0 ], [ 1918975.0, 6132326.0 ], [ 1919004.0, 6132035.0 ], [ 1918970.0, 6131963.0 ], [ 1918926.0, 6131868.0 ], [ 1918890.0, 6131806.0 ], [ 1919035.0, 6131587.0 ], [ 1918877.0, 6131159.0 ], [ 1918875.0, 6131155.0 ], [ 1918895.0, 6131144.0 ], [ 1918892.0, 6131129.0 ], [ 1918891.0, 6131121.0 ], [ 1918883.0, 6131080.0 ], [ 1918858.0, 6130913.0 ], [ 1918863.0, 6130875.0 ], [ 1918865.0, 6130871.0 ], [ 1918903.0, 6130879.0 ], [ 1918943.0, 6130874.0 ], [ 1918981.0, 6130855.0 ], [ 1919028.0, 6130804.0 ], [ 1919077.0, 6130718.0 ], [ 1919124.0, 6130656.0 ], [ 1919186.0, 6130590.0 ], [ 1919211.0, 6130509.0 ], [ 1919221.0, 6130461.0 ], [ 1919241.0, 6130383.0 ], [ 1919285.0, 6130274.0 ], [ 1919333.0, 6130138.0 ], [ 1919351.0, 6130080.0 ], [ 1919360.0, 6130039.0 ], [ 1919359.0, 6130030.0 ], [ 1919357.0, 6130009.0 ], [ 1919356.0, 6129998.0 ], [ 1919359.0, 6129997.0 ], [ 1919372.0, 6129995.0 ], [ 1919376.0, 6129994.0 ], [ 1919435.0, 6129984.0 ], [ 1919518.0, 6129969.0 ], [ 1919682.0, 6129944.0 ], [ 1919894.0, 6129909.0 ], [ 1919951.0, 6129900.0 ], [ 1920227.0, 6129859.0 ], [ 1920454.0, 6129826.0 ], [ 1920658.0, 6129793.0 ], [ 1920657.0, 6129784.0 ], [ 1920650.0, 6129662.0 ], [ 1920697.0, 6129649.0 ], [ 1920748.0, 6129639.0 ], [ 1920826.0, 6129624.0 ], [ 1920912.0, 6129594.0 ], [ 1920958.0, 6129584.0 ], [ 1920997.0, 6129585.0 ], [ 1921016.0, 6129580.0 ], [ 1921054.0, 6129562.0 ], [ 1921078.0, 6129554.0 ], [ 1921141.0, 6129524.0 ], [ 1921175.0, 6129505.0 ], [ 1921202.0, 6129485.0 ], [ 1921227.0, 6129462.0 ], [ 1921281.0, 6129371.0 ], [ 1921312.0, 6129312.0 ], [ 1921350.0, 6129255.0 ], [ 1921383.0, 6129156.0 ], [ 1921385.0, 6129151.0 ], [ 1921481.0, 6128864.0 ], [ 1921602.0, 6128574.0 ], [ 1921661.0, 6128407.0 ], [ 1921775.0, 6128060.0 ], [ 1921826.0, 6127898.0 ], [ 1921872.0, 6127742.0 ], [ 1921931.0, 6127482.0 ], [ 1921935.0, 6127481.0 ], [ 1921939.0, 6127481.0 ], [ 1922195.0, 6127456.0 ], [ 1922408.0, 6127438.0 ], [ 1922620.0, 6127385.0 ], [ 1922787.0, 6127343.0 ], [ 1922921.0, 6127310.0 ], [ 1923014.0, 6127287.0 ], [ 1923613.0, 6127411.0 ], [ 1923752.0, 6127169.0 ], [ 1923825.0, 6127077.0 ], [ 1923903.0, 6126978.0 ], [ 1923909.0, 6126972.0 ], [ 1923891.0, 6126940.0 ], [ 1923882.0, 6126925.0 ], [ 1923845.0, 6126863.0 ], [ 1923824.0, 6126827.0 ], [ 1923797.0, 6126781.0 ], [ 1923714.0, 6126645.0 ], [ 1923538.0, 6126355.0 ], [ 1923526.0, 6126333.0 ], [ 1923546.0, 6126320.0 ], [ 1923579.0, 6126306.0 ], [ 1923602.0, 6126299.0 ], [ 1923613.0, 6126298.0 ], [ 1923620.0, 6126297.0 ], [ 1923670.0, 6126289.0 ], [ 1923806.0, 6126277.0 ], [ 1923869.0, 6126273.0 ], [ 1923947.0, 6126274.0 ], [ 1924093.0, 6126286.0 ], [ 1924105.0, 6126289.0 ], [ 1923968.0, 6125635.0 ], [ 1923967.0, 6125588.0 ], [ 1923955.0, 6125207.0 ], [ 1923851.0, 6124967.0 ], [ 1923681.0, 6124574.0 ], [ 1923678.0, 6124575.0 ], [ 1923673.0, 6124576.0 ], [ 1923500.0, 6124205.0 ], [ 1923335.0, 6123848.0 ], [ 1923204.0, 6123589.0 ], [ 1923190.0, 6123562.0 ], [ 1923182.0, 6123547.0 ], [ 1923174.0, 6123531.0 ], [ 1923172.0, 6123528.0 ], [ 1923166.0, 6123530.0 ], [ 1923131.0, 6123550.0 ], [ 1923063.0, 6123588.0 ], [ 1923052.0, 6123594.0 ], [ 1922935.0, 6123659.0 ], [ 1922878.0, 6123691.0 ], [ 1922846.0, 6123709.0 ], [ 1922821.0, 6123725.0 ], [ 1922770.0, 6123750.0 ], [ 1922750.0, 6123760.0 ], [ 1922712.0, 6123783.0 ], [ 1922668.0, 6123807.0 ], [ 1922608.0, 6123841.0 ], [ 1922532.0, 6123883.0 ], [ 1922510.0, 6123896.0 ], [ 1922465.0, 6123919.0 ], [ 1922445.0, 6123927.0 ], [ 1922428.0, 6123933.0 ], [ 1922327.0, 6123965.0 ], [ 1922303.0, 6123975.0 ], [ 1922287.0, 6123982.0 ], [ 1922219.0, 6124019.0 ], [ 1922185.0, 6124037.0 ], [ 1922109.0, 6124084.0 ], [ 1922024.0, 6124153.0 ], [ 1921932.0, 6124236.0 ], [ 1921921.0, 6124251.0 ], [ 1921899.0, 6124302.0 ], [ 1921890.0, 6124335.0 ], [ 1921884.0, 6124353.0 ], [ 1921871.0, 6124383.0 ], [ 1921862.0, 6124401.0 ], [ 1921839.0, 6124434.0 ], [ 1921811.0, 6124470.0 ], [ 1921776.0, 6124509.0 ], [ 1921760.0, 6124523.0 ], [ 1921736.0, 6124547.0 ], [ 1921707.0, 6124572.0 ], [ 1921665.0, 6124604.0 ], [ 1921617.0, 6124633.0 ], [ 1921570.0, 6124656.0 ], [ 1921525.0, 6124674.0 ], [ 1921359.0, 6124744.0 ], [ 1921249.0, 6124777.0 ], [ 1921212.0, 6124789.0 ], [ 1921177.0, 6124800.0 ], [ 1921133.0, 6124812.0 ], [ 1921094.0, 6124821.0 ], [ 1921053.0, 6124827.0 ], [ 1921017.0, 6124828.0 ], [ 1921011.0, 6124828.0 ], [ 1920997.0, 6124829.0 ], [ 1920971.0, 6124834.0 ], [ 1920932.0, 6124842.0 ], [ 1920887.0, 6124854.0 ], [ 1920836.0, 6124869.0 ], [ 1920828.0, 6124873.0 ], [ 1920802.0, 6124893.0 ], [ 1920795.0, 6124902.0 ], [ 1920782.0, 6124925.0 ], [ 1920775.0, 6124940.0 ], [ 1920767.0, 6124969.0 ], [ 1920759.0, 6124986.0 ], [ 1920747.0, 6125003.0 ], [ 1920736.0, 6125012.0 ], [ 1920709.0, 6125029.0 ], [ 1920634.0, 6125059.0 ], [ 1920553.0, 6125084.0 ], [ 1920522.0, 6125087.0 ], [ 1920494.0, 6125095.0 ], [ 1920471.0, 6125105.0 ], [ 1920451.0, 6125117.0 ], [ 1920411.0, 6125147.0 ], [ 1920391.0, 6125161.0 ], [ 1920374.0, 6125169.0 ], [ 1920356.0, 6125171.0 ], [ 1920333.0, 6125171.0 ], [ 1920311.0, 6125169.0 ], [ 1920310.0, 6125169.0 ], [ 1920287.0, 6125169.0 ], [ 1920271.0, 6125169.0 ], [ 1920257.0, 6125170.0 ], [ 1920229.0, 6125176.0 ], [ 1920203.0, 6125183.0 ], [ 1920186.0, 6125190.0 ], [ 1920131.0, 6125215.0 ], [ 1920095.0, 6125238.0 ], [ 1920071.0, 6125262.0 ], [ 1920034.0, 6125307.0 ], [ 1920007.0, 6125338.0 ], [ 1919982.0, 6125364.0 ], [ 1919960.0, 6125384.0 ], [ 1919943.0, 6125401.0 ], [ 1919914.0, 6125426.0 ], [ 1919900.0, 6125439.0 ], [ 1919851.0, 6125485.0 ], [ 1919833.0, 6125500.0 ], [ 1919795.0, 6125530.0 ], [ 1919763.0, 6125550.0 ], [ 1919750.0, 6125535.0 ], [ 1919727.0, 6125508.0 ], [ 1919699.0, 6125477.0 ], [ 1919628.0, 6125413.0 ], [ 1919599.0, 6125447.0 ], [ 1919474.0, 6125502.0 ], [ 1919461.0, 6125507.0 ], [ 1919426.0, 6125517.0 ], [ 1919387.0, 6125522.0 ], [ 1919328.0, 6125531.0 ], [ 1919216.0, 6125552.0 ], [ 1919057.0, 6125415.0 ], [ 1919043.0, 6125413.0 ], [ 1918990.0, 6125407.0 ], [ 1918976.0, 6125406.0 ], [ 1918934.0, 6125405.0 ], [ 1918895.0, 6125408.0 ], [ 1918883.0, 6125411.0 ], [ 1918834.0, 6125420.0 ], [ 1918779.0, 6125428.0 ], [ 1918709.0, 6125438.0 ], [ 1918637.0, 6125377.0 ], [ 1918565.0, 6125318.0 ], [ 1918459.0, 6125225.0 ], [ 1918365.0, 6125145.0 ], [ 1918271.0, 6125064.0 ], [ 1918200.0, 6125003.0 ], [ 1918125.0, 6124941.0 ], [ 1918024.0, 6124851.0 ], [ 1917844.0, 6124731.0 ], [ 1917759.0, 6124685.0 ], [ 1917679.0, 6124648.0 ], [ 1917637.0, 6124629.0 ], [ 1917633.0, 6124627.0 ], [ 1917618.0, 6124620.0 ], [ 1917614.0, 6124619.0 ], [ 1917604.0, 6124614.0 ], [ 1917528.0, 6124549.0 ], [ 1917452.0, 6124479.0 ], [ 1917414.0, 6124449.0 ], [ 1917344.0, 6124396.0 ], [ 1917211.0, 6124306.0 ], [ 1917125.0, 6124250.0 ], [ 1916982.0, 6124147.0 ], [ 1916964.0, 6124135.0 ], [ 1916921.0, 6124155.0 ], [ 1916917.0, 6124150.0 ], [ 1916904.0, 6124135.0 ], [ 1916892.0, 6124125.0 ], [ 1916870.0, 6124117.0 ], [ 1916836.0, 6124111.0 ], [ 1916820.0, 6124115.0 ], [ 1916803.0, 6124123.0 ], [ 1916751.0, 6124143.0 ], [ 1916721.0, 6124142.0 ], [ 1916703.0, 6124140.0 ], [ 1916675.0, 6124128.0 ], [ 1916653.0, 6124114.0 ], [ 1916622.0, 6124090.0 ], [ 1916604.0, 6124071.0 ], [ 1916591.0, 6124052.0 ], [ 1916581.0, 6124028.0 ], [ 1916558.0, 6123954.0 ], [ 1916551.0, 6123893.0 ], [ 1916560.0, 6123823.0 ], [ 1916561.0, 6123797.0 ], [ 1916566.0, 6123784.0 ], [ 1916582.0, 6123759.0 ], [ 1916587.0, 6123751.0 ], [ 1916600.0, 6123734.0 ], [ 1916623.0, 6123704.0 ], [ 1916635.0, 6123686.0 ], [ 1916646.0, 6123673.0 ], [ 1916622.0, 6123647.0 ], [ 1916612.0, 6123632.0 ], [ 1916599.0, 6123610.0 ], [ 1916589.0, 6123577.0 ], [ 1916557.0, 6123513.0 ], [ 1916518.0, 6123452.0 ], [ 1916514.0, 6123446.0 ], [ 1916523.0, 6123430.0 ], [ 1916564.0, 6123363.0 ], [ 1916574.0, 6123344.0 ], [ 1916595.0, 6123314.0 ], [ 1916602.0, 6123304.0 ], [ 1916619.0, 6123281.0 ], [ 1916681.0, 6123177.0 ], [ 1916697.0, 6123146.0 ], [ 1916708.0, 6123124.0 ], [ 1916708.0, 6123100.0 ], [ 1916701.0, 6123026.0 ], [ 1916693.0, 6122901.0 ], [ 1916684.0, 6122849.0 ], [ 1916676.0, 6122800.0 ], [ 1916671.0, 6122783.0 ], [ 1916625.0, 6122680.0 ], [ 1916613.0, 6122658.0 ], [ 1916599.0, 6122632.0 ], [ 1916586.0, 6122608.0 ], [ 1916567.0, 6122577.0 ], [ 1916476.0, 6122604.0 ], [ 1916440.0, 6122520.0 ], [ 1916398.0, 6122440.0 ], [ 1916382.0, 6122424.0 ], [ 1916353.0, 6122414.0 ], [ 1916360.0, 6122397.0 ], [ 1916369.0, 6122351.0 ], [ 1916371.0, 6122325.0 ], [ 1916376.0, 6122293.0 ], [ 1916311.0, 6122271.0 ], [ 1916297.0, 6122268.0 ], [ 1916274.0, 6122259.0 ], [ 1916253.0, 6122249.0 ], [ 1916246.0, 6122244.0 ], [ 1916240.0, 6122236.0 ], [ 1916229.0, 6122211.0 ], [ 1916226.0, 6122207.0 ], [ 1916161.0, 6122285.0 ], [ 1916148.0, 6122301.0 ], [ 1916143.0, 6122292.0 ], [ 1916015.0, 6122081.0 ], [ 1915951.0, 6121977.0 ], [ 1915788.0, 6121702.0 ], [ 1915765.0, 6121664.0 ], [ 1915647.0, 6121468.0 ], [ 1915556.0, 6121318.0 ], [ 1915550.0, 6121309.0 ], [ 1915544.0, 6121299.0 ], [ 1915443.0, 6121130.0 ], [ 1915507.0, 6121081.0 ], [ 1915590.0, 6121034.0 ], [ 1915658.0, 6120990.0 ], [ 1915755.0, 6120895.0 ], [ 1915818.0, 6120830.0 ], [ 1915873.0, 6120758.0 ], [ 1915915.0, 6120696.0 ], [ 1915960.0, 6120617.0 ], [ 1915996.0, 6120532.0 ], [ 1916010.0, 6120486.0 ], [ 1916016.0, 6120459.0 ], [ 1916036.0, 6120373.0 ], [ 1916048.0, 6120297.0 ], [ 1916043.0, 6120175.0 ], [ 1916017.0, 6120089.0 ], [ 1915981.0, 6119999.0 ], [ 1915955.0, 6119951.0 ], [ 1915927.0, 6119897.0 ], [ 1915896.0, 6119849.0 ], [ 1915839.0, 6119774.0 ], [ 1915775.0, 6119692.0 ], [ 1915703.0, 6119617.0 ], [ 1915663.0, 6119588.0 ], [ 1915562.0, 6119528.0 ], [ 1915512.0, 6119507.0 ], [ 1915350.0, 6119454.0 ], [ 1915308.0, 6119439.0 ], [ 1915303.0, 6119437.0 ], [ 1915300.0, 6119436.0 ], [ 1915214.0, 6119416.0 ], [ 1915177.0, 6119413.0 ], [ 1915153.0, 6119374.0 ], [ 1915126.0, 6119328.0 ], [ 1915040.0, 6119186.0 ], [ 1915014.0, 6119136.0 ], [ 1914998.0, 6119102.0 ], [ 1914965.0, 6119033.0 ], [ 1914937.0, 6118976.0 ], [ 1914927.0, 6118949.0 ], [ 1914920.0, 6118931.0 ], [ 1914895.0, 6118876.0 ], [ 1914885.0, 6118832.0 ], [ 1914850.0, 6118731.0 ], [ 1914828.0, 6118693.0 ], [ 1914815.0, 6118640.0 ], [ 1914787.0, 6118599.0 ], [ 1914796.0, 6118587.0 ], [ 1914820.0, 6118573.0 ], [ 1914867.0, 6118539.0 ], [ 1914881.0, 6118532.0 ], [ 1914927.0, 6118518.0 ], [ 1914921.0, 6118477.0 ], [ 1914912.0, 6118436.0 ], [ 1914872.0, 6118358.0 ], [ 1914864.0, 6118348.0 ], [ 1914846.0, 6118315.0 ], [ 1914839.0, 6118293.0 ], [ 1914821.0, 6118270.0 ], [ 1914788.0, 6118238.0 ], [ 1914776.0, 6118229.0 ], [ 1914791.0, 6118187.0 ], [ 1914884.0, 6118021.0 ], [ 1914861.0, 6117952.0 ], [ 1914830.0, 6117870.0 ], [ 1914789.0, 6117750.0 ], [ 1914788.0, 6117748.0 ], [ 1914786.0, 6117741.0 ], [ 1914784.0, 6117737.0 ], [ 1914800.0, 6117671.0 ], [ 1914822.0, 6117573.0 ], [ 1914843.0, 6117485.0 ], [ 1914869.0, 6117371.0 ], [ 1914892.0, 6117270.0 ], [ 1914927.0, 6117119.0 ], [ 1914686.0, 6117226.0 ], [ 1914081.0, 6117488.0 ], [ 1914075.0, 6117491.0 ], [ 1913953.0, 6117231.0 ], [ 1913946.0, 6117215.0 ], [ 1913943.0, 6117210.0 ], [ 1913938.0, 6117199.0 ], [ 1913935.0, 6117191.0 ], [ 1913638.0, 6116541.0 ], [ 1913425.0, 6116096.0 ], [ 1913421.0, 6116087.0 ], [ 1913289.0, 6115809.0 ], [ 1913315.0, 6115796.0 ], [ 1913337.0, 6115784.0 ], [ 1913368.0, 6115770.0 ], [ 1913397.0, 6115756.0 ], [ 1913449.0, 6115735.0 ], [ 1913562.0, 6115692.0 ], [ 1913645.0, 6115658.0 ], [ 1913687.0, 6115641.0 ], [ 1913726.0, 6115622.0 ], [ 1913762.0, 6115604.0 ], [ 1913796.0, 6115586.0 ], [ 1913821.0, 6115571.0 ], [ 1913844.0, 6115556.0 ], [ 1913868.0, 6115541.0 ], [ 1913896.0, 6115521.0 ], [ 1913920.0, 6115503.0 ], [ 1913947.0, 6115483.0 ], [ 1913980.0, 6115455.0 ], [ 1914016.0, 6115423.0 ], [ 1914049.0, 6115393.0 ], [ 1914138.0, 6115313.0 ], [ 1914251.0, 6115217.0 ], [ 1914298.0, 6115179.0 ], [ 1914340.0, 6115145.0 ], [ 1914390.0, 6115106.0 ], [ 1914526.0, 6115004.0 ], [ 1914699.0, 6114877.0 ], [ 1914768.0, 6114828.0 ], [ 1914898.0, 6114737.0 ], [ 1915044.0, 6114638.0 ], [ 1915100.0, 6114602.0 ], [ 1915170.0, 6114557.0 ], [ 1915272.0, 6114496.0 ], [ 1915352.0, 6114450.0 ], [ 1915401.0, 6114423.0 ], [ 1915464.0, 6114388.0 ], [ 1915506.0, 6114367.0 ], [ 1915554.0, 6114342.0 ], [ 1915626.0, 6114303.0 ], [ 1915698.0, 6114265.0 ], [ 1915776.0, 6114226.0 ], [ 1915830.0, 6114200.0 ], [ 1915910.0, 6114164.0 ], [ 1915990.0, 6114129.0 ], [ 1916072.0, 6114097.0 ], [ 1916197.0, 6114049.0 ], [ 1916252.0, 6114031.0 ], [ 1916307.0, 6114010.0 ], [ 1916358.0, 6113990.0 ], [ 1916407.0, 6113969.0 ], [ 1916450.0, 6113949.0 ], [ 1916526.0, 6113909.0 ], [ 1916561.0, 6113891.0 ], [ 1916766.0, 6113777.0 ], [ 1916914.0, 6113691.0 ], [ 1916991.0, 6113644.0 ], [ 1917070.0, 6113595.0 ], [ 1917094.0, 6113579.0 ], [ 1917118.0, 6113563.0 ], [ 1917172.0, 6113523.0 ], [ 1917198.0, 6113501.0 ], [ 1917215.0, 6113487.0 ], [ 1917235.0, 6113471.0 ], [ 1917269.0, 6113439.0 ], [ 1917296.0, 6113412.0 ], [ 1917332.0, 6113375.0 ], [ 1917369.0, 6113331.0 ], [ 1917407.0, 6113283.0 ], [ 1917441.0, 6113235.0 ], [ 1917469.0, 6113191.0 ], [ 1917495.0, 6113147.0 ], [ 1917526.0, 6113090.0 ], [ 1917565.0, 6113015.0 ], [ 1917592.0, 6112963.0 ], [ 1917643.0, 6112871.0 ], [ 1917684.0, 6112799.0 ], [ 1917714.0, 6112749.0 ], [ 1917745.0, 6112699.0 ], [ 1917775.0, 6112651.0 ], [ 1917820.0, 6112582.0 ], [ 1917854.0, 6112532.0 ], [ 1917898.0, 6112461.0 ], [ 1917946.0, 6112378.0 ], [ 1917975.0, 6112326.0 ], [ 1918018.0, 6112244.0 ], [ 1918031.0, 6112216.0 ], [ 1918043.0, 6112190.0 ], [ 1918061.0, 6112152.0 ], [ 1918073.0, 6112127.0 ], [ 1918073.0, 6112126.0 ], [ 1918079.0, 6112114.0 ], [ 1918081.0, 6112109.0 ], [ 1918127.0, 6111998.0 ], [ 1918144.0, 6111960.0 ], [ 1918155.0, 6111938.0 ], [ 1918160.0, 6111929.0 ], [ 1918177.0, 6111897.0 ], [ 1918194.0, 6111866.0 ], [ 1918197.0, 6111862.0 ], [ 1918213.0, 6111836.0 ], [ 1918236.0, 6111802.0 ], [ 1918245.0, 6111790.0 ], [ 1918253.0, 6111777.0 ], [ 1918277.0, 6111746.0 ], [ 1918302.0, 6111715.0 ], [ 1918330.0, 6111683.0 ], [ 1918365.0, 6111646.0 ], [ 1918396.0, 6111615.0 ], [ 1918427.0, 6111587.0 ], [ 1918458.0, 6111560.0 ], [ 1918500.0, 6111526.0 ], [ 1918554.0, 6111480.0 ], [ 1918593.0, 6111446.0 ], [ 1918621.0, 6111420.0 ], [ 1918699.0, 6111347.0 ], [ 1918721.0, 6111326.0 ], [ 1918765.0, 6111282.0 ], [ 1918812.0, 6111233.0 ], [ 1918848.0, 6111196.0 ], [ 1918878.0, 6111163.0 ], [ 1918913.0, 6111123.0 ], [ 1918968.0, 6111058.0 ], [ 1919002.0, 6111017.0 ], [ 1919031.0, 6110981.0 ], [ 1919080.0, 6110919.0 ], [ 1919114.0, 6110873.0 ], [ 1919130.0, 6110852.0 ], [ 1919155.0, 6110816.0 ], [ 1919189.0, 6110770.0 ], [ 1919221.0, 6110730.0 ], [ 1919254.0, 6110691.0 ], [ 1919281.0, 6110660.0 ], [ 1919307.0, 6110632.0 ], [ 1919345.0, 6110593.0 ], [ 1919202.0, 6110464.0 ], [ 1919182.0, 6110446.0 ], [ 1919198.0, 6110276.0 ], [ 1919065.0, 6110179.0 ], [ 1919023.0, 6110156.0 ], [ 1918935.0, 6110108.0 ], [ 1918825.0, 6110014.0 ], [ 1918774.0, 6109983.0 ], [ 1918712.0, 6109944.0 ], [ 1918585.0, 6109913.0 ], [ 1918458.0, 6109886.0 ], [ 1918333.0, 6109846.0 ], [ 1918144.0, 6109762.0 ], [ 1918104.0, 6109746.0 ], [ 1917996.0, 6109700.0 ], [ 1917881.0, 6109651.0 ], [ 1917777.0, 6109607.0 ], [ 1917659.0, 6109555.0 ], [ 1917474.0, 6109567.0 ], [ 1917299.0, 6109577.0 ], [ 1917122.0, 6109588.0 ], [ 1917004.0, 6109595.0 ], [ 1916831.0, 6109694.0 ], [ 1916632.0, 6109809.0 ], [ 1916597.0, 6109830.0 ], [ 1916532.0, 6109867.0 ], [ 1916495.0, 6109891.0 ], [ 1916388.0, 6109957.0 ], [ 1916269.0, 6110029.0 ], [ 1916102.0, 6110032.0 ], [ 1915954.0, 6110036.0 ], [ 1915755.0, 6110039.0 ], [ 1915590.0, 6110040.0 ], [ 1915576.0, 6110037.0 ], [ 1915539.0, 6110035.0 ], [ 1915519.0, 6110033.0 ], [ 1915488.0, 6110030.0 ], [ 1915341.0, 6110064.0 ], [ 1915323.0, 6110070.0 ], [ 1915234.0, 6110104.0 ], [ 1915130.0, 6110146.0 ], [ 1915016.0, 6110179.0 ], [ 1914894.0, 6110194.0 ], [ 1914810.0, 6110181.0 ], [ 1914701.0, 6110150.0 ], [ 1914627.0, 6110092.0 ], [ 1914631.0, 6110062.0 ], [ 1914588.0, 6109903.0 ], [ 1914511.0, 6109798.0 ], [ 1914476.0, 6109803.0 ], [ 1914285.0, 6109857.0 ], [ 1914073.0, 6109917.0 ], [ 1913985.0, 6109897.0 ], [ 1913934.0, 6109884.0 ], [ 1913809.0, 6109833.0 ], [ 1913697.0, 6109793.0 ], [ 1913590.0, 6109725.0 ], [ 1913576.0, 6109716.0 ], [ 1913565.0, 6109701.0 ], [ 1913519.0, 6109678.0 ], [ 1913271.0, 6109553.0 ], [ 1913103.0, 6109476.0 ], [ 1912892.0, 6109377.0 ], [ 1912689.0, 6109288.0 ], [ 1912506.0, 6109196.0 ], [ 1912482.0, 6109182.0 ], [ 1912477.0, 6109180.0 ], [ 1912437.0, 6109160.0 ], [ 1912430.0, 6109154.0 ], [ 1912415.0, 6109144.0 ], [ 1912407.0, 6109140.0 ], [ 1912381.0, 6109126.0 ], [ 1912307.0, 6109094.0 ], [ 1912177.0, 6109051.0 ], [ 1912108.0, 6109028.0 ], [ 1912022.0, 6109017.0 ], [ 1912010.0, 6109016.0 ], [ 1911990.0, 6109011.0 ], [ 1911978.0, 6109008.0 ], [ 1911971.0, 6109004.0 ], [ 1911954.0, 6108995.0 ], [ 1911912.0, 6108972.0 ], [ 1911843.0, 6108941.0 ], [ 1911761.0, 6108914.0 ], [ 1911713.0, 6108891.0 ], [ 1911578.0, 6108822.0 ], [ 1911522.0, 6108786.0 ], [ 1911443.0, 6108726.0 ], [ 1911240.0, 6108622.0 ], [ 1911051.0, 6108523.0 ], [ 1910921.0, 6108431.0 ], [ 1910800.0, 6108383.0 ], [ 1910683.0, 6108310.0 ], [ 1910638.0, 6108281.0 ], [ 1910564.0, 6108234.0 ], [ 1910475.0, 6108167.0 ], [ 1910463.0, 6108141.0 ], [ 1910332.0, 6107966.0 ], [ 1910328.0, 6107964.0 ], [ 1910322.0, 6107972.0 ], [ 1910291.0, 6108000.0 ], [ 1910249.0, 6108038.0 ], [ 1910162.0, 6108122.0 ], [ 1910138.0, 6108147.0 ], [ 1910093.0, 6108191.0 ], [ 1910055.0, 6108228.0 ], [ 1909946.0, 6108344.0 ], [ 1909916.0, 6108374.0 ], [ 1909887.0, 6108401.0 ], [ 1909878.0, 6108413.0 ], [ 1909848.0, 6108445.0 ], [ 1909758.0, 6108533.0 ], [ 1909709.0, 6108582.0 ], [ 1909685.0, 6108606.0 ], [ 1909665.0, 6108628.0 ], [ 1909639.0, 6108656.0 ], [ 1909599.0, 6108695.0 ], [ 1909580.0, 6108718.0 ], [ 1909554.0, 6108743.0 ], [ 1909525.0, 6108754.0 ], [ 1909501.0, 6108776.0 ], [ 1909476.0, 6108798.0 ], [ 1909391.0, 6108871.0 ], [ 1909347.0, 6108909.0 ], [ 1909334.0, 6108918.0 ], [ 1909300.0, 6108949.0 ], [ 1909262.0, 6108983.0 ], [ 1909242.0, 6109004.0 ], [ 1909220.0, 6109025.0 ], [ 1909184.0, 6109064.0 ], [ 1909157.0, 6109090.0 ], [ 1909139.0, 6109110.0 ], [ 1909102.0, 6109161.0 ], [ 1909079.0, 6109195.0 ], [ 1909058.0, 6109223.0 ], [ 1909006.0, 6109279.0 ], [ 1908952.0, 6109340.0 ], [ 1908938.0, 6109362.0 ], [ 1908916.0, 6109398.0 ], [ 1908848.0, 6109506.0 ], [ 1908831.0, 6109534.0 ], [ 1908815.0, 6109564.0 ], [ 1908798.0, 6109593.0 ], [ 1908765.0, 6109647.0 ], [ 1908742.0, 6109685.0 ], [ 1908714.0, 6109734.0 ], [ 1908674.0, 6109791.0 ], [ 1908631.0, 6109866.0 ], [ 1908604.0, 6109913.0 ], [ 1908586.0, 6109954.0 ], [ 1908561.0, 6109998.0 ], [ 1908545.0, 6110020.0 ], [ 1908521.0, 6110060.0 ], [ 1908487.0, 6110124.0 ], [ 1908481.0, 6110136.0 ], [ 1908452.0, 6110195.0 ], [ 1908442.0, 6110214.0 ], [ 1908439.0, 6110213.0 ], [ 1908279.0, 6110103.0 ], [ 1908222.0, 6110146.0 ], [ 1908183.0, 6110180.0 ], [ 1908099.0, 6110240.0 ], [ 1908068.0, 6110262.0 ], [ 1908021.0, 6110302.0 ], [ 1907941.0, 6110394.0 ], [ 1907897.0, 6110446.0 ], [ 1907878.0, 6110462.0 ], [ 1907844.0, 6110498.0 ], [ 1907747.0, 6110595.0 ], [ 1907731.0, 6110611.0 ], [ 1907715.0, 6110623.0 ], [ 1907660.0, 6110658.0 ], [ 1907650.0, 6110661.0 ], [ 1907639.0, 6110663.0 ], [ 1907627.0, 6110663.0 ], [ 1907613.0, 6110667.0 ], [ 1907595.0, 6110667.0 ], [ 1907556.0, 6110659.0 ], [ 1907518.0, 6110652.0 ], [ 1907478.0, 6110645.0 ], [ 1907434.0, 6110635.0 ], [ 1907392.0, 6110624.0 ], [ 1907343.0, 6110610.0 ], [ 1907294.0, 6110597.0 ], [ 1907238.0, 6110580.0 ], [ 1907220.0, 6110591.0 ], [ 1907180.0, 6110609.0 ], [ 1907162.0, 6110617.0 ], [ 1907139.0, 6110630.0 ], [ 1907110.0, 6110648.0 ], [ 1907101.0, 6110655.0 ], [ 1907091.0, 6110661.0 ], [ 1907037.0, 6110679.0 ], [ 1907012.0, 6110678.0 ], [ 1906996.0, 6110678.0 ], [ 1906956.0, 6110648.0 ], [ 1906767.0, 6110507.0 ], [ 1906541.0, 6110339.0 ], [ 1906535.0, 6110344.0 ], [ 1906522.0, 6110356.0 ], [ 1906505.0, 6110372.0 ], [ 1906489.0, 6110387.0 ], [ 1906475.0, 6110403.0 ], [ 1906459.0, 6110419.0 ], [ 1906431.0, 6110445.0 ], [ 1906393.0, 6110485.0 ], [ 1906375.0, 6110506.0 ], [ 1906358.0, 6110521.0 ], [ 1906319.0, 6110561.0 ], [ 1906292.0, 6110588.0 ], [ 1906268.0, 6110615.0 ], [ 1906241.0, 6110650.0 ], [ 1906217.0, 6110681.0 ], [ 1906203.0, 6110703.0 ], [ 1906190.0, 6110719.0 ], [ 1906177.0, 6110736.0 ], [ 1906160.0, 6110757.0 ], [ 1906134.0, 6110779.0 ], [ 1906101.0, 6110804.0 ], [ 1906072.0, 6110824.0 ], [ 1906048.0, 6110847.0 ], [ 1906022.0, 6110873.0 ], [ 1906007.0, 6110889.0 ], [ 1905987.0, 6110912.0 ], [ 1905952.0, 6110964.0 ], [ 1905941.0, 6110976.0 ], [ 1905927.0, 6110994.0 ], [ 1905904.0, 6111032.0 ], [ 1905880.0, 6111088.0 ], [ 1905852.0, 6111135.0 ], [ 1905826.0, 6111177.0 ], [ 1905807.0, 6111197.0 ], [ 1905789.0, 6111215.0 ], [ 1905777.0, 6111225.0 ], [ 1905768.0, 6111234.0 ], [ 1905735.0, 6111268.0 ], [ 1905720.0, 6111285.0 ], [ 1905692.0, 6111319.0 ], [ 1905655.0, 6111362.0 ], [ 1905634.0, 6111387.0 ], [ 1905622.0, 6111404.0 ], [ 1905601.0, 6111442.0 ], [ 1905586.0, 6111465.0 ], [ 1905570.0, 6111489.0 ], [ 1905537.0, 6111525.0 ], [ 1905509.0, 6111554.0 ], [ 1905485.0, 6111575.0 ], [ 1905472.0, 6111586.0 ], [ 1905457.0, 6111598.0 ], [ 1905435.0, 6111614.0 ], [ 1905416.0, 6111630.0 ], [ 1905388.0, 6111651.0 ], [ 1905366.0, 6111667.0 ], [ 1905335.0, 6111695.0 ], [ 1905318.0, 6111709.0 ], [ 1905301.0, 6111724.0 ], [ 1905269.0, 6111755.0 ], [ 1905249.0, 6111773.0 ], [ 1905236.0, 6111782.0 ], [ 1905182.0, 6111813.0 ], [ 1905155.0, 6111828.0 ], [ 1905136.0, 6111836.0 ], [ 1905113.0, 6111843.0 ], [ 1905041.0, 6111859.0 ], [ 1905020.0, 6111866.0 ], [ 1905003.0, 6111873.0 ], [ 1904921.0, 6111925.0 ], [ 1904901.0, 6111942.0 ], [ 1904683.0, 6112051.0 ], [ 1904448.0, 6111860.0 ], [ 1904446.0, 6111859.0 ], [ 1904428.0, 6111843.0 ], [ 1904291.0, 6111723.0 ], [ 1904112.0, 6111563.0 ], [ 1903986.0, 6111452.0 ], [ 1903856.0, 6111340.0 ], [ 1903838.0, 6111325.0 ], [ 1903654.0, 6111174.0 ], [ 1903481.0, 6111032.0 ], [ 1903310.0, 6110893.0 ], [ 1903171.0, 6110779.0 ], [ 1903112.0, 6110730.0 ], [ 1902953.0, 6110597.0 ], [ 1902774.0, 6110440.0 ], [ 1902605.0, 6110293.0 ], [ 1902439.0, 6110149.0 ], [ 1902435.0, 6110147.0 ], [ 1902406.0, 6110255.0 ], [ 1902399.0, 6110270.0 ], [ 1902246.0, 6110475.0 ], [ 1902126.0, 6110609.0 ], [ 1902002.0, 6110717.0 ], [ 1901879.0, 6110818.0 ], [ 1901875.0, 6110821.0 ], [ 1901859.0, 6110833.0 ], [ 1901749.0, 6110915.0 ], [ 1901709.0, 6110942.0 ], [ 1901468.0, 6111100.0 ], [ 1901438.0, 6111120.0 ], [ 1901426.0, 6111128.0 ], [ 1901376.0, 6111162.0 ], [ 1901230.0, 6111211.0 ], [ 1901150.0, 6111235.0 ], [ 1901121.0, 6111248.0 ], [ 1901106.0, 6111255.0 ], [ 1901024.0, 6111311.0 ], [ 1900981.0, 6111343.0 ], [ 1900893.0, 6111403.0 ], [ 1900858.0, 6111428.0 ], [ 1900615.0, 6111615.0 ], [ 1900388.0, 6111787.0 ], [ 1900173.0, 6111948.0 ], [ 1900136.0, 6111971.0 ], [ 1900105.0, 6111990.0 ], [ 1900005.0, 6112047.0 ], [ 1899937.0, 6112085.0 ], [ 1899941.0, 6112093.0 ], [ 1899964.0, 6112119.0 ], [ 1899992.0, 6112147.0 ], [ 1900015.0, 6112168.0 ], [ 1900039.0, 6112191.0 ], [ 1900073.0, 6112222.0 ], [ 1900120.0, 6112259.0 ], [ 1900164.0, 6112293.0 ], [ 1900220.0, 6112336.0 ], [ 1900330.0, 6112415.0 ], [ 1900491.0, 6112543.0 ], [ 1900572.0, 6112612.0 ], [ 1900640.0, 6112673.0 ], [ 1900789.0, 6112808.0 ], [ 1900696.0, 6112902.0 ], [ 1900853.0, 6113057.0 ], [ 1900898.0, 6113095.0 ], [ 1901010.0, 6113199.0 ], [ 1901060.0, 6113241.0 ], [ 1901112.0, 6113292.0 ], [ 1901274.0, 6113445.0 ], [ 1901470.0, 6113631.0 ], [ 1901554.0, 6113721.0 ], [ 1901585.0, 6113751.0 ], [ 1901658.0, 6113827.0 ], [ 1901731.0, 6113902.0 ], [ 1901758.0, 6113931.0 ], [ 1901771.0, 6113946.0 ], [ 1901790.0, 6113970.0 ], [ 1901813.0, 6113999.0 ], [ 1901824.0, 6114019.0 ], [ 1901849.0, 6114056.0 ], [ 1901888.0, 6114105.0 ], [ 1901912.0, 6114139.0 ], [ 1901941.0, 6114174.0 ], [ 1901986.0, 6114227.0 ], [ 1902105.0, 6114356.0 ], [ 1902204.0, 6114457.0 ], [ 1902145.0, 6114581.0 ], [ 1902123.0, 6114643.0 ], [ 1902099.0, 6114709.0 ], [ 1902088.0, 6114746.0 ], [ 1902082.0, 6114770.0 ], [ 1902072.0, 6114802.0 ], [ 1902069.0, 6114810.0 ], [ 1902055.0, 6114848.0 ], [ 1901971.0, 6115057.0 ], [ 1901950.0, 6115084.0 ], [ 1901924.0, 6115114.0 ], [ 1901899.0, 6115139.0 ], [ 1901884.0, 6115155.0 ], [ 1901856.0, 6115188.0 ], [ 1901832.0, 6115225.0 ], [ 1901811.0, 6115241.0 ], [ 1901657.0, 6115273.0 ], [ 1901612.0, 6115283.0 ], [ 1901456.0, 6115342.0 ], [ 1901331.0, 6115382.0 ], [ 1901284.0, 6115399.0 ], [ 1901249.0, 6115415.0 ], [ 1901185.0, 6115450.0 ], [ 1901124.0, 6115485.0 ], [ 1901053.0, 6115521.0 ], [ 1900982.0, 6115537.0 ], [ 1900917.0, 6115556.0 ], [ 1900901.0, 6115561.0 ], [ 1900761.0, 6115618.0 ], [ 1900732.0, 6115632.0 ], [ 1900722.0, 6115636.0 ], [ 1900711.0, 6115639.0 ], [ 1900692.0, 6115644.0 ], [ 1900670.0, 6115654.0 ], [ 1900619.0, 6115680.0 ], [ 1900554.0, 6115715.0 ], [ 1900496.0, 6115754.0 ], [ 1900455.0, 6115775.0 ], [ 1900404.0, 6115806.0 ], [ 1900364.0, 6115831.0 ], [ 1900330.0, 6115856.0 ], [ 1900288.0, 6115889.0 ], [ 1900246.0, 6115917.0 ], [ 1900208.0, 6115940.0 ], [ 1900174.0, 6115963.0 ], [ 1900108.0, 6116008.0 ], [ 1900029.0, 6116076.0 ], [ 1900136.0, 6116209.0 ], [ 1900243.0, 6116343.0 ], [ 1900414.0, 6116216.0 ], [ 1900602.0, 6116426.0 ], [ 1900702.0, 6116538.0 ], [ 1900836.0, 6116687.0 ], [ 1901051.0, 6116866.0 ], [ 1901227.0, 6117013.0 ], [ 1901376.0, 6117137.0 ], [ 1901485.0, 6117228.0 ], [ 1901672.0, 6117384.0 ], [ 1901912.0, 6117583.0 ], [ 1902089.0, 6117731.0 ], [ 1902093.0, 6117735.0 ], [ 1901903.0, 6117834.0 ], [ 1901812.0, 6117882.0 ], [ 1901649.0, 6117966.0 ], [ 1901163.0, 6118217.0 ], [ 1900936.0, 6118337.0 ], [ 1900749.0, 6118438.0 ], [ 1900472.0, 6118584.0 ], [ 1900473.0, 6118587.0 ], [ 1900498.0, 6118632.0 ], [ 1900519.0, 6118670.0 ], [ 1900525.0, 6118681.0 ], [ 1900534.0, 6118696.0 ], [ 1900546.0, 6118719.0 ], [ 1900559.0, 6118742.0 ], [ 1900588.0, 6118794.0 ], [ 1900684.0, 6118967.0 ], [ 1900717.0, 6119031.0 ], [ 1900837.0, 6119246.0 ], [ 1900845.0, 6119261.0 ], [ 1900974.0, 6119477.0 ], [ 1901091.0, 6119672.0 ], [ 1901187.0, 6119832.0 ], [ 1901211.0, 6119873.0 ], [ 1901216.0, 6119880.0 ], [ 1900579.0, 6120235.0 ], [ 1900511.0, 6120269.0 ], [ 1900490.0, 6120278.0 ], [ 1900440.0, 6120302.0 ], [ 1900399.0, 6120331.0 ], [ 1900403.0, 6120335.0 ], [ 1900412.0, 6120350.0 ], [ 1900404.0, 6120352.0 ], [ 1900417.0, 6120371.0 ], [ 1900666.0, 6120547.0 ], [ 1900764.0, 6120615.0 ], [ 1900758.0, 6120624.0 ], [ 1900572.0, 6120738.0 ], [ 1900632.0, 6120907.0 ], [ 1900655.0, 6120916.0 ], [ 1900663.0, 6120937.0 ], [ 1900649.0, 6120950.0 ], [ 1900661.0, 6120982.0 ], [ 1900731.0, 6121161.0 ], [ 1900864.0, 6121190.0 ], [ 1900940.0, 6121208.0 ], [ 1901052.0, 6121284.0 ], [ 1901160.0, 6121358.0 ], [ 1901383.0, 6121510.0 ], [ 1901601.0, 6121660.0 ], [ 1901805.0, 6121799.0 ], [ 1902008.0, 6121938.0 ], [ 1902267.0, 6122115.0 ], [ 1902410.0, 6122213.0 ], [ 1902501.0, 6122078.0 ], [ 1902598.0, 6121935.0 ], [ 1902800.0, 6122079.0 ], [ 1902702.0, 6122210.0 ], [ 1902605.0, 6122339.0 ], [ 1902502.0, 6122492.0 ], [ 1902401.0, 6122641.0 ], [ 1902300.0, 6122789.0 ], [ 1902218.0, 6122910.0 ], [ 1902203.0, 6122931.0 ], [ 1902202.0, 6122934.0 ], [ 1902338.0, 6123062.0 ], [ 1902385.0, 6123103.0 ], [ 1902442.0, 6123154.0 ], [ 1902462.0, 6123174.0 ], [ 1902472.0, 6123183.0 ], [ 1902482.0, 6123192.0 ], [ 1902675.0, 6123376.0 ], [ 1902711.0, 6123404.0 ], [ 1902725.0, 6123416.0 ], [ 1902751.0, 6123448.0 ], [ 1902745.0, 6123452.0 ], [ 1902593.0, 6123537.0 ], [ 1902424.0, 6123631.0 ], [ 1902102.0, 6123812.0 ], [ 1901928.0, 6123910.0 ], [ 1901825.0, 6123969.0 ], [ 1901808.0, 6123979.0 ], [ 1901802.0, 6123983.0 ], [ 1901792.0, 6123988.0 ], [ 1901775.0, 6123995.0 ], [ 1901757.0, 6124005.0 ], [ 1901753.0, 6124008.0 ], [ 1901751.0, 6124008.0 ], [ 1901709.0, 6123927.0 ], [ 1901706.0, 6123930.0 ], [ 1901699.0, 6123934.0 ], [ 1901614.0, 6124008.0 ], [ 1901525.0, 6124085.0 ], [ 1901415.0, 6124181.0 ], [ 1901282.0, 6124297.0 ], [ 1901171.0, 6124393.0 ], [ 1901052.0, 6124497.0 ], [ 1901050.0, 6124499.0 ], [ 1901178.0, 6124720.0 ], [ 1901235.0, 6124823.0 ], [ 1901232.0, 6124825.0 ], [ 1901102.0, 6124900.0 ], [ 1900977.0, 6124973.0 ], [ 1900885.0, 6125025.0 ], [ 1900807.0, 6125070.0 ], [ 1900718.0, 6125122.0 ], [ 1900546.0, 6125222.0 ], [ 1900544.0, 6125223.0 ], [ 1900697.0, 6125488.0 ], [ 1900706.0, 6125505.0 ], [ 1900847.0, 6125747.0 ], [ 1900865.0, 6125780.0 ], [ 1900944.0, 6125915.0 ], [ 1900999.0, 6126009.0 ], [ 1901002.0, 6126009.0 ], [ 1901010.0, 6126026.0 ], [ 1900975.0, 6126025.0 ], [ 1900949.0, 6126022.0 ], [ 1900936.0, 6126014.0 ], [ 1900912.0, 6126003.0 ], [ 1900888.0, 6125995.0 ], [ 1900825.0, 6125971.0 ], [ 1900795.0, 6125955.0 ], [ 1900754.0, 6125940.0 ], [ 1900732.0, 6125934.0 ], [ 1900712.0, 6125925.0 ], [ 1900683.0, 6125920.0 ], [ 1900667.0, 6125920.0 ], [ 1900662.0, 6125920.0 ], [ 1900652.0, 6125917.0 ], [ 1900640.0, 6125921.0 ], [ 1900614.0, 6125921.0 ], [ 1900575.0, 6125924.0 ], [ 1900560.0, 6125923.0 ], [ 1900538.0, 6125927.0 ], [ 1900533.0, 6125930.0 ], [ 1900475.0, 6125984.0 ], [ 1900464.0, 6125992.0 ], [ 1900455.0, 6125997.0 ], [ 1900439.0, 6126003.0 ], [ 1900403.0, 6126013.0 ], [ 1900398.0, 6126016.0 ], [ 1900384.0, 6126026.0 ], [ 1900359.0, 6126038.0 ], [ 1900301.0, 6126061.0 ], [ 1900281.0, 6126074.0 ], [ 1900259.0, 6126083.0 ], [ 1900244.0, 6126094.0 ], [ 1900222.0, 6126115.0 ], [ 1900215.0, 6126125.0 ], [ 1900163.0, 6126153.0 ], [ 1900145.0, 6126160.0 ], [ 1900072.0, 6126196.0 ], [ 1900066.0, 6126201.0 ], [ 1900050.0, 6126223.0 ], [ 1900041.0, 6126231.0 ], [ 1900029.0, 6126239.0 ], [ 1900022.0, 6126247.0 ], [ 1900008.0, 6126269.0 ], [ 1900002.0, 6126282.0 ], [ 1900002.0, 6126288.0 ], [ 1900003.0, 6126292.0 ], [ 1900011.0, 6126306.0 ], [ 1900023.0, 6126354.0 ], [ 1900012.0, 6126434.0 ], [ 1900013.0, 6126474.0 ], [ 1900010.0, 6126513.0 ], [ 1899998.0, 6126537.0 ], [ 1899968.0, 6126555.0 ], [ 1899955.0, 6126560.0 ], [ 1899907.0, 6126590.0 ], [ 1899869.0, 6126617.0 ], [ 1899861.0, 6126622.0 ], [ 1899845.0, 6126633.0 ], [ 1899802.0, 6126674.0 ], [ 1899789.0, 6126699.0 ], [ 1899775.0, 6126712.0 ], [ 1899768.0, 6126722.0 ], [ 1899762.0, 6126739.0 ], [ 1899748.0, 6126771.0 ], [ 1899733.0, 6126796.0 ], [ 1899699.0, 6126842.0 ], [ 1899684.0, 6126857.0 ], [ 1899650.0, 6126891.0 ], [ 1899645.0, 6126899.0 ], [ 1899639.0, 6126914.0 ], [ 1899561.0, 6126986.0 ], [ 1899551.0, 6126993.0 ], [ 1899511.0, 6126991.0 ], [ 1899508.0, 6127009.0 ], [ 1899489.0, 6127023.0 ], [ 1899477.0, 6127033.0 ], [ 1899459.0, 6127056.0 ], [ 1899457.0, 6127058.0 ], [ 1899445.0, 6127068.0 ], [ 1899421.0, 6127089.0 ], [ 1899405.0, 6127124.0 ], [ 1899403.0, 6127129.0 ], [ 1899393.0, 6127150.0 ], [ 1899388.0, 6127162.0 ] ] ] } }
]
}
