{
"type": "FeatureCollection",
"name": "brussels-grid",
"crs": { "type": "name", "properties": { "name": "urn:ogc:def:crs:EPSG::3857" } },
"features": [
{ "type": "Feature", "properties": { "osmid": 6313141088.0 }, "geometry": { "type": "Point", "coordinates": [ 481973.0, 6602277.0 ] } },
{ "type": "Feature", "properties": { "osmid": 13608633594.0 }, "geometry": { "type": "Point", "coordinates": [ 486262.0, 6598932.0 ] } },
{ "type": "Feature", "properties": { "osmid": 7625163395.0 }, "geometry": { "type": "Point", "coordinates": [ 489081.0, 6601552.0 ] } },
{ "type": "Feature", "properties": { "osmid": 13178158484.0 }, "geometry": { "type": "Point", "coordinates": [ 490508.0, 6601328.0 ] } },
{ "type": "Feature", "properties": { "osmid": 292938092.0 }, "geometry": { "type": "Point", "coordinates": [ 489013.0, 6592707.0 ] } },
{ "type": "Feature", "properties": { "osmid": 334749600.0 }, "geometry": { "type": "Point", "coordinates": [ 487990.0, 6600259.0 ] } },
{ "type": "Feature", "properties": { "osmid": 17427733.0 }, "geometry": { "type": "Point", "coordinates": [ 484816.0, 6600223.0 ] } },
{ "type": "Feature", "properties": { "osmid": 8595821221.0 }, "geometry": { "type": "Point", "coordinates": [ 484631.0, 6600889.0 ] } },
{ "type": "Feature", "properties": { "osmid": 1762229592.0 }, "geometry": { "type": "Point", "coordinates": [ 485102.0, 6599441.0 ] } },
{ "type": "Feature", "properties": { "osmid": 5070328517.0 }, "geometry": { "type": "Point", "coordinates": [ 484023.0, 6599638.0 ] } },
{ "type": "Feature", "properties": { "osmid": 319195337.0 }, "geometry": { "type": "Point", "coordinates": [ 483727.0, 6600131.0 ] } },
{ "type": "Feature", "properties": { "osmid": 8523989253.0 }, "geometry": { "type": "Point", "coordinates": [ 484775.0, 6601457.0 ] } },
{ "type": "Feature", "properties": { "osmid": 1376965224.0 }, "geometry": { "type": "Point", "coordinates": [ 485356.0, 6599008.0 ] } },
{ "type": "Feature", "properties": { "osmid": 3255300615.0 }, "geometry": { "type": "Point", "coordinates": [ 484932.0, 6598718.0 ] } },
{ "type": "Feature", "properties": { "osmid": 7612334240.0 }, "geometry": { "type": "Point", "coordinates": [ 484373.0, 6598650.0 ] } },
{ "type": "Feature", "properties": { "osmid": 2613006922.0 }, "geometry": { "type": "Point", "coordinates": [ 483605.0, 6601395.0 ] } },
{ "type": "Feature", "properties": { "osmid": 10909209647.0 }, "geometry": { "type": "Point", "coordinates": [ 483116.0, 6600128.0 ] } },
{ "type": "Feature", "properties": { "osmid": 9080953101.0 }, "geometry": { "type": "Point", "coordinates": [ 485755.0, 6598541.0 ] } },
{ "type": "Feature", "properties": { "osmid": 3006826506.0 }, "geometry": { "type": "Point", "coordinates": [ 484699.0, 6598229.0 ] } },
{ "type": "Feature", "properties": { "osmid": 3137854439.0 }, "geometry": { "type": "Point", "coordinates": [ 486826.0, 6600351.0 ] } },
{ "type": "Feature", "properties": { "osmid": 8603304531.0 }, "geometry": { "type": "Point", "coordinates": [ 483458.0, 6598735.0 ] } },
{ "type": "Feature", "properties": { "osmid": 8523989251.0 }, "geometry": { "type": "Point", "coordinates": [ 485156.0, 6602221.0 ] } },
{ "type": "Feature", "properties": { "osmid": 12215272187.0 }, "geometry": { "type": "Point", "coordinates": [ 483881.0, 6598236.0 ] } },
{ "type": "Feature", "properties": { "osmid": 5357371847.0 }, "geometry": { "type": "Point", "coordinates": [ 487017.0, 6599865.0 ] } },
{ "type": "Feature", "properties": { "osmid": 10147522899.0 }, "geometry": { "type": "Point", "coordinates": [ 483297.0, 6601891.0 ] } },
{ "type": "Feature", "properties": { "osmid": 12983399261.0 }, "geometry": { "type": "Point", "coordinates": [ 485701.0, 6602357.0 ] } },
{ "type": "Feature", "properties": { "osmid": 36751355.0 }, "geometry": { "type": "Point", "coordinates": [ 482720.0, 6601314.0 ] } },
{ "type": "Feature", "properties": { "osmid": 151363305.0 }, "geometry": { "type": "Point", "coordinates": [ 484639.0, 6602605.0 ] } },
{ "type": "Feature", "properties": { "osmid": 11403626361.0 }, "geometry": { "type": "Point", "coordinates": [ 487161.0, 6600729.0 ] } },
{ "type": "Feature", "properties": { "osmid": 4365131493.0 }, "geometry": { "type": "Point", "coordinates": [ 485007.0, 6597817.0 ] } },
{ "type": "Feature", "properties": { "osmid": 9649600864.0 }, "geometry": { "type": "Point", "coordinates": [ 484398.0, 6597721.0 ] } },
{ "type": "Feature", "properties": { "osmid": 5175538555.0 }, "geometry": { "type": "Point", "coordinates": [ 486960.0, 6601749.0 ] } },
{ "type": "Feature", "properties": { "osmid": 861016876.0 }, "geometry": { "type": "Point", "coordinates": [ 485105.0, 6602853.0 ] } },
{ "type": "Feature", "properties": { "osmid": 12285298814.0 }, "geometry": { "type": "Point", "coordinates": [ 487234.0, 6601317.0 ] } },
{ "type": "Feature", "properties": { "osmid": 36751387.0 }, "geometry": { "type": "Point", "coordinates": [ 484239.0, 6602934.0 ] } },
{ "type": "Feature", "properties": { "osmid": 10815062866.0 }, "geometry": { "type": "Point", "coordinates": [ 483633.0, 6597712.0 ] } },
{ "type": "Feature", "properties": { "osmid": 12849738575.0 }, "geometry": { "type": "Point", "coordinates": [ 484743.0, 6597303.0 ] } },
{ "type": "Feature", "properties": { "osmid": 5291697929.0 }, "geometry": { "type": "Point", "coordinates": [ 486866.0, 6602375.0 ] } },
{ "type": "Feature", "properties": { "osmid": 10076577691.0 }, "geometry": { "type": "Point", "coordinates": [ 484100.0, 6597198.0 ] } },
{ "type": "Feature", "properties": { "osmid": 36751389.0 }, "geometry": { "type": "Point", "coordinates": [ 483905.0, 6603416.0 ] } },
{ "type": "Feature", "properties": { "osmid": 7956143911.0 }, "geometry": { "type": "Point", "coordinates": [ 487995.0, 6601399.0 ] } },
{ "type": "Feature", "properties": { "osmid": 3795478090.0 }, "geometry": { "type": "Point", "coordinates": [ 486922.0, 6602989.0 ] } },
{ "type": "Feature", "properties": { "osmid": 10211577814.0 }, "geometry": { "type": "Point", "coordinates": [ 484876.0, 6596746.0 ] } },
{ "type": "Feature", "properties": { "osmid": 60023960.0 }, "geometry": { "type": "Point", "coordinates": [ 487442.0, 6602541.0 ] } },
{ "type": "Feature", "properties": { "osmid": 3006849643.0 }, "geometry": { "type": "Point", "coordinates": [ 483938.0, 6596718.0 ] } },
{ "type": "Feature", "properties": { "osmid": 8243024009.0 }, "geometry": { "type": "Point", "coordinates": [ 484980.0, 6603862.0 ] } },
{ "type": "Feature", "properties": { "osmid": 264592836.0 }, "geometry": { "type": "Point", "coordinates": [ 482493.0, 6603190.0 ] } },
{ "type": "Feature", "properties": { "osmid": 4368449117.0 }, "geometry": { "type": "Point", "coordinates": [ 483714.0, 6603956.0 ] } },
{ "type": "Feature", "properties": { "osmid": 7989252673.0 }, "geometry": { "type": "Point", "coordinates": [ 487968.0, 6602550.0 ] } },
{ "type": "Feature", "properties": { "osmid": 4606097860.0 }, "geometry": { "type": "Point", "coordinates": [ 488501.0, 6601844.0 ] } },
{ "type": "Feature", "properties": { "osmid": 143818305.0 }, "geometry": { "type": "Point", "coordinates": [ 484144.0, 6596239.0 ] } },
{ "type": "Feature", "properties": { "osmid": 121984551.0 }, "geometry": { "type": "Point", "coordinates": [ 481880.0, 6603024.0 ] } },
{ "type": "Feature", "properties": { "osmid": 12804707038.0 }, "geometry": { "type": "Point", "coordinates": [ 484625.0, 6596009.0 ] } },
{ "type": "Feature", "properties": { "osmid": 9693186068.0 }, "geometry": { "type": "Point", "coordinates": [ 482446.0, 6603887.0 ] } },
{ "type": "Feature", "properties": { "osmid": 492366420.0 }, "geometry": { "type": "Point", "coordinates": [ 485105.0, 6595749.0 ] } },
{ "type": "Feature", "properties": { "osmid": 31385124.0 }, "geometry": { "type": "Point", "coordinates": [ 483755.0, 6595820.0 ] } },
{ "type": "Feature", "properties": { "osmid": 5293810703.0 }, "geometry": { "type": "Point", "coordinates": [ 488176.0, 6603642.0 ] } },
{ "type": "Feature", "properties": { "osmid": 113501067.0 }, "geometry": { "type": "Point", "coordinates": [ 484421.0, 6595421.0 ] } },
{ "type": "Feature", "properties": { "osmid": 11145860853.0 }, "geometry": { "type": "Point", "coordinates": [ 485719.0, 6595487.0 ] } },
{ "type": "Feature", "properties": { "osmid": 129860060.0 }, "geometry": { "type": "Point", "coordinates": [ 484986.0, 6595232.0 ] } },
{ "type": "Feature", "properties": { "osmid": 117267724.0 }, "geometry": { "type": "Point", "coordinates": [ 483936.0, 6595266.0 ] } },
{ "type": "Feature", "properties": { "osmid": 332389509.0 }, "geometry": { "type": "Point", "coordinates": [ 483308.0, 6595376.0 ] } },
{ "type": "Feature", "properties": { "osmid": 6602748701.0 }, "geometry": { "type": "Point", "coordinates": [ 480242.0, 6602447.0 ] } },
{ "type": "Feature", "properties": { "osmid": 12161769430.0 }, "geometry": { "type": "Point", "coordinates": [ 489070.0, 6603070.0 ] } },
{ "type": "Feature", "properties": { "osmid": 129953558.0 }, "geometry": { "type": "Point", "coordinates": [ 486216.0, 6595213.0 ] } },
{ "type": "Feature", "properties": { "osmid": 7290045585.0 }, "geometry": { "type": "Point", "coordinates": [ 485556.0, 6594997.0 ] } },
{ "type": "Feature", "properties": { "osmid": 60563803.0 }, "geometry": { "type": "Point", "coordinates": [ 489601.0, 6602596.0 ] } },
{ "type": "Feature", "properties": { "osmid": 5614849762.0 }, "geometry": { "type": "Point", "coordinates": [ 484576.0, 6594727.0 ] } },
{ "type": "Feature", "properties": { "osmid": 127428398.0 }, "geometry": { "type": "Point", "coordinates": [ 483336.0, 6594849.0 ] } },
{ "type": "Feature", "properties": { "osmid": 35711889.0 }, "geometry": { "type": "Point", "coordinates": [ 486038.0, 6594719.0 ] } },
{ "type": "Feature", "properties": { "osmid": 17429793.0 }, "geometry": { "type": "Point", "coordinates": [ 484017.0, 6594619.0 ] } },
{ "type": "Feature", "properties": { "osmid": 12199475523.0 }, "geometry": { "type": "Point", "coordinates": [ 489620.0, 6603469.0 ] } },
{ "type": "Feature", "properties": { "osmid": 35711875.0 }, "geometry": { "type": "Point", "coordinates": [ 485040.0, 6594404.0 ] } },
{ "type": "Feature", "properties": { "osmid": 187128805.0 }, "geometry": { "type": "Point", "coordinates": [ 488514.0, 6604770.0 ] } },
{ "type": "Feature", "properties": { "osmid": 5640257441.0 }, "geometry": { "type": "Point", "coordinates": [ 482913.0, 6594522.0 ] } },
{ "type": "Feature", "properties": { "osmid": 3127755705.0 }, "geometry": { "type": "Point", "coordinates": [ 485615.0, 6594251.0 ] } },
{ "type": "Feature", "properties": { "osmid": 139194302.0 }, "geometry": { "type": "Point", "coordinates": [ 487656.0, 6594882.0 ] } },
{ "type": "Feature", "properties": { "osmid": 2622765694.0 }, "geometry": { "type": "Point", "coordinates": [ 483634.0, 6594277.0 ] } },
{ "type": "Feature", "properties": { "osmid": 17431141.0 }, "geometry": { "type": "Point", "coordinates": [ 484425.0, 6594115.0 ] } },
{ "type": "Feature", "properties": { "osmid": 111745979.0 }, "geometry": { "type": "Point", "coordinates": [ 486388.0, 6594175.0 ] } },
{ "type": "Feature", "properties": { "osmid": 1580594408.0 }, "geometry": { "type": "Point", "coordinates": [ 484990.0, 6593870.0 ] } },
{ "type": "Feature", "properties": { "osmid": 35714150.0 }, "geometry": { "type": "Point", "coordinates": [ 483964.0, 6593871.0 ] } },
{ "type": "Feature", "properties": { "osmid": 17430455.0 }, "geometry": { "type": "Point", "coordinates": [ 483045.0, 6594029.0 ] } },
{ "type": "Feature", "properties": { "osmid": 11917887975.0 }, "geometry": { "type": "Point", "coordinates": [ 488804.0, 6605374.0 ] } },
{ "type": "Feature", "properties": { "osmid": 139194253.0 }, "geometry": { "type": "Point", "coordinates": [ 487844.0, 6594381.0 ] } },
{ "type": "Feature", "properties": { "osmid": 332980428.0 }, "geometry": { "type": "Point", "coordinates": [ 484409.0, 6593601.0 ] } },
{ "type": "Feature", "properties": { "osmid": 2938706352.0 }, "geometry": { "type": "Point", "coordinates": [ 489388.0, 6605087.0 ] } },
{ "type": "Feature", "properties": { "osmid": 251281895.0 }, "geometry": { "type": "Point", "coordinates": [ 486147.0, 6593660.0 ] } },
{ "type": "Feature", "properties": { "osmid": 111748792.0 }, "geometry": { "type": "Point", "coordinates": [ 486871.0, 6593838.0 ] } },
{ "type": "Feature", "properties": { "osmid": 139204433.0 }, "geometry": { "type": "Point", "coordinates": [ 488378.0, 6594403.0 ] } },
{ "type": "Feature", "properties": { "osmid": 127541278.0 }, "geometry": { "type": "Point", "coordinates": [ 483366.0, 6593538.0 ] } },
{ "type": "Feature", "properties": { "osmid": 2369130927.0 }, "geometry": { "type": "Point", "coordinates": [ 490099.0, 6604600.0 ] } },
{ "type": "Feature", "properties": { "osmid": 123995772.0 }, "geometry": { "type": "Point", "coordinates": [ 484963.0, 6593357.0 ] } },
{ "type": "Feature", "properties": { "osmid": 125654965.0 }, "geometry": { "type": "Point", "coordinates": [ 483850.0, 6593319.0 ] } },
{ "type": "Feature", "properties": { "osmid": 1661579519.0 }, "geometry": { "type": "Point", "coordinates": [ 487796.0, 6593842.0 ] } },
{ "type": "Feature", "properties": { "osmid": 4034481714.0 }, "geometry": { "type": "Point", "coordinates": [ 485892.0, 6593168.0 ] } },
{ "type": "Feature", "properties": { "osmid": 240134424.0 }, "geometry": { "type": "Point", "coordinates": [ 484369.0, 6593071.0 ] } },
{ "type": "Feature", "properties": { "osmid": 4606097873.0 }, "geometry": { "type": "Point", "coordinates": [ 490635.0, 6604458.0 ] } },
{ "type": "Feature", "properties": { "osmid": 6144660009.0 }, "geometry": { "type": "Point", "coordinates": [ 486968.0, 6593283.0 ] } },
{ "type": "Feature", "properties": { "osmid": 6905080170.0 }, "geometry": { "type": "Point", "coordinates": [ 483234.0, 6593049.0 ] } },
{ "type": "Feature", "properties": { "osmid": 13303052236.0 }, "geometry": { "type": "Point", "coordinates": [ 488419.0, 6593753.0 ] } },
{ "type": "Feature", "properties": { "osmid": 6900259533.0 }, "geometry": { "type": "Point", "coordinates": [ 485528.0, 6592822.0 ] } },
{ "type": "Feature", "properties": { "osmid": 66157161.0 }, "geometry": { "type": "Point", "coordinates": [ 483766.0, 6592811.0 ] } },
{ "type": "Feature", "properties": { "osmid": 8086302.0 }, "geometry": { "type": "Point", "coordinates": [ 488037.0, 6593403.0 ] } },
{ "type": "Feature", "properties": { "osmid": 12458641094.0 }, "geometry": { "type": "Point", "coordinates": [ 487533.0, 6593093.0 ] } },
{ "type": "Feature", "properties": { "osmid": 4606097884.0 }, "geometry": { "type": "Point", "coordinates": [ 491257.0, 6604579.0 ] } },
{ "type": "Feature", "properties": { "osmid": 1510274513.0 }, "geometry": { "type": "Point", "coordinates": [ 487047.0, 6592740.0 ] } },
{ "type": "Feature", "properties": { "osmid": 139726036.0 }, "geometry": { "type": "Point", "coordinates": [ 488989.0, 6593574.0 ] } },
{ "type": "Feature", "properties": { "osmid": 150546434.0 }, "geometry": { "type": "Point", "coordinates": [ 483359.0, 6592498.0 ] } },
{ "type": "Feature", "properties": { "osmid": 5501174224.0 }, "geometry": { "type": "Point", "coordinates": [ 484204.0, 6592366.0 ] } },
{ "type": "Feature", "properties": { "osmid": 3988833857.0 }, "geometry": { "type": "Point", "coordinates": [ 484766.0, 6592313.0 ] } },
{ "type": "Feature", "properties": { "osmid": 6587702563.0 }, "geometry": { "type": "Point", "coordinates": [ 488455.0, 6592905.0 ] } },
{ "type": "Feature", "properties": { "osmid": 142625479.0 }, "geometry": { "type": "Point", "coordinates": [ 483741.0, 6592048.0 ] } },
{ "type": "Feature", "properties": { "osmid": 26841188.0 }, "geometry": { "type": "Point", "coordinates": [ 485024.0, 6591844.0 ] } },
{ "type": "Feature", "properties": { "osmid": 26912907.0 }, "geometry": { "type": "Point", "coordinates": [ 485339.0, 6591421.0 ] } },
{ "type": "Feature", "properties": { "osmid": 4994911937.0 }, "geometry": { "type": "Point", "coordinates": [ 485696.0, 6590996.0 ] } },
{ "type": "Feature", "properties": { "osmid": 5936574795.0 }, "geometry": { "type": "Point", "coordinates": [ 486172.0, 6590262.0 ] } },
{ "type": "Feature", "properties": { "osmid": 3997610052.0 }, "geometry": { "type": "Point", "coordinates": [ 486461.0, 6589818.0 ] } },
{ "type": "Feature", "properties": { "osmid": 144236931.0 }, "geometry": { "type": "Point", "coordinates": [ 486660.0, 6589151.0 ] } },
{ "type": "Feature", "properties": { "osmid": 3989095451.0 }, "geometry": { "type": "Point", "coordinates": [ 487095.0, 6588897.0 ] } },
{ "type": "Feature", "properties": { "osmid": 250350063.0 }, "geometry": { "type": "Point", "coordinates": [ 486663.0, 6588433.0 ] } },
{ "type": "Feature", "properties": { "osmid": 8109340278.0 }, "geometry": { "type": "Point", "coordinates": [ 487351.0, 6588423.0 ] } },
{ "type": "Feature", "properties": { "osmid": 6483837669.0 }, "geometry": { "type": "Point", "coordinates": [ 487669.0, 6588001.0 ] } },
{ "type": "Feature", "properties": { "osmid": 3109978920.0 }, "geometry": { "type": "Point", "coordinates": [ 486856.0, 6587378.0 ] } },
{ "type": "Feature", "properties": { "osmid": 26086316.0 }, "geometry": { "type": "Point", "coordinates": [ 488033.0, 6587494.0 ] } },
{ "type": "Feature", "properties": { "osmid": 6982915210.0 }, "geometry": { "type": "Point", "coordinates": [ 488281.0, 6586998.0 ] } },
{ "type": "Feature", "properties": { "osmid": 140366662.0 }, "geometry": { "type": "Point", "coordinates": [ 487197.0, 6586421.0 ] } },
{ "type": "Feature", "properties": { "osmid": 6982888518.0 }, "geometry": { "type": "Point", "coordinates": [ 488547.0, 6586470.0 ] } },
{ "type": "Feature", "properties": { "osmid": 130196021.0 }, "geometry": { "type": "Point", "coordinates": [ 487452.0, 6585865.0 ] } },
{ "type": "Feature", "properties": { "osmid": 8565587991.0 }, "geometry": { "type": "Point", "coordinates": [ 489449.0, 6586289.0 ] } },
{ "type": "Feature", "properties": { "osmid": 6982830110.0 }, "geometry": { "type": "Point", "coordinates": [ 488980.0, 6585862.0 ] } },
{ "type": "Feature", "properties": { "osmid": 3136263372.0 }, "geometry": { "type": "Point", "coordinates": [ 489352.0, 6585522.0 ] } },
{ "type": "Feature", "properties": { "osmid": 3136263274.0 }, "geometry": { "type": "Point", "coordinates": [ 489873.0, 6585380.0 ] } }
]
}
