{
"type": "FeatureCollection",
"name": "brussels-rail",
"crs": { "type": "name", "properties": { "name": "urn:ogc:def:crs:EPSG::3857" } },
"features": [
{ "type": "Feature", "properties": { "osmid": 4817986279 }, "geometry": { "type": "Point", "coordinates": [ 485542.0, 6592734.0 ] } },
{ "type": "Feature", "properties": { "osmid": 4858090306 }, "geometry": { "type": "Point", "coordinates": [ 484579.0, 6595064.0 ] } },
{ "type": "Feature", "properties": { "osmid": 5337476979 }, "geometry": { "type": "Point", "coordinates": [ 483235.0, 6593090.0 ] } },
{ "type": "Feature", "properties": { "osmid": 8778626831 }, "geometry": { "type": "Point", "coordinates": [ 484139.0, 6594416.0 ] } },
{ "type": "Feature", "properties": { "osmid": 7930787099 }, "geometry": { "type": "Point", "coordinates": [ 487643.0, 6593546.0 ] } },
{ "type": "Feature", "properties": { "osmid": 2613006871 }, "geometry": { "type": "Point", "coordinates": [ 483341.0, 6601167.0 ] } },
{ "type": "Feature", "properties": { "osmid": 9267561940 }, "geometry": { "type": "Point", "coordinates": [ 484504.0, 6594796.0 ] } },
{ "type": "Feature", "properties": { "osmid": 4068061970 }, "geometry": { "type": "Point", "coordinates": [ 486335.0, 6594014.0 ] } },
{ "type": "Feature", "properties": { "osmid": 2274675317 }, "geometry": { "type": "Point", "coordinates": [ 484007.0, 6599893.0 ] } },
{ "type": "Feature", "properties": { "osmid": 3994573467 }, "geometry": { "type": "Point", "coordinates": [ 484753.0, 6592223.0 ] } },
{ "type": "Feature", "properties": { "osmid": 865007559 }, "geometry": { "type": "Point", "coordinates": [ 485026.0, 6594005.0 ] } },
{ "type": "Feature", "properties": { "osmid": 13730414749 }, "geometry": { "type": "Point", "coordinates": [ 485602.0, 6594019.0 ] } },
{ "type": "Feature", "properties": { "osmid": 4868825141 }, "geometry": { "type": "Point", "coordinates": [ 485211.0, 6594197.0 ] } },
{ "type": "Feature", "properties": { "osmid": 4659337597 }, "geometry": { "type": "Point", "coordinates": [ 483990.0, 6595176.0 ] } },
{ "type": "Feature", "properties": { "osmid": 10003120580 }, "geometry": { "type": "Point", "coordinates": [ 485650.0, 6595137.0 ] } },
{ "type": "Feature", "properties": { "osmid": 35714155 }, "geometry": { "type": "Point", "coordinates": [ 483726.0, 6593789.0 ] } },
{ "type": "Feature", "properties": { "osmid": 7403165303 }, "geometry": { "type": "Point", "coordinates": [ 483433.0, 6591986.0 ] } },
{ "type": "Feature", "properties": { "osmid": 11226154708 }, "geometry": { "type": "Point", "coordinates": [ 484074.0, 6593253.0 ] } },
{ "type": "Feature", "properties": { "osmid": 7912556901 }, "geometry": { "type": "Point", "coordinates": [ 487773.0, 6593516.0 ] } },
{ "type": "Feature", "properties": { "osmid": 5226504289 }, "geometry": { "type": "Point", "coordinates": [ 482862.0, 6601786.0 ] } },
{ "type": "Feature", "properties": { "osmid": 206289593 }, "geometry": { "type": "Point", "coordinates": [ 484382.0, 6596115.0 ] } },
{ "type": "Feature", "properties": { "osmid": 11755564667 }, "geometry": { "type": "Point", "coordinates": [ 484073.0, 6591858.0 ] } },
{ "type": "Feature", "properties": { "osmid": 3347908420 }, "geometry": { "type": "Point", "coordinates": [ 487381.0, 6599788.0 ] } },
{ "type": "Feature", "properties": { "osmid": 2190631226 }, "geometry": { "type": "Point", "coordinates": [ 482709.0, 6603045.0 ] } },
{ "type": "Feature", "properties": { "osmid": 6584355965 }, "geometry": { "type": "Point", "coordinates": [ 487201.0, 6593719.0 ] } },
{ "type": "Feature", "properties": { "osmid": 8691061265 }, "geometry": { "type": "Point", "coordinates": [ 481714.0, 6602976.0 ] } },
{ "type": "Feature", "properties": { "osmid": 5284119866 }, "geometry": { "type": "Point", "coordinates": [ 484014.0, 6599988.0 ] } },
{ "type": "Feature", "properties": { "osmid": 7418285973 }, "geometry": { "type": "Point", "coordinates": [ 486104.0, 6593315.0 ] } },
{ "type": "Feature", "properties": { "osmid": 4902681735 }, "geometry": { "type": "Point", "coordinates": [ 483423.0, 6598903.0 ] } },
{ "type": "Feature", "properties": { "osmid": 4438215607 }, "geometry": { "type": "Point", "coordinates": [ 483316.0, 6598639.0 ] } }
]
}
