{
"type": "FeatureCollection",
"name": "bucharest-grid",
"crs": { "type": "name", "properties": { "name": "urn:ogc:def:crs:EPSG::3857" } },
"features": [
{ "type": "Feature", "properties": { "osmid": 256502971.0 }, "geometry": { "type": "Point", "coordinates": [ 2897121.0, 5540457.0 ] } },
{ "type": "Feature", "properties": { "osmid": 256398488.0 }, "geometry": { "type": "Point", "coordinates": [ 2897333.0, 5531755.0 ] } },
{ "type": "Feature", "properties": { "osmid": 2936271901.0 }, "geometry": { "type": "Point", "coordinates": [ 2913349.0, 5534135.0 ] } },
{ "type": "Feature", "properties": { "osmid": 2160413797.0 }, "geometry": { "type": "Point", "coordinates": [ 2913046.0, 5532458.0 ] } },
{ "type": "Feature", "properties": { "osmid": 861527476.0 }, "geometry": { "type": "Point", "coordinates": [ 2911351.0, 5532746.0 ] } },
{ "type": "Feature", "properties": { "osmid": 3098136981.0 }, "geometry": { "type": "Point", "coordinates": [ 2916697.0, 5533547.0 ] } },
{ "type": "Feature", "properties": { "osmid": 2466153229.0 }, "geometry": { "type": "Point", "coordinates": [ 2906516.0, 5524944.0 ] } },
{ "type": "Feature", "properties": { "osmid": 60291729.0 }, "geometry": { "type": "Point", "coordinates": [ 2904923.0, 5535621.0 ] } },
{ "type": "Feature", "properties": { "osmid": 13708329676.0 }, "geometry": { "type": "Point", "coordinates": [ 2907124.0, 5528310.0 ] } },
{ "type": "Feature", "properties": { "osmid": 256206207.0 }, "geometry": { "type": "Point", "coordinates": [ 2907979.0, 5533332.0 ] } },
{ "type": "Feature", "properties": { "osmid": 257116247.0 }, "geometry": { "type": "Point", "coordinates": [ 2918086.0, 5531532.0 ] } },
{ "type": "Feature", "properties": { "osmid": 256028031.0 }, "geometry": { "type": "Point", "coordinates": [ 2906338.0, 5533649.0 ] } },
{ "type": "Feature", "properties": { "osmid": 2170951705.0 }, "geometry": { "type": "Point", "coordinates": [ 2915005.0, 5533847.0 ] } },
{ "type": "Feature", "properties": { "osmid": 10989386745.0 }, "geometry": { "type": "Point", "coordinates": [ 2900759.0, 5541530.0 ] } },
{ "type": "Feature", "properties": { "osmid": 6270381529.0 }, "geometry": { "type": "Point", "coordinates": [ 2908524.0, 5526314.0 ] } },
{ "type": "Feature", "properties": { "osmid": 248734296.0 }, "geometry": { "type": "Point", "coordinates": [ 2909363.0, 5531369.0 ] } },
{ "type": "Feature", "properties": { "osmid": 9836424774.0 }, "geometry": { "type": "Point", "coordinates": [ 2902089.0, 5529202.0 ] } },
{ "type": "Feature", "properties": { "osmid": 255911962.0 }, "geometry": { "type": "Point", "coordinates": [ 2906894.0, 5536973.0 ] } },
{ "type": "Feature", "properties": { "osmid": 6228051446.0 }, "geometry": { "type": "Point", "coordinates": [ 2910167.0, 5525990.0 ] } },
{ "type": "Feature", "properties": { "osmid": 6888130269.0 }, "geometry": { "type": "Point", "coordinates": [ 2917770.0, 5529854.0 ] } },
{ "type": "Feature", "properties": { "osmid": 9031143541.0 }, "geometry": { "type": "Point", "coordinates": [ 2914751.0, 5532131.0 ] } },
{ "type": "Feature", "properties": { "osmid": 11059403859.0 }, "geometry": { "type": "Point", "coordinates": [ 2901840.0, 5537898.0 ] } },
{ "type": "Feature", "properties": { "osmid": 255668452.0 }, "geometry": { "type": "Point", "coordinates": [ 2895964.0, 5533754.0 ] } },
{ "type": "Feature", "properties": { "osmid": 256371668.0 }, "geometry": { "type": "Point", "coordinates": [ 2900713.0, 5531132.0 ] } },
{ "type": "Feature", "properties": { "osmid": 2643797725.0 }, "geometry": { "type": "Point", "coordinates": [ 2912178.0, 5527434.0 ] } },
{ "type": "Feature", "properties": { "osmid": 256753228.0 }, "geometry": { "type": "Point", "coordinates": [ 2905166.0, 5526879.0 ] } },
{ "type": "Feature", "properties": { "osmid": 6294508744.0 }, "geometry": { "type": "Point", "coordinates": [ 2899869.0, 5536462.0 ] } },
{ "type": "Feature", "properties": { "osmid": 10286706794.0 }, "geometry": { "type": "Point", "coordinates": [ 2912368.0, 5518743.0 ] } },
{ "type": "Feature", "properties": { "osmid": 256474454.0 }, "geometry": { "type": "Point", "coordinates": [ 2895147.0, 5539113.0 ] } },
{ "type": "Feature", "properties": { "osmid": 1743399467.0 }, "geometry": { "type": "Point", "coordinates": [ 2911707.0, 5534423.0 ] } },
{ "type": "Feature", "properties": { "osmid": 6264345649.0 }, "geometry": { "type": "Point", "coordinates": [ 2907552.0, 5540365.0 ] } },
{ "type": "Feature", "properties": { "osmid": 255832984.0 }, "geometry": { "type": "Point", "coordinates": [ 2901564.0, 5536247.0 ] } },
{ "type": "Feature", "properties": { "osmid": 403786077.0 }, "geometry": { "type": "Point", "coordinates": [ 2905783.0, 5540671.0 ] } },
{ "type": "Feature", "properties": { "osmid": 933650346.0 }, "geometry": { "type": "Point", "coordinates": [ 2905437.0, 5528541.0 ] } },
{ "type": "Feature", "properties": { "osmid": 2297550151.0 }, "geometry": { "type": "Point", "coordinates": [ 2905751.0, 5530311.0 ] } },
{ "type": "Feature", "properties": { "osmid": 256398989.0 }, "geometry": { "type": "Point", "coordinates": [ 2895594.0, 5532051.0 ] } },
{ "type": "Feature", "properties": { "osmid": 13632979705.0 }, "geometry": { "type": "Point", "coordinates": [ 2912586.0, 5539499.0 ] } },
{ "type": "Feature", "properties": { "osmid": 256405417.0 }, "geometry": { "type": "Point", "coordinates": [ 2898534.0, 5538429.0 ] } },
{ "type": "Feature", "properties": { "osmid": 8689369330.0 }, "geometry": { "type": "Point", "coordinates": [ 2895471.0, 5540795.0 ] } },
{ "type": "Feature", "properties": { "osmid": 6530633514.0 }, "geometry": { "type": "Point", "coordinates": [ 2909574.0, 5522708.0 ] } },
{ "type": "Feature", "properties": { "osmid": 256704872.0 }, "geometry": { "type": "Point", "coordinates": [ 2910815.0, 5529415.0 ] } },
{ "type": "Feature", "properties": { "osmid": 256725640.0 }, "geometry": { "type": "Point", "coordinates": [ 2906856.0, 5526570.0 ] } },
{ "type": "Feature", "properties": { "osmid": 8166920532.0 }, "geometry": { "type": "Point", "coordinates": [ 2908737.0, 5527995.0 ] } },
{ "type": "Feature", "properties": { "osmid": 1820148208.0 }, "geometry": { "type": "Point", "coordinates": [ 2908632.0, 5536651.0 ] } },
{ "type": "Feature", "properties": { "osmid": 2481672078.0 }, "geometry": { "type": "Point", "coordinates": [ 2900236.0, 5538214.0 ] } },
{ "type": "Feature", "properties": { "osmid": 256574128.0 }, "geometry": { "type": "Point", "coordinates": [ 2899158.0, 5541813.0 ] } },
{ "type": "Feature", "properties": { "osmid": 581779.0 }, "geometry": { "type": "Point", "coordinates": [ 2899296.0, 5533073.0 ] } },
{ "type": "Feature", "properties": { "osmid": 9877030583.0 }, "geometry": { "type": "Point", "coordinates": [ 2893933.0, 5532401.0 ] } },
{ "type": "Feature", "properties": { "osmid": 257108246.0 }, "geometry": { "type": "Point", "coordinates": [ 2916364.0, 5531805.0 ] } },
{ "type": "Feature", "properties": { "osmid": 9173386207.0 }, "geometry": { "type": "Point", "coordinates": [ 2907156.0, 5538631.0 ] } },
{ "type": "Feature", "properties": { "osmid": 256560438.0 }, "geometry": { "type": "Point", "coordinates": [ 2897478.0, 5542175.0 ] } },
{ "type": "Feature", "properties": { "osmid": 256705254.0 }, "geometry": { "type": "Point", "coordinates": [ 2909141.0, 5529726.0 ] } },
{ "type": "Feature", "properties": { "osmid": 2212804828.0 }, "geometry": { "type": "Point", "coordinates": [ 2910430.0, 5527642.0 ] } },
{ "type": "Feature", "properties": { "osmid": 6888098093.0 }, "geometry": { "type": "Point", "coordinates": [ 2917496.0, 5528268.0 ] } },
{ "type": "Feature", "properties": { "osmid": 2160310640.0 }, "geometry": { "type": "Point", "coordinates": [ 2909606.0, 5533031.0 ] } },
{ "type": "Feature", "properties": { "osmid": 4911069016.0 }, "geometry": { "type": "Point", "coordinates": [ 2903572.0, 5547976.0 ] } },
{ "type": "Feature", "properties": { "osmid": 10108108723.0 }, "geometry": { "type": "Point", "coordinates": [ 2907336.0, 5529998.0 ] } },
{ "type": "Feature", "properties": { "osmid": 1829798857.0 }, "geometry": { "type": "Point", "coordinates": [ 2912669.0, 5530763.0 ] } },
{ "type": "Feature", "properties": { "osmid": 13760909903.0 }, "geometry": { "type": "Point", "coordinates": [ 2909264.0, 5540028.0 ] } },
{ "type": "Feature", "properties": { "osmid": 9208450942.0 }, "geometry": { "type": "Point", "coordinates": [ 2896779.0, 5538704.0 ] } },
{ "type": "Feature", "properties": { "osmid": 338606861.0 }, "geometry": { "type": "Point", "coordinates": [ 2891723.0, 5529199.0 ] } },
{ "type": "Feature", "properties": { "osmid": 7038641874.0 }, "geometry": { "type": "Point", "coordinates": [ 2892060.0, 5530910.0 ] } },
{ "type": "Feature", "properties": { "osmid": 11098134211.0 }, "geometry": { "type": "Point", "coordinates": [ 2901037.0, 5543304.0 ] } },
{ "type": "Feature", "properties": { "osmid": 4911069978.0 }, "geometry": { "type": "Point", "coordinates": [ 2905127.0, 5545992.0 ] } },
{ "type": "Feature", "properties": { "osmid": 257071068.0 }, "geometry": { "type": "Point", "coordinates": [ 2910849.0, 5539855.0 ] } },
{ "type": "Feature", "properties": { "osmid": 256851923.0 }, "geometry": { "type": "Point", "coordinates": [ 2903197.0, 5525612.0 ] } },
{ "type": "Feature", "properties": { "osmid": 2499298753.0 }, "geometry": { "type": "Point", "coordinates": [ 2900350.0, 5529387.0 ] } },
{ "type": "Feature", "properties": { "osmid": 10233039904.0 }, "geometry": { "type": "Point", "coordinates": [ 2893509.0, 5539457.0 ] } },
{ "type": "Feature", "properties": { "osmid": 11053121457.0 }, "geometry": { "type": "Point", "coordinates": [ 2896637.0, 5537100.0 ] } },
{ "type": "Feature", "properties": { "osmid": 5276223147.0 }, "geometry": { "type": "Point", "coordinates": [ 2912258.0, 5537896.0 ] } },
{ "type": "Feature", "properties": { "osmid": 286855065.0 }, "geometry": { "type": "Point", "coordinates": [ 2899565.0, 5534705.0 ] } },
{ "type": "Feature", "properties": { "osmid": 312752414.0 }, "geometry": { "type": "Point", "coordinates": [ 2893280.0, 5537634.0 ] } },
{ "type": "Feature", "properties": { "osmid": 6441084888.0 }, "geometry": { "type": "Point", "coordinates": [ 2898678.0, 5540162.0 ] } },
{ "type": "Feature", "properties": { "osmid": 5427469170.0 }, "geometry": { "type": "Point", "coordinates": [ 2903639.0, 5528809.0 ] } },
{ "type": "Feature", "properties": { "osmid": 6444176377.0 }, "geometry": { "type": "Point", "coordinates": [ 2898348.0, 5536792.0 ] } },
{ "type": "Feature", "properties": { "osmid": 10586349876.0 }, "geometry": { "type": "Point", "coordinates": [ 2893517.0, 5530624.0 ] } },
{ "type": "Feature", "properties": { "osmid": 13185509970.0 }, "geometry": { "type": "Point", "coordinates": [ 2913886.0, 5526956.0 ] } },
{ "type": "Feature", "properties": { "osmid": 256892861.0 }, "geometry": { "type": "Point", "coordinates": [ 2901619.0, 5527549.0 ] } },
{ "type": "Feature", "properties": { "osmid": 2726749849.0 }, "geometry": { "type": "Point", "coordinates": [ 2898402.0, 5547023.0 ] } },
{ "type": "Feature", "properties": { "osmid": 12015653180.0 }, "geometry": { "type": "Point", "coordinates": [ 2905154.0, 5547719.0 ] } },
{ "type": "Feature", "properties": { "osmid": 11083378258.0 }, "geometry": { "type": "Point", "coordinates": [ 2899862.0, 5545126.0 ] } },
{ "type": "Feature", "properties": { "osmid": 2560684397.0 }, "geometry": { "type": "Point", "coordinates": [ 2915551.0, 5527009.0 ] } },
{ "type": "Feature", "properties": { "osmid": 6312261799.0 }, "geometry": { "type": "Point", "coordinates": [ 2902530.0, 5541438.0 ] } },
{ "type": "Feature", "properties": { "osmid": 1517671142.0 }, "geometry": { "type": "Point", "coordinates": [ 2900188.0, 5546949.0 ] } },
{ "type": "Feature", "properties": { "osmid": 13717091551.0 }, "geometry": { "type": "Point", "coordinates": [ 2915867.0, 5528697.0 ] } },
{ "type": "Feature", "properties": { "osmid": 12789864114.0 }, "geometry": { "type": "Point", "coordinates": [ 2901523.0, 5546419.0 ] } },
{ "type": "Feature", "properties": { "osmid": 13409358758.0 }, "geometry": { "type": "Point", "coordinates": [ 2892042.0, 5532691.0 ] } },
{ "type": "Feature", "properties": { "osmid": 6266537783.0 }, "geometry": { "type": "Point", "coordinates": [ 2901447.0, 5544663.0 ] } },
{ "type": "Feature", "properties": { "osmid": 257522646.0 }, "geometry": { "type": "Point", "coordinates": [ 2905977.0, 5523300.0 ] } },
{ "type": "Feature", "properties": { "osmid": 6530530152.0 }, "geometry": { "type": "Point", "coordinates": [ 2911180.0, 5520825.0 ] } },
{ "type": "Feature", "properties": { "osmid": 2273532151.0 }, "geometry": { "type": "Point", "coordinates": [ 2897629.0, 5544078.0 ] } },
{ "type": "Feature", "properties": { "osmid": 9943096464.0 }, "geometry": { "type": "Point", "coordinates": [ 2903331.0, 5544550.0 ] } },
{ "type": "Feature", "properties": { "osmid": 12540917892.0 }, "geometry": { "type": "Point", "coordinates": [ 2892555.0, 5534039.0 ] } },
{ "type": "Feature", "properties": { "osmid": 2615502824.0 }, "geometry": { "type": "Point", "coordinates": [ 2895979.0, 5542271.0 ] } },
{ "type": "Feature", "properties": { "osmid": 6258340589.0 }, "geometry": { "type": "Point", "coordinates": [ 2904486.0, 5544462.0 ] } },
{ "type": "Feature", "properties": { "osmid": 11053736555.0 }, "geometry": { "type": "Point", "coordinates": [ 2916980.0, 5526734.0 ] } },
{ "type": "Feature", "properties": { "osmid": 257091315.0 }, "geometry": { "type": "Point", "coordinates": [ 2911711.0, 5536312.0 ] } },
{ "type": "Feature", "properties": { "osmid": 6525503111.0 }, "geometry": { "type": "Point", "coordinates": [ 2904765.0, 5542612.0 ] } },
{ "type": "Feature", "properties": { "osmid": 312754528.0 }, "geometry": { "type": "Point", "coordinates": [ 2894734.0, 5537076.0 ] } },
{ "type": "Feature", "properties": { "osmid": 9203566230.0 }, "geometry": { "type": "Point", "coordinates": [ 2913967.0, 5539412.0 ] } },
{ "type": "Feature", "properties": { "osmid": 256467340.0 }, "geometry": { "type": "Point", "coordinates": [ 2893748.0, 5540686.0 ] } },
{ "type": "Feature", "properties": { "osmid": 2550768662.0 }, "geometry": { "type": "Point", "coordinates": [ 2914001.0, 5535698.0 ] } },
{ "type": "Feature", "properties": { "osmid": 2261293337.0 }, "geometry": { "type": "Point", "coordinates": [ 2910957.0, 5518677.0 ] } },
{ "type": "Feature", "properties": { "osmid": 13787590292.0 }, "geometry": { "type": "Point", "coordinates": [ 2918185.0, 5532857.0 ] } },
{ "type": "Feature", "properties": { "osmid": 6268062524.0 }, "geometry": { "type": "Point", "coordinates": [ 2909186.0, 5519689.0 ] } },
{ "type": "Feature", "properties": { "osmid": 13700921267.0 }, "geometry": { "type": "Point", "coordinates": [ 2911380.0, 5525718.0 ] } },
{ "type": "Feature", "properties": { "osmid": 165996225.0 }, "geometry": { "type": "Point", "coordinates": [ 2901577.0, 5530734.0 ] } },
{ "type": "Feature", "properties": { "osmid": 10555217725.0 }, "geometry": { "type": "Point", "coordinates": [ 2902127.0, 5531005.0 ] } },
{ "type": "Feature", "properties": { "osmid": 166135049.0 }, "geometry": { "type": "Point", "coordinates": [ 2900867.0, 5530430.0 ] } },
{ "type": "Feature", "properties": { "osmid": 1958344812.0 }, "geometry": { "type": "Point", "coordinates": [ 2900995.0, 5531655.0 ] } },
{ "type": "Feature", "properties": { "osmid": 2119177565.0 }, "geometry": { "type": "Point", "coordinates": [ 2902790.0, 5530684.0 ] } },
{ "type": "Feature", "properties": { "osmid": 3905394372.0 }, "geometry": { "type": "Point", "coordinates": [ 2901603.0, 5529505.0 ] } },
{ "type": "Feature", "properties": { "osmid": 13620407487.0 }, "geometry": { "type": "Point", "coordinates": [ 2902975.0, 5531415.0 ] } },
{ "type": "Feature", "properties": { "osmid": 256372174.0 }, "geometry": { "type": "Point", "coordinates": [ 2899802.0, 5530616.0 ] } },
{ "type": "Feature", "properties": { "osmid": 13620426421.0 }, "geometry": { "type": "Point", "coordinates": [ 2903461.0, 5530372.0 ] } },
{ "type": "Feature", "properties": { "osmid": 2963307402.0 }, "geometry": { "type": "Point", "coordinates": [ 2900826.0, 5532502.0 ] } },
{ "type": "Feature", "properties": { "osmid": 5320160130.0 }, "geometry": { "type": "Point", "coordinates": [ 2899769.0, 5529969.0 ] } },
{ "type": "Feature", "properties": { "osmid": 2826972882.0 }, "geometry": { "type": "Point", "coordinates": [ 2902537.0, 5532539.0 ] } },
{ "type": "Feature", "properties": { "osmid": 4563212293.0 }, "geometry": { "type": "Point", "coordinates": [ 2901860.0, 5532782.0 ] } },
{ "type": "Feature", "properties": { "osmid": 3902494637.0 }, "geometry": { "type": "Point", "coordinates": [ 2901713.0, 5528629.0 ] } },
{ "type": "Feature", "properties": { "osmid": 3610496620.0 }, "geometry": { "type": "Point", "coordinates": [ 2902644.0, 5528854.0 ] } },
{ "type": "Feature", "properties": { "osmid": 7733839284.0 }, "geometry": { "type": "Point", "coordinates": [ 2900392.0, 5532834.0 ] } },
{ "type": "Feature", "properties": { "osmid": 5222117554.0 }, "geometry": { "type": "Point", "coordinates": [ 2902096.0, 5528303.0 ] } },
{ "type": "Feature", "properties": { "osmid": 2342152600.0 }, "geometry": { "type": "Point", "coordinates": [ 2899835.0, 5532513.0 ] } },
{ "type": "Feature", "properties": { "osmid": 2772292888.0 }, "geometry": { "type": "Point", "coordinates": [ 2901356.0, 5528244.0 ] } },
{ "type": "Feature", "properties": { "osmid": 3747796044.0 }, "geometry": { "type": "Point", "coordinates": [ 2902927.0, 5532945.0 ] } },
{ "type": "Feature", "properties": { "osmid": 6256111876.0 }, "geometry": { "type": "Point", "coordinates": [ 2898917.0, 5530425.0 ] } },
{ "type": "Feature", "properties": { "osmid": 1679610734.0 }, "geometry": { "type": "Point", "coordinates": [ 2899080.0, 5531711.0 ] } },
{ "type": "Feature", "properties": { "osmid": 2264673064.0 }, "geometry": { "type": "Point", "coordinates": [ 2901835.0, 5533412.0 ] } },
{ "type": "Feature", "properties": { "osmid": 113667356.0 }, "geometry": { "type": "Point", "coordinates": [ 2904353.0, 5530947.0 ] } },
{ "type": "Feature", "properties": { "osmid": 3897041679.0 }, "geometry": { "type": "Point", "coordinates": [ 2902610.0, 5528139.0 ] } },
{ "type": "Feature", "properties": { "osmid": 256318948.0 }, "geometry": { "type": "Point", "coordinates": [ 2900374.0, 5528025.0 ] } },
{ "type": "Feature", "properties": { "osmid": 10801517278.0 }, "geometry": { "type": "Point", "coordinates": [ 2898867.0, 5532465.0 ] } },
{ "type": "Feature", "properties": { "osmid": 1334332962.0 }, "geometry": { "type": "Point", "coordinates": [ 2904408.0, 5532271.0 ] } },
{ "type": "Feature", "properties": { "osmid": 3897040386.0 }, "geometry": { "type": "Point", "coordinates": [ 2902428.0, 5527626.0 ] } },
{ "type": "Feature", "properties": { "osmid": 286937986.0 }, "geometry": { "type": "Point", "coordinates": [ 2898187.0, 5530331.0 ] } },
{ "type": "Feature", "properties": { "osmid": 9277434641.0 }, "geometry": { "type": "Point", "coordinates": [ 2898247.0, 5529749.0 ] } },
{ "type": "Feature", "properties": { "osmid": 305920072.0 }, "geometry": { "type": "Point", "coordinates": [ 2898106.0, 5530978.0 ] } },
{ "type": "Feature", "properties": { "osmid": 981520486.0 }, "geometry": { "type": "Point", "coordinates": [ 2901066.0, 5534227.0 ] } },
{ "type": "Feature", "properties": { "osmid": 2835864145.0 }, "geometry": { "type": "Point", "coordinates": [ 2899971.0, 5527527.0 ] } },
{ "type": "Feature", "properties": { "osmid": 256884724.0 }, "geometry": { "type": "Point", "coordinates": [ 2901829.0, 5527063.0 ] } },
{ "type": "Feature", "properties": { "osmid": 9225476027.0 }, "geometry": { "type": "Point", "coordinates": [ 2904953.0, 5532240.0 ] } },
{ "type": "Feature", "properties": { "osmid": 6264977390.0 }, "geometry": { "type": "Point", "coordinates": [ 2903309.0, 5534208.0 ] } },
{ "type": "Feature", "properties": { "osmid": 4853826075.0 }, "geometry": { "type": "Point", "coordinates": [ 2897445.0, 5530831.0 ] } },
{ "type": "Feature", "properties": { "osmid": 256875028.0 }, "geometry": { "type": "Point", "coordinates": [ 2903591.0, 5527108.0 ] } },
{ "type": "Feature", "properties": { "osmid": 256896989.0 }, "geometry": { "type": "Point", "coordinates": [ 2900734.0, 5526651.0 ] } },
{ "type": "Feature", "properties": { "osmid": 2530721114.0 }, "geometry": { "type": "Point", "coordinates": [ 2901241.0, 5526327.0 ] } },
{ "type": "Feature", "properties": { "osmid": 13601945996.0 }, "geometry": { "type": "Point", "coordinates": [ 2898643.0, 5527414.0 ] } },
{ "type": "Feature", "properties": { "osmid": 248729137.0 }, "geometry": { "type": "Point", "coordinates": [ 2905577.0, 5532709.0 ] } },
{ "type": "Feature", "properties": { "osmid": 12405568671.0 }, "geometry": { "type": "Point", "coordinates": [ 2897220.0, 5529597.0 ] } },
{ "type": "Feature", "properties": { "osmid": 2380714872.0 }, "geometry": { "type": "Point", "coordinates": [ 2905892.0, 5532215.0 ] } },
{ "type": "Feature", "properties": { "osmid": 255091004.0 }, "geometry": { "type": "Point", "coordinates": [ 2905007.0, 5533847.0 ] } },
{ "type": "Feature", "properties": { "osmid": 286678978.0 }, "geometry": { "type": "Point", "coordinates": [ 2896972.0, 5530044.0 ] } },
{ "type": "Feature", "properties": { "osmid": 2906845347.0 }, "geometry": { "type": "Point", "coordinates": [ 2903762.0, 5526518.0 ] } },
{ "type": "Feature", "properties": { "osmid": 8738616276.0 }, "geometry": { "type": "Point", "coordinates": [ 2906319.0, 5531234.0 ] } },
{ "type": "Feature", "properties": { "osmid": 2394652295.0 }, "geometry": { "type": "Point", "coordinates": [ 2897403.0, 5533040.0 ] } },
{ "type": "Feature", "properties": { "osmid": 11161529714.0 }, "geometry": { "type": "Point", "coordinates": [ 2900602.0, 5525985.0 ] } },
{ "type": "Feature", "properties": { "osmid": 2466154673.0 }, "geometry": { "type": "Point", "coordinates": [ 2898586.0, 5526913.0 ] } },
{ "type": "Feature", "properties": { "osmid": 8866378227.0 }, "geometry": { "type": "Point", "coordinates": [ 2898997.0, 5526544.0 ] } },
{ "type": "Feature", "properties": { "osmid": 672078072.0 }, "geometry": { "type": "Point", "coordinates": [ 2906164.0, 5532651.0 ] } },
{ "type": "Feature", "properties": { "osmid": 4153805207.0 }, "geometry": { "type": "Point", "coordinates": [ 2901171.0, 5525755.0 ] } },
{ "type": "Feature", "properties": { "osmid": 256872073.0 }, "geometry": { "type": "Point", "coordinates": [ 2902395.0, 5525804.0 ] } },
{ "type": "Feature", "properties": { "osmid": 13142663592.0 }, "geometry": { "type": "Point", "coordinates": [ 2896593.0, 5531767.0 ] } },
{ "type": "Feature", "properties": { "osmid": 1883015505.0 }, "geometry": { "type": "Point", "coordinates": [ 2899307.0, 5526063.0 ] } },
{ "type": "Feature", "properties": { "osmid": 11053140003.0 }, "geometry": { "type": "Point", "coordinates": [ 2898678.0, 5535062.0 ] } },
{ "type": "Feature", "properties": { "osmid": 10102079791.0 }, "geometry": { "type": "Point", "coordinates": [ 2896727.0, 5528739.0 ] } },
{ "type": "Feature", "properties": { "osmid": 11396504746.0 }, "geometry": { "type": "Point", "coordinates": [ 2904745.0, 5526507.0 ] } },
{ "type": "Feature", "properties": { "osmid": 3255775127.0 }, "geometry": { "type": "Point", "coordinates": [ 2906786.0, 5531634.0 ] } },
{ "type": "Feature", "properties": { "osmid": 3273326863.0 }, "geometry": { "type": "Point", "coordinates": [ 2896880.0, 5528250.0 ] } },
{ "type": "Feature", "properties": { "osmid": 4805794378.0 }, "geometry": { "type": "Point", "coordinates": [ 2898183.0, 5526585.0 ] } },
{ "type": "Feature", "properties": { "osmid": 2264619908.0 }, "geometry": { "type": "Point", "coordinates": [ 2897837.0, 5534648.0 ] } },
{ "type": "Feature", "properties": { "osmid": 2270504692.0 }, "geometry": { "type": "Point", "coordinates": [ 2903986.0, 5535608.0 ] } },
{ "type": "Feature", "properties": { "osmid": 4572191596.0 }, "geometry": { "type": "Point", "coordinates": [ 2898821.0, 5525937.0 ] } },
{ "type": "Feature", "properties": { "osmid": 2587492179.0 }, "geometry": { "type": "Point", "coordinates": [ 2906672.0, 5532901.0 ] } },
{ "type": "Feature", "properties": { "osmid": 7877991372.0 }, "geometry": { "type": "Point", "coordinates": [ 2899788.0, 5525492.0 ] } },
{ "type": "Feature", "properties": { "osmid": 7142084684.0 }, "geometry": { "type": "Point", "coordinates": [ 2902381.0, 5525208.0 ] } },
{ "type": "Feature", "properties": { "osmid": 8693774086.0 }, "geometry": { "type": "Point", "coordinates": [ 2896094.0, 5531938.0 ] } },
{ "type": "Feature", "properties": { "osmid": 11396504874.0 }, "geometry": { "type": "Point", "coordinates": [ 2904610.0, 5525928.0 ] } },
{ "type": "Feature", "properties": { "osmid": 2539514602.0 }, "geometry": { "type": "Point", "coordinates": [ 2901674.0, 5524965.0 ] } },
{ "type": "Feature", "properties": { "osmid": 1365786659.0 }, "geometry": { "type": "Point", "coordinates": [ 2903665.0, 5536154.0 ] } },
{ "type": "Feature", "properties": { "osmid": 3903608977.0 }, "geometry": { "type": "Point", "coordinates": [ 2896162.0, 5528581.0 ] } },
{ "type": "Feature", "properties": { "osmid": 10102081745.0 }, "geometry": { "type": "Point", "coordinates": [ 2896369.0, 5528046.0 ] } },
{ "type": "Feature", "properties": { "osmid": 13506514922.0 }, "geometry": { "type": "Point", "coordinates": [ 2899256.0, 5525288.0 ] } },
{ "type": "Feature", "properties": { "osmid": 5596707958.0 }, "geometry": { "type": "Point", "coordinates": [ 2905622.0, 5526400.0 ] } },
{ "type": "Feature", "properties": { "osmid": 2515537868.0 }, "geometry": { "type": "Point", "coordinates": [ 2897432.0, 5526466.0 ] } },
{ "type": "Feature", "properties": { "osmid": 10579814167.0 }, "geometry": { "type": "Point", "coordinates": [ 2895668.0, 5529952.0 ] } },
{ "type": "Feature", "properties": { "osmid": 989077067.0 }, "geometry": { "type": "Point", "coordinates": [ 2907499.0, 5532016.0 ] } },
{ "type": "Feature", "properties": { "osmid": 5235568066.0 }, "geometry": { "type": "Point", "coordinates": [ 2907123.0, 5533258.0 ] } },
{ "type": "Feature", "properties": { "osmid": 13433838089.0 }, "geometry": { "type": "Point", "coordinates": [ 2895747.0, 5528909.0 ] } },
{ "type": "Feature", "properties": { "osmid": 3769326278.0 }, "geometry": { "type": "Point", "coordinates": [ 2904596.0, 5525415.0 ] } },
{ "type": "Feature", "properties": { "osmid": 2837263357.0 }, "geometry": { "type": "Point", "coordinates": [ 2900379.0, 5524679.0 ] } },
{ "type": "Feature", "properties": { "osmid": 9925447751.0 }, "geometry": { "type": "Point", "coordinates": [ 2898556.0, 5536124.0 ] } },
{ "type": "Feature", "properties": { "osmid": 2260687942.0 }, "geometry": { "type": "Point", "coordinates": [ 2897109.0, 5535042.0 ] } },
{ "type": "Feature", "properties": { "osmid": 1365786732.0 }, "geometry": { "type": "Point", "coordinates": [ 2903460.0, 5536703.0 ] } },
{ "type": "Feature", "properties": { "osmid": 1883015597.0 }, "geometry": { "type": "Point", "coordinates": [ 2899681.0, 5524757.0 ] } },
{ "type": "Feature", "properties": { "osmid": 1584100364.0 }, "geometry": { "type": "Point", "coordinates": [ 2896198.0, 5534239.0 ] } },
{ "type": "Feature", "properties": { "osmid": 8655863477.0 }, "geometry": { "type": "Point", "coordinates": [ 2902927.0, 5524445.0 ] } },
{ "type": "Feature", "properties": { "osmid": 2204223347.0 }, "geometry": { "type": "Point", "coordinates": [ 2907099.0, 5527343.0 ] } },
{ "type": "Feature", "properties": { "osmid": 5631615838.0 }, "geometry": { "type": "Point", "coordinates": [ 2895079.0, 5530898.0 ] } },
{ "type": "Feature", "properties": { "osmid": 2911276579.0 }, "geometry": { "type": "Point", "coordinates": [ 2906411.0, 5526211.0 ] } },
{ "type": "Feature", "properties": { "osmid": 4127526551.0 }, "geometry": { "type": "Point", "coordinates": [ 2895083.0, 5529239.0 ] } },
{ "type": "Feature", "properties": { "osmid": 2282281452.0 }, "geometry": { "type": "Point", "coordinates": [ 2899124.0, 5524524.0 ] } },
{ "type": "Feature", "properties": { "osmid": 4195098286.0 }, "geometry": { "type": "Point", "coordinates": [ 2894903.0, 5530201.0 ] } },
{ "type": "Feature", "properties": { "osmid": 360035324.0 }, "geometry": { "type": "Point", "coordinates": [ 2895269.0, 5528447.0 ] } },
{ "type": "Feature", "properties": { "osmid": 12968964510.0 }, "geometry": { "type": "Point", "coordinates": [ 2900105.0, 5524128.0 ] } },
{ "type": "Feature", "properties": { "osmid": 1365786796.0 }, "geometry": { "type": "Point", "coordinates": [ 2903241.0, 5537323.0 ] } },
{ "type": "Feature", "properties": { "osmid": 2268066935.0 }, "geometry": { "type": "Point", "coordinates": [ 2907327.0, 5534514.0 ] } },
{ "type": "Feature", "properties": { "osmid": 2381254551.0 }, "geometry": { "type": "Point", "coordinates": [ 2902840.0, 5523936.0 ] } },
{ "type": "Feature", "properties": { "osmid": 2204414727.0 }, "geometry": { "type": "Point", "coordinates": [ 2906935.0, 5535176.0 ] } },
{ "type": "Feature", "properties": { "osmid": 5559841780.0 }, "geometry": { "type": "Point", "coordinates": [ 2898514.0, 5524451.0 ] } },
{ "type": "Feature", "properties": { "osmid": 2273589842.0 }, "geometry": { "type": "Point", "coordinates": [ 2908523.0, 5531873.0 ] } },
{ "type": "Feature", "properties": { "osmid": 2338144752.0 }, "geometry": { "type": "Point", "coordinates": [ 2904932.0, 5524402.0 ] } },
{ "type": "Feature", "properties": { "osmid": 2283944200.0 }, "geometry": { "type": "Point", "coordinates": [ 2894572.0, 5529136.0 ] } },
{ "type": "Feature", "properties": { "osmid": 8731751301.0 }, "geometry": { "type": "Point", "coordinates": [ 2903467.0, 5523738.0 ] } },
{ "type": "Feature", "properties": { "osmid": 9084458836.0 }, "geometry": { "type": "Point", "coordinates": [ 2894242.0, 5531258.0 ] } },
{ "type": "Feature", "properties": { "osmid": 2356401048.0 }, "geometry": { "type": "Point", "coordinates": [ 2904610.0, 5524013.0 ] } },
{ "type": "Feature", "properties": { "osmid": 8890749610.0 }, "geometry": { "type": "Point", "coordinates": [ 2894570.0, 5528313.0 ] } },
{ "type": "Feature", "properties": { "osmid": 6279172847.0 }, "geometry": { "type": "Point", "coordinates": [ 2902922.0, 5538050.0 ] } },
{ "type": "Feature", "properties": { "osmid": 1365640484.0 }, "geometry": { "type": "Point", "coordinates": [ 2903793.0, 5537871.0 ] } },
{ "type": "Feature", "properties": { "osmid": 999802082.0 }, "geometry": { "type": "Point", "coordinates": [ 2908181.0, 5534256.0 ] } },
{ "type": "Feature", "properties": { "osmid": 2204331270.0 }, "geometry": { "type": "Point", "coordinates": [ 2908498.0, 5533618.0 ] } },
{ "type": "Feature", "properties": { "osmid": 13461282467.0 }, "geometry": { "type": "Point", "coordinates": [ 2897694.0, 5537162.0 ] } },
{ "type": "Feature", "properties": { "osmid": 316518997.0 }, "geometry": { "type": "Point", "coordinates": [ 2905281.0, 5537317.0 ] } },
{ "type": "Feature", "properties": { "osmid": 2437991137.0 }, "geometry": { "type": "Point", "coordinates": [ 2904076.0, 5523534.0 ] } },
{ "type": "Feature", "properties": { "osmid": 2142657566.0 }, "geometry": { "type": "Point", "coordinates": [ 2907235.0, 5525622.0 ] } },
{ "type": "Feature", "properties": { "osmid": 6278299297.0 }, "geometry": { "type": "Point", "coordinates": [ 2905384.0, 5524103.0 ] } },
{ "type": "Feature", "properties": { "osmid": 4690135683.0 }, "geometry": { "type": "Point", "coordinates": [ 2896150.0, 5536242.0 ] } },
{ "type": "Feature", "properties": { "osmid": 13526945293.0 }, "geometry": { "type": "Point", "coordinates": [ 2894138.0, 5528581.0 ] } },
{ "type": "Feature", "properties": { "osmid": 11050825207.0 }, "geometry": { "type": "Point", "coordinates": [ 2907703.0, 5535663.0 ] } },
{ "type": "Feature", "properties": { "osmid": 2263158376.0 }, "geometry": { "type": "Point", "coordinates": [ 2893817.0, 5529445.0 ] } },
{ "type": "Feature", "properties": { "osmid": 1584115464.0 }, "geometry": { "type": "Point", "coordinates": [ 2894076.0, 5533146.0 ] } },
{ "type": "Feature", "properties": { "osmid": 5076605772.0 }, "geometry": { "type": "Point", "coordinates": [ 2909525.0, 5530752.0 ] } },
{ "type": "Feature", "properties": { "osmid": 11050799600.0 }, "geometry": { "type": "Point", "coordinates": [ 2908154.0, 5535357.0 ] } },
{ "type": "Feature", "properties": { "osmid": 2465936695.0 }, "geometry": { "type": "Point", "coordinates": [ 2894073.0, 5533782.0 ] } },
{ "type": "Feature", "properties": { "osmid": 7882006642.0 }, "geometry": { "type": "Point", "coordinates": [ 2903946.0, 5522964.0 ] } },
{ "type": "Feature", "properties": { "osmid": 2836752210.0 }, "geometry": { "type": "Point", "coordinates": [ 2905426.0, 5523419.0 ] } },
{ "type": "Feature", "properties": { "osmid": 5273933448.0 }, "geometry": { "type": "Point", "coordinates": [ 2904453.0, 5538552.0 ] } },
{ "type": "Feature", "properties": { "osmid": 4559046750.0 }, "geometry": { "type": "Point", "coordinates": [ 2893565.0, 5533147.0 ] } },
{ "type": "Feature", "properties": { "osmid": 660880542.0 }, "geometry": { "type": "Point", "coordinates": [ 2909864.0, 5532195.0 ] } },
{ "type": "Feature", "properties": { "osmid": 2283944123.0 }, "geometry": { "type": "Point", "coordinates": [ 2893338.0, 5528810.0 ] } },
{ "type": "Feature", "properties": { "osmid": 255849148.0 }, "geometry": { "type": "Point", "coordinates": [ 2904056.0, 5538871.0 ] } },
{ "type": "Feature", "properties": { "osmid": 3255036403.0 }, "geometry": { "type": "Point", "coordinates": [ 2907415.0, 5537016.0 ] } },
{ "type": "Feature", "properties": { "osmid": 7590166901.0 }, "geometry": { "type": "Point", "coordinates": [ 2902170.0, 5539330.0 ] } },
{ "type": "Feature", "properties": { "osmid": 4674443361.0 }, "geometry": { "type": "Point", "coordinates": [ 2906717.0, 5523627.0 ] } },
{ "type": "Feature", "properties": { "osmid": 9359064286.0 }, "geometry": { "type": "Point", "coordinates": [ 2893080.0, 5533286.0 ] } },
{ "type": "Feature", "properties": { "osmid": 8461389007.0 }, "geometry": { "type": "Point", "coordinates": [ 2909583.0, 5534660.0 ] } },
{ "type": "Feature", "properties": { "osmid": 3301608061.0 }, "geometry": { "type": "Point", "coordinates": [ 2910631.0, 5530372.0 ] } },
{ "type": "Feature", "properties": { "osmid": 7590193833.0 }, "geometry": { "type": "Point", "coordinates": [ 2902445.0, 5539802.0 ] } },
{ "type": "Feature", "properties": { "osmid": 256699480.0 }, "geometry": { "type": "Point", "coordinates": [ 2910707.0, 5531070.0 ] } },
{ "type": "Feature", "properties": { "osmid": 10073750060.0 }, "geometry": { "type": "Point", "coordinates": [ 2900184.0, 5539801.0 ] } },
{ "type": "Feature", "properties": { "osmid": 3084414742.0 }, "geometry": { "type": "Point", "coordinates": [ 2906327.0, 5538694.0 ] } },
{ "type": "Feature", "properties": { "osmid": 5232045632.0 }, "geometry": { "type": "Point", "coordinates": [ 2904343.0, 5539594.0 ] } },
{ "type": "Feature", "properties": { "osmid": 7959245503.0 }, "geometry": { "type": "Point", "coordinates": [ 2908289.0, 5524234.0 ] } },
{ "type": "Feature", "properties": { "osmid": 257019767.0 }, "geometry": { "type": "Point", "coordinates": [ 2905555.0, 5539231.0 ] } },
{ "type": "Feature", "properties": { "osmid": 256696983.0 }, "geometry": { "type": "Point", "coordinates": [ 2910991.0, 5531604.0 ] } },
{ "type": "Feature", "properties": { "osmid": 2288756491.0 }, "geometry": { "type": "Point", "coordinates": [ 2907161.0, 5522978.0 ] } },
{ "type": "Feature", "properties": { "osmid": 6258487721.0 }, "geometry": { "type": "Point", "coordinates": [ 2910324.0, 5534958.0 ] } },
{ "type": "Feature", "properties": { "osmid": 10268041803.0 }, "geometry": { "type": "Point", "coordinates": [ 2908405.0, 5537664.0 ] } },
{ "type": "Feature", "properties": { "osmid": 7029639613.0 }, "geometry": { "type": "Point", "coordinates": [ 2895759.0, 5538560.0 ] } },
{ "type": "Feature", "properties": { "osmid": 5313011595.0 }, "geometry": { "type": "Point", "coordinates": [ 2904056.0, 5540210.0 ] } },
{ "type": "Feature", "properties": { "osmid": 2448307127.0 }, "geometry": { "type": "Point", "coordinates": [ 2902732.0, 5540507.0 ] } },
{ "type": "Feature", "properties": { "osmid": 8400864501.0 }, "geometry": { "type": "Point", "coordinates": [ 2907013.0, 5522472.0 ] } },
{ "type": "Feature", "properties": { "osmid": 2288756688.0 }, "geometry": { "type": "Point", "coordinates": [ 2907831.0, 5523067.0 ] } },
{ "type": "Feature", "properties": { "osmid": 11014116954.0 }, "geometry": { "type": "Point", "coordinates": [ 2905290.0, 5539905.0 ] } },
{ "type": "Feature", "properties": { "osmid": 2363367852.0 }, "geometry": { "type": "Point", "coordinates": [ 2907846.0, 5538431.0 ] } },
{ "type": "Feature", "properties": { "osmid": 2539430552.0 }, "geometry": { "type": "Point", "coordinates": [ 2895124.0, 5538402.0 ] } },
{ "type": "Feature", "properties": { "osmid": 8659434441.0 }, "geometry": { "type": "Point", "coordinates": [ 2910983.0, 5534239.0 ] } },
{ "type": "Feature", "properties": { "osmid": 2288756628.0 }, "geometry": { "type": "Point", "coordinates": [ 2907537.0, 5522571.0 ] } },
{ "type": "Feature", "properties": { "osmid": 863774941.0 }, "geometry": { "type": "Point", "coordinates": [ 2911650.0, 5532034.0 ] } },
{ "type": "Feature", "properties": { "osmid": 4664387797.0 }, "geometry": { "type": "Point", "coordinates": [ 2900811.0, 5541027.0 ] } },
{ "type": "Feature", "properties": { "osmid": 5271291103.0 }, "geometry": { "type": "Point", "coordinates": [ 2908929.0, 5537985.0 ] } },
{ "type": "Feature", "properties": { "osmid": 5271291098.0 }, "geometry": { "type": "Point", "coordinates": [ 2908422.0, 5538483.0 ] } },
{ "type": "Feature", "properties": { "osmid": 5487902733.0 }, "geometry": { "type": "Point", "coordinates": [ 2908465.0, 5523021.0 ] } },
{ "type": "Feature", "properties": { "osmid": 257008594.0 }, "geometry": { "type": "Point", "coordinates": [ 2904592.0, 5540660.0 ] } },
{ "type": "Feature", "properties": { "osmid": 11392245669.0 }, "geometry": { "type": "Point", "coordinates": [ 2909337.0, 5537672.0 ] } },
{ "type": "Feature", "properties": { "osmid": 7051649877.0 }, "geometry": { "type": "Point", "coordinates": [ 2908170.0, 5522570.0 ] } },
{ "type": "Feature", "properties": { "osmid": 2228174056.0 }, "geometry": { "type": "Point", "coordinates": [ 2910693.0, 5525441.0 ] } },
{ "type": "Feature", "properties": { "osmid": 580868473.0 }, "geometry": { "type": "Point", "coordinates": [ 2903850.0, 5541119.0 ] } },
{ "type": "Feature", "properties": { "osmid": 257509061.0 }, "geometry": { "type": "Point", "coordinates": [ 2909916.0, 5524066.0 ] } },
{ "type": "Feature", "properties": { "osmid": 5489007967.0 }, "geometry": { "type": "Point", "coordinates": [ 2908972.0, 5523032.0 ] } },
{ "type": "Feature", "properties": { "osmid": 2646119568.0 }, "geometry": { "type": "Point", "coordinates": [ 2910758.0, 5536187.0 ] } },
{ "type": "Feature", "properties": { "osmid": 3337393394.0 }, "geometry": { "type": "Point", "coordinates": [ 2912128.0, 5528966.0 ] } },
{ "type": "Feature", "properties": { "osmid": 6266972420.0 }, "geometry": { "type": "Point", "coordinates": [ 2912304.0, 5532107.0 ] } },
{ "type": "Feature", "properties": { "osmid": 3140700670.0 }, "geometry": { "type": "Point", "coordinates": [ 2909609.0, 5523480.0 ] } },
{ "type": "Feature", "properties": { "osmid": 469249426.0 }, "geometry": { "type": "Point", "coordinates": [ 2904434.0, 5541176.0 ] } },
{ "type": "Feature", "properties": { "osmid": 2901560549.0 }, "geometry": { "type": "Point", "coordinates": [ 2912474.0, 5531451.0 ] } },
{ "type": "Feature", "properties": { "osmid": 11392709216.0 }, "geometry": { "type": "Point", "coordinates": [ 2903080.0, 5541572.0 ] } },
{ "type": "Feature", "properties": { "osmid": 13499109559.0 }, "geometry": { "type": "Point", "coordinates": [ 2911528.0, 5535387.0 ] } },
{ "type": "Feature", "properties": { "osmid": 6258911243.0 }, "geometry": { "type": "Point", "coordinates": [ 2901456.0, 5541771.0 ] } },
{ "type": "Feature", "properties": { "osmid": 628208707.0 }, "geometry": { "type": "Point", "coordinates": [ 2902047.0, 5541825.0 ] } },
{ "type": "Feature", "properties": { "osmid": 9802587808.0 }, "geometry": { "type": "Point", "coordinates": [ 2912525.0, 5528581.0 ] } },
{ "type": "Feature", "properties": { "osmid": 8568551677.0 }, "geometry": { "type": "Point", "coordinates": [ 2912412.0, 5528036.0 ] } },
{ "type": "Feature", "properties": { "osmid": 13716513439.0 }, "geometry": { "type": "Point", "coordinates": [ 2910398.0, 5523838.0 ] } },
{ "type": "Feature", "properties": { "osmid": 11160892501.0 }, "geometry": { "type": "Point", "coordinates": [ 2908260.0, 5539814.0 ] } },
{ "type": "Feature", "properties": { "osmid": 2203238822.0 }, "geometry": { "type": "Point", "coordinates": [ 2902731.0, 5541988.0 ] } },
{ "type": "Feature", "properties": { "osmid": 10880731354.0 }, "geometry": { "type": "Point", "coordinates": [ 2907700.0, 5521173.0 ] } },
{ "type": "Feature", "properties": { "osmid": 257520264.0 }, "geometry": { "type": "Point", "coordinates": [ 2910316.0, 5523258.0 ] } },
{ "type": "Feature", "properties": { "osmid": 257003433.0 }, "geometry": { "type": "Point", "coordinates": [ 2902317.0, 5542349.0 ] } },
{ "type": "Feature", "properties": { "osmid": 5577258207.0 }, "geometry": { "type": "Point", "coordinates": [ 2910470.0, 5538286.0 ] } },
{ "type": "Feature", "properties": { "osmid": 10993661798.0 }, "geometry": { "type": "Point", "coordinates": [ 2912993.0, 5528112.0 ] } },
{ "type": "Feature", "properties": { "osmid": 13430076890.0 }, "geometry": { "type": "Point", "coordinates": [ 2912430.0, 5535320.0 ] } },
{ "type": "Feature", "properties": { "osmid": 5154617269.0 }, "geometry": { "type": "Point", "coordinates": [ 2905696.0, 5541815.0 ] } },
{ "type": "Feature", "properties": { "osmid": 11368746713.0 }, "geometry": { "type": "Point", "coordinates": [ 2908861.0, 5521244.0 ] } },
{ "type": "Feature", "properties": { "osmid": 6291595693.0 }, "geometry": { "type": "Point", "coordinates": [ 2899072.0, 5542443.0 ] } },
{ "type": "Feature", "properties": { "osmid": 13446931515.0 }, "geometry": { "type": "Point", "coordinates": [ 2912819.0, 5534978.0 ] } },
{ "type": "Feature", "properties": { "osmid": 8919643169.0 }, "geometry": { "type": "Point", "coordinates": [ 2909335.0, 5521500.0 ] } },
{ "type": "Feature", "properties": { "osmid": 2474857790.0 }, "geometry": { "type": "Point", "coordinates": [ 2913538.0, 5528214.0 ] } },
{ "type": "Feature", "properties": { "osmid": 13726874740.0 }, "geometry": { "type": "Point", "coordinates": [ 2913615.0, 5527643.0 ] } },
{ "type": "Feature", "properties": { "osmid": 13445058012.0 }, "geometry": { "type": "Point", "coordinates": [ 2913411.0, 5534923.0 ] } },
{ "type": "Feature", "properties": { "osmid": 3884899897.0 }, "geometry": { "type": "Point", "coordinates": [ 2900162.0, 5543308.0 ] } },
{ "type": "Feature", "properties": { "osmid": 6525665846.0 }, "geometry": { "type": "Point", "coordinates": [ 2905908.0, 5542715.0 ] } },
{ "type": "Feature", "properties": { "osmid": 3887155460.0 }, "geometry": { "type": "Point", "coordinates": [ 2914128.0, 5528401.0 ] } },
{ "type": "Feature", "properties": { "osmid": 7733857669.0 }, "geometry": { "type": "Point", "coordinates": [ 2914291.0, 5528927.0 ] } },
{ "type": "Feature", "properties": { "osmid": 4282934034.0 }, "geometry": { "type": "Point", "coordinates": [ 2914522.0, 5530754.0 ] } },
{ "type": "Feature", "properties": { "osmid": 5548410899.0 }, "geometry": { "type": "Point", "coordinates": [ 2899215.0, 5543516.0 ] } },
{ "type": "Feature", "properties": { "osmid": 6250547059.0 }, "geometry": { "type": "Point", "coordinates": [ 2914300.0, 5527898.0 ] } },
{ "type": "Feature", "properties": { "osmid": 10047147676.0 }, "geometry": { "type": "Point", "coordinates": [ 2914794.0, 5529495.0 ] } },
{ "type": "Feature", "properties": { "osmid": 2308439926.0 }, "geometry": { "type": "Point", "coordinates": [ 2900206.0, 5544014.0 ] } },
{ "type": "Feature", "properties": { "osmid": 6292172538.0 }, "geometry": { "type": "Point", "coordinates": [ 2894645.0, 5542293.0 ] } },
{ "type": "Feature", "properties": { "osmid": 257071356.0 }, "geometry": { "type": "Point", "coordinates": [ 2911774.0, 5539571.0 ] } },
{ "type": "Feature", "properties": { "osmid": 6530461309.0 }, "geometry": { "type": "Point", "coordinates": [ 2914814.0, 5527786.0 ] } },
{ "type": "Feature", "properties": { "osmid": 12329281038.0 }, "geometry": { "type": "Point", "coordinates": [ 2895042.0, 5542954.0 ] } },
{ "type": "Feature", "properties": { "osmid": 7553149227.0 }, "geometry": { "type": "Point", "coordinates": [ 2915456.0, 5530094.0 ] } },
{ "type": "Feature", "properties": { "osmid": 9611500697.0 }, "geometry": { "type": "Point", "coordinates": [ 2894551.0, 5542811.0 ] } },
{ "type": "Feature", "properties": { "osmid": 257071891.0 }, "geometry": { "type": "Point", "coordinates": [ 2911879.0, 5540323.0 ] } },
{ "type": "Feature", "properties": { "osmid": 7897685760.0 }, "geometry": { "type": "Point", "coordinates": [ 2915711.0, 5529662.0 ] } },
{ "type": "Feature", "properties": { "osmid": 7553148974.0 }, "geometry": { "type": "Point", "coordinates": [ 2915841.0, 5530475.0 ] } },
{ "type": "Feature", "properties": { "osmid": 6596867242.0 }, "geometry": { "type": "Point", "coordinates": [ 2916201.0, 5530046.0 ] } },
{ "type": "Feature", "properties": { "osmid": 8412432343.0 }, "geometry": { "type": "Point", "coordinates": [ 2895864.0, 5544311.0 ] } },
{ "type": "Feature", "properties": { "osmid": 8230993056.0 }, "geometry": { "type": "Point", "coordinates": [ 2916509.0, 5530514.0 ] } },
{ "type": "Feature", "properties": { "osmid": 6419609323.0 }, "geometry": { "type": "Point", "coordinates": [ 2896609.0, 5544843.0 ] } },
{ "type": "Feature", "properties": { "osmid": 6556980720.0 }, "geometry": { "type": "Point", "coordinates": [ 2916749.0, 5529881.0 ] } },
{ "type": "Feature", "properties": { "osmid": 1517739030.0 }, "geometry": { "type": "Point", "coordinates": [ 2898477.0, 5545630.0 ] } },
{ "type": "Feature", "properties": { "osmid": 8230993054.0 }, "geometry": { "type": "Point", "coordinates": [ 2916848.0, 5530884.0 ] } },
{ "type": "Feature", "properties": { "osmid": 1905235096.0 }, "geometry": { "type": "Point", "coordinates": [ 2903773.0, 5545864.0 ] } },
{ "type": "Feature", "properties": { "osmid": 9172478415.0 }, "geometry": { "type": "Point", "coordinates": [ 2896520.0, 5545359.0 ] } },
{ "type": "Feature", "properties": { "osmid": 9411150298.0 }, "geometry": { "type": "Point", "coordinates": [ 2898871.0, 5546128.0 ] } },
{ "type": "Feature", "properties": { "osmid": 3098133725.0 }, "geometry": { "type": "Point", "coordinates": [ 2917347.0, 5532340.0 ] } },
{ "type": "Feature", "properties": { "osmid": 3110253636.0 }, "geometry": { "type": "Point", "coordinates": [ 2897762.0, 5546651.0 ] } },
{ "type": "Feature", "properties": { "osmid": 2504315426.0 }, "geometry": { "type": "Point", "coordinates": [ 2900639.0, 5547401.0 ] } },
{ "type": "Feature", "properties": { "osmid": 2504315365.0 }, "geometry": { "type": "Point", "coordinates": [ 2901283.0, 5547587.0 ] } },
{ "type": "Feature", "properties": { "osmid": 1905296136.0 }, "geometry": { "type": "Point", "coordinates": [ 2902093.0, 5547699.0 ] } },
{ "type": "Feature", "properties": { "osmid": 2462117219.0 }, "geometry": { "type": "Point", "coordinates": [ 2899888.0, 5547669.0 ] } },
{ "type": "Feature", "properties": { "osmid": 2504315340.0 }, "geometry": { "type": "Point", "coordinates": [ 2901600.0, 5547975.0 ] } },
{ "type": "Feature", "properties": { "osmid": 5505769116.0 }, "geometry": { "type": "Point", "coordinates": [ 2905665.0, 5547850.0 ] } },
{ "type": "Feature", "properties": { "osmid": 5511670712.0 }, "geometry": { "type": "Point", "coordinates": [ 2905050.0, 5548288.0 ] } },
{ "type": "Feature", "properties": { "osmid": 5402005898.0 }, "geometry": { "type": "Point", "coordinates": [ 2902920.0, 5548604.0 ] } },
{ "type": "Feature", "properties": { "osmid": 5426592035.0 }, "geometry": { "type": "Point", "coordinates": [ 2904602.0, 5548642.0 ] } },
{ "type": "Feature", "properties": { "osmid": 1374513071.0 }, "geometry": { "type": "Point", "coordinates": [ 2905678.0, 5548452.0 ] } }
]
}
