{
"type": "FeatureCollection",
"name": "bucharest-city_boundary",
"crs": { "type": "name", "properties": { "name": "urn:ogc:def:crs:EPSG::3857" } },
"features": [
{ "type": "Feature", "properties": { "bbox_west": 25.9666745, "bbox_south": 44.3342466, "bbox_east": 26.2255768, "bbox_north": 44.5413964, "place_id": 407864590, "osm_type": "relation", "osm_id": 377733, "lat": 44.4361414, "lon": 26.102684, "class": "boundary", "type": "administrative", "place_rank": 8, "importance": 0.76122983369460495, "addresstype": "city", "name": "Bucharest", "display_name": "Bucharest, Romania" }, "geometry": { "type": "Polygon", "coordinates": [ [ [ 2895556.0, 5545584.0 ], [ 2895557.0, 5545582.0 ], [ 2895642.0, 5545645.0 ], [ 2895739.0, 5545517.0 ], [ 2895740.0, 5545515.0 ], [ 2895901.0, 5545610.0 ], [ 2895967.0, 5545652.0 ], [ 2895979.0, 5545652.0 ], [ 2895988.0, 5545653.0 ], [ 2895994.0, 5545655.0 ], [ 2896051.0, 5545687.0 ], [ 2896102.0, 5545711.0 ], [ 2896502.0, 5545942.0 ], [ 2896614.0, 5546009.0 ], [ 2896857.0, 5546137.0 ], [ 2897128.0, 5546291.0 ], [ 2897120.0, 5546291.0 ], [ 2897110.0, 5546299.0 ], [ 2897079.0, 5546330.0 ], [ 2897048.0, 5546310.0 ], [ 2897019.0, 5546367.0 ], [ 2897021.0, 5546376.0 ], [ 2897011.0, 5546377.0 ], [ 2896999.0, 5546399.0 ], [ 2896957.0, 5546470.0 ], [ 2896863.0, 5546608.0 ], [ 2896808.0, 5546736.0 ], [ 2896821.0, 5546826.0 ], [ 2896878.0, 5546949.0 ], [ 2896903.0, 5547010.0 ], [ 2896921.0, 5547051.0 ], [ 2896942.0, 5547103.0 ], [ 2896955.0, 5547140.0 ], [ 2896968.0, 5547168.0 ], [ 2896981.0, 5547192.0 ], [ 2897328.0, 5547356.0 ], [ 2897570.0, 5547470.0 ], [ 2897619.0, 5547392.0 ], [ 2897838.0, 5547097.0 ], [ 2898039.0, 5546824.0 ], [ 2898719.0, 5547218.0 ], [ 2899606.0, 5547720.0 ], [ 2899679.0, 5547758.0 ], [ 2899785.0, 5547803.0 ], [ 2899734.0, 5547972.0 ], [ 2899734.0, 5547991.0 ], [ 2899816.0, 5548036.0 ], [ 2899892.0, 5547843.0 ], [ 2900751.0, 5548145.0 ], [ 2900762.0, 5548149.0 ], [ 2900793.0, 5548160.0 ], [ 2901943.0, 5548588.0 ], [ 2901965.0, 5548605.0 ], [ 2901964.0, 5548662.0 ], [ 2901965.0, 5549131.0 ], [ 2901978.0, 5549196.0 ], [ 2902013.0, 5549278.0 ], [ 2902019.0, 5549294.0 ], [ 2902105.0, 5549356.0 ], [ 2902159.0, 5549392.0 ], [ 2902291.0, 5549478.0 ], [ 2902305.0, 5549488.0 ], [ 2902436.0, 5549608.0 ], [ 2902504.0, 5549563.0 ], [ 2902795.0, 5549549.0 ], [ 2902845.0, 5549506.0 ], [ 2902923.0, 5549283.0 ], [ 2902927.0, 5549251.0 ], [ 2902946.0, 5549043.0 ], [ 2902956.0, 5548942.0 ], [ 2903082.0, 5548964.0 ], [ 2903144.0, 5548975.0 ], [ 2903145.0, 5548972.0 ], [ 2903238.0, 5548988.0 ], [ 2903263.0, 5548993.0 ], [ 2903298.0, 5549003.0 ], [ 2903297.0, 5549007.0 ], [ 2903373.0, 5549032.0 ], [ 2903380.0, 5549035.0 ], [ 2903400.0, 5549041.0 ], [ 2903447.0, 5549055.0 ], [ 2903467.0, 5549060.0 ], [ 2903471.0, 5549062.0 ], [ 2903474.0, 5549066.0 ], [ 2903478.0, 5549073.0 ], [ 2903486.0, 5549075.0 ], [ 2903498.0, 5549068.0 ], [ 2903502.0, 5549069.0 ], [ 2903532.0, 5549075.0 ], [ 2903536.0, 5549077.0 ], [ 2903538.0, 5549079.0 ], [ 2903540.0, 5549082.0 ], [ 2903543.0, 5549091.0 ], [ 2903558.0, 5549080.0 ], [ 2903615.0, 5549094.0 ], [ 2903618.0, 5549097.0 ], [ 2903619.0, 5549101.0 ], [ 2903618.0, 5549114.0 ], [ 2903626.0, 5549116.0 ], [ 2903635.0, 5549116.0 ], [ 2903638.0, 5549111.0 ], [ 2903653.0, 5549098.0 ], [ 2903758.0, 5549120.0 ], [ 2903788.0, 5549126.0 ], [ 2903831.0, 5549132.0 ], [ 2903869.0, 5549136.0 ], [ 2903885.0, 5549137.0 ], [ 2903924.0, 5549138.0 ], [ 2903946.0, 5549138.0 ], [ 2903975.0, 5549138.0 ], [ 2904032.0, 5549134.0 ], [ 2904059.0, 5549134.0 ], [ 2904099.0, 5549136.0 ], [ 2904112.0, 5549137.0 ], [ 2904142.0, 5549141.0 ], [ 2904329.0, 5549173.0 ], [ 2904452.0, 5549190.0 ], [ 2904591.0, 5549208.0 ], [ 2905094.0, 5549272.0 ], [ 2905068.0, 5549458.0 ], [ 2905187.0, 5549466.0 ], [ 2905189.0, 5549584.0 ], [ 2905521.0, 5549610.0 ], [ 2905538.0, 5549495.0 ], [ 2905637.0, 5549500.0 ], [ 2905644.0, 5549407.0 ], [ 2905645.0, 5549329.0 ], [ 2905925.0, 5549321.0 ], [ 2905938.0, 5549321.0 ], [ 2905927.0, 5549270.0 ], [ 2905922.0, 5549250.0 ], [ 2905884.0, 5548810.0 ], [ 2905852.0, 5548457.0 ], [ 2905832.0, 5548247.0 ], [ 2905807.0, 5548012.0 ], [ 2905802.0, 5547939.0 ], [ 2905802.0, 5547796.0 ], [ 2905804.0, 5547757.0 ], [ 2905806.0, 5547742.0 ], [ 2905880.0, 5547560.0 ], [ 2905992.0, 5547285.0 ], [ 2905998.0, 5547271.0 ], [ 2905985.0, 5546953.0 ], [ 2905976.0, 5546737.0 ], [ 2905947.0, 5546436.0 ], [ 2905934.0, 5546295.0 ], [ 2905925.0, 5546245.0 ], [ 2905944.0, 5546213.0 ], [ 2905965.0, 5546166.0 ], [ 2905992.0, 5546113.0 ], [ 2905990.0, 5546046.0 ], [ 2906132.0, 5546021.0 ], [ 2906125.0, 5545890.0 ], [ 2906079.0, 5545891.0 ], [ 2906055.0, 5545573.0 ], [ 2905976.0, 5545579.0 ], [ 2905986.0, 5545743.0 ], [ 2905935.0, 5545745.0 ], [ 2905925.0, 5545665.0 ], [ 2905922.0, 5545645.0 ], [ 2905911.0, 5545574.0 ], [ 2905913.0, 5545574.0 ], [ 2905913.0, 5545572.0 ], [ 2905929.0, 5545550.0 ], [ 2905915.0, 5545523.0 ], [ 2905893.0, 5545524.0 ], [ 2905855.0, 5545257.0 ], [ 2905849.0, 5545218.0 ], [ 2905831.0, 5545110.0 ], [ 2905814.0, 5545019.0 ], [ 2905787.0, 5544851.0 ], [ 2905768.0, 5544749.0 ], [ 2905756.0, 5544642.0 ], [ 2905757.0, 5544546.0 ], [ 2905758.0, 5544518.0 ], [ 2905783.0, 5544355.0 ], [ 2905837.0, 5544139.0 ], [ 2905893.0, 5543918.0 ], [ 2906012.0, 5543952.0 ], [ 2906134.0, 5543991.0 ], [ 2906247.0, 5544026.0 ], [ 2906411.0, 5544071.0 ], [ 2906459.0, 5543903.0 ], [ 2906525.0, 5543671.0 ], [ 2906510.0, 5543665.0 ], [ 2906458.0, 5543654.0 ], [ 2906295.0, 5543607.0 ], [ 2906214.0, 5543581.0 ], [ 2906143.0, 5543560.0 ], [ 2906146.0, 5543552.0 ], [ 2905974.0, 5543502.0 ], [ 2905972.0, 5543477.0 ], [ 2905967.0, 5543454.0 ], [ 2905958.0, 5543436.0 ], [ 2905945.0, 5543417.0 ], [ 2905938.0, 5543410.0 ], [ 2905928.0, 5543403.0 ], [ 2905966.0, 5543326.0 ], [ 2906024.0, 5543198.0 ], [ 2906058.0, 5543214.0 ], [ 2906111.0, 5543020.0 ], [ 2906116.0, 5543006.0 ], [ 2906122.0, 5542990.0 ], [ 2906168.0, 5542909.0 ], [ 2906178.0, 5542886.0 ], [ 2906182.0, 5542875.0 ], [ 2906190.0, 5542852.0 ], [ 2906196.0, 5542832.0 ], [ 2906198.0, 5542828.0 ], [ 2906203.0, 5542796.0 ], [ 2906212.0, 5542746.0 ], [ 2906216.0, 5542728.0 ], [ 2906219.0, 5542718.0 ], [ 2906227.0, 5542697.0 ], [ 2906231.0, 5542686.0 ], [ 2906241.0, 5542666.0 ], [ 2906247.0, 5542657.0 ], [ 2906260.0, 5542638.0 ], [ 2906272.0, 5542616.0 ], [ 2906292.0, 5542625.0 ], [ 2906312.0, 5542585.0 ], [ 2906420.0, 5542653.0 ], [ 2906431.0, 5542649.0 ], [ 2906600.0, 5542263.0 ], [ 2906690.0, 5542058.0 ], [ 2906739.0, 5541942.0 ], [ 2906747.0, 5541918.0 ], [ 2906750.0, 5541906.0 ], [ 2906625.0, 5541806.0 ], [ 2906624.0, 5541701.0 ], [ 2906658.0, 5541675.0 ], [ 2906711.0, 5541629.0 ], [ 2906748.0, 5541581.0 ], [ 2906920.0, 5541403.0 ], [ 2906934.0, 5541388.0 ], [ 2907080.0, 5541236.0 ], [ 2907079.0, 5541233.0 ], [ 2907095.0, 5541215.0 ], [ 2907095.0, 5541204.0 ], [ 2907090.0, 5541178.0 ], [ 2907101.0, 5541170.0 ], [ 2907100.0, 5541165.0 ], [ 2907131.0, 5541160.0 ], [ 2907130.0, 5541154.0 ], [ 2907300.0, 5541133.0 ], [ 2908169.0, 5540991.0 ], [ 2908708.0, 5540908.0 ], [ 2908972.0, 5540865.0 ], [ 2909386.0, 5540798.0 ], [ 2909815.0, 5540726.0 ], [ 2909899.0, 5540704.0 ], [ 2909907.0, 5540736.0 ], [ 2909932.0, 5540731.0 ], [ 2909930.0, 5540699.0 ], [ 2909982.0, 5540692.0 ], [ 2909983.0, 5540699.0 ], [ 2910003.0, 5540698.0 ], [ 2910014.0, 5540694.0 ], [ 2910164.0, 5540669.0 ], [ 2910308.0, 5540647.0 ], [ 2910547.0, 5540603.0 ], [ 2910698.0, 5540584.0 ], [ 2910697.0, 5540576.0 ], [ 2911324.0, 5540473.0 ], [ 2911341.0, 5540469.0 ], [ 2911351.0, 5540469.0 ], [ 2911364.0, 5540466.0 ], [ 2911457.0, 5540452.0 ], [ 2911997.0, 5540368.0 ], [ 2912051.0, 5540359.0 ], [ 2912051.0, 5540355.0 ], [ 2912170.0, 5540336.0 ], [ 2912296.0, 5540321.0 ], [ 2912309.0, 5540320.0 ], [ 2912371.0, 5540312.0 ], [ 2912383.0, 5540311.0 ], [ 2912395.0, 5540309.0 ], [ 2912403.0, 5540323.0 ], [ 2912407.0, 5540328.0 ], [ 2912436.0, 5540332.0 ], [ 2912430.0, 5540296.0 ], [ 2912522.0, 5540284.0 ], [ 2912649.0, 5540262.0 ], [ 2912649.0, 5540260.0 ], [ 2912711.0, 5540247.0 ], [ 2912754.0, 5540240.0 ], [ 2912754.0, 5540241.0 ], [ 2912836.0, 5540228.0 ], [ 2912836.0, 5540226.0 ], [ 2913091.0, 5540183.0 ], [ 2913167.0, 5540169.0 ], [ 2913240.0, 5540157.0 ], [ 2913286.0, 5540150.0 ], [ 2913327.0, 5540143.0 ], [ 2913363.0, 5540137.0 ], [ 2913491.0, 5540117.0 ], [ 2913536.0, 5540110.0 ], [ 2913572.0, 5540104.0 ], [ 2913636.0, 5540094.0 ], [ 2913834.0, 5540061.0 ], [ 2913850.0, 5540059.0 ], [ 2913888.0, 5540054.0 ], [ 2913909.0, 5540050.0 ], [ 2913950.0, 5540044.0 ], [ 2914099.0, 5540018.0 ], [ 2914150.0, 5540010.0 ], [ 2914199.0, 5540001.0 ], [ 2914374.0, 5539974.0 ], [ 2914429.0, 5539962.0 ], [ 2914889.0, 5539888.0 ], [ 2914871.0, 5539871.0 ], [ 2914867.0, 5539866.0 ], [ 2914824.0, 5539872.0 ], [ 2914669.0, 5539894.0 ], [ 2914588.0, 5539885.0 ], [ 2914495.0, 5539859.0 ], [ 2914477.0, 5539851.0 ], [ 2914365.0, 5539786.0 ], [ 2914279.0, 5539722.0 ], [ 2914203.0, 5539648.0 ], [ 2914059.0, 5539481.0 ], [ 2913912.0, 5539308.0 ], [ 2913727.0, 5539088.0 ], [ 2913632.0, 5538974.0 ], [ 2913276.0, 5538552.0 ], [ 2912744.0, 5537919.0 ], [ 2912577.0, 5537722.0 ], [ 2912524.0, 5537642.0 ], [ 2912207.0, 5537112.0 ], [ 2912018.0, 5536785.0 ], [ 2911669.0, 5536196.0 ], [ 2911704.0, 5536125.0 ], [ 2911729.0, 5536092.0 ], [ 2911806.0, 5536051.0 ], [ 2911954.0, 5536005.0 ], [ 2911955.0, 5536007.0 ], [ 2911962.0, 5536040.0 ], [ 2912022.0, 5536043.0 ], [ 2912015.0, 5535981.0 ], [ 2912020.0, 5535978.0 ], [ 2912029.0, 5535975.0 ], [ 2912167.0, 5535998.0 ], [ 2912206.0, 5535991.0 ], [ 2912314.0, 5535864.0 ], [ 2912393.0, 5535830.0 ], [ 2912486.0, 5535829.0 ], [ 2912487.0, 5535861.0 ], [ 2912488.0, 5535891.0 ], [ 2912534.0, 5535890.0 ], [ 2912534.0, 5535871.0 ], [ 2912553.0, 5535871.0 ], [ 2912587.0, 5535870.0 ], [ 2912587.0, 5535854.0 ], [ 2912752.0, 5535838.0 ], [ 2912844.0, 5535802.0 ], [ 2912905.0, 5535717.0 ], [ 2913078.0, 5535500.0 ], [ 2913132.0, 5535459.0 ], [ 2913165.0, 5535456.0 ], [ 2913199.0, 5535471.0 ], [ 2913367.0, 5535608.0 ], [ 2913723.0, 5535910.0 ], [ 2913815.0, 5535950.0 ], [ 2913910.0, 5535962.0 ], [ 2913988.0, 5535952.0 ], [ 2914060.0, 5535901.0 ], [ 2914092.0, 5535810.0 ], [ 2914090.0, 5535694.0 ], [ 2914044.0, 5535541.0 ], [ 2914018.0, 5535422.0 ], [ 2914033.0, 5535354.0 ], [ 2914036.0, 5535310.0 ], [ 2913987.0, 5535206.0 ], [ 2913839.0, 5535017.0 ], [ 2913737.0, 5534858.0 ], [ 2913715.0, 5534722.0 ], [ 2913726.0, 5534623.0 ], [ 2913756.0, 5534564.0 ], [ 2913812.0, 5534507.0 ], [ 2913878.0, 5534472.0 ], [ 2913929.0, 5534455.0 ], [ 2913977.0, 5534455.0 ], [ 2914038.0, 5534463.0 ], [ 2914222.0, 5534576.0 ], [ 2914329.0, 5534657.0 ], [ 2914423.0, 5534714.0 ], [ 2914472.0, 5534726.0 ], [ 2914531.0, 5534722.0 ], [ 2914595.0, 5534709.0 ], [ 2914666.0, 5534676.0 ], [ 2914650.0, 5534622.0 ], [ 2914744.0, 5534578.0 ], [ 2914748.0, 5534574.0 ], [ 2914752.0, 5534586.0 ], [ 2914775.0, 5534626.0 ], [ 2914831.0, 5534600.0 ], [ 2915013.0, 5534478.0 ], [ 2915125.0, 5534404.0 ], [ 2915170.0, 5534386.0 ], [ 2915211.0, 5534381.0 ], [ 2915264.0, 5534396.0 ], [ 2915338.0, 5534454.0 ], [ 2915453.0, 5534572.0 ], [ 2915551.0, 5534738.0 ], [ 2915626.0, 5534817.0 ], [ 2915699.0, 5534854.0 ], [ 2915803.0, 5534856.0 ], [ 2915908.0, 5534837.0 ], [ 2916000.0, 5534789.0 ], [ 2916073.0, 5534729.0 ], [ 2916108.0, 5534684.0 ], [ 2916128.0, 5534657.0 ], [ 2916287.0, 5534213.0 ], [ 2916296.0, 5534185.0 ], [ 2916307.0, 5534159.0 ], [ 2916313.0, 5534144.0 ], [ 2916314.0, 5534141.0 ], [ 2916317.0, 5534137.0 ], [ 2916322.0, 5534129.0 ], [ 2916324.0, 5534115.0 ], [ 2916315.0, 5534103.0 ], [ 2916305.0, 5534097.0 ], [ 2916270.0, 5534080.0 ], [ 2916238.0, 5534051.0 ], [ 2916223.0, 5534026.0 ], [ 2916221.0, 5534017.0 ], [ 2916203.0, 5533967.0 ], [ 2916203.0, 5533946.0 ], [ 2916209.0, 5533918.0 ], [ 2916225.0, 5533865.0 ], [ 2916236.0, 5533834.0 ], [ 2916247.0, 5533804.0 ], [ 2916254.0, 5533787.0 ], [ 2916260.0, 5533778.0 ], [ 2916277.0, 5533752.0 ], [ 2916310.0, 5533711.0 ], [ 2916328.0, 5533691.0 ], [ 2916354.0, 5533665.0 ], [ 2916377.0, 5533647.0 ], [ 2916397.0, 5533633.0 ], [ 2916426.0, 5533617.0 ], [ 2916438.0, 5533611.0 ], [ 2916446.0, 5533608.0 ], [ 2916508.0, 5533593.0 ], [ 2916570.0, 5533584.0 ], [ 2916610.0, 5533582.0 ], [ 2916660.0, 5533581.0 ], [ 2916694.0, 5533582.0 ], [ 2916738.0, 5533590.0 ], [ 2916784.0, 5533600.0 ], [ 2916809.0, 5533610.0 ], [ 2916824.0, 5533614.0 ], [ 2916858.0, 5533622.0 ], [ 2916877.0, 5533624.0 ], [ 2916882.0, 5533625.0 ], [ 2916975.0, 5533629.0 ], [ 2916988.0, 5533629.0 ], [ 2917038.0, 5533627.0 ], [ 2917088.0, 5533618.0 ], [ 2917105.0, 5533614.0 ], [ 2917114.0, 5533610.0 ], [ 2917121.0, 5533606.0 ], [ 2917136.0, 5533593.0 ], [ 2917141.0, 5533586.0 ], [ 2917152.0, 5533571.0 ], [ 2917188.0, 5533514.0 ], [ 2917200.0, 5533490.0 ], [ 2917209.0, 5533433.0 ], [ 2917216.0, 5533435.0 ], [ 2917218.0, 5533402.0 ], [ 2917220.0, 5533382.0 ], [ 2917226.0, 5533364.0 ], [ 2917227.0, 5533343.0 ], [ 2917231.0, 5533317.0 ], [ 2917255.0, 5533203.0 ], [ 2917260.0, 5533185.0 ], [ 2917280.0, 5533128.0 ], [ 2917291.0, 5533104.0 ], [ 2917303.0, 5533084.0 ], [ 2917314.0, 5533075.0 ], [ 2917329.0, 5533062.0 ], [ 2917335.0, 5533054.0 ], [ 2917346.0, 5533029.0 ], [ 2917351.0, 5533014.0 ], [ 2917396.0, 5532928.0 ], [ 2917437.0, 5532877.0 ], [ 2917468.0, 5532856.0 ], [ 2917492.0, 5532837.0 ], [ 2917521.0, 5532819.0 ], [ 2917576.0, 5532783.0 ], [ 2917599.0, 5532770.0 ], [ 2917650.0, 5532753.0 ], [ 2917732.0, 5532725.0 ], [ 2917760.0, 5532716.0 ], [ 2917805.0, 5532700.0 ], [ 2917821.0, 5532697.0 ], [ 2917835.0, 5532697.0 ], [ 2917844.0, 5532696.0 ], [ 2917855.0, 5532697.0 ], [ 2917892.0, 5532712.0 ], [ 2917910.0, 5532720.0 ], [ 2917930.0, 5532731.0 ], [ 2917929.0, 5532737.0 ], [ 2917950.0, 5532750.0 ], [ 2917976.0, 5532766.0 ], [ 2917980.0, 5532762.0 ], [ 2917986.0, 5532768.0 ], [ 2918013.0, 5532798.0 ], [ 2918027.0, 5532815.0 ], [ 2918048.0, 5532845.0 ], [ 2918037.0, 5532852.0 ], [ 2918065.0, 5532892.0 ], [ 2918067.0, 5532891.0 ], [ 2918076.0, 5532904.0 ], [ 2918085.0, 5532898.0 ], [ 2918101.0, 5532919.0 ], [ 2918117.0, 5532938.0 ], [ 2918134.0, 5532956.0 ], [ 2918152.0, 5532971.0 ], [ 2918172.0, 5532986.0 ], [ 2918190.0, 5532995.0 ], [ 2918208.0, 5533000.0 ], [ 2918227.0, 5533003.0 ], [ 2918252.0, 5533004.0 ], [ 2918273.0, 5533000.0 ], [ 2918289.0, 5532990.0 ], [ 2918307.0, 5532967.0 ], [ 2918378.0, 5532820.0 ], [ 2918426.0, 5532724.0 ], [ 2918483.0, 5532610.0 ], [ 2918490.0, 5532598.0 ], [ 2918503.0, 5532578.0 ], [ 2918525.0, 5532547.0 ], [ 2918546.0, 5532521.0 ], [ 2918568.0, 5532492.0 ], [ 2918580.0, 5532479.0 ], [ 2918594.0, 5532468.0 ], [ 2918656.0, 5532429.0 ], [ 2918662.0, 5532425.0 ], [ 2918667.0, 5532422.0 ], [ 2918681.0, 5532414.0 ], [ 2918695.0, 5532408.0 ], [ 2918710.0, 5532404.0 ], [ 2918724.0, 5532402.0 ], [ 2918740.0, 5532403.0 ], [ 2918774.0, 5532410.0 ], [ 2918908.0, 5532440.0 ], [ 2918957.0, 5532451.0 ], [ 2919043.0, 5532471.0 ], [ 2919070.0, 5532477.0 ], [ 2919096.0, 5532491.0 ], [ 2919251.0, 5532615.0 ], [ 2919270.0, 5532627.0 ], [ 2919295.0, 5532635.0 ], [ 2919379.0, 5532624.0 ], [ 2919383.0, 5532622.0 ], [ 2919418.0, 5532604.0 ], [ 2919409.0, 5532562.0 ], [ 2919407.0, 5532523.0 ], [ 2919405.0, 5532515.0 ], [ 2919404.0, 5532512.0 ], [ 2919398.0, 5532485.0 ], [ 2919402.0, 5532469.0 ], [ 2919387.0, 5532446.0 ], [ 2919381.0, 5532426.0 ], [ 2919332.0, 5532280.0 ], [ 2919329.0, 5532281.0 ], [ 2919295.0, 5532159.0 ], [ 2919260.0, 5532000.0 ], [ 2919224.0, 5531905.0 ], [ 2919201.0, 5531912.0 ], [ 2919196.0, 5531899.0 ], [ 2919193.0, 5531889.0 ], [ 2919185.0, 5531864.0 ], [ 2919170.0, 5531814.0 ], [ 2919165.0, 5531796.0 ], [ 2919160.0, 5531787.0 ], [ 2919159.0, 5531777.0 ], [ 2919155.0, 5531764.0 ], [ 2919151.0, 5531753.0 ], [ 2919148.0, 5531754.0 ], [ 2919130.0, 5531712.0 ], [ 2919124.0, 5531714.0 ], [ 2919104.0, 5531659.0 ], [ 2919032.0, 5531681.0 ], [ 2918949.0, 5531705.0 ], [ 2918932.0, 5531708.0 ], [ 2918916.0, 5531701.0 ], [ 2918898.0, 5531660.0 ], [ 2918903.0, 5531642.0 ], [ 2918905.0, 5531631.0 ], [ 2918905.0, 5531608.0 ], [ 2918904.0, 5531601.0 ], [ 2918890.0, 5531542.0 ], [ 2918886.0, 5531524.0 ], [ 2919028.0, 5531475.0 ], [ 2919295.0, 5531365.0 ], [ 2919276.0, 5531306.0 ], [ 2919243.0, 5531316.0 ], [ 2919154.0, 5531035.0 ], [ 2919152.0, 5531030.0 ], [ 2919137.0, 5531036.0 ], [ 2919117.0, 5531041.0 ], [ 2919043.0, 5530789.0 ], [ 2919042.0, 5530781.0 ], [ 2919044.0, 5530762.0 ], [ 2919048.0, 5530749.0 ], [ 2919046.0, 5530730.0 ], [ 2918981.0, 5530435.0 ], [ 2918972.0, 5530379.0 ], [ 2918605.0, 5530458.0 ], [ 2918551.0, 5530203.0 ], [ 2918548.0, 5530172.0 ], [ 2918550.0, 5530105.0 ], [ 2918574.0, 5529840.0 ], [ 2918592.0, 5529526.0 ], [ 2918595.0, 5529483.0 ], [ 2918596.0, 5529464.0 ], [ 2918612.0, 5529251.0 ], [ 2918613.0, 5529235.0 ], [ 2918630.0, 5528992.0 ], [ 2918632.0, 5528946.0 ], [ 2918632.0, 5528901.0 ], [ 2918628.0, 5528858.0 ], [ 2918624.0, 5528836.0 ], [ 2918619.0, 5528814.0 ], [ 2918614.0, 5528797.0 ], [ 2918602.0, 5528762.0 ], [ 2918584.0, 5528721.0 ], [ 2918560.0, 5528673.0 ], [ 2918543.0, 5528667.0 ], [ 2918535.0, 5528664.0 ], [ 2918520.0, 5528662.0 ], [ 2918494.0, 5528659.0 ], [ 2918478.0, 5528656.0 ], [ 2918450.0, 5528649.0 ], [ 2918424.0, 5528639.0 ], [ 2918410.0, 5528633.0 ], [ 2918404.0, 5528638.0 ], [ 2918340.0, 5528627.0 ], [ 2918278.0, 5528615.0 ], [ 2918150.0, 5528590.0 ], [ 2917995.0, 5528564.0 ], [ 2917881.0, 5528544.0 ], [ 2917856.0, 5528547.0 ], [ 2917815.0, 5528545.0 ], [ 2917877.0, 5528393.0 ], [ 2917884.0, 5528378.0 ], [ 2917889.0, 5528369.0 ], [ 2917880.0, 5528364.0 ], [ 2917871.0, 5528355.0 ], [ 2917865.0, 5528346.0 ], [ 2917863.0, 5528337.0 ], [ 2917875.0, 5528301.0 ], [ 2917891.0, 5528283.0 ], [ 2917899.0, 5528279.0 ], [ 2917896.0, 5528268.0 ], [ 2917517.0, 5528355.0 ], [ 2917509.0, 5528323.0 ], [ 2917514.0, 5528321.0 ], [ 2917494.0, 5528230.0 ], [ 2917466.0, 5528102.0 ], [ 2917466.0, 5528078.0 ], [ 2917541.0, 5528062.0 ], [ 2917538.0, 5528031.0 ], [ 2917563.0, 5528026.0 ], [ 2917584.0, 5528021.0 ], [ 2917601.0, 5528067.0 ], [ 2917623.0, 5528145.0 ], [ 2917628.0, 5528160.0 ], [ 2917634.0, 5528176.0 ], [ 2917664.0, 5528165.0 ], [ 2917671.0, 5528155.0 ], [ 2917691.0, 5528148.0 ], [ 2917717.0, 5528177.0 ], [ 2917726.0, 5528187.0 ], [ 2917816.0, 5528157.0 ], [ 2917845.0, 5528132.0 ], [ 2917902.0, 5528036.0 ], [ 2917938.0, 5528050.0 ], [ 2917991.0, 5527952.0 ], [ 2917981.0, 5527948.0 ], [ 2918010.0, 5527872.0 ], [ 2917995.0, 5527850.0 ], [ 2918005.0, 5527823.0 ], [ 2917979.0, 5527787.0 ], [ 2917991.0, 5527761.0 ], [ 2918007.0, 5527726.0 ], [ 2917999.0, 5527680.0 ], [ 2918018.0, 5527614.0 ], [ 2918056.0, 5527483.0 ], [ 2918096.0, 5527503.0 ], [ 2918139.0, 5527423.0 ], [ 2918136.0, 5527372.0 ], [ 2918115.0, 5527355.0 ], [ 2918109.0, 5527352.0 ], [ 2917877.0, 5527340.0 ], [ 2917882.0, 5527297.0 ], [ 2917914.0, 5526884.0 ], [ 2917914.0, 5526875.0 ], [ 2917921.0, 5526785.0 ], [ 2917539.0, 5526760.0 ], [ 2917129.0, 5526736.0 ], [ 2917058.0, 5526733.0 ], [ 2916275.0, 5526686.0 ], [ 2915904.0, 5526664.0 ], [ 2915588.0, 5526645.0 ], [ 2914978.0, 5526608.0 ], [ 2914938.0, 5526605.0 ], [ 2914824.0, 5526598.0 ], [ 2914753.0, 5526594.0 ], [ 2914664.0, 5526588.0 ], [ 2914588.0, 5526586.0 ], [ 2914549.0, 5526586.0 ], [ 2914496.0, 5526588.0 ], [ 2914447.0, 5526592.0 ], [ 2914400.0, 5526597.0 ], [ 2914343.0, 5526605.0 ], [ 2914302.0, 5526611.0 ], [ 2914257.0, 5526621.0 ], [ 2914210.0, 5526634.0 ], [ 2914098.0, 5526668.0 ], [ 2913781.0, 5526780.0 ], [ 2913532.0, 5526867.0 ], [ 2912333.0, 5527290.0 ], [ 2912308.0, 5527238.0 ], [ 2912100.0, 5526859.0 ], [ 2911912.0, 5526506.0 ], [ 2911788.0, 5526282.0 ], [ 2911765.0, 5526113.0 ], [ 2911736.0, 5526027.0 ], [ 2911729.0, 5526015.0 ], [ 2911552.0, 5525769.0 ], [ 2911484.0, 5525685.0 ], [ 2911407.0, 5525522.0 ], [ 2911457.0, 5525498.0 ], [ 2911388.0, 5525372.0 ], [ 2911201.0, 5525005.0 ], [ 2911138.0, 5525039.0 ], [ 2910996.0, 5524782.0 ], [ 2911017.0, 5524770.0 ], [ 2910925.0, 5524598.0 ], [ 2910726.0, 5524225.0 ], [ 2910838.0, 5524161.0 ], [ 2910771.0, 5524031.0 ], [ 2910760.0, 5524036.0 ], [ 2910740.0, 5524007.0 ], [ 2910710.0, 5523957.0 ], [ 2910708.0, 5523958.0 ], [ 2910662.0, 5523869.0 ], [ 2910648.0, 5523843.0 ], [ 2910519.0, 5523604.0 ], [ 2910515.0, 5523606.0 ], [ 2910501.0, 5523579.0 ], [ 2910446.0, 5523609.0 ], [ 2910322.0, 5523366.0 ], [ 2910313.0, 5523371.0 ], [ 2910295.0, 5523336.0 ], [ 2910305.0, 5523331.0 ], [ 2910279.0, 5523281.0 ], [ 2910435.0, 5523197.0 ], [ 2910319.0, 5522962.0 ], [ 2910294.0, 5522913.0 ], [ 2910255.0, 5522856.0 ], [ 2910208.0, 5522795.0 ], [ 2910230.0, 5522756.0 ], [ 2910295.0, 5522791.0 ], [ 2910302.0, 5522778.0 ], [ 2910307.0, 5522781.0 ], [ 2910364.0, 5522678.0 ], [ 2910301.0, 5522632.0 ], [ 2910310.0, 5522612.0 ], [ 2910404.0, 5522440.0 ], [ 2910415.0, 5522445.0 ], [ 2910515.0, 5522260.0 ], [ 2910532.0, 5522271.0 ], [ 2910588.0, 5522158.0 ], [ 2910598.0, 5522162.0 ], [ 2910752.0, 5521887.0 ], [ 2910801.0, 5521837.0 ], [ 2910851.0, 5521868.0 ], [ 2911051.0, 5521496.0 ], [ 2911097.0, 5521410.0 ], [ 2911067.0, 5521392.0 ], [ 2911108.0, 5521310.0 ], [ 2911167.0, 5521195.0 ], [ 2911224.0, 5521102.0 ], [ 2911206.0, 5521082.0 ], [ 2911249.0, 5520927.0 ], [ 2911835.0, 5519859.0 ], [ 2912259.0, 5519078.0 ], [ 2912296.0, 5519099.0 ], [ 2912601.0, 5519269.0 ], [ 2912875.0, 5518777.0 ], [ 2912572.0, 5518608.0 ], [ 2912552.0, 5518606.0 ], [ 2912535.0, 5518613.0 ], [ 2912514.0, 5518629.0 ], [ 2912493.0, 5518646.0 ], [ 2912478.0, 5518637.0 ], [ 2912560.0, 5518485.0 ], [ 2912494.0, 5518456.0 ], [ 2912418.0, 5518428.0 ], [ 2911754.0, 5518141.0 ], [ 2911690.0, 5518112.0 ], [ 2911803.0, 5517842.0 ], [ 2911746.0, 5517757.0 ], [ 2911737.0, 5517651.0 ], [ 2911730.0, 5517515.0 ], [ 2911222.0, 5517314.0 ], [ 2910947.0, 5517527.0 ], [ 2910887.0, 5517634.0 ], [ 2910742.0, 5517755.0 ], [ 2910726.0, 5517806.0 ], [ 2910692.0, 5517809.0 ], [ 2910595.0, 5517787.0 ], [ 2910583.0, 5517853.0 ], [ 2910619.0, 5517867.0 ], [ 2910628.0, 5517869.0 ], [ 2909812.0, 5518493.0 ], [ 2909524.0, 5518715.0 ], [ 2909094.0, 5519045.0 ], [ 2908944.0, 5519163.0 ], [ 2908813.0, 5519265.0 ], [ 2908493.0, 5519509.0 ], [ 2908821.0, 5519953.0 ], [ 2908604.0, 5520122.0 ], [ 2907861.0, 5520683.0 ], [ 2906810.0, 5521464.0 ], [ 2906951.0, 5522197.0 ], [ 2905493.0, 5522472.0 ], [ 2905337.0, 5522502.0 ], [ 2905231.0, 5521825.0 ], [ 2905207.0, 5521675.0 ], [ 2905048.0, 5521554.0 ], [ 2905025.0, 5521548.0 ], [ 2905002.0, 5521526.0 ], [ 2904997.0, 5521510.0 ], [ 2904991.0, 5521484.0 ], [ 2904990.0, 5521435.0 ], [ 2904992.0, 5521408.0 ], [ 2904990.0, 5521325.0 ], [ 2904935.0, 5521319.0 ], [ 2904862.0, 5521814.0 ], [ 2904719.0, 5521775.0 ], [ 2904392.0, 5522445.0 ], [ 2904360.0, 5522419.0 ], [ 2904271.0, 5522439.0 ], [ 2904215.0, 5522596.0 ], [ 2904174.0, 5522674.0 ], [ 2904119.0, 5522762.0 ], [ 2904068.0, 5522756.0 ], [ 2904043.0, 5522758.0 ], [ 2904015.0, 5522763.0 ], [ 2903894.0, 5522782.0 ], [ 2903877.0, 5522785.0 ], [ 2903879.0, 5522798.0 ], [ 2903464.0, 5522862.0 ], [ 2903404.0, 5522875.0 ], [ 2903383.0, 5522881.0 ], [ 2903299.0, 5522903.0 ], [ 2903264.0, 5522915.0 ], [ 2902999.0, 5523037.0 ], [ 2902692.0, 5523191.0 ], [ 2902766.0, 5523594.0 ], [ 2902821.0, 5523818.0 ], [ 2902814.0, 5523873.0 ], [ 2902875.0, 5524139.0 ], [ 2902587.0, 5524188.0 ], [ 2902521.0, 5524204.0 ], [ 2902285.0, 5524277.0 ], [ 2902264.0, 5524231.0 ], [ 2902029.0, 5523848.0 ], [ 2901982.0, 5523604.0 ], [ 2901372.0, 5523948.0 ], [ 2901148.0, 5524057.0 ], [ 2901150.0, 5524076.0 ], [ 2900948.0, 5524168.0 ], [ 2900706.0, 5524292.0 ], [ 2900658.0, 5524317.0 ], [ 2900551.0, 5524367.0 ], [ 2900322.0, 5523826.0 ], [ 2900181.0, 5523875.0 ], [ 2899794.0, 5524007.0 ], [ 2899744.0, 5524023.0 ], [ 2899657.0, 5524050.0 ], [ 2899568.0, 5524072.0 ], [ 2899543.0, 5524079.0 ], [ 2899544.0, 5524069.0 ], [ 2899544.0, 5524045.0 ], [ 2899543.0, 5524027.0 ], [ 2899538.0, 5524002.0 ], [ 2899525.0, 5523962.0 ], [ 2899499.0, 5523891.0 ], [ 2899500.0, 5523890.0 ], [ 2899400.0, 5523657.0 ], [ 2899170.0, 5523863.0 ], [ 2898514.0, 5524451.0 ], [ 2897985.0, 5524933.0 ], [ 2898453.0, 5525340.0 ], [ 2898545.0, 5525419.0 ], [ 2898604.0, 5525468.0 ], [ 2898638.0, 5525495.0 ], [ 2898696.0, 5525542.0 ], [ 2898390.0, 5525907.0 ], [ 2898380.0, 5525919.0 ], [ 2898315.0, 5526001.0 ], [ 2898208.0, 5526139.0 ], [ 2898101.0, 5526045.0 ], [ 2898134.0, 5526006.0 ], [ 2898095.0, 5525977.0 ], [ 2898104.0, 5525966.0 ], [ 2897961.0, 5525852.0 ], [ 2897953.0, 5525861.0 ], [ 2897832.0, 5525762.0 ], [ 2897826.0, 5525769.0 ], [ 2897794.0, 5525744.0 ], [ 2897733.0, 5525824.0 ], [ 2897694.0, 5525862.0 ], [ 2897688.0, 5525868.0 ], [ 2897601.0, 5525958.0 ], [ 2897547.0, 5525924.0 ], [ 2897517.0, 5525970.0 ], [ 2897478.0, 5525949.0 ], [ 2897403.0, 5526084.0 ], [ 2897367.0, 5526107.0 ], [ 2897343.0, 5526123.0 ], [ 2897313.0, 5526124.0 ], [ 2897279.0, 5526168.0 ], [ 2897256.0, 5526197.0 ], [ 2897156.0, 5526337.0 ], [ 2897137.0, 5526362.0 ], [ 2897148.0, 5526366.0 ], [ 2897000.0, 5526561.0 ], [ 2896892.0, 5526694.0 ], [ 2896839.0, 5526769.0 ], [ 2896761.0, 5526877.0 ], [ 2896666.0, 5527002.0 ], [ 2896654.0, 5527016.0 ], [ 2896575.0, 5527115.0 ], [ 2896539.0, 5527163.0 ], [ 2896447.0, 5527285.0 ], [ 2896261.0, 5527542.0 ], [ 2896122.0, 5527725.0 ], [ 2896027.0, 5527838.0 ], [ 2895957.0, 5527932.0 ], [ 2895882.0, 5528033.0 ], [ 2895827.0, 5528108.0 ], [ 2895819.0, 5528118.0 ], [ 2895789.0, 5528092.0 ], [ 2895677.0, 5528247.0 ], [ 2895592.0, 5528363.0 ], [ 2895556.0, 5528402.0 ], [ 2895518.0, 5528452.0 ], [ 2895470.0, 5528416.0 ], [ 2894678.0, 5527818.0 ], [ 2894636.0, 5527840.0 ], [ 2894605.0, 5527989.0 ], [ 2894583.0, 5528098.0 ], [ 2894522.0, 5528086.0 ], [ 2894423.0, 5528066.0 ], [ 2894225.0, 5528037.0 ], [ 2894133.0, 5528017.0 ], [ 2894104.0, 5528012.0 ], [ 2894003.0, 5527993.0 ], [ 2893946.0, 5528252.0 ], [ 2893938.0, 5528299.0 ], [ 2893930.0, 5528341.0 ], [ 2893903.0, 5528501.0 ], [ 2893901.0, 5528509.0 ], [ 2893898.0, 5528524.0 ], [ 2893894.0, 5528541.0 ], [ 2893888.0, 5528570.0 ], [ 2893884.0, 5528592.0 ], [ 2893835.0, 5528853.0 ], [ 2893808.0, 5528998.0 ], [ 2893776.0, 5528987.0 ], [ 2893656.0, 5528937.0 ], [ 2893430.0, 5528842.0 ], [ 2893407.0, 5528834.0 ], [ 2893109.0, 5528705.0 ], [ 2893083.0, 5528699.0 ], [ 2893061.0, 5528698.0 ], [ 2892958.0, 5528700.0 ], [ 2892574.0, 5528710.0 ], [ 2892511.0, 5528712.0 ], [ 2892385.0, 5528715.0 ], [ 2892334.0, 5528713.0 ], [ 2892323.0, 5528712.0 ], [ 2892288.0, 5528708.0 ], [ 2892239.0, 5528698.0 ], [ 2892208.0, 5528691.0 ], [ 2891973.0, 5528636.0 ], [ 2891826.0, 5528602.0 ], [ 2891800.0, 5528596.0 ], [ 2891727.0, 5528571.0 ], [ 2891668.0, 5528548.0 ], [ 2891589.0, 5528738.0 ], [ 2891515.0, 5528933.0 ], [ 2891443.0, 5529100.0 ], [ 2891371.0, 5529276.0 ], [ 2891283.0, 5529492.0 ], [ 2891192.0, 5529725.0 ], [ 2891104.0, 5529934.0 ], [ 2891060.0, 5530047.0 ], [ 2891042.0, 5530104.0 ], [ 2890958.0, 5530424.0 ], [ 2890919.0, 5530607.0 ], [ 2890881.0, 5530822.0 ], [ 2890855.0, 5530963.0 ], [ 2890827.0, 5531175.0 ], [ 2890818.0, 5531264.0 ], [ 2890796.0, 5531535.0 ], [ 2890765.0, 5531837.0 ], [ 2890711.0, 5532498.0 ], [ 2890661.0, 5532496.0 ], [ 2890670.0, 5532549.0 ], [ 2890670.0, 5532551.0 ], [ 2890650.0, 5532831.0 ], [ 2890653.0, 5532840.0 ], [ 2890653.0, 5532847.0 ], [ 2890650.0, 5532850.0 ], [ 2890646.0, 5532902.0 ], [ 2890635.0, 5533038.0 ], [ 2890626.0, 5533115.0 ], [ 2890615.0, 5533193.0 ], [ 2890613.0, 5533239.0 ], [ 2890658.0, 5533233.0 ], [ 2890634.0, 5533475.0 ], [ 2890612.0, 5533717.0 ], [ 2890597.0, 5533903.0 ], [ 2892537.0, 5534043.0 ], [ 2893271.0, 5534087.0 ], [ 2893387.0, 5534095.0 ], [ 2893581.0, 5534109.0 ], [ 2894280.0, 5534157.0 ], [ 2894280.0, 5534150.0 ], [ 2894458.0, 5534163.0 ], [ 2894996.0, 5534202.0 ], [ 2895106.0, 5534211.0 ], [ 2895558.0, 5534241.0 ], [ 2895680.0, 5534247.0 ], [ 2895709.0, 5534260.0 ], [ 2895733.0, 5534272.0 ], [ 2895939.0, 5534395.0 ], [ 2896270.0, 5534613.0 ], [ 2896437.0, 5534719.0 ], [ 2896450.0, 5534725.0 ], [ 2896437.0, 5534746.0 ], [ 2896438.0, 5534766.0 ], [ 2896454.0, 5534858.0 ], [ 2896507.0, 5535078.0 ], [ 2896511.0, 5535095.0 ], [ 2896485.0, 5535096.0 ], [ 2896477.0, 5535104.0 ], [ 2896467.0, 5535116.0 ], [ 2896441.0, 5535145.0 ], [ 2896411.0, 5535169.0 ], [ 2896368.0, 5535204.0 ], [ 2896353.0, 5535226.0 ], [ 2896323.0, 5535274.0 ], [ 2896315.0, 5535288.0 ], [ 2896305.0, 5535294.0 ], [ 2896294.0, 5535290.0 ], [ 2896284.0, 5535279.0 ], [ 2896257.0, 5535250.0 ], [ 2896250.0, 5535244.0 ], [ 2896229.0, 5535235.0 ], [ 2896179.0, 5535221.0 ], [ 2896156.0, 5535217.0 ], [ 2896086.0, 5535209.0 ], [ 2896072.0, 5535211.0 ], [ 2896060.0, 5535218.0 ], [ 2896005.0, 5535257.0 ], [ 2895953.0, 5535290.0 ], [ 2895946.0, 5535298.0 ], [ 2895940.0, 5535321.0 ], [ 2895936.0, 5535353.0 ], [ 2895933.0, 5535389.0 ], [ 2895935.0, 5535402.0 ], [ 2895962.0, 5535483.0 ], [ 2895961.0, 5535494.0 ], [ 2895955.0, 5535503.0 ], [ 2895898.0, 5535540.0 ], [ 2895889.0, 5535548.0 ], [ 2895871.0, 5535571.0 ], [ 2895842.0, 5535613.0 ], [ 2895815.0, 5535675.0 ], [ 2895809.0, 5535698.0 ], [ 2895798.0, 5535751.0 ], [ 2895794.0, 5535780.0 ], [ 2895791.0, 5535850.0 ], [ 2895783.0, 5535917.0 ], [ 2895773.0, 5535989.0 ], [ 2895777.0, 5535999.0 ], [ 2896077.0, 5536188.0 ], [ 2895823.0, 5536579.0 ], [ 2895797.0, 5536597.0 ], [ 2895770.0, 5536609.0 ], [ 2895723.0, 5536626.0 ], [ 2895644.0, 5536631.0 ], [ 2895582.0, 5536629.0 ], [ 2895498.0, 5536618.0 ], [ 2895394.0, 5536583.0 ], [ 2895331.0, 5536578.0 ], [ 2895255.0, 5536581.0 ], [ 2895211.0, 5536590.0 ], [ 2895037.0, 5536649.0 ], [ 2894954.0, 5536691.0 ], [ 2894857.0, 5536763.0 ], [ 2894795.0, 5536817.0 ], [ 2894659.0, 5536889.0 ], [ 2894516.0, 5536980.0 ], [ 2894388.0, 5537038.0 ], [ 2894256.0, 5537092.0 ], [ 2893966.0, 5537202.0 ], [ 2893485.0, 5537411.0 ], [ 2892883.0, 5537704.0 ], [ 2892747.0, 5537778.0 ], [ 2892639.0, 5537834.0 ], [ 2892449.0, 5537926.0 ], [ 2892410.0, 5537960.0 ], [ 2892374.0, 5537980.0 ], [ 2892314.0, 5538005.0 ], [ 2892182.0, 5537980.0 ], [ 2892051.0, 5537931.0 ], [ 2892030.0, 5537921.0 ], [ 2892017.0, 5537911.0 ], [ 2891968.0, 5537869.0 ], [ 2891901.0, 5537814.0 ], [ 2891863.0, 5537835.0 ], [ 2891843.0, 5537819.0 ], [ 2891802.0, 5537850.0 ], [ 2891650.0, 5537781.0 ], [ 2891628.0, 5537875.0 ], [ 2891631.0, 5537905.0 ], [ 2891650.0, 5537918.0 ], [ 2891679.0, 5537942.0 ], [ 2891779.0, 5538022.0 ], [ 2891758.0, 5538061.0 ], [ 2891733.0, 5538068.0 ], [ 2891712.0, 5538077.0 ], [ 2891675.0, 5538093.0 ], [ 2891685.0, 5538107.0 ], [ 2891804.0, 5538243.0 ], [ 2891937.0, 5538403.0 ], [ 2892023.0, 5538506.0 ], [ 2892038.0, 5538535.0 ], [ 2892064.0, 5538583.0 ], [ 2892088.0, 5538685.0 ], [ 2892098.0, 5538724.0 ], [ 2892103.0, 5538752.0 ], [ 2892108.0, 5538777.0 ], [ 2892110.0, 5538800.0 ], [ 2892117.0, 5539297.0 ], [ 2892127.0, 5539551.0 ], [ 2892159.0, 5539722.0 ], [ 2892169.0, 5539721.0 ], [ 2892200.0, 5539851.0 ], [ 2892230.0, 5539935.0 ], [ 2892263.0, 5540019.0 ], [ 2892290.0, 5540070.0 ], [ 2892320.0, 5540133.0 ], [ 2892370.0, 5540220.0 ], [ 2892450.0, 5540358.0 ], [ 2892482.0, 5540427.0 ], [ 2892514.0, 5540510.0 ], [ 2892525.0, 5540544.0 ], [ 2892554.0, 5540641.0 ], [ 2892576.0, 5540730.0 ], [ 2892607.0, 5540848.0 ], [ 2892655.0, 5541010.0 ], [ 2892737.0, 5541296.0 ], [ 2892813.0, 5541566.0 ], [ 2892871.0, 5541732.0 ], [ 2892920.0, 5541842.0 ], [ 2892954.0, 5541915.0 ], [ 2892925.0, 5541919.0 ], [ 2892918.0, 5541906.0 ], [ 2892912.0, 5541900.0 ], [ 2892907.0, 5541898.0 ], [ 2892904.0, 5541898.0 ], [ 2892888.0, 5541899.0 ], [ 2892882.0, 5541897.0 ], [ 2892858.0, 5541877.0 ], [ 2892824.0, 5541848.0 ], [ 2892769.0, 5541800.0 ], [ 2892761.0, 5541807.0 ], [ 2892907.0, 5541946.0 ], [ 2892966.0, 5542008.0 ], [ 2892958.0, 5542006.0 ], [ 2892945.0, 5542006.0 ], [ 2892910.0, 5542015.0 ], [ 2892833.0, 5542043.0 ], [ 2892802.0, 5542064.0 ], [ 2892768.0, 5542097.0 ], [ 2892589.0, 5542267.0 ], [ 2892481.0, 5542373.0 ], [ 2892485.0, 5542379.0 ], [ 2892485.0, 5542384.0 ], [ 2892484.0, 5542393.0 ], [ 2892482.0, 5542400.0 ], [ 2892487.0, 5542415.0 ], [ 2892494.0, 5542432.0 ], [ 2892497.0, 5542455.0 ], [ 2892505.0, 5542479.0 ], [ 2892517.0, 5542511.0 ], [ 2892527.0, 5542534.0 ], [ 2892536.0, 5542556.0 ], [ 2892556.0, 5542598.0 ], [ 2892563.0, 5542616.0 ], [ 2892479.0, 5542653.0 ], [ 2892468.0, 5542657.0 ], [ 2892410.0, 5542683.0 ], [ 2892411.0, 5542687.0 ], [ 2892411.0, 5542689.0 ], [ 2892412.0, 5542691.0 ], [ 2892412.0, 5542695.0 ], [ 2892415.0, 5542705.0 ], [ 2892418.0, 5542721.0 ], [ 2892419.0, 5542724.0 ], [ 2892425.0, 5542751.0 ], [ 2892425.0, 5542753.0 ], [ 2892435.0, 5542799.0 ], [ 2892435.0, 5542801.0 ], [ 2892436.0, 5542804.0 ], [ 2892437.0, 5542811.0 ], [ 2892442.0, 5542834.0 ], [ 2892445.0, 5542839.0 ], [ 2892445.0, 5542841.0 ], [ 2892448.0, 5542843.0 ], [ 2892459.0, 5542847.0 ], [ 2892491.0, 5542861.0 ], [ 2892523.0, 5542874.0 ], [ 2892527.0, 5542876.0 ], [ 2892530.0, 5542876.0 ], [ 2892543.0, 5542880.0 ], [ 2892553.0, 5542883.0 ], [ 2892556.0, 5542883.0 ], [ 2892558.0, 5542885.0 ], [ 2892701.0, 5542932.0 ], [ 2892709.0, 5542935.0 ], [ 2892820.0, 5542973.0 ], [ 2892826.0, 5542976.0 ], [ 2892837.0, 5542980.0 ], [ 2892839.0, 5542981.0 ], [ 2892941.0, 5543092.0 ], [ 2892965.0, 5543072.0 ], [ 2892985.0, 5543058.0 ], [ 2892989.0, 5543056.0 ], [ 2892992.0, 5543053.0 ], [ 2893229.0, 5542903.0 ], [ 2893233.0, 5542898.0 ], [ 2893238.0, 5542896.0 ], [ 2893273.0, 5542866.0 ], [ 2893341.0, 5542811.0 ], [ 2893345.0, 5542807.0 ], [ 2893363.0, 5542791.0 ], [ 2893375.0, 5542779.0 ], [ 2893393.0, 5542763.0 ], [ 2893409.0, 5542748.0 ], [ 2893437.0, 5542722.0 ], [ 2893447.0, 5542713.0 ], [ 2893466.0, 5542696.0 ], [ 2893501.0, 5542666.0 ], [ 2893532.0, 5542635.0 ], [ 2893535.0, 5542630.0 ], [ 2893538.0, 5542627.0 ], [ 2893557.0, 5542601.0 ], [ 2893563.0, 5542591.0 ], [ 2893572.0, 5542570.0 ], [ 2893572.0, 5542569.0 ], [ 2893573.0, 5542567.0 ], [ 2893612.0, 5542600.0 ], [ 2893730.0, 5542502.0 ], [ 2893765.0, 5542532.0 ], [ 2893783.0, 5542543.0 ], [ 2893793.0, 5542577.0 ], [ 2893794.0, 5542586.0 ], [ 2893796.0, 5542589.0 ], [ 2893799.0, 5542599.0 ], [ 2893810.0, 5542623.0 ], [ 2893832.0, 5542668.0 ], [ 2893837.0, 5542684.0 ], [ 2893850.0, 5542702.0 ], [ 2893927.0, 5542781.0 ], [ 2894013.0, 5542853.0 ], [ 2894132.0, 5542971.0 ], [ 2894146.0, 5542993.0 ], [ 2894148.0, 5542997.0 ], [ 2894194.0, 5543003.0 ], [ 2894233.0, 5543029.0 ], [ 2894291.0, 5543035.0 ], [ 2894370.0, 5542986.0 ], [ 2894455.0, 5542968.0 ], [ 2894579.0, 5542966.0 ], [ 2894677.0, 5542986.0 ], [ 2894681.0, 5542988.0 ], [ 2894830.0, 5543047.0 ], [ 2894979.0, 5543079.0 ], [ 2895024.0, 5543100.0 ], [ 2895032.0, 5543125.0 ], [ 2895039.0, 5543127.0 ], [ 2895039.0, 5543149.0 ], [ 2895069.0, 5543167.0 ], [ 2895075.0, 5543208.0 ], [ 2895068.0, 5543214.0 ], [ 2895062.0, 5543233.0 ], [ 2895047.0, 5543245.0 ], [ 2895049.0, 5543255.0 ], [ 2895076.0, 5543248.0 ], [ 2895126.0, 5543626.0 ], [ 2895176.0, 5543987.0 ], [ 2895225.0, 5544339.0 ], [ 2895246.0, 5544478.0 ], [ 2895278.0, 5544749.0 ], [ 2895291.0, 5544830.0 ], [ 2895288.0, 5544917.0 ], [ 2895273.0, 5544967.0 ], [ 2895320.0, 5545037.0 ], [ 2895344.0, 5545101.0 ], [ 2895367.0, 5545133.0 ], [ 2895350.0, 5545150.0 ], [ 2895299.0, 5545206.0 ], [ 2895294.0, 5545215.0 ], [ 2895289.0, 5545226.0 ], [ 2895286.0, 5545254.0 ], [ 2895250.0, 5545296.0 ], [ 2895249.0, 5545299.0 ], [ 2895251.0, 5545302.0 ], [ 2895252.0, 5545305.0 ], [ 2895296.0, 5545348.0 ], [ 2895298.0, 5545353.0 ], [ 2895295.0, 5545403.0 ], [ 2895284.0, 5545419.0 ], [ 2895262.0, 5545458.0 ], [ 2895498.0, 5545644.0 ], [ 2895556.0, 5545584.0 ] ] ] } }
]
}
