{
"type": "FeatureCollection",
"name": "chisinau-rail",
"crs": { "type": "name", "properties": { "name": "urn:ogc:def:crs:EPSG::3857" } },
"features": [
{ "type": "Feature", "properties": { "osmid": 7289796227.0 }, "geometry": { "type": "Point", "coordinates": [ 3217836.0, 5938747.0 ] } },
{ "type": "Feature", "properties": { "osmid": 2329454627.0 }, "geometry": { "type": "Point", "coordinates": [ 3213772.0, 5942773.0 ] } },
{ "type": "Feature", "properties": { "osmid": 3709913404.0 }, "geometry": { "type": "Point", "coordinates": [ 3218198.0, 5938778.0 ] } },
{ "type": "Feature", "properties": { "osmid": 8659419713.0 }, "geometry": { "type": "Point", "coordinates": [ 3203286.0, 5952546.0 ] } },
{ "type": "Feature", "properties": { "osmid": 6835886656.0 }, "geometry": { "type": "Point", "coordinates": [ 3210633.0, 5948620.0 ] } },
{ "type": "Feature", "properties": { "osmid": 11652340376.0 }, "geometry": { "type": "Point", "coordinates": [ 3220798.0, 5933751.0 ] } },
{ "type": "Feature", "properties": { "osmid": 665797371.0 }, "geometry": { "type": "Point", "coordinates": [ 3212597.0, 5944214.0 ] } },
{ "type": "Feature", "properties": { "osmid": 317268848.0 }, "geometry": { "type": "Point", "coordinates": [ 3212428.0, 5939877.0 ] } },
{ "type": "Feature", "properties": { "osmid": 392001912.0 }, "geometry": { "type": "Point", "coordinates": [ 3212019.0, 5940282.0 ] } },
{ "type": "Feature", "properties": { "osmid": 317268856.0 }, "geometry": { "type": "Point", "coordinates": [ 3212886.0, 5939372.0 ] } },
{ "type": "Feature", "properties": { "osmid": 5734358938.0 }, "geometry": { "type": "Point", "coordinates": [ 3213342.0, 5939614.0 ] } },
{ "type": "Feature", "properties": { "osmid": 11845045827.0 }, "geometry": { "type": "Point", "coordinates": [ 3211475.0, 5940846.0 ] } },
{ "type": "Feature", "properties": { "osmid": 388415516.0 }, "geometry": { "type": "Point", "coordinates": [ 3212475.0, 5938344.0 ] } },
{ "type": "Feature", "properties": { "osmid": 13665680262.0 }, "geometry": { "type": "Point", "coordinates": [ 3213813.0, 5938424.0 ] } },
{ "type": "Feature", "properties": { "osmid": 737307035.0 }, "geometry": { "type": "Point", "coordinates": [ 3213130.0, 5937670.0 ] } },
{ "type": "Feature", "properties": { "osmid": 6475014530.0 }, "geometry": { "type": "Point", "coordinates": [ 3209931.0, 5939395.0 ] } },
{ "type": "Feature", "properties": { "osmid": 737307185.0 }, "geometry": { "type": "Point", "coordinates": [ 3212677.0, 5937309.0 ] } },
{ "type": "Feature", "properties": { "osmid": 286672653.0 }, "geometry": { "type": "Point", "coordinates": [ 3212150.0, 5937257.0 ] } },
{ "type": "Feature", "properties": { "osmid": 737307063.0 }, "geometry": { "type": "Point", "coordinates": [ 3213153.0, 5937055.0 ] } },
{ "type": "Feature", "properties": { "osmid": 6942393828.0 }, "geometry": { "type": "Point", "coordinates": [ 3212463.0, 5936780.0 ] } },
{ "type": "Feature", "properties": { "osmid": 286571045.0 }, "geometry": { "type": "Point", "coordinates": [ 3209216.0, 5940171.0 ] } },
{ "type": "Feature", "properties": { "osmid": 8301406711.0 }, "geometry": { "type": "Point", "coordinates": [ 3210698.0, 5943496.0 ] } },
{ "type": "Feature", "properties": { "osmid": 286502007.0 }, "geometry": { "type": "Point", "coordinates": [ 3208410.0, 5940192.0 ] } },
{ "type": "Feature", "properties": { "osmid": 9118714056.0 }, "geometry": { "type": "Point", "coordinates": [ 3211074.0, 5944046.0 ] } },
{ "type": "Feature", "properties": { "osmid": 570761460.0 }, "geometry": { "type": "Point", "coordinates": [ 3213214.0, 5935060.0 ] } },
{ "type": "Feature", "properties": { "osmid": 1297178814.0 }, "geometry": { "type": "Point", "coordinates": [ 3218126.0, 5940651.0 ] } },
{ "type": "Feature", "properties": { "osmid": 11760451149.0 }, "geometry": { "type": "Point", "coordinates": [ 3210216.0, 5945462.0 ] } },
{ "type": "Feature", "properties": { "osmid": 365974594.0 }, "geometry": { "type": "Point", "coordinates": [ 3206395.0, 5940646.0 ] } },
{ "type": "Feature", "properties": { "osmid": 9708504905.0 }, "geometry": { "type": "Point", "coordinates": [ 3218608.0, 5940801.0 ] } },
{ "type": "Feature", "properties": { "osmid": 12785753466.0 }, "geometry": { "type": "Point", "coordinates": [ 3209458.0, 5945594.0 ] } },
{ "type": "Feature", "properties": { "osmid": 286502185.0 }, "geometry": { "type": "Point", "coordinates": [ 3205994.0, 5941251.0 ] } },
{ "type": "Feature", "properties": { "osmid": 7986289496.0 }, "geometry": { "type": "Point", "coordinates": [ 3209805.0, 5945956.0 ] } },
{ "type": "Feature", "properties": { "osmid": 7146809158.0 }, "geometry": { "type": "Point", "coordinates": [ 3208128.0, 5945003.0 ] } },
{ "type": "Feature", "properties": { "osmid": 8467972168.0 }, "geometry": { "type": "Point", "coordinates": [ 3205623.0, 5941777.0 ] } },
{ "type": "Feature", "properties": { "osmid": 979846617.0 }, "geometry": { "type": "Point", "coordinates": [ 3205410.0, 5941227.0 ] } },
{ "type": "Feature", "properties": { "osmid": 7286208647.0 }, "geometry": { "type": "Point", "coordinates": [ 3210946.0, 5946906.0 ] } },
{ "type": "Feature", "properties": { "osmid": 13653718233.0 }, "geometry": { "type": "Point", "coordinates": [ 3209308.0, 5946417.0 ] } },
{ "type": "Feature", "properties": { "osmid": 7524602165.0 }, "geometry": { "type": "Point", "coordinates": [ 3207041.0, 5945260.0 ] } },
{ "type": "Feature", "properties": { "osmid": 8863683260.0 }, "geometry": { "type": "Point", "coordinates": [ 3211160.0, 5947483.0 ] } },
{ "type": "Feature", "properties": { "osmid": 979846055.0 }, "geometry": { "type": "Point", "coordinates": [ 3204839.0, 5941673.0 ] } },
{ "type": "Feature", "properties": { "osmid": 11717127239.0 }, "geometry": { "type": "Point", "coordinates": [ 3208684.0, 5946754.0 ] } },
{ "type": "Feature", "properties": { "osmid": 7578350792.0 }, "geometry": { "type": "Point", "coordinates": [ 3209543.0, 5947386.0 ] } },
{ "type": "Feature", "properties": { "osmid": 6765195286.0 }, "geometry": { "type": "Point", "coordinates": [ 3209964.0, 5947659.0 ] } },
{ "type": "Feature", "properties": { "osmid": 12825548921.0 }, "geometry": { "type": "Point", "coordinates": [ 3207898.0, 5947141.0 ] } },
{ "type": "Feature", "properties": { "osmid": 639867754.0 }, "geometry": { "type": "Point", "coordinates": [ 3213295.0, 5948457.0 ] } },
{ "type": "Feature", "properties": { "osmid": 5702344621.0 }, "geometry": { "type": "Point", "coordinates": [ 3217133.0, 5947630.0 ] } },
{ "type": "Feature", "properties": { "osmid": 9230992959.0 }, "geometry": { "type": "Point", "coordinates": [ 3216388.0, 5948077.0 ] } },
{ "type": "Feature", "properties": { "osmid": 639867914.0 }, "geometry": { "type": "Point", "coordinates": [ 3213124.0, 5948967.0 ] } },
{ "type": "Feature", "properties": { "osmid": 738745199.0 }, "geometry": { "type": "Point", "coordinates": [ 3203294.0, 5939293.0 ] } },
{ "type": "Feature", "properties": { "osmid": 737279838.0 }, "geometry": { "type": "Point", "coordinates": [ 3219592.0, 5934077.0 ] } },
{ "type": "Feature", "properties": { "osmid": 676296043.0 }, "geometry": { "type": "Point", "coordinates": [ 3212695.0, 5949277.0 ] } },
{ "type": "Feature", "properties": { "osmid": 6673697291.0 }, "geometry": { "type": "Point", "coordinates": [ 3221112.0, 5943742.0 ] } },
{ "type": "Feature", "properties": { "osmid": 5702357176.0 }, "geometry": { "type": "Point", "coordinates": [ 3217467.0, 5948021.0 ] } },
{ "type": "Feature", "properties": { "osmid": 5663696562.0 }, "geometry": { "type": "Point", "coordinates": [ 3216768.0, 5948415.0 ] } },
{ "type": "Feature", "properties": { "osmid": 13695008271.0 }, "geometry": { "type": "Point", "coordinates": [ 3213356.0, 5949426.0 ] } },
{ "type": "Feature", "properties": { "osmid": 365369214.0 }, "geometry": { "type": "Point", "coordinates": [ 3204639.0, 5945525.0 ] } },
{ "type": "Feature", "properties": { "osmid": 8406344369.0 }, "geometry": { "type": "Point", "coordinates": [ 3220089.0, 5933966.0 ] } },
{ "type": "Feature", "properties": { "osmid": 369008296.0 }, "geometry": { "type": "Point", "coordinates": [ 3221963.0, 5941833.0 ] } },
{ "type": "Feature", "properties": { "osmid": 365332407.0 }, "geometry": { "type": "Point", "coordinates": [ 3210213.0, 5949434.0 ] } },
{ "type": "Feature", "properties": { "osmid": 13361343885.0 }, "geometry": { "type": "Point", "coordinates": [ 3212959.0, 5949760.0 ] } },
{ "type": "Feature", "properties": { "osmid": 369011993.0 }, "geometry": { "type": "Point", "coordinates": [ 3221827.0, 5943099.0 ] } },
{ "type": "Feature", "properties": { "osmid": 8756146654.0 }, "geometry": { "type": "Point", "coordinates": [ 3206454.0, 5947859.0 ] } },
{ "type": "Feature", "properties": { "osmid": 11385236185.0 }, "geometry": { "type": "Point", "coordinates": [ 3222201.0, 5942288.0 ] } },
{ "type": "Feature", "properties": { "osmid": 598433563.0 }, "geometry": { "type": "Point", "coordinates": [ 3217628.0, 5948659.0 ] } },
{ "type": "Feature", "properties": { "osmid": 365292413.0 }, "geometry": { "type": "Point", "coordinates": [ 3209830.0, 5949900.0 ] } },
{ "type": "Feature", "properties": { "osmid": 294021477.0 }, "geometry": { "type": "Point", "coordinates": [ 3218126.0, 5948570.0 ] } },
{ "type": "Feature", "properties": { "osmid": 369008315.0 }, "geometry": { "type": "Point", "coordinates": [ 3222709.0, 5942122.0 ] } },
{ "type": "Feature", "properties": { "osmid": 1431789952.0 }, "geometry": { "type": "Point", "coordinates": [ 3222580.0, 5942691.0 ] } },
{ "type": "Feature", "properties": { "osmid": 365332384.0 }, "geometry": { "type": "Point", "coordinates": [ 3209651.0, 5950404.0 ] } },
{ "type": "Feature", "properties": { "osmid": 732011407.0 }, "geometry": { "type": "Point", "coordinates": [ 3217340.0, 5949958.0 ] } },
{ "type": "Feature", "properties": { "osmid": 365980316.0 }, "geometry": { "type": "Point", "coordinates": [ 3204078.0, 5947599.0 ] } },
{ "type": "Feature", "properties": { "osmid": 365960587.0 }, "geometry": { "type": "Point", "coordinates": [ 3203409.0, 5947205.0 ] } },
{ "type": "Feature", "properties": { "osmid": 365980330.0 }, "geometry": { "type": "Point", "coordinates": [ 3203569.0, 5947963.0 ] } },
{ "type": "Feature", "properties": { "osmid": 1010621493.0 }, "geometry": { "type": "Point", "coordinates": [ 3216471.0, 5951302.0 ] } },
{ "type": "Feature", "properties": { "osmid": 13532712273.0 }, "geometry": { "type": "Point", "coordinates": [ 3217513.0, 5951152.0 ] } },
{ "type": "Feature", "properties": { "osmid": 365960562.0 }, "geometry": { "type": "Point", "coordinates": [ 3202367.0, 5947455.0 ] } },
{ "type": "Feature", "properties": { "osmid": 7156950422.0 }, "geometry": { "type": "Point", "coordinates": [ 3216793.0, 5951784.0 ] } },
{ "type": "Feature", "properties": { "osmid": 365964843.0 }, "geometry": { "type": "Point", "coordinates": [ 3202052.0, 5948166.0 ] } },
{ "type": "Feature", "properties": { "osmid": 365964800.0 }, "geometry": { "type": "Point", "coordinates": [ 3201522.0, 5948759.0 ] } },
{ "type": "Feature", "properties": { "osmid": 11622799957.0 }, "geometry": { "type": "Point", "coordinates": [ 3224627.0, 5929770.0 ] } }
]
}
