{
"type": "FeatureCollection",
"name": "chisinau-grid",
"crs": { "type": "name", "properties": { "name": "urn:ogc:def:crs:EPSG::3857" } },
"features": [
{ "type": "Feature", "properties": { "osmid": 13712798812.0 }, "geometry": { "type": "Point", "coordinates": [ 3211695.0, 5938253.0 ] } },
{ "type": "Feature", "properties": { "osmid": 7563631074.0 }, "geometry": { "type": "Point", "coordinates": [ 3209279.0, 5947919.0 ] } },
{ "type": "Feature", "properties": { "osmid": 280704016.0 }, "geometry": { "type": "Point", "coordinates": [ 3215291.0, 5941864.0 ] } },
{ "type": "Feature", "properties": { "osmid": 6459632115.0 }, "geometry": { "type": "Point", "coordinates": [ 3209274.0, 5952756.0 ] } },
{ "type": "Feature", "properties": { "osmid": 11665307483.0 }, "geometry": { "type": "Point", "coordinates": [ 3217729.0, 5939441.0 ] } },
{ "type": "Feature", "properties": { "osmid": 12792078573.0 }, "geometry": { "type": "Point", "coordinates": [ 3211698.0, 5943064.0 ] } },
{ "type": "Feature", "properties": { "osmid": 8289706286.0 }, "geometry": { "type": "Point", "coordinates": [ 3205630.0, 5946688.0 ] } },
{ "type": "Feature", "properties": { "osmid": 9641593565.0 }, "geometry": { "type": "Point", "coordinates": [ 3215281.0, 5939467.0 ] } },
{ "type": "Feature", "properties": { "osmid": 1048601045.0 }, "geometry": { "type": "Point", "coordinates": [ 3220108.0, 5932221.0 ] } },
{ "type": "Feature", "properties": { "osmid": 5725803247.0 }, "geometry": { "type": "Point", "coordinates": [ 3210496.0, 5951516.0 ] } },
{ "type": "Feature", "properties": { "osmid": 8207192108.0 }, "geometry": { "type": "Point", "coordinates": [ 3212865.0, 5941874.0 ] } },
{ "type": "Feature", "properties": { "osmid": 559942619.0 }, "geometry": { "type": "Point", "coordinates": [ 3202020.0, 5950348.0 ] } },
{ "type": "Feature", "properties": { "osmid": 9188455201.0 }, "geometry": { "type": "Point", "coordinates": [ 3216488.0, 5938235.0 ] } },
{ "type": "Feature", "properties": { "osmid": 6459785956.0 }, "geometry": { "type": "Point", "coordinates": [ 3208064.0, 5953912.0 ] } },
{ "type": "Feature", "properties": { "osmid": 8652170665.0 }, "geometry": { "type": "Point", "coordinates": [ 3202050.0, 5952760.0 ] } },
{ "type": "Feature", "properties": { "osmid": 737279815.0 }, "geometry": { "type": "Point", "coordinates": [ 3220097.0, 5934646.0 ] } },
{ "type": "Feature", "properties": { "osmid": 322471889.0 }, "geometry": { "type": "Point", "coordinates": [ 3205662.0, 5944324.0 ] } },
{ "type": "Feature", "properties": { "osmid": 8796008867.0 }, "geometry": { "type": "Point", "coordinates": [ 3206879.0, 5950356.0 ] } },
{ "type": "Feature", "properties": { "osmid": 7294971121.0 }, "geometry": { "type": "Point", "coordinates": [ 3216546.0, 5940690.0 ] } },
{ "type": "Feature", "properties": { "osmid": 8848861162.0 }, "geometry": { "type": "Point", "coordinates": [ 3205605.0, 5949121.0 ] } },
{ "type": "Feature", "properties": { "osmid": 8652970815.0 }, "geometry": { "type": "Point", "coordinates": [ 3203242.0, 5951485.0 ] } },
{ "type": "Feature", "properties": { "osmid": 9184207019.0 }, "geometry": { "type": "Point", "coordinates": [ 3221308.0, 5933391.0 ] } },
{ "type": "Feature", "properties": { "osmid": 9641686523.0 }, "geometry": { "type": "Point", "coordinates": [ 3214142.0, 5945502.0 ] } },
{ "type": "Feature", "properties": { "osmid": 9217343074.0 }, "geometry": { "type": "Point", "coordinates": [ 3211638.0, 5952730.0 ] } },
{ "type": "Feature", "properties": { "osmid": 1045025576.0 }, "geometry": { "type": "Point", "coordinates": [ 3208061.0, 5941827.0 ] } },
{ "type": "Feature", "properties": { "osmid": 11068286346.0 }, "geometry": { "type": "Point", "coordinates": [ 3206875.0, 5952780.0 ] } },
{ "type": "Feature", "properties": { "osmid": 7849913220.0 }, "geometry": { "type": "Point", "coordinates": [ 3216493.0, 5935884.0 ] } },
{ "type": "Feature", "properties": { "osmid": 11652184660.0 }, "geometry": { "type": "Point", "coordinates": [ 3222504.0, 5932245.0 ] } },
{ "type": "Feature", "properties": { "osmid": 13677047245.0 }, "geometry": { "type": "Point", "coordinates": [ 3210498.0, 5939411.0 ] } },
{ "type": "Feature", "properties": { "osmid": 2558169614.0 }, "geometry": { "type": "Point", "coordinates": [ 3215334.0, 5946747.0 ] } },
{ "type": "Feature", "properties": { "osmid": 11656157364.0 }, "geometry": { "type": "Point", "coordinates": [ 3210437.0, 5944328.0 ] } },
{ "type": "Feature", "properties": { "osmid": 6799557915.0 }, "geometry": { "type": "Point", "coordinates": [ 3205687.0, 5951571.0 ] } },
{ "type": "Feature", "properties": { "osmid": 13698740022.0 }, "geometry": { "type": "Point", "coordinates": [ 3212912.0, 5951583.0 ] } },
{ "type": "Feature", "properties": { "osmid": 5763188889.0 }, "geometry": { "type": "Point", "coordinates": [ 3211676.0, 5947966.0 ] } },
{ "type": "Feature", "properties": { "osmid": 12338900120.0 }, "geometry": { "type": "Point", "coordinates": [ 3216570.0, 5950320.0 ] } },
{ "type": "Feature", "properties": { "osmid": 5754092146.0 }, "geometry": { "type": "Point", "coordinates": [ 3209295.0, 5943135.0 ] } },
{ "type": "Feature", "properties": { "osmid": 10696384635.0 }, "geometry": { "type": "Point", "coordinates": [ 3217761.0, 5941918.0 ] } },
{ "type": "Feature", "properties": { "osmid": 9641773429.0 }, "geometry": { "type": "Point", "coordinates": [ 3215316.0, 5944224.0 ] } },
{ "type": "Feature", "properties": { "osmid": 5708102346.0 }, "geometry": { "type": "Point", "coordinates": [ 3215283.0, 5949178.0 ] } },
{ "type": "Feature", "properties": { "osmid": 286731752.0 }, "geometry": { "type": "Point", "coordinates": [ 3214128.0, 5940729.0 ] } },
{ "type": "Feature", "properties": { "osmid": 12001606937.0 }, "geometry": { "type": "Point", "coordinates": [ 3207993.0, 5951540.0 ] } },
{ "type": "Feature", "properties": { "osmid": 9641689446.0 }, "geometry": { "type": "Point", "coordinates": [ 3212821.0, 5944312.0 ] } },
{ "type": "Feature", "properties": { "osmid": 8796179961.0 }, "geometry": { "type": "Point", "coordinates": [ 3204386.0, 5950271.0 ] } },
{ "type": "Feature", "properties": { "osmid": 10680681517.0 }, "geometry": { "type": "Point", "coordinates": [ 3216583.0, 5945455.0 ] } },
{ "type": "Feature", "properties": { "osmid": 943651196.0 }, "geometry": { "type": "Point", "coordinates": [ 3210487.0, 5941957.0 ] } },
{ "type": "Feature", "properties": { "osmid": 9322404488.0 }, "geometry": { "type": "Point", "coordinates": [ 3223815.0, 5930950.0 ] } },
{ "type": "Feature", "properties": { "osmid": 10047198697.0 }, "geometry": { "type": "Point", "coordinates": [ 3218932.0, 5935753.0 ] } },
{ "type": "Feature", "properties": { "osmid": 331197306.0 }, "geometry": { "type": "Point", "coordinates": [ 3208146.0, 5944260.0 ] } },
{ "type": "Feature", "properties": { "osmid": 2857621846.0 }, "geometry": { "type": "Point", "coordinates": [ 3211594.0, 5945501.0 ] } },
{ "type": "Feature", "properties": { "osmid": 734614104.0 }, "geometry": { "type": "Point", "coordinates": [ 3214126.0, 5947996.0 ] } },
{ "type": "Feature", "properties": { "osmid": 9191705060.0 }, "geometry": { "type": "Point", "coordinates": [ 3214162.0, 5943014.0 ] } },
{ "type": "Feature", "properties": { "osmid": 270796286.0 }, "geometry": { "type": "Point", "coordinates": [ 3211591.0, 5950304.0 ] } },
{ "type": "Feature", "properties": { "osmid": 9428940731.0 }, "geometry": { "type": "Point", "coordinates": [ 3204460.0, 5940760.0 ] } },
{ "type": "Feature", "properties": { "osmid": 697795707.0 }, "geometry": { "type": "Point", "coordinates": [ 3214194.0, 5952714.0 ] } },
{ "type": "Feature", "properties": { "osmid": 998489020.0 }, "geometry": { "type": "Point", "coordinates": [ 3209160.0, 5940683.0 ] } },
{ "type": "Feature", "properties": { "osmid": 11827329757.0 }, "geometry": { "type": "Point", "coordinates": [ 3206906.0, 5942975.0 ] } },
{ "type": "Feature", "properties": { "osmid": 11385319594.0 }, "geometry": { "type": "Point", "coordinates": [ 3219048.0, 5943121.0 ] } },
{ "type": "Feature", "properties": { "osmid": 11787157132.0 }, "geometry": { "type": "Point", "coordinates": [ 3216427.0, 5943179.0 ] } },
{ "type": "Feature", "properties": { "osmid": 7918505960.0 }, "geometry": { "type": "Point", "coordinates": [ 3203187.0, 5948988.0 ] } },
{ "type": "Feature", "properties": { "osmid": 610602528.0 }, "geometry": { "type": "Point", "coordinates": [ 3213950.0, 5950280.0 ] } },
{ "type": "Feature", "properties": { "osmid": 11676590997.0 }, "geometry": { "type": "Point", "coordinates": [ 3220201.0, 5941731.0 ] } },
{ "type": "Feature", "properties": { "osmid": 8908865393.0 }, "geometry": { "type": "Point", "coordinates": [ 3208200.0, 5949024.0 ] } },
{ "type": "Feature", "properties": { "osmid": 9976557419.0 }, "geometry": { "type": "Point", "coordinates": [ 3215172.0, 5936934.0 ] } },
{ "type": "Feature", "properties": { "osmid": 11676692141.0 }, "geometry": { "type": "Point", "coordinates": [ 3221312.0, 5943271.0 ] } },
{ "type": "Feature", "properties": { "osmid": 10703266767.0 }, "geometry": { "type": "Point", "coordinates": [ 3215413.0, 5951326.0 ] } },
{ "type": "Feature", "properties": { "osmid": 9217198821.0 }, "geometry": { "type": "Point", "coordinates": [ 3217490.0, 5946617.0 ] } },
{ "type": "Feature", "properties": { "osmid": 8379220519.0 }, "geometry": { "type": "Point", "coordinates": [ 3213108.0, 5946897.0 ] } },
{ "type": "Feature", "properties": { "osmid": 11411728431.0 }, "geometry": { "type": "Point", "coordinates": [ 3202977.0, 5953785.0 ] } },
{ "type": "Feature", "properties": { "osmid": 6917305346.0 }, "geometry": { "type": "Point", "coordinates": [ 3204586.0, 5942811.0 ] } },
{ "type": "Feature", "properties": { "osmid": 13543365267.0 }, "geometry": { "type": "Point", "coordinates": [ 3216765.0, 5952559.0 ] } },
{ "type": "Feature", "properties": { "osmid": 734568974.0 }, "geometry": { "type": "Point", "coordinates": [ 3220014.0, 5939749.0 ] } },
{ "type": "Feature", "properties": { "osmid": 8078247278.0 }, "geometry": { "type": "Point", "coordinates": [ 3218597.0, 5938223.0 ] } },
{ "type": "Feature", "properties": { "osmid": 10006316079.0 }, "geometry": { "type": "Point", "coordinates": [ 3217592.0, 5937376.0 ] } },
{ "type": "Feature", "properties": { "osmid": 5493207326.0 }, "geometry": { "type": "Point", "coordinates": [ 3221445.0, 5931377.0 ] } },
{ "type": "Feature", "properties": { "osmid": 7029962464.0 }, "geometry": { "type": "Point", "coordinates": [ 3218882.0, 5949940.0 ] } },
{ "type": "Feature", "properties": { "osmid": 9976557892.0 }, "geometry": { "type": "Point", "coordinates": [ 3214253.0, 5935450.0 ] } },
{ "type": "Feature", "properties": { "osmid": 12953169450.0 }, "geometry": { "type": "Point", "coordinates": [ 3215716.0, 5953812.0 ] } },
{ "type": "Feature", "properties": { "osmid": 5768356202.0 }, "geometry": { "type": "Point", "coordinates": [ 3212897.0, 5953487.0 ] } },
{ "type": "Feature", "properties": { "osmid": 8476956941.0 }, "geometry": { "type": "Point", "coordinates": [ 3203485.0, 5942270.0 ] } },
{ "type": "Feature", "properties": { "osmid": 317268848.0 }, "geometry": { "type": "Point", "coordinates": [ 3212428.0, 5939877.0 ] } },
{ "type": "Feature", "properties": { "osmid": 392001912.0 }, "geometry": { "type": "Point", "coordinates": [ 3212019.0, 5940282.0 ] } },
{ "type": "Feature", "properties": { "osmid": 317268856.0 }, "geometry": { "type": "Point", "coordinates": [ 3212886.0, 5939372.0 ] } },
{ "type": "Feature", "properties": { "osmid": 5734358938.0 }, "geometry": { "type": "Point", "coordinates": [ 3213342.0, 5939614.0 ] } },
{ "type": "Feature", "properties": { "osmid": 11845045827.0 }, "geometry": { "type": "Point", "coordinates": [ 3211475.0, 5940846.0 ] } },
{ "type": "Feature", "properties": { "osmid": 388415516.0 }, "geometry": { "type": "Point", "coordinates": [ 3212475.0, 5938344.0 ] } },
{ "type": "Feature", "properties": { "osmid": 13665680262.0 }, "geometry": { "type": "Point", "coordinates": [ 3213813.0, 5938424.0 ] } },
{ "type": "Feature", "properties": { "osmid": 737307035.0 }, "geometry": { "type": "Point", "coordinates": [ 3213130.0, 5937670.0 ] } },
{ "type": "Feature", "properties": { "osmid": 6475014530.0 }, "geometry": { "type": "Point", "coordinates": [ 3209931.0, 5939395.0 ] } },
{ "type": "Feature", "properties": { "osmid": 737307185.0 }, "geometry": { "type": "Point", "coordinates": [ 3212677.0, 5937309.0 ] } },
{ "type": "Feature", "properties": { "osmid": 286672653.0 }, "geometry": { "type": "Point", "coordinates": [ 3212150.0, 5937257.0 ] } },
{ "type": "Feature", "properties": { "osmid": 737307063.0 }, "geometry": { "type": "Point", "coordinates": [ 3213153.0, 5937055.0 ] } },
{ "type": "Feature", "properties": { "osmid": 6942393828.0 }, "geometry": { "type": "Point", "coordinates": [ 3212463.0, 5936780.0 ] } },
{ "type": "Feature", "properties": { "osmid": 286571045.0 }, "geometry": { "type": "Point", "coordinates": [ 3209216.0, 5940171.0 ] } },
{ "type": "Feature", "properties": { "osmid": 8301406711.0 }, "geometry": { "type": "Point", "coordinates": [ 3210698.0, 5943496.0 ] } },
{ "type": "Feature", "properties": { "osmid": 286502007.0 }, "geometry": { "type": "Point", "coordinates": [ 3208410.0, 5940192.0 ] } },
{ "type": "Feature", "properties": { "osmid": 9118714056.0 }, "geometry": { "type": "Point", "coordinates": [ 3211074.0, 5944046.0 ] } },
{ "type": "Feature", "properties": { "osmid": 570761460.0 }, "geometry": { "type": "Point", "coordinates": [ 3213214.0, 5935060.0 ] } },
{ "type": "Feature", "properties": { "osmid": 1297178814.0 }, "geometry": { "type": "Point", "coordinates": [ 3218126.0, 5940651.0 ] } },
{ "type": "Feature", "properties": { "osmid": 11760451149.0 }, "geometry": { "type": "Point", "coordinates": [ 3210216.0, 5945462.0 ] } },
{ "type": "Feature", "properties": { "osmid": 365974594.0 }, "geometry": { "type": "Point", "coordinates": [ 3206395.0, 5940646.0 ] } },
{ "type": "Feature", "properties": { "osmid": 9708504905.0 }, "geometry": { "type": "Point", "coordinates": [ 3218608.0, 5940801.0 ] } },
{ "type": "Feature", "properties": { "osmid": 12785753466.0 }, "geometry": { "type": "Point", "coordinates": [ 3209458.0, 5945594.0 ] } },
{ "type": "Feature", "properties": { "osmid": 286502185.0 }, "geometry": { "type": "Point", "coordinates": [ 3205994.0, 5941251.0 ] } },
{ "type": "Feature", "properties": { "osmid": 7986289496.0 }, "geometry": { "type": "Point", "coordinates": [ 3209805.0, 5945956.0 ] } },
{ "type": "Feature", "properties": { "osmid": 7146809158.0 }, "geometry": { "type": "Point", "coordinates": [ 3208128.0, 5945003.0 ] } },
{ "type": "Feature", "properties": { "osmid": 8467972168.0 }, "geometry": { "type": "Point", "coordinates": [ 3205623.0, 5941777.0 ] } },
{ "type": "Feature", "properties": { "osmid": 979846617.0 }, "geometry": { "type": "Point", "coordinates": [ 3205410.0, 5941227.0 ] } },
{ "type": "Feature", "properties": { "osmid": 7286208647.0 }, "geometry": { "type": "Point", "coordinates": [ 3210946.0, 5946906.0 ] } },
{ "type": "Feature", "properties": { "osmid": 13653718233.0 }, "geometry": { "type": "Point", "coordinates": [ 3209308.0, 5946417.0 ] } },
{ "type": "Feature", "properties": { "osmid": 7524602165.0 }, "geometry": { "type": "Point", "coordinates": [ 3207041.0, 5945260.0 ] } },
{ "type": "Feature", "properties": { "osmid": 8863683260.0 }, "geometry": { "type": "Point", "coordinates": [ 3211160.0, 5947483.0 ] } },
{ "type": "Feature", "properties": { "osmid": 979846055.0 }, "geometry": { "type": "Point", "coordinates": [ 3204839.0, 5941673.0 ] } },
{ "type": "Feature", "properties": { "osmid": 11717127239.0 }, "geometry": { "type": "Point", "coordinates": [ 3208684.0, 5946754.0 ] } },
{ "type": "Feature", "properties": { "osmid": 7578350792.0 }, "geometry": { "type": "Point", "coordinates": [ 3209543.0, 5947386.0 ] } },
{ "type": "Feature", "properties": { "osmid": 6765195286.0 }, "geometry": { "type": "Point", "coordinates": [ 3209964.0, 5947659.0 ] } },
{ "type": "Feature", "properties": { "osmid": 12825548921.0 }, "geometry": { "type": "Point", "coordinates": [ 3207898.0, 5947141.0 ] } },
{ "type": "Feature", "properties": { "osmid": 639867754.0 }, "geometry": { "type": "Point", "coordinates": [ 3213295.0, 5948457.0 ] } },
{ "type": "Feature", "properties": { "osmid": 5702344621.0 }, "geometry": { "type": "Point", "coordinates": [ 3217133.0, 5947630.0 ] } },
{ "type": "Feature", "properties": { "osmid": 9230992959.0 }, "geometry": { "type": "Point", "coordinates": [ 3216388.0, 5948077.0 ] } },
{ "type": "Feature", "properties": { "osmid": 639867914.0 }, "geometry": { "type": "Point", "coordinates": [ 3213124.0, 5948967.0 ] } },
{ "type": "Feature", "properties": { "osmid": 738745199.0 }, "geometry": { "type": "Point", "coordinates": [ 3203294.0, 5939293.0 ] } },
{ "type": "Feature", "properties": { "osmid": 737279838.0 }, "geometry": { "type": "Point", "coordinates": [ 3219592.0, 5934077.0 ] } },
{ "type": "Feature", "properties": { "osmid": 676296043.0 }, "geometry": { "type": "Point", "coordinates": [ 3212695.0, 5949277.0 ] } },
{ "type": "Feature", "properties": { "osmid": 6673697291.0 }, "geometry": { "type": "Point", "coordinates": [ 3221112.0, 5943742.0 ] } },
{ "type": "Feature", "properties": { "osmid": 5702357176.0 }, "geometry": { "type": "Point", "coordinates": [ 3217467.0, 5948021.0 ] } },
{ "type": "Feature", "properties": { "osmid": 5663696562.0 }, "geometry": { "type": "Point", "coordinates": [ 3216768.0, 5948415.0 ] } },
{ "type": "Feature", "properties": { "osmid": 13695008271.0 }, "geometry": { "type": "Point", "coordinates": [ 3213356.0, 5949426.0 ] } },
{ "type": "Feature", "properties": { "osmid": 365369214.0 }, "geometry": { "type": "Point", "coordinates": [ 3204639.0, 5945525.0 ] } },
{ "type": "Feature", "properties": { "osmid": 8406344369.0 }, "geometry": { "type": "Point", "coordinates": [ 3220089.0, 5933966.0 ] } },
{ "type": "Feature", "properties": { "osmid": 369008296.0 }, "geometry": { "type": "Point", "coordinates": [ 3221963.0, 5941833.0 ] } },
{ "type": "Feature", "properties": { "osmid": 365332407.0 }, "geometry": { "type": "Point", "coordinates": [ 3210213.0, 5949434.0 ] } },
{ "type": "Feature", "properties": { "osmid": 13361343885.0 }, "geometry": { "type": "Point", "coordinates": [ 3212959.0, 5949760.0 ] } },
{ "type": "Feature", "properties": { "osmid": 369011993.0 }, "geometry": { "type": "Point", "coordinates": [ 3221827.0, 5943099.0 ] } },
{ "type": "Feature", "properties": { "osmid": 8756146654.0 }, "geometry": { "type": "Point", "coordinates": [ 3206454.0, 5947859.0 ] } },
{ "type": "Feature", "properties": { "osmid": 11385236185.0 }, "geometry": { "type": "Point", "coordinates": [ 3222201.0, 5942288.0 ] } },
{ "type": "Feature", "properties": { "osmid": 598433563.0 }, "geometry": { "type": "Point", "coordinates": [ 3217628.0, 5948659.0 ] } },
{ "type": "Feature", "properties": { "osmid": 365292413.0 }, "geometry": { "type": "Point", "coordinates": [ 3209830.0, 5949900.0 ] } },
{ "type": "Feature", "properties": { "osmid": 294021477.0 }, "geometry": { "type": "Point", "coordinates": [ 3218126.0, 5948570.0 ] } },
{ "type": "Feature", "properties": { "osmid": 369008315.0 }, "geometry": { "type": "Point", "coordinates": [ 3222709.0, 5942122.0 ] } },
{ "type": "Feature", "properties": { "osmid": 1431789952.0 }, "geometry": { "type": "Point", "coordinates": [ 3222580.0, 5942691.0 ] } },
{ "type": "Feature", "properties": { "osmid": 365332384.0 }, "geometry": { "type": "Point", "coordinates": [ 3209651.0, 5950404.0 ] } },
{ "type": "Feature", "properties": { "osmid": 732011407.0 }, "geometry": { "type": "Point", "coordinates": [ 3217340.0, 5949958.0 ] } },
{ "type": "Feature", "properties": { "osmid": 365980316.0 }, "geometry": { "type": "Point", "coordinates": [ 3204078.0, 5947599.0 ] } },
{ "type": "Feature", "properties": { "osmid": 365960587.0 }, "geometry": { "type": "Point", "coordinates": [ 3203409.0, 5947205.0 ] } },
{ "type": "Feature", "properties": { "osmid": 365980330.0 }, "geometry": { "type": "Point", "coordinates": [ 3203569.0, 5947963.0 ] } },
{ "type": "Feature", "properties": { "osmid": 1010621493.0 }, "geometry": { "type": "Point", "coordinates": [ 3216471.0, 5951302.0 ] } },
{ "type": "Feature", "properties": { "osmid": 13532712273.0 }, "geometry": { "type": "Point", "coordinates": [ 3217513.0, 5951152.0 ] } },
{ "type": "Feature", "properties": { "osmid": 365960562.0 }, "geometry": { "type": "Point", "coordinates": [ 3202367.0, 5947455.0 ] } },
{ "type": "Feature", "properties": { "osmid": 7156950422.0 }, "geometry": { "type": "Point", "coordinates": [ 3216793.0, 5951784.0 ] } },
{ "type": "Feature", "properties": { "osmid": 365964843.0 }, "geometry": { "type": "Point", "coordinates": [ 3202052.0, 5948166.0 ] } },
{ "type": "Feature", "properties": { "osmid": 365964800.0 }, "geometry": { "type": "Point", "coordinates": [ 3201522.0, 5948759.0 ] } },
{ "type": "Feature", "properties": { "osmid": 11622799957.0 }, "geometry": { "type": "Point", "coordinates": [ 3224627.0, 5929770.0 ] } }
]
}
