{
"type": "FeatureCollection",
"name": "chisinau-random-rail",
"crs": { "type": "name", "properties": { "name": "urn:ogc:def:crs:EPSG::3857" } },
"features": [
{ "type": "Feature", "properties": { "source": 3709913404, "target": 6835886656, "ordering_random": 0, "length": 13018, "length_cumulative": 13018 }, "geometry": { "type": "LineString", "coordinates": [ [ 3210633.0, 5948620.0 ], [ 3210650.0, 5948609.0 ], [ 3210672.0, 5948594.0 ], [ 3210695.0, 5948558.0 ], [ 3210715.0, 5948555.0 ], [ 3210725.0, 5948544.0 ], [ 3210738.0, 5948557.0 ], [ 3210763.0, 5948581.0 ], [ 3210784.0, 5948603.0 ], [ 3210806.0, 5948630.0 ], [ 3210812.0, 5948637.0 ], [ 3210827.0, 5948651.0 ], [ 3210849.0, 5948677.0 ], [ 3210851.0, 5948684.0 ], [ 3210857.0, 5948681.0 ], [ 3210860.0, 5948679.0 ], [ 3210864.0, 5948673.0 ], [ 3210871.0, 5948659.0 ], [ 3210880.0, 5948642.0 ], [ 3210890.0, 5948620.0 ], [ 3210898.0, 5948596.0 ], [ 3210914.0, 5948546.0 ], [ 3210917.0, 5948537.0 ], [ 3210935.0, 5948537.0 ], [ 3210947.0, 5948498.0 ], [ 3210948.0, 5948491.0 ], [ 3210956.0, 5948467.0 ], [ 3210987.0, 5948356.0 ], [ 3210991.0, 5948340.0 ], [ 3211033.0, 5948206.0 ], [ 3211048.0, 5948166.0 ], [ 3211068.0, 5948119.0 ], [ 3211107.0, 5948038.0 ], [ 3211139.0, 5947990.0 ], [ 3211164.0, 5947953.0 ], [ 3211189.0, 5947922.0 ], [ 3211215.0, 5947891.0 ], [ 3211264.0, 5947856.0 ], [ 3211374.0, 5947754.0 ], [ 3211387.0, 5947743.0 ], [ 3211414.0, 5947720.0 ], [ 3211445.0, 5947694.0 ], [ 3211467.0, 5947673.0 ], [ 3211475.0, 5947657.0 ], [ 3211479.0, 5947655.0 ], [ 3211561.0, 5947597.0 ], [ 3211604.0, 5947568.0 ], [ 3211659.0, 5947532.0 ], [ 3211802.0, 5947438.0 ], [ 3211833.0, 5947415.0 ], [ 3211861.0, 5947397.0 ], [ 3211877.0, 5947386.0 ], [ 3211943.0, 5947334.0 ], [ 3211975.0, 5947304.0 ], [ 3212006.0, 5947275.0 ], [ 3212075.0, 5947204.0 ], [ 3212108.0, 5947167.0 ], [ 3212161.0, 5947104.0 ], [ 3212240.0, 5946992.0 ], [ 3212243.0, 5946987.0 ], [ 3212292.0, 5946910.0 ], [ 3212319.0, 5946867.0 ], [ 3212343.0, 5946831.0 ], [ 3212411.0, 5946726.0 ], [ 3212419.0, 5946713.0 ], [ 3212443.0, 5946675.0 ], [ 3212480.0, 5946619.0 ], [ 3212498.0, 5946588.0 ], [ 3212520.0, 5946555.0 ], [ 3212542.0, 5946521.0 ], [ 3212545.0, 5946516.0 ], [ 3212619.0, 5946419.0 ], [ 3212658.0, 5946366.0 ], [ 3212729.0, 5946265.0 ], [ 3212751.0, 5946235.0 ], [ 3212790.0, 5946181.0 ], [ 3212796.0, 5946172.0 ], [ 3212805.0, 5946160.0 ], [ 3212837.0, 5946115.0 ], [ 3212868.0, 5946065.0 ], [ 3212904.0, 5946011.0 ], [ 3212923.0, 5945980.0 ], [ 3212986.0, 5945878.0 ], [ 3212987.0, 5945877.0 ], [ 3213005.0, 5945837.0 ], [ 3213007.0, 5945831.0 ], [ 3213008.0, 5945814.0 ], [ 3213007.0, 5945803.0 ], [ 3213006.0, 5945792.0 ], [ 3213001.0, 5945776.0 ], [ 3212990.0, 5945750.0 ], [ 3212937.0, 5945690.0 ], [ 3212926.0, 5945679.0 ], [ 3212918.0, 5945670.0 ], [ 3212893.0, 5945651.0 ], [ 3212890.0, 5945648.0 ], [ 3212884.0, 5945625.0 ], [ 3212884.0, 5945614.0 ], [ 3212886.0, 5945602.0 ], [ 3212890.0, 5945591.0 ], [ 3212901.0, 5945566.0 ], [ 3212905.0, 5945560.0 ], [ 3212940.0, 5945509.0 ], [ 3212983.0, 5945448.0 ], [ 3213034.0, 5945379.0 ], [ 3213144.0, 5945223.0 ], [ 3213190.0, 5945161.0 ], [ 3213214.0, 5945131.0 ], [ 3213261.0, 5945063.0 ], [ 3213372.0, 5944907.0 ], [ 3213439.0, 5944814.0 ], [ 3213523.0, 5944694.0 ], [ 3213604.0, 5944579.0 ], [ 3213670.0, 5944486.0 ], [ 3213696.0, 5944450.0 ], [ 3213721.0, 5944414.0 ], [ 3213920.0, 5944133.0 ], [ 3214053.0, 5943941.0 ], [ 3214219.0, 5943694.0 ], [ 3214252.0, 5943616.0 ], [ 3214256.0, 5943607.0 ], [ 3214262.0, 5943598.0 ], [ 3214297.0, 5943554.0 ], [ 3214326.0, 5943517.0 ], [ 3214330.0, 5943509.0 ], [ 3214405.0, 5943366.0 ], [ 3214420.0, 5943336.0 ], [ 3214509.0, 5943161.0 ], [ 3214564.0, 5943054.0 ], [ 3214620.0, 5942954.0 ], [ 3214666.0, 5942877.0 ], [ 3214739.0, 5942768.0 ], [ 3214817.0, 5942658.0 ], [ 3214928.0, 5942506.0 ], [ 3214967.0, 5942466.0 ], [ 3214996.0, 5942431.0 ], [ 3215028.0, 5942385.0 ], [ 3215075.0, 5942318.0 ], [ 3215099.0, 5942284.0 ], [ 3215286.0, 5942029.0 ], [ 3215367.0, 5941919.0 ], [ 3215491.0, 5941749.0 ], [ 3215605.0, 5941579.0 ], [ 3215638.0, 5941537.0 ], [ 3215672.0, 5941500.0 ], [ 3215717.0, 5941455.0 ], [ 3215760.0, 5941418.0 ], [ 3215815.0, 5941371.0 ], [ 3215854.0, 5941337.0 ], [ 3215940.0, 5941263.0 ], [ 3215962.0, 5941244.0 ], [ 3215973.0, 5941234.0 ], [ 3216039.0, 5941177.0 ], [ 3216241.0, 5941003.0 ], [ 3216264.0, 5940982.0 ], [ 3216288.0, 5940959.0 ], [ 3216339.0, 5940909.0 ], [ 3216403.0, 5940847.0 ], [ 3216426.0, 5940824.0 ], [ 3216479.0, 5940788.0 ], [ 3216581.0, 5940687.0 ], [ 3216610.0, 5940659.0 ], [ 3216633.0, 5940624.0 ], [ 3216698.0, 5940555.0 ], [ 3216772.0, 5940483.0 ], [ 3216869.0, 5940389.0 ], [ 3216914.0, 5940346.0 ], [ 3217192.0, 5940078.0 ], [ 3217261.0, 5940023.0 ], [ 3217295.0, 5939990.0 ], [ 3217335.0, 5939951.0 ], [ 3217374.0, 5939913.0 ], [ 3217411.0, 5939877.0 ], [ 3217470.0, 5939805.0 ], [ 3217518.0, 5939739.0 ], [ 3217563.0, 5939664.0 ], [ 3217584.0, 5939632.0 ], [ 3217607.0, 5939601.0 ], [ 3217619.0, 5939585.0 ], [ 3217813.0, 5939383.0 ], [ 3217818.0, 5939373.0 ], [ 3217820.0, 5939365.0 ], [ 3217822.0, 5939356.0 ], [ 3217822.0, 5939347.0 ], [ 3217823.0, 5939340.0 ], [ 3217823.0, 5939333.0 ], [ 3217822.0, 5939324.0 ], [ 3217819.0, 5939317.0 ], [ 3217814.0, 5939310.0 ], [ 3217808.0, 5939303.0 ], [ 3217800.0, 5939297.0 ], [ 3217792.0, 5939294.0 ], [ 3217782.0, 5939292.0 ], [ 3217788.0, 5939282.0 ], [ 3217793.0, 5939275.0 ], [ 3217801.0, 5939268.0 ], [ 3217824.0, 5939252.0 ], [ 3217840.0, 5939239.0 ], [ 3217876.0, 5939211.0 ], [ 3217899.0, 5939192.0 ], [ 3217919.0, 5939170.0 ], [ 3217938.0, 5939145.0 ], [ 3218025.0, 5939023.0 ], [ 3218198.0, 5938778.0 ] ] } },
{ "type": "Feature", "properties": { "source": 2329454627, "target": 3709913404, "ordering_random": 1, "length": 5919, "length_cumulative": 18938 }, "geometry": { "type": "LineString", "coordinates": [ [ 3213772.0, 5942773.0 ], [ 3213860.0, 5942652.0 ], [ 3213909.0, 5942550.0 ], [ 3213912.0, 5942536.0 ], [ 3213910.0, 5942520.0 ], [ 3213887.0, 5942488.0 ], [ 3213846.0, 5942472.0 ], [ 3213817.0, 5942460.0 ], [ 3213791.0, 5942447.0 ], [ 3213834.0, 5942372.0 ], [ 3213867.0, 5942313.0 ], [ 3213872.0, 5942305.0 ], [ 3213900.0, 5942257.0 ], [ 3213918.0, 5942229.0 ], [ 3213933.0, 5942205.0 ], [ 3213969.0, 5942150.0 ], [ 3213993.0, 5942118.0 ], [ 3214020.0, 5942081.0 ], [ 3214053.0, 5942038.0 ], [ 3214075.0, 5942012.0 ], [ 3214097.0, 5941987.0 ], [ 3214123.0, 5941959.0 ], [ 3214140.0, 5941939.0 ], [ 3214196.0, 5941876.0 ], [ 3214242.0, 5941822.0 ], [ 3214281.0, 5941769.0 ], [ 3214330.0, 5941702.0 ], [ 3214342.0, 5941686.0 ], [ 3214352.0, 5941671.0 ], [ 3214388.0, 5941624.0 ], [ 3214404.0, 5941601.0 ], [ 3214491.0, 5941484.0 ], [ 3214634.0, 5941292.0 ], [ 3214729.0, 5941164.0 ], [ 3214762.0, 5941124.0 ], [ 3214812.0, 5941071.0 ], [ 3214852.0, 5941034.0 ], [ 3214857.0, 5941029.0 ], [ 3214904.0, 5940987.0 ], [ 3214920.0, 5940974.0 ], [ 3214959.0, 5940941.0 ], [ 3214999.0, 5940909.0 ], [ 3215022.0, 5940890.0 ], [ 3215061.0, 5940858.0 ], [ 3215068.0, 5940852.0 ], [ 3215123.0, 5940808.0 ], [ 3215130.0, 5940802.0 ], [ 3215154.0, 5940781.0 ], [ 3215162.0, 5940774.0 ], [ 3215170.0, 5940765.0 ], [ 3215200.0, 5940722.0 ], [ 3215233.0, 5940674.0 ], [ 3215268.0, 5940620.0 ], [ 3215302.0, 5940571.0 ], [ 3215314.0, 5940582.0 ], [ 3215320.0, 5940586.0 ], [ 3215324.0, 5940579.0 ], [ 3215353.0, 5940541.0 ], [ 3215386.0, 5940567.0 ], [ 3215388.0, 5940568.0 ], [ 3215390.0, 5940568.0 ], [ 3215391.0, 5940568.0 ], [ 3215393.0, 5940567.0 ], [ 3215483.0, 5940501.0 ], [ 3215489.0, 5940508.0 ], [ 3215494.0, 5940511.0 ], [ 3215499.0, 5940511.0 ], [ 3215510.0, 5940509.0 ], [ 3215524.0, 5940501.0 ], [ 3215606.0, 5940453.0 ], [ 3215754.0, 5940365.0 ], [ 3215761.0, 5940361.0 ], [ 3215864.0, 5940300.0 ], [ 3216114.0, 5940153.0 ], [ 3216190.0, 5940110.0 ], [ 3216280.0, 5940058.0 ], [ 3216293.0, 5940050.0 ], [ 3216341.0, 5940024.0 ], [ 3216354.0, 5940046.0 ], [ 3216362.0, 5940050.0 ], [ 3216374.0, 5940055.0 ], [ 3216389.0, 5940060.0 ], [ 3216407.0, 5940065.0 ], [ 3216423.0, 5940071.0 ], [ 3216441.0, 5940078.0 ], [ 3216452.0, 5940084.0 ], [ 3216461.0, 5940090.0 ], [ 3216475.0, 5940098.0 ], [ 3216483.0, 5940100.0 ], [ 3216489.0, 5940102.0 ], [ 3216494.0, 5940105.0 ], [ 3216500.0, 5940109.0 ], [ 3216502.0, 5940111.0 ], [ 3216510.0, 5940117.0 ], [ 3216521.0, 5940123.0 ], [ 3216533.0, 5940125.0 ], [ 3216539.0, 5940125.0 ], [ 3216547.0, 5940126.0 ], [ 3216718.0, 5940025.0 ], [ 3216929.0, 5939896.0 ], [ 3216984.0, 5939863.0 ], [ 3216987.0, 5939861.0 ], [ 3217016.0, 5939844.0 ], [ 3217054.0, 5939821.0 ], [ 3217079.0, 5939804.0 ], [ 3217104.0, 5939785.0 ], [ 3217140.0, 5939758.0 ], [ 3217233.0, 5939681.0 ], [ 3217244.0, 5939672.0 ], [ 3217251.0, 5939672.0 ], [ 3217257.0, 5939671.0 ], [ 3217263.0, 5939668.0 ], [ 3217277.0, 5939657.0 ], [ 3217295.0, 5939642.0 ], [ 3217304.0, 5939636.0 ], [ 3217310.0, 5939635.0 ], [ 3217316.0, 5939636.0 ], [ 3217321.0, 5939641.0 ], [ 3217327.0, 5939650.0 ], [ 3217334.0, 5939658.0 ], [ 3217346.0, 5939666.0 ], [ 3217360.0, 5939671.0 ], [ 3217411.0, 5939692.0 ], [ 3217439.0, 5939705.0 ], [ 3217453.0, 5939676.0 ], [ 3217481.0, 5939652.0 ], [ 3217509.0, 5939629.0 ], [ 3217537.0, 5939608.0 ], [ 3217608.0, 5939557.0 ], [ 3217639.0, 5939532.0 ], [ 3217660.0, 5939511.0 ], [ 3217679.0, 5939493.0 ], [ 3217729.0, 5939441.0 ], [ 3217799.0, 5939369.0 ], [ 3217812.0, 5939357.0 ], [ 3217822.0, 5939347.0 ] ] } },
{ "type": "Feature", "properties": { "source": 7289796227, "target": 3709913404, "ordering_random": 2, "length": 510, "length_cumulative": 19449 }, "geometry": { "type": "LineString", "coordinates": [ [ 3217836.0, 5938747.0 ], [ 3217849.0, 5938754.0 ], [ 3217852.0, 5938756.0 ], [ 3217856.0, 5938758.0 ], [ 3217863.0, 5938762.0 ], [ 3217872.0, 5938767.0 ], [ 3217878.0, 5938772.0 ], [ 3217888.0, 5938778.0 ], [ 3217892.0, 5938781.0 ], [ 3217894.0, 5938782.0 ], [ 3217899.0, 5938786.0 ], [ 3217900.0, 5938787.0 ], [ 3217902.0, 5938788.0 ], [ 3217905.0, 5938792.0 ], [ 3217906.0, 5938792.0 ], [ 3217907.0, 5938793.0 ], [ 3217911.0, 5938796.0 ], [ 3217912.0, 5938797.0 ], [ 3217915.0, 5938798.0 ], [ 3217917.0, 5938798.0 ], [ 3217920.0, 5938798.0 ], [ 3217926.0, 5938797.0 ], [ 3217933.0, 5938795.0 ], [ 3217943.0, 5938793.0 ], [ 3217961.0, 5938786.0 ], [ 3217969.0, 5938783.0 ], [ 3217974.0, 5938780.0 ], [ 3217978.0, 5938778.0 ], [ 3217983.0, 5938774.0 ], [ 3217987.0, 5938769.0 ], [ 3217990.0, 5938764.0 ], [ 3218006.0, 5938736.0 ], [ 3218055.0, 5938646.0 ], [ 3218060.0, 5938650.0 ], [ 3218068.0, 5938655.0 ], [ 3218076.0, 5938664.0 ], [ 3218079.0, 5938668.0 ], [ 3218083.0, 5938672.0 ], [ 3218110.0, 5938692.0 ], [ 3218141.0, 5938713.0 ], [ 3218171.0, 5938739.0 ], [ 3218177.0, 5938745.0 ], [ 3218181.0, 5938751.0 ], [ 3218198.0, 5938778.0 ] ] } },
{ "type": "Feature", "properties": { "source": 8659419713, "target": 665797371, "ordering_random": 3, "length": 14112, "length_cumulative": 33561 }, "geometry": { "type": "LineString", "coordinates": [ [ 3203286.0, 5952546.0 ], [ 3203283.0, 5952472.0 ], [ 3203281.0, 5952445.0 ], [ 3203256.0, 5952437.0 ], [ 3203203.0, 5952404.0 ], [ 3203198.0, 5952401.0 ], [ 3203191.0, 5952397.0 ], [ 3203188.0, 5952396.0 ], [ 3203175.0, 5952397.0 ], [ 3203169.0, 5952400.0 ], [ 3203163.0, 5952403.0 ], [ 3203128.0, 5952419.0 ], [ 3203128.0, 5952406.0 ], [ 3203136.0, 5952353.0 ], [ 3203143.0, 5952323.0 ], [ 3203150.0, 5952301.0 ], [ 3203163.0, 5952277.0 ], [ 3203181.0, 5952246.0 ], [ 3203211.0, 5952212.0 ], [ 3203224.0, 5952199.0 ], [ 3203243.0, 5952176.0 ], [ 3203249.0, 5952169.0 ], [ 3203261.0, 5952150.0 ], [ 3203270.0, 5952122.0 ], [ 3203278.0, 5952079.0 ], [ 3203286.0, 5951990.0 ], [ 3203294.0, 5951857.0 ], [ 3203300.0, 5951760.0 ], [ 3203303.0, 5951671.0 ], [ 3203310.0, 5951641.0 ], [ 3203311.0, 5951616.0 ], [ 3203311.0, 5951586.0 ], [ 3203300.0, 5951524.0 ], [ 3203304.0, 5951516.0 ], [ 3203308.0, 5951509.0 ], [ 3203313.0, 5951498.0 ], [ 3203316.0, 5951491.0 ], [ 3203364.0, 5951465.0 ], [ 3203369.0, 5951462.0 ], [ 3203381.0, 5951452.0 ], [ 3203386.0, 5951448.0 ], [ 3203390.0, 5951444.0 ], [ 3203457.0, 5951374.0 ], [ 3203517.0, 5951275.0 ], [ 3203703.0, 5951012.0 ], [ 3203762.0, 5950942.0 ], [ 3203773.0, 5950926.0 ], [ 3203779.0, 5950910.0 ], [ 3203779.0, 5950900.0 ], [ 3203820.0, 5950870.0 ], [ 3203823.0, 5950868.0 ], [ 3203834.0, 5950855.0 ], [ 3203983.0, 5950734.0 ], [ 3204072.0, 5950665.0 ], [ 3204075.0, 5950660.0 ], [ 3204078.0, 5950656.0 ], [ 3204178.0, 5950596.0 ], [ 3204188.0, 5950590.0 ], [ 3204195.0, 5950588.0 ], [ 3204195.0, 5950532.0 ], [ 3204195.0, 5950435.0 ], [ 3204194.0, 5950410.0 ], [ 3204194.0, 5950392.0 ], [ 3204194.0, 5950359.0 ], [ 3204194.0, 5950340.0 ], [ 3204195.0, 5950276.0 ], [ 3204196.0, 5950202.0 ], [ 3204196.0, 5950053.0 ], [ 3204196.0, 5950038.0 ], [ 3204196.0, 5950028.0 ], [ 3204197.0, 5949962.0 ], [ 3204197.0, 5949943.0 ], [ 3204197.0, 5949931.0 ], [ 3204198.0, 5949866.0 ], [ 3204198.0, 5949831.0 ], [ 3204198.0, 5949814.0 ], [ 3204202.0, 5949810.0 ], [ 3204211.0, 5949810.0 ], [ 3204218.0, 5949809.0 ], [ 3204231.0, 5949784.0 ], [ 3204274.0, 5949686.0 ], [ 3204295.0, 5949649.0 ], [ 3204303.0, 5949637.0 ], [ 3204309.0, 5949630.0 ], [ 3204356.0, 5949587.0 ], [ 3204367.0, 5949569.0 ], [ 3204396.0, 5949541.0 ], [ 3204450.0, 5949505.0 ], [ 3204461.0, 5949498.0 ], [ 3204479.0, 5949487.0 ], [ 3204489.0, 5949482.0 ], [ 3204513.0, 5949452.0 ], [ 3204593.0, 5949417.0 ], [ 3204734.0, 5949357.0 ], [ 3204839.0, 5949313.0 ], [ 3204923.0, 5949277.0 ], [ 3205074.0, 5949212.0 ], [ 3205082.0, 5949209.0 ], [ 3205101.0, 5949201.0 ], [ 3205156.0, 5949177.0 ], [ 3205210.0, 5949155.0 ], [ 3205228.0, 5949146.0 ], [ 3205273.0, 5949125.0 ], [ 3205306.0, 5949106.0 ], [ 3205309.0, 5949103.0 ], [ 3205346.0, 5949083.0 ], [ 3205381.0, 5949064.0 ], [ 3205382.0, 5949063.0 ], [ 3205392.0, 5949060.0 ], [ 3205405.0, 5949054.0 ], [ 3205415.0, 5949048.0 ], [ 3205494.0, 5949001.0 ], [ 3205540.0, 5948973.0 ], [ 3205544.0, 5948971.0 ], [ 3205551.0, 5948967.0 ], [ 3205558.0, 5948963.0 ], [ 3205585.0, 5948946.0 ], [ 3205630.0, 5948918.0 ], [ 3205632.0, 5948917.0 ], [ 3205659.0, 5948901.0 ], [ 3205664.0, 5948899.0 ], [ 3205674.0, 5948893.0 ], [ 3205681.0, 5948889.0 ], [ 3205766.0, 5948838.0 ], [ 3205832.0, 5948799.0 ], [ 3205875.0, 5948773.0 ], [ 3205879.0, 5948771.0 ], [ 3205881.0, 5948770.0 ], [ 3205947.0, 5948730.0 ], [ 3206011.0, 5948691.0 ], [ 3206026.0, 5948681.0 ], [ 3206052.0, 5948666.0 ], [ 3206074.0, 5948653.0 ], [ 3206084.0, 5948647.0 ], [ 3206096.0, 5948639.0 ], [ 3206124.0, 5948624.0 ], [ 3206137.0, 5948615.0 ], [ 3206203.0, 5948575.0 ], [ 3206269.0, 5948534.0 ], [ 3206274.0, 5948532.0 ], [ 3206279.0, 5948529.0 ], [ 3206289.0, 5948522.0 ], [ 3206350.0, 5948485.0 ], [ 3206352.0, 5948483.0 ], [ 3206363.0, 5948477.0 ], [ 3206384.0, 5948464.0 ], [ 3206402.0, 5948453.0 ], [ 3206409.0, 5948448.0 ], [ 3206450.0, 5948426.0 ], [ 3206466.0, 5948418.0 ], [ 3206475.0, 5948413.0 ], [ 3206477.0, 5948412.0 ], [ 3206518.0, 5948403.0 ], [ 3206655.0, 5948379.0 ], [ 3206663.0, 5948375.0 ], [ 3206717.0, 5948366.0 ], [ 3206721.0, 5948365.0 ], [ 3206761.0, 5948361.0 ], [ 3206781.0, 5948359.0 ], [ 3206792.0, 5948357.0 ], [ 3206801.0, 5948356.0 ], [ 3206812.0, 5948355.0 ], [ 3206836.0, 5948352.0 ], [ 3206845.0, 5948351.0 ], [ 3206852.0, 5948345.0 ], [ 3206861.0, 5948321.0 ], [ 3206914.0, 5948315.0 ], [ 3206988.0, 5948305.0 ], [ 3206992.0, 5948304.0 ], [ 3207112.0, 5948288.0 ], [ 3207148.0, 5948283.0 ], [ 3207193.0, 5948271.0 ], [ 3207222.0, 5948264.0 ], [ 3207315.0, 5948250.0 ], [ 3207331.0, 5948247.0 ], [ 3207345.0, 5948242.0 ], [ 3207358.0, 5948235.0 ], [ 3207371.0, 5948229.0 ], [ 3207385.0, 5948222.0 ], [ 3207398.0, 5948215.0 ], [ 3207417.0, 5948207.0 ], [ 3207430.0, 5948206.0 ], [ 3207447.0, 5948197.0 ], [ 3207464.0, 5948186.0 ], [ 3207480.0, 5948173.0 ], [ 3207500.0, 5948157.0 ], [ 3207510.0, 5948149.0 ], [ 3207567.0, 5948093.0 ], [ 3207571.0, 5948089.0 ], [ 3207617.0, 5948044.0 ], [ 3207637.0, 5948024.0 ], [ 3207779.0, 5947885.0 ], [ 3207912.0, 5947755.0 ], [ 3207923.0, 5947745.0 ], [ 3207937.0, 5947732.0 ], [ 3207992.0, 5947679.0 ], [ 3208023.0, 5947651.0 ], [ 3208049.0, 5947625.0 ], [ 3208075.0, 5947602.0 ], [ 3208101.0, 5947575.0 ], [ 3208133.0, 5947544.0 ], [ 3208136.0, 5947540.0 ], [ 3208194.0, 5947483.0 ], [ 3208202.0, 5947476.0 ], [ 3208256.0, 5947422.0 ], [ 3208321.0, 5947359.0 ], [ 3208348.0, 5947332.0 ], [ 3208360.0, 5947320.0 ], [ 3208373.0, 5947307.0 ], [ 3208443.0, 5947239.0 ], [ 3208520.0, 5947163.0 ], [ 3208570.0, 5947114.0 ], [ 3208583.0, 5947101.0 ], [ 3208596.0, 5947088.0 ], [ 3208667.0, 5947019.0 ], [ 3208689.0, 5946997.0 ], [ 3208753.0, 5946934.0 ], [ 3208794.0, 5946894.0 ], [ 3208797.0, 5946892.0 ], [ 3208809.0, 5946880.0 ], [ 3208821.0, 5946869.0 ], [ 3208824.0, 5946866.0 ], [ 3208875.0, 5946816.0 ], [ 3208968.0, 5946724.0 ], [ 3208978.0, 5946714.0 ], [ 3208991.0, 5946701.0 ], [ 3209085.0, 5946610.0 ], [ 3209123.0, 5946572.0 ], [ 3209135.0, 5946561.0 ], [ 3209146.0, 5946550.0 ], [ 3209179.0, 5946518.0 ], [ 3209258.0, 5946440.0 ], [ 3209277.0, 5946421.0 ], [ 3209279.0, 5946420.0 ], [ 3209289.0, 5946410.0 ], [ 3209315.0, 5946384.0 ], [ 3209369.0, 5946331.0 ], [ 3209412.0, 5946287.0 ], [ 3209417.0, 5946282.0 ], [ 3209450.0, 5946249.0 ], [ 3209466.0, 5946233.0 ], [ 3209505.0, 5946195.0 ], [ 3209743.0, 5945961.0 ], [ 3209757.0, 5945948.0 ], [ 3209770.0, 5945935.0 ], [ 3209797.0, 5945908.0 ], [ 3209801.0, 5945904.0 ], [ 3209865.0, 5945841.0 ], [ 3209927.0, 5945779.0 ], [ 3209937.0, 5945769.0 ], [ 3209940.0, 5945767.0 ], [ 3209997.0, 5945711.0 ], [ 3210031.0, 5945678.0 ], [ 3210069.0, 5945641.0 ], [ 3210082.0, 5945629.0 ], [ 3210091.0, 5945620.0 ], [ 3210094.0, 5945617.0 ], [ 3210225.0, 5945487.0 ], [ 3210238.0, 5945474.0 ], [ 3210254.0, 5945459.0 ], [ 3210338.0, 5945376.0 ], [ 3210387.0, 5945329.0 ], [ 3210397.0, 5945319.0 ], [ 3210410.0, 5945306.0 ], [ 3210436.0, 5945281.0 ], [ 3210474.0, 5945244.0 ], [ 3210614.0, 5945105.0 ], [ 3210622.0, 5945097.0 ], [ 3210691.0, 5945030.0 ], [ 3210831.0, 5944893.0 ], [ 3210845.0, 5944880.0 ], [ 3210861.0, 5944864.0 ], [ 3210899.0, 5944827.0 ], [ 3210920.0, 5944807.0 ], [ 3210934.0, 5944793.0 ], [ 3210963.0, 5944764.0 ], [ 3210986.0, 5944742.0 ], [ 3211016.0, 5944712.0 ], [ 3211077.0, 5944652.0 ], [ 3211218.0, 5944514.0 ], [ 3211289.0, 5944443.0 ], [ 3211297.0, 5944435.0 ], [ 3211318.0, 5944416.0 ], [ 3211339.0, 5944397.0 ], [ 3211354.0, 5944384.0 ], [ 3211366.0, 5944373.0 ], [ 3211378.0, 5944364.0 ], [ 3211400.0, 5944348.0 ], [ 3211417.0, 5944338.0 ], [ 3211427.0, 5944332.0 ], [ 3211435.0, 5944327.0 ], [ 3211446.0, 5944321.0 ], [ 3211459.0, 5944314.0 ], [ 3211478.0, 5944307.0 ], [ 3211426.0, 5944251.0 ], [ 3211438.0, 5944239.0 ], [ 3211502.0, 5944302.0 ], [ 3211523.0, 5944302.0 ], [ 3211576.0, 5944301.0 ], [ 3211616.0, 5944300.0 ], [ 3211625.0, 5944300.0 ], [ 3211710.0, 5944298.0 ], [ 3211797.0, 5944297.0 ], [ 3211804.0, 5944297.0 ], [ 3211864.0, 5944295.0 ], [ 3211940.0, 5944293.0 ], [ 3211981.0, 5944293.0 ], [ 3211995.0, 5944292.0 ], [ 3212004.0, 5944292.0 ], [ 3212038.0, 5944284.0 ], [ 3212054.0, 5944282.0 ], [ 3212072.0, 5944279.0 ], [ 3212088.0, 5944276.0 ], [ 3212105.0, 5944272.0 ], [ 3212111.0, 5944261.0 ], [ 3212119.0, 5944248.0 ], [ 3212125.0, 5944239.0 ], [ 3212138.0, 5944226.0 ], [ 3212151.0, 5944214.0 ], [ 3212157.0, 5944219.0 ], [ 3212161.0, 5944223.0 ], [ 3212165.0, 5944226.0 ], [ 3212170.0, 5944228.0 ], [ 3212175.0, 5944229.0 ], [ 3212182.0, 5944231.0 ], [ 3212190.0, 5944233.0 ], [ 3212207.0, 5944236.0 ], [ 3212223.0, 5944215.0 ], [ 3212339.0, 5944302.0 ], [ 3212441.0, 5944377.0 ], [ 3212454.0, 5944388.0 ], [ 3212473.0, 5944360.0 ], [ 3212597.0, 5944214.0 ] ] } },
{ "type": "Feature", "properties": { "source": 7289796227, "target": 2329454627, "ordering_random": 4, "length": 3495, "length_cumulative": 37057 }, "geometry": { "type": "LineString", "coordinates": [ [ 3215302.0, 5940571.0 ], [ 3215320.0, 5940544.0 ], [ 3215327.0, 5940532.0 ], [ 3215333.0, 5940523.0 ], [ 3215352.0, 5940495.0 ], [ 3215372.0, 5940465.0 ], [ 3215403.0, 5940420.0 ], [ 3215422.0, 5940393.0 ], [ 3215455.0, 5940343.0 ], [ 3215469.0, 5940326.0 ], [ 3215478.0, 5940315.0 ], [ 3215498.0, 5940297.0 ], [ 3215504.0, 5940293.0 ], [ 3215524.0, 5940279.0 ], [ 3215601.0, 5940239.0 ], [ 3215609.0, 5940235.0 ], [ 3215621.0, 5940228.0 ], [ 3215630.0, 5940222.0 ], [ 3215635.0, 5940219.0 ], [ 3215647.0, 5940209.0 ], [ 3215660.0, 5940198.0 ], [ 3215694.0, 5940163.0 ], [ 3215727.0, 5940127.0 ], [ 3215746.0, 5940104.0 ], [ 3215825.0, 5940019.0 ], [ 3215937.0, 5939901.0 ], [ 3215967.0, 5939876.0 ], [ 3215985.0, 5939861.0 ], [ 3216012.0, 5939840.0 ], [ 3216029.0, 5939827.0 ], [ 3216134.0, 5939766.0 ], [ 3216154.0, 5939755.0 ], [ 3216214.0, 5939720.0 ], [ 3216285.0, 5939679.0 ], [ 3216350.0, 5939642.0 ], [ 3216379.0, 5939626.0 ], [ 3216402.0, 5939613.0 ], [ 3216428.0, 5939598.0 ], [ 3216456.0, 5939580.0 ], [ 3216490.0, 5939555.0 ], [ 3216533.0, 5939521.0 ], [ 3216558.0, 5939502.0 ], [ 3216575.0, 5939486.0 ], [ 3216590.0, 5939469.0 ], [ 3216613.0, 5939444.0 ], [ 3216748.0, 5939284.0 ], [ 3216763.0, 5939266.0 ], [ 3216773.0, 5939254.0 ], [ 3216787.0, 5939239.0 ], [ 3216814.0, 5939208.0 ], [ 3216857.0, 5939158.0 ], [ 3216894.0, 5939119.0 ], [ 3216932.0, 5939082.0 ], [ 3216979.0, 5939040.0 ], [ 3216985.0, 5939035.0 ], [ 3217027.0, 5939015.0 ], [ 3217048.0, 5939004.0 ], [ 3217152.0, 5938929.0 ], [ 3217161.0, 5938923.0 ], [ 3217179.0, 5938909.0 ], [ 3217212.0, 5938885.0 ], [ 3217264.0, 5938848.0 ], [ 3217275.0, 5938840.0 ], [ 3217291.0, 5938828.0 ], [ 3217301.0, 5938820.0 ], [ 3217337.0, 5938790.0 ], [ 3217367.0, 5938766.0 ], [ 3217385.0, 5938754.0 ], [ 3217405.0, 5938739.0 ], [ 3217423.0, 5938720.0 ], [ 3217457.0, 5938699.0 ], [ 3217462.0, 5938697.0 ], [ 3217532.0, 5938649.0 ], [ 3217539.0, 5938644.0 ], [ 3217541.0, 5938643.0 ], [ 3217558.0, 5938631.0 ], [ 3217578.0, 5938618.0 ], [ 3217603.0, 5938600.0 ], [ 3217604.0, 5938599.0 ], [ 3217637.0, 5938575.0 ], [ 3217703.0, 5938522.0 ], [ 3217710.0, 5938517.0 ], [ 3217714.0, 5938522.0 ], [ 3217719.0, 5938527.0 ], [ 3217721.0, 5938530.0 ], [ 3217747.0, 5938559.0 ], [ 3217759.0, 5938573.0 ], [ 3217780.0, 5938595.0 ], [ 3217818.0, 5938636.0 ], [ 3217822.0, 5938644.0 ], [ 3217824.0, 5938651.0 ], [ 3217825.0, 5938661.0 ], [ 3217824.0, 5938663.0 ], [ 3217827.0, 5938664.0 ], [ 3217829.0, 5938665.0 ], [ 3217832.0, 5938667.0 ], [ 3217839.0, 5938673.0 ], [ 3217849.0, 5938683.0 ], [ 3217851.0, 5938687.0 ], [ 3217853.0, 5938692.0 ], [ 3217853.0, 5938695.0 ], [ 3217852.0, 5938702.0 ], [ 3217855.0, 5938704.0 ], [ 3217858.0, 5938707.0 ], [ 3217836.0, 5938747.0 ] ] } },
{ "type": "Feature", "properties": { "source": 2329454627, "target": 6835886656, "ordering_random": 5, "length": 7461, "length_cumulative": 44518 }, "geometry": { "type": "MultiLineString", "coordinates": [ [ [ 3213791.0, 5942447.0 ], [ 3213768.0, 5942482.0 ], [ 3213735.0, 5942534.0 ], [ 3213673.0, 5942636.0 ], [ 3213626.0, 5942714.0 ], [ 3213619.0, 5942725.0 ], [ 3213609.0, 5942742.0 ], [ 3213596.0, 5942764.0 ], [ 3213572.0, 5942804.0 ], [ 3213557.0, 5942830.0 ], [ 3213524.0, 5942886.0 ], [ 3213502.0, 5942924.0 ], [ 3213470.0, 5942978.0 ], [ 3213395.0, 5943107.0 ], [ 3213345.0, 5943174.0 ], [ 3213305.0, 5943233.0 ], [ 3213265.0, 5943289.0 ], [ 3213253.0, 5943305.0 ], [ 3213244.0, 5943316.0 ], [ 3213234.0, 5943326.0 ], [ 3213219.0, 5943342.0 ], [ 3213166.0, 5943395.0 ], [ 3213140.0, 5943422.0 ], [ 3213118.0, 5943444.0 ], [ 3213082.0, 5943478.0 ], [ 3213058.0, 5943501.0 ], [ 3213032.0, 5943523.0 ], [ 3213007.0, 5943542.0 ], [ 3212981.0, 5943561.0 ], [ 3212969.0, 5943569.0 ], [ 3212951.0, 5943580.0 ], [ 3212929.0, 5943594.0 ], [ 3212911.0, 5943604.0 ], [ 3212905.0, 5943608.0 ], [ 3212896.0, 5943616.0 ], [ 3212885.0, 5943624.0 ], [ 3212857.0, 5943639.0 ], [ 3212803.0, 5943669.0 ], [ 3212780.0, 5943683.0 ], [ 3212772.0, 5943687.0 ], [ 3212775.0, 5943692.0 ], [ 3212779.0, 5943698.0 ], [ 3212776.0, 5943700.0 ], [ 3212750.0, 5943713.0 ], [ 3212744.0, 5943716.0 ], [ 3212738.0, 5943719.0 ], [ 3212714.0, 5943731.0 ], [ 3212657.0, 5943781.0 ], [ 3212508.0, 5943928.0 ], [ 3212515.0, 5943935.0 ], [ 3212504.0, 5943946.0 ], [ 3212499.0, 5943950.0 ], [ 3212494.0, 5943955.0 ], [ 3212481.0, 5943967.0 ], [ 3212462.0, 5943985.0 ], [ 3212454.0, 5943993.0 ], [ 3212439.0, 5944008.0 ], [ 3212424.0, 5944023.0 ], [ 3212423.0, 5944024.0 ], [ 3212418.0, 5944028.0 ], [ 3212413.0, 5944033.0 ], [ 3212405.0, 5944041.0 ], [ 3212400.0, 5944036.0 ], [ 3212248.0, 5944178.0 ], [ 3212223.0, 5944215.0 ] ], [ [ 3212207.0, 5944236.0 ], [ 3212195.0, 5944254.0 ], [ 3212191.0, 5944272.0 ], [ 3212191.0, 5944289.0 ], [ 3212198.0, 5944311.0 ], [ 3212224.0, 5944344.0 ], [ 3212265.0, 5944387.0 ], [ 3212274.0, 5944404.0 ], [ 3212277.0, 5944421.0 ], [ 3212279.0, 5944430.0 ], [ 3212302.0, 5944456.0 ], [ 3212317.0, 5944488.0 ], [ 3212323.0, 5944498.0 ], [ 3212329.0, 5944509.0 ], [ 3212334.0, 5944522.0 ], [ 3212337.0, 5944532.0 ], [ 3212338.0, 5944541.0 ], [ 3212339.0, 5944552.0 ], [ 3212337.0, 5944565.0 ], [ 3212326.0, 5944600.0 ], [ 3212320.0, 5944619.0 ], [ 3212295.0, 5944697.0 ], [ 3212277.0, 5944754.0 ], [ 3212269.0, 5944777.0 ], [ 3212259.0, 5944805.0 ], [ 3212239.0, 5944876.0 ], [ 3212230.0, 5944923.0 ], [ 3212224.0, 5944962.0 ], [ 3212222.0, 5944995.0 ], [ 3212222.0, 5945029.0 ], [ 3212223.0, 5945063.0 ], [ 3212227.0, 5945118.0 ], [ 3212236.0, 5945284.0 ], [ 3212237.0, 5945337.0 ], [ 3212229.0, 5945408.0 ], [ 3212225.0, 5945431.0 ], [ 3212216.0, 5945473.0 ], [ 3212206.0, 5945519.0 ], [ 3212202.0, 5945541.0 ], [ 3212194.0, 5945578.0 ], [ 3212189.0, 5945599.0 ], [ 3212168.0, 5945685.0 ], [ 3212160.0, 5945706.0 ], [ 3212151.0, 5945720.0 ], [ 3212140.0, 5945735.0 ], [ 3212127.0, 5945750.0 ], [ 3212078.0, 5945799.0 ], [ 3212063.0, 5945824.0 ], [ 3212014.0, 5945933.0 ], [ 3211897.0, 5946233.0 ], [ 3211867.0, 5946348.0 ], [ 3211863.0, 5946378.0 ], [ 3211854.0, 5946465.0 ], [ 3211852.0, 5946484.0 ], [ 3211844.0, 5946544.0 ], [ 3211839.0, 5946584.0 ], [ 3211805.0, 5946737.0 ], [ 3211794.0, 5946785.0 ], [ 3211774.0, 5946854.0 ], [ 3211767.0, 5946876.0 ], [ 3211753.0, 5946916.0 ], [ 3211747.0, 5946928.0 ], [ 3211724.0, 5946980.0 ], [ 3211701.0, 5947020.0 ], [ 3211675.0, 5947060.0 ], [ 3211653.0, 5947089.0 ], [ 3211622.0, 5947128.0 ], [ 3211601.0, 5947151.0 ], [ 3211590.0, 5947162.0 ], [ 3211567.0, 5947186.0 ], [ 3211512.0, 5947234.0 ], [ 3211438.0, 5947300.0 ], [ 3211419.0, 5947316.0 ], [ 3211366.0, 5947362.0 ], [ 3211320.0, 5947406.0 ], [ 3211300.0, 5947428.0 ], [ 3211279.0, 5947452.0 ], [ 3211157.0, 5947591.0 ], [ 3211129.0, 5947619.0 ], [ 3211107.0, 5947639.0 ], [ 3211073.0, 5947672.0 ], [ 3210993.0, 5947736.0 ], [ 3210872.0, 5947837.0 ], [ 3210861.0, 5947847.0 ], [ 3210844.0, 5947864.0 ], [ 3210698.0, 5948013.0 ], [ 3210687.0, 5948025.0 ], [ 3210620.0, 5948093.0 ], [ 3210611.0, 5948101.0 ], [ 3210608.0, 5948104.0 ], [ 3210556.0, 5948155.0 ], [ 3210563.0, 5948181.0 ], [ 3210589.0, 5948231.0 ], [ 3210596.0, 5948245.0 ], [ 3210616.0, 5948283.0 ], [ 3210678.0, 5948395.0 ], [ 3210735.0, 5948502.0 ], [ 3210730.0, 5948517.0 ], [ 3210721.0, 5948530.0 ], [ 3210695.0, 5948558.0 ] ] ] } },
{ "type": "Feature", "properties": { "source": 8659419713, "target": 6835886656, "ordering_random": 6, "length": 9180, "length_cumulative": 53698 }, "geometry": { "type": "LineString", "coordinates": [ [ 3210633.0, 5948620.0 ], [ 3210518.0, 5948692.0 ], [ 3210415.0, 5948755.0 ], [ 3210403.0, 5948757.0 ], [ 3210390.0, 5948754.0 ], [ 3210380.0, 5948748.0 ], [ 3210351.0, 5948661.0 ], [ 3210239.0, 5948703.0 ], [ 3210241.0, 5948710.0 ], [ 3210239.0, 5948711.0 ], [ 3210188.0, 5948730.0 ], [ 3210153.0, 5948743.0 ], [ 3210143.0, 5948751.0 ], [ 3210137.0, 5948748.0 ], [ 3210133.0, 5948745.0 ], [ 3210128.0, 5948737.0 ], [ 3210123.0, 5948725.0 ], [ 3210110.0, 5948737.0 ], [ 3210098.0, 5948744.0 ], [ 3210083.0, 5948753.0 ], [ 3210067.0, 5948759.0 ], [ 3210053.0, 5948763.0 ], [ 3210037.0, 5948767.0 ], [ 3210033.0, 5948767.0 ], [ 3210028.0, 5948768.0 ], [ 3210019.0, 5948770.0 ], [ 3209985.0, 5948776.0 ], [ 3209945.0, 5948784.0 ], [ 3209928.0, 5948788.0 ], [ 3209910.0, 5948790.0 ], [ 3209895.0, 5948794.0 ], [ 3209877.0, 5948800.0 ], [ 3209866.0, 5948803.0 ], [ 3209854.0, 5948806.0 ], [ 3209792.0, 5948819.0 ], [ 3209784.0, 5948821.0 ], [ 3209768.0, 5948823.0 ], [ 3209682.0, 5948837.0 ], [ 3209632.0, 5948845.0 ], [ 3209572.0, 5948856.0 ], [ 3209556.0, 5948858.0 ], [ 3209542.0, 5948862.0 ], [ 3209527.0, 5948867.0 ], [ 3209471.0, 5948892.0 ], [ 3209446.0, 5948904.0 ], [ 3209404.0, 5948927.0 ], [ 3209318.0, 5948972.0 ], [ 3209272.0, 5948997.0 ], [ 3209216.0, 5949034.0 ], [ 3209199.0, 5949048.0 ], [ 3209186.0, 5949061.0 ], [ 3209185.0, 5949071.0 ], [ 3209183.0, 5949086.0 ], [ 3209182.0, 5949089.0 ], [ 3209181.0, 5949094.0 ], [ 3209176.0, 5949104.0 ], [ 3209173.0, 5949106.0 ], [ 3209174.0, 5949119.0 ], [ 3209175.0, 5949124.0 ], [ 3209176.0, 5949129.0 ], [ 3209174.0, 5949138.0 ], [ 3209167.0, 5949144.0 ], [ 3209130.0, 5949177.0 ], [ 3209078.0, 5949226.0 ], [ 3209047.0, 5949258.0 ], [ 3208993.0, 5949313.0 ], [ 3208948.0, 5949354.0 ], [ 3208887.0, 5949414.0 ], [ 3208792.0, 5949505.0 ], [ 3208737.0, 5949557.0 ], [ 3208704.0, 5949587.0 ], [ 3208606.0, 5949681.0 ], [ 3208537.0, 5949746.0 ], [ 3208466.0, 5949812.0 ], [ 3208421.0, 5949856.0 ], [ 3208354.0, 5949918.0 ], [ 3208293.0, 5949976.0 ], [ 3208232.0, 5950034.0 ], [ 3208160.0, 5950103.0 ], [ 3208089.0, 5950169.0 ], [ 3208041.0, 5950214.0 ], [ 3208020.0, 5950231.0 ], [ 3207974.0, 5950269.0 ], [ 3207923.0, 5950306.0 ], [ 3207865.0, 5950342.0 ], [ 3207797.0, 5950380.0 ], [ 3207750.0, 5950403.0 ], [ 3207673.0, 5950435.0 ], [ 3207613.0, 5950457.0 ], [ 3207527.0, 5950487.0 ], [ 3207407.0, 5950526.0 ], [ 3207255.0, 5950574.0 ], [ 3207203.0, 5950590.0 ], [ 3207126.0, 5950611.0 ], [ 3207031.0, 5950633.0 ], [ 3206971.0, 5950644.0 ], [ 3206845.0, 5950660.0 ], [ 3206748.0, 5950670.0 ], [ 3206683.0, 5950676.0 ], [ 3206650.0, 5950679.0 ], [ 3206492.0, 5950695.0 ], [ 3206477.0, 5950696.0 ], [ 3206451.0, 5950699.0 ], [ 3206272.0, 5950717.0 ], [ 3206127.0, 5950730.0 ], [ 3206044.0, 5950738.0 ], [ 3205874.0, 5950755.0 ], [ 3205697.0, 5950773.0 ], [ 3205501.0, 5950793.0 ], [ 3205414.0, 5950801.0 ], [ 3205257.0, 5950815.0 ], [ 3205126.0, 5950828.0 ], [ 3204995.0, 5950840.0 ], [ 3204857.0, 5950855.0 ], [ 3204692.0, 5950870.0 ], [ 3204547.0, 5950885.0 ], [ 3204416.0, 5950897.0 ], [ 3204311.0, 5950908.0 ], [ 3204258.0, 5950916.0 ], [ 3204244.0, 5950920.0 ], [ 3204203.0, 5950929.0 ], [ 3204163.0, 5950941.0 ], [ 3204112.0, 5950960.0 ], [ 3204075.0, 5950976.0 ], [ 3204030.0, 5950996.0 ], [ 3204011.0, 5951008.0 ], [ 3203979.0, 5951031.0 ], [ 3203903.0, 5951087.0 ], [ 3203853.0, 5951124.0 ], [ 3203793.0, 5951169.0 ], [ 3203752.0, 5951202.0 ], [ 3203711.0, 5951236.0 ], [ 3203676.0, 5951270.0 ], [ 3203657.0, 5951291.0 ], [ 3203623.0, 5951330.0 ], [ 3203580.0, 5951385.0 ], [ 3203555.0, 5951424.0 ], [ 3203548.0, 5951434.0 ], [ 3203520.0, 5951485.0 ], [ 3203502.0, 5951519.0 ], [ 3203483.0, 5951562.0 ], [ 3203467.0, 5951603.0 ], [ 3203454.0, 5951645.0 ], [ 3203444.0, 5951674.0 ], [ 3203434.0, 5951721.0 ], [ 3203423.0, 5951775.0 ], [ 3203411.0, 5951840.0 ], [ 3203399.0, 5951913.0 ], [ 3203391.0, 5951959.0 ], [ 3203376.0, 5952040.0 ], [ 3203373.0, 5952051.0 ], [ 3203361.0, 5952062.0 ], [ 3203353.0, 5952073.0 ], [ 3203349.0, 5952108.0 ], [ 3203341.0, 5952151.0 ], [ 3203332.0, 5952191.0 ], [ 3203322.0, 5952226.0 ], [ 3203319.0, 5952254.0 ], [ 3203315.0, 5952264.0 ], [ 3203308.0, 5952267.0 ], [ 3203298.0, 5952268.0 ], [ 3203281.0, 5952270.0 ], [ 3203275.0, 5952273.0 ], [ 3203270.0, 5952277.0 ], [ 3203262.0, 5952289.0 ], [ 3203250.0, 5952311.0 ], [ 3203235.0, 5952330.0 ], [ 3203213.0, 5952347.0 ], [ 3203180.0, 5952376.0 ], [ 3203169.0, 5952388.0 ], [ 3203169.0, 5952400.0 ] ] } },
{ "type": "Feature", "properties": { "source": 6835886656, "target": 665797371, "ordering_random": 7, "length": 126, "length_cumulative": 53825 }, "geometry": { "type": "LineString", "coordinates": [ [ 3212274.0, 5944404.0 ], [ 3212272.0, 5944391.0 ], [ 3212272.0, 5944385.0 ], [ 3212275.0, 5944378.0 ], [ 3212281.0, 5944370.0 ], [ 3212298.0, 5944355.0 ], [ 3212310.0, 5944342.0 ], [ 3212339.0, 5944302.0 ] ] } },
{ "type": "Feature", "properties": { "source": 2329454627, "target": 11652340376, "ordering_random": 8, "length": 5818, "length_cumulative": 59644 }, "geometry": { "type": "LineString", "coordinates": [ [ 3217710.0, 5938517.0 ], [ 3217817.0, 5938433.0 ], [ 3217863.0, 5938397.0 ], [ 3217925.0, 5938348.0 ], [ 3217962.0, 5938317.0 ], [ 3217983.0, 5938293.0 ], [ 3218001.0, 5938268.0 ], [ 3218469.0, 5937414.0 ], [ 3218617.0, 5937145.0 ], [ 3218676.0, 5937038.0 ], [ 3218685.0, 5937021.0 ], [ 3218701.0, 5936992.0 ], [ 3218709.0, 5936977.0 ], [ 3218717.0, 5936963.0 ], [ 3218775.0, 5936857.0 ], [ 3218802.0, 5936813.0 ], [ 3218819.0, 5936783.0 ], [ 3218866.0, 5936719.0 ], [ 3218981.0, 5936568.0 ], [ 3219011.0, 5936529.0 ], [ 3219048.0, 5936483.0 ], [ 3219053.0, 5936477.0 ], [ 3219103.0, 5936418.0 ], [ 3219116.0, 5936402.0 ], [ 3219136.0, 5936378.0 ], [ 3219153.0, 5936357.0 ], [ 3219166.0, 5936342.0 ], [ 3219180.0, 5936325.0 ], [ 3219209.0, 5936293.0 ], [ 3219227.0, 5936272.0 ], [ 3219231.0, 5936268.0 ], [ 3219240.0, 5936259.0 ], [ 3219258.0, 5936238.0 ], [ 3219273.0, 5936223.0 ], [ 3219291.0, 5936205.0 ], [ 3219313.0, 5936183.0 ], [ 3219326.0, 5936170.0 ], [ 3219367.0, 5936130.0 ], [ 3219376.0, 5936121.0 ], [ 3219391.0, 5936106.0 ], [ 3219392.0, 5936105.0 ], [ 3219407.0, 5936090.0 ], [ 3219416.0, 5936080.0 ], [ 3219426.0, 5936071.0 ], [ 3219431.0, 5936065.0 ], [ 3219447.0, 5936046.0 ], [ 3219455.0, 5936037.0 ], [ 3219473.0, 5936016.0 ], [ 3219492.0, 5935987.0 ], [ 3219505.0, 5935967.0 ], [ 3219527.0, 5935929.0 ], [ 3219555.0, 5935877.0 ], [ 3219587.0, 5935814.0 ], [ 3219602.0, 5935786.0 ], [ 3219645.0, 5935701.0 ], [ 3219678.0, 5935637.0 ], [ 3219702.0, 5935592.0 ], [ 3219751.0, 5935496.0 ], [ 3219797.0, 5935409.0 ], [ 3219807.0, 5935391.0 ], [ 3219812.0, 5935382.0 ], [ 3219822.0, 5935363.0 ], [ 3219823.0, 5935361.0 ], [ 3219838.0, 5935332.0 ], [ 3219857.0, 5935294.0 ], [ 3219870.0, 5935268.0 ], [ 3219873.0, 5935262.0 ], [ 3219881.0, 5935245.0 ], [ 3219919.0, 5935170.0 ], [ 3219938.0, 5935136.0 ], [ 3219963.0, 5935088.0 ], [ 3219976.0, 5935063.0 ], [ 3219991.0, 5935037.0 ], [ 3220000.0, 5935019.0 ], [ 3220021.0, 5934982.0 ], [ 3220035.0, 5934954.0 ], [ 3220054.0, 5934916.0 ], [ 3220068.0, 5934891.0 ], [ 3220080.0, 5934867.0 ], [ 3220102.0, 5934821.0 ], [ 3220108.0, 5934810.0 ], [ 3220120.0, 5934788.0 ], [ 3220132.0, 5934765.0 ], [ 3220164.0, 5934702.0 ], [ 3220230.0, 5934575.0 ], [ 3220273.0, 5934492.0 ], [ 3220282.0, 5934475.0 ], [ 3220293.0, 5934453.0 ], [ 3220294.0, 5934452.0 ], [ 3220315.0, 5934412.0 ], [ 3220360.0, 5934326.0 ], [ 3220392.0, 5934263.0 ], [ 3220418.0, 5934214.0 ], [ 3220454.0, 5934144.0 ], [ 3220466.0, 5934120.0 ], [ 3220484.0, 5934086.0 ], [ 3220578.0, 5933904.0 ], [ 3220633.0, 5933797.0 ], [ 3220663.0, 5933740.0 ], [ 3220681.0, 5933745.0 ], [ 3220699.0, 5933753.0 ], [ 3220709.0, 5933750.0 ], [ 3220730.0, 5933752.0 ], [ 3220747.0, 5933752.0 ], [ 3220775.0, 5933735.0 ], [ 3220791.0, 5933734.0 ], [ 3220799.0, 5933734.0 ], [ 3220798.0, 5933751.0 ] ] } },
{ "type": "Feature", "properties": { "source": 3709913404, "target": 11652340376, "ordering_random": 9, "length": 142, "length_cumulative": 59786 }, "geometry": { "type": "LineString", "coordinates": [ [ 3217714.0, 5938522.0 ], [ 3217769.0, 5938478.0 ], [ 3217797.0, 5938456.0 ], [ 3217821.0, 5938437.0 ], [ 3217817.0, 5938433.0 ] ] } },
{ "type": "Feature", "properties": { "source": 8659419713, "target": 11652340376, "ordering_random": 10, "length": 821, "length_cumulative": 60607 }, "geometry": { "type": "LineString", "coordinates": [ [ 3212151.0, 5944214.0 ], [ 3212158.0, 5944207.0 ], [ 3212194.0, 5944172.0 ], [ 3212251.0, 5944126.0 ], [ 3212364.0, 5944018.0 ], [ 3212490.0, 5943899.0 ], [ 3212494.0, 5943894.0 ], [ 3212519.0, 5943871.0 ], [ 3212544.0, 5943846.0 ], [ 3212564.0, 5943836.0 ], [ 3212614.0, 5943786.0 ], [ 3212630.0, 5943771.0 ], [ 3212646.0, 5943755.0 ], [ 3212662.0, 5943741.0 ], [ 3212688.0, 5943720.0 ], [ 3212701.0, 5943718.0 ], [ 3212713.0, 5943715.0 ], [ 3212724.0, 5943711.0 ], [ 3212736.0, 5943706.0 ], [ 3212772.0, 5943687.0 ] ] } },
{ "type": "Feature", "properties": { "source": 2329454627, "target": 665797371, "ordering_random": 11, "length": 675, "length_cumulative": 61283 }, "geometry": { "type": "LineString", "coordinates": [ [ 3212744.0, 5943716.0 ], [ 3212772.0, 5943748.0 ], [ 3212777.0, 5943752.0 ], [ 3212836.0, 5943806.0 ], [ 3212854.0, 5943822.0 ], [ 3212887.0, 5943852.0 ], [ 3212888.0, 5943854.0 ], [ 3212889.0, 5943856.0 ], [ 3212889.0, 5943858.0 ], [ 3212887.0, 5943860.0 ], [ 3212850.0, 5943903.0 ], [ 3212828.0, 5943928.0 ], [ 3212698.0, 5944082.0 ], [ 3212704.0, 5944088.0 ], [ 3212706.0, 5944089.0 ], [ 3212650.0, 5944153.0 ], [ 3212597.0, 5944214.0 ] ] } }
]
}
