{
"type": "FeatureCollection",
"name": "helsinki-rail",
"crs": { "type": "name", "properties": { "name": "urn:ogc:def:crs:EPSG::3857" } },
"features": [
{ "type": "Feature", "properties": { "osmid": 13102707750 }, "geometry": { "type": "Point", "coordinates": [ 2775387.0, 8445787.0 ] } },
{ "type": "Feature", "properties": { "osmid": 7681347013 }, "geometry": { "type": "Point", "coordinates": [ 2773592.0, 8436169.0 ] } },
{ "type": "Feature", "properties": { "osmid": 2039705882 }, "geometry": { "type": "Point", "coordinates": [ 2776299.0, 8437774.0 ] } },
{ "type": "Feature", "properties": { "osmid": 10639757058 }, "geometry": { "type": "Point", "coordinates": [ 2775192.0, 8452024.0 ] } },
{ "type": "Feature", "properties": { "osmid": 331982339 }, "geometry": { "type": "Point", "coordinates": [ 2769488.0, 8435336.0 ] } },
{ "type": "Feature", "properties": { "osmid": 12618371527 }, "geometry": { "type": "Point", "coordinates": [ 2780419.0, 8441591.0 ] } },
{ "type": "Feature", "properties": { "osmid": 292551079 }, "geometry": { "type": "Point", "coordinates": [ 2777254.0, 8438301.0 ] } },
{ "type": "Feature", "properties": { "osmid": 281031093 }, "geometry": { "type": "Point", "coordinates": [ 2782292.0, 8453858.0 ] } },
{ "type": "Feature", "properties": { "osmid": 664811175 }, "geometry": { "type": "Point", "coordinates": [ 2791597.0, 8446652.0 ] } },
{ "type": "Feature", "properties": { "osmid": 4574649463 }, "geometry": { "type": "Point", "coordinates": [ 2770014.0, 8451196.0 ] } },
{ "type": "Feature", "properties": { "osmid": 6286272536 }, "geometry": { "type": "Point", "coordinates": [ 2793333.0, 8447697.0 ] } },
{ "type": "Feature", "properties": { "osmid": 9819042202 }, "geometry": { "type": "Point", "coordinates": [ 2771049.0, 8448592.0 ] } },
{ "type": "Feature", "properties": { "osmid": 1401976154 }, "geometry": { "type": "Point", "coordinates": [ 2784340.0, 8450468.0 ] } },
{ "type": "Feature", "properties": { "osmid": 447867476 }, "geometry": { "type": "Point", "coordinates": [ 2769252.0, 8453319.0 ] } },
{ "type": "Feature", "properties": { "osmid": 4600044862 }, "geometry": { "type": "Point", "coordinates": [ 2769182.0, 8449339.0 ] } },
{ "type": "Feature", "properties": { "osmid": 1593586724 }, "geometry": { "type": "Point", "coordinates": [ 2779490.0, 8450846.0 ] } },
{ "type": "Feature", "properties": { "osmid": 12729068896 }, "geometry": { "type": "Point", "coordinates": [ 2774228.0, 8446102.0 ] } },
{ "type": "Feature", "properties": { "osmid": 2306335767 }, "geometry": { "type": "Point", "coordinates": [ 2775572.0, 8444124.0 ] } },
{ "type": "Feature", "properties": { "osmid": 506361721 }, "geometry": { "type": "Point", "coordinates": [ 2775387.0, 8437451.0 ] } },
{ "type": "Feature", "properties": { "osmid": 963607667 }, "geometry": { "type": "Point", "coordinates": [ 2767563.0, 8455463.0 ] } },
{ "type": "Feature", "properties": { "osmid": 408794885 }, "geometry": { "type": "Point", "coordinates": [ 2785441.0, 8449695.0 ] } },
{ "type": "Feature", "properties": { "osmid": 9163098687 }, "geometry": { "type": "Point", "coordinates": [ 2788412.0, 8448458.0 ] } },
{ "type": "Feature", "properties": { "osmid": 787214280 }, "geometry": { "type": "Point", "coordinates": [ 2795338.0, 8453207.0 ] } },
{ "type": "Feature", "properties": { "osmid": 646467819 }, "geometry": { "type": "Point", "coordinates": [ 2778465.0, 8441388.0 ] } },
{ "type": "Feature", "properties": { "osmid": 6030805644 }, "geometry": { "type": "Point", "coordinates": [ 2777084.0, 8451147.0 ] } },
{ "type": "Feature", "properties": { "osmid": 7608486475 }, "geometry": { "type": "Point", "coordinates": [ 2775690.0, 8451490.0 ] } },
{ "type": "Feature", "properties": { "osmid": 10078129183 }, "geometry": { "type": "Point", "coordinates": [ 2771626.0, 8449928.0 ] } },
{ "type": "Feature", "properties": { "osmid": 11116221967 }, "geometry": { "type": "Point", "coordinates": [ 2791331.0, 8446583.0 ] } },
{ "type": "Feature", "properties": { "osmid": 7804041616 }, "geometry": { "type": "Point", "coordinates": [ 2792328.0, 8452438.0 ] } },
{ "type": "Feature", "properties": { "osmid": 11204236539 }, "geometry": { "type": "Point", "coordinates": [ 2778965.0, 8450879.0 ] } },
{ "type": "Feature", "properties": { "osmid": 6646078521 }, "geometry": { "type": "Point", "coordinates": [ 2768514.0, 8448221.0 ] } },
{ "type": "Feature", "properties": { "osmid": 30547158 }, "geometry": { "type": "Point", "coordinates": [ 2798848.0, 8445972.0 ] } },
{ "type": "Feature", "properties": { "osmid": 11204579099 }, "geometry": { "type": "Point", "coordinates": [ 2772583.0, 8450549.0 ] } },
{ "type": "Feature", "properties": { "osmid": 6646078965 }, "geometry": { "type": "Point", "coordinates": [ 2767664.0, 8448839.0 ] } },
{ "type": "Feature", "properties": { "osmid": 9270082723 }, "geometry": { "type": "Point", "coordinates": [ 2774087.0, 8451328.0 ] } },
{ "type": "Feature", "properties": { "osmid": 6646078648 }, "geometry": { "type": "Point", "coordinates": [ 2769177.0, 8447770.0 ] } },
{ "type": "Feature", "properties": { "osmid": 11116178785 }, "geometry": { "type": "Point", "coordinates": [ 2782876.0, 8451046.0 ] } },
{ "type": "Feature", "properties": { "osmid": 4849777101 }, "geometry": { "type": "Point", "coordinates": [ 2786396.0, 8443197.0 ] } },
{ "type": "Feature", "properties": { "osmid": 9039647321 }, "geometry": { "type": "Point", "coordinates": [ 2789473.0, 8447715.0 ] } },
{ "type": "Feature", "properties": { "osmid": 280206740 }, "geometry": { "type": "Point", "coordinates": [ 2784231.0, 8455814.0 ] } },
{ "type": "Feature", "properties": { "osmid": 658919983 }, "geometry": { "type": "Point", "coordinates": [ 2791379.0, 8449972.0 ] } },
{ "type": "Feature", "properties": { "osmid": 226771652 }, "geometry": { "type": "Point", "coordinates": [ 2771156.0, 8448558.0 ] } },
{ "type": "Feature", "properties": { "osmid": 11412926450 }, "geometry": { "type": "Point", "coordinates": [ 2789511.0, 8446528.0 ] } },
{ "type": "Feature", "properties": { "osmid": 1719693601 }, "geometry": { "type": "Point", "coordinates": [ 2777400.0, 8439992.0 ] } },
{ "type": "Feature", "properties": { "osmid": 11116178769 }, "geometry": { "type": "Point", "coordinates": [ 2780614.0, 8451366.0 ] } },
{ "type": "Feature", "properties": { "osmid": 66831159 }, "geometry": { "type": "Point", "coordinates": [ 2787001.0, 8461375.0 ] } },
{ "type": "Feature", "properties": { "osmid": 11116178725 }, "geometry": { "type": "Point", "coordinates": [ 2778112.0, 8451536.0 ] } },
{ "type": "Feature", "properties": { "osmid": 6503585029 }, "geometry": { "type": "Point", "coordinates": [ 2776395.0, 8438187.0 ] } },
{ "type": "Feature", "properties": { "osmid": 265455237 }, "geometry": { "type": "Point", "coordinates": [ 2776974.0, 8448980.0 ] } },
{ "type": "Feature", "properties": { "osmid": 9284077103 }, "geometry": { "type": "Point", "coordinates": [ 2770435.0, 8447738.0 ] } },
{ "type": "Feature", "properties": { "osmid": 4575482730 }, "geometry": { "type": "Point", "coordinates": [ 2786129.0, 8458339.0 ] } },
{ "type": "Feature", "properties": { "osmid": 111652919 }, "geometry": { "type": "Point", "coordinates": [ 2767378.0, 8449718.0 ] } },
{ "type": "Feature", "properties": { "osmid": 1021198211 }, "geometry": { "type": "Point", "coordinates": [ 2796606.0, 8445602.0 ] } },
{ "type": "Feature", "properties": { "osmid": 25198337 }, "geometry": { "type": "Point", "coordinates": [ 2766721.0, 8436328.0 ] } },
{ "type": "Feature", "properties": { "osmid": 418089222 }, "geometry": { "type": "Point", "coordinates": [ 2783801.0, 8441884.0 ] } },
{ "type": "Feature", "properties": { "osmid": 1324777026 }, "geometry": { "type": "Point", "coordinates": [ 2779248.0, 8450797.0 ] } },
{ "type": "Feature", "properties": { "osmid": 1360254202 }, "geometry": { "type": "Point", "coordinates": [ 2787918.0, 8445688.0 ] } }
]
}
