{
"type": "FeatureCollection",
"name": "kyiv-rail",
"crs": { "type": "name", "properties": { "name": "urn:ogc:def:crs:EPSG::3857" } },
"features": [
{ "type": "Feature", "properties": { "osmid": 7178471288.0 }, "geometry": { "type": "Point", "coordinates": [ 3401920.0, 6516331.0 ] } },
{ "type": "Feature", "properties": { "osmid": 2701330617.0 }, "geometry": { "type": "Point", "coordinates": [ 3393934.0, 6523116.0 ] } },
{ "type": "Feature", "properties": { "osmid": 2715942947.0 }, "geometry": { "type": "Point", "coordinates": [ 3379111.0, 6527152.0 ] } },
{ "type": "Feature", "properties": { "osmid": 1871860145.0 }, "geometry": { "type": "Point", "coordinates": [ 3397066.0, 6521475.0 ] } },
{ "type": "Feature", "properties": { "osmid": 2736862340.0 }, "geometry": { "type": "Point", "coordinates": [ 3395746.0, 6528698.0 ] } },
{ "type": "Feature", "properties": { "osmid": 11078212579.0 }, "geometry": { "type": "Point", "coordinates": [ 3385274.0, 6517987.0 ] } },
{ "type": "Feature", "properties": { "osmid": 3369899616.0 }, "geometry": { "type": "Point", "coordinates": [ 3394196.0, 6523008.0 ] } },
{ "type": "Feature", "properties": { "osmid": 1834478489.0 }, "geometry": { "type": "Point", "coordinates": [ 3396146.0, 6515377.0 ] } },
{ "type": "Feature", "properties": { "osmid": 910576558.0 }, "geometry": { "type": "Point", "coordinates": [ 3398008.0, 6518121.0 ] } },
{ "type": "Feature", "properties": { "osmid": 13002724201.0 }, "geometry": { "type": "Point", "coordinates": [ 3388667.0, 6527878.0 ] } },
{ "type": "Feature", "properties": { "osmid": 3152427249.0 }, "geometry": { "type": "Point", "coordinates": [ 3387536.0, 6529191.0 ] } },
{ "type": "Feature", "properties": { "osmid": 6338068758.0 }, "geometry": { "type": "Point", "coordinates": [ 3397102.0, 6522718.0 ] } },
{ "type": "Feature", "properties": { "osmid": 2709526451.0 }, "geometry": { "type": "Point", "coordinates": [ 3398807.0, 6522288.0 ] } },
{ "type": "Feature", "properties": { "osmid": 6469993999.0 }, "geometry": { "type": "Point", "coordinates": [ 3403445.0, 6530398.0 ] } },
{ "type": "Feature", "properties": { "osmid": 2709748575.0 }, "geometry": { "type": "Point", "coordinates": [ 3399580.0, 6520677.0 ] } },
{ "type": "Feature", "properties": { "osmid": 2715942928.0 }, "geometry": { "type": "Point", "coordinates": [ 3410247.0, 6515476.0 ] } },
{ "type": "Feature", "properties": { "osmid": 12119860713.0 }, "geometry": { "type": "Point", "coordinates": [ 3406962.0, 6514819.0 ] } },
{ "type": "Feature", "properties": { "osmid": 9030327961.0 }, "geometry": { "type": "Point", "coordinates": [ 3392763.0, 6512779.0 ] } },
{ "type": "Feature", "properties": { "osmid": 6815794181.0 }, "geometry": { "type": "Point", "coordinates": [ 3417081.0, 6517477.0 ] } },
{ "type": "Feature", "properties": { "osmid": 2706140941.0 }, "geometry": { "type": "Point", "coordinates": [ 3393215.0, 6526752.0 ] } },
{ "type": "Feature", "properties": { "osmid": 1454268286.0 }, "geometry": { "type": "Point", "coordinates": [ 3381248.0, 6520462.0 ] } },
{ "type": "Feature", "properties": { "osmid": 3696745456.0 }, "geometry": { "type": "Point", "coordinates": [ 3386293.0, 6526155.0 ] } },
{ "type": "Feature", "properties": { "osmid": 1494313334.0 }, "geometry": { "type": "Point", "coordinates": [ 3401590.0, 6516019.0 ] } },
{ "type": "Feature", "properties": { "osmid": 9107060109.0 }, "geometry": { "type": "Point", "coordinates": [ 3416409.0, 6523221.0 ] } },
{ "type": "Feature", "properties": { "osmid": 3170333532.0 }, "geometry": { "type": "Point", "coordinates": [ 3387443.0, 6529093.0 ] } },
{ "type": "Feature", "properties": { "osmid": 6469994015.0 }, "geometry": { "type": "Point", "coordinates": [ 3403440.0, 6530383.0 ] } },
{ "type": "Feature", "properties": { "osmid": 2029047618.0 }, "geometry": { "type": "Point", "coordinates": [ 3411691.0, 6521460.0 ] } },
{ "type": "Feature", "properties": { "osmid": 12502507696.0 }, "geometry": { "type": "Point", "coordinates": [ 3406805.0, 6525091.0 ] } },
{ "type": "Feature", "properties": { "osmid": 2761418797.0 }, "geometry": { "type": "Point", "coordinates": [ 3397806.0, 6525805.0 ] } },
{ "type": "Feature", "properties": { "osmid": 8037701616.0 }, "geometry": { "type": "Point", "coordinates": [ 3393947.0, 6523899.0 ] } },
{ "type": "Feature", "properties": { "osmid": 2818195911.0 }, "geometry": { "type": "Point", "coordinates": [ 3397125.0, 6516720.0 ] } },
{ "type": "Feature", "properties": { "osmid": 1323012762.0 }, "geometry": { "type": "Point", "coordinates": [ 3409771.0, 6526316.0 ] } },
{ "type": "Feature", "properties": { "osmid": 9904059766.0 }, "geometry": { "type": "Point", "coordinates": [ 3389595.0, 6522461.0 ] } },
{ "type": "Feature", "properties": { "osmid": 9844448731.0 }, "geometry": { "type": "Point", "coordinates": [ 3400708.0, 6511347.0 ] } },
{ "type": "Feature", "properties": { "osmid": 1670473335.0 }, "geometry": { "type": "Point", "coordinates": [ 3406195.0, 6524893.0 ] } },
{ "type": "Feature", "properties": { "osmid": 4261200210.0 }, "geometry": { "type": "Point", "coordinates": [ 3384063.0, 6517473.0 ] } },
{ "type": "Feature", "properties": { "osmid": 2858133028.0 }, "geometry": { "type": "Point", "coordinates": [ 3390105.0, 6510037.0 ] } },
{ "type": "Feature", "properties": { "osmid": 2601723741.0 }, "geometry": { "type": "Point", "coordinates": [ 3393958.0, 6522810.0 ] } },
{ "type": "Feature", "properties": { "osmid": 3269034936.0 }, "geometry": { "type": "Point", "coordinates": [ 3393922.0, 6514701.0 ] } },
{ "type": "Feature", "properties": { "osmid": 9480295881.0 }, "geometry": { "type": "Point", "coordinates": [ 3395122.0, 6537262.0 ] } },
{ "type": "Feature", "properties": { "osmid": 440015730.0 }, "geometry": { "type": "Point", "coordinates": [ 3384601.0, 6526099.0 ] } },
{ "type": "Feature", "properties": { "osmid": 10870089918.0 }, "geometry": { "type": "Point", "coordinates": [ 3401933.0, 6516225.0 ] } },
{ "type": "Feature", "properties": { "osmid": 1461860087.0 }, "geometry": { "type": "Point", "coordinates": [ 3384965.0, 6517200.0 ] } },
{ "type": "Feature", "properties": { "osmid": 1772763064.0 }, "geometry": { "type": "Point", "coordinates": [ 3405984.0, 6526557.0 ] } },
{ "type": "Feature", "properties": { "osmid": 1461860150.0 }, "geometry": { "type": "Point", "coordinates": [ 3394035.0, 6523466.0 ] } },
{ "type": "Feature", "properties": { "osmid": 60412609.0 }, "geometry": { "type": "Point", "coordinates": [ 3403800.0, 6523906.0 ] } },
{ "type": "Feature", "properties": { "osmid": 11875125688.0 }, "geometry": { "type": "Point", "coordinates": [ 3388003.0, 6527520.0 ] } },
{ "type": "Feature", "properties": { "osmid": 1460509995.0 }, "geometry": { "type": "Point", "coordinates": [ 3382119.0, 6519381.0 ] } },
{ "type": "Feature", "properties": { "osmid": 2736821886.0 }, "geometry": { "type": "Point", "coordinates": [ 3395069.0, 6530711.0 ] } },
{ "type": "Feature", "properties": { "osmid": 3523734568.0 }, "geometry": { "type": "Point", "coordinates": [ 3385145.0, 6520367.0 ] } },
{ "type": "Feature", "properties": { "osmid": 1945920815.0 }, "geometry": { "type": "Point", "coordinates": [ 3405119.0, 6487804.0 ] } },
{ "type": "Feature", "properties": { "osmid": 2033113818.0 }, "geometry": { "type": "Point", "coordinates": [ 3385999.0, 6526727.0 ] } },
{ "type": "Feature", "properties": { "osmid": 2702396241.0 }, "geometry": { "type": "Point", "coordinates": [ 3395034.0, 6530941.0 ] } },
{ "type": "Feature", "properties": { "osmid": 6485703582.0 }, "geometry": { "type": "Point", "coordinates": [ 3388379.0, 6527105.0 ] } },
{ "type": "Feature", "properties": { "osmid": 1461860119.0 }, "geometry": { "type": "Point", "coordinates": [ 3383609.0, 6518252.0 ] } },
{ "type": "Feature", "properties": { "osmid": 1736729831.0 }, "geometry": { "type": "Point", "coordinates": [ 3399070.0, 6497790.0 ] } },
{ "type": "Feature", "properties": { "osmid": 6711157883.0 }, "geometry": { "type": "Point", "coordinates": [ 3412152.0, 6515951.0 ] } },
{ "type": "Feature", "properties": { "osmid": 1977718971.0 }, "geometry": { "type": "Point", "coordinates": [ 3387633.0, 6517902.0 ] } },
{ "type": "Feature", "properties": { "osmid": 1454400766.0 }, "geometry": { "type": "Point", "coordinates": [ 3407798.0, 6525664.0 ] } },
{ "type": "Feature", "properties": { "osmid": 26273097.0 }, "geometry": { "type": "Point", "coordinates": [ 3394995.0, 6533597.0 ] } },
{ "type": "Feature", "properties": { "osmid": 2821184547.0 }, "geometry": { "type": "Point", "coordinates": [ 3391837.0, 6511783.0 ] } },
{ "type": "Feature", "properties": { "osmid": 1460515786.0 }, "geometry": { "type": "Point", "coordinates": [ 3382873.0, 6518834.0 ] } },
{ "type": "Feature", "properties": { "osmid": 7994680642.0 }, "geometry": { "type": "Point", "coordinates": [ 3395971.0, 6520499.0 ] } },
{ "type": "Feature", "properties": { "osmid": 1738590785.0 }, "geometry": { "type": "Point", "coordinates": [ 3425129.0, 6518143.0 ] } },
{ "type": "Feature", "properties": { "osmid": 10968431362.0 }, "geometry": { "type": "Point", "coordinates": [ 3407096.0, 6519547.0 ] } },
{ "type": "Feature", "properties": { "osmid": 256703996.0 }, "geometry": { "type": "Point", "coordinates": [ 3385349.0, 6524881.0 ] } },
{ "type": "Feature", "properties": { "osmid": 4753415944.0 }, "geometry": { "type": "Point", "coordinates": [ 3400175.0, 6507872.0 ] } },
{ "type": "Feature", "properties": { "osmid": 13461229415.0 }, "geometry": { "type": "Point", "coordinates": [ 3411577.0, 6527137.0 ] } },
{ "type": "Feature", "properties": { "osmid": 8049991362.0 }, "geometry": { "type": "Point", "coordinates": [ 3414719.0, 6522498.0 ] } },
{ "type": "Feature", "properties": { "osmid": 370247183.0 }, "geometry": { "type": "Point", "coordinates": [ 3419955.0, 6519751.0 ] } },
{ "type": "Feature", "properties": { "osmid": 3191561593.0 }, "geometry": { "type": "Point", "coordinates": [ 3415840.0, 6520948.0 ] } },
{ "type": "Feature", "properties": { "osmid": 9891956394.0 }, "geometry": { "type": "Point", "coordinates": [ 3384470.0, 6520706.0 ] } },
{ "type": "Feature", "properties": { "osmid": 6036240233.0 }, "geometry": { "type": "Point", "coordinates": [ 3418840.0, 6524496.0 ] } },
{ "type": "Feature", "properties": { "osmid": 1310525126.0 }, "geometry": { "type": "Point", "coordinates": [ 3402565.0, 6513929.0 ] } },
{ "type": "Feature", "properties": { "osmid": 26051973.0 }, "geometry": { "type": "Point", "coordinates": [ 3403225.0, 6520080.0 ] } },
{ "type": "Feature", "properties": { "osmid": 7908451537.0 }, "geometry": { "type": "Point", "coordinates": [ 3402778.0, 6520454.0 ] } },
{ "type": "Feature", "properties": { "osmid": 1672134905.0 }, "geometry": { "type": "Point", "coordinates": [ 3402523.0, 6519588.0 ] } },
{ "type": "Feature", "properties": { "osmid": 443712084.0 }, "geometry": { "type": "Point", "coordinates": [ 3405511.0, 6520809.0 ] } },
{ "type": "Feature", "properties": { "osmid": 1281583238.0 }, "geometry": { "type": "Point", "coordinates": [ 3405590.0, 6521548.0 ] } },
{ "type": "Feature", "properties": { "osmid": 8154211948.0 }, "geometry": { "type": "Point", "coordinates": [ 3400353.0, 6518933.0 ] } },
{ "type": "Feature", "properties": { "osmid": 12757124304.0 }, "geometry": { "type": "Point", "coordinates": [ 3400976.0, 6517935.0 ] } },
{ "type": "Feature", "properties": { "osmid": 4185825787.0 }, "geometry": { "type": "Point", "coordinates": [ 3401906.0, 6523091.0 ] } },
{ "type": "Feature", "properties": { "osmid": 13515593176.0 }, "geometry": { "type": "Point", "coordinates": [ 3405948.0, 6518165.0 ] } },
{ "type": "Feature", "properties": { "osmid": 1277478529.0 }, "geometry": { "type": "Point", "coordinates": [ 3401300.0, 6517281.0 ] } },
{ "type": "Feature", "properties": { "osmid": 440699932.0 }, "geometry": { "type": "Point", "coordinates": [ 3406621.0, 6519705.0 ] } },
{ "type": "Feature", "properties": { "osmid": 447828894.0 }, "geometry": { "type": "Point", "coordinates": [ 3403056.0, 6523595.0 ] } },
{ "type": "Feature", "properties": { "osmid": 6332744666.0 }, "geometry": { "type": "Point", "coordinates": [ 3400145.0, 6518241.0 ] } },
{ "type": "Feature", "properties": { "osmid": 1765604568.0 }, "geometry": { "type": "Point", "coordinates": [ 3405363.0, 6523765.0 ] } },
{ "type": "Feature", "properties": { "osmid": 11355994390.0 }, "geometry": { "type": "Point", "coordinates": [ 3400258.0, 6523321.0 ] } },
{ "type": "Feature", "properties": { "osmid": 9306977978.0 }, "geometry": { "type": "Point", "coordinates": [ 3406661.0, 6517268.0 ] } },
{ "type": "Feature", "properties": { "osmid": 2238835837.0 }, "geometry": { "type": "Point", "coordinates": [ 3406385.0, 6516467.0 ] } },
{ "type": "Feature", "properties": { "osmid": 1281583163.0 }, "geometry": { "type": "Point", "coordinates": [ 3407253.0, 6522729.0 ] } },
{ "type": "Feature", "properties": { "osmid": 4676319649.0 }, "geometry": { "type": "Point", "coordinates": [ 3405446.0, 6524649.0 ] } },
{ "type": "Feature", "properties": { "osmid": 3531827483.0 }, "geometry": { "type": "Point", "coordinates": [ 3399334.0, 6523371.0 ] } },
{ "type": "Feature", "properties": { "osmid": 11046826244.0 }, "geometry": { "type": "Point", "coordinates": [ 3398288.0, 6518664.0 ] } },
{ "type": "Feature", "properties": { "osmid": 4340934912.0 }, "geometry": { "type": "Point", "coordinates": [ 3407384.0, 6517041.0 ] } },
{ "type": "Feature", "properties": { "osmid": 7256352662.0 }, "geometry": { "type": "Point", "coordinates": [ 3406692.0, 6523965.0 ] } },
{ "type": "Feature", "properties": { "osmid": 2238835875.0 }, "geometry": { "type": "Point", "coordinates": [ 3406587.0, 6516004.0 ] } },
{ "type": "Feature", "properties": { "osmid": 2614516840.0 }, "geometry": { "type": "Point", "coordinates": [ 3400987.0, 6515255.0 ] } },
{ "type": "Feature", "properties": { "osmid": 2541190807.0 }, "geometry": { "type": "Point", "coordinates": [ 3399250.0, 6516394.0 ] } },
{ "type": "Feature", "properties": { "osmid": 5923309246.0 }, "geometry": { "type": "Point", "coordinates": [ 3408282.0, 6522109.0 ] } },
{ "type": "Feature", "properties": { "osmid": 5923325552.0 }, "geometry": { "type": "Point", "coordinates": [ 3408607.0, 6521530.0 ] } },
{ "type": "Feature", "properties": { "osmid": 10795677206.0 }, "geometry": { "type": "Point", "coordinates": [ 3401690.0, 6514670.0 ] } },
{ "type": "Feature", "properties": { "osmid": 9916003738.0 }, "geometry": { "type": "Point", "coordinates": [ 3398131.0, 6522510.0 ] } },
{ "type": "Feature", "properties": { "osmid": 2238835903.0 }, "geometry": { "type": "Point", "coordinates": [ 3407198.0, 6516023.0 ] } },
{ "type": "Feature", "properties": { "osmid": 256558289.0 }, "geometry": { "type": "Point", "coordinates": [ 3406759.0, 6515400.0 ] } },
{ "type": "Feature", "properties": { "osmid": 672749019.0 }, "geometry": { "type": "Point", "coordinates": [ 3397351.0, 6519775.0 ] } },
{ "type": "Feature", "properties": { "osmid": 4975482907.0 }, "geometry": { "type": "Point", "coordinates": [ 3407980.0, 6516497.0 ] } },
{ "type": "Feature", "properties": { "osmid": 11138341743.0 }, "geometry": { "type": "Point", "coordinates": [ 3408677.0, 6522487.0 ] } },
{ "type": "Feature", "properties": { "osmid": 11138341804.0 }, "geometry": { "type": "Point", "coordinates": [ 3409062.0, 6521746.0 ] } },
{ "type": "Feature", "properties": { "osmid": 13500785048.0 }, "geometry": { "type": "Point", "coordinates": [ 3401719.0, 6514164.0 ] } },
{ "type": "Feature", "properties": { "osmid": 3372276735.0 }, "geometry": { "type": "Point", "coordinates": [ 3399329.0, 6515379.0 ] } },
{ "type": "Feature", "properties": { "osmid": 10560166169.0 }, "geometry": { "type": "Point", "coordinates": [ 3397800.0, 6522936.0 ] } },
{ "type": "Feature", "properties": { "osmid": 11428601214.0 }, "geometry": { "type": "Point", "coordinates": [ 3404531.0, 6526120.0 ] } },
{ "type": "Feature", "properties": { "osmid": 256557629.0 }, "geometry": { "type": "Point", "coordinates": [ 3407543.0, 6515531.0 ] } },
{ "type": "Feature", "properties": { "osmid": 4321356344.0 }, "geometry": { "type": "Point", "coordinates": [ 3408821.0, 6517040.0 ] } },
{ "type": "Feature", "properties": { "osmid": 8022092796.0 }, "geometry": { "type": "Point", "coordinates": [ 3397157.0, 6522041.0 ] } },
{ "type": "Feature", "properties": { "osmid": 10082055108.0 }, "geometry": { "type": "Point", "coordinates": [ 3397632.0, 6516867.0 ] } },
{ "type": "Feature", "properties": { "osmid": 1137268375.0 }, "geometry": { "type": "Point", "coordinates": [ 3409150.0, 6523296.0 ] } },
{ "type": "Feature", "properties": { "osmid": 5244919292.0 }, "geometry": { "type": "Point", "coordinates": [ 3409410.0, 6517342.0 ] } },
{ "type": "Feature", "properties": { "osmid": 13753100111.0 }, "geometry": { "type": "Point", "coordinates": [ 3407812.0, 6515030.0 ] } },
{ "type": "Feature", "properties": { "osmid": 4915333441.0 }, "geometry": { "type": "Point", "coordinates": [ 3404869.0, 6526718.0 ] } },
{ "type": "Feature", "properties": { "osmid": 249590000.0 }, "geometry": { "type": "Point", "coordinates": [ 3409697.0, 6522381.0 ] } },
{ "type": "Feature", "properties": { "osmid": 12321253830.0 }, "geometry": { "type": "Point", "coordinates": [ 3397679.0, 6524203.0 ] } },
{ "type": "Feature", "properties": { "osmid": 1749952754.0 }, "geometry": { "type": "Point", "coordinates": [ 3398851.0, 6525446.0 ] } },
{ "type": "Feature", "properties": { "osmid": 13694615563.0 }, "geometry": { "type": "Point", "coordinates": [ 3410026.0, 6521697.0 ] } },
{ "type": "Feature", "properties": { "osmid": 11171475937.0 }, "geometry": { "type": "Point", "coordinates": [ 3397277.0, 6523778.0 ] } },
{ "type": "Feature", "properties": { "osmid": 13753100126.0 }, "geometry": { "type": "Point", "coordinates": [ 3408333.0, 6515153.0 ] } },
{ "type": "Feature", "properties": { "osmid": 8557966260.0 }, "geometry": { "type": "Point", "coordinates": [ 3399349.0, 6526191.0 ] } },
{ "type": "Feature", "properties": { "osmid": 3759256952.0 }, "geometry": { "type": "Point", "coordinates": [ 3398328.0, 6525431.0 ] } },
{ "type": "Feature", "properties": { "osmid": 2288414720.0 }, "geometry": { "type": "Point", "coordinates": [ 3410648.0, 6520050.0 ] } },
{ "type": "Feature", "properties": { "osmid": 10802750499.0 }, "geometry": { "type": "Point", "coordinates": [ 3396337.0, 6517275.0 ] } },
{ "type": "Feature", "properties": { "osmid": 3536176253.0 }, "geometry": { "type": "Point", "coordinates": [ 3397597.0, 6515199.0 ] } },
{ "type": "Feature", "properties": { "osmid": 5265709903.0 }, "geometry": { "type": "Point", "coordinates": [ 3396013.0, 6517984.0 ] } },
{ "type": "Feature", "properties": { "osmid": 4323045015.0 }, "geometry": { "type": "Point", "coordinates": [ 3409834.0, 6516404.0 ] } },
{ "type": "Feature", "properties": { "osmid": 12186375296.0 }, "geometry": { "type": "Point", "coordinates": [ 3396541.0, 6523932.0 ] } },
{ "type": "Feature", "properties": { "osmid": 6322041805.0 }, "geometry": { "type": "Point", "coordinates": [ 3407998.0, 6513980.0 ] } },
{ "type": "Feature", "properties": { "osmid": 8668015380.0 }, "geometry": { "type": "Point", "coordinates": [ 3395481.0, 6520812.0 ] } },
{ "type": "Feature", "properties": { "osmid": 5749468190.0 }, "geometry": { "type": "Point", "coordinates": [ 3398267.0, 6526079.0 ] } },
{ "type": "Feature", "properties": { "osmid": 26546084.0 }, "geometry": { "type": "Point", "coordinates": [ 3396740.0, 6524423.0 ] } },
{ "type": "Feature", "properties": { "osmid": 1749617953.0 }, "geometry": { "type": "Point", "coordinates": [ 3405323.0, 6512538.0 ] } },
{ "type": "Feature", "properties": { "osmid": 1305727681.0 }, "geometry": { "type": "Point", "coordinates": [ 3396821.0, 6515576.0 ] } },
{ "type": "Feature", "properties": { "osmid": 11117009269.0 }, "geometry": { "type": "Point", "coordinates": [ 3396083.0, 6523616.0 ] } },
{ "type": "Feature", "properties": { "osmid": 442480177.0 }, "geometry": { "type": "Point", "coordinates": [ 3411202.0, 6518828.0 ] } },
{ "type": "Feature", "properties": { "osmid": 1977737616.0 }, "geometry": { "type": "Point", "coordinates": [ 3408686.0, 6514093.0 ] } },
{ "type": "Feature", "properties": { "osmid": 12502507693.0 }, "geometry": { "type": "Point", "coordinates": [ 3406958.0, 6527313.0 ] } },
{ "type": "Feature", "properties": { "osmid": 26546021.0 }, "geometry": { "type": "Point", "coordinates": [ 3396453.0, 6524914.0 ] } },
{ "type": "Feature", "properties": { "osmid": 415541495.0 }, "geometry": { "type": "Point", "coordinates": [ 3411657.0, 6519619.0 ] } },
{ "type": "Feature", "properties": { "osmid": 312691047.0 }, "geometry": { "type": "Point", "coordinates": [ 3395029.0, 6522219.0 ] } },
{ "type": "Feature", "properties": { "osmid": 442480172.0 }, "geometry": { "type": "Point", "coordinates": [ 3411640.0, 6519076.0 ] } },
{ "type": "Feature", "properties": { "osmid": 3551738871.0 }, "geometry": { "type": "Point", "coordinates": [ 3398643.0, 6512948.0 ] } },
{ "type": "Feature", "properties": { "osmid": 513686218.0 }, "geometry": { "type": "Point", "coordinates": [ 3411594.0, 6518413.0 ] } },
{ "type": "Feature", "properties": { "osmid": 2773309260.0 }, "geometry": { "type": "Point", "coordinates": [ 3396858.0, 6525792.0 ] } },
{ "type": "Feature", "properties": { "osmid": 1529446096.0 }, "geometry": { "type": "Point", "coordinates": [ 3395701.0, 6524167.0 ] } },
{ "type": "Feature", "properties": { "osmid": 11021543822.0 }, "geometry": { "type": "Point", "coordinates": [ 3394979.0, 6522854.0 ] } },
{ "type": "Feature", "properties": { "osmid": 2500621530.0 }, "geometry": { "type": "Point", "coordinates": [ 3398033.0, 6527120.0 ] } },
{ "type": "Feature", "properties": { "osmid": 2462504913.0 }, "geometry": { "type": "Point", "coordinates": [ 3396208.0, 6525478.0 ] } },
{ "type": "Feature", "properties": { "osmid": 13697542232.0 }, "geometry": { "type": "Point", "coordinates": [ 3412174.0, 6519484.0 ] } },
{ "type": "Feature", "properties": { "osmid": 1643149485.0 }, "geometry": { "type": "Point", "coordinates": [ 3394284.0, 6519018.0 ] } },
{ "type": "Feature", "properties": { "osmid": 13127596997.0 }, "geometry": { "type": "Point", "coordinates": [ 3394470.0, 6522394.0 ] } },
{ "type": "Feature", "properties": { "osmid": 26051762.0 }, "geometry": { "type": "Point", "coordinates": [ 3394693.0, 6523330.0 ] } },
{ "type": "Feature", "properties": { "osmid": 4771636983.0 }, "geometry": { "type": "Point", "coordinates": [ 3396415.0, 6526254.0 ] } },
{ "type": "Feature", "properties": { "osmid": 11409364385.0 }, "geometry": { "type": "Point", "coordinates": [ 3404261.0, 6529242.0 ] } },
{ "type": "Feature", "properties": { "osmid": 11237795973.0 }, "geometry": { "type": "Point", "coordinates": [ 3397275.0, 6527218.0 ] } },
{ "type": "Feature", "properties": { "osmid": 12312032631.0 }, "geometry": { "type": "Point", "coordinates": [ 3397751.0, 6527599.0 ] } },
{ "type": "Feature", "properties": { "osmid": 13695504818.0 }, "geometry": { "type": "Point", "coordinates": [ 3412613.0, 6519065.0 ] } },
{ "type": "Feature", "properties": { "osmid": 11841300172.0 }, "geometry": { "type": "Point", "coordinates": [ 3394087.0, 6517505.0 ] } },
{ "type": "Feature", "properties": { "osmid": 2380621211.0 }, "geometry": { "type": "Point", "coordinates": [ 3404566.0, 6529661.0 ] } },
{ "type": "Feature", "properties": { "osmid": 12349534474.0 }, "geometry": { "type": "Point", "coordinates": [ 3393706.0, 6521857.0 ] } },
{ "type": "Feature", "properties": { "osmid": 3536859388.0 }, "geometry": { "type": "Point", "coordinates": [ 3398208.0, 6511778.0 ] } },
{ "type": "Feature", "properties": { "osmid": 2074576915.0 }, "geometry": { "type": "Point", "coordinates": [ 3396114.0, 6526771.0 ] } },
{ "type": "Feature", "properties": { "osmid": 12312032629.0 }, "geometry": { "type": "Point", "coordinates": [ 3397678.0, 6528164.0 ] } },
{ "type": "Feature", "properties": { "osmid": 1655735847.0 }, "geometry": { "type": "Point", "coordinates": [ 3399763.0, 6510879.0 ] } },
{ "type": "Feature", "properties": { "osmid": 8155605139.0 }, "geometry": { "type": "Point", "coordinates": [ 3413006.0, 6518728.0 ] } },
{ "type": "Feature", "properties": { "osmid": 11841300166.0 }, "geometry": { "type": "Point", "coordinates": [ 3393584.0, 6517895.0 ] } },
{ "type": "Feature", "properties": { "osmid": 1260043646.0 }, "geometry": { "type": "Point", "coordinates": [ 3394720.0, 6514871.0 ] } },
{ "type": "Feature", "properties": { "osmid": 1535262675.0 }, "geometry": { "type": "Point", "coordinates": [ 3393506.0, 6517392.0 ] } },
{ "type": "Feature", "properties": { "osmid": 7538330089.0 }, "geometry": { "type": "Point", "coordinates": [ 3413442.0, 6519966.0 ] } },
{ "type": "Feature", "properties": { "osmid": 11841300161.0 }, "geometry": { "type": "Point", "coordinates": [ 3393135.0, 6518250.0 ] } },
{ "type": "Feature", "properties": { "osmid": 702532939.0 }, "geometry": { "type": "Point", "coordinates": [ 3401642.0, 6509882.0 ] } },
{ "type": "Feature", "properties": { "osmid": 1657881777.0 }, "geometry": { "type": "Point", "coordinates": [ 3394768.0, 6525999.0 ] } },
{ "type": "Feature", "properties": { "osmid": 2368162929.0 }, "geometry": { "type": "Point", "coordinates": [ 3396777.0, 6511934.0 ] } },
{ "type": "Feature", "properties": { "osmid": 2026111711.0 }, "geometry": { "type": "Point", "coordinates": [ 3400894.0, 6509849.0 ] } },
{ "type": "Feature", "properties": { "osmid": 11307822713.0 }, "geometry": { "type": "Point", "coordinates": [ 3393839.0, 6524774.0 ] } },
{ "type": "Feature", "properties": { "osmid": 4190304279.0 }, "geometry": { "type": "Point", "coordinates": [ 3395320.0, 6527007.0 ] } },
{ "type": "Feature", "properties": { "osmid": 11804891974.0 }, "geometry": { "type": "Point", "coordinates": [ 3407284.0, 6529896.0 ] } },
{ "type": "Feature", "properties": { "osmid": 13428158043.0 }, "geometry": { "type": "Point", "coordinates": [ 3413726.0, 6518056.0 ] } },
{ "type": "Feature", "properties": { "osmid": 8072972368.0 }, "geometry": { "type": "Point", "coordinates": [ 3394670.0, 6513515.0 ] } },
{ "type": "Feature", "properties": { "osmid": 3596155070.0 }, "geometry": { "type": "Point", "coordinates": [ 3398680.0, 6510273.0 ] } },
{ "type": "Feature", "properties": { "osmid": 315076896.0 }, "geometry": { "type": "Point", "coordinates": [ 3394346.0, 6526359.0 ] } },
{ "type": "Feature", "properties": { "osmid": 12350589483.0 }, "geometry": { "type": "Point", "coordinates": [ 3392410.0, 6521446.0 ] } },
{ "type": "Feature", "properties": { "osmid": 1662274466.0 }, "geometry": { "type": "Point", "coordinates": [ 3397317.0, 6510841.0 ] } },
{ "type": "Feature", "properties": { "osmid": 12301169157.0 }, "geometry": { "type": "Point", "coordinates": [ 3392995.0, 6524144.0 ] } },
{ "type": "Feature", "properties": { "osmid": 6299646528.0 }, "geometry": { "type": "Point", "coordinates": [ 3399088.0, 6509878.0 ] } },
{ "type": "Feature", "properties": { "osmid": 1595553396.0 }, "geometry": { "type": "Point", "coordinates": [ 3396420.0, 6511379.0 ] } },
{ "type": "Feature", "properties": { "osmid": 12725276312.0 }, "geometry": { "type": "Point", "coordinates": [ 3394131.0, 6513672.0 ] } },
{ "type": "Feature", "properties": { "osmid": 1784569073.0 }, "geometry": { "type": "Point", "coordinates": [ 3400703.0, 6509241.0 ] } },
{ "type": "Feature", "properties": { "osmid": 932334523.0 }, "geometry": { "type": "Point", "coordinates": [ 3413755.0, 6516363.0 ] } },
{ "type": "Feature", "properties": { "osmid": 8072941458.0 }, "geometry": { "type": "Point", "coordinates": [ 3397643.0, 6510256.0 ] } },
{ "type": "Feature", "properties": { "osmid": 2460211368.0 }, "geometry": { "type": "Point", "coordinates": [ 3413736.0, 6524394.0 ] } },
{ "type": "Feature", "properties": { "osmid": 11804565072.0 }, "geometry": { "type": "Point", "coordinates": [ 3407522.0, 6530763.0 ] } },
{ "type": "Feature", "properties": { "osmid": 13009065196.0 }, "geometry": { "type": "Point", "coordinates": [ 3414092.0, 6523961.0 ] } },
{ "type": "Feature", "properties": { "osmid": 1583850152.0 }, "geometry": { "type": "Point", "coordinates": [ 3399015.0, 6509299.0 ] } },
{ "type": "Feature", "properties": { "osmid": 4114319507.0 }, "geometry": { "type": "Point", "coordinates": [ 3397993.0, 6509729.0 ] } },
{ "type": "Feature", "properties": { "osmid": 2372984835.0 }, "geometry": { "type": "Point", "coordinates": [ 3400104.0, 6508897.0 ] } },
{ "type": "Feature", "properties": { "osmid": 9412118681.0 }, "geometry": { "type": "Point", "coordinates": [ 3392462.0, 6524498.0 ] } },
{ "type": "Feature", "properties": { "osmid": 695803705.0 }, "geometry": { "type": "Point", "coordinates": [ 3414272.0, 6516408.0 ] } },
{ "type": "Feature", "properties": { "osmid": 5861262105.0 }, "geometry": { "type": "Point", "coordinates": [ 3407062.0, 6531227.0 ] } },
{ "type": "Feature", "properties": { "osmid": 12175665145.0 }, "geometry": { "type": "Point", "coordinates": [ 3412141.0, 6527810.0 ] } },
{ "type": "Feature", "properties": { "osmid": 2351225821.0 }, "geometry": { "type": "Point", "coordinates": [ 3395585.0, 6511020.0 ] } },
{ "type": "Feature", "properties": { "osmid": 1784576345.0 }, "geometry": { "type": "Point", "coordinates": [ 3400645.0, 6508481.0 ] } },
{ "type": "Feature", "properties": { "osmid": 13175003236.0 }, "geometry": { "type": "Point", "coordinates": [ 3393645.0, 6527260.0 ] } },
{ "type": "Feature", "properties": { "osmid": 12362097930.0 }, "geometry": { "type": "Point", "coordinates": [ 3398366.0, 6531047.0 ] } },
{ "type": "Feature", "properties": { "osmid": 1892336958.0 }, "geometry": { "type": "Point", "coordinates": [ 3393251.0, 6513386.0 ] } },
{ "type": "Feature", "properties": { "osmid": 9818897247.0 }, "geometry": { "type": "Point", "coordinates": [ 3391926.0, 6515604.0 ] } },
{ "type": "Feature", "properties": { "osmid": 13173884022.0 }, "geometry": { "type": "Point", "coordinates": [ 3394471.0, 6528579.0 ] } },
{ "type": "Feature", "properties": { "osmid": 1785855877.0 }, "geometry": { "type": "Point", "coordinates": [ 3399852.0, 6531826.0 ] } },
{ "type": "Feature", "properties": { "osmid": 12327555903.0 }, "geometry": { "type": "Point", "coordinates": [ 3391566.0, 6523914.0 ] } },
{ "type": "Feature", "properties": { "osmid": 1418701574.0 }, "geometry": { "type": "Point", "coordinates": [ 3391821.0, 6524650.0 ] } },
{ "type": "Feature", "properties": { "osmid": 2252603137.0 }, "geometry": { "type": "Point", "coordinates": [ 3398682.0, 6508634.0 ] } },
{ "type": "Feature", "properties": { "osmid": 13698141201.0 }, "geometry": { "type": "Point", "coordinates": [ 3415136.0, 6516737.0 ] } },
{ "type": "Feature", "properties": { "osmid": 1785845740.0 }, "geometry": { "type": "Point", "coordinates": [ 3400442.0, 6532186.0 ] } },
{ "type": "Feature", "properties": { "osmid": 9001650142.0 }, "geometry": { "type": "Point", "coordinates": [ 3390785.0, 6520176.0 ] } },
{ "type": "Feature", "properties": { "osmid": 1785845741.0 }, "geometry": { "type": "Point", "coordinates": [ 3401623.0, 6532427.0 ] } },
{ "type": "Feature", "properties": { "osmid": 4732245307.0 }, "geometry": { "type": "Point", "coordinates": [ 3395061.0, 6510668.0 ] } },
{ "type": "Feature", "properties": { "osmid": 312868073.0 }, "geometry": { "type": "Point", "coordinates": [ 3397833.0, 6531325.0 ] } },
{ "type": "Feature", "properties": { "osmid": 706668973.0 }, "geometry": { "type": "Point", "coordinates": [ 3403870.0, 6532570.0 ] } },
{ "type": "Feature", "properties": { "osmid": 442477781.0 }, "geometry": { "type": "Point", "coordinates": [ 3404394.0, 6532575.0 ] } },
{ "type": "Feature", "properties": { "osmid": 7443306892.0 }, "geometry": { "type": "Point", "coordinates": [ 3398562.0, 6531745.0 ] } },
{ "type": "Feature", "properties": { "osmid": 6978074421.0 }, "geometry": { "type": "Point", "coordinates": [ 3391682.0, 6515116.0 ] } },
{ "type": "Feature", "properties": { "osmid": 4114312791.0 }, "geometry": { "type": "Point", "coordinates": [ 3394157.0, 6511322.0 ] } },
{ "type": "Feature", "properties": { "osmid": 1440338480.0 }, "geometry": { "type": "Point", "coordinates": [ 3415337.0, 6516269.0 ] } },
{ "type": "Feature", "properties": { "osmid": 2722886313.0 }, "geometry": { "type": "Point", "coordinates": [ 3398104.0, 6508421.0 ] } },
{ "type": "Feature", "properties": { "osmid": 11135614493.0 }, "geometry": { "type": "Point", "coordinates": [ 3405160.0, 6532719.0 ] } },
{ "type": "Feature", "properties": { "osmid": 11149926648.0 }, "geometry": { "type": "Point", "coordinates": [ 3390503.0, 6518209.0 ] } },
{ "type": "Feature", "properties": { "osmid": 2256187371.0 }, "geometry": { "type": "Point", "coordinates": [ 3392846.0, 6527704.0 ] } },
{ "type": "Feature", "properties": { "osmid": 441196849.0 }, "geometry": { "type": "Point", "coordinates": [ 3403711.0, 6533092.0 ] } },
{ "type": "Feature", "properties": { "osmid": 9306999936.0 }, "geometry": { "type": "Point", "coordinates": [ 3406484.0, 6507352.0 ] } },
{ "type": "Feature", "properties": { "osmid": 8726477972.0 }, "geometry": { "type": "Point", "coordinates": [ 3389955.0, 6519865.0 ] } },
{ "type": "Feature", "properties": { "osmid": 4753415925.0 }, "geometry": { "type": "Point", "coordinates": [ 3400981.0, 6506987.0 ] } },
{ "type": "Feature", "properties": { "osmid": 3359247038.0 }, "geometry": { "type": "Point", "coordinates": [ 3400038.0, 6532982.0 ] } },
{ "type": "Feature", "properties": { "osmid": 12351191055.0 }, "geometry": { "type": "Point", "coordinates": [ 3389962.0, 6519030.0 ] } },
{ "type": "Feature", "properties": { "osmid": 9277317416.0 }, "geometry": { "type": "Point", "coordinates": [ 3390385.0, 6523884.0 ] } },
{ "type": "Feature", "properties": { "osmid": 11131948828.0 }, "geometry": { "type": "Point", "coordinates": [ 3396074.0, 6531409.0 ] } },
{ "type": "Feature", "properties": { "osmid": 13165842874.0 }, "geometry": { "type": "Point", "coordinates": [ 3407085.0, 6533064.0 ] } },
{ "type": "Feature", "properties": { "osmid": 5868817948.0 }, "geometry": { "type": "Point", "coordinates": [ 3398007.0, 6532723.0 ] } },
{ "type": "Feature", "properties": { "osmid": 747845128.0 }, "geometry": { "type": "Point", "coordinates": [ 3395511.0, 6531425.0 ] } },
{ "type": "Feature", "properties": { "osmid": 4968554778.0 }, "geometry": { "type": "Point", "coordinates": [ 3392966.0, 6529315.0 ] } },
{ "type": "Feature", "properties": { "osmid": 11057005416.0 }, "geometry": { "type": "Point", "coordinates": [ 3405324.0, 6533841.0 ] } },
{ "type": "Feature", "properties": { "osmid": 12641825600.0 }, "geometry": { "type": "Point", "coordinates": [ 3397329.0, 6532719.0 ] } },
{ "type": "Feature", "properties": { "osmid": 256434578.0 }, "geometry": { "type": "Point", "coordinates": [ 3390012.0, 6524829.0 ] } },
{ "type": "Feature", "properties": { "osmid": 4689528246.0 }, "geometry": { "type": "Point", "coordinates": [ 3394930.0, 6531507.0 ] } },
{ "type": "Feature", "properties": { "osmid": 4437646655.0 }, "geometry": { "type": "Point", "coordinates": [ 3404611.0, 6534209.0 ] } },
{ "type": "Feature", "properties": { "osmid": 4749430493.0 }, "geometry": { "type": "Point", "coordinates": [ 3399980.0, 6533910.0 ] } },
{ "type": "Feature", "properties": { "osmid": 11994549866.0 }, "geometry": { "type": "Point", "coordinates": [ 3390953.0, 6527243.0 ] } },
{ "type": "Feature", "properties": { "osmid": 13570360533.0 }, "geometry": { "type": "Point", "coordinates": [ 3389036.0, 6521760.0 ] } },
{ "type": "Feature", "properties": { "osmid": 506143314.0 }, "geometry": { "type": "Point", "coordinates": [ 3399942.0, 6506147.0 ] } },
{ "type": "Feature", "properties": { "osmid": 3463708708.0 }, "geometry": { "type": "Point", "coordinates": [ 3399092.0, 6506349.0 ] } },
{ "type": "Feature", "properties": { "osmid": 11646823549.0 }, "geometry": { "type": "Point", "coordinates": [ 3389308.0, 6523684.0 ] } },
{ "type": "Feature", "properties": { "osmid": 3536176242.0 }, "geometry": { "type": "Point", "coordinates": [ 3397330.0, 6506931.0 ] } },
{ "type": "Feature", "properties": { "osmid": 4554358047.0 }, "geometry": { "type": "Point", "coordinates": [ 3406477.0, 6534146.0 ] } },
{ "type": "Feature", "properties": { "osmid": 1821258897.0 }, "geometry": { "type": "Point", "coordinates": [ 3397006.0, 6533266.0 ] } },
{ "type": "Feature", "properties": { "osmid": 2384898017.0 }, "geometry": { "type": "Point", "coordinates": [ 3388847.0, 6522666.0 ] } },
{ "type": "Feature", "properties": { "osmid": 5426029499.0 }, "geometry": { "type": "Point", "coordinates": [ 3394025.0, 6531449.0 ] } },
{ "type": "Feature", "properties": { "osmid": 5220479458.0 }, "geometry": { "type": "Point", "coordinates": [ 3394757.0, 6532009.0 ] } },
{ "type": "Feature", "properties": { "osmid": 5219346933.0 }, "geometry": { "type": "Point", "coordinates": [ 3396653.0, 6506934.0 ] } },
{ "type": "Feature", "properties": { "osmid": 12330416720.0 }, "geometry": { "type": "Point", "coordinates": [ 3389377.0, 6525366.0 ] } },
{ "type": "Feature", "properties": { "osmid": 9921417698.0 }, "geometry": { "type": "Point", "coordinates": [ 3393533.0, 6531310.0 ] } },
{ "type": "Feature", "properties": { "osmid": 4886569751.0 }, "geometry": { "type": "Point", "coordinates": [ 3397708.0, 6533894.0 ] } },
{ "type": "Feature", "properties": { "osmid": 1460248101.0 }, "geometry": { "type": "Point", "coordinates": [ 3388735.0, 6523451.0 ] } },
{ "type": "Feature", "properties": { "osmid": 12352341701.0 }, "geometry": { "type": "Point", "coordinates": [ 3392876.0, 6531021.0 ] } },
{ "type": "Feature", "properties": { "osmid": 3732287022.0 }, "geometry": { "type": "Point", "coordinates": [ 3389381.0, 6526025.0 ] } },
{ "type": "Feature", "properties": { "osmid": 11135579698.0 }, "geometry": { "type": "Point", "coordinates": [ 3394317.0, 6507891.0 ] } },
{ "type": "Feature", "properties": { "osmid": 12351206673.0 }, "geometry": { "type": "Point", "coordinates": [ 3388290.0, 6517798.0 ] } },
{ "type": "Feature", "properties": { "osmid": 3101592496.0 }, "geometry": { "type": "Point", "coordinates": [ 3389720.0, 6526878.0 ] } },
{ "type": "Feature", "properties": { "osmid": 1721047168.0 }, "geometry": { "type": "Point", "coordinates": [ 3388369.0, 6522907.0 ] } },
{ "type": "Feature", "properties": { "osmid": 10315063538.0 }, "geometry": { "type": "Point", "coordinates": [ 3388595.0, 6524412.0 ] } },
{ "type": "Feature", "properties": { "osmid": 11098287476.0 }, "geometry": { "type": "Point", "coordinates": [ 3391032.0, 6529402.0 ] } },
{ "type": "Feature", "properties": { "osmid": 4437819842.0 }, "geometry": { "type": "Point", "coordinates": [ 3405939.0, 6535210.0 ] } },
{ "type": "Feature", "properties": { "osmid": 373261161.0 }, "geometry": { "type": "Point", "coordinates": [ 3388113.0, 6523800.0 ] } },
{ "type": "Feature", "properties": { "osmid": 3038309196.0 }, "geometry": { "type": "Point", "coordinates": [ 3401975.0, 6504566.0 ] } },
{ "type": "Feature", "properties": { "osmid": 13272294580.0 }, "geometry": { "type": "Point", "coordinates": [ 3389157.0, 6526781.0 ] } },
{ "type": "Feature", "properties": { "osmid": 11135579673.0 }, "geometry": { "type": "Point", "coordinates": [ 3391118.0, 6510136.0 ] } },
{ "type": "Feature", "properties": { "osmid": 3046637918.0 }, "geometry": { "type": "Point", "coordinates": [ 3388486.0, 6525524.0 ] } },
{ "type": "Feature", "properties": { "osmid": 3137665937.0 }, "geometry": { "type": "Point", "coordinates": [ 3387701.0, 6523035.0 ] } },
{ "type": "Feature", "properties": { "osmid": 4428767213.0 }, "geometry": { "type": "Point", "coordinates": [ 3418839.0, 6517245.0 ] } },
{ "type": "Feature", "properties": { "osmid": 1211519769.0 }, "geometry": { "type": "Point", "coordinates": [ 3387337.0, 6520499.0 ] } },
{ "type": "Feature", "properties": { "osmid": 8974997146.0 }, "geometry": { "type": "Point", "coordinates": [ 3408685.0, 6535010.0 ] } },
{ "type": "Feature", "properties": { "osmid": 13296429558.0 }, "geometry": { "type": "Point", "coordinates": [ 3389979.0, 6511234.0 ] } },
{ "type": "Feature", "properties": { "osmid": 3269036077.0 }, "geometry": { "type": "Point", "coordinates": [ 3389067.0, 6512601.0 ] } },
{ "type": "Feature", "properties": { "osmid": 11724443847.0 }, "geometry": { "type": "Point", "coordinates": [ 3401800.0, 6504076.0 ] } },
{ "type": "Feature", "properties": { "osmid": 4554351665.0 }, "geometry": { "type": "Point", "coordinates": [ 3407944.0, 6535456.0 ] } },
{ "type": "Feature", "properties": { "osmid": 5226676996.0 }, "geometry": { "type": "Point", "coordinates": [ 3393647.0, 6533289.0 ] } },
{ "type": "Feature", "properties": { "osmid": 11013530345.0 }, "geometry": { "type": "Point", "coordinates": [ 3400488.0, 6503963.0 ] } },
{ "type": "Feature", "properties": { "osmid": 989010320.0 }, "geometry": { "type": "Point", "coordinates": [ 3389562.0, 6529091.0 ] } },
{ "type": "Feature", "properties": { "osmid": 7730570835.0 }, "geometry": { "type": "Point", "coordinates": [ 3397685.0, 6535499.0 ] } },
{ "type": "Feature", "properties": { "osmid": 7879146930.0 }, "geometry": { "type": "Point", "coordinates": [ 3387027.0, 6522772.0 ] } },
{ "type": "Feature", "properties": { "osmid": 4437646627.0 }, "geometry": { "type": "Point", "coordinates": [ 3406994.0, 6536107.0 ] } },
{ "type": "Feature", "properties": { "osmid": 11135763143.0 }, "geometry": { "type": "Point", "coordinates": [ 3386786.0, 6521203.0 ] } },
{ "type": "Feature", "properties": { "osmid": 5828763209.0 }, "geometry": { "type": "Point", "coordinates": [ 3386822.0, 6521780.0 ] } },
{ "type": "Feature", "properties": { "osmid": 8005760187.0 }, "geometry": { "type": "Point", "coordinates": [ 3389633.0, 6510599.0 ] } },
{ "type": "Feature", "properties": { "osmid": 13001466664.0 }, "geometry": { "type": "Point", "coordinates": [ 3396042.0, 6535073.0 ] } },
{ "type": "Feature", "properties": { "osmid": 8193915517.0 }, "geometry": { "type": "Point", "coordinates": [ 3389851.0, 6529960.0 ] } },
{ "type": "Feature", "properties": { "osmid": 11724443821.0 }, "geometry": { "type": "Point", "coordinates": [ 3401551.0, 6503383.0 ] } },
{ "type": "Feature", "properties": { "osmid": 988661542.0 }, "geometry": { "type": "Point", "coordinates": [ 3388941.0, 6528959.0 ] } },
{ "type": "Feature", "properties": { "osmid": 11135554621.0 }, "geometry": { "type": "Point", "coordinates": [ 3389075.0, 6510883.0 ] } },
{ "type": "Feature", "properties": { "osmid": 3756507341.0 }, "geometry": { "type": "Point", "coordinates": [ 3407299.0, 6536711.0 ] } },
{ "type": "Feature", "properties": { "osmid": 13139689045.0 }, "geometry": { "type": "Point", "coordinates": [ 3393366.0, 6534168.0 ] } },
{ "type": "Feature", "properties": { "osmid": 9733160149.0 }, "geometry": { "type": "Point", "coordinates": [ 3386914.0, 6525946.0 ] } },
{ "type": "Feature", "properties": { "osmid": 12954191561.0 }, "geometry": { "type": "Point", "coordinates": [ 3388330.0, 6528957.0 ] } },
{ "type": "Feature", "properties": { "osmid": 11336434537.0 }, "geometry": { "type": "Point", "coordinates": [ 3386078.0, 6522823.0 ] } },
{ "type": "Feature", "properties": { "osmid": 13056676711.0 }, "geometry": { "type": "Point", "coordinates": [ 3396437.0, 6536086.0 ] } },
{ "type": "Feature", "properties": { "osmid": 12859174585.0 }, "geometry": { "type": "Point", "coordinates": [ 3393690.0, 6534622.0 ] } },
{ "type": "Feature", "properties": { "osmid": 12794050574.0 }, "geometry": { "type": "Point", "coordinates": [ 3388550.0, 6510735.0 ] } },
{ "type": "Feature", "properties": { "osmid": 976281979.0 }, "geometry": { "type": "Point", "coordinates": [ 3395327.0, 6535634.0 ] } },
{ "type": "Feature", "properties": { "osmid": 8184737643.0 }, "geometry": { "type": "Point", "coordinates": [ 3385720.0, 6522307.0 ] } },
{ "type": "Feature", "properties": { "osmid": 13661309099.0 }, "geometry": { "type": "Point", "coordinates": [ 3386033.0, 6524476.0 ] } },
{ "type": "Feature", "properties": { "osmid": 12075270392.0 }, "geometry": { "type": "Point", "coordinates": [ 3407412.0, 6537402.0 ] } },
{ "type": "Feature", "properties": { "osmid": 11336334946.0 }, "geometry": { "type": "Point", "coordinates": [ 3385755.0, 6523642.0 ] } },
{ "type": "Feature", "properties": { "osmid": 3804649625.0 }, "geometry": { "type": "Point", "coordinates": [ 3419391.0, 6527636.0 ] } },
{ "type": "Feature", "properties": { "osmid": 2955178877.0 }, "geometry": { "type": "Point", "coordinates": [ 3391027.0, 6533116.0 ] } },
{ "type": "Feature", "properties": { "osmid": 762009602.0 }, "geometry": { "type": "Point", "coordinates": [ 3394588.0, 6535758.0 ] } },
{ "type": "Feature", "properties": { "osmid": 12075270394.0 }, "geometry": { "type": "Point", "coordinates": [ 3407978.0, 6537362.0 ] } },
{ "type": "Feature", "properties": { "osmid": 10157250751.0 }, "geometry": { "type": "Point", "coordinates": [ 3385491.0, 6522994.0 ] } },
{ "type": "Feature", "properties": { "osmid": 473671799.0 }, "geometry": { "type": "Point", "coordinates": [ 3389333.0, 6531487.0 ] } },
{ "type": "Feature", "properties": { "osmid": 345698309.0 }, "geometry": { "type": "Point", "coordinates": [ 3390396.0, 6532757.0 ] } },
{ "type": "Feature", "properties": { "osmid": 4437691791.0 }, "geometry": { "type": "Point", "coordinates": [ 3408527.0, 6537323.0 ] } },
{ "type": "Feature", "properties": { "osmid": 12959765773.0 }, "geometry": { "type": "Point", "coordinates": [ 3409175.0, 6537278.0 ] } },
{ "type": "Feature", "properties": { "osmid": 12980719078.0 }, "geometry": { "type": "Point", "coordinates": [ 3393498.0, 6535527.0 ] } },
{ "type": "Feature", "properties": { "osmid": 2454099549.0 }, "geometry": { "type": "Point", "coordinates": [ 3391749.0, 6534360.0 ] } },
{ "type": "Feature", "properties": { "osmid": 1722628618.0 }, "geometry": { "type": "Point", "coordinates": [ 3400508.0, 6501924.0 ] } },
{ "type": "Feature", "properties": { "osmid": 473671825.0 }, "geometry": { "type": "Point", "coordinates": [ 3388940.0, 6531797.0 ] } },
{ "type": "Feature", "properties": { "osmid": 761399158.0 }, "geometry": { "type": "Point", "coordinates": [ 3393963.0, 6536356.0 ] } },
{ "type": "Feature", "properties": { "osmid": 12150496319.0 }, "geometry": { "type": "Point", "coordinates": [ 3393363.0, 6536036.0 ] } },
{ "type": "Feature", "properties": { "osmid": 11048017705.0 }, "geometry": { "type": "Point", "coordinates": [ 3385233.0, 6525516.0 ] } },
{ "type": "Feature", "properties": { "osmid": 1456221877.0 }, "geometry": { "type": "Point", "coordinates": [ 3384504.0, 6521764.0 ] } },
{ "type": "Feature", "properties": { "osmid": 3060812778.0 }, "geometry": { "type": "Point", "coordinates": [ 3385289.0, 6526095.0 ] } },
{ "type": "Feature", "properties": { "osmid": 4342552638.0 }, "geometry": { "type": "Point", "coordinates": [ 3406241.0, 6538785.0 ] } },
{ "type": "Feature", "properties": { "osmid": 12860393904.0 }, "geometry": { "type": "Point", "coordinates": [ 3393489.0, 6536551.0 ] } },
{ "type": "Feature", "properties": { "osmid": 346412428.0 }, "geometry": { "type": "Point", "coordinates": [ 3388089.0, 6531954.0 ] } },
{ "type": "Feature", "properties": { "osmid": 11138404512.0 }, "geometry": { "type": "Point", "coordinates": [ 3406905.0, 6539105.0 ] } },
{ "type": "Feature", "properties": { "osmid": 5077699065.0 }, "geometry": { "type": "Point", "coordinates": [ 3392839.0, 6536478.0 ] } },
{ "type": "Feature", "properties": { "osmid": 13010026917.0 }, "geometry": { "type": "Point", "coordinates": [ 3383887.0, 6521947.0 ] } },
{ "type": "Feature", "properties": { "osmid": 11133983955.0 }, "geometry": { "type": "Point", "coordinates": [ 3407567.0, 6539054.0 ] } },
{ "type": "Feature", "properties": { "osmid": 8683007440.0 }, "geometry": { "type": "Point", "coordinates": [ 3383976.0, 6516683.0 ] } },
{ "type": "Feature", "properties": { "osmid": 346411551.0 }, "geometry": { "type": "Point", "coordinates": [ 3387563.0, 6531869.0 ] } },
{ "type": "Feature", "properties": { "osmid": 12811602690.0 }, "geometry": { "type": "Point", "coordinates": [ 3395075.0, 6538108.0 ] } },
{ "type": "Feature", "properties": { "osmid": 4316213899.0 }, "geometry": { "type": "Point", "coordinates": [ 3385191.0, 6528411.0 ] } },
{ "type": "Feature", "properties": { "osmid": 6571086202.0 }, "geometry": { "type": "Point", "coordinates": [ 3384002.0, 6525169.0 ] } },
{ "type": "Feature", "properties": { "osmid": 1229356808.0 }, "geometry": { "type": "Point", "coordinates": [ 3383338.0, 6520844.0 ] } },
{ "type": "Feature", "properties": { "osmid": 6291405341.0 }, "geometry": { "type": "Point", "coordinates": [ 3391749.0, 6536425.0 ] } },
{ "type": "Feature", "properties": { "osmid": 5239377469.0 }, "geometry": { "type": "Point", "coordinates": [ 3387515.0, 6532449.0 ] } },
{ "type": "Feature", "properties": { "osmid": 13688263393.0 }, "geometry": { "type": "Point", "coordinates": [ 3393538.0, 6537669.0 ] } },
{ "type": "Feature", "properties": { "osmid": 1278101032.0 }, "geometry": { "type": "Point", "coordinates": [ 3383905.0, 6525697.0 ] } },
{ "type": "Feature", "properties": { "osmid": 12855369192.0 }, "geometry": { "type": "Point", "coordinates": [ 3383229.0, 6517414.0 ] } },
{ "type": "Feature", "properties": { "osmid": 12830209239.0 }, "geometry": { "type": "Point", "coordinates": [ 3386563.0, 6531459.0 ] } },
{ "type": "Feature", "properties": { "osmid": 11672704359.0 }, "geometry": { "type": "Point", "coordinates": [ 3384477.0, 6527817.0 ] } },
{ "type": "Feature", "properties": { "osmid": 12344568113.0 }, "geometry": { "type": "Point", "coordinates": [ 3382771.0, 6520252.0 ] } },
{ "type": "Feature", "properties": { "osmid": 9235538283.0 }, "geometry": { "type": "Point", "coordinates": [ 3384495.0, 6528401.0 ] } },
{ "type": "Feature", "properties": { "osmid": 1226948629.0 }, "geometry": { "type": "Point", "coordinates": [ 3382682.0, 6521032.0 ] } },
{ "type": "Feature", "properties": { "osmid": 13283929418.0 }, "geometry": { "type": "Point", "coordinates": [ 3393415.0, 6538168.0 ] } },
{ "type": "Feature", "properties": { "osmid": 3766770613.0 }, "geometry": { "type": "Point", "coordinates": [ 3383389.0, 6525912.0 ] } },
{ "type": "Feature", "properties": { "osmid": 13118772980.0 }, "geometry": { "type": "Point", "coordinates": [ 3382637.0, 6517909.0 ] } },
{ "type": "Feature", "properties": { "osmid": 9993228174.0 }, "geometry": { "type": "Point", "coordinates": [ 3383919.0, 6527653.0 ] } },
{ "type": "Feature", "properties": { "osmid": 11052826390.0 }, "geometry": { "type": "Point", "coordinates": [ 3386993.0, 6533000.0 ] } },
{ "type": "Feature", "properties": { "osmid": 12830209245.0 }, "geometry": { "type": "Point", "coordinates": [ 3385842.0, 6531731.0 ] } },
{ "type": "Feature", "properties": { "osmid": 7983846497.0 }, "geometry": { "type": "Point", "coordinates": [ 3383920.0, 6528193.0 ] } },
{ "type": "Feature", "properties": { "osmid": 10557659725.0 }, "geometry": { "type": "Point", "coordinates": [ 3387180.0, 6533603.0 ] } },
{ "type": "Feature", "properties": { "osmid": 11860718798.0 }, "geometry": { "type": "Point", "coordinates": [ 3393522.0, 6538768.0 ] } },
{ "type": "Feature", "properties": { "osmid": 443299044.0 }, "geometry": { "type": "Point", "coordinates": [ 3382122.0, 6521439.0 ] } },
{ "type": "Feature", "properties": { "osmid": 36068234.0 }, "geometry": { "type": "Point", "coordinates": [ 3390083.0, 6536709.0 ] } },
{ "type": "Feature", "properties": { "osmid": 10731295806.0 }, "geometry": { "type": "Point", "coordinates": [ 3386686.0, 6533397.0 ] } },
{ "type": "Feature", "properties": { "osmid": 9331359777.0 }, "geometry": { "type": "Point", "coordinates": [ 3392369.0, 6538394.0 ] } },
{ "type": "Feature", "properties": { "osmid": 443299036.0 }, "geometry": { "type": "Point", "coordinates": [ 3381993.0, 6522140.0 ] } },
{ "type": "Feature", "properties": { "osmid": 13283902644.0 }, "geometry": { "type": "Point", "coordinates": [ 3391796.0, 6538204.0 ] } },
{ "type": "Feature", "properties": { "osmid": 11281718333.0 }, "geometry": { "type": "Point", "coordinates": [ 3382490.0, 6525838.0 ] } },
{ "type": "Feature", "properties": { "osmid": 11011234793.0 }, "geometry": { "type": "Point", "coordinates": [ 3386722.0, 6534023.0 ] } },
{ "type": "Feature", "properties": { "osmid": 6398094591.0 }, "geometry": { "type": "Point", "coordinates": [ 3383667.0, 6529326.0 ] } },
{ "type": "Feature", "properties": { "osmid": 6696771538.0 }, "geometry": { "type": "Point", "coordinates": [ 3390989.0, 6537979.0 ] } },
{ "type": "Feature", "properties": { "osmid": 2862205820.0 }, "geometry": { "type": "Point", "coordinates": [ 3389007.0, 6536615.0 ] } },
{ "type": "Feature", "properties": { "osmid": 2646010511.0 }, "geometry": { "type": "Point", "coordinates": [ 3383285.0, 6529670.0 ] } },
{ "type": "Feature", "properties": { "osmid": 8904175247.0 }, "geometry": { "type": "Point", "coordinates": [ 3383612.0, 6530385.0 ] } },
{ "type": "Feature", "properties": { "osmid": 3399331151.0 }, "geometry": { "type": "Point", "coordinates": [ 3388532.0, 6536794.0 ] } },
{ "type": "Feature", "properties": { "osmid": 12319096804.0 }, "geometry": { "type": "Point", "coordinates": [ 3385626.0, 6533712.0 ] } },
{ "type": "Feature", "properties": { "osmid": 8342628212.0 }, "geometry": { "type": "Point", "coordinates": [ 3386245.0, 6534626.0 ] } },
{ "type": "Feature", "properties": { "osmid": 354962468.0 }, "geometry": { "type": "Point", "coordinates": [ 3381778.0, 6526709.0 ] } },
{ "type": "Feature", "properties": { "osmid": 4207884703.0 }, "geometry": { "type": "Point", "coordinates": [ 3393623.0, 6540627.0 ] } },
{ "type": "Feature", "properties": { "osmid": 3060775839.0 }, "geometry": { "type": "Point", "coordinates": [ 3381208.0, 6525689.0 ] } },
{ "type": "Feature", "properties": { "osmid": 11428534787.0 }, "geometry": { "type": "Point", "coordinates": [ 3385346.0, 6534172.0 ] } },
{ "type": "Feature", "properties": { "osmid": 11124841444.0 }, "geometry": { "type": "Point", "coordinates": [ 3384875.0, 6533971.0 ] } },
{ "type": "Feature", "properties": { "osmid": 5721448186.0 }, "geometry": { "type": "Point", "coordinates": [ 3388600.0, 6538099.0 ] } },
{ "type": "Feature", "properties": { "osmid": 11124841486.0 }, "geometry": { "type": "Point", "coordinates": [ 3384937.0, 6534663.0 ] } },
{ "type": "Feature", "properties": { "osmid": 4086705933.0 }, "geometry": { "type": "Point", "coordinates": [ 3407098.0, 6496831.0 ] } },
{ "type": "Feature", "properties": { "osmid": 10587693403.0 }, "geometry": { "type": "Point", "coordinates": [ 3387678.0, 6537961.0 ] } },
{ "type": "Feature", "properties": { "osmid": 9178427007.0 }, "geometry": { "type": "Point", "coordinates": [ 3380146.0, 6525668.0 ] } },
{ "type": "Feature", "properties": { "osmid": 2908951145.0 }, "geometry": { "type": "Point", "coordinates": [ 3388132.0, 6538490.0 ] } },
{ "type": "Feature", "properties": { "osmid": 9867928489.0 }, "geometry": { "type": "Point", "coordinates": [ 3384736.0, 6535187.0 ] } },
{ "type": "Feature", "properties": { "osmid": 4804287783.0 }, "geometry": { "type": "Point", "coordinates": [ 3391359.0, 6541178.0 ] } },
{ "type": "Feature", "properties": { "osmid": 4141343516.0 }, "geometry": { "type": "Point", "coordinates": [ 3379503.0, 6525500.0 ] } },
{ "type": "Feature", "properties": { "osmid": 1453436802.0 }, "geometry": { "type": "Point", "coordinates": [ 3385667.0, 6536928.0 ] } },
{ "type": "Feature", "properties": { "osmid": 11124841480.0 }, "geometry": { "type": "Point", "coordinates": [ 3383769.0, 6535004.0 ] } },
{ "type": "Feature", "properties": { "osmid": 2881329990.0 }, "geometry": { "type": "Point", "coordinates": [ 3386809.0, 6538426.0 ] } },
{ "type": "Feature", "properties": { "osmid": 7784004199.0 }, "geometry": { "type": "Point", "coordinates": [ 3379284.0, 6526344.0 ] } },
{ "type": "Feature", "properties": { "osmid": 1015646702.0 }, "geometry": { "type": "Point", "coordinates": [ 3385302.0, 6537455.0 ] } },
{ "type": "Feature", "properties": { "osmid": 7784004242.0 }, "geometry": { "type": "Point", "coordinates": [ 3379557.0, 6529139.0 ] } },
{ "type": "Feature", "properties": { "osmid": 9368683957.0 }, "geometry": { "type": "Point", "coordinates": [ 3378134.0, 6525430.0 ] } },
{ "type": "Feature", "properties": { "osmid": 7659708222.0 }, "geometry": { "type": "Point", "coordinates": [ 3384833.0, 6538103.0 ] } },
{ "type": "Feature", "properties": { "osmid": 9369167604.0 }, "geometry": { "type": "Point", "coordinates": [ 3378178.0, 6527069.0 ] } },
{ "type": "Feature", "properties": { "osmid": 1916769309.0 }, "geometry": { "type": "Point", "coordinates": [ 3402987.0, 6493774.0 ] } },
{ "type": "Feature", "properties": { "osmid": 775813283.0 }, "geometry": { "type": "Point", "coordinates": [ 3380199.0, 6533026.0 ] } },
{ "type": "Feature", "properties": { "osmid": 3771605429.0 }, "geometry": { "type": "Point", "coordinates": [ 3377255.0, 6525291.0 ] } },
{ "type": "Feature", "properties": { "osmid": 10244097149.0 }, "geometry": { "type": "Point", "coordinates": [ 3379732.0, 6533379.0 ] } },
{ "type": "Feature", "properties": { "osmid": 12108713529.0 }, "geometry": { "type": "Point", "coordinates": [ 3380454.0, 6537965.0 ] } },
{ "type": "Feature", "properties": { "osmid": 6821223669.0 }, "geometry": { "type": "Point", "coordinates": [ 3386029.0, 6546883.0 ] } },
{ "type": "Feature", "properties": { "osmid": 1673798701.0 }, "geometry": { "type": "Point", "coordinates": [ 3380012.0, 6542276.0 ] } },
{ "type": "Feature", "properties": { "osmid": 12153300486.0 }, "geometry": { "type": "Point", "coordinates": [ 3379422.0, 6544617.0 ] } },
{ "type": "Feature", "properties": { "osmid": 6851383121.0 }, "geometry": { "type": "Point", "coordinates": [ 3423649.0, 6547767.0 ] } },
{ "type": "Feature", "properties": { "osmid": 11772239655.0 }, "geometry": { "type": "Point", "coordinates": [ 3377981.0, 6544109.0 ] } },
{ "type": "Feature", "properties": { "osmid": 8873313364.0 }, "geometry": { "type": "Point", "coordinates": [ 3368529.0, 6531124.0 ] } }
]
}
