{
"type": "FeatureCollection",
"name": "lisbon-city_boundary",
"crs": { "type": "name", "properties": { "name": "urn:ogc:def:crs:EPSG::3857" } },
"features": [
{ "type": "Feature", "properties": { "bbox_west": -9.2298356, "bbox_south": 38.6913994, "bbox_east": -9.0863328, "bbox_north": 38.7967584, "place_id": 297101140, "osm_type": "relation", "osm_id": 5400890, "lat": 38.7077507, "lon": -9.1365919, "class": "boundary", "type": "administrative", "place_rank": 14, "importance": 0.76350361483067963, "addresstype": "city", "name": "Lisbon", "display_name": "Lisbon, Portugal" }, "geometry": { "type": "Polygon", "coordinates": [ [ [ -1016597.0, 4679749.0 ], [ -1016568.0, 4679760.0 ], [ -1016565.0, 4679752.0 ], [ -1016554.0, 4679756.0 ], [ -1016553.0, 4679754.0 ], [ -1016616.0, 4679730.0 ], [ -1016616.0, 4679732.0 ], [ -1016606.0, 4679736.0 ], [ -1016609.0, 4679745.0 ], [ -1016601.0, 4679748.0 ], [ -1016623.0, 4679772.0 ], [ -1016628.0, 4679770.0 ], [ -1016668.0, 4679755.0 ], [ -1016657.0, 4679727.0 ], [ -1016640.0, 4679734.0 ], [ -1016637.0, 4679725.0 ], [ -1016631.0, 4679727.0 ], [ -1016630.0, 4679725.0 ], [ -1016657.0, 4679715.0 ], [ -1016683.0, 4679705.0 ], [ -1016684.0, 4679707.0 ], [ -1016679.0, 4679709.0 ], [ -1016682.0, 4679718.0 ], [ -1016666.0, 4679724.0 ], [ -1016676.0, 4679752.0 ], [ -1016740.0, 4679728.0 ], [ -1016729.0, 4679699.0 ], [ -1016712.0, 4679706.0 ], [ -1016709.0, 4679697.0 ], [ -1016703.0, 4679700.0 ], [ -1016702.0, 4679697.0 ], [ -1016729.0, 4679687.0 ], [ -1016756.0, 4679676.0 ], [ -1016757.0, 4679679.0 ], [ -1016751.0, 4679681.0 ], [ -1016754.0, 4679690.0 ], [ -1016737.0, 4679696.0 ], [ -1016747.0, 4679721.0 ], [ -1016815.0, 4679696.0 ], [ -1016804.0, 4679669.0 ], [ -1016784.0, 4679677.0 ], [ -1016781.0, 4679670.0 ], [ -1016776.0, 4679671.0 ], [ -1016775.0, 4679669.0 ], [ -1016829.0, 4679648.0 ], [ -1016829.0, 4679650.0 ], [ -1016823.0, 4679652.0 ], [ -1016827.0, 4679660.0 ], [ -1016810.0, 4679667.0 ], [ -1016821.0, 4679694.0 ], [ -1016859.0, 4679680.0 ], [ -1016859.0, 4679648.0 ], [ -1016856.0, 4679649.0 ], [ -1016854.0, 4679643.0 ], [ -1016848.0, 4679645.0 ], [ -1016847.0, 4679642.0 ], [ -1016899.0, 4679621.0 ], [ -1016900.0, 4679624.0 ], [ -1016895.0, 4679626.0 ], [ -1016898.0, 4679632.0 ], [ -1016865.0, 4679645.0 ], [ -1016865.0, 4679678.0 ], [ -1016878.0, 4679673.0 ], [ -1016889.0, 4679670.0 ], [ -1016896.0, 4679690.0 ], [ -1016897.0, 4679691.0 ], [ -1016901.0, 4679705.0 ], [ -1016902.0, 4679706.0 ], [ -1016918.0, 4679752.0 ], [ -1016932.0, 4679791.0 ], [ -1016932.0, 4679792.0 ], [ -1017007.0, 4679769.0 ], [ -1017005.0, 4679765.0 ], [ -1017004.0, 4679759.0 ], [ -1017004.0, 4679755.0 ], [ -1017004.0, 4679753.0 ], [ -1017004.0, 4679751.0 ], [ -1017004.0, 4679749.0 ], [ -1017005.0, 4679746.0 ], [ -1017006.0, 4679742.0 ], [ -1017007.0, 4679739.0 ], [ -1017008.0, 4679736.0 ], [ -1017009.0, 4679735.0 ], [ -1017010.0, 4679732.0 ], [ -1017011.0, 4679730.0 ], [ -1017012.0, 4679727.0 ], [ -1017012.0, 4679723.0 ], [ -1017012.0, 4679721.0 ], [ -1017012.0, 4679719.0 ], [ -1017012.0, 4679715.0 ], [ -1017012.0, 4679712.0 ], [ -1017011.0, 4679708.0 ], [ -1017009.0, 4679702.0 ], [ -1017016.0, 4679700.0 ], [ -1017024.0, 4679697.0 ], [ -1017025.0, 4679702.0 ], [ -1017028.0, 4679707.0 ], [ -1017030.0, 4679712.0 ], [ -1017033.0, 4679715.0 ], [ -1017035.0, 4679717.0 ], [ -1017039.0, 4679721.0 ], [ -1017041.0, 4679724.0 ], [ -1017044.0, 4679726.0 ], [ -1017047.0, 4679728.0 ], [ -1017052.0, 4679731.0 ], [ -1017053.0, 4679733.0 ], [ -1017055.0, 4679734.0 ], [ -1017057.0, 4679737.0 ], [ -1017059.0, 4679740.0 ], [ -1017060.0, 4679742.0 ], [ -1017061.0, 4679747.0 ], [ -1017063.0, 4679751.0 ], [ -1017122.0, 4679732.0 ], [ -1017133.0, 4679729.0 ], [ -1017144.0, 4679726.0 ], [ -1017144.0, 4679728.0 ], [ -1017210.0, 4679708.0 ], [ -1017215.0, 4679706.0 ], [ -1017244.0, 4679698.0 ], [ -1017254.0, 4679694.0 ], [ -1017282.0, 4679686.0 ], [ -1017279.0, 4679677.0 ], [ -1017275.0, 4679660.0 ], [ -1017274.0, 4679658.0 ], [ -1017579.0, 4679564.0 ], [ -1017590.0, 4679560.0 ], [ -1017598.0, 4679558.0 ], [ -1017623.0, 4679550.0 ], [ -1017629.0, 4679569.0 ], [ -1017630.0, 4679574.0 ], [ -1017631.0, 4679577.0 ], [ -1017641.0, 4679573.0 ], [ -1017662.0, 4679567.0 ], [ -1017695.0, 4679558.0 ], [ -1017702.0, 4679555.0 ], [ -1017735.0, 4679543.0 ], [ -1017740.0, 4679541.0 ], [ -1017782.0, 4679526.0 ], [ -1017786.0, 4679524.0 ], [ -1017789.0, 4679524.0 ], [ -1017792.0, 4679523.0 ], [ -1017795.0, 4679523.0 ], [ -1017798.0, 4679524.0 ], [ -1017800.0, 4679524.0 ], [ -1017802.0, 4679525.0 ], [ -1017804.0, 4679524.0 ], [ -1017809.0, 4679522.0 ], [ -1017882.0, 4679491.0 ], [ -1017883.0, 4679493.0 ], [ -1017890.0, 4679491.0 ], [ -1017891.0, 4679493.0 ], [ -1017884.0, 4679496.0 ], [ -1017893.0, 4679517.0 ], [ -1017895.0, 4679523.0 ], [ -1017897.0, 4679528.0 ], [ -1017908.0, 4679525.0 ], [ -1017978.0, 4679510.0 ], [ -1017977.0, 4679508.0 ], [ -1017982.0, 4679506.0 ], [ -1017981.0, 4679503.0 ], [ -1017980.0, 4679497.0 ], [ -1017971.0, 4679458.0 ], [ -1017942.0, 4679464.0 ], [ -1017940.0, 4679455.0 ], [ -1017934.0, 4679457.0 ], [ -1017933.0, 4679454.0 ], [ -1017961.0, 4679448.0 ], [ -1017990.0, 4679442.0 ], [ -1017990.0, 4679444.0 ], [ -1017984.0, 4679445.0 ], [ -1017986.0, 4679454.0 ], [ -1017980.0, 4679456.0 ], [ -1017989.0, 4679495.0 ], [ -1017990.0, 4679501.0 ], [ -1017991.0, 4679504.0 ], [ -1018045.0, 4679492.0 ], [ -1018044.0, 4679489.0 ], [ -1018043.0, 4679483.0 ], [ -1018034.0, 4679443.0 ], [ -1018017.0, 4679447.0 ], [ -1018015.0, 4679438.0 ], [ -1018009.0, 4679439.0 ], [ -1018008.0, 4679437.0 ], [ -1018064.0, 4679424.0 ], [ -1018064.0, 4679427.0 ], [ -1018058.0, 4679428.0 ], [ -1018060.0, 4679437.0 ], [ -1018043.0, 4679441.0 ], [ -1018054.0, 4679490.0 ], [ -1018108.0, 4679478.0 ], [ -1018107.0, 4679476.0 ], [ -1018106.0, 4679469.0 ], [ -1018097.0, 4679429.0 ], [ -1018091.0, 4679430.0 ], [ -1018089.0, 4679421.0 ], [ -1018083.0, 4679422.0 ], [ -1018083.0, 4679420.0 ], [ -1018139.0, 4679407.0 ], [ -1018139.0, 4679409.0 ], [ -1018134.0, 4679411.0 ], [ -1018135.0, 4679419.0 ], [ -1018106.0, 4679426.0 ], [ -1018115.0, 4679467.0 ], [ -1018117.0, 4679474.0 ], [ -1018117.0, 4679476.0 ], [ -1018163.0, 4679465.0 ], [ -1018194.0, 4679481.0 ], [ -1018196.0, 4679482.0 ], [ -1018201.0, 4679484.0 ], [ -1018205.0, 4679486.0 ], [ -1018202.0, 4679492.0 ], [ -1018239.0, 4679511.0 ], [ -1018247.0, 4679496.0 ], [ -1018252.0, 4679486.0 ], [ -1018254.0, 4679487.0 ], [ -1018256.0, 4679488.0 ], [ -1018251.0, 4679498.0 ], [ -1018245.0, 4679508.0 ], [ -1018243.0, 4679513.0 ], [ -1018334.0, 4679561.0 ], [ -1018342.0, 4679545.0 ], [ -1018349.0, 4679534.0 ], [ -1018353.0, 4679536.0 ], [ -1018358.0, 4679539.0 ], [ -1018351.0, 4679550.0 ], [ -1018343.0, 4679565.0 ], [ -1018382.0, 4679586.0 ], [ -1018390.0, 4679570.0 ], [ -1018396.0, 4679558.0 ], [ -1018398.0, 4679559.0 ], [ -1018401.0, 4679560.0 ], [ -1018394.0, 4679573.0 ], [ -1018386.0, 4679588.0 ], [ -1018436.0, 4679614.0 ], [ -1018450.0, 4679589.0 ], [ -1018444.0, 4679586.0 ], [ -1018446.0, 4679584.0 ], [ -1018444.0, 4679583.0 ], [ -1018447.0, 4679578.0 ], [ -1018465.0, 4679588.0 ], [ -1018464.0, 4679589.0 ], [ -1018483.0, 4679599.0 ], [ -1018484.0, 4679597.0 ], [ -1018493.0, 4679601.0 ], [ -1018710.0, 4679551.0 ], [ -1018801.0, 4679531.0 ], [ -1019123.0, 4679457.0 ], [ -1019142.0, 4679425.0 ], [ -1019119.0, 4679325.0 ], [ -1019213.0, 4679303.0 ], [ -1019243.0, 4679429.0 ], [ -1019381.0, 4679397.0 ], [ -1019345.0, 4679325.0 ], [ -1019583.0, 4679271.0 ], [ -1019602.0, 4679154.0 ], [ -1019821.0, 4679158.0 ], [ -1019842.0, 4679135.0 ], [ -1019843.0, 4679135.0 ], [ -1019893.0, 4679135.0 ], [ -1019893.0, 4679091.0 ], [ -1019857.0, 4679091.0 ], [ -1019817.0, 4679055.0 ], [ -1019603.0, 4679073.0 ], [ -1019373.0, 4679106.0 ], [ -1019359.0, 4679104.0 ], [ -1019356.0, 4679090.0 ], [ -1019388.0, 4679077.0 ], [ -1019895.0, 4678960.0 ], [ -1019976.0, 4678941.0 ], [ -1019970.0, 4678912.0 ], [ -1020057.0, 4678849.0 ], [ -1020049.0, 4678808.0 ], [ -1021408.0, 4678490.0 ], [ -1021414.0, 4678518.0 ], [ -1021403.0, 4678520.0 ], [ -1021422.0, 4678605.0 ], [ -1021457.0, 4678598.0 ], [ -1021457.0, 4678605.0 ], [ -1021460.0, 4678617.0 ], [ -1021773.0, 4678548.0 ], [ -1021813.0, 4678521.0 ], [ -1021839.0, 4678516.0 ], [ -1021832.0, 4678502.0 ], [ -1021850.0, 4678497.0 ], [ -1021851.0, 4678530.0 ], [ -1022738.0, 4678324.0 ], [ -1022748.0, 4678322.0 ], [ -1023418.0, 4678167.0 ], [ -1023413.0, 4678149.0 ], [ -1023426.0, 4678146.0 ], [ -1023427.0, 4678165.0 ], [ -1023572.0, 4678132.0 ], [ -1023570.0, 4678099.0 ], [ -1023576.0, 4678097.0 ], [ -1023583.0, 4678097.0 ], [ -1023585.0, 4678128.0 ], [ -1023624.0, 4678119.0 ], [ -1023618.0, 4678096.0 ], [ -1023637.0, 4678091.0 ], [ -1023642.0, 4678116.0 ], [ -1023758.0, 4678090.0 ], [ -1023747.0, 4678057.0 ], [ -1023760.0, 4678054.0 ], [ -1023765.0, 4678088.0 ], [ -1023881.0, 4678061.0 ], [ -1023880.0, 4678054.0 ], [ -1023895.0, 4678051.0 ], [ -1023897.0, 4678058.0 ], [ -1023962.0, 4678042.0 ], [ -1023961.0, 4678035.0 ], [ -1023976.0, 4678032.0 ], [ -1023978.0, 4678039.0 ], [ -1024044.0, 4678024.0 ], [ -1024042.0, 4678016.0 ], [ -1024057.0, 4678012.0 ], [ -1024058.0, 4678019.0 ], [ -1025682.0, 4677640.0 ], [ -1025676.0, 4677613.0 ], [ -1025683.0, 4677611.0 ], [ -1025690.0, 4677639.0 ], [ -1025812.0, 4677607.0 ], [ -1025879.0, 4677602.0 ], [ -1025892.0, 4677597.0 ], [ -1025898.0, 4677571.0 ], [ -1025910.0, 4677563.0 ], [ -1025922.0, 4677565.0 ], [ -1025932.0, 4677574.0 ], [ -1025926.0, 4677608.0 ], [ -1025949.0, 4677633.0 ], [ -1025976.0, 4677611.0 ], [ -1026030.0, 4677609.0 ], [ -1026074.0, 4677625.0 ], [ -1026168.0, 4677687.0 ], [ -1026208.0, 4677717.0 ], [ -1026237.0, 4677758.0 ], [ -1026244.0, 4677792.0 ], [ -1026241.0, 4677819.0 ], [ -1026270.0, 4677826.0 ], [ -1026385.0, 4677759.0 ], [ -1026463.0, 4677727.0 ], [ -1026565.0, 4677697.0 ], [ -1026722.0, 4677681.0 ], [ -1026778.0, 4677687.0 ], [ -1026843.0, 4677704.0 ], [ -1026894.0, 4677725.0 ], [ -1026997.0, 4677791.0 ], [ -1027360.0, 4678052.0 ], [ -1027435.0, 4678105.0 ], [ -1027461.0, 4678123.0 ], [ -1027332.0, 4678414.0 ], [ -1027247.0, 4678378.0 ], [ -1027171.0, 4678335.0 ], [ -1027079.0, 4678444.0 ], [ -1027173.0, 4678504.0 ], [ -1027163.0, 4678542.0 ], [ -1027184.0, 4678562.0 ], [ -1027196.0, 4678599.0 ], [ -1027160.0, 4678650.0 ], [ -1027143.0, 4678699.0 ], [ -1027041.0, 4679388.0 ], [ -1027014.0, 4679432.0 ], [ -1026981.0, 4679461.0 ], [ -1026800.0, 4679601.0 ], [ -1026640.0, 4679703.0 ], [ -1026615.0, 4679727.0 ], [ -1026609.0, 4679740.0 ], [ -1026604.0, 4679761.0 ], [ -1026610.0, 4679800.0 ], [ -1026701.0, 4680009.0 ], [ -1026716.0, 4680063.0 ], [ -1026737.0, 4680227.0 ], [ -1026727.0, 4680322.0 ], [ -1026657.0, 4680686.0 ], [ -1026637.0, 4680753.0 ], [ -1026620.0, 4680788.0 ], [ -1026353.0, 4681195.0 ], [ -1026281.0, 4681310.0 ], [ -1026228.0, 4681390.0 ], [ -1025892.0, 4681649.0 ], [ -1025746.0, 4681751.0 ], [ -1025387.0, 4681927.0 ], [ -1025295.0, 4682005.0 ], [ -1025049.0, 4682195.0 ], [ -1025025.0, 4682237.0 ], [ -1025038.0, 4682288.0 ], [ -1025243.0, 4683083.0 ], [ -1024706.0, 4684170.0 ], [ -1024735.0, 4684548.0 ], [ -1024739.0, 4684590.0 ], [ -1024739.0, 4684593.0 ], [ -1024754.0, 4684771.0 ], [ -1024765.0, 4684902.0 ], [ -1024776.0, 4684930.0 ], [ -1025134.0, 4685530.0 ], [ -1025410.0, 4685992.0 ], [ -1025392.0, 4686003.0 ], [ -1025283.0, 4686075.0 ], [ -1025106.0, 4686401.0 ], [ -1025140.0, 4686497.0 ], [ -1025113.0, 4686531.0 ], [ -1025148.0, 4686625.0 ], [ -1025022.0, 4686720.0 ], [ -1025020.0, 4686730.0 ], [ -1025039.0, 4686800.0 ], [ -1025023.0, 4686829.0 ], [ -1024965.0, 4686859.0 ], [ -1024945.0, 4686860.0 ], [ -1024926.0, 4686849.0 ], [ -1024911.0, 4686851.0 ], [ -1024904.0, 4686854.0 ], [ -1024874.0, 4686870.0 ], [ -1024846.0, 4686931.0 ], [ -1024828.0, 4686949.0 ], [ -1024700.0, 4686940.0 ], [ -1024581.0, 4686926.0 ], [ -1024457.0, 4687025.0 ], [ -1024398.0, 4687045.0 ], [ -1024156.0, 4687155.0 ], [ -1024129.0, 4687181.0 ], [ -1023948.0, 4687207.0 ], [ -1023923.0, 4687217.0 ], [ -1023923.0, 4687218.0 ], [ -1023898.0, 4687420.0 ], [ -1023899.0, 4687435.0 ], [ -1023930.0, 4687429.0 ], [ -1023931.0, 4687435.0 ], [ -1023936.0, 4687488.0 ], [ -1024017.0, 4687573.0 ], [ -1024078.0, 4687560.0 ], [ -1024217.0, 4687633.0 ], [ -1024188.0, 4687725.0 ], [ -1024179.0, 4687733.0 ], [ -1024117.0, 4687752.0 ], [ -1023988.0, 4687834.0 ], [ -1023959.0, 4687839.0 ], [ -1023899.0, 4687830.0 ], [ -1023876.0, 4687834.0 ], [ -1023858.0, 4687931.0 ], [ -1023848.0, 4687953.0 ], [ -1023883.0, 4687975.0 ], [ -1023973.0, 4688161.0 ], [ -1023749.0, 4688545.0 ], [ -1023645.0, 4688656.0 ], [ -1023597.0, 4688728.0 ], [ -1023536.0, 4688803.0 ], [ -1023490.0, 4688875.0 ], [ -1023424.0, 4688927.0 ], [ -1023326.0, 4688972.0 ], [ -1023232.0, 4689048.0 ], [ -1023077.0, 4689109.0 ], [ -1023029.0, 4689174.0 ], [ -1023004.0, 4689196.0 ], [ -1022970.0, 4689213.0 ], [ -1022945.0, 4689260.0 ], [ -1022906.0, 4689356.0 ], [ -1022884.0, 4689373.0 ], [ -1022828.0, 4689382.0 ], [ -1022799.0, 4689399.0 ], [ -1022763.0, 4689474.0 ], [ -1022728.0, 4689527.0 ], [ -1022552.0, 4689595.0 ], [ -1022552.0, 4689627.0 ], [ -1022545.0, 4689668.0 ], [ -1022464.0, 4689728.0 ], [ -1022349.0, 4689857.0 ], [ -1022298.0, 4689926.0 ], [ -1022260.0, 4690000.0 ], [ -1022232.0, 4690004.0 ], [ -1022128.0, 4690027.0 ], [ -1022097.0, 4690063.0 ], [ -1021962.0, 4690088.0 ], [ -1021908.0, 4690109.0 ], [ -1021864.0, 4690129.0 ], [ -1021838.0, 4690187.0 ], [ -1021822.0, 4690190.0 ], [ -1021803.0, 4690184.0 ], [ -1021695.0, 4690240.0 ], [ -1021653.0, 4690234.0 ], [ -1021626.0, 4690217.0 ], [ -1021517.0, 4690188.0 ], [ -1021456.0, 4690259.0 ], [ -1021432.0, 4690266.0 ], [ -1021380.0, 4690245.0 ], [ -1021371.0, 4690241.0 ], [ -1021235.0, 4690288.0 ], [ -1021215.0, 4690378.0 ], [ -1021190.0, 4690389.0 ], [ -1021199.0, 4690492.0 ], [ -1021162.0, 4690503.0 ], [ -1021159.0, 4690482.0 ], [ -1021113.0, 4690515.0 ], [ -1021067.0, 4690579.0 ], [ -1021044.0, 4690598.0 ], [ -1020933.0, 4690619.0 ], [ -1020924.0, 4690638.0 ], [ -1020922.0, 4690666.0 ], [ -1020896.0, 4690707.0 ], [ -1020852.0, 4690731.0 ], [ -1020826.0, 4690731.0 ], [ -1020753.0, 4690922.0 ], [ -1020761.0, 4690960.0 ], [ -1020732.0, 4690997.0 ], [ -1020721.0, 4691001.0 ], [ -1020692.0, 4691031.0 ], [ -1020671.0, 4691031.0 ], [ -1020651.0, 4691056.0 ], [ -1020498.0, 4691069.0 ], [ -1020488.0, 4691112.0 ], [ -1020480.0, 4691116.0 ], [ -1020402.0, 4691097.0 ], [ -1020351.0, 4691107.0 ], [ -1020330.0, 4691076.0 ], [ -1020298.0, 4691091.0 ], [ -1020282.0, 4691151.0 ], [ -1020255.0, 4691149.0 ], [ -1020116.0, 4691275.0 ], [ -1020123.0, 4691332.0 ], [ -1020096.0, 4691365.0 ], [ -1020082.0, 4691370.0 ], [ -1020034.0, 4691362.0 ], [ -1019954.0, 4691441.0 ], [ -1019887.0, 4691451.0 ], [ -1019878.0, 4691458.0 ], [ -1019783.0, 4691575.0 ], [ -1019775.0, 4691641.0 ], [ -1019763.0, 4691640.0 ], [ -1019700.0, 4691708.0 ], [ -1019649.0, 4691733.0 ], [ -1019604.0, 4691869.0 ], [ -1019510.0, 4691932.0 ], [ -1019518.0, 4691943.0 ], [ -1019516.0, 4691954.0 ], [ -1019509.0, 4691962.0 ], [ -1019480.0, 4691973.0 ], [ -1019462.0, 4692042.0 ], [ -1019448.0, 4692049.0 ], [ -1019392.0, 4692055.0 ], [ -1019378.0, 4692065.0 ], [ -1019290.0, 4692192.0 ], [ -1019211.0, 4692159.0 ], [ -1019147.0, 4692164.0 ], [ -1019137.0, 4692173.0 ], [ -1019130.0, 4692206.0 ], [ -1019109.0, 4692248.0 ], [ -1019081.0, 4692278.0 ], [ -1019068.0, 4692285.0 ], [ -1019002.0, 4692291.0 ], [ -1018988.0, 4692269.0 ], [ -1018897.0, 4692274.0 ], [ -1018885.0, 4692250.0 ], [ -1018844.0, 4692271.0 ], [ -1018840.0, 4692282.0 ], [ -1018833.0, 4692327.0 ], [ -1018735.0, 4692392.0 ], [ -1018730.0, 4692444.0 ], [ -1018561.0, 4692471.0 ], [ -1018537.0, 4692441.0 ], [ -1018512.0, 4692386.0 ], [ -1018500.0, 4692370.0 ], [ -1018419.0, 4692318.0 ], [ -1018386.0, 4692307.0 ], [ -1018369.0, 4692315.0 ], [ -1018347.0, 4692316.0 ], [ -1018297.0, 4692289.0 ], [ -1018139.0, 4692223.0 ], [ -1018095.0, 4692082.0 ], [ -1018077.0, 4691997.0 ], [ -1018073.0, 4691928.0 ], [ -1018061.0, 4691898.0 ], [ -1018062.0, 4691869.0 ], [ -1018069.0, 4691863.0 ], [ -1018127.0, 4691868.0 ], [ -1018128.0, 4691854.0 ], [ -1018074.0, 4691499.0 ], [ -1018055.0, 4691417.0 ], [ -1018027.0, 4691371.0 ], [ -1017770.0, 4691427.0 ], [ -1017741.0, 4691424.0 ], [ -1017721.0, 4691407.0 ], [ -1017648.0, 4691322.0 ], [ -1017654.0, 4691311.0 ], [ -1017588.0, 4691236.0 ], [ -1017501.0, 4691199.0 ], [ -1017449.0, 4691185.0 ], [ -1017434.0, 4691178.0 ], [ -1017215.0, 4691084.0 ], [ -1017133.0, 4691037.0 ], [ -1017061.0, 4690982.0 ], [ -1016976.0, 4690940.0 ], [ -1016784.0, 4690900.0 ], [ -1016767.0, 4690903.0 ], [ -1016502.0, 4690828.0 ], [ -1016323.0, 4690778.0 ], [ -1016305.0, 4690783.0 ], [ -1016249.0, 4690780.0 ], [ -1016157.0, 4690758.0 ], [ -1015964.0, 4690678.0 ], [ -1015886.0, 4690635.0 ], [ -1015774.0, 4690611.0 ], [ -1015673.0, 4690609.0 ], [ -1015578.0, 4690641.0 ], [ -1015566.0, 4690645.0 ], [ -1015461.0, 4690687.0 ], [ -1015413.0, 4690584.0 ], [ -1015314.0, 4690590.0 ], [ -1015285.0, 4690566.0 ], [ -1015272.0, 4690577.0 ], [ -1015187.0, 4690499.0 ], [ -1014940.0, 4690411.0 ], [ -1014665.0, 4690298.0 ], [ -1014598.0, 4690287.0 ], [ -1014466.0, 4690218.0 ], [ -1014409.0, 4690171.0 ], [ -1014325.0, 4690114.0 ], [ -1014254.0, 4690049.0 ], [ -1014228.0, 4690018.0 ], [ -1014126.0, 4689811.0 ], [ -1013948.0, 4689668.0 ], [ -1013882.0, 4689596.0 ], [ -1013747.0, 4689476.0 ], [ -1013702.0, 4689466.0 ], [ -1013571.0, 4689477.0 ], [ -1013421.0, 4689490.0 ], [ -1013288.0, 4689501.0 ], [ -1013235.0, 4689505.0 ], [ -1013211.0, 4689508.0 ], [ -1013169.0, 4689511.0 ], [ -1013154.0, 4689513.0 ], [ -1013092.0, 4689518.0 ], [ -1012910.0, 4689524.0 ], [ -1013043.0, 4690664.0 ], [ -1013114.0, 4691309.0 ], [ -1013121.0, 4691543.0 ], [ -1013117.0, 4691644.0 ], [ -1013089.0, 4691884.0 ], [ -1012940.0, 4692545.0 ], [ -1012857.0, 4692516.0 ], [ -1012847.0, 4692512.0 ], [ -1012805.0, 4692510.0 ], [ -1012776.0, 4692515.0 ], [ -1012656.0, 4692579.0 ], [ -1012595.0, 4692596.0 ], [ -1012563.0, 4692601.0 ], [ -1012508.0, 4692600.0 ], [ -1012456.0, 4692591.0 ], [ -1012260.0, 4692541.0 ], [ -1012242.0, 4692537.0 ], [ -1012242.0, 4692542.0 ], [ -1012234.0, 4692541.0 ], [ -1012235.0, 4692538.0 ], [ -1012208.0, 4692531.0 ], [ -1012184.0, 4692531.0 ], [ -1012178.0, 4692535.0 ], [ -1012175.0, 4692522.0 ], [ -1012151.0, 4692518.0 ], [ -1012079.0, 4692522.0 ], [ -1011486.0, 4692525.0 ], [ -1011575.0, 4692057.0 ], [ -1011609.0, 4691757.0 ], [ -1011638.0, 4691461.0 ], [ -1011657.0, 4691116.0 ], [ -1011694.0, 4690489.0 ], [ -1011992.0, 4690414.0 ], [ -1012051.0, 4689478.0 ], [ -1012048.0, 4689478.0 ], [ -1012037.0, 4689477.0 ], [ -1012033.0, 4689477.0 ], [ -1012023.0, 4689475.0 ], [ -1012012.0, 4689473.0 ], [ -1012002.0, 4689471.0 ], [ -1011991.0, 4689468.0 ], [ -1011984.0, 4689463.0 ], [ -1011981.0, 4689461.0 ], [ -1011977.0, 4689457.0 ], [ -1011976.0, 4689454.0 ], [ -1011976.0, 4689452.0 ], [ -1011976.0, 4689450.0 ], [ -1011978.0, 4689448.0 ], [ -1011980.0, 4689445.0 ], [ -1011983.0, 4689443.0 ], [ -1011988.0, 4689441.0 ], [ -1011997.0, 4689439.0 ], [ -1012010.0, 4689437.0 ], [ -1012026.0, 4689436.0 ], [ -1012038.0, 4689435.0 ], [ -1012050.0, 4689436.0 ], [ -1012052.0, 4689436.0 ], [ -1012061.0, 4689303.0 ], [ -1012055.0, 4689303.0 ], [ -1012035.0, 4689302.0 ], [ -1012039.0, 4689246.0 ], [ -1012057.0, 4689241.0 ], [ -1012057.0, 4689247.0 ], [ -1012064.0, 4689248.0 ], [ -1012082.0, 4688968.0 ], [ -1012090.0, 4688968.0 ], [ -1012094.0, 4688891.0 ], [ -1012087.0, 4688891.0 ], [ -1012118.0, 4688401.0 ], [ -1012076.0, 4688398.0 ], [ -1012045.0, 4688396.0 ], [ -1012048.0, 4688358.0 ], [ -1012120.0, 4688362.0 ], [ -1012130.0, 4688212.0 ], [ -1012105.0, 4688211.0 ], [ -1012107.0, 4688031.0 ], [ -1012085.0, 4687825.0 ], [ -1011999.0, 4687621.0 ], [ -1011964.0, 4687508.0 ], [ -1011959.0, 4687346.0 ], [ -1011978.0, 4687214.0 ], [ -1011968.0, 4687212.0 ], [ -1011968.0, 4687196.0 ], [ -1012031.0, 4686891.0 ], [ -1012041.0, 4686875.0 ], [ -1012080.0, 4686676.0 ], [ -1012117.0, 4686584.0 ], [ -1012154.0, 4686549.0 ], [ -1012105.0, 4686460.0 ], [ -1012143.0, 4686431.0 ], [ -1012219.0, 4686396.0 ], [ -1012249.0, 4686389.0 ], [ -1012285.0, 4686386.0 ], [ -1012348.0, 4686391.0 ], [ -1012367.0, 4686407.0 ], [ -1012391.0, 4686392.0 ], [ -1012408.0, 4686395.0 ], [ -1012410.0, 4686387.0 ], [ -1012500.0, 4685961.0 ], [ -1012268.0, 4685915.0 ], [ -1012265.0, 4685928.0 ], [ -1012246.0, 4685924.0 ], [ -1012253.0, 4685893.0 ], [ -1012272.0, 4685897.0 ], [ -1012270.0, 4685908.0 ], [ -1012306.0, 4685911.0 ], [ -1012305.0, 4685916.0 ], [ -1012376.0, 4685931.0 ], [ -1012398.0, 4685826.0 ], [ -1012417.0, 4685830.0 ], [ -1012397.0, 4685920.0 ], [ -1012400.0, 4685925.0 ], [ -1012504.0, 4685947.0 ], [ -1012597.0, 4685512.0 ], [ -1012613.0, 4685436.0 ], [ -1012617.0, 4685421.0 ], [ -1012622.0, 4685394.0 ], [ -1012650.0, 4685267.0 ], [ -1012531.0, 4685241.0 ], [ -1012530.0, 4685248.0 ], [ -1012525.0, 4685246.0 ], [ -1012530.0, 4685224.0 ], [ -1012535.0, 4685225.0 ], [ -1012533.0, 4685233.0 ], [ -1012648.0, 4685258.0 ], [ -1012652.0, 4685258.0 ], [ -1012673.0, 4685160.0 ], [ -1012682.0, 4685116.0 ], [ -1012676.0, 4685115.0 ], [ -1012673.0, 4685114.0 ], [ -1012675.0, 4685101.0 ], [ -1012678.0, 4685102.0 ], [ -1012685.0, 4685103.0 ], [ -1012685.0, 4685102.0 ], [ -1012696.0, 4685049.0 ], [ -1012708.0, 4684996.0 ], [ -1012714.0, 4684968.0 ], [ -1012720.0, 4684936.0 ], [ -1012723.0, 4684926.0 ], [ -1012731.0, 4684895.0 ], [ -1012743.0, 4684860.0 ], [ -1012750.0, 4684843.0 ], [ -1012758.0, 4684829.0 ], [ -1012759.0, 4684827.0 ], [ -1012751.0, 4684824.0 ], [ -1012750.0, 4684823.0 ], [ -1012976.0, 4684354.0 ], [ -1013000.0, 4684298.0 ], [ -1013028.0, 4684230.0 ], [ -1013112.0, 4684041.0 ], [ -1013178.0, 4683888.0 ], [ -1013217.0, 4683795.0 ], [ -1013255.0, 4683706.0 ], [ -1013274.0, 4683663.0 ], [ -1013303.0, 4683594.0 ], [ -1013333.0, 4683528.0 ], [ -1013340.0, 4683511.0 ], [ -1013403.0, 4683370.0 ], [ -1013458.0, 4683258.0 ], [ -1013541.0, 4683104.0 ], [ -1013573.0, 4683050.0 ], [ -1013567.0, 4683046.0 ], [ -1013563.0, 4683041.0 ], [ -1013561.0, 4683034.0 ], [ -1013584.0, 4682710.0 ], [ -1013578.0, 4682707.0 ], [ -1013603.0, 4682646.0 ], [ -1013785.0, 4682450.0 ], [ -1013975.0, 4682246.0 ], [ -1014001.0, 4682218.0 ], [ -1014056.0, 4682214.0 ], [ -1014111.0, 4682259.0 ], [ -1014129.0, 4682235.0 ], [ -1014235.0, 4682103.0 ], [ -1014319.0, 4681999.0 ], [ -1014393.0, 4681904.0 ], [ -1014509.0, 4681760.0 ], [ -1014626.0, 4681613.0 ], [ -1014717.0, 4681501.0 ], [ -1014733.0, 4681481.0 ], [ -1014813.0, 4681377.0 ], [ -1014933.0, 4681227.0 ], [ -1015183.0, 4681007.0 ], [ -1015240.0, 4680938.0 ], [ -1015239.0, 4680937.0 ], [ -1015248.0, 4680926.0 ], [ -1015241.0, 4680920.0 ], [ -1015239.0, 4680906.0 ], [ -1015478.0, 4680614.0 ], [ -1015559.0, 4680514.0 ], [ -1015584.0, 4680483.0 ], [ -1015816.0, 4680198.0 ], [ -1016195.0, 4679934.0 ], [ -1016228.0, 4679981.0 ], [ -1016239.0, 4679974.0 ], [ -1016247.0, 4679970.0 ], [ -1016338.0, 4679917.0 ], [ -1016384.0, 4679892.0 ], [ -1016387.0, 4679892.0 ], [ -1016389.0, 4679892.0 ], [ -1016390.0, 4679894.0 ], [ -1016391.0, 4679895.0 ], [ -1016392.0, 4679898.0 ], [ -1016392.0, 4679900.0 ], [ -1016391.0, 4679902.0 ], [ -1016390.0, 4679904.0 ], [ -1016346.0, 4679928.0 ], [ -1016304.0, 4679952.0 ], [ -1016262.0, 4679976.0 ], [ -1016264.0, 4679978.0 ], [ -1016293.0, 4680032.0 ], [ -1016294.0, 4680034.0 ], [ -1016427.0, 4679962.0 ], [ -1016494.0, 4679926.0 ], [ -1016595.0, 4679872.0 ], [ -1016597.0, 4679871.0 ], [ -1016599.0, 4679866.0 ], [ -1016600.0, 4679866.0 ], [ -1016606.0, 4679844.0 ], [ -1016605.0, 4679844.0 ], [ -1016606.0, 4679840.0 ], [ -1016607.0, 4679837.0 ], [ -1016593.0, 4679810.0 ], [ -1016579.0, 4679807.0 ], [ -1016546.0, 4679823.0 ], [ -1016512.0, 4679839.0 ], [ -1016444.0, 4679874.0 ], [ -1016442.0, 4679874.0 ], [ -1016440.0, 4679874.0 ], [ -1016438.0, 4679873.0 ], [ -1016437.0, 4679871.0 ], [ -1016436.0, 4679870.0 ], [ -1016435.0, 4679868.0 ], [ -1016436.0, 4679866.0 ], [ -1016436.0, 4679865.0 ], [ -1016437.0, 4679863.0 ], [ -1016438.0, 4679862.0 ], [ -1016470.0, 4679845.0 ], [ -1016515.0, 4679823.0 ], [ -1016585.0, 4679790.0 ], [ -1016585.0, 4679791.0 ], [ -1016596.0, 4679786.0 ], [ -1016596.0, 4679785.0 ], [ -1016599.0, 4679784.0 ], [ -1016603.0, 4679782.0 ], [ -1016618.0, 4679775.0 ], [ -1016618.0, 4679774.0 ], [ -1016597.0, 4679749.0 ] ] ] } }
]
}
