{
"type": "FeatureCollection",
"name": "ljubljana-city_boundary",
"crs": { "type": "name", "properties": { "name": "urn:ogc:def:crs:EPSG::3857" } },
"features": [
{ "type": "Feature", "properties": { "bbox_west": 14.408617, "bbox_south": 45.9740637, "bbox_east": 14.755332, "bbox_north": 46.1459968, "place_id": 68639375, "osm_type": "relation", "osm_id": 1675898, "lat": 46.06005, "lon": 14.5911883, "class": "boundary", "type": "administrative", "place_rank": 16, "importance": 0.54425351693643509, "addresstype": "municipality", "name": "Ljubljana", "display_name": "Ljubljana, Upravna Enota Ljubljana, Slovenia" }, "geometry": { "type": "Polygon", "coordinates": [ [ [ 1603998.0, 5793586.0 ], [ 1603982.0, 5793633.0 ], [ 1604023.0, 5793730.0 ], [ 1604062.0, 5793879.0 ], [ 1604110.0, 5793926.0 ], [ 1604211.0, 5793985.0 ], [ 1604329.0, 5794101.0 ], [ 1604240.0, 5794253.0 ], [ 1604274.0, 5794489.0 ], [ 1604255.0, 5794532.0 ], [ 1604279.0, 5794576.0 ], [ 1604399.0, 5794656.0 ], [ 1604422.0, 5794648.0 ], [ 1604478.0, 5794672.0 ], [ 1604526.0, 5794679.0 ], [ 1604537.0, 5794695.0 ], [ 1604533.0, 5794722.0 ], [ 1604647.0, 5794818.0 ], [ 1604666.0, 5794857.0 ], [ 1604671.0, 5794917.0 ], [ 1604633.0, 5794990.0 ], [ 1604754.0, 5794995.0 ], [ 1604798.0, 5795066.0 ], [ 1604837.0, 5795094.0 ], [ 1604850.0, 5795085.0 ], [ 1604874.0, 5795109.0 ], [ 1604911.0, 5795183.0 ], [ 1604945.0, 5795210.0 ], [ 1604980.0, 5795148.0 ], [ 1605038.0, 5795101.0 ], [ 1605084.0, 5795087.0 ], [ 1605220.0, 5795100.0 ], [ 1605274.0, 5795074.0 ], [ 1605373.0, 5795053.0 ], [ 1605412.0, 5795115.0 ], [ 1605523.0, 5795108.0 ], [ 1605718.0, 5795125.0 ], [ 1605795.0, 5795146.0 ], [ 1605806.0, 5795165.0 ], [ 1605825.0, 5795169.0 ], [ 1605816.0, 5795194.0 ], [ 1605832.0, 5795204.0 ], [ 1606036.0, 5795227.0 ], [ 1606098.0, 5795258.0 ], [ 1606125.0, 5795262.0 ], [ 1606215.0, 5795209.0 ], [ 1606264.0, 5795263.0 ], [ 1606330.0, 5795457.0 ], [ 1606381.0, 5795523.0 ], [ 1606431.0, 5795546.0 ], [ 1606534.0, 5795485.0 ], [ 1606642.0, 5795458.0 ], [ 1606748.0, 5795413.0 ], [ 1606870.0, 5795273.0 ], [ 1607064.0, 5795283.0 ], [ 1607033.0, 5795344.0 ], [ 1607046.0, 5795410.0 ], [ 1607098.0, 5795481.0 ], [ 1607167.0, 5795534.0 ], [ 1607213.0, 5795553.0 ], [ 1607307.0, 5795564.0 ], [ 1607370.0, 5795609.0 ], [ 1607403.0, 5795603.0 ], [ 1607459.0, 5795572.0 ], [ 1607533.0, 5795564.0 ], [ 1607642.0, 5795588.0 ], [ 1607659.0, 5795598.0 ], [ 1607686.0, 5795650.0 ], [ 1607745.0, 5795677.0 ], [ 1607710.0, 5795876.0 ], [ 1607594.0, 5796024.0 ], [ 1607535.0, 5796071.0 ], [ 1607446.0, 5796173.0 ], [ 1607277.0, 5796237.0 ], [ 1607221.0, 5796288.0 ], [ 1607217.0, 5796313.0 ], [ 1607004.0, 5796404.0 ], [ 1607016.0, 5796420.0 ], [ 1606964.0, 5796429.0 ], [ 1606918.0, 5796491.0 ], [ 1606778.0, 5796619.0 ], [ 1606647.0, 5796596.0 ], [ 1606584.0, 5796568.0 ], [ 1606539.0, 5796575.0 ], [ 1606436.0, 5796618.0 ], [ 1606359.0, 5796750.0 ], [ 1606436.0, 5796857.0 ], [ 1606495.0, 5796993.0 ], [ 1606469.0, 5797015.0 ], [ 1606449.0, 5797072.0 ], [ 1606446.0, 5797196.0 ], [ 1606408.0, 5797203.0 ], [ 1606401.0, 5797219.0 ], [ 1606317.0, 5797192.0 ], [ 1606253.0, 5797293.0 ], [ 1606203.0, 5797407.0 ], [ 1606227.0, 5797428.0 ], [ 1606154.0, 5797549.0 ], [ 1606109.0, 5797702.0 ], [ 1606059.0, 5798044.0 ], [ 1606083.0, 5798160.0 ], [ 1606075.0, 5798212.0 ], [ 1606036.0, 5798350.0 ], [ 1606037.0, 5798441.0 ], [ 1605993.0, 5798492.0 ], [ 1605974.0, 5798535.0 ], [ 1605991.0, 5798579.0 ], [ 1606021.0, 5798810.0 ], [ 1605961.0, 5798859.0 ], [ 1605712.0, 5798787.0 ], [ 1605700.0, 5798775.0 ], [ 1605667.0, 5798780.0 ], [ 1605375.0, 5798717.0 ], [ 1605367.0, 5798639.0 ], [ 1605346.0, 5798643.0 ], [ 1605327.0, 5798631.0 ], [ 1605296.0, 5798664.0 ], [ 1605227.0, 5798640.0 ], [ 1605253.0, 5798691.0 ], [ 1605248.0, 5798723.0 ], [ 1605271.0, 5798769.0 ], [ 1605310.0, 5798788.0 ], [ 1605318.0, 5798842.0 ], [ 1605297.0, 5798881.0 ], [ 1605299.0, 5799080.0 ], [ 1605310.0, 5799138.0 ], [ 1605300.0, 5799160.0 ], [ 1605357.0, 5799144.0 ], [ 1605372.0, 5799159.0 ], [ 1605364.0, 5799242.0 ], [ 1605409.0, 5799347.0 ], [ 1605441.0, 5799523.0 ], [ 1605446.0, 5799613.0 ], [ 1605482.0, 5799688.0 ], [ 1605470.0, 5799743.0 ], [ 1605481.0, 5799752.0 ], [ 1605484.0, 5799782.0 ], [ 1605518.0, 5799788.0 ], [ 1605533.0, 5799767.0 ], [ 1605543.0, 5799783.0 ], [ 1605603.0, 5799763.0 ], [ 1605739.0, 5799796.0 ], [ 1605773.0, 5799828.0 ], [ 1605741.0, 5799849.0 ], [ 1605741.0, 5799910.0 ], [ 1605755.0, 5799940.0 ], [ 1605835.0, 5799948.0 ], [ 1605845.0, 5799960.0 ], [ 1605822.0, 5800010.0 ], [ 1605777.0, 5800046.0 ], [ 1605777.0, 5800068.0 ], [ 1605860.0, 5800133.0 ], [ 1605876.0, 5800177.0 ], [ 1605814.0, 5800199.0 ], [ 1605809.0, 5800238.0 ], [ 1605822.0, 5800307.0 ], [ 1605775.0, 5800385.0 ], [ 1605814.0, 5800515.0 ], [ 1605874.0, 5800513.0 ], [ 1605893.0, 5800620.0 ], [ 1605947.0, 5800702.0 ], [ 1606004.0, 5800739.0 ], [ 1605983.0, 5800900.0 ], [ 1605990.0, 5800946.0 ], [ 1605932.0, 5800960.0 ], [ 1605889.0, 5801000.0 ], [ 1605976.0, 5801029.0 ], [ 1606028.0, 5801000.0 ], [ 1606052.0, 5801078.0 ], [ 1606116.0, 5801076.0 ], [ 1606156.0, 5801075.0 ], [ 1606199.0, 5801085.0 ], [ 1606225.0, 5801061.0 ], [ 1606233.0, 5800996.0 ], [ 1606267.0, 5800996.0 ], [ 1606315.0, 5801024.0 ], [ 1606323.0, 5801040.0 ], [ 1606357.0, 5801007.0 ], [ 1606382.0, 5801097.0 ], [ 1606411.0, 5801082.0 ], [ 1606450.0, 5801031.0 ], [ 1606495.0, 5801024.0 ], [ 1606565.0, 5801127.0 ], [ 1607032.0, 5801003.0 ], [ 1607110.0, 5800979.0 ], [ 1607190.0, 5800943.0 ], [ 1607246.0, 5800886.0 ], [ 1607268.0, 5800847.0 ], [ 1607339.0, 5800449.0 ], [ 1607411.0, 5800232.0 ], [ 1607459.0, 5800149.0 ], [ 1607578.0, 5800015.0 ], [ 1607873.0, 5799815.0 ], [ 1607844.0, 5799793.0 ], [ 1607894.0, 5799766.0 ], [ 1607930.0, 5799853.0 ], [ 1608124.0, 5799993.0 ], [ 1608112.0, 5800010.0 ], [ 1608165.0, 5800128.0 ], [ 1608184.0, 5800116.0 ], [ 1608334.0, 5800258.0 ], [ 1608368.0, 5800307.0 ], [ 1608451.0, 5800360.0 ], [ 1608562.0, 5800603.0 ], [ 1608571.0, 5800795.0 ], [ 1608523.0, 5800966.0 ], [ 1608657.0, 5801004.0 ], [ 1608736.0, 5800982.0 ], [ 1608755.0, 5800976.0 ], [ 1609019.0, 5800969.0 ], [ 1608945.0, 5801282.0 ], [ 1608988.0, 5801288.0 ], [ 1609036.0, 5801277.0 ], [ 1609185.0, 5801201.0 ], [ 1609265.0, 5801258.0 ], [ 1609350.0, 5801286.0 ], [ 1609382.0, 5801256.0 ], [ 1609479.0, 5801280.0 ], [ 1609531.0, 5801348.0 ], [ 1609647.0, 5801394.0 ], [ 1609710.0, 5801477.0 ], [ 1609682.0, 5801516.0 ], [ 1609762.0, 5801601.0 ], [ 1609740.0, 5801704.0 ], [ 1609731.0, 5801718.0 ], [ 1609724.0, 5801723.0 ], [ 1609729.0, 5801742.0 ], [ 1609724.0, 5801767.0 ], [ 1609733.0, 5801775.0 ], [ 1609755.0, 5801775.0 ], [ 1609904.0, 5801735.0 ], [ 1609970.0, 5801807.0 ], [ 1610033.0, 5801843.0 ], [ 1610131.0, 5801988.0 ], [ 1610162.0, 5802010.0 ], [ 1610302.0, 5802069.0 ], [ 1610439.0, 5801871.0 ], [ 1610626.0, 5801945.0 ], [ 1610604.0, 5802032.0 ], [ 1610603.0, 5802081.0 ], [ 1610638.0, 5802298.0 ], [ 1610606.0, 5802310.0 ], [ 1610569.0, 5802254.0 ], [ 1610523.0, 5802212.0 ], [ 1610506.0, 5802167.0 ], [ 1610233.0, 5802333.0 ], [ 1610226.0, 5802570.0 ], [ 1610208.0, 5802577.0 ], [ 1610235.0, 5802696.0 ], [ 1610536.0, 5802743.0 ], [ 1610560.0, 5802788.0 ], [ 1610466.0, 5802796.0 ], [ 1610570.0, 5803058.0 ], [ 1610646.0, 5803047.0 ], [ 1610745.0, 5803051.0 ], [ 1610776.0, 5803062.0 ], [ 1610816.0, 5803100.0 ], [ 1610998.0, 5803166.0 ], [ 1611010.0, 5803145.0 ], [ 1611009.0, 5803083.0 ], [ 1610994.0, 5803081.0 ], [ 1610973.0, 5802987.0 ], [ 1610990.0, 5802932.0 ], [ 1610972.0, 5802926.0 ], [ 1611025.0, 5802876.0 ], [ 1611025.0, 5802839.0 ], [ 1611048.0, 5802846.0 ], [ 1611066.0, 5802869.0 ], [ 1611093.0, 5802853.0 ], [ 1611107.0, 5802829.0 ], [ 1611104.0, 5802812.0 ], [ 1611130.0, 5802812.0 ], [ 1611142.0, 5802781.0 ], [ 1611175.0, 5802780.0 ], [ 1611198.0, 5802795.0 ], [ 1611346.0, 5802644.0 ], [ 1611370.0, 5802576.0 ], [ 1611361.0, 5802517.0 ], [ 1611371.0, 5802517.0 ], [ 1611378.0, 5802451.0 ], [ 1611299.0, 5802347.0 ], [ 1611296.0, 5802329.0 ], [ 1611346.0, 5802241.0 ], [ 1611427.0, 5802221.0 ], [ 1611449.0, 5802127.0 ], [ 1611600.0, 5802302.0 ], [ 1611675.0, 5802372.0 ], [ 1611677.0, 5802374.0 ], [ 1611765.0, 5802457.0 ], [ 1611840.0, 5802448.0 ], [ 1611853.0, 5802419.0 ], [ 1611894.0, 5802393.0 ], [ 1611909.0, 5802409.0 ], [ 1612002.0, 5802353.0 ], [ 1612040.0, 5802347.0 ], [ 1612189.0, 5802361.0 ], [ 1612278.0, 5802386.0 ], [ 1612298.0, 5802435.0 ], [ 1612362.0, 5802470.0 ], [ 1612434.0, 5802551.0 ], [ 1612488.0, 5802581.0 ], [ 1612457.0, 5802640.0 ], [ 1612455.0, 5802666.0 ], [ 1612610.0, 5802832.0 ], [ 1612668.0, 5803017.0 ], [ 1612812.0, 5803060.0 ], [ 1612911.0, 5803069.0 ], [ 1613104.0, 5803039.0 ], [ 1613130.0, 5802994.0 ], [ 1613209.0, 5803032.0 ], [ 1613297.0, 5803053.0 ], [ 1613368.0, 5803087.0 ], [ 1613445.0, 5803143.0 ], [ 1613795.0, 5803133.0 ], [ 1613832.0, 5803261.0 ], [ 1613919.0, 5803240.0 ], [ 1613979.0, 5803190.0 ], [ 1614059.0, 5803182.0 ], [ 1614090.0, 5803195.0 ], [ 1614162.0, 5803188.0 ], [ 1614236.0, 5803200.0 ], [ 1614282.0, 5803250.0 ], [ 1614399.0, 5803329.0 ], [ 1614679.0, 5803466.0 ], [ 1614715.0, 5803461.0 ], [ 1614752.0, 5803590.0 ], [ 1614750.0, 5803704.0 ], [ 1614774.0, 5803776.0 ], [ 1614926.0, 5803737.0 ], [ 1615190.0, 5803624.0 ], [ 1615301.0, 5803553.0 ], [ 1615383.0, 5803445.0 ], [ 1615433.0, 5803432.0 ], [ 1615514.0, 5803437.0 ], [ 1615663.0, 5803478.0 ], [ 1615705.0, 5803299.0 ], [ 1615774.0, 5803094.0 ], [ 1615819.0, 5803025.0 ], [ 1615684.0, 5802758.0 ], [ 1615551.0, 5802778.0 ], [ 1615510.0, 5802804.0 ], [ 1615458.0, 5802786.0 ], [ 1615441.0, 5802775.0 ], [ 1615474.0, 5802726.0 ], [ 1615504.0, 5802586.0 ], [ 1615679.0, 5802565.0 ], [ 1615707.0, 5802481.0 ], [ 1615756.0, 5802403.0 ], [ 1615856.0, 5802356.0 ], [ 1615961.0, 5802237.0 ], [ 1616070.0, 5802206.0 ], [ 1616186.0, 5802144.0 ], [ 1616401.0, 5801871.0 ], [ 1616393.0, 5801700.0 ], [ 1616370.0, 5801664.0 ], [ 1616323.0, 5801435.0 ], [ 1616372.0, 5801400.0 ], [ 1616385.0, 5801356.0 ], [ 1616441.0, 5801208.0 ], [ 1616443.0, 5800997.0 ], [ 1616501.0, 5800814.0 ], [ 1616524.0, 5800778.0 ], [ 1616592.0, 5800717.0 ], [ 1616692.0, 5800667.0 ], [ 1616747.0, 5800564.0 ], [ 1616765.0, 5800503.0 ], [ 1616843.0, 5800443.0 ], [ 1616899.0, 5800453.0 ], [ 1616996.0, 5800425.0 ], [ 1617084.0, 5800376.0 ], [ 1617219.0, 5800260.0 ], [ 1617368.0, 5800233.0 ], [ 1617401.0, 5800211.0 ], [ 1617416.0, 5800193.0 ], [ 1617410.0, 5799988.0 ], [ 1617425.0, 5799938.0 ], [ 1617468.0, 5799894.0 ], [ 1617548.0, 5799872.0 ], [ 1617590.0, 5799832.0 ], [ 1617623.0, 5799778.0 ], [ 1617688.0, 5799712.0 ], [ 1617762.0, 5799669.0 ], [ 1617810.0, 5799661.0 ], [ 1617858.0, 5799720.0 ], [ 1617896.0, 5799738.0 ], [ 1618018.0, 5799766.0 ], [ 1618112.0, 5799772.0 ], [ 1618113.0, 5799746.0 ], [ 1618087.0, 5799717.0 ], [ 1618085.0, 5799693.0 ], [ 1618199.0, 5799634.0 ], [ 1618250.0, 5799500.0 ], [ 1618278.0, 5799457.0 ], [ 1618369.0, 5799421.0 ], [ 1618476.0, 5799331.0 ], [ 1618518.0, 5799276.0 ], [ 1618507.0, 5799187.0 ], [ 1618490.0, 5799169.0 ], [ 1618490.0, 5799149.0 ], [ 1618464.0, 5799126.0 ], [ 1618485.0, 5799055.0 ], [ 1618498.0, 5799015.0 ], [ 1618492.0, 5799005.0 ], [ 1618535.0, 5798948.0 ], [ 1618609.0, 5798904.0 ], [ 1618696.0, 5798892.0 ], [ 1618749.0, 5798912.0 ], [ 1618815.0, 5798910.0 ], [ 1618891.0, 5798926.0 ], [ 1618960.0, 5798967.0 ], [ 1619011.0, 5798966.0 ], [ 1619026.0, 5798990.0 ], [ 1619055.0, 5798976.0 ], [ 1619097.0, 5798914.0 ], [ 1619160.0, 5798871.0 ], [ 1619301.0, 5798725.0 ], [ 1619449.0, 5798670.0 ], [ 1619512.0, 5798591.0 ], [ 1619526.0, 5798574.0 ], [ 1619597.0, 5798602.0 ], [ 1619610.0, 5798617.0 ], [ 1619652.0, 5798617.0 ], [ 1619707.0, 5798652.0 ], [ 1619758.0, 5798687.0 ], [ 1619864.0, 5798800.0 ], [ 1619875.0, 5798887.0 ], [ 1619910.0, 5798909.0 ], [ 1619978.0, 5799084.0 ], [ 1620070.0, 5799027.0 ], [ 1620139.0, 5799072.0 ], [ 1620171.0, 5799063.0 ], [ 1620271.0, 5798945.0 ], [ 1620556.0, 5798912.0 ], [ 1620653.0, 5798891.0 ], [ 1620820.0, 5798840.0 ], [ 1620823.0, 5798830.0 ], [ 1620849.0, 5798829.0 ], [ 1620851.0, 5798817.0 ], [ 1620900.0, 5798812.0 ], [ 1620923.0, 5798786.0 ], [ 1620939.0, 5798790.0 ], [ 1620983.0, 5798748.0 ], [ 1620985.0, 5798733.0 ], [ 1621023.0, 5798723.0 ], [ 1621089.0, 5798602.0 ], [ 1621088.0, 5798558.0 ], [ 1621113.0, 5798522.0 ], [ 1621133.0, 5798520.0 ], [ 1621202.0, 5798547.0 ], [ 1621266.0, 5798535.0 ], [ 1621308.0, 5798583.0 ], [ 1621386.0, 5798544.0 ], [ 1621385.0, 5798525.0 ], [ 1621407.0, 5798494.0 ], [ 1621403.0, 5798475.0 ], [ 1621424.0, 5798434.0 ], [ 1621463.0, 5798419.0 ], [ 1621494.0, 5798383.0 ], [ 1621517.0, 5798376.0 ], [ 1621530.0, 5798351.0 ], [ 1621527.0, 5798330.0 ], [ 1621570.0, 5798328.0 ], [ 1621569.0, 5798311.0 ], [ 1621595.0, 5798315.0 ], [ 1621612.0, 5798303.0 ], [ 1621604.0, 5798272.0 ], [ 1621579.0, 5798273.0 ], [ 1621578.0, 5798258.0 ], [ 1621593.0, 5798235.0 ], [ 1621629.0, 5798246.0 ], [ 1621640.0, 5798238.0 ], [ 1621643.0, 5798210.0 ], [ 1621688.0, 5798179.0 ], [ 1621656.0, 5798147.0 ], [ 1621688.0, 5798104.0 ], [ 1621711.0, 5798104.0 ], [ 1621712.0, 5798073.0 ], [ 1621664.0, 5798073.0 ], [ 1621638.0, 5798060.0 ], [ 1621633.0, 5798011.0 ], [ 1621647.0, 5797989.0 ], [ 1621726.0, 5798020.0 ], [ 1621731.0, 5797990.0 ], [ 1621715.0, 5797966.0 ], [ 1621731.0, 5797961.0 ], [ 1621770.0, 5797980.0 ], [ 1621790.0, 5797976.0 ], [ 1621810.0, 5797951.0 ], [ 1621845.0, 5797963.0 ], [ 1621927.0, 5797919.0 ], [ 1621884.0, 5797871.0 ], [ 1621818.0, 5797823.0 ], [ 1621779.0, 5797768.0 ], [ 1621769.0, 5797670.0 ], [ 1621708.0, 5797641.0 ], [ 1621734.0, 5797634.0 ], [ 1621727.0, 5797603.0 ], [ 1621917.0, 5797384.0 ], [ 1622007.0, 5797261.0 ], [ 1622020.0, 5797244.0 ], [ 1622073.0, 5797091.0 ], [ 1622135.0, 5796992.0 ], [ 1622202.0, 5796847.0 ], [ 1622203.0, 5796875.0 ], [ 1622272.0, 5796912.0 ], [ 1622357.0, 5797028.0 ], [ 1622487.0, 5797120.0 ], [ 1622511.0, 5797218.0 ], [ 1622578.0, 5797273.0 ], [ 1622652.0, 5797279.0 ], [ 1622885.0, 5796970.0 ], [ 1622932.0, 5796927.0 ], [ 1622991.0, 5796893.0 ], [ 1623024.0, 5796962.0 ], [ 1623028.0, 5797172.0 ], [ 1622975.0, 5797340.0 ], [ 1622977.0, 5797384.0 ], [ 1622994.0, 5797416.0 ], [ 1623129.0, 5797509.0 ], [ 1623121.0, 5797620.0 ], [ 1623158.0, 5797601.0 ], [ 1623221.0, 5797501.0 ], [ 1623227.0, 5797413.0 ], [ 1623258.0, 5797372.0 ], [ 1623306.0, 5797400.0 ], [ 1623336.0, 5797438.0 ], [ 1623349.0, 5797485.0 ], [ 1623317.0, 5797529.0 ], [ 1623347.0, 5797576.0 ], [ 1623323.0, 5797610.0 ], [ 1623324.0, 5797624.0 ], [ 1623371.0, 5797702.0 ], [ 1623390.0, 5797688.0 ], [ 1623389.0, 5797653.0 ], [ 1623363.0, 5797642.0 ], [ 1623359.0, 5797615.0 ], [ 1623461.0, 5797586.0 ], [ 1623481.0, 5797572.0 ], [ 1623497.0, 5797561.0 ], [ 1623528.0, 5797456.0 ], [ 1623551.0, 5797419.0 ], [ 1623556.0, 5797369.0 ], [ 1623521.0, 5797329.0 ], [ 1623527.0, 5797309.0 ], [ 1623593.0, 5797257.0 ], [ 1623633.0, 5797227.0 ], [ 1623698.0, 5797224.0 ], [ 1623741.0, 5797191.0 ], [ 1623840.0, 5797156.0 ], [ 1623879.0, 5797156.0 ], [ 1623970.0, 5797075.0 ], [ 1624014.0, 5797090.0 ], [ 1624133.0, 5797179.0 ], [ 1624348.0, 5797053.0 ], [ 1624328.0, 5797018.0 ], [ 1624357.0, 5796997.0 ], [ 1624371.0, 5796965.0 ], [ 1624480.0, 5796872.0 ], [ 1624480.0, 5796799.0 ], [ 1624509.0, 5796714.0 ], [ 1624489.0, 5796551.0 ], [ 1624451.0, 5796489.0 ], [ 1624476.0, 5796450.0 ], [ 1624452.0, 5796426.0 ], [ 1624623.0, 5796186.0 ], [ 1624478.0, 5796106.0 ], [ 1624523.0, 5795979.0 ], [ 1624433.0, 5795954.0 ], [ 1624537.0, 5795758.0 ], [ 1624520.0, 5795715.0 ], [ 1624434.0, 5795644.0 ], [ 1624406.0, 5795048.0 ], [ 1624400.0, 5794686.0 ], [ 1624205.0, 5794633.0 ], [ 1624288.0, 5794399.0 ], [ 1624347.0, 5794160.0 ], [ 1624368.0, 5794164.0 ], [ 1624397.0, 5794071.0 ], [ 1624615.0, 5794102.0 ], [ 1624814.0, 5794091.0 ], [ 1624903.0, 5794076.0 ], [ 1625151.0, 5793986.0 ], [ 1625527.0, 5793803.0 ], [ 1626047.0, 5793490.0 ], [ 1627208.0, 5792749.0 ], [ 1627557.0, 5792565.0 ], [ 1627721.0, 5792495.0 ], [ 1627954.0, 5792417.0 ], [ 1628209.0, 5792355.0 ], [ 1628412.0, 5792319.0 ], [ 1628402.0, 5792374.0 ], [ 1628681.0, 5792356.0 ], [ 1629003.0, 5792366.0 ], [ 1629266.0, 5792405.0 ], [ 1629375.0, 5792421.0 ], [ 1629459.0, 5792453.0 ], [ 1629597.0, 5792504.0 ], [ 1629720.0, 5792550.0 ], [ 1629890.0, 5792634.0 ], [ 1630022.0, 5792705.0 ], [ 1630227.0, 5792820.0 ], [ 1630436.0, 5792946.0 ], [ 1630602.0, 5792997.0 ], [ 1630703.0, 5793024.0 ], [ 1630869.0, 5793050.0 ], [ 1631193.0, 5793066.0 ], [ 1631347.0, 5793044.0 ], [ 1631545.0, 5792970.0 ], [ 1631777.0, 5792954.0 ], [ 1632022.0, 5792957.0 ], [ 1632310.0, 5792941.0 ], [ 1632462.0, 5792996.0 ], [ 1632621.0, 5793091.0 ], [ 1632710.0, 5793180.0 ], [ 1632886.0, 5793384.0 ], [ 1633006.0, 5793550.0 ], [ 1633169.0, 5793704.0 ], [ 1633215.0, 5793746.0 ], [ 1633261.0, 5793794.0 ], [ 1633347.0, 5793893.0 ], [ 1633413.0, 5793970.0 ], [ 1633478.0, 5794032.0 ], [ 1633642.0, 5794171.0 ], [ 1633703.0, 5794222.0 ], [ 1633852.0, 5794037.0 ], [ 1633872.0, 5794030.0 ], [ 1633892.0, 5794030.0 ], [ 1633895.0, 5794027.0 ], [ 1633857.0, 5793927.0 ], [ 1633834.0, 5793859.0 ], [ 1633827.0, 5793845.0 ], [ 1633819.0, 5793817.0 ], [ 1633857.0, 5793815.0 ], [ 1633862.0, 5793838.0 ], [ 1633885.0, 5793831.0 ], [ 1633907.0, 5793352.0 ], [ 1633865.0, 5793193.0 ], [ 1633869.0, 5793114.0 ], [ 1633920.0, 5793045.0 ], [ 1633994.0, 5793033.0 ], [ 1634028.0, 5793010.0 ], [ 1634055.0, 5792970.0 ], [ 1634119.0, 5792932.0 ], [ 1634175.0, 5792879.0 ], [ 1634208.0, 5792821.0 ], [ 1634217.0, 5792769.0 ], [ 1634229.0, 5792761.0 ], [ 1634278.0, 5792755.0 ], [ 1634309.0, 5792747.0 ], [ 1634337.0, 5792728.0 ], [ 1634371.0, 5792687.0 ], [ 1634410.0, 5792682.0 ], [ 1634543.0, 5792708.0 ], [ 1634593.0, 5792745.0 ], [ 1634609.0, 5792758.0 ], [ 1634642.0, 5792777.0 ], [ 1634696.0, 5792778.0 ], [ 1634767.0, 5792794.0 ], [ 1634852.0, 5792797.0 ], [ 1634931.0, 5792779.0 ], [ 1634951.0, 5792758.0 ], [ 1634975.0, 5792733.0 ], [ 1634993.0, 5792692.0 ], [ 1635010.0, 5792657.0 ], [ 1635016.0, 5792580.0 ], [ 1635050.0, 5792516.0 ], [ 1635105.0, 5792478.0 ], [ 1635123.0, 5792465.0 ], [ 1635142.0, 5792444.0 ], [ 1635184.0, 5792368.0 ], [ 1635224.0, 5792310.0 ], [ 1635245.0, 5792297.0 ], [ 1635285.0, 5792231.0 ], [ 1635351.0, 5792223.0 ], [ 1635410.0, 5792164.0 ], [ 1635422.0, 5792125.0 ], [ 1635425.0, 5792089.0 ], [ 1635439.0, 5792061.0 ], [ 1635467.0, 5792113.0 ], [ 1635485.0, 5792147.0 ], [ 1635573.0, 5792255.0 ], [ 1635652.0, 5792345.0 ], [ 1636019.0, 5792691.0 ], [ 1636188.0, 5792660.0 ], [ 1636218.0, 5792561.0 ], [ 1636242.0, 5792538.0 ], [ 1636260.0, 5792534.0 ], [ 1636303.0, 5792534.0 ], [ 1636343.0, 5792555.0 ], [ 1636364.0, 5792566.0 ], [ 1636406.0, 5792607.0 ], [ 1636464.0, 5792677.0 ], [ 1636482.0, 5792729.0 ], [ 1636512.0, 5792754.0 ], [ 1636540.0, 5792770.0 ], [ 1636587.0, 5792814.0 ], [ 1636614.0, 5792829.0 ], [ 1636635.0, 5792844.0 ], [ 1636677.0, 5792884.0 ], [ 1636797.0, 5792928.0 ], [ 1636846.0, 5792927.0 ], [ 1636886.0, 5792900.0 ], [ 1636961.0, 5792886.0 ], [ 1637089.0, 5792909.0 ], [ 1637165.0, 5792883.0 ], [ 1637233.0, 5792840.0 ], [ 1637288.0, 5792845.0 ], [ 1637335.0, 5792820.0 ], [ 1637420.0, 5792802.0 ], [ 1637462.0, 5792812.0 ], [ 1637576.0, 5792798.0 ], [ 1637643.0, 5792813.0 ], [ 1637697.0, 5792851.0 ], [ 1637705.0, 5792846.0 ], [ 1637694.0, 5792800.0 ], [ 1637703.0, 5792676.0 ], [ 1637692.0, 5792646.0 ], [ 1637912.0, 5792499.0 ], [ 1638115.0, 5792514.0 ], [ 1638225.0, 5792489.0 ], [ 1638261.0, 5792441.0 ], [ 1638324.0, 5792498.0 ], [ 1638406.0, 5792434.0 ], [ 1638452.0, 5792371.0 ], [ 1638470.0, 5792312.0 ], [ 1638533.0, 5792265.0 ], [ 1638583.0, 5792201.0 ], [ 1638699.0, 5792158.0 ], [ 1638770.0, 5792120.0 ], [ 1638966.0, 5791943.0 ], [ 1638959.0, 5791907.0 ], [ 1638977.0, 5791811.0 ], [ 1638954.0, 5791736.0 ], [ 1638973.0, 5791615.0 ], [ 1638952.0, 5791520.0 ], [ 1638832.0, 5791369.0 ], [ 1638797.0, 5791344.0 ], [ 1638726.0, 5791395.0 ], [ 1638646.0, 5791367.0 ], [ 1638567.0, 5791306.0 ], [ 1638514.0, 5791306.0 ], [ 1638495.0, 5791293.0 ], [ 1638518.0, 5791267.0 ], [ 1638554.0, 5791254.0 ], [ 1638661.0, 5791238.0 ], [ 1638770.0, 5791161.0 ], [ 1638792.0, 5791160.0 ], [ 1638841.0, 5791046.0 ], [ 1638939.0, 5790965.0 ], [ 1639020.0, 5790932.0 ], [ 1639049.0, 5790879.0 ], [ 1639074.0, 5790878.0 ], [ 1639142.0, 5790928.0 ], [ 1639223.0, 5790917.0 ], [ 1639414.0, 5790962.0 ], [ 1639444.0, 5790958.0 ], [ 1639455.0, 5790937.0 ], [ 1639476.0, 5790928.0 ], [ 1639485.0, 5790899.0 ], [ 1639579.0, 5790885.0 ], [ 1639593.0, 5790868.0 ], [ 1639658.0, 5790868.0 ], [ 1639745.0, 5790949.0 ], [ 1639858.0, 5790939.0 ], [ 1639886.0, 5790945.0 ], [ 1639898.0, 5790974.0 ], [ 1639922.0, 5790971.0 ], [ 1639950.0, 5790951.0 ], [ 1639998.0, 5790975.0 ], [ 1640083.0, 5790982.0 ], [ 1640126.0, 5791008.0 ], [ 1640131.0, 5791060.0 ], [ 1640182.0, 5791086.0 ], [ 1640237.0, 5791087.0 ], [ 1640270.0, 5791065.0 ], [ 1640289.0, 5791033.0 ], [ 1640334.0, 5791028.0 ], [ 1640415.0, 5791145.0 ], [ 1640466.0, 5791133.0 ], [ 1640569.0, 5791176.0 ], [ 1640640.0, 5791177.0 ], [ 1640664.0, 5791218.0 ], [ 1640733.0, 5791218.0 ], [ 1640874.0, 5791255.0 ], [ 1640910.0, 5791219.0 ], [ 1640962.0, 5791202.0 ], [ 1641044.0, 5791199.0 ], [ 1641073.0, 5791211.0 ], [ 1641106.0, 5791251.0 ], [ 1641209.0, 5791198.0 ], [ 1641291.0, 5791192.0 ], [ 1641403.0, 5791230.0 ], [ 1641439.0, 5791278.0 ], [ 1641464.0, 5791288.0 ], [ 1641488.0, 5791291.0 ], [ 1641523.0, 5791250.0 ], [ 1641532.0, 5791199.0 ], [ 1641499.0, 5791140.0 ], [ 1641529.0, 5791088.0 ], [ 1641548.0, 5791019.0 ], [ 1641531.0, 5790978.0 ], [ 1641556.0, 5790893.0 ], [ 1641549.0, 5790844.0 ], [ 1641568.0, 5790685.0 ], [ 1641637.0, 5790571.0 ], [ 1641649.0, 5790499.0 ], [ 1641634.0, 5790351.0 ], [ 1641641.0, 5790299.0 ], [ 1641607.0, 5790252.0 ], [ 1641591.0, 5790150.0 ], [ 1641519.0, 5790044.0 ], [ 1641485.0, 5790017.0 ], [ 1641554.0, 5789900.0 ], [ 1641606.0, 5789874.0 ], [ 1641523.0, 5789839.0 ], [ 1641441.0, 5789788.0 ], [ 1641355.0, 5789683.0 ], [ 1641321.0, 5789661.0 ], [ 1641184.0, 5789603.0 ], [ 1641088.0, 5789587.0 ], [ 1640956.0, 5789524.0 ], [ 1640898.0, 5789544.0 ], [ 1640942.0, 5789429.0 ], [ 1640730.0, 5789356.0 ], [ 1640652.0, 5789242.0 ], [ 1640583.0, 5789204.0 ], [ 1640485.0, 5789225.0 ], [ 1640446.0, 5789222.0 ], [ 1640294.0, 5789142.0 ], [ 1640172.0, 5789102.0 ], [ 1640103.0, 5789058.0 ], [ 1639964.0, 5788890.0 ], [ 1640023.0, 5788825.0 ], [ 1640027.0, 5788791.0 ], [ 1639997.0, 5788762.0 ], [ 1639996.0, 5788723.0 ], [ 1639888.0, 5788724.0 ], [ 1639888.0, 5788634.0 ], [ 1639780.0, 5788644.0 ], [ 1639678.0, 5788678.0 ], [ 1639540.0, 5788750.0 ], [ 1639518.0, 5788701.0 ], [ 1639498.0, 5788689.0 ], [ 1639474.0, 5788690.0 ], [ 1639444.0, 5788647.0 ], [ 1639441.0, 5788637.0 ], [ 1639406.0, 5788644.0 ], [ 1639372.0, 5788667.0 ], [ 1639313.0, 5788690.0 ], [ 1639245.0, 5788720.0 ], [ 1639176.0, 5788693.0 ], [ 1639235.0, 5788559.0 ], [ 1639264.0, 5788518.0 ], [ 1639276.0, 5788454.0 ], [ 1639363.0, 5788367.0 ], [ 1639370.0, 5788334.0 ], [ 1639383.0, 5788271.0 ], [ 1639426.0, 5788214.0 ], [ 1639713.0, 5787792.0 ], [ 1639825.0, 5787660.0 ], [ 1640047.0, 5787591.0 ], [ 1640142.0, 5787548.0 ], [ 1640259.0, 5787503.0 ], [ 1640393.0, 5787337.0 ], [ 1640423.0, 5787261.0 ], [ 1640437.0, 5787100.0 ], [ 1640436.0, 5786924.0 ], [ 1640462.0, 5786865.0 ], [ 1640531.0, 5786824.0 ], [ 1640568.0, 5786814.0 ], [ 1640581.0, 5786798.0 ], [ 1640674.0, 5786777.0 ], [ 1640775.0, 5786786.0 ], [ 1640794.0, 5786784.0 ], [ 1640840.0, 5786771.0 ], [ 1640863.0, 5786757.0 ], [ 1640876.0, 5786736.0 ], [ 1640882.0, 5786725.0 ], [ 1640892.0, 5786717.0 ], [ 1640920.0, 5786722.0 ], [ 1640985.0, 5786693.0 ], [ 1641010.0, 5786693.0 ], [ 1641029.0, 5786681.0 ], [ 1641048.0, 5786659.0 ], [ 1641075.0, 5786660.0 ], [ 1641091.0, 5786664.0 ], [ 1641132.0, 5786670.0 ], [ 1641145.0, 5786637.0 ], [ 1641148.0, 5786631.0 ], [ 1641186.0, 5786612.0 ], [ 1641222.0, 5786578.0 ], [ 1641233.0, 5786560.0 ], [ 1641253.0, 5786539.0 ], [ 1641291.0, 5786509.0 ], [ 1641318.0, 5786477.0 ], [ 1641357.0, 5786402.0 ], [ 1641356.0, 5786381.0 ], [ 1641351.0, 5786359.0 ], [ 1641353.0, 5786344.0 ], [ 1641365.0, 5786330.0 ], [ 1641375.0, 5786323.0 ], [ 1641410.0, 5786327.0 ], [ 1641434.0, 5786326.0 ], [ 1641449.0, 5786320.0 ], [ 1641456.0, 5786314.0 ], [ 1641462.0, 5786282.0 ], [ 1641458.0, 5786242.0 ], [ 1641466.0, 5786202.0 ], [ 1641475.0, 5786194.0 ], [ 1641480.0, 5786182.0 ], [ 1641480.0, 5786147.0 ], [ 1641476.0, 5786118.0 ], [ 1641479.0, 5786085.0 ], [ 1641504.0, 5786074.0 ], [ 1641512.0, 5786020.0 ], [ 1641534.0, 5786013.0 ], [ 1641547.0, 5786000.0 ], [ 1641549.0, 5785985.0 ], [ 1641577.0, 5785929.0 ], [ 1641611.0, 5785883.0 ], [ 1641628.0, 5785825.0 ], [ 1641642.0, 5785800.0 ], [ 1641663.0, 5785786.0 ], [ 1641673.0, 5785737.0 ], [ 1641697.0, 5785720.0 ], [ 1641697.0, 5785716.0 ], [ 1641731.0, 5785710.0 ], [ 1641766.0, 5785726.0 ], [ 1641769.0, 5785722.0 ], [ 1641763.0, 5785693.0 ], [ 1641771.0, 5785671.0 ], [ 1641787.0, 5785647.0 ], [ 1641811.0, 5785633.0 ], [ 1641838.0, 5785645.0 ], [ 1641857.0, 5785633.0 ], [ 1641866.0, 5785626.0 ], [ 1641874.0, 5785598.0 ], [ 1641846.0, 5785587.0 ], [ 1641844.0, 5785572.0 ], [ 1641855.0, 5785562.0 ], [ 1641865.0, 5785537.0 ], [ 1641919.0, 5785493.0 ], [ 1641948.0, 5785453.0 ], [ 1641964.0, 5785431.0 ], [ 1641975.0, 5785416.0 ], [ 1641984.0, 5785369.0 ], [ 1641997.0, 5785342.0 ], [ 1642020.0, 5785316.0 ], [ 1642055.0, 5785280.0 ], [ 1642083.0, 5785265.0 ], [ 1642175.0, 5785277.0 ], [ 1642202.0, 5785276.0 ], [ 1642373.0, 5785148.0 ], [ 1642553.0, 5785115.0 ], [ 1642556.0, 5785098.0 ], [ 1642441.0, 5784973.0 ], [ 1642421.0, 5784989.0 ], [ 1642331.0, 5784876.0 ], [ 1642310.0, 5784817.0 ], [ 1642219.0, 5784745.0 ], [ 1642218.0, 5784690.0 ], [ 1642182.0, 5784571.0 ], [ 1642180.0, 5784455.0 ], [ 1642224.0, 5784440.0 ], [ 1642245.0, 5784442.0 ], [ 1642292.0, 5784504.0 ], [ 1642332.0, 5784517.0 ], [ 1642404.0, 5784599.0 ], [ 1642467.0, 5784549.0 ], [ 1642471.0, 5784536.0 ], [ 1642444.0, 5784487.0 ], [ 1642518.0, 5784333.0 ], [ 1642521.0, 5784294.0 ], [ 1642478.0, 5784164.0 ], [ 1642464.0, 5784151.0 ], [ 1642340.0, 5784172.0 ], [ 1642248.0, 5784205.0 ], [ 1642182.0, 5784209.0 ], [ 1642110.0, 5784199.0 ], [ 1642064.0, 5784150.0 ], [ 1642044.0, 5784147.0 ], [ 1641870.0, 5784171.0 ], [ 1641742.0, 5784156.0 ], [ 1641660.0, 5784128.0 ], [ 1641574.0, 5784037.0 ], [ 1641554.0, 5784037.0 ], [ 1641469.0, 5784096.0 ], [ 1641420.0, 5784103.0 ], [ 1641402.0, 5784106.0 ], [ 1641353.0, 5784112.0 ], [ 1641222.0, 5784085.0 ], [ 1641167.0, 5784055.0 ], [ 1641049.0, 5783910.0 ], [ 1641026.0, 5783901.0 ], [ 1641027.0, 5783859.0 ], [ 1641063.0, 5783831.0 ], [ 1641095.0, 5783824.0 ], [ 1641111.0, 5783798.0 ], [ 1641129.0, 5783767.0 ], [ 1641134.0, 5783730.0 ], [ 1640891.0, 5783681.0 ], [ 1640865.0, 5783645.0 ], [ 1640881.0, 5783609.0 ], [ 1640972.0, 5783584.0 ], [ 1641039.0, 5783284.0 ], [ 1640996.0, 5783225.0 ], [ 1640975.0, 5783226.0 ], [ 1640921.0, 5783229.0 ], [ 1640895.0, 5783222.0 ], [ 1640884.0, 5783206.0 ], [ 1640908.0, 5783193.0 ], [ 1640907.0, 5783153.0 ], [ 1640906.0, 5783118.0 ], [ 1640915.0, 5783095.0 ], [ 1640921.0, 5783087.0 ], [ 1640962.0, 5783044.0 ], [ 1641028.0, 5783026.0 ], [ 1641105.0, 5783034.0 ], [ 1641207.0, 5783045.0 ], [ 1641267.0, 5783012.0 ], [ 1641410.0, 5782897.0 ], [ 1641485.0, 5782809.0 ], [ 1641437.0, 5782786.0 ], [ 1641322.0, 5782776.0 ], [ 1641295.0, 5782784.0 ], [ 1641265.0, 5782784.0 ], [ 1641241.0, 5782783.0 ], [ 1641059.0, 5782779.0 ], [ 1641054.0, 5782729.0 ], [ 1641071.0, 5782707.0 ], [ 1641110.0, 5782706.0 ], [ 1641139.0, 5782638.0 ], [ 1641230.0, 5782608.0 ], [ 1641371.0, 5782511.0 ], [ 1641378.0, 5782493.0 ], [ 1641410.0, 5782485.0 ], [ 1641438.0, 5782502.0 ], [ 1641457.0, 5782570.0 ], [ 1641487.0, 5782597.0 ], [ 1641552.0, 5782603.0 ], [ 1641590.0, 5782604.0 ], [ 1641636.0, 5782621.0 ], [ 1641762.0, 5782379.0 ], [ 1641702.0, 5782364.0 ], [ 1641686.0, 5782349.0 ], [ 1641693.0, 5782285.0 ], [ 1641569.0, 5782076.0 ], [ 1641549.0, 5782014.0 ], [ 1641503.0, 5781979.0 ], [ 1641422.0, 5781759.0 ], [ 1641359.0, 5781671.0 ], [ 1641405.0, 5781543.0 ], [ 1641453.0, 5781489.0 ], [ 1641520.0, 5781576.0 ], [ 1641573.0, 5781669.0 ], [ 1641621.0, 5781705.0 ], [ 1641658.0, 5781714.0 ], [ 1641704.0, 5781698.0 ], [ 1641800.0, 5781608.0 ], [ 1641867.0, 5781602.0 ], [ 1641973.0, 5781556.0 ], [ 1642038.0, 5781559.0 ], [ 1642120.0, 5781586.0 ], [ 1642160.0, 5781554.0 ], [ 1642164.0, 5781538.0 ], [ 1642144.0, 5781482.0 ], [ 1642070.0, 5781404.0 ], [ 1642024.0, 5781382.0 ], [ 1642017.0, 5781316.0 ], [ 1641937.0, 5781171.0 ], [ 1641880.0, 5781141.0 ], [ 1641880.0, 5781087.0 ], [ 1641669.0, 5781029.0 ], [ 1641674.0, 5780993.0 ], [ 1641652.0, 5780928.0 ], [ 1641663.0, 5780852.0 ], [ 1641649.0, 5780823.0 ], [ 1641697.0, 5780749.0 ], [ 1641767.0, 5780688.0 ], [ 1641743.0, 5780617.0 ], [ 1641591.0, 5780408.0 ], [ 1641533.0, 5780370.0 ], [ 1641518.0, 5780344.0 ], [ 1641475.0, 5780343.0 ], [ 1641402.0, 5780322.0 ], [ 1641348.0, 5780267.0 ], [ 1641258.0, 5780139.0 ], [ 1641198.0, 5780009.0 ], [ 1641055.0, 5779989.0 ], [ 1640927.0, 5779944.0 ], [ 1640732.0, 5779972.0 ], [ 1640696.0, 5779960.0 ], [ 1640436.0, 5780026.0 ], [ 1640348.0, 5780060.0 ], [ 1640208.0, 5780058.0 ], [ 1640065.0, 5780014.0 ], [ 1639922.0, 5780014.0 ], [ 1639900.0, 5780300.0 ], [ 1639703.0, 5780307.0 ], [ 1639579.0, 5780347.0 ], [ 1639386.0, 5780333.0 ], [ 1639303.0, 5780358.0 ], [ 1639263.0, 5780370.0 ], [ 1639224.0, 5780398.0 ], [ 1639124.0, 5780598.0 ], [ 1639111.0, 5780636.0 ], [ 1639114.0, 5780700.0 ], [ 1639087.0, 5780788.0 ], [ 1639008.0, 5780937.0 ], [ 1638957.0, 5780781.0 ], [ 1638957.0, 5780737.0 ], [ 1638930.0, 5780692.0 ], [ 1638933.0, 5780637.0 ], [ 1638904.0, 5780600.0 ], [ 1638911.0, 5780518.0 ], [ 1638866.0, 5780480.0 ], [ 1638800.0, 5780477.0 ], [ 1638741.0, 5780455.0 ], [ 1638636.0, 5780480.0 ], [ 1638576.0, 5780590.0 ], [ 1638569.0, 5780701.0 ], [ 1638556.0, 5780718.0 ], [ 1638553.0, 5780790.0 ], [ 1638563.0, 5780840.0 ], [ 1638556.0, 5780868.0 ], [ 1638496.0, 5780916.0 ], [ 1638492.0, 5780960.0 ], [ 1638511.0, 5781021.0 ], [ 1638469.0, 5781078.0 ], [ 1638490.0, 5781124.0 ], [ 1638445.0, 5781156.0 ], [ 1638441.0, 5781175.0 ], [ 1638451.0, 5781387.0 ], [ 1638235.0, 5781457.0 ], [ 1638186.0, 5781453.0 ], [ 1638108.0, 5781421.0 ], [ 1638092.0, 5781483.0 ], [ 1638013.0, 5781560.0 ], [ 1637968.0, 5781706.0 ], [ 1637980.0, 5781762.0 ], [ 1638025.0, 5781751.0 ], [ 1638058.0, 5781785.0 ], [ 1638041.0, 5781840.0 ], [ 1638008.0, 5781879.0 ], [ 1637895.0, 5781944.0 ], [ 1637981.0, 5782219.0 ], [ 1638002.0, 5782255.0 ], [ 1637947.0, 5782309.0 ], [ 1637687.0, 5782228.0 ], [ 1637577.0, 5782392.0 ], [ 1637503.0, 5782373.0 ], [ 1637492.0, 5782428.0 ], [ 1637452.0, 5782501.0 ], [ 1637325.0, 5782553.0 ], [ 1637207.0, 5782648.0 ], [ 1637106.0, 5782649.0 ], [ 1636897.0, 5782805.0 ], [ 1636854.0, 5782747.0 ], [ 1636790.0, 5782707.0 ], [ 1636754.0, 5782669.0 ], [ 1636690.0, 5782529.0 ], [ 1636707.0, 5782401.0 ], [ 1636600.0, 5782311.0 ], [ 1636440.0, 5782128.0 ], [ 1636271.0, 5782011.0 ], [ 1636128.0, 5782167.0 ], [ 1636078.0, 5782311.0 ], [ 1636054.0, 5782329.0 ], [ 1635979.0, 5782326.0 ], [ 1635776.0, 5781753.0 ], [ 1635773.0, 5781686.0 ], [ 1635747.0, 5781652.0 ], [ 1635740.0, 5781662.0 ], [ 1635704.0, 5781644.0 ], [ 1635673.0, 5781645.0 ], [ 1635627.0, 5781661.0 ], [ 1635591.0, 5781680.0 ], [ 1635565.0, 5781716.0 ], [ 1635540.0, 5781724.0 ], [ 1635539.0, 5781693.0 ], [ 1635406.0, 5781740.0 ], [ 1635304.0, 5781752.0 ], [ 1635251.0, 5781795.0 ], [ 1635207.0, 5781879.0 ], [ 1635167.0, 5781898.0 ], [ 1635070.0, 5781943.0 ], [ 1634965.0, 5781993.0 ], [ 1634795.0, 5782099.0 ], [ 1634747.0, 5782090.0 ], [ 1634594.0, 5782061.0 ], [ 1634536.0, 5782033.0 ], [ 1634504.0, 5782001.0 ], [ 1634494.0, 5781987.0 ], [ 1634443.0, 5781909.0 ], [ 1634399.0, 5781785.0 ], [ 1634389.0, 5781756.0 ], [ 1634331.0, 5781659.0 ], [ 1634303.0, 5781616.0 ], [ 1634264.0, 5781595.0 ], [ 1634163.0, 5781466.0 ], [ 1633939.0, 5781326.0 ], [ 1633829.0, 5781237.0 ], [ 1633720.0, 5781182.0 ], [ 1633642.0, 5781118.0 ], [ 1633570.0, 5781091.0 ], [ 1633543.0, 5781095.0 ], [ 1633574.0, 5781040.0 ], [ 1633594.0, 5781006.0 ], [ 1633679.0, 5780938.0 ], [ 1633675.0, 5780844.0 ], [ 1633695.0, 5780784.0 ], [ 1633762.0, 5780752.0 ], [ 1633920.0, 5780629.0 ], [ 1634018.0, 5780585.0 ], [ 1634074.0, 5780581.0 ], [ 1634195.0, 5780531.0 ], [ 1634293.0, 5780466.0 ], [ 1634375.0, 5780438.0 ], [ 1634501.0, 5780336.0 ], [ 1634511.0, 5780206.0 ], [ 1634531.0, 5780187.0 ], [ 1634472.0, 5780073.0 ], [ 1634371.0, 5779988.0 ], [ 1634366.0, 5779867.0 ], [ 1634273.0, 5779830.0 ], [ 1634261.0, 5779803.0 ], [ 1634214.0, 5779778.0 ], [ 1634179.0, 5779775.0 ], [ 1634091.0, 5779680.0 ], [ 1633989.0, 5779662.0 ], [ 1633943.0, 5779693.0 ], [ 1633840.0, 5779719.0 ], [ 1633710.0, 5779694.0 ], [ 1633609.0, 5779632.0 ], [ 1633561.0, 5779618.0 ], [ 1633477.0, 5779625.0 ], [ 1633414.0, 5779648.0 ], [ 1633354.0, 5779642.0 ], [ 1633323.0, 5779620.0 ], [ 1633306.0, 5779584.0 ], [ 1633212.0, 5779546.0 ], [ 1633142.0, 5779433.0 ], [ 1633063.0, 5779360.0 ], [ 1632931.0, 5779329.0 ], [ 1632907.0, 5779228.0 ], [ 1632920.0, 5779177.0 ], [ 1632884.0, 5779148.0 ], [ 1632823.0, 5779033.0 ], [ 1632797.0, 5778927.0 ], [ 1632859.0, 5778625.0 ], [ 1632912.0, 5778572.0 ], [ 1632972.0, 5778537.0 ], [ 1632969.0, 5778496.0 ], [ 1632865.0, 5778469.0 ], [ 1632811.0, 5778427.0 ], [ 1632784.0, 5778450.0 ], [ 1632726.0, 5778394.0 ], [ 1632602.0, 5778341.0 ], [ 1632518.0, 5778389.0 ], [ 1632429.0, 5778391.0 ], [ 1632392.0, 5778415.0 ], [ 1632336.0, 5778412.0 ], [ 1632310.0, 5778406.0 ], [ 1632267.0, 5778375.0 ], [ 1632230.0, 5778320.0 ], [ 1632168.0, 5778340.0 ], [ 1631959.0, 5778441.0 ], [ 1631878.0, 5778465.0 ], [ 1631816.0, 5778512.0 ], [ 1631815.0, 5778524.0 ], [ 1631756.0, 5778554.0 ], [ 1631759.0, 5778524.0 ], [ 1631661.0, 5778542.0 ], [ 1631608.0, 5778569.0 ], [ 1631650.0, 5778407.0 ], [ 1631415.0, 5778359.0 ], [ 1631326.0, 5778388.0 ], [ 1631275.0, 5778444.0 ], [ 1631203.0, 5778491.0 ], [ 1631047.0, 5778573.0 ], [ 1631018.0, 5778604.0 ], [ 1630925.0, 5778633.0 ], [ 1630823.0, 5778709.0 ], [ 1630659.0, 5778642.0 ], [ 1630559.0, 5778642.0 ], [ 1630467.0, 5778644.0 ], [ 1630441.0, 5778642.0 ], [ 1630436.0, 5778622.0 ], [ 1630478.0, 5778576.0 ], [ 1630487.0, 5778497.0 ], [ 1630437.0, 5778504.0 ], [ 1630420.0, 5778473.0 ], [ 1630282.0, 5778470.0 ], [ 1630269.0, 5778470.0 ], [ 1630177.0, 5778573.0 ], [ 1630036.0, 5778583.0 ], [ 1629991.0, 5778603.0 ], [ 1629943.0, 5778641.0 ], [ 1629864.0, 5778755.0 ], [ 1629805.0, 5778690.0 ], [ 1629795.0, 5778635.0 ], [ 1629824.0, 5778354.0 ], [ 1629769.0, 5778355.0 ], [ 1629722.0, 5778402.0 ], [ 1629688.0, 5778493.0 ], [ 1629690.0, 5778520.0 ], [ 1629721.0, 5778583.0 ], [ 1629678.0, 5778582.0 ], [ 1629632.0, 5778599.0 ], [ 1629587.0, 5778663.0 ], [ 1629587.0, 5778680.0 ], [ 1629608.0, 5778694.0 ], [ 1629610.0, 5778735.0 ], [ 1629634.0, 5778807.0 ], [ 1629658.0, 5778839.0 ], [ 1629652.0, 5778850.0 ], [ 1629582.0, 5778833.0 ], [ 1629548.0, 5778810.0 ], [ 1629483.0, 5778834.0 ], [ 1629460.0, 5778869.0 ], [ 1629396.0, 5778972.0 ], [ 1629359.0, 5779079.0 ], [ 1629355.0, 5779090.0 ], [ 1629248.0, 5779219.0 ], [ 1629180.0, 5779301.0 ], [ 1629146.0, 5779367.0 ], [ 1629122.0, 5779453.0 ], [ 1629143.0, 5779559.0 ], [ 1628983.0, 5779639.0 ], [ 1628902.0, 5779621.0 ], [ 1628830.0, 5779629.0 ], [ 1628827.0, 5779552.0 ], [ 1628691.0, 5779535.0 ], [ 1628666.0, 5779521.0 ], [ 1628657.0, 5779460.0 ], [ 1628619.0, 5779432.0 ], [ 1628632.0, 5779371.0 ], [ 1628741.0, 5779161.0 ], [ 1628765.0, 5779081.0 ], [ 1628805.0, 5779008.0 ], [ 1628783.0, 5778885.0 ], [ 1628854.0, 5778766.0 ], [ 1628897.0, 5778616.0 ], [ 1628918.0, 5778606.0 ], [ 1628940.0, 5778618.0 ], [ 1628950.0, 5778679.0 ], [ 1628961.0, 5778685.0 ], [ 1629009.0, 5778613.0 ], [ 1629055.0, 5778574.0 ], [ 1629154.0, 5778521.0 ], [ 1629276.0, 5778417.0 ], [ 1629329.0, 5778352.0 ], [ 1629324.0, 5778318.0 ], [ 1629133.0, 5778274.0 ], [ 1629024.0, 5778269.0 ], [ 1629015.0, 5778280.0 ], [ 1628957.0, 5778266.0 ], [ 1628898.0, 5778267.0 ], [ 1628888.0, 5778237.0 ], [ 1628747.0, 5778281.0 ], [ 1628665.0, 5778287.0 ], [ 1628672.0, 5778331.0 ], [ 1628638.0, 5778335.0 ], [ 1628533.0, 5778317.0 ], [ 1628528.0, 5778328.0 ], [ 1628493.0, 5778299.0 ], [ 1628166.0, 5778335.0 ], [ 1627960.0, 5778331.0 ], [ 1627934.0, 5778391.0 ], [ 1627940.0, 5778503.0 ], [ 1627902.0, 5778528.0 ], [ 1627844.0, 5778503.0 ], [ 1627691.0, 5778495.0 ], [ 1627593.0, 5778475.0 ], [ 1627560.0, 5778510.0 ], [ 1627553.0, 5778574.0 ], [ 1627484.0, 5778677.0 ], [ 1627383.0, 5778694.0 ], [ 1627174.0, 5779157.0 ], [ 1627146.0, 5779320.0 ], [ 1627083.0, 5779375.0 ], [ 1627065.0, 5779375.0 ], [ 1627035.0, 5779395.0 ], [ 1627018.0, 5779427.0 ], [ 1627005.0, 5779537.0 ], [ 1626979.0, 5779596.0 ], [ 1626926.0, 5779673.0 ], [ 1626917.0, 5779737.0 ], [ 1626896.0, 5779768.0 ], [ 1626990.0, 5779805.0 ], [ 1627005.0, 5779797.0 ], [ 1627016.0, 5779725.0 ], [ 1627055.0, 5779683.0 ], [ 1627075.0, 5779675.0 ], [ 1627151.0, 5779714.0 ], [ 1627189.0, 5779806.0 ], [ 1627248.0, 5779893.0 ], [ 1627275.0, 5780065.0 ], [ 1627172.0, 5780170.0 ], [ 1627111.0, 5780201.0 ], [ 1627046.0, 5780206.0 ], [ 1627013.0, 5780235.0 ], [ 1626978.0, 5780284.0 ], [ 1626964.0, 5780346.0 ], [ 1626883.0, 5780346.0 ], [ 1626880.0, 5780389.0 ], [ 1626797.0, 5780592.0 ], [ 1626806.0, 5780632.0 ], [ 1626690.0, 5780681.0 ], [ 1626617.0, 5780649.0 ], [ 1626546.0, 5780589.0 ], [ 1626471.0, 5780606.0 ], [ 1626349.0, 5780588.0 ], [ 1626271.0, 5780533.0 ], [ 1626216.0, 5780615.0 ], [ 1626152.0, 5780615.0 ], [ 1626031.0, 5780716.0 ], [ 1625986.0, 5780820.0 ], [ 1625949.0, 5780870.0 ], [ 1625792.0, 5780941.0 ], [ 1625605.0, 5781075.0 ], [ 1625339.0, 5781147.0 ], [ 1625260.0, 5781285.0 ], [ 1625115.0, 5781391.0 ], [ 1625058.0, 5781468.0 ], [ 1625039.0, 5781643.0 ], [ 1625097.0, 5781705.0 ], [ 1625018.0, 5781760.0 ], [ 1624860.0, 5781718.0 ], [ 1624784.0, 5781672.0 ], [ 1624765.0, 5781646.0 ], [ 1624729.0, 5781641.0 ], [ 1624698.0, 5781614.0 ], [ 1624660.0, 5781657.0 ], [ 1624564.0, 5781715.0 ], [ 1624449.0, 5781656.0 ], [ 1624360.0, 5781683.0 ], [ 1624289.0, 5781682.0 ], [ 1624216.0, 5781757.0 ], [ 1623899.0, 5782182.0 ], [ 1624048.0, 5782320.0 ], [ 1624021.0, 5782365.0 ], [ 1623980.0, 5782405.0 ], [ 1623989.0, 5782536.0 ], [ 1623873.0, 5782645.0 ], [ 1623823.0, 5782720.0 ], [ 1623796.0, 5782792.0 ], [ 1623711.0, 5782892.0 ], [ 1623722.0, 5782900.0 ], [ 1623743.0, 5782915.0 ], [ 1623770.0, 5783089.0 ], [ 1623720.0, 5783088.0 ], [ 1623692.0, 5783062.0 ], [ 1623682.0, 5783076.0 ], [ 1623677.0, 5783084.0 ], [ 1623522.0, 5783111.0 ], [ 1623388.0, 5783172.0 ], [ 1623399.0, 5783181.0 ], [ 1623353.0, 5783226.0 ], [ 1623438.0, 5783430.0 ], [ 1623326.0, 5783420.0 ], [ 1623304.0, 5783402.0 ], [ 1623198.0, 5783407.0 ], [ 1623149.0, 5783388.0 ], [ 1623056.0, 5783414.0 ], [ 1623011.0, 5783398.0 ], [ 1622962.0, 5783412.0 ], [ 1622847.0, 5783407.0 ], [ 1622813.0, 5783400.0 ], [ 1622774.0, 5783360.0 ], [ 1622731.0, 5783344.0 ], [ 1622490.0, 5783304.0 ], [ 1622439.0, 5783467.0 ], [ 1622384.0, 5783458.0 ], [ 1622316.0, 5783463.0 ], [ 1622299.0, 5783410.0 ], [ 1622301.0, 5783377.0 ], [ 1622329.0, 5783300.0 ], [ 1622292.0, 5783255.0 ], [ 1622285.0, 5783225.0 ], [ 1622252.0, 5783199.0 ], [ 1622226.0, 5783134.0 ], [ 1622277.0, 5783058.0 ], [ 1622271.0, 5783030.0 ], [ 1622214.0, 5783000.0 ], [ 1622132.0, 5782996.0 ], [ 1622101.0, 5783004.0 ], [ 1622030.0, 5783020.0 ], [ 1621987.0, 5783013.0 ], [ 1621936.0, 5783043.0 ], [ 1621896.0, 5783050.0 ], [ 1621815.0, 5783051.0 ], [ 1621751.0, 5783084.0 ], [ 1621697.0, 5782974.0 ], [ 1621632.0, 5782926.0 ], [ 1621574.0, 5782855.0 ], [ 1621493.0, 5782805.0 ], [ 1621344.0, 5782678.0 ], [ 1621276.0, 5782548.0 ], [ 1621230.0, 5782503.0 ], [ 1621166.0, 5782458.0 ], [ 1621067.0, 5782409.0 ], [ 1620985.0, 5782382.0 ], [ 1620784.0, 5782372.0 ], [ 1620742.0, 5782325.0 ], [ 1619966.0, 5782367.0 ], [ 1619155.0, 5782559.0 ], [ 1618694.0, 5782620.0 ], [ 1618095.0, 5782719.0 ], [ 1617784.0, 5782793.0 ], [ 1617492.0, 5782885.0 ], [ 1617353.0, 5782593.0 ], [ 1618074.0, 5781987.0 ], [ 1618460.0, 5781612.0 ], [ 1618445.0, 5781603.0 ], [ 1618745.0, 5781295.0 ], [ 1618367.0, 5781007.0 ], [ 1618419.0, 5780965.0 ], [ 1618356.0, 5780809.0 ], [ 1618315.0, 5780838.0 ], [ 1618115.0, 5780348.0 ], [ 1618135.0, 5780336.0 ], [ 1617958.0, 5779343.0 ], [ 1617881.0, 5778830.0 ], [ 1617853.0, 5778830.0 ], [ 1617497.0, 5778825.0 ], [ 1617428.0, 5778752.0 ], [ 1617369.0, 5778827.0 ], [ 1617252.0, 5778882.0 ], [ 1617115.0, 5779083.0 ], [ 1617066.0, 5779097.0 ], [ 1616921.0, 5779084.0 ], [ 1616859.0, 5779145.0 ], [ 1616825.0, 5779232.0 ], [ 1616708.0, 5779335.0 ], [ 1616644.0, 5779519.0 ], [ 1616475.0, 5779623.0 ], [ 1616419.0, 5779764.0 ], [ 1616334.0, 5779928.0 ], [ 1616309.0, 5779782.0 ], [ 1616137.0, 5779781.0 ], [ 1616133.0, 5779798.0 ], [ 1616099.0, 5779787.0 ], [ 1616009.0, 5779787.0 ], [ 1615534.0, 5779847.0 ], [ 1615514.0, 5779806.0 ], [ 1615226.0, 5780708.0 ], [ 1615174.0, 5780844.0 ], [ 1611019.0, 5779540.0 ], [ 1611425.0, 5778262.0 ], [ 1611509.0, 5778005.0 ], [ 1611746.0, 5776886.0 ], [ 1611510.0, 5776778.0 ], [ 1611503.0, 5776709.0 ], [ 1611435.0, 5776702.0 ], [ 1611425.0, 5776757.0 ], [ 1611400.0, 5776774.0 ], [ 1611103.0, 5776823.0 ], [ 1611133.0, 5776709.0 ], [ 1611007.0, 5776675.0 ], [ 1610513.0, 5776533.0 ], [ 1610477.0, 5776908.0 ], [ 1609967.0, 5776982.0 ], [ 1609612.0, 5776954.0 ], [ 1609571.0, 5777043.0 ], [ 1609411.0, 5776553.0 ], [ 1609337.0, 5776599.0 ], [ 1609200.0, 5776624.0 ], [ 1609123.0, 5776600.0 ], [ 1608924.0, 5776503.0 ], [ 1608847.0, 5776444.0 ], [ 1608800.0, 5776430.0 ], [ 1608703.0, 5776420.0 ], [ 1608390.0, 5776425.0 ], [ 1608363.0, 5776415.0 ], [ 1608273.0, 5776327.0 ], [ 1608187.0, 5776265.0 ], [ 1608188.0, 5776286.0 ], [ 1608133.0, 5776270.0 ], [ 1607967.0, 5776526.0 ], [ 1607648.0, 5776194.0 ], [ 1607408.0, 5776214.0 ], [ 1607349.0, 5776198.0 ], [ 1607162.0, 5776352.0 ], [ 1606926.0, 5776483.0 ], [ 1606880.0, 5776488.0 ], [ 1606793.0, 5776616.0 ], [ 1606762.0, 5776637.0 ], [ 1606754.0, 5776663.0 ], [ 1606765.0, 5776727.0 ], [ 1606735.0, 5776820.0 ], [ 1606474.0, 5777164.0 ], [ 1606216.0, 5777507.0 ], [ 1606248.0, 5777624.0 ], [ 1606339.0, 5777808.0 ], [ 1606388.0, 5778055.0 ], [ 1606419.0, 5778168.0 ], [ 1606452.0, 5778262.0 ], [ 1606493.0, 5778332.0 ], [ 1606540.0, 5778377.0 ], [ 1606960.0, 5778566.0 ], [ 1607289.0, 5778737.0 ], [ 1607361.0, 5778792.0 ], [ 1607462.0, 5778908.0 ], [ 1607538.0, 5778961.0 ], [ 1607605.0, 5778993.0 ], [ 1607730.0, 5779030.0 ], [ 1607824.0, 5779079.0 ], [ 1608055.0, 5779241.0 ], [ 1608179.0, 5779308.0 ], [ 1608119.0, 5779342.0 ], [ 1608074.0, 5779326.0 ], [ 1607991.0, 5779360.0 ], [ 1607783.0, 5779414.0 ], [ 1607756.0, 5779434.0 ], [ 1607731.0, 5779500.0 ], [ 1608066.0, 5779700.0 ], [ 1608402.0, 5779680.0 ], [ 1608951.0, 5779895.0 ], [ 1608967.0, 5779886.0 ], [ 1609023.0, 5779911.0 ], [ 1609093.0, 5779948.0 ], [ 1609338.0, 5780118.0 ], [ 1609300.0, 5780196.0 ], [ 1609272.0, 5780213.0 ], [ 1609676.0, 5780455.0 ], [ 1609762.0, 5780471.0 ], [ 1609874.0, 5780466.0 ], [ 1609874.0, 5780658.0 ], [ 1609933.0, 5780751.0 ], [ 1609980.0, 5780761.0 ], [ 1610000.0, 5780812.0 ], [ 1610097.0, 5780956.0 ], [ 1610071.0, 5780997.0 ], [ 1610253.0, 5781187.0 ], [ 1610239.0, 5781321.0 ], [ 1610214.0, 5781430.0 ], [ 1610166.0, 5781527.0 ], [ 1609997.0, 5781735.0 ], [ 1609862.0, 5781817.0 ], [ 1609772.0, 5781847.0 ], [ 1609598.0, 5781977.0 ], [ 1609512.0, 5782024.0 ], [ 1609420.0, 5782035.0 ], [ 1609262.0, 5782105.0 ], [ 1609065.0, 5782115.0 ], [ 1609017.0, 5782013.0 ], [ 1608703.0, 5782086.0 ], [ 1608527.0, 5782170.0 ], [ 1608015.0, 5782309.0 ], [ 1608007.0, 5782386.0 ], [ 1608082.0, 5782396.0 ], [ 1608074.0, 5782477.0 ], [ 1607781.0, 5782449.0 ], [ 1607690.0, 5782450.0 ], [ 1607482.0, 5782477.0 ], [ 1607316.0, 5782476.0 ], [ 1607223.0, 5782488.0 ], [ 1607279.0, 5782743.0 ], [ 1607259.0, 5782816.0 ], [ 1607291.0, 5782861.0 ], [ 1607205.0, 5782976.0 ], [ 1607234.0, 5783133.0 ], [ 1606698.0, 5783659.0 ], [ 1606386.0, 5784549.0 ], [ 1606501.0, 5784605.0 ], [ 1606430.0, 5784805.0 ], [ 1606551.0, 5784884.0 ], [ 1606580.0, 5784924.0 ], [ 1606630.0, 5784957.0 ], [ 1606710.0, 5784905.0 ], [ 1606738.0, 5784979.0 ], [ 1606741.0, 5784953.0 ], [ 1606811.0, 5785031.0 ], [ 1606896.0, 5785089.0 ], [ 1606942.0, 5785118.0 ], [ 1606966.0, 5785132.0 ], [ 1606985.0, 5785150.0 ], [ 1607027.0, 5785196.0 ], [ 1607048.0, 5785220.0 ], [ 1607063.0, 5785245.0 ], [ 1607127.0, 5785352.0 ], [ 1607221.0, 5785419.0 ], [ 1607385.0, 5785582.0 ], [ 1607722.0, 5785861.0 ], [ 1607744.0, 5785795.0 ], [ 1607754.0, 5785793.0 ], [ 1607535.0, 5786511.0 ], [ 1607086.0, 5786466.0 ], [ 1607095.0, 5786540.0 ], [ 1607121.0, 5786541.0 ], [ 1607104.0, 5786683.0 ], [ 1606985.0, 5786833.0 ], [ 1606970.0, 5786885.0 ], [ 1606844.0, 5786826.0 ], [ 1606841.0, 5786897.0 ], [ 1606877.0, 5786902.0 ], [ 1606881.0, 5786938.0 ], [ 1606820.0, 5786942.0 ], [ 1606765.0, 5786932.0 ], [ 1606844.0, 5787079.0 ], [ 1606845.0, 5787154.0 ], [ 1606675.0, 5787178.0 ], [ 1606713.0, 5787222.0 ], [ 1606893.0, 5787340.0 ], [ 1606796.0, 5787403.0 ], [ 1606853.0, 5787410.0 ], [ 1606969.0, 5787501.0 ], [ 1606959.0, 5787502.0 ], [ 1606848.0, 5787663.0 ], [ 1606769.0, 5787734.0 ], [ 1606793.0, 5787789.0 ], [ 1606808.0, 5787868.0 ], [ 1606859.0, 5787860.0 ], [ 1606958.0, 5787925.0 ], [ 1607074.0, 5788057.0 ], [ 1607094.0, 5788100.0 ], [ 1607172.0, 5788047.0 ], [ 1607186.0, 5788045.0 ], [ 1607204.0, 5788069.0 ], [ 1607285.0, 5788004.0 ], [ 1607341.0, 5787999.0 ], [ 1607369.0, 5787938.0 ], [ 1607424.0, 5787894.0 ], [ 1607477.0, 5787938.0 ], [ 1607542.0, 5787895.0 ], [ 1607598.0, 5787966.0 ], [ 1607713.0, 5788156.0 ], [ 1607679.0, 5788162.0 ], [ 1607607.0, 5788228.0 ], [ 1607617.0, 5788241.0 ], [ 1607535.0, 5788309.0 ], [ 1607527.0, 5788330.0 ], [ 1607501.0, 5788399.0 ], [ 1607463.0, 5788411.0 ], [ 1607395.0, 5788407.0 ], [ 1607430.0, 5788454.0 ], [ 1607511.0, 5788577.0 ], [ 1607505.0, 5788581.0 ], [ 1607541.0, 5788648.0 ], [ 1607564.0, 5788854.0 ], [ 1607371.0, 5789076.0 ], [ 1607358.0, 5789111.0 ], [ 1607350.0, 5789119.0 ], [ 1607338.0, 5789217.0 ], [ 1607348.0, 5789295.0 ], [ 1607306.0, 5789481.0 ], [ 1607114.0, 5789556.0 ], [ 1607182.0, 5789709.0 ], [ 1607189.0, 5789792.0 ], [ 1607083.0, 5789878.0 ], [ 1607078.0, 5789934.0 ], [ 1607052.0, 5789993.0 ], [ 1606991.0, 5789962.0 ], [ 1606849.0, 5790051.0 ], [ 1606815.0, 5790029.0 ], [ 1606772.0, 5789904.0 ], [ 1606698.0, 5790011.0 ], [ 1606679.0, 5790071.0 ], [ 1606741.0, 5790239.0 ], [ 1606768.0, 5790505.0 ], [ 1606593.0, 5790478.0 ], [ 1606558.0, 5790470.0 ], [ 1606478.0, 5790422.0 ], [ 1606366.0, 5790330.0 ], [ 1606312.0, 5790281.0 ], [ 1606274.0, 5790205.0 ], [ 1606270.0, 5790179.0 ], [ 1606287.0, 5790123.0 ], [ 1606262.0, 5790067.0 ], [ 1606158.0, 5790128.0 ], [ 1606166.0, 5790242.0 ], [ 1606143.0, 5790313.0 ], [ 1606042.0, 5790476.0 ], [ 1605955.0, 5790567.0 ], [ 1606083.0, 5790701.0 ], [ 1606165.0, 5790664.0 ], [ 1606167.0, 5790640.0 ], [ 1606416.0, 5790679.0 ], [ 1606417.0, 5790679.0 ], [ 1606439.0, 5790683.0 ], [ 1606470.0, 5790687.0 ], [ 1606392.0, 5790792.0 ], [ 1606410.0, 5790886.0 ], [ 1606378.0, 5790922.0 ], [ 1606349.0, 5790884.0 ], [ 1606195.0, 5790889.0 ], [ 1606165.0, 5790929.0 ], [ 1606134.0, 5791013.0 ], [ 1606123.0, 5791011.0 ], [ 1606061.0, 5791003.0 ], [ 1606085.0, 5790940.0 ], [ 1606108.0, 5790883.0 ], [ 1605896.0, 5790911.0 ], [ 1605852.0, 5790967.0 ], [ 1606093.0, 5791157.0 ], [ 1606105.0, 5791202.0 ], [ 1606091.0, 5791226.0 ], [ 1606095.0, 5791249.0 ], [ 1606124.0, 5791249.0 ], [ 1606152.0, 5791225.0 ], [ 1606206.0, 5791178.0 ], [ 1606265.0, 5791158.0 ], [ 1606294.0, 5791204.0 ], [ 1606257.0, 5791272.0 ], [ 1606243.0, 5791370.0 ], [ 1606156.0, 5791390.0 ], [ 1606048.0, 5791389.0 ], [ 1605992.0, 5791401.0 ], [ 1605956.0, 5791420.0 ], [ 1605912.0, 5791467.0 ], [ 1605882.0, 5791450.0 ], [ 1605850.0, 5791480.0 ], [ 1605837.0, 5791533.0 ], [ 1605808.0, 5791562.0 ], [ 1605605.0, 5791705.0 ], [ 1605501.0, 5791760.0 ], [ 1605484.0, 5791821.0 ], [ 1605527.0, 5791850.0 ], [ 1605533.0, 5791935.0 ], [ 1605455.0, 5792216.0 ], [ 1605479.0, 5792315.0 ], [ 1605530.0, 5792425.0 ], [ 1605552.0, 5792535.0 ], [ 1605664.0, 5792688.0 ], [ 1605707.0, 5792772.0 ], [ 1605710.0, 5792811.0 ], [ 1605686.0, 5792925.0 ], [ 1605638.0, 5793025.0 ], [ 1605603.0, 5793065.0 ], [ 1605708.0, 5793211.0 ], [ 1605619.0, 5793269.0 ], [ 1605555.0, 5793355.0 ], [ 1605493.0, 5793364.0 ], [ 1605383.0, 5793442.0 ], [ 1605333.0, 5793350.0 ], [ 1605331.0, 5793259.0 ], [ 1605343.0, 5793191.0 ], [ 1605235.0, 5793181.0 ], [ 1605182.0, 5793158.0 ], [ 1605076.0, 5793078.0 ], [ 1604975.0, 5793164.0 ], [ 1604884.0, 5793325.0 ], [ 1604832.0, 5793361.0 ], [ 1604745.0, 5793392.0 ], [ 1604751.0, 5793459.0 ], [ 1604665.0, 5793506.0 ], [ 1604562.0, 5793524.0 ], [ 1604462.0, 5793521.0 ], [ 1604438.0, 5793511.0 ], [ 1604413.0, 5793520.0 ], [ 1604299.0, 5793475.0 ], [ 1604257.0, 5793432.0 ], [ 1604151.0, 5793435.0 ], [ 1603993.0, 5793397.0 ], [ 1603960.0, 5793409.0 ], [ 1603998.0, 5793586.0 ] ] ] } }
]
}
