{
"type": "FeatureCollection",
"name": "minsk-rail",
"crs": { "type": "name", "properties": { "name": "urn:ogc:def:crs:EPSG::3857" } },
"features": [
{ "type": "Feature", "properties": { "osmid": 209186417.0 }, "geometry": { "type": "Point", "coordinates": [ 3069181.0, 7150077.0 ] } },
{ "type": "Feature", "properties": { "osmid": 2607565996.0 }, "geometry": { "type": "Point", "coordinates": [ 3079463.0, 7153998.0 ] } },
{ "type": "Feature", "properties": { "osmid": 2111296544.0 }, "geometry": { "type": "Point", "coordinates": [ 3070926.0, 7149573.0 ] } },
{ "type": "Feature", "properties": { "osmid": 5409264854.0 }, "geometry": { "type": "Point", "coordinates": [ 3065814.0, 7148566.0 ] } },
{ "type": "Feature", "properties": { "osmid": 4464633410.0 }, "geometry": { "type": "Point", "coordinates": [ 3065045.0, 7140337.0 ] } },
{ "type": "Feature", "properties": { "osmid": 9955883681.0 }, "geometry": { "type": "Point", "coordinates": [ 3075005.0, 7151077.0 ] } },
{ "type": "Feature", "properties": { "osmid": 1638811302.0 }, "geometry": { "type": "Point", "coordinates": [ 3075628.0, 7146752.0 ] } },
{ "type": "Feature", "properties": { "osmid": 11105993081.0 }, "geometry": { "type": "Point", "coordinates": [ 3065490.0, 7150564.0 ] } },
{ "type": "Feature", "properties": { "osmid": 847579892.0 }, "geometry": { "type": "Point", "coordinates": [ 3067309.0, 7152327.0 ] } },
{ "type": "Feature", "properties": { "osmid": 4761597951.0 }, "geometry": { "type": "Point", "coordinates": [ 3085394.0, 7157382.0 ] } },
{ "type": "Feature", "properties": { "osmid": 13022888813.0 }, "geometry": { "type": "Point", "coordinates": [ 3066627.0, 7149874.0 ] } },
{ "type": "Feature", "properties": { "osmid": 442966800.0 }, "geometry": { "type": "Point", "coordinates": [ 3056172.0, 7152401.0 ] } },
{ "type": "Feature", "properties": { "osmid": 275065030.0 }, "geometry": { "type": "Point", "coordinates": [ 3069791.0, 7153036.0 ] } },
{ "type": "Feature", "properties": { "osmid": 10151732580.0 }, "geometry": { "type": "Point", "coordinates": [ 3075370.0, 7154489.0 ] } },
{ "type": "Feature", "properties": { "osmid": 11716432841.0 }, "geometry": { "type": "Point", "coordinates": [ 3077162.0, 7154044.0 ] } },
{ "type": "Feature", "properties": { "osmid": 457454508.0 }, "geometry": { "type": "Point", "coordinates": [ 3068187.0, 7151422.0 ] } },
{ "type": "Feature", "properties": { "osmid": 275051120.0 }, "geometry": { "type": "Point", "coordinates": [ 3079824.0, 7158544.0 ] } },
{ "type": "Feature", "properties": { "osmid": 5071454387.0 }, "geometry": { "type": "Point", "coordinates": [ 3058501.0, 7141801.0 ] } },
{ "type": "Feature", "properties": { "osmid": 6703659190.0 }, "geometry": { "type": "Point", "coordinates": [ 3063631.0, 7146257.0 ] } },
{ "type": "Feature", "properties": { "osmid": 3799504409.0 }, "geometry": { "type": "Point", "coordinates": [ 3065146.0, 7148168.0 ] } },
{ "type": "Feature", "properties": { "osmid": 5413815740.0 }, "geometry": { "type": "Point", "coordinates": [ 3059026.0, 7152850.0 ] } },
{ "type": "Feature", "properties": { "osmid": 566211411.0 }, "geometry": { "type": "Point", "coordinates": [ 3074059.0, 7149337.0 ] } },
{ "type": "Feature", "properties": { "osmid": 4970895072.0 }, "geometry": { "type": "Point", "coordinates": [ 3063825.0, 7152519.0 ] } },
{ "type": "Feature", "properties": { "osmid": 9381716282.0 }, "geometry": { "type": "Point", "coordinates": [ 3070901.0, 7149373.0 ] } },
{ "type": "Feature", "properties": { "osmid": 1588222106.0 }, "geometry": { "type": "Point", "coordinates": [ 3073962.0, 7155840.0 ] } },
{ "type": "Feature", "properties": { "osmid": 5189655447.0 }, "geometry": { "type": "Point", "coordinates": [ 3078160.0, 7157739.0 ] } },
{ "type": "Feature", "properties": { "osmid": 320718913.0 }, "geometry": { "type": "Point", "coordinates": [ 3061004.0, 7153056.0 ] } },
{ "type": "Feature", "properties": { "osmid": 9318805444.0 }, "geometry": { "type": "Point", "coordinates": [ 3058578.0, 7156964.0 ] } },
{ "type": "Feature", "properties": { "osmid": 13200530282.0 }, "geometry": { "type": "Point", "coordinates": [ 3065653.0, 7152280.0 ] } },
{ "type": "Feature", "properties": { "osmid": 13459990718.0 }, "geometry": { "type": "Point", "coordinates": [ 3080714.0, 7144048.0 ] } },
{ "type": "Feature", "properties": { "osmid": 8085918549.0 }, "geometry": { "type": "Point", "coordinates": [ 3065794.0, 7152101.0 ] } },
{ "type": "Feature", "properties": { "osmid": 5074615032.0 }, "geometry": { "type": "Point", "coordinates": [ 3059783.0, 7144606.0 ] } },
{ "type": "Feature", "properties": { "osmid": 457364587.0 }, "geometry": { "type": "Point", "coordinates": [ 3068238.0, 7151604.0 ] } },
{ "type": "Feature", "properties": { "osmid": 417639292.0 }, "geometry": { "type": "Point", "coordinates": [ 3077734.0, 7145384.0 ] } },
{ "type": "Feature", "properties": { "osmid": 8080381805.0 }, "geometry": { "type": "Point", "coordinates": [ 3082211.0, 7159768.0 ] } },
{ "type": "Feature", "properties": { "osmid": 5421288894.0 }, "geometry": { "type": "Point", "coordinates": [ 3066700.0, 7149445.0 ] } },
{ "type": "Feature", "properties": { "osmid": 1588657821.0 }, "geometry": { "type": "Point", "coordinates": [ 3072358.0, 7155404.0 ] } },
{ "type": "Feature", "properties": { "osmid": 7130413712.0 }, "geometry": { "type": "Point", "coordinates": [ 3064232.0, 7152329.0 ] } },
{ "type": "Feature", "properties": { "osmid": 275066204.0 }, "geometry": { "type": "Point", "coordinates": [ 3069503.0, 7163551.0 ] } },
{ "type": "Feature", "properties": { "osmid": 11076826318.0 }, "geometry": { "type": "Point", "coordinates": [ 3069087.0, 7162716.0 ] } },
{ "type": "Feature", "properties": { "osmid": 12819594981.0 }, "geometry": { "type": "Point", "coordinates": [ 3068279.0, 7163538.0 ] } },
{ "type": "Feature", "properties": { "osmid": 12819679526.0 }, "geometry": { "type": "Point", "coordinates": [ 3068085.0, 7162667.0 ] } },
{ "type": "Feature", "properties": { "osmid": 1214963919.0 }, "geometry": { "type": "Point", "coordinates": [ 3071340.0, 7163361.0 ] } },
{ "type": "Feature", "properties": { "osmid": 3751583736.0 }, "geometry": { "type": "Point", "coordinates": [ 3071037.0, 7162354.0 ] } },
{ "type": "Feature", "properties": { "osmid": 3489341090.0 }, "geometry": { "type": "Point", "coordinates": [ 3071520.0, 7162504.0 ] } },
{ "type": "Feature", "properties": { "osmid": 4171917067.0 }, "geometry": { "type": "Point", "coordinates": [ 3070204.0, 7161216.0 ] } },
{ "type": "Feature", "properties": { "osmid": 12145519010.0 }, "geometry": { "type": "Point", "coordinates": [ 3067163.0, 7162624.0 ] } },
{ "type": "Feature", "properties": { "osmid": 12145519015.0 }, "geometry": { "type": "Point", "coordinates": [ 3067331.0, 7161816.0 ] } },
{ "type": "Feature", "properties": { "osmid": 1214963942.0 }, "geometry": { "type": "Point", "coordinates": [ 3072079.0, 7162487.0 ] } },
{ "type": "Feature", "properties": { "osmid": 13261502674.0 }, "geometry": { "type": "Point", "coordinates": [ 3071745.0, 7161726.0 ] } },
{ "type": "Feature", "properties": { "osmid": 3392179084.0 }, "geometry": { "type": "Point", "coordinates": [ 3069263.0, 7159832.0 ] } },
{ "type": "Feature", "properties": { "osmid": 4647443383.0 }, "geometry": { "type": "Point", "coordinates": [ 3068768.0, 7159409.0 ] } },
{ "type": "Feature", "properties": { "osmid": 275059679.0 }, "geometry": { "type": "Point", "coordinates": [ 3073157.0, 7160753.0 ] } },
{ "type": "Feature", "properties": { "osmid": 10211408060.0 }, "geometry": { "type": "Point", "coordinates": [ 3072442.0, 7159341.0 ] } },
{ "type": "Feature", "properties": { "osmid": 275059539.0 }, "geometry": { "type": "Point", "coordinates": [ 3073799.0, 7160663.0 ] } },
{ "type": "Feature", "properties": { "osmid": 313697145.0 }, "geometry": { "type": "Point", "coordinates": [ 3066427.0, 7158942.0 ] } },
{ "type": "Feature", "properties": { "osmid": 275059725.0 }, "geometry": { "type": "Point", "coordinates": [ 3073533.0, 7159132.0 ] } },
{ "type": "Feature", "properties": { "osmid": 297713502.0 }, "geometry": { "type": "Point", "coordinates": [ 3071883.0, 7157771.0 ] } },
{ "type": "Feature", "properties": { "osmid": 9715642685.0 }, "geometry": { "type": "Point", "coordinates": [ 3071556.0, 7157352.0 ] } },
{ "type": "Feature", "properties": { "osmid": 1710049044.0 }, "geometry": { "type": "Point", "coordinates": [ 3072069.0, 7157204.0 ] } },
{ "type": "Feature", "properties": { "osmid": 12696396831.0 }, "geometry": { "type": "Point", "coordinates": [ 3064963.0, 7158326.0 ] } },
{ "type": "Feature", "properties": { "osmid": 4237364769.0 }, "geometry": { "type": "Point", "coordinates": [ 3073889.0, 7157843.0 ] } },
{ "type": "Feature", "properties": { "osmid": 12696396862.0 }, "geometry": { "type": "Point", "coordinates": [ 3064569.0, 7157876.0 ] } },
{ "type": "Feature", "properties": { "osmid": 3841695410.0 }, "geometry": { "type": "Point", "coordinates": [ 3068745.0, 7156028.0 ] } },
{ "type": "Feature", "properties": { "osmid": 12557128036.0 }, "geometry": { "type": "Point", "coordinates": [ 3065386.0, 7156952.0 ] } },
{ "type": "Feature", "properties": { "osmid": 449544827.0 }, "geometry": { "type": "Point", "coordinates": [ 3066435.0, 7156176.0 ] } },
{ "type": "Feature", "properties": { "osmid": 441890676.0 }, "geometry": { "type": "Point", "coordinates": [ 3063695.0, 7157736.0 ] } },
{ "type": "Feature", "properties": { "osmid": 838347798.0 }, "geometry": { "type": "Point", "coordinates": [ 3064660.0, 7156834.0 ] } },
{ "type": "Feature", "properties": { "osmid": 13230030891.0 }, "geometry": { "type": "Point", "coordinates": [ 3068861.0, 7155258.0 ] } },
{ "type": "Feature", "properties": { "osmid": 667132936.0 }, "geometry": { "type": "Point", "coordinates": [ 3074702.0, 7157047.0 ] } },
{ "type": "Feature", "properties": { "osmid": 13049673064.0 }, "geometry": { "type": "Point", "coordinates": [ 3069539.0, 7155009.0 ] } },
{ "type": "Feature", "properties": { "osmid": 12853851689.0 }, "geometry": { "type": "Point", "coordinates": [ 3074609.0, 7156076.0 ] } },
{ "type": "Feature", "properties": { "osmid": 6578250922.0 }, "geometry": { "type": "Point", "coordinates": [ 3070310.0, 7154341.0 ] } },
{ "type": "Feature", "properties": { "osmid": 13256575829.0 }, "geometry": { "type": "Point", "coordinates": [ 3067210.0, 7154563.0 ] } },
{ "type": "Feature", "properties": { "osmid": 7141329225.0 }, "geometry": { "type": "Point", "coordinates": [ 3075398.0, 7156299.0 ] } },
{ "type": "Feature", "properties": { "osmid": 838338566.0 }, "geometry": { "type": "Point", "coordinates": [ 3063589.0, 7156233.0 ] } },
{ "type": "Feature", "properties": { "osmid": 5175542777.0 }, "geometry": { "type": "Point", "coordinates": [ 3076699.0, 7157377.0 ] } },
{ "type": "Feature", "properties": { "osmid": 1578571312.0 }, "geometry": { "type": "Point", "coordinates": [ 3066531.0, 7154507.0 ] } },
{ "type": "Feature", "properties": { "osmid": 4200560073.0 }, "geometry": { "type": "Point", "coordinates": [ 3076341.0, 7156870.0 ] } },
{ "type": "Feature", "properties": { "osmid": 1617045283.0 }, "geometry": { "type": "Point", "coordinates": [ 3078273.0, 7159086.0 ] } },
{ "type": "Feature", "properties": { "osmid": 5184127044.0 }, "geometry": { "type": "Point", "coordinates": [ 3077234.0, 7157404.0 ] } },
{ "type": "Feature", "properties": { "osmid": 5984828648.0 }, "geometry": { "type": "Point", "coordinates": [ 3061344.0, 7157917.0 ] } },
{ "type": "Feature", "properties": { "osmid": 902674897.0 }, "geometry": { "type": "Point", "coordinates": [ 3065053.0, 7154582.0 ] } },
{ "type": "Feature", "properties": { "osmid": 5182741676.0 }, "geometry": { "type": "Point", "coordinates": [ 3076787.0, 7156541.0 ] } },
{ "type": "Feature", "properties": { "osmid": 664495684.0 }, "geometry": { "type": "Point", "coordinates": [ 3065867.0, 7154048.0 ] } },
{ "type": "Feature", "properties": { "osmid": 5180777972.0 }, "geometry": { "type": "Point", "coordinates": [ 3078429.0, 7158527.0 ] } },
{ "type": "Feature", "properties": { "osmid": 476446413.0 }, "geometry": { "type": "Point", "coordinates": [ 3066320.0, 7153683.0 ] } },
{ "type": "Feature", "properties": { "osmid": 2788551751.0 }, "geometry": { "type": "Point", "coordinates": [ 3060405.0, 7158284.0 ] } },
{ "type": "Feature", "properties": { "osmid": 13256575804.0 }, "geometry": { "type": "Point", "coordinates": [ 3067636.0, 7153064.0 ] } },
{ "type": "Feature", "properties": { "osmid": 514355696.0 }, "geometry": { "type": "Point", "coordinates": [ 3068989.0, 7152543.0 ] } },
{ "type": "Feature", "properties": { "osmid": 1679847927.0 }, "geometry": { "type": "Point", "coordinates": [ 3064374.0, 7153767.0 ] } },
{ "type": "Feature", "properties": { "osmid": 514355735.0 }, "geometry": { "type": "Point", "coordinates": [ 3068339.0, 7152430.0 ] } },
{ "type": "Feature", "properties": { "osmid": 1600503280.0 }, "geometry": { "type": "Point", "coordinates": [ 3074847.0, 7153151.0 ] } },
{ "type": "Feature", "properties": { "osmid": 893155991.0 }, "geometry": { "type": "Point", "coordinates": [ 3080892.0, 7160788.0 ] } },
{ "type": "Feature", "properties": { "osmid": 275077032.0 }, "geometry": { "type": "Point", "coordinates": [ 3060269.0, 7156110.0 ] } },
{ "type": "Feature", "properties": { "osmid": 390969585.0 }, "geometry": { "type": "Point", "coordinates": [ 3074291.0, 7152661.0 ] } },
{ "type": "Feature", "properties": { "osmid": 4663048241.0 }, "geometry": { "type": "Point", "coordinates": [ 3080110.0, 7157577.0 ] } },
{ "type": "Feature", "properties": { "osmid": 12339064513.0 }, "geometry": { "type": "Point", "coordinates": [ 3081481.0, 7161137.0 ] } },
{ "type": "Feature", "properties": { "osmid": 760529081.0 }, "geometry": { "type": "Point", "coordinates": [ 3060201.0, 7155597.0 ] } },
{ "type": "Feature", "properties": { "osmid": 4228061804.0 }, "geometry": { "type": "Point", "coordinates": [ 3081387.0, 7160272.0 ] } },
{ "type": "Feature", "properties": { "osmid": 514304994.0 }, "geometry": { "type": "Point", "coordinates": [ 3069381.0, 7151206.0 ] } },
{ "type": "Feature", "properties": { "osmid": 4960021702.0 }, "geometry": { "type": "Point", "coordinates": [ 3057890.0, 7158935.0 ] } },
{ "type": "Feature", "properties": { "osmid": 3674477985.0 }, "geometry": { "type": "Point", "coordinates": [ 3079900.0, 7156327.0 ] } },
{ "type": "Feature", "properties": { "osmid": 893155417.0 }, "geometry": { "type": "Point", "coordinates": [ 3081689.0, 7159670.0 ] } },
{ "type": "Feature", "properties": { "osmid": 3627289911.0 }, "geometry": { "type": "Point", "coordinates": [ 3080748.0, 7156794.0 ] } },
{ "type": "Feature", "properties": { "osmid": 8075718185.0 }, "geometry": { "type": "Point", "coordinates": [ 3056935.0, 7159680.0 ] } },
{ "type": "Feature", "properties": { "osmid": 4636038563.0 }, "geometry": { "type": "Point", "coordinates": [ 3056193.0, 7161904.0 ] } },
{ "type": "Feature", "properties": { "osmid": 2407414739.0 }, "geometry": { "type": "Point", "coordinates": [ 3070387.0, 7150132.0 ] } },
{ "type": "Feature", "properties": { "osmid": 3247419926.0 }, "geometry": { "type": "Point", "coordinates": [ 3082148.0, 7158636.0 ] } },
{ "type": "Feature", "properties": { "osmid": 275069110.0 }, "geometry": { "type": "Point", "coordinates": [ 3067950.0, 7150010.0 ] } },
{ "type": "Feature", "properties": { "osmid": 1841743902.0 }, "geometry": { "type": "Point", "coordinates": [ 3056566.0, 7159024.0 ] } },
{ "type": "Feature", "properties": { "osmid": 4961332107.0 }, "geometry": { "type": "Point", "coordinates": [ 3082201.0, 7158041.0 ] } },
{ "type": "Feature", "properties": { "osmid": 1250049806.0 }, "geometry": { "type": "Point", "coordinates": [ 3064435.0, 7150562.0 ] } },
{ "type": "Feature", "properties": { "osmid": 4833205581.0 }, "geometry": { "type": "Point", "coordinates": [ 3083169.0, 7160264.0 ] } },
{ "type": "Feature", "properties": { "osmid": 3674478000.0 }, "geometry": { "type": "Point", "coordinates": [ 3081470.0, 7156073.0 ] } },
{ "type": "Feature", "properties": { "osmid": 2327064210.0 }, "geometry": { "type": "Point", "coordinates": [ 3082776.0, 7158573.0 ] } },
{ "type": "Feature", "properties": { "osmid": 4428092502.0 }, "geometry": { "type": "Point", "coordinates": [ 3055590.0, 7160677.0 ] } },
{ "type": "Feature", "properties": { "osmid": 1746052618.0 }, "geometry": { "type": "Point", "coordinates": [ 3083072.0, 7159003.0 ] } },
{ "type": "Feature", "properties": { "osmid": 901427450.0 }, "geometry": { "type": "Point", "coordinates": [ 3082581.0, 7157568.0 ] } },
{ "type": "Feature", "properties": { "osmid": 4960059834.0 }, "geometry": { "type": "Point", "coordinates": [ 3055979.0, 7158438.0 ] } },
{ "type": "Feature", "properties": { "osmid": 13179069535.0 }, "geometry": { "type": "Point", "coordinates": [ 3082318.0, 7156453.0 ] } },
{ "type": "Feature", "properties": { "osmid": 13711009948.0 }, "geometry": { "type": "Point", "coordinates": [ 3057451.0, 7154945.0 ] } },
{ "type": "Feature", "properties": { "osmid": 12144579089.0 }, "geometry": { "type": "Point", "coordinates": [ 3056780.0, 7155953.0 ] } },
{ "type": "Feature", "properties": { "osmid": 3898111197.0 }, "geometry": { "type": "Point", "coordinates": [ 3084120.0, 7160797.0 ] } },
{ "type": "Feature", "properties": { "osmid": 2461099854.0 }, "geometry": { "type": "Point", "coordinates": [ 3066798.0, 7148917.0 ] } },
{ "type": "Feature", "properties": { "osmid": 13179077583.0 }, "geometry": { "type": "Point", "coordinates": [ 3083347.0, 7157452.0 ] } },
{ "type": "Feature", "properties": { "osmid": 12888191217.0 }, "geometry": { "type": "Point", "coordinates": [ 3068402.0, 7148457.0 ] } },
{ "type": "Feature", "properties": { "osmid": 12251102792.0 }, "geometry": { "type": "Point", "coordinates": [ 3055360.0, 7157685.0 ] } },
{ "type": "Feature", "properties": { "osmid": 9782547251.0 }, "geometry": { "type": "Point", "coordinates": [ 3083883.0, 7158119.0 ] } },
{ "type": "Feature", "properties": { "osmid": 9516510913.0 }, "geometry": { "type": "Point", "coordinates": [ 3066948.0, 7148380.0 ] } },
{ "type": "Feature", "properties": { "osmid": 275075173.0 }, "geometry": { "type": "Point", "coordinates": [ 3062937.0, 7149466.0 ] } },
{ "type": "Feature", "properties": { "osmid": 275073638.0 }, "geometry": { "type": "Point", "coordinates": [ 3064271.0, 7148897.0 ] } },
{ "type": "Feature", "properties": { "osmid": 12251102784.0 }, "geometry": { "type": "Point", "coordinates": [ 3054915.0, 7158067.0 ] } },
{ "type": "Feature", "properties": { "osmid": 2404913375.0 }, "geometry": { "type": "Point", "coordinates": [ 3055192.0, 7157117.0 ] } },
{ "type": "Feature", "properties": { "osmid": 4577429964.0 }, "geometry": { "type": "Point", "coordinates": [ 3063719.0, 7148937.0 ] } },
{ "type": "Feature", "properties": { "osmid": 1257833311.0 }, "geometry": { "type": "Point", "coordinates": [ 3062371.0, 7149240.0 ] } },
{ "type": "Feature", "properties": { "osmid": 13645544632.0 }, "geometry": { "type": "Point", "coordinates": [ 3062775.0, 7148942.0 ] } },
{ "type": "Feature", "properties": { "osmid": 9142694509.0 }, "geometry": { "type": "Point", "coordinates": [ 3063243.0, 7148666.0 ] } },
{ "type": "Feature", "properties": { "osmid": 275070408.0 }, "geometry": { "type": "Point", "coordinates": [ 3067560.0, 7147516.0 ] } },
{ "type": "Feature", "properties": { "osmid": 838396353.0 }, "geometry": { "type": "Point", "coordinates": [ 3074298.0, 7148090.0 ] } },
{ "type": "Feature", "properties": { "osmid": 12988501937.0 }, "geometry": { "type": "Point", "coordinates": [ 3061734.0, 7149317.0 ] } },
{ "type": "Feature", "properties": { "osmid": 5281436592.0 }, "geometry": { "type": "Point", "coordinates": [ 3066837.0, 7147544.0 ] } },
{ "type": "Feature", "properties": { "osmid": 5191781981.0 }, "geometry": { "type": "Point", "coordinates": [ 3054939.0, 7156303.0 ] } },
{ "type": "Feature", "properties": { "osmid": 8294913735.0 }, "geometry": { "type": "Point", "coordinates": [ 3065729.0, 7147694.0 ] } },
{ "type": "Feature", "properties": { "osmid": 13675774659.0 }, "geometry": { "type": "Point", "coordinates": [ 3062316.0, 7148666.0 ] } },
{ "type": "Feature", "properties": { "osmid": 13279269548.0 }, "geometry": { "type": "Point", "coordinates": [ 3063337.0, 7148154.0 ] } },
{ "type": "Feature", "properties": { "osmid": 275075259.0 }, "geometry": { "type": "Point", "coordinates": [ 3062818.0, 7148371.0 ] } },
{ "type": "Feature", "properties": { "osmid": 11286440798.0 }, "geometry": { "type": "Point", "coordinates": [ 3075002.0, 7147883.0 ] } },
{ "type": "Feature", "properties": { "osmid": 1454260822.0 }, "geometry": { "type": "Point", "coordinates": [ 3054712.0, 7155832.0 ] } },
{ "type": "Feature", "properties": { "osmid": 602037135.0 }, "geometry": { "type": "Point", "coordinates": [ 3073565.0, 7147310.0 ] } },
{ "type": "Feature", "properties": { "osmid": 275071609.0 }, "geometry": { "type": "Point", "coordinates": [ 3066104.0, 7147086.0 ] } },
{ "type": "Feature", "properties": { "osmid": 7597551597.0 }, "geometry": { "type": "Point", "coordinates": [ 3066859.0, 7146936.0 ] } },
{ "type": "Feature", "properties": { "osmid": 7142690400.0 }, "geometry": { "type": "Point", "coordinates": [ 3061592.0, 7148527.0 ] } },
{ "type": "Feature", "properties": { "osmid": 13057982987.0 }, "geometry": { "type": "Point", "coordinates": [ 3074159.0, 7147051.0 ] } },
{ "type": "Feature", "properties": { "osmid": 12875811084.0 }, "geometry": { "type": "Point", "coordinates": [ 3054323.0, 7155225.0 ] } },
{ "type": "Feature", "properties": { "osmid": 275075225.0 }, "geometry": { "type": "Point", "coordinates": [ 3062470.0, 7147711.0 ] } },
{ "type": "Feature", "properties": { "osmid": 7600328548.0 }, "geometry": { "type": "Point", "coordinates": [ 3066810.0, 7146417.0 ] } },
{ "type": "Feature", "properties": { "osmid": 6616477494.0 }, "geometry": { "type": "Point", "coordinates": [ 3061431.0, 7147906.0 ] } },
{ "type": "Feature", "properties": { "osmid": 1119753471.0 }, "geometry": { "type": "Point", "coordinates": [ 3054324.0, 7154317.0 ] } },
{ "type": "Feature", "properties": { "osmid": 6356562028.0 }, "geometry": { "type": "Point", "coordinates": [ 3067455.0, 7145876.0 ] } },
{ "type": "Feature", "properties": { "osmid": 7393413165.0 }, "geometry": { "type": "Point", "coordinates": [ 3066144.0, 7146057.0 ] } },
{ "type": "Feature", "properties": { "osmid": 275072955.0 }, "geometry": { "type": "Point", "coordinates": [ 3064550.0, 7146440.0 ] } },
{ "type": "Feature", "properties": { "osmid": 9051543930.0 }, "geometry": { "type": "Point", "coordinates": [ 3066940.0, 7145883.0 ] } },
{ "type": "Feature", "properties": { "osmid": 12279277287.0 }, "geometry": { "type": "Point", "coordinates": [ 3065364.0, 7146061.0 ] } },
{ "type": "Feature", "properties": { "osmid": 7710839800.0 }, "geometry": { "type": "Point", "coordinates": [ 3067999.0, 7145466.0 ] } },
{ "type": "Feature", "properties": { "osmid": 12659953798.0 }, "geometry": { "type": "Point", "coordinates": [ 3062288.0, 7146862.0 ] } },
{ "type": "Feature", "properties": { "osmid": 5309324862.0 }, "geometry": { "type": "Point", "coordinates": [ 3054267.0, 7153620.0 ] } },
{ "type": "Feature", "properties": { "osmid": 5128410391.0 }, "geometry": { "type": "Point", "coordinates": [ 3067240.0, 7145422.0 ] } },
{ "type": "Feature", "properties": { "osmid": 9667249555.0 }, "geometry": { "type": "Point", "coordinates": [ 3065983.0, 7145564.0 ] } },
{ "type": "Feature", "properties": { "osmid": 12875811130.0 }, "geometry": { "type": "Point", "coordinates": [ 3053282.0, 7154945.0 ] } },
{ "type": "Feature", "properties": { "osmid": 1715299829.0 }, "geometry": { "type": "Point", "coordinates": [ 3061573.0, 7146978.0 ] } },
{ "type": "Feature", "properties": { "osmid": 9667245115.0 }, "geometry": { "type": "Point", "coordinates": [ 3064995.0, 7145652.0 ] } },
{ "type": "Feature", "properties": { "osmid": 10067707432.0 }, "geometry": { "type": "Point", "coordinates": [ 3066680.0, 7145300.0 ] } },
{ "type": "Feature", "properties": { "osmid": 9844391313.0 }, "geometry": { "type": "Point", "coordinates": [ 3072275.0, 7145133.0 ] } },
{ "type": "Feature", "properties": { "osmid": 2309316237.0 }, "geometry": { "type": "Point", "coordinates": [ 3062512.0, 7146270.0 ] } },
{ "type": "Feature", "properties": { "osmid": 6415683153.0 }, "geometry": { "type": "Point", "coordinates": [ 3067926.0, 7144963.0 ] } },
{ "type": "Feature", "properties": { "osmid": 2713988875.0 }, "geometry": { "type": "Point", "coordinates": [ 3053242.0, 7154381.0 ] } },
{ "type": "Feature", "properties": { "osmid": 852483979.0 }, "geometry": { "type": "Point", "coordinates": [ 3054200.0, 7152794.0 ] } },
{ "type": "Feature", "properties": { "osmid": 5806321055.0 }, "geometry": { "type": "Point", "coordinates": [ 3059621.0, 7147668.0 ] } },
{ "type": "Feature", "properties": { "osmid": 9667245112.0 }, "geometry": { "type": "Point", "coordinates": [ 3067363.0, 7144895.0 ] } },
{ "type": "Feature", "properties": { "osmid": 9667249322.0 }, "geometry": { "type": "Point", "coordinates": [ 3065890.0, 7145047.0 ] } },
{ "type": "Feature", "properties": { "osmid": 275076665.0 }, "geometry": { "type": "Point", "coordinates": [ 3061183.0, 7146594.0 ] } },
{ "type": "Feature", "properties": { "osmid": 7238904598.0 }, "geometry": { "type": "Point", "coordinates": [ 3088127.0, 7160177.0 ] } },
{ "type": "Feature", "properties": { "osmid": 12187648145.0 }, "geometry": { "type": "Point", "coordinates": [ 3066814.0, 7144782.0 ] } },
{ "type": "Feature", "properties": { "osmid": 9667249442.0 }, "geometry": { "type": "Point", "coordinates": [ 3064838.0, 7145145.0 ] } },
{ "type": "Feature", "properties": { "osmid": 935016598.0 }, "geometry": { "type": "Point", "coordinates": [ 3054178.0, 7152186.0 ] } },
{ "type": "Feature", "properties": { "osmid": 2713988879.0 }, "geometry": { "type": "Point", "coordinates": [ 3052588.0, 7154482.0 ] } },
{ "type": "Feature", "properties": { "osmid": 9667250543.0 }, "geometry": { "type": "Point", "coordinates": [ 3065454.0, 7144693.0 ] } },
{ "type": "Feature", "properties": { "osmid": 11249166253.0 }, "geometry": { "type": "Point", "coordinates": [ 3056340.0, 7149376.0 ] } },
{ "type": "Feature", "properties": { "osmid": 10004674187.0 }, "geometry": { "type": "Point", "coordinates": [ 3067137.0, 7144155.0 ] } },
{ "type": "Feature", "properties": { "osmid": 2849468223.0 }, "geometry": { "type": "Point", "coordinates": [ 3081627.0, 7148187.0 ] } },
{ "type": "Feature", "properties": { "osmid": 5653989927.0 }, "geometry": { "type": "Point", "coordinates": [ 3082403.0, 7148832.0 ] } },
{ "type": "Feature", "properties": { "osmid": 9667248970.0 }, "geometry": { "type": "Point", "coordinates": [ 3065843.0, 7144324.0 ] } },
{ "type": "Feature", "properties": { "osmid": 935016522.0 }, "geometry": { "type": "Point", "coordinates": [ 3054121.0, 7151419.0 ] } },
{ "type": "Feature", "properties": { "osmid": 13279421227.0 }, "geometry": { "type": "Point", "coordinates": [ 3067788.0, 7144023.0 ] } },
{ "type": "Feature", "properties": { "osmid": 2713988881.0 }, "geometry": { "type": "Point", "coordinates": [ 3052021.0, 7154565.0 ] } },
{ "type": "Feature", "properties": { "osmid": 13273882864.0 }, "geometry": { "type": "Point", "coordinates": [ 3066290.0, 7144098.0 ] } },
{ "type": "Feature", "properties": { "osmid": 9257966138.0 }, "geometry": { "type": "Point", "coordinates": [ 3064882.0, 7144325.0 ] } },
{ "type": "Feature", "properties": { "osmid": 5010181289.0 }, "geometry": { "type": "Point", "coordinates": [ 3069410.0, 7143667.0 ] } },
{ "type": "Feature", "properties": { "osmid": 9860930733.0 }, "geometry": { "type": "Point", "coordinates": [ 3075832.0, 7144684.0 ] } },
{ "type": "Feature", "properties": { "osmid": 3768791662.0 }, "geometry": { "type": "Point", "coordinates": [ 3073108.0, 7143936.0 ] } },
{ "type": "Feature", "properties": { "osmid": 4883150973.0 }, "geometry": { "type": "Point", "coordinates": [ 3070977.0, 7143656.0 ] } },
{ "type": "Feature", "properties": { "osmid": 10240498348.0 }, "geometry": { "type": "Point", "coordinates": [ 3066772.0, 7143770.0 ] } },
{ "type": "Feature", "properties": { "osmid": 5806321071.0 }, "geometry": { "type": "Point", "coordinates": [ 3058130.0, 7147066.0 ] } },
{ "type": "Feature", "properties": { "osmid": 10043755071.0 }, "geometry": { "type": "Point", "coordinates": [ 3065590.0, 7143801.0 ] } },
{ "type": "Feature", "properties": { "osmid": 10043755034.0 }, "geometry": { "type": "Point", "coordinates": [ 3066075.0, 7143633.0 ] } },
{ "type": "Feature", "properties": { "osmid": 5580726449.0 }, "geometry": { "type": "Point", "coordinates": [ 3054069.0, 7150393.0 ] } },
{ "type": "Feature", "properties": { "osmid": 275073892.0 }, "geometry": { "type": "Point", "coordinates": [ 3064088.0, 7143853.0 ] } },
{ "type": "Feature", "properties": { "osmid": 12903468028.0 }, "geometry": { "type": "Point", "coordinates": [ 3054299.0, 7149737.0 ] } },
{ "type": "Feature", "properties": { "osmid": 12903468022.0 }, "geometry": { "type": "Point", "coordinates": [ 3054777.0, 7149204.0 ] } },
{ "type": "Feature", "properties": { "osmid": 12903468012.0 }, "geometry": { "type": "Point", "coordinates": [ 3055424.0, 7148359.0 ] } },
{ "type": "Feature", "properties": { "osmid": 8752951937.0 }, "geometry": { "type": "Point", "coordinates": [ 3056877.0, 7146936.0 ] } },
{ "type": "Feature", "properties": { "osmid": 275071640.0 }, "geometry": { "type": "Point", "coordinates": [ 3065603.0, 7142964.0 ] } },
{ "type": "Feature", "properties": { "osmid": 1243294769.0 }, "geometry": { "type": "Point", "coordinates": [ 3053488.0, 7150012.0 ] } },
{ "type": "Feature", "properties": { "osmid": 1182514973.0 }, "geometry": { "type": "Point", "coordinates": [ 3058430.0, 7145718.0 ] } },
{ "type": "Feature", "properties": { "osmid": 3658815392.0 }, "geometry": { "type": "Point", "coordinates": [ 3073584.0, 7142945.0 ] } },
{ "type": "Feature", "properties": { "osmid": 9764555827.0 }, "geometry": { "type": "Point", "coordinates": [ 3060966.0, 7144350.0 ] } },
{ "type": "Feature", "properties": { "osmid": 275073924.0 }, "geometry": { "type": "Point", "coordinates": [ 3063774.0, 7143284.0 ] } },
{ "type": "Feature", "properties": { "osmid": 8916167160.0 }, "geometry": { "type": "Point", "coordinates": [ 3076324.0, 7143619.0 ] } },
{ "type": "Feature", "properties": { "osmid": 1425924486.0 }, "geometry": { "type": "Point", "coordinates": [ 3071055.0, 7142510.0 ] } },
{ "type": "Feature", "properties": { "osmid": 3652422144.0 }, "geometry": { "type": "Point", "coordinates": [ 3053326.0, 7149421.0 ] } },
{ "type": "Feature", "properties": { "osmid": 8752951944.0 }, "geometry": { "type": "Point", "coordinates": [ 3056113.0, 7146744.0 ] } },
{ "type": "Feature", "properties": { "osmid": 1737394534.0 }, "geometry": { "type": "Point", "coordinates": [ 3067429.0, 7142133.0 ] } },
{ "type": "Feature", "properties": { "osmid": 2356055571.0 }, "geometry": { "type": "Point", "coordinates": [ 3074915.0, 7142620.0 ] } },
{ "type": "Feature", "properties": { "osmid": 12195219025.0 }, "geometry": { "type": "Point", "coordinates": [ 3073915.0, 7142263.0 ] } },
{ "type": "Feature", "properties": { "osmid": 6020427628.0 }, "geometry": { "type": "Point", "coordinates": [ 3056345.0, 7146178.0 ] } },
{ "type": "Feature", "properties": { "osmid": 12195634444.0 }, "geometry": { "type": "Point", "coordinates": [ 3056663.0, 7145743.0 ] } },
{ "type": "Feature", "properties": { "osmid": 13201275365.0 }, "geometry": { "type": "Point", "coordinates": [ 3057860.0, 7144836.0 ] } },
{ "type": "Feature", "properties": { "osmid": 6993592816.0 }, "geometry": { "type": "Point", "coordinates": [ 3065433.0, 7141791.0 ] } },
{ "type": "Feature", "properties": { "osmid": 10963918872.0 }, "geometry": { "type": "Point", "coordinates": [ 3070373.0, 7141386.0 ] } },
{ "type": "Feature", "properties": { "osmid": 7936907594.0 }, "geometry": { "type": "Point", "coordinates": [ 3054892.0, 7146756.0 ] } },
{ "type": "Feature", "properties": { "osmid": 275070605.0 }, "geometry": { "type": "Point", "coordinates": [ 3066581.0, 7141455.0 ] } },
{ "type": "Feature", "properties": { "osmid": 5176194702.0 }, "geometry": { "type": "Point", "coordinates": [ 3055549.0, 7146163.0 ] } },
{ "type": "Feature", "properties": { "osmid": 917222115.0 }, "geometry": { "type": "Point", "coordinates": [ 3053778.0, 7147666.0 ] } },
{ "type": "Feature", "properties": { "osmid": 275073115.0 }, "geometry": { "type": "Point", "coordinates": [ 3064723.0, 7141630.0 ] } },
{ "type": "Feature", "properties": { "osmid": 13261674368.0 }, "geometry": { "type": "Point", "coordinates": [ 3070863.0, 7140985.0 ] } },
{ "type": "Feature", "properties": { "osmid": 6188999156.0 }, "geometry": { "type": "Point", "coordinates": [ 3054639.0, 7146323.0 ] } },
{ "type": "Feature", "properties": { "osmid": 3138022631.0 }, "geometry": { "type": "Point", "coordinates": [ 3076038.0, 7141755.0 ] } },
{ "type": "Feature", "properties": { "osmid": 13179141726.0 }, "geometry": { "type": "Point", "coordinates": [ 3055218.0, 7145710.0 ] } },
{ "type": "Feature", "properties": { "osmid": 12261110575.0 }, "geometry": { "type": "Point", "coordinates": [ 3053902.0, 7146714.0 ] } },
{ "type": "Feature", "properties": { "osmid": 7390269654.0 }, "geometry": { "type": "Point", "coordinates": [ 3065221.0, 7140968.0 ] } },
{ "type": "Feature", "properties": { "osmid": 4965578906.0 }, "geometry": { "type": "Point", "coordinates": [ 3060474.0, 7142410.0 ] } },
{ "type": "Feature", "properties": { "osmid": 1874118433.0 }, "geometry": { "type": "Point", "coordinates": [ 3053021.0, 7147495.0 ] } },
{ "type": "Feature", "properties": { "osmid": 9286597885.0 }, "geometry": { "type": "Point", "coordinates": [ 3070176.0, 7140439.0 ] } },
{ "type": "Feature", "properties": { "osmid": 5104730170.0 }, "geometry": { "type": "Point", "coordinates": [ 3064538.0, 7140896.0 ] } },
{ "type": "Feature", "properties": { "osmid": 4494909966.0 }, "geometry": { "type": "Point", "coordinates": [ 3059607.0, 7142490.0 ] } },
{ "type": "Feature", "properties": { "osmid": 482776554.0 }, "geometry": { "type": "Point", "coordinates": [ 3072484.0, 7140450.0 ] } },
{ "type": "Feature", "properties": { "osmid": 809672510.0 }, "geometry": { "type": "Point", "coordinates": [ 3057113.0, 7143810.0 ] } },
{ "type": "Feature", "properties": { "osmid": 13261605453.0 }, "geometry": { "type": "Point", "coordinates": [ 3071431.0, 7140305.0 ] } },
{ "type": "Feature", "properties": { "osmid": 12500853608.0 }, "geometry": { "type": "Point", "coordinates": [ 3069611.0, 7140049.0 ] } },
{ "type": "Feature", "properties": { "osmid": 13179141746.0 }, "geometry": { "type": "Point", "coordinates": [ 3053473.0, 7146137.0 ] } },
{ "type": "Feature", "properties": { "osmid": 429841345.0 }, "geometry": { "type": "Point", "coordinates": [ 3060047.0, 7141823.0 ] } },
{ "type": "Feature", "properties": { "osmid": 9804900538.0 }, "geometry": { "type": "Point", "coordinates": [ 3055441.0, 7144307.0 ] } },
{ "type": "Feature", "properties": { "osmid": 8048238088.0 }, "geometry": { "type": "Point", "coordinates": [ 3074014.0, 7139898.0 ] } },
{ "type": "Feature", "properties": { "osmid": 11804763583.0 }, "geometry": { "type": "Point", "coordinates": [ 3073148.0, 7139732.0 ] } },
{ "type": "Feature", "properties": { "osmid": 13466597353.0 }, "geometry": { "type": "Point", "coordinates": [ 3071694.0, 7139504.0 ] } },
{ "type": "Feature", "properties": { "osmid": 1025445704.0 }, "geometry": { "type": "Point", "coordinates": [ 3056433.0, 7143218.0 ] } },
{ "type": "Feature", "properties": { "osmid": 3138022679.0 }, "geometry": { "type": "Point", "coordinates": [ 3075094.0, 7140027.0 ] } },
{ "type": "Feature", "properties": { "osmid": 9804900522.0 }, "geometry": { "type": "Point", "coordinates": [ 3054911.0, 7144163.0 ] } },
{ "type": "Feature", "properties": { "osmid": 2641502112.0 }, "geometry": { "type": "Point", "coordinates": [ 3057537.0, 7142425.0 ] } },
{ "type": "Feature", "properties": { "osmid": 5173948275.0 }, "geometry": { "type": "Point", "coordinates": [ 3072257.0, 7139413.0 ] } },
{ "type": "Feature", "properties": { "osmid": 1539583916.0 }, "geometry": { "type": "Point", "coordinates": [ 3052841.0, 7145783.0 ] } },
{ "type": "Feature", "properties": { "osmid": 12497686100.0 }, "geometry": { "type": "Point", "coordinates": [ 3065018.0, 7139551.0 ] } },
{ "type": "Feature", "properties": { "osmid": 3224803008.0 }, "geometry": { "type": "Point", "coordinates": [ 3059883.0, 7141108.0 ] } },
{ "type": "Feature", "properties": { "osmid": 4909600624.0 }, "geometry": { "type": "Point", "coordinates": [ 3071091.0, 7139116.0 ] } },
{ "type": "Feature", "properties": { "osmid": 2641502076.0 }, "geometry": { "type": "Point", "coordinates": [ 3056560.0, 7142399.0 ] } },
{ "type": "Feature", "properties": { "osmid": 5175413028.0 }, "geometry": { "type": "Point", "coordinates": [ 3057942.0, 7141589.0 ] } },
{ "type": "Feature", "properties": { "osmid": 767088699.0 }, "geometry": { "type": "Point", "coordinates": [ 3053140.0, 7144812.0 ] } },
{ "type": "Feature", "properties": { "osmid": 11804763594.0 }, "geometry": { "type": "Point", "coordinates": [ 3073233.0, 7138847.0 ] } },
{ "type": "Feature", "properties": { "osmid": 13201314921.0 }, "geometry": { "type": "Point", "coordinates": [ 3055319.0, 7142671.0 ] } },
{ "type": "Feature", "properties": { "osmid": 1026555370.0 }, "geometry": { "type": "Point", "coordinates": [ 3056697.0, 7141765.0 ] } },
{ "type": "Feature", "properties": { "osmid": 1026303035.0 }, "geometry": { "type": "Point", "coordinates": [ 3054937.0, 7142272.0 ] } },
{ "type": "Feature", "properties": { "osmid": 933607641.0 }, "geometry": { "type": "Point", "coordinates": [ 3053717.0, 7143019.0 ] } },
{ "type": "Feature", "properties": { "osmid": 933607650.0 }, "geometry": { "type": "Point", "coordinates": [ 3055959.0, 7140943.0 ] } },
{ "type": "Feature", "properties": { "osmid": 13201314932.0 }, "geometry": { "type": "Point", "coordinates": [ 3054539.0, 7141846.0 ] } },
{ "type": "Feature", "properties": { "osmid": 5207350647.0 }, "geometry": { "type": "Point", "coordinates": [ 3055018.0, 7141385.0 ] } }
]
}
