{
"type": "FeatureCollection",
"name": "minsk-grid",
"crs": { "type": "name", "properties": { "name": "urn:ogc:def:crs:EPSG::3857" } },
"features": [
{ "type": "Feature", "properties": { "osmid": 9306445053.0 }, "geometry": { "type": "Point", "coordinates": [ 3059697.0, 7156222.0 ] } },
{ "type": "Feature", "properties": { "osmid": 1100446271.0 }, "geometry": { "type": "Point", "coordinates": [ 3083596.0, 7140861.0 ] } },
{ "type": "Feature", "properties": { "osmid": 5601864948.0 }, "geometry": { "type": "Point", "coordinates": [ 3063107.0, 7151102.0 ] } },
{ "type": "Feature", "properties": { "osmid": 7308328395.0 }, "geometry": { "type": "Point", "coordinates": [ 3063108.0, 7145985.0 ] } },
{ "type": "Feature", "properties": { "osmid": 2407216924.0 }, "geometry": { "type": "Point", "coordinates": [ 3076761.0, 7161342.0 ] } },
{ "type": "Feature", "properties": { "osmid": 6658468232.0 }, "geometry": { "type": "Point", "coordinates": [ 3069942.0, 7152804.0 ] } },
{ "type": "Feature", "properties": { "osmid": 253443990.0 }, "geometry": { "type": "Point", "coordinates": [ 3076762.0, 7145976.0 ] } },
{ "type": "Feature", "properties": { "osmid": 4622609026.0 }, "geometry": { "type": "Point", "coordinates": [ 3076760.0, 7147685.0 ] } },
{ "type": "Feature", "properties": { "osmid": 6952424470.0 }, "geometry": { "type": "Point", "coordinates": [ 3056280.0, 7157923.0 ] } },
{ "type": "Feature", "properties": { "osmid": 2936147887.0 }, "geometry": { "type": "Point", "coordinates": [ 3069933.0, 7157924.0 ] } },
{ "type": "Feature", "properties": { "osmid": 13136241018.0 }, "geometry": { "type": "Point", "coordinates": [ 3075059.0, 7145973.0 ] } },
{ "type": "Feature", "properties": { "osmid": 7089363636.0 }, "geometry": { "type": "Point", "coordinates": [ 3071652.0, 7154512.0 ] } },
{ "type": "Feature", "properties": { "osmid": 4007328729.0 }, "geometry": { "type": "Point", "coordinates": [ 3066526.0, 7152801.0 ] } },
{ "type": "Feature", "properties": { "osmid": 5865536631.0 }, "geometry": { "type": "Point", "coordinates": [ 3078475.0, 7144281.0 ] } },
{ "type": "Feature", "properties": { "osmid": 9955883678.0 }, "geometry": { "type": "Point", "coordinates": [ 3075066.0, 7151106.0 ] } },
{ "type": "Feature", "properties": { "osmid": 977649444.0 }, "geometry": { "type": "Point", "coordinates": [ 3054569.0, 7151095.0 ] } },
{ "type": "Feature", "properties": { "osmid": 4173232803.0 }, "geometry": { "type": "Point", "coordinates": [ 3059703.0, 7159643.0 ] } },
{ "type": "Feature", "properties": { "osmid": 1618124552.0 }, "geometry": { "type": "Point", "coordinates": [ 3064807.0, 7152808.0 ] } },
{ "type": "Feature", "properties": { "osmid": 4351578198.0 }, "geometry": { "type": "Point", "coordinates": [ 3068228.0, 7151112.0 ] } },
{ "type": "Feature", "properties": { "osmid": 12985341664.0 }, "geometry": { "type": "Point", "coordinates": [ 3076755.0, 7151099.0 ] } },
{ "type": "Feature", "properties": { "osmid": 12999133196.0 }, "geometry": { "type": "Point", "coordinates": [ 3073344.0, 7157920.0 ] } },
{ "type": "Feature", "properties": { "osmid": 275069274.0 }, "geometry": { "type": "Point", "coordinates": [ 3068222.0, 7145989.0 ] } },
{ "type": "Feature", "properties": { "osmid": 3889786370.0 }, "geometry": { "type": "Point", "coordinates": [ 3076769.0, 7139140.0 ] } },
{ "type": "Feature", "properties": { "osmid": 5381666105.0 }, "geometry": { "type": "Point", "coordinates": [ 3052860.0, 7151111.0 ] } },
{ "type": "Feature", "properties": { "osmid": 13409575045.0 }, "geometry": { "type": "Point", "coordinates": [ 3083585.0, 7139144.0 ] } },
{ "type": "Feature", "properties": { "osmid": 6943210288.0 }, "geometry": { "type": "Point", "coordinates": [ 3058002.0, 7152806.0 ] } },
{ "type": "Feature", "properties": { "osmid": 12977577449.0 }, "geometry": { "type": "Point", "coordinates": [ 3078460.0, 7147688.0 ] } },
{ "type": "Feature", "properties": { "osmid": 2439959790.0 }, "geometry": { "type": "Point", "coordinates": [ 3059685.0, 7145988.0 ] } },
{ "type": "Feature", "properties": { "osmid": 4646168114.0 }, "geometry": { "type": "Point", "coordinates": [ 3066514.0, 7161352.0 ] } },
{ "type": "Feature", "properties": { "osmid": 3001419771.0 }, "geometry": { "type": "Point", "coordinates": [ 3068219.0, 7154507.0 ] } },
{ "type": "Feature", "properties": { "osmid": 2193329397.0 }, "geometry": { "type": "Point", "coordinates": [ 3056273.0, 7152797.0 ] } },
{ "type": "Feature", "properties": { "osmid": 990091707.0 }, "geometry": { "type": "Point", "coordinates": [ 3085286.0, 7159633.0 ] } },
{ "type": "Feature", "properties": { "osmid": 9802204876.0 }, "geometry": { "type": "Point", "coordinates": [ 3076771.0, 7144288.0 ] } },
{ "type": "Feature", "properties": { "osmid": 3100329580.0 }, "geometry": { "type": "Point", "coordinates": [ 3056276.0, 7151115.0 ] } },
{ "type": "Feature", "properties": { "osmid": 1914192293.0 }, "geometry": { "type": "Point", "coordinates": [ 3068243.0, 7157939.0 ] } },
{ "type": "Feature", "properties": { "osmid": 4339407566.0 }, "geometry": { "type": "Point", "coordinates": [ 3073336.0, 7159630.0 ] } },
{ "type": "Feature", "properties": { "osmid": 3424724997.0 }, "geometry": { "type": "Point", "coordinates": [ 3061412.0, 7152823.0 ] } },
{ "type": "Feature", "properties": { "osmid": 10580897535.0 }, "geometry": { "type": "Point", "coordinates": [ 3057985.0, 7140876.0 ] } },
{ "type": "Feature", "properties": { "osmid": 5331038382.0 }, "geometry": { "type": "Point", "coordinates": [ 3059713.0, 7151096.0 ] } },
{ "type": "Feature", "properties": { "osmid": 3118160850.0 }, "geometry": { "type": "Point", "coordinates": [ 3078469.0, 7151118.0 ] } },
{ "type": "Feature", "properties": { "osmid": 12850294368.0 }, "geometry": { "type": "Point", "coordinates": [ 3071649.0, 7149377.0 ] } },
{ "type": "Feature", "properties": { "osmid": 8086109050.0 }, "geometry": { "type": "Point", "coordinates": [ 3066539.0, 7163064.0 ] } },
{ "type": "Feature", "properties": { "osmid": 2897251225.0 }, "geometry": { "type": "Point", "coordinates": [ 3068238.0, 7144292.0 ] } },
{ "type": "Feature", "properties": { "osmid": 4263192095.0 }, "geometry": { "type": "Point", "coordinates": [ 3061406.0, 7156203.0 ] } },
{ "type": "Feature", "properties": { "osmid": 1484613214.0 }, "geometry": { "type": "Point", "coordinates": [ 3081891.0, 7146000.0 ] } },
{ "type": "Feature", "properties": { "osmid": 5911741519.0 }, "geometry": { "type": "Point", "coordinates": [ 3071662.0, 7132336.0 ] } },
{ "type": "Feature", "properties": { "osmid": 275064323.0 }, "geometry": { "type": "Point", "coordinates": [ 3069918.0, 7159635.0 ] } },
{ "type": "Feature", "properties": { "osmid": 890271232.0 }, "geometry": { "type": "Point", "coordinates": [ 3068213.0, 7140869.0 ] } },
{ "type": "Feature", "properties": { "osmid": 12969311456.0 }, "geometry": { "type": "Point", "coordinates": [ 3081889.0, 7140838.0 ] } },
{ "type": "Feature", "properties": { "osmid": 13001210972.0 }, "geometry": { "type": "Point", "coordinates": [ 3068252.0, 7156222.0 ] } },
{ "type": "Feature", "properties": { "osmid": 7695305114.0 }, "geometry": { "type": "Point", "coordinates": [ 3064825.0, 7142586.0 ] } },
{ "type": "Feature", "properties": { "osmid": 442930746.0 }, "geometry": { "type": "Point", "coordinates": [ 3059694.0, 7152830.0 ] } },
{ "type": "Feature", "properties": { "osmid": 13666630902.0 }, "geometry": { "type": "Point", "coordinates": [ 3081893.0, 7154494.0 ] } },
{ "type": "Feature", "properties": { "osmid": 666951387.0 }, "geometry": { "type": "Point", "coordinates": [ 3061396.0, 7145959.0 ] } },
{ "type": "Feature", "properties": { "osmid": 4520747708.0 }, "geometry": { "type": "Point", "coordinates": [ 3052847.0, 7156217.0 ] } },
{ "type": "Feature", "properties": { "osmid": 4988633952.0 }, "geometry": { "type": "Point", "coordinates": [ 3075045.0, 7161362.0 ] } },
{ "type": "Feature", "properties": { "osmid": 1018326901.0 }, "geometry": { "type": "Point", "coordinates": [ 3058012.0, 7154514.0 ] } },
{ "type": "Feature", "properties": { "osmid": 767183510.0 }, "geometry": { "type": "Point", "coordinates": [ 3066506.0, 7139137.0 ] } },
{ "type": "Feature", "properties": { "osmid": 2337104802.0 }, "geometry": { "type": "Point", "coordinates": [ 3083584.0, 7154536.0 ] } },
{ "type": "Feature", "properties": { "osmid": 1071268983.0 }, "geometry": { "type": "Point", "coordinates": [ 3069915.0, 7149395.0 ] } },
{ "type": "Feature", "properties": { "osmid": 1182515138.0 }, "geometry": { "type": "Point", "coordinates": [ 3058010.0, 7145991.0 ] } },
{ "type": "Feature", "properties": { "osmid": 2631134837.0 }, "geometry": { "type": "Point", "coordinates": [ 3071634.0, 7152830.0 ] } },
{ "type": "Feature", "properties": { "osmid": 977661188.0 }, "geometry": { "type": "Point", "coordinates": [ 3052888.0, 7152794.0 ] } },
{ "type": "Feature", "properties": { "osmid": 4163392424.0 }, "geometry": { "type": "Point", "coordinates": [ 3069954.0, 7156202.0 ] } },
{ "type": "Feature", "properties": { "osmid": 3782952683.0 }, "geometry": { "type": "Point", "coordinates": [ 3080207.0, 7145979.0 ] } },
{ "type": "Feature", "properties": { "osmid": 12324121811.0 }, "geometry": { "type": "Point", "coordinates": [ 3078449.0, 7142553.0 ] } },
{ "type": "Feature", "properties": { "osmid": 5079933746.0 }, "geometry": { "type": "Point", "coordinates": [ 3056296.0, 7154540.0 ] } },
{ "type": "Feature", "properties": { "osmid": 7155106679.0 }, "geometry": { "type": "Point", "coordinates": [ 3073344.0, 7151128.0 ] } },
{ "type": "Feature", "properties": { "osmid": 8444010122.0 }, "geometry": { "type": "Point", "coordinates": [ 3058011.0, 7157909.0 ] } },
{ "type": "Feature", "properties": { "osmid": 5869379584.0 }, "geometry": { "type": "Point", "coordinates": [ 3073323.0, 7156223.0 ] } },
{ "type": "Feature", "properties": { "osmid": 3514941487.0 }, "geometry": { "type": "Point", "coordinates": [ 3061381.0, 7151081.0 ] } },
{ "type": "Feature", "properties": { "osmid": 4582539999.0 }, "geometry": { "type": "Point", "coordinates": [ 3064821.0, 7163080.0 ] } },
{ "type": "Feature", "properties": { "osmid": 9331944052.0 }, "geometry": { "type": "Point", "coordinates": [ 3059673.0, 7157949.0 ] } },
{ "type": "Feature", "properties": { "osmid": 13033871517.0 }, "geometry": { "type": "Point", "coordinates": [ 3064820.0, 7151131.0 ] } },
{ "type": "Feature", "properties": { "osmid": 968089037.0 }, "geometry": { "type": "Point", "coordinates": [ 3080194.0, 7144300.0 ] } },
{ "type": "Feature", "properties": { "osmid": 8231722652.0 }, "geometry": { "type": "Point", "coordinates": [ 3080177.0, 7154546.0 ] } },
{ "type": "Feature", "properties": { "osmid": 890403436.0 }, "geometry": { "type": "Point", "coordinates": [ 3069907.0, 7139154.0 ] } },
{ "type": "Feature", "properties": { "osmid": 275041373.0 }, "geometry": { "type": "Point", "coordinates": [ 3086988.0, 7140834.0 ] } },
{ "type": "Feature", "properties": { "osmid": 3781133076.0 }, "geometry": { "type": "Point", "coordinates": [ 3066493.0, 7151110.0 ] } },
{ "type": "Feature", "properties": { "osmid": 6264320285.0 }, "geometry": { "type": "Point", "coordinates": [ 3058020.0, 7144286.0 ] } },
{ "type": "Feature", "properties": { "osmid": 9819366579.0 }, "geometry": { "type": "Point", "coordinates": [ 3063090.0, 7147714.0 ] } },
{ "type": "Feature", "properties": { "osmid": 1848231777.0 }, "geometry": { "type": "Point", "coordinates": [ 3064804.0, 7156253.0 ] } },
{ "type": "Feature", "properties": { "osmid": 13009211371.0 }, "geometry": { "type": "Point", "coordinates": [ 3071651.0, 7140826.0 ] } },
{ "type": "Feature", "properties": { "osmid": 1870461361.0 }, "geometry": { "type": "Point", "coordinates": [ 3083628.0, 7137446.0 ] } },
{ "type": "Feature", "properties": { "osmid": 7784546311.0 }, "geometry": { "type": "Point", "coordinates": [ 3088695.0, 7140887.0 ] } },
{ "type": "Feature", "properties": { "osmid": 3283005718.0 }, "geometry": { "type": "Point", "coordinates": [ 3069972.0, 7151094.0 ] } },
{ "type": "Feature", "properties": { "osmid": 5113288323.0 }, "geometry": { "type": "Point", "coordinates": [ 3059662.0, 7144274.0 ] } },
{ "type": "Feature", "properties": { "osmid": 1484620033.0 }, "geometry": { "type": "Point", "coordinates": [ 3081921.0, 7147695.0 ] } },
{ "type": "Feature", "properties": { "osmid": 648236724.0 }, "geometry": { "type": "Point", "coordinates": [ 3061438.0, 7140854.0 ] } },
{ "type": "Feature", "properties": { "osmid": 783766542.0 }, "geometry": { "type": "Point", "coordinates": [ 3061379.0, 7159609.0 ] } },
{ "type": "Feature", "properties": { "osmid": 4893683656.0 }, "geometry": { "type": "Point", "coordinates": [ 3083560.0, 7156234.0 ] } },
{ "type": "Feature", "properties": { "osmid": 1255065577.0 }, "geometry": { "type": "Point", "coordinates": [ 3063104.0, 7152772.0 ] } },
{ "type": "Feature", "properties": { "osmid": 3014085674.0 }, "geometry": { "type": "Point", "coordinates": [ 3088752.0, 7144268.0 ] } },
{ "type": "Feature", "properties": { "osmid": 13004314828.0 }, "geometry": { "type": "Point", "coordinates": [ 3073387.0, 7152824.0 ] } },
{ "type": "Feature", "properties": { "osmid": 8946568675.0 }, "geometry": { "type": "Point", "coordinates": [ 3071640.0, 7156185.0 ] } },
{ "type": "Feature", "properties": { "osmid": 6768934765.0 }, "geometry": { "type": "Point", "coordinates": [ 3069942.0, 7163012.0 ] } },
{ "type": "Feature", "properties": { "osmid": 1025493587.0 }, "geometry": { "type": "Point", "coordinates": [ 3056244.0, 7144281.0 ] } },
{ "type": "Feature", "properties": { "osmid": 9216831039.0 }, "geometry": { "type": "Point", "coordinates": [ 3071683.0, 7144283.0 ] } },
{ "type": "Feature", "properties": { "osmid": 7162542160.0 }, "geometry": { "type": "Point", "coordinates": [ 3081889.0, 7135699.0 ] } },
{ "type": "Feature", "properties": { "osmid": 3222435120.0 }, "geometry": { "type": "Point", "coordinates": [ 3057962.0, 7151073.0 ] } },
{ "type": "Feature", "properties": { "osmid": 13318543487.0 }, "geometry": { "type": "Point", "coordinates": [ 3056278.0, 7161383.0 ] } },
{ "type": "Feature", "properties": { "osmid": 275079678.0 }, "geometry": { "type": "Point", "coordinates": [ 3054605.0, 7147660.0 ] } },
{ "type": "Feature", "properties": { "osmid": 275051848.0 }, "geometry": { "type": "Point", "coordinates": [ 3078491.0, 7157966.0 ] } },
{ "type": "Feature", "properties": { "osmid": 2409880859.0 }, "geometry": { "type": "Point", "coordinates": [ 3076768.0, 7159596.0 ] } },
{ "type": "Feature", "properties": { "osmid": 10923794841.0 }, "geometry": { "type": "Point", "coordinates": [ 3078504.0, 7159606.0 ] } },
{ "type": "Feature", "properties": { "osmid": 13037357939.0 }, "geometry": { "type": "Point", "coordinates": [ 3063137.0, 7144239.0 ] } },
{ "type": "Feature", "properties": { "osmid": 12969751431.0 }, "geometry": { "type": "Point", "coordinates": [ 3081920.0, 7152838.0 ] } },
{ "type": "Feature", "properties": { "osmid": 5943956859.0 }, "geometry": { "type": "Point", "coordinates": [ 3061412.0, 7142610.0 ] } },
{ "type": "Feature", "properties": { "osmid": 4806391872.0 }, "geometry": { "type": "Point", "coordinates": [ 3073355.0, 7163006.0 ] } },
{ "type": "Feature", "properties": { "osmid": 767184140.0 }, "geometry": { "type": "Point", "coordinates": [ 3078518.0, 7156222.0 ] } },
{ "type": "Feature", "properties": { "osmid": 5592181325.0 }, "geometry": { "type": "Point", "coordinates": [ 3071624.0, 7146021.0 ] } },
{ "type": "Feature", "properties": { "osmid": 275072238.0 }, "geometry": { "type": "Point", "coordinates": [ 3064790.0, 7161305.0 ] } },
{ "type": "Feature", "properties": { "osmid": 1081090840.0 }, "geometry": { "type": "Point", "coordinates": [ 3073398.0, 7149382.0 ] } },
{ "type": "Feature", "properties": { "osmid": 11743406671.0 }, "geometry": { "type": "Point", "coordinates": [ 3076788.0, 7142610.0 ] } },
{ "type": "Feature", "properties": { "osmid": 6338074175.0 }, "geometry": { "type": "Point", "coordinates": [ 3075048.0, 7159588.0 ] } },
{ "type": "Feature", "properties": { "osmid": 1946119508.0 }, "geometry": { "type": "Point", "coordinates": [ 3061441.0, 7154547.0 ] } },
{ "type": "Feature", "properties": { "osmid": 6433699984.0 }, "geometry": { "type": "Point", "coordinates": [ 3069892.0, 7145961.0 ] } },
{ "type": "Feature", "properties": { "osmid": 977273197.0 }, "geometry": { "type": "Point", "coordinates": [ 3081883.0, 7149446.0 ] } },
{ "type": "Feature", "properties": { "osmid": 8903493754.0 }, "geometry": { "type": "Point", "coordinates": [ 3056331.0, 7156204.0 ] } },
{ "type": "Feature", "properties": { "osmid": 13009141614.0 }, "geometry": { "type": "Point", "coordinates": [ 3069934.0, 7135686.0 ] } },
{ "type": "Feature", "properties": { "osmid": 12973047844.0 }, "geometry": { "type": "Point", "coordinates": [ 3080134.0, 7147714.0 ] } },
{ "type": "Feature", "properties": { "osmid": 12964470549.0 }, "geometry": { "type": "Point", "coordinates": [ 3083548.0, 7161372.0 ] } },
{ "type": "Feature", "properties": { "osmid": 7141266465.0 }, "geometry": { "type": "Point", "coordinates": [ 3058014.0, 7149443.0 ] } },
{ "type": "Feature", "properties": { "osmid": 13002266188.0 }, "geometry": { "type": "Point", "coordinates": [ 3063073.0, 7154475.0 ] } },
{ "type": "Feature", "properties": { "osmid": 10967570104.0 }, "geometry": { "type": "Point", "coordinates": [ 3064777.0, 7149431.0 ] } },
{ "type": "Feature", "properties": { "osmid": 3758689143.0 }, "geometry": { "type": "Point", "coordinates": [ 3075083.0, 7154465.0 ] } },
{ "type": "Feature", "properties": { "osmid": 275057942.0 }, "geometry": { "type": "Point", "coordinates": [ 3075100.0, 7144312.0 ] } },
{ "type": "Feature", "properties": { "osmid": 668063685.0 }, "geometry": { "type": "Point", "coordinates": [ 3066468.0, 7140856.0 ] } },
{ "type": "Feature", "properties": { "osmid": 13205197528.0 }, "geometry": { "type": "Point", "coordinates": [ 3056329.0, 7147657.0 ] } },
{ "type": "Feature", "properties": { "osmid": 12965926091.0 }, "geometry": { "type": "Point", "coordinates": [ 3083596.0, 7135681.0 ] } },
{ "type": "Feature", "properties": { "osmid": 1960234482.0 }, "geometry": { "type": "Point", "coordinates": [ 3068185.0, 7147652.0 ] } },
{ "type": "Feature", "properties": { "osmid": 1462983318.0 }, "geometry": { "type": "Point", "coordinates": [ 3080126.0, 7152785.0 ] } },
{ "type": "Feature", "properties": { "osmid": 12847184974.0 }, "geometry": { "type": "Point", "coordinates": [ 3057992.0, 7156281.0 ] } },
{ "type": "Feature", "properties": { "osmid": 5772483095.0 }, "geometry": { "type": "Point", "coordinates": [ 3075032.0, 7149447.0 ] } },
{ "type": "Feature", "properties": { "osmid": 267523250.0 }, "geometry": { "type": "Point", "coordinates": [ 3090426.0, 7151040.0 ] } },
{ "type": "Feature", "properties": { "osmid": 11927019251.0 }, "geometry": { "type": "Point", "coordinates": [ 3085277.0, 7161285.0 ] } },
{ "type": "Feature", "properties": { "osmid": 9521604097.0 }, "geometry": { "type": "Point", "coordinates": [ 3064816.0, 7147751.0 ] } },
{ "type": "Feature", "properties": { "osmid": 5661550723.0 }, "geometry": { "type": "Point", "coordinates": [ 3073307.0, 7145931.0 ] } },
{ "type": "Feature", "properties": { "osmid": 11343632059.0 }, "geometry": { "type": "Point", "coordinates": [ 3078419.0, 7140898.0 ] } },
{ "type": "Feature", "properties": { "osmid": 5025108444.0 }, "geometry": { "type": "Point", "coordinates": [ 3059633.0, 7163073.0 ] } },
{ "type": "Feature", "properties": { "osmid": 12946267909.0 }, "geometry": { "type": "Point", "coordinates": [ 3092196.0, 7137445.0 ] } },
{ "type": "Feature", "properties": { "osmid": 13039521333.0 }, "geometry": { "type": "Point", "coordinates": [ 3059716.0, 7149460.0 ] } },
{ "type": "Feature", "properties": { "osmid": 5853427696.0 }, "geometry": { "type": "Point", "coordinates": [ 3068256.0, 7149459.0 ] } },
{ "type": "Feature", "properties": { "osmid": 275056498.0 }, "geometry": { "type": "Point", "coordinates": [ 3074997.0, 7157895.0 ] } },
{ "type": "Feature", "properties": { "osmid": 5609099088.0 }, "geometry": { "type": "Point", "coordinates": [ 3069914.0, 7144206.0 ] } },
{ "type": "Feature", "properties": { "osmid": 5101085914.0 }, "geometry": { "type": "Point", "coordinates": [ 3080114.0, 7140831.0 ] } },
{ "type": "Feature", "properties": { "osmid": 4713833512.0 }, "geometry": { "type": "Point", "coordinates": [ 3081939.0, 7142617.0 ] } },
{ "type": "Feature", "properties": { "osmid": 4715759490.0 }, "geometry": { "type": "Point", "coordinates": [ 3071595.0, 7134084.0 ] } },
{ "type": "Feature", "properties": { "osmid": 669005923.0 }, "geometry": { "type": "Point", "coordinates": [ 3066531.0, 7142640.0 ] } },
{ "type": "Feature", "properties": { "osmid": 3576551686.0 }, "geometry": { "type": "Point", "coordinates": [ 3073426.0, 7161334.0 ] } },
{ "type": "Feature", "properties": { "osmid": 5663041450.0 }, "geometry": { "type": "Point", "coordinates": [ 3081847.0, 7139216.0 ] } },
{ "type": "Feature", "properties": { "osmid": 7916987579.0 }, "geometry": { "type": "Point", "coordinates": [ 3069902.0, 7147754.0 ] } },
{ "type": "Feature", "properties": { "osmid": 13015269314.0 }, "geometry": { "type": "Point", "coordinates": [ 3071677.0, 7151170.0 ] } },
{ "type": "Feature", "properties": { "osmid": 761523460.0 }, "geometry": { "type": "Point", "coordinates": [ 3078402.0, 7152836.0 ] } },
{ "type": "Feature", "properties": { "osmid": 1116599381.0 }, "geometry": { "type": "Point", "coordinates": [ 3081864.0, 7151028.0 ] } },
{ "type": "Feature", "properties": { "osmid": 2820174322.0 }, "geometry": { "type": "Point", "coordinates": [ 3061472.0, 7161379.0 ] } },
{ "type": "Feature", "properties": { "osmid": 2498434121.0 }, "geometry": { "type": "Point", "coordinates": [ 3085369.0, 7149357.0 ] } },
{ "type": "Feature", "properties": { "osmid": 2346413350.0 }, "geometry": { "type": "Point", "coordinates": [ 3081863.0, 7137520.0 ] } },
{ "type": "Feature", "properties": { "osmid": 275062888.0 }, "geometry": { "type": "Point", "coordinates": [ 3071677.0, 7159563.0 ] } },
{ "type": "Feature", "properties": { "osmid": 3853068982.0 }, "geometry": { "type": "Point", "coordinates": [ 3088692.0, 7161420.0 ] } },
{ "type": "Feature", "properties": { "osmid": 12946737524.0 }, "geometry": { "type": "Point", "coordinates": [ 3087018.0, 7159716.0 ] } },
{ "type": "Feature", "properties": { "osmid": 7446866738.0 }, "geometry": { "type": "Point", "coordinates": [ 3086929.0, 7157908.0 ] } },
{ "type": "Feature", "properties": { "osmid": 310200662.0 }, "geometry": { "type": "Point", "coordinates": [ 3051226.0, 7147739.0 ] } },
{ "type": "Feature", "properties": { "osmid": 900782541.0 }, "geometry": { "type": "Point", "coordinates": [ 3078400.0, 7149355.0 ] } },
{ "type": "Feature", "properties": { "osmid": 659052984.0 }, "geometry": { "type": "Point", "coordinates": [ 3076726.0, 7140784.0 ] } },
{ "type": "Feature", "properties": { "osmid": 4601884789.0 }, "geometry": { "type": "Point", "coordinates": [ 3066450.0, 7157974.0 ] } },
{ "type": "Feature", "properties": { "osmid": 1578659201.0 }, "geometry": { "type": "Point", "coordinates": [ 3063171.0, 7142505.0 ] } },
{ "type": "Feature", "properties": { "osmid": 7216764316.0 }, "geometry": { "type": "Point", "coordinates": [ 3076735.0, 7154596.0 ] } },
{ "type": "Feature", "properties": { "osmid": 4261061863.0 }, "geometry": { "type": "Point", "coordinates": [ 3059776.0, 7161309.0 ] } },
{ "type": "Feature", "properties": { "osmid": 10877826760.0 }, "geometry": { "type": "Point", "coordinates": [ 3088806.0, 7145977.0 ] } },
{ "type": "Feature", "properties": { "osmid": 848724792.0 }, "geometry": { "type": "Point", "coordinates": [ 3076752.0, 7158019.0 ] } },
{ "type": "Feature", "properties": { "osmid": 427732136.0 }, "geometry": { "type": "Point", "coordinates": [ 3093911.0, 7151045.0 ] } },
{ "type": "Feature", "properties": { "osmid": 13239240441.0 }, "geometry": { "type": "Point", "coordinates": [ 3056266.0, 7159543.0 ] } },
{ "type": "Feature", "properties": { "osmid": 4464095388.0 }, "geometry": { "type": "Point", "coordinates": [ 3078476.0, 7154612.0 ] } },
{ "type": "Feature", "properties": { "osmid": 528296946.0 }, "geometry": { "type": "Point", "coordinates": [ 3078378.0, 7146000.0 ] } },
{ "type": "Feature", "properties": { "osmid": 6059587475.0 }, "geometry": { "type": "Point", "coordinates": [ 3057985.0, 7139249.0 ] } },
{ "type": "Feature", "properties": { "osmid": 9108991861.0 }, "geometry": { "type": "Point", "coordinates": [ 3074962.0, 7139163.0 ] } },
{ "type": "Feature", "properties": { "osmid": 9933184005.0 }, "geometry": { "type": "Point", "coordinates": [ 3097167.0, 7151047.0 ] } },
{ "type": "Feature", "properties": { "osmid": 12985231809.0 }, "geometry": { "type": "Point", "coordinates": [ 3076771.0, 7152909.0 ] } },
{ "type": "Feature", "properties": { "osmid": 2426847269.0 }, "geometry": { "type": "Point", "coordinates": [ 3080125.0, 7159552.0 ] } },
{ "type": "Feature", "properties": { "osmid": 9813132006.0 }, "geometry": { "type": "Point", "coordinates": [ 3068140.0, 7142613.0 ] } },
{ "type": "Feature", "properties": { "osmid": 1065818665.0 }, "geometry": { "type": "Point", "coordinates": [ 3081793.0, 7144319.0 ] } },
{ "type": "Feature", "properties": { "osmid": 10284291073.0 }, "geometry": { "type": "Point", "coordinates": [ 3058046.0, 7159724.0 ] } },
{ "type": "Feature", "properties": { "osmid": 12985364650.0 }, "geometry": { "type": "Point", "coordinates": [ 3076685.0, 7149328.0 ] } },
{ "type": "Feature", "properties": { "osmid": 4359252777.0 }, "geometry": { "type": "Point", "coordinates": [ 3086957.0, 7156126.0 ] } },
{ "type": "Feature", "properties": { "osmid": 275080858.0 }, "geometry": { "type": "Point", "coordinates": [ 3051132.0, 7152916.0 ] } },
{ "type": "Feature", "properties": { "osmid": 451712783.0 }, "geometry": { "type": "Point", "coordinates": [ 3054637.0, 7159729.0 ] } },
{ "type": "Feature", "properties": { "osmid": 10654237186.0 }, "geometry": { "type": "Point", "coordinates": [ 3068285.0, 7139252.0 ] } },
{ "type": "Feature", "properties": { "osmid": 1680686275.0 }, "geometry": { "type": "Point", "coordinates": [ 3071729.0, 7142487.0 ] } },
{ "type": "Feature", "properties": { "osmid": 4366969919.0 }, "geometry": { "type": "Point", "coordinates": [ 3087091.0, 7139233.0 ] } },
{ "type": "Feature", "properties": { "osmid": 5575320393.0 }, "geometry": { "type": "Point", "coordinates": [ 3063206.0, 7140924.0 ] } },
{ "type": "Feature", "properties": { "osmid": 560714228.0 }, "geometry": { "type": "Point", "coordinates": [ 3064883.0, 7139056.0 ] } },
{ "type": "Feature", "properties": { "osmid": 4229594468.0 }, "geometry": { "type": "Point", "coordinates": [ 3059675.0, 7154394.0 ] } },
{ "type": "Feature", "properties": { "osmid": 2571144054.0 }, "geometry": { "type": "Point", "coordinates": [ 3083700.0, 7152872.0 ] } },
{ "type": "Feature", "properties": { "osmid": 3885899569.0 }, "geometry": { "type": "Point", "coordinates": [ 3083708.0, 7159688.0 ] } },
{ "type": "Feature", "properties": { "osmid": 3902064294.0 }, "geometry": { "type": "Point", "coordinates": [ 3085200.0, 7139228.0 ] } },
{ "type": "Feature", "properties": { "osmid": 760499107.0 }, "geometry": { "type": "Point", "coordinates": [ 3070025.0, 7142474.0 ] } },
{ "type": "Feature", "properties": { "osmid": 475001793.0 }, "geometry": { "type": "Point", "coordinates": [ 3086931.0, 7147585.0 ] } },
{ "type": "Feature", "properties": { "osmid": 275041963.0 }, "geometry": { "type": "Point", "coordinates": [ 3085380.0, 7157828.0 ] } },
{ "type": "Feature", "properties": { "osmid": 1106243163.0 }, "geometry": { "type": "Point", "coordinates": [ 3051290.0, 7149403.0 ] } },
{ "type": "Feature", "properties": { "osmid": 3889786218.0 }, "geometry": { "type": "Point", "coordinates": [ 3078371.0, 7139232.0 ] } },
{ "type": "Feature", "properties": { "osmid": 13004233223.0 }, "geometry": { "type": "Point", "coordinates": [ 3073366.0, 7154645.0 ] } },
{ "type": "Feature", "properties": { "osmid": 6690843725.0 }, "geometry": { "type": "Point", "coordinates": [ 3087131.0, 7154463.0 ] } },
{ "type": "Feature", "properties": { "osmid": 9659129661.0 }, "geometry": { "type": "Point", "coordinates": [ 3095409.0, 7151139.0 ] } },
{ "type": "Feature", "properties": { "osmid": 12946822765.0 }, "geometry": { "type": "Point", "coordinates": [ 3086874.0, 7161300.0 ] } },
{ "type": "Feature", "properties": { "osmid": 9338520595.0 }, "geometry": { "type": "Point", "coordinates": [ 3051255.0, 7145873.0 ] } },
{ "type": "Feature", "properties": { "osmid": 2448507414.0 }, "geometry": { "type": "Point", "coordinates": [ 3083484.0, 7149303.0 ] } },
{ "type": "Feature", "properties": { "osmid": 1038283508.0 }, "geometry": { "type": "Point", "coordinates": [ 3071751.0, 7147588.0 ] } },
{ "type": "Feature", "properties": { "osmid": 13041344640.0 }, "geometry": { "type": "Point", "coordinates": [ 3049561.0, 7145864.0 ] } },
{ "type": "Feature", "properties": { "osmid": 3542022962.0 }, "geometry": { "type": "Point", "coordinates": [ 3085190.0, 7156106.0 ] } },
{ "type": "Feature", "properties": { "osmid": 2664929164.0 }, "geometry": { "type": "Point", "coordinates": [ 3063120.0, 7162888.0 ] } },
{ "type": "Feature", "properties": { "osmid": 270269619.0 }, "geometry": { "type": "Point", "coordinates": [ 3097315.0, 7146130.0 ] } },
{ "type": "Feature", "properties": { "osmid": 13605986394.0 }, "geometry": { "type": "Point", "coordinates": [ 3090475.0, 7142411.0 ] } },
{ "type": "Feature", "properties": { "osmid": 1733588156.0 }, "geometry": { "type": "Point", "coordinates": [ 3080300.0, 7150989.0 ] } },
{ "type": "Feature", "properties": { "osmid": 275686907.0 }, "geometry": { "type": "Point", "coordinates": [ 3058143.0, 7147750.0 ] } },
{ "type": "Feature", "properties": { "osmid": 3871142389.0 }, "geometry": { "type": "Point", "coordinates": [ 3083541.0, 7150941.0 ] } },
{ "type": "Feature", "properties": { "osmid": 12946222101.0 }, "geometry": { "type": "Point", "coordinates": [ 3095419.0, 7142452.0 ] } },
{ "type": "Feature", "properties": { "osmid": 10125842855.0 }, "geometry": { "type": "Point", "coordinates": [ 3086890.0, 7152930.0 ] } },
{ "type": "Feature", "properties": { "osmid": 267617556.0 }, "geometry": { "type": "Point", "coordinates": [ 3092235.0, 7147554.0 ] } },
{ "type": "Feature", "properties": { "osmid": 10837828724.0 }, "geometry": { "type": "Point", "coordinates": [ 3085340.0, 7147859.0 ] } },
{ "type": "Feature", "properties": { "osmid": 735176747.0 }, "geometry": { "type": "Point", "coordinates": [ 3080018.0, 7149463.0 ] } },
{ "type": "Feature", "properties": { "osmid": 7780835574.0 }, "geometry": { "type": "Point", "coordinates": [ 3095415.0, 7147566.0 ] } },
{ "type": "Feature", "properties": { "osmid": 3117555731.0 }, "geometry": { "type": "Point", "coordinates": [ 3090532.0, 7146120.0 ] } },
{ "type": "Feature", "properties": { "osmid": 11001541649.0 }, "geometry": { "type": "Point", "coordinates": [ 3088540.0, 7152757.0 ] } },
{ "type": "Feature", "properties": { "osmid": 425481266.0 }, "geometry": { "type": "Point", "coordinates": [ 3088896.0, 7151048.0 ] } },
{ "type": "Feature", "properties": { "osmid": 3503605677.0 }, "geometry": { "type": "Point", "coordinates": [ 3080166.0, 7142761.0 ] } },
{ "type": "Feature", "properties": { "osmid": 4880804720.0 }, "geometry": { "type": "Point", "coordinates": [ 3085460.0, 7154635.0 ] } },
{ "type": "Feature", "properties": { "osmid": 4883890537.0 }, "geometry": { "type": "Point", "coordinates": [ 3098977.0, 7147486.0 ] } },
{ "type": "Feature", "properties": { "osmid": 10067456388.0 }, "geometry": { "type": "Point", "coordinates": [ 3073202.0, 7140995.0 ] } },
{ "type": "Feature", "properties": { "osmid": 10135506387.0 }, "geometry": { "type": "Point", "coordinates": [ 3080178.0, 7161140.0 ] } },
{ "type": "Feature", "properties": { "osmid": 5327929916.0 }, "geometry": { "type": "Point", "coordinates": [ 3083450.0, 7147542.0 ] } },
{ "type": "Feature", "properties": { "osmid": 13047774630.0 }, "geometry": { "type": "Point", "coordinates": [ 3056056.0, 7142573.0 ] } },
{ "type": "Feature", "properties": { "osmid": 537029947.0 }, "geometry": { "type": "Point", "coordinates": [ 3088486.0, 7156217.0 ] } },
{ "type": "Feature", "properties": { "osmid": 275072439.0 }, "geometry": { "type": "Point", "coordinates": [ 3064965.0, 7159457.0 ] } },
{ "type": "Feature", "properties": { "osmid": 3092675694.0 }, "geometry": { "type": "Point", "coordinates": [ 3092371.0, 7149376.0 ] } },
{ "type": "Feature", "properties": { "osmid": 4715768676.0 }, "geometry": { "type": "Point", "coordinates": [ 3070162.0, 7134126.0 ] } },
{ "type": "Feature", "properties": { "osmid": 4876462119.0 }, "geometry": { "type": "Point", "coordinates": [ 3098723.0, 7151029.0 ] } },
{ "type": "Feature", "properties": { "osmid": 3687022515.0 }, "geometry": { "type": "Point", "coordinates": [ 3090346.0, 7137210.0 ] } },
{ "type": "Feature", "properties": { "osmid": 428440790.0 }, "geometry": { "type": "Point", "coordinates": [ 3095422.0, 7149179.0 ] } },
{ "type": "Feature", "properties": { "osmid": 13352726412.0 }, "geometry": { "type": "Point", "coordinates": [ 3063071.0, 7157681.0 ] } },
{ "type": "Feature", "properties": { "osmid": 4160852441.0 }, "geometry": { "type": "Point", "coordinates": [ 3075311.0, 7140908.0 ] } },
{ "type": "Feature", "properties": { "osmid": 6022595370.0 }, "geometry": { "type": "Point", "coordinates": [ 3085204.0, 7140616.0 ] } },
{ "type": "Feature", "properties": { "osmid": 12323862219.0 }, "geometry": { "type": "Point", "coordinates": [ 3083561.0, 7162787.0 ] } },
{ "type": "Feature", "properties": { "osmid": 2875815004.0 }, "geometry": { "type": "Point", "coordinates": [ 3088456.0, 7154576.0 ] } },
{ "type": "Feature", "properties": { "osmid": 5409485551.0 }, "geometry": { "type": "Point", "coordinates": [ 3070113.0, 7137243.0 ] } },
{ "type": "Feature", "properties": { "osmid": 2838062920.0 }, "geometry": { "type": "Point", "coordinates": [ 3087272.0, 7162976.0 ] } },
{ "type": "Feature", "properties": { "osmid": 13047836517.0 }, "geometry": { "type": "Point", "coordinates": [ 3049627.0, 7144493.0 ] } },
{ "type": "Feature", "properties": { "osmid": 13239001726.0 }, "geometry": { "type": "Point", "coordinates": [ 3087252.0, 7142429.0 ] } },
{ "type": "Feature", "properties": { "osmid": 2609162971.0 }, "geometry": { "type": "Point", "coordinates": [ 3075196.0, 7162801.0 ] } },
{ "type": "Feature", "properties": { "osmid": 428440608.0 }, "geometry": { "type": "Point", "coordinates": [ 3097502.0, 7147552.0 ] } },
{ "type": "Feature", "properties": { "osmid": 275040740.0 }, "geometry": { "type": "Point", "coordinates": [ 3088429.0, 7159631.0 ] } },
{ "type": "Feature", "properties": { "osmid": 2375984918.0 }, "geometry": { "type": "Point", "coordinates": [ 3088592.0, 7142304.0 ] } },
{ "type": "Feature", "properties": { "osmid": 3906134515.0 }, "geometry": { "type": "Point", "coordinates": [ 3063063.0, 7161053.0 ] } },
{ "type": "Feature", "properties": { "osmid": 1685199300.0 }, "geometry": { "type": "Point", "coordinates": [ 3062969.0, 7139415.0 ] } },
{ "type": "Feature", "properties": { "osmid": 7488135179.0 }, "geometry": { "type": "Point", "coordinates": [ 3053118.0, 7157759.0 ] } },
{ "type": "Feature", "properties": { "osmid": 2808130499.0 }, "geometry": { "type": "Point", "coordinates": [ 3086776.0, 7146177.0 ] } },
{ "type": "Feature", "properties": { "osmid": 11053544752.0 }, "geometry": { "type": "Point", "coordinates": [ 3071348.0, 7135659.0 ] } },
{ "type": "Feature", "properties": { "osmid": 12946480636.0 }, "geometry": { "type": "Point", "coordinates": [ 3086999.0, 7149081.0 ] } },
{ "type": "Feature", "properties": { "osmid": 3542031720.0 }, "geometry": { "type": "Point", "coordinates": [ 3093696.0, 7147974.0 ] } },
{ "type": "Feature", "properties": { "osmid": 784503918.0 }, "geometry": { "type": "Point", "coordinates": [ 3058066.0, 7161662.0 ] } },
{ "type": "Feature", "properties": { "osmid": 2346413080.0 }, "geometry": { "type": "Point", "coordinates": [ 3080416.0, 7137215.0 ] } },
{ "type": "Feature", "properties": { "osmid": 12803048855.0 }, "geometry": { "type": "Point", "coordinates": [ 3078810.0, 7135731.0 ] } },
{ "type": "Feature", "properties": { "osmid": 4710799473.0 }, "geometry": { "type": "Point", "coordinates": [ 3090089.0, 7139067.0 ] } },
{ "type": "Feature", "properties": { "osmid": 275044279.0 }, "geometry": { "type": "Point", "coordinates": [ 3085047.0, 7137683.0 ] } },
{ "type": "Feature", "properties": { "osmid": 2612426798.0 }, "geometry": { "type": "Point", "coordinates": [ 3051280.0, 7151448.0 ] } },
{ "type": "Feature", "properties": { "osmid": 475091135.0 }, "geometry": { "type": "Point", "coordinates": [ 3085271.0, 7150731.0 ] } },
{ "type": "Feature", "properties": { "osmid": 1786998774.0 }, "geometry": { "type": "Point", "coordinates": [ 3092502.0, 7139133.0 ] } },
{ "type": "Feature", "properties": { "osmid": 6565974450.0 }, "geometry": { "type": "Point", "coordinates": [ 3082006.0, 7134387.0 ] } },
{ "type": "Feature", "properties": { "osmid": 810212250.0 }, "geometry": { "type": "Point", "coordinates": [ 3076628.0, 7163409.0 ] } },
{ "type": "Feature", "properties": { "osmid": 8978466082.0 }, "geometry": { "type": "Point", "coordinates": [ 3061499.0, 7139528.0 ] } },
{ "type": "Feature", "properties": { "osmid": 4710660949.0 }, "geometry": { "type": "Point", "coordinates": [ 3084913.0, 7135806.0 ] } },
{ "type": "Feature", "properties": { "osmid": 9983563950.0 }, "geometry": { "type": "Point", "coordinates": [ 3061742.0, 7163277.0 ] } },
{ "type": "Feature", "properties": { "osmid": 12946471523.0 }, "geometry": { "type": "Point", "coordinates": [ 3088301.0, 7139142.0 ] } },
{ "type": "Feature", "properties": { "osmid": 10265039970.0 }, "geometry": { "type": "Point", "coordinates": [ 3071336.0, 7137160.0 ] } },
{ "type": "Feature", "properties": { "osmid": 13500919805.0 }, "geometry": { "type": "Point", "coordinates": [ 3068086.0, 7161749.0 ] } },
{ "type": "Feature", "properties": { "osmid": 4582688893.0 }, "geometry": { "type": "Point", "coordinates": [ 3089999.0, 7140960.0 ] } },
{ "type": "Feature", "properties": { "osmid": 275041448.0 }, "geometry": { "type": "Point", "coordinates": [ 3085379.0, 7162620.0 ] } },
{ "type": "Feature", "properties": { "osmid": 3522140415.0 }, "geometry": { "type": "Point", "coordinates": [ 3083400.0, 7142165.0 ] } },
{ "type": "Feature", "properties": { "osmid": 267616487.0 }, "geometry": { "type": "Point", "coordinates": [ 3090694.0, 7147331.0 ] } },
{ "type": "Feature", "properties": { "osmid": 4861208708.0 }, "geometry": { "type": "Point", "coordinates": [ 3085091.0, 7146391.0 ] } },
{ "type": "Feature", "properties": { "osmid": 6401366486.0 }, "geometry": { "type": "Point", "coordinates": [ 3094248.0, 7144064.0 ] } },
{ "type": "Feature", "properties": { "osmid": 267406548.0 }, "geometry": { "type": "Point", "coordinates": [ 3093601.0, 7149816.0 ] } },
{ "type": "Feature", "properties": { "osmid": 1484829367.0 }, "geometry": { "type": "Point", "coordinates": [ 3066060.0, 7159479.0 ] } },
{ "type": "Feature", "properties": { "osmid": 12790111983.0 }, "geometry": { "type": "Point", "coordinates": [ 3083415.0, 7146441.0 ] } },
{ "type": "Feature", "properties": { "osmid": 267616471.0 }, "geometry": { "type": "Point", "coordinates": [ 3088693.0, 7147190.0 ] } },
{ "type": "Feature", "properties": { "osmid": 275066204.0 }, "geometry": { "type": "Point", "coordinates": [ 3069503.0, 7163551.0 ] } },
{ "type": "Feature", "properties": { "osmid": 11076826318.0 }, "geometry": { "type": "Point", "coordinates": [ 3069087.0, 7162716.0 ] } },
{ "type": "Feature", "properties": { "osmid": 12819594981.0 }, "geometry": { "type": "Point", "coordinates": [ 3068279.0, 7163538.0 ] } },
{ "type": "Feature", "properties": { "osmid": 12819679526.0 }, "geometry": { "type": "Point", "coordinates": [ 3068085.0, 7162667.0 ] } },
{ "type": "Feature", "properties": { "osmid": 1214963919.0 }, "geometry": { "type": "Point", "coordinates": [ 3071340.0, 7163361.0 ] } },
{ "type": "Feature", "properties": { "osmid": 3751583736.0 }, "geometry": { "type": "Point", "coordinates": [ 3071037.0, 7162354.0 ] } },
{ "type": "Feature", "properties": { "osmid": 3489341090.0 }, "geometry": { "type": "Point", "coordinates": [ 3071520.0, 7162504.0 ] } },
{ "type": "Feature", "properties": { "osmid": 4171917067.0 }, "geometry": { "type": "Point", "coordinates": [ 3070204.0, 7161216.0 ] } },
{ "type": "Feature", "properties": { "osmid": 12145519010.0 }, "geometry": { "type": "Point", "coordinates": [ 3067163.0, 7162624.0 ] } },
{ "type": "Feature", "properties": { "osmid": 12145519015.0 }, "geometry": { "type": "Point", "coordinates": [ 3067331.0, 7161816.0 ] } },
{ "type": "Feature", "properties": { "osmid": 1214963942.0 }, "geometry": { "type": "Point", "coordinates": [ 3072079.0, 7162487.0 ] } },
{ "type": "Feature", "properties": { "osmid": 13261502674.0 }, "geometry": { "type": "Point", "coordinates": [ 3071745.0, 7161726.0 ] } },
{ "type": "Feature", "properties": { "osmid": 3392179084.0 }, "geometry": { "type": "Point", "coordinates": [ 3069263.0, 7159832.0 ] } },
{ "type": "Feature", "properties": { "osmid": 4647443383.0 }, "geometry": { "type": "Point", "coordinates": [ 3068768.0, 7159409.0 ] } },
{ "type": "Feature", "properties": { "osmid": 275059679.0 }, "geometry": { "type": "Point", "coordinates": [ 3073157.0, 7160753.0 ] } },
{ "type": "Feature", "properties": { "osmid": 10211408060.0 }, "geometry": { "type": "Point", "coordinates": [ 3072442.0, 7159341.0 ] } },
{ "type": "Feature", "properties": { "osmid": 275059539.0 }, "geometry": { "type": "Point", "coordinates": [ 3073799.0, 7160663.0 ] } },
{ "type": "Feature", "properties": { "osmid": 313697145.0 }, "geometry": { "type": "Point", "coordinates": [ 3066427.0, 7158942.0 ] } },
{ "type": "Feature", "properties": { "osmid": 275059725.0 }, "geometry": { "type": "Point", "coordinates": [ 3073533.0, 7159132.0 ] } },
{ "type": "Feature", "properties": { "osmid": 297713502.0 }, "geometry": { "type": "Point", "coordinates": [ 3071883.0, 7157771.0 ] } },
{ "type": "Feature", "properties": { "osmid": 9715642685.0 }, "geometry": { "type": "Point", "coordinates": [ 3071556.0, 7157352.0 ] } },
{ "type": "Feature", "properties": { "osmid": 1710049044.0 }, "geometry": { "type": "Point", "coordinates": [ 3072069.0, 7157204.0 ] } },
{ "type": "Feature", "properties": { "osmid": 12696396831.0 }, "geometry": { "type": "Point", "coordinates": [ 3064963.0, 7158326.0 ] } },
{ "type": "Feature", "properties": { "osmid": 4237364769.0 }, "geometry": { "type": "Point", "coordinates": [ 3073889.0, 7157843.0 ] } },
{ "type": "Feature", "properties": { "osmid": 12696396862.0 }, "geometry": { "type": "Point", "coordinates": [ 3064569.0, 7157876.0 ] } },
{ "type": "Feature", "properties": { "osmid": 3841695410.0 }, "geometry": { "type": "Point", "coordinates": [ 3068745.0, 7156028.0 ] } },
{ "type": "Feature", "properties": { "osmid": 12557128036.0 }, "geometry": { "type": "Point", "coordinates": [ 3065386.0, 7156952.0 ] } },
{ "type": "Feature", "properties": { "osmid": 449544827.0 }, "geometry": { "type": "Point", "coordinates": [ 3066435.0, 7156176.0 ] } },
{ "type": "Feature", "properties": { "osmid": 441890676.0 }, "geometry": { "type": "Point", "coordinates": [ 3063695.0, 7157736.0 ] } },
{ "type": "Feature", "properties": { "osmid": 838347798.0 }, "geometry": { "type": "Point", "coordinates": [ 3064660.0, 7156834.0 ] } },
{ "type": "Feature", "properties": { "osmid": 13230030891.0 }, "geometry": { "type": "Point", "coordinates": [ 3068861.0, 7155258.0 ] } },
{ "type": "Feature", "properties": { "osmid": 667132936.0 }, "geometry": { "type": "Point", "coordinates": [ 3074702.0, 7157047.0 ] } },
{ "type": "Feature", "properties": { "osmid": 13049673064.0 }, "geometry": { "type": "Point", "coordinates": [ 3069539.0, 7155009.0 ] } },
{ "type": "Feature", "properties": { "osmid": 12853851689.0 }, "geometry": { "type": "Point", "coordinates": [ 3074609.0, 7156076.0 ] } },
{ "type": "Feature", "properties": { "osmid": 6578250922.0 }, "geometry": { "type": "Point", "coordinates": [ 3070310.0, 7154341.0 ] } },
{ "type": "Feature", "properties": { "osmid": 13256575829.0 }, "geometry": { "type": "Point", "coordinates": [ 3067210.0, 7154563.0 ] } },
{ "type": "Feature", "properties": { "osmid": 7141329225.0 }, "geometry": { "type": "Point", "coordinates": [ 3075398.0, 7156299.0 ] } },
{ "type": "Feature", "properties": { "osmid": 838338566.0 }, "geometry": { "type": "Point", "coordinates": [ 3063589.0, 7156233.0 ] } },
{ "type": "Feature", "properties": { "osmid": 5175542777.0 }, "geometry": { "type": "Point", "coordinates": [ 3076699.0, 7157377.0 ] } },
{ "type": "Feature", "properties": { "osmid": 1578571312.0 }, "geometry": { "type": "Point", "coordinates": [ 3066531.0, 7154507.0 ] } },
{ "type": "Feature", "properties": { "osmid": 4200560073.0 }, "geometry": { "type": "Point", "coordinates": [ 3076341.0, 7156870.0 ] } },
{ "type": "Feature", "properties": { "osmid": 1617045283.0 }, "geometry": { "type": "Point", "coordinates": [ 3078273.0, 7159086.0 ] } },
{ "type": "Feature", "properties": { "osmid": 5184127044.0 }, "geometry": { "type": "Point", "coordinates": [ 3077234.0, 7157404.0 ] } },
{ "type": "Feature", "properties": { "osmid": 5984828648.0 }, "geometry": { "type": "Point", "coordinates": [ 3061344.0, 7157917.0 ] } },
{ "type": "Feature", "properties": { "osmid": 902674897.0 }, "geometry": { "type": "Point", "coordinates": [ 3065053.0, 7154582.0 ] } },
{ "type": "Feature", "properties": { "osmid": 5182741676.0 }, "geometry": { "type": "Point", "coordinates": [ 3076787.0, 7156541.0 ] } },
{ "type": "Feature", "properties": { "osmid": 664495684.0 }, "geometry": { "type": "Point", "coordinates": [ 3065867.0, 7154048.0 ] } },
{ "type": "Feature", "properties": { "osmid": 5180777972.0 }, "geometry": { "type": "Point", "coordinates": [ 3078429.0, 7158527.0 ] } },
{ "type": "Feature", "properties": { "osmid": 476446413.0 }, "geometry": { "type": "Point", "coordinates": [ 3066320.0, 7153683.0 ] } },
{ "type": "Feature", "properties": { "osmid": 2788551751.0 }, "geometry": { "type": "Point", "coordinates": [ 3060405.0, 7158284.0 ] } },
{ "type": "Feature", "properties": { "osmid": 13256575804.0 }, "geometry": { "type": "Point", "coordinates": [ 3067636.0, 7153064.0 ] } },
{ "type": "Feature", "properties": { "osmid": 514355696.0 }, "geometry": { "type": "Point", "coordinates": [ 3068989.0, 7152543.0 ] } },
{ "type": "Feature", "properties": { "osmid": 1679847927.0 }, "geometry": { "type": "Point", "coordinates": [ 3064374.0, 7153767.0 ] } },
{ "type": "Feature", "properties": { "osmid": 514355735.0 }, "geometry": { "type": "Point", "coordinates": [ 3068339.0, 7152430.0 ] } },
{ "type": "Feature", "properties": { "osmid": 1600503280.0 }, "geometry": { "type": "Point", "coordinates": [ 3074847.0, 7153151.0 ] } },
{ "type": "Feature", "properties": { "osmid": 893155991.0 }, "geometry": { "type": "Point", "coordinates": [ 3080892.0, 7160788.0 ] } },
{ "type": "Feature", "properties": { "osmid": 275077032.0 }, "geometry": { "type": "Point", "coordinates": [ 3060269.0, 7156110.0 ] } },
{ "type": "Feature", "properties": { "osmid": 390969585.0 }, "geometry": { "type": "Point", "coordinates": [ 3074291.0, 7152661.0 ] } },
{ "type": "Feature", "properties": { "osmid": 4663048241.0 }, "geometry": { "type": "Point", "coordinates": [ 3080110.0, 7157577.0 ] } },
{ "type": "Feature", "properties": { "osmid": 12339064513.0 }, "geometry": { "type": "Point", "coordinates": [ 3081481.0, 7161137.0 ] } },
{ "type": "Feature", "properties": { "osmid": 760529081.0 }, "geometry": { "type": "Point", "coordinates": [ 3060201.0, 7155597.0 ] } },
{ "type": "Feature", "properties": { "osmid": 4228061804.0 }, "geometry": { "type": "Point", "coordinates": [ 3081387.0, 7160272.0 ] } },
{ "type": "Feature", "properties": { "osmid": 514304994.0 }, "geometry": { "type": "Point", "coordinates": [ 3069381.0, 7151206.0 ] } },
{ "type": "Feature", "properties": { "osmid": 4960021702.0 }, "geometry": { "type": "Point", "coordinates": [ 3057890.0, 7158935.0 ] } },
{ "type": "Feature", "properties": { "osmid": 3674477985.0 }, "geometry": { "type": "Point", "coordinates": [ 3079900.0, 7156327.0 ] } },
{ "type": "Feature", "properties": { "osmid": 893155417.0 }, "geometry": { "type": "Point", "coordinates": [ 3081689.0, 7159670.0 ] } },
{ "type": "Feature", "properties": { "osmid": 3627289911.0 }, "geometry": { "type": "Point", "coordinates": [ 3080748.0, 7156794.0 ] } },
{ "type": "Feature", "properties": { "osmid": 8075718185.0 }, "geometry": { "type": "Point", "coordinates": [ 3056935.0, 7159680.0 ] } },
{ "type": "Feature", "properties": { "osmid": 4636038563.0 }, "geometry": { "type": "Point", "coordinates": [ 3056193.0, 7161904.0 ] } },
{ "type": "Feature", "properties": { "osmid": 2407414739.0 }, "geometry": { "type": "Point", "coordinates": [ 3070387.0, 7150132.0 ] } },
{ "type": "Feature", "properties": { "osmid": 3247419926.0 }, "geometry": { "type": "Point", "coordinates": [ 3082148.0, 7158636.0 ] } },
{ "type": "Feature", "properties": { "osmid": 275069110.0 }, "geometry": { "type": "Point", "coordinates": [ 3067950.0, 7150010.0 ] } },
{ "type": "Feature", "properties": { "osmid": 1841743902.0 }, "geometry": { "type": "Point", "coordinates": [ 3056566.0, 7159024.0 ] } },
{ "type": "Feature", "properties": { "osmid": 4961332107.0 }, "geometry": { "type": "Point", "coordinates": [ 3082201.0, 7158041.0 ] } },
{ "type": "Feature", "properties": { "osmid": 1250049806.0 }, "geometry": { "type": "Point", "coordinates": [ 3064435.0, 7150562.0 ] } },
{ "type": "Feature", "properties": { "osmid": 4833205581.0 }, "geometry": { "type": "Point", "coordinates": [ 3083169.0, 7160264.0 ] } },
{ "type": "Feature", "properties": { "osmid": 3674478000.0 }, "geometry": { "type": "Point", "coordinates": [ 3081470.0, 7156073.0 ] } },
{ "type": "Feature", "properties": { "osmid": 2327064210.0 }, "geometry": { "type": "Point", "coordinates": [ 3082776.0, 7158573.0 ] } },
{ "type": "Feature", "properties": { "osmid": 4428092502.0 }, "geometry": { "type": "Point", "coordinates": [ 3055590.0, 7160677.0 ] } },
{ "type": "Feature", "properties": { "osmid": 1746052618.0 }, "geometry": { "type": "Point", "coordinates": [ 3083072.0, 7159003.0 ] } },
{ "type": "Feature", "properties": { "osmid": 901427450.0 }, "geometry": { "type": "Point", "coordinates": [ 3082581.0, 7157568.0 ] } },
{ "type": "Feature", "properties": { "osmid": 4960059834.0 }, "geometry": { "type": "Point", "coordinates": [ 3055979.0, 7158438.0 ] } },
{ "type": "Feature", "properties": { "osmid": 13179069535.0 }, "geometry": { "type": "Point", "coordinates": [ 3082318.0, 7156453.0 ] } },
{ "type": "Feature", "properties": { "osmid": 13711009948.0 }, "geometry": { "type": "Point", "coordinates": [ 3057451.0, 7154945.0 ] } },
{ "type": "Feature", "properties": { "osmid": 12144579089.0 }, "geometry": { "type": "Point", "coordinates": [ 3056780.0, 7155953.0 ] } },
{ "type": "Feature", "properties": { "osmid": 3898111197.0 }, "geometry": { "type": "Point", "coordinates": [ 3084120.0, 7160797.0 ] } },
{ "type": "Feature", "properties": { "osmid": 2461099854.0 }, "geometry": { "type": "Point", "coordinates": [ 3066798.0, 7148917.0 ] } },
{ "type": "Feature", "properties": { "osmid": 13179077583.0 }, "geometry": { "type": "Point", "coordinates": [ 3083347.0, 7157452.0 ] } },
{ "type": "Feature", "properties": { "osmid": 12888191217.0 }, "geometry": { "type": "Point", "coordinates": [ 3068402.0, 7148457.0 ] } },
{ "type": "Feature", "properties": { "osmid": 12251102792.0 }, "geometry": { "type": "Point", "coordinates": [ 3055360.0, 7157685.0 ] } },
{ "type": "Feature", "properties": { "osmid": 9782547251.0 }, "geometry": { "type": "Point", "coordinates": [ 3083883.0, 7158119.0 ] } },
{ "type": "Feature", "properties": { "osmid": 9516510913.0 }, "geometry": { "type": "Point", "coordinates": [ 3066948.0, 7148380.0 ] } },
{ "type": "Feature", "properties": { "osmid": 275075173.0 }, "geometry": { "type": "Point", "coordinates": [ 3062937.0, 7149466.0 ] } },
{ "type": "Feature", "properties": { "osmid": 275073638.0 }, "geometry": { "type": "Point", "coordinates": [ 3064271.0, 7148897.0 ] } },
{ "type": "Feature", "properties": { "osmid": 12251102784.0 }, "geometry": { "type": "Point", "coordinates": [ 3054915.0, 7158067.0 ] } },
{ "type": "Feature", "properties": { "osmid": 2404913375.0 }, "geometry": { "type": "Point", "coordinates": [ 3055192.0, 7157117.0 ] } },
{ "type": "Feature", "properties": { "osmid": 4577429964.0 }, "geometry": { "type": "Point", "coordinates": [ 3063719.0, 7148937.0 ] } },
{ "type": "Feature", "properties": { "osmid": 1257833311.0 }, "geometry": { "type": "Point", "coordinates": [ 3062371.0, 7149240.0 ] } },
{ "type": "Feature", "properties": { "osmid": 13645544632.0 }, "geometry": { "type": "Point", "coordinates": [ 3062775.0, 7148942.0 ] } },
{ "type": "Feature", "properties": { "osmid": 9142694509.0 }, "geometry": { "type": "Point", "coordinates": [ 3063243.0, 7148666.0 ] } },
{ "type": "Feature", "properties": { "osmid": 275070408.0 }, "geometry": { "type": "Point", "coordinates": [ 3067560.0, 7147516.0 ] } },
{ "type": "Feature", "properties": { "osmid": 838396353.0 }, "geometry": { "type": "Point", "coordinates": [ 3074298.0, 7148090.0 ] } },
{ "type": "Feature", "properties": { "osmid": 12988501937.0 }, "geometry": { "type": "Point", "coordinates": [ 3061734.0, 7149317.0 ] } },
{ "type": "Feature", "properties": { "osmid": 5281436592.0 }, "geometry": { "type": "Point", "coordinates": [ 3066837.0, 7147544.0 ] } },
{ "type": "Feature", "properties": { "osmid": 5191781981.0 }, "geometry": { "type": "Point", "coordinates": [ 3054939.0, 7156303.0 ] } },
{ "type": "Feature", "properties": { "osmid": 8294913735.0 }, "geometry": { "type": "Point", "coordinates": [ 3065729.0, 7147694.0 ] } },
{ "type": "Feature", "properties": { "osmid": 13675774659.0 }, "geometry": { "type": "Point", "coordinates": [ 3062316.0, 7148666.0 ] } },
{ "type": "Feature", "properties": { "osmid": 13279269548.0 }, "geometry": { "type": "Point", "coordinates": [ 3063337.0, 7148154.0 ] } },
{ "type": "Feature", "properties": { "osmid": 275075259.0 }, "geometry": { "type": "Point", "coordinates": [ 3062818.0, 7148371.0 ] } },
{ "type": "Feature", "properties": { "osmid": 11286440798.0 }, "geometry": { "type": "Point", "coordinates": [ 3075002.0, 7147883.0 ] } },
{ "type": "Feature", "properties": { "osmid": 1454260822.0 }, "geometry": { "type": "Point", "coordinates": [ 3054712.0, 7155832.0 ] } },
{ "type": "Feature", "properties": { "osmid": 602037135.0 }, "geometry": { "type": "Point", "coordinates": [ 3073565.0, 7147310.0 ] } },
{ "type": "Feature", "properties": { "osmid": 275071609.0 }, "geometry": { "type": "Point", "coordinates": [ 3066104.0, 7147086.0 ] } },
{ "type": "Feature", "properties": { "osmid": 7597551597.0 }, "geometry": { "type": "Point", "coordinates": [ 3066859.0, 7146936.0 ] } },
{ "type": "Feature", "properties": { "osmid": 7142690400.0 }, "geometry": { "type": "Point", "coordinates": [ 3061592.0, 7148527.0 ] } },
{ "type": "Feature", "properties": { "osmid": 13057982987.0 }, "geometry": { "type": "Point", "coordinates": [ 3074159.0, 7147051.0 ] } },
{ "type": "Feature", "properties": { "osmid": 12875811084.0 }, "geometry": { "type": "Point", "coordinates": [ 3054323.0, 7155225.0 ] } },
{ "type": "Feature", "properties": { "osmid": 275075225.0 }, "geometry": { "type": "Point", "coordinates": [ 3062470.0, 7147711.0 ] } },
{ "type": "Feature", "properties": { "osmid": 7600328548.0 }, "geometry": { "type": "Point", "coordinates": [ 3066810.0, 7146417.0 ] } },
{ "type": "Feature", "properties": { "osmid": 6616477494.0 }, "geometry": { "type": "Point", "coordinates": [ 3061431.0, 7147906.0 ] } },
{ "type": "Feature", "properties": { "osmid": 1119753471.0 }, "geometry": { "type": "Point", "coordinates": [ 3054324.0, 7154317.0 ] } },
{ "type": "Feature", "properties": { "osmid": 6356562028.0 }, "geometry": { "type": "Point", "coordinates": [ 3067455.0, 7145876.0 ] } },
{ "type": "Feature", "properties": { "osmid": 7393413165.0 }, "geometry": { "type": "Point", "coordinates": [ 3066144.0, 7146057.0 ] } },
{ "type": "Feature", "properties": { "osmid": 275072955.0 }, "geometry": { "type": "Point", "coordinates": [ 3064550.0, 7146440.0 ] } },
{ "type": "Feature", "properties": { "osmid": 9051543930.0 }, "geometry": { "type": "Point", "coordinates": [ 3066940.0, 7145883.0 ] } },
{ "type": "Feature", "properties": { "osmid": 12279277287.0 }, "geometry": { "type": "Point", "coordinates": [ 3065364.0, 7146061.0 ] } },
{ "type": "Feature", "properties": { "osmid": 7710839800.0 }, "geometry": { "type": "Point", "coordinates": [ 3067999.0, 7145466.0 ] } },
{ "type": "Feature", "properties": { "osmid": 12659953798.0 }, "geometry": { "type": "Point", "coordinates": [ 3062288.0, 7146862.0 ] } },
{ "type": "Feature", "properties": { "osmid": 5309324862.0 }, "geometry": { "type": "Point", "coordinates": [ 3054267.0, 7153620.0 ] } },
{ "type": "Feature", "properties": { "osmid": 5128410391.0 }, "geometry": { "type": "Point", "coordinates": [ 3067240.0, 7145422.0 ] } },
{ "type": "Feature", "properties": { "osmid": 9667249555.0 }, "geometry": { "type": "Point", "coordinates": [ 3065983.0, 7145564.0 ] } },
{ "type": "Feature", "properties": { "osmid": 12875811130.0 }, "geometry": { "type": "Point", "coordinates": [ 3053282.0, 7154945.0 ] } },
{ "type": "Feature", "properties": { "osmid": 1715299829.0 }, "geometry": { "type": "Point", "coordinates": [ 3061573.0, 7146978.0 ] } },
{ "type": "Feature", "properties": { "osmid": 9667245115.0 }, "geometry": { "type": "Point", "coordinates": [ 3064995.0, 7145652.0 ] } },
{ "type": "Feature", "properties": { "osmid": 10067707432.0 }, "geometry": { "type": "Point", "coordinates": [ 3066680.0, 7145300.0 ] } },
{ "type": "Feature", "properties": { "osmid": 9844391313.0 }, "geometry": { "type": "Point", "coordinates": [ 3072275.0, 7145133.0 ] } },
{ "type": "Feature", "properties": { "osmid": 2309316237.0 }, "geometry": { "type": "Point", "coordinates": [ 3062512.0, 7146270.0 ] } },
{ "type": "Feature", "properties": { "osmid": 6415683153.0 }, "geometry": { "type": "Point", "coordinates": [ 3067926.0, 7144963.0 ] } },
{ "type": "Feature", "properties": { "osmid": 2713988875.0 }, "geometry": { "type": "Point", "coordinates": [ 3053242.0, 7154381.0 ] } },
{ "type": "Feature", "properties": { "osmid": 852483979.0 }, "geometry": { "type": "Point", "coordinates": [ 3054200.0, 7152794.0 ] } },
{ "type": "Feature", "properties": { "osmid": 5806321055.0 }, "geometry": { "type": "Point", "coordinates": [ 3059621.0, 7147668.0 ] } },
{ "type": "Feature", "properties": { "osmid": 9667245112.0 }, "geometry": { "type": "Point", "coordinates": [ 3067363.0, 7144895.0 ] } },
{ "type": "Feature", "properties": { "osmid": 9667249322.0 }, "geometry": { "type": "Point", "coordinates": [ 3065890.0, 7145047.0 ] } },
{ "type": "Feature", "properties": { "osmid": 275076665.0 }, "geometry": { "type": "Point", "coordinates": [ 3061183.0, 7146594.0 ] } },
{ "type": "Feature", "properties": { "osmid": 7238904598.0 }, "geometry": { "type": "Point", "coordinates": [ 3088127.0, 7160177.0 ] } },
{ "type": "Feature", "properties": { "osmid": 12187648145.0 }, "geometry": { "type": "Point", "coordinates": [ 3066814.0, 7144782.0 ] } },
{ "type": "Feature", "properties": { "osmid": 9667249442.0 }, "geometry": { "type": "Point", "coordinates": [ 3064838.0, 7145145.0 ] } },
{ "type": "Feature", "properties": { "osmid": 935016598.0 }, "geometry": { "type": "Point", "coordinates": [ 3054178.0, 7152186.0 ] } },
{ "type": "Feature", "properties": { "osmid": 2713988879.0 }, "geometry": { "type": "Point", "coordinates": [ 3052588.0, 7154482.0 ] } },
{ "type": "Feature", "properties": { "osmid": 9667250543.0 }, "geometry": { "type": "Point", "coordinates": [ 3065454.0, 7144693.0 ] } },
{ "type": "Feature", "properties": { "osmid": 11249166253.0 }, "geometry": { "type": "Point", "coordinates": [ 3056340.0, 7149376.0 ] } },
{ "type": "Feature", "properties": { "osmid": 10004674187.0 }, "geometry": { "type": "Point", "coordinates": [ 3067137.0, 7144155.0 ] } },
{ "type": "Feature", "properties": { "osmid": 2849468223.0 }, "geometry": { "type": "Point", "coordinates": [ 3081627.0, 7148187.0 ] } },
{ "type": "Feature", "properties": { "osmid": 5653989927.0 }, "geometry": { "type": "Point", "coordinates": [ 3082403.0, 7148832.0 ] } },
{ "type": "Feature", "properties": { "osmid": 9667248970.0 }, "geometry": { "type": "Point", "coordinates": [ 3065843.0, 7144324.0 ] } },
{ "type": "Feature", "properties": { "osmid": 935016522.0 }, "geometry": { "type": "Point", "coordinates": [ 3054121.0, 7151419.0 ] } },
{ "type": "Feature", "properties": { "osmid": 13279421227.0 }, "geometry": { "type": "Point", "coordinates": [ 3067788.0, 7144023.0 ] } },
{ "type": "Feature", "properties": { "osmid": 2713988881.0 }, "geometry": { "type": "Point", "coordinates": [ 3052021.0, 7154565.0 ] } },
{ "type": "Feature", "properties": { "osmid": 13273882864.0 }, "geometry": { "type": "Point", "coordinates": [ 3066290.0, 7144098.0 ] } },
{ "type": "Feature", "properties": { "osmid": 9257966138.0 }, "geometry": { "type": "Point", "coordinates": [ 3064882.0, 7144325.0 ] } },
{ "type": "Feature", "properties": { "osmid": 5010181289.0 }, "geometry": { "type": "Point", "coordinates": [ 3069410.0, 7143667.0 ] } },
{ "type": "Feature", "properties": { "osmid": 9860930733.0 }, "geometry": { "type": "Point", "coordinates": [ 3075832.0, 7144684.0 ] } },
{ "type": "Feature", "properties": { "osmid": 3768791662.0 }, "geometry": { "type": "Point", "coordinates": [ 3073108.0, 7143936.0 ] } },
{ "type": "Feature", "properties": { "osmid": 4883150973.0 }, "geometry": { "type": "Point", "coordinates": [ 3070977.0, 7143656.0 ] } },
{ "type": "Feature", "properties": { "osmid": 10240498348.0 }, "geometry": { "type": "Point", "coordinates": [ 3066772.0, 7143770.0 ] } },
{ "type": "Feature", "properties": { "osmid": 5806321071.0 }, "geometry": { "type": "Point", "coordinates": [ 3058130.0, 7147066.0 ] } },
{ "type": "Feature", "properties": { "osmid": 10043755071.0 }, "geometry": { "type": "Point", "coordinates": [ 3065590.0, 7143801.0 ] } },
{ "type": "Feature", "properties": { "osmid": 10043755034.0 }, "geometry": { "type": "Point", "coordinates": [ 3066075.0, 7143633.0 ] } },
{ "type": "Feature", "properties": { "osmid": 5580726449.0 }, "geometry": { "type": "Point", "coordinates": [ 3054069.0, 7150393.0 ] } },
{ "type": "Feature", "properties": { "osmid": 275073892.0 }, "geometry": { "type": "Point", "coordinates": [ 3064088.0, 7143853.0 ] } },
{ "type": "Feature", "properties": { "osmid": 12903468028.0 }, "geometry": { "type": "Point", "coordinates": [ 3054299.0, 7149737.0 ] } },
{ "type": "Feature", "properties": { "osmid": 12903468022.0 }, "geometry": { "type": "Point", "coordinates": [ 3054777.0, 7149204.0 ] } },
{ "type": "Feature", "properties": { "osmid": 12903468012.0 }, "geometry": { "type": "Point", "coordinates": [ 3055424.0, 7148359.0 ] } },
{ "type": "Feature", "properties": { "osmid": 8752951937.0 }, "geometry": { "type": "Point", "coordinates": [ 3056877.0, 7146936.0 ] } },
{ "type": "Feature", "properties": { "osmid": 275071640.0 }, "geometry": { "type": "Point", "coordinates": [ 3065603.0, 7142964.0 ] } },
{ "type": "Feature", "properties": { "osmid": 1243294769.0 }, "geometry": { "type": "Point", "coordinates": [ 3053488.0, 7150012.0 ] } },
{ "type": "Feature", "properties": { "osmid": 1182514973.0 }, "geometry": { "type": "Point", "coordinates": [ 3058430.0, 7145718.0 ] } },
{ "type": "Feature", "properties": { "osmid": 3658815392.0 }, "geometry": { "type": "Point", "coordinates": [ 3073584.0, 7142945.0 ] } },
{ "type": "Feature", "properties": { "osmid": 9764555827.0 }, "geometry": { "type": "Point", "coordinates": [ 3060966.0, 7144350.0 ] } },
{ "type": "Feature", "properties": { "osmid": 275073924.0 }, "geometry": { "type": "Point", "coordinates": [ 3063774.0, 7143284.0 ] } },
{ "type": "Feature", "properties": { "osmid": 8916167160.0 }, "geometry": { "type": "Point", "coordinates": [ 3076324.0, 7143619.0 ] } },
{ "type": "Feature", "properties": { "osmid": 1425924486.0 }, "geometry": { "type": "Point", "coordinates": [ 3071055.0, 7142510.0 ] } },
{ "type": "Feature", "properties": { "osmid": 3652422144.0 }, "geometry": { "type": "Point", "coordinates": [ 3053326.0, 7149421.0 ] } },
{ "type": "Feature", "properties": { "osmid": 8752951944.0 }, "geometry": { "type": "Point", "coordinates": [ 3056113.0, 7146744.0 ] } },
{ "type": "Feature", "properties": { "osmid": 1737394534.0 }, "geometry": { "type": "Point", "coordinates": [ 3067429.0, 7142133.0 ] } },
{ "type": "Feature", "properties": { "osmid": 2356055571.0 }, "geometry": { "type": "Point", "coordinates": [ 3074915.0, 7142620.0 ] } },
{ "type": "Feature", "properties": { "osmid": 12195219025.0 }, "geometry": { "type": "Point", "coordinates": [ 3073915.0, 7142263.0 ] } },
{ "type": "Feature", "properties": { "osmid": 6020427628.0 }, "geometry": { "type": "Point", "coordinates": [ 3056345.0, 7146178.0 ] } },
{ "type": "Feature", "properties": { "osmid": 12195634444.0 }, "geometry": { "type": "Point", "coordinates": [ 3056663.0, 7145743.0 ] } },
{ "type": "Feature", "properties": { "osmid": 13201275365.0 }, "geometry": { "type": "Point", "coordinates": [ 3057860.0, 7144836.0 ] } },
{ "type": "Feature", "properties": { "osmid": 6993592816.0 }, "geometry": { "type": "Point", "coordinates": [ 3065433.0, 7141791.0 ] } },
{ "type": "Feature", "properties": { "osmid": 10963918872.0 }, "geometry": { "type": "Point", "coordinates": [ 3070373.0, 7141386.0 ] } },
{ "type": "Feature", "properties": { "osmid": 7936907594.0 }, "geometry": { "type": "Point", "coordinates": [ 3054892.0, 7146756.0 ] } },
{ "type": "Feature", "properties": { "osmid": 275070605.0 }, "geometry": { "type": "Point", "coordinates": [ 3066581.0, 7141455.0 ] } },
{ "type": "Feature", "properties": { "osmid": 5176194702.0 }, "geometry": { "type": "Point", "coordinates": [ 3055549.0, 7146163.0 ] } },
{ "type": "Feature", "properties": { "osmid": 917222115.0 }, "geometry": { "type": "Point", "coordinates": [ 3053778.0, 7147666.0 ] } },
{ "type": "Feature", "properties": { "osmid": 275073115.0 }, "geometry": { "type": "Point", "coordinates": [ 3064723.0, 7141630.0 ] } },
{ "type": "Feature", "properties": { "osmid": 13261674368.0 }, "geometry": { "type": "Point", "coordinates": [ 3070863.0, 7140985.0 ] } },
{ "type": "Feature", "properties": { "osmid": 6188999156.0 }, "geometry": { "type": "Point", "coordinates": [ 3054639.0, 7146323.0 ] } },
{ "type": "Feature", "properties": { "osmid": 3138022631.0 }, "geometry": { "type": "Point", "coordinates": [ 3076038.0, 7141755.0 ] } },
{ "type": "Feature", "properties": { "osmid": 13179141726.0 }, "geometry": { "type": "Point", "coordinates": [ 3055218.0, 7145710.0 ] } },
{ "type": "Feature", "properties": { "osmid": 12261110575.0 }, "geometry": { "type": "Point", "coordinates": [ 3053902.0, 7146714.0 ] } },
{ "type": "Feature", "properties": { "osmid": 7390269654.0 }, "geometry": { "type": "Point", "coordinates": [ 3065221.0, 7140968.0 ] } },
{ "type": "Feature", "properties": { "osmid": 4965578906.0 }, "geometry": { "type": "Point", "coordinates": [ 3060474.0, 7142410.0 ] } },
{ "type": "Feature", "properties": { "osmid": 1874118433.0 }, "geometry": { "type": "Point", "coordinates": [ 3053021.0, 7147495.0 ] } },
{ "type": "Feature", "properties": { "osmid": 9286597885.0 }, "geometry": { "type": "Point", "coordinates": [ 3070176.0, 7140439.0 ] } },
{ "type": "Feature", "properties": { "osmid": 5104730170.0 }, "geometry": { "type": "Point", "coordinates": [ 3064538.0, 7140896.0 ] } },
{ "type": "Feature", "properties": { "osmid": 4494909966.0 }, "geometry": { "type": "Point", "coordinates": [ 3059607.0, 7142490.0 ] } },
{ "type": "Feature", "properties": { "osmid": 482776554.0 }, "geometry": { "type": "Point", "coordinates": [ 3072484.0, 7140450.0 ] } },
{ "type": "Feature", "properties": { "osmid": 809672510.0 }, "geometry": { "type": "Point", "coordinates": [ 3057113.0, 7143810.0 ] } },
{ "type": "Feature", "properties": { "osmid": 13261605453.0 }, "geometry": { "type": "Point", "coordinates": [ 3071431.0, 7140305.0 ] } },
{ "type": "Feature", "properties": { "osmid": 12500853608.0 }, "geometry": { "type": "Point", "coordinates": [ 3069611.0, 7140049.0 ] } },
{ "type": "Feature", "properties": { "osmid": 13179141746.0 }, "geometry": { "type": "Point", "coordinates": [ 3053473.0, 7146137.0 ] } },
{ "type": "Feature", "properties": { "osmid": 429841345.0 }, "geometry": { "type": "Point", "coordinates": [ 3060047.0, 7141823.0 ] } },
{ "type": "Feature", "properties": { "osmid": 9804900538.0 }, "geometry": { "type": "Point", "coordinates": [ 3055441.0, 7144307.0 ] } },
{ "type": "Feature", "properties": { "osmid": 8048238088.0 }, "geometry": { "type": "Point", "coordinates": [ 3074014.0, 7139898.0 ] } },
{ "type": "Feature", "properties": { "osmid": 11804763583.0 }, "geometry": { "type": "Point", "coordinates": [ 3073148.0, 7139732.0 ] } },
{ "type": "Feature", "properties": { "osmid": 13466597353.0 }, "geometry": { "type": "Point", "coordinates": [ 3071694.0, 7139504.0 ] } },
{ "type": "Feature", "properties": { "osmid": 1025445704.0 }, "geometry": { "type": "Point", "coordinates": [ 3056433.0, 7143218.0 ] } },
{ "type": "Feature", "properties": { "osmid": 3138022679.0 }, "geometry": { "type": "Point", "coordinates": [ 3075094.0, 7140027.0 ] } },
{ "type": "Feature", "properties": { "osmid": 9804900522.0 }, "geometry": { "type": "Point", "coordinates": [ 3054911.0, 7144163.0 ] } },
{ "type": "Feature", "properties": { "osmid": 2641502112.0 }, "geometry": { "type": "Point", "coordinates": [ 3057537.0, 7142425.0 ] } },
{ "type": "Feature", "properties": { "osmid": 5173948275.0 }, "geometry": { "type": "Point", "coordinates": [ 3072257.0, 7139413.0 ] } },
{ "type": "Feature", "properties": { "osmid": 1539583916.0 }, "geometry": { "type": "Point", "coordinates": [ 3052841.0, 7145783.0 ] } },
{ "type": "Feature", "properties": { "osmid": 12497686100.0 }, "geometry": { "type": "Point", "coordinates": [ 3065018.0, 7139551.0 ] } },
{ "type": "Feature", "properties": { "osmid": 3224803008.0 }, "geometry": { "type": "Point", "coordinates": [ 3059883.0, 7141108.0 ] } },
{ "type": "Feature", "properties": { "osmid": 4909600624.0 }, "geometry": { "type": "Point", "coordinates": [ 3071091.0, 7139116.0 ] } },
{ "type": "Feature", "properties": { "osmid": 2641502076.0 }, "geometry": { "type": "Point", "coordinates": [ 3056560.0, 7142399.0 ] } },
{ "type": "Feature", "properties": { "osmid": 5175413028.0 }, "geometry": { "type": "Point", "coordinates": [ 3057942.0, 7141589.0 ] } },
{ "type": "Feature", "properties": { "osmid": 767088699.0 }, "geometry": { "type": "Point", "coordinates": [ 3053140.0, 7144812.0 ] } },
{ "type": "Feature", "properties": { "osmid": 11804763594.0 }, "geometry": { "type": "Point", "coordinates": [ 3073233.0, 7138847.0 ] } },
{ "type": "Feature", "properties": { "osmid": 13201314921.0 }, "geometry": { "type": "Point", "coordinates": [ 3055319.0, 7142671.0 ] } },
{ "type": "Feature", "properties": { "osmid": 1026555370.0 }, "geometry": { "type": "Point", "coordinates": [ 3056697.0, 7141765.0 ] } },
{ "type": "Feature", "properties": { "osmid": 1026303035.0 }, "geometry": { "type": "Point", "coordinates": [ 3054937.0, 7142272.0 ] } },
{ "type": "Feature", "properties": { "osmid": 933607641.0 }, "geometry": { "type": "Point", "coordinates": [ 3053717.0, 7143019.0 ] } },
{ "type": "Feature", "properties": { "osmid": 933607650.0 }, "geometry": { "type": "Point", "coordinates": [ 3055959.0, 7140943.0 ] } },
{ "type": "Feature", "properties": { "osmid": 13201314932.0 }, "geometry": { "type": "Point", "coordinates": [ 3054539.0, 7141846.0 ] } },
{ "type": "Feature", "properties": { "osmid": 5207350647.0 }, "geometry": { "type": "Point", "coordinates": [ 3055018.0, 7141385.0 ] } }
]
}
