{
"type": "FeatureCollection",
"name": "oslo-rail",
"crs": { "type": "name", "properties": { "name": "urn:ogc:def:crs:EPSG::3857" } },
"features": [
{ "type": "Feature", "properties": { "osmid": 2887044214.0 }, "geometry": { "type": "Point", "coordinates": [ 1200568.0, 8367039.0 ] } },
{ "type": "Feature", "properties": { "osmid": 8650444720.0 }, "geometry": { "type": "Point", "coordinates": [ 1207470.0, 8387411.0 ] } },
{ "type": "Feature", "properties": { "osmid": 5100992446.0 }, "geometry": { "type": "Point", "coordinates": [ 1210124.0, 8387188.0 ] } },
{ "type": "Feature", "properties": { "osmid": 3421783161.0 }, "geometry": { "type": "Point", "coordinates": [ 1186952.0, 8390895.0 ] } },
{ "type": "Feature", "properties": { "osmid": 3421902807.0 }, "geometry": { "type": "Point", "coordinates": [ 1190502.0, 8388830.0 ] } },
{ "type": "Feature", "properties": { "osmid": 9285752744.0 }, "geometry": { "type": "Point", "coordinates": [ 1188532.0, 8395103.0 ] } },
{ "type": "Feature", "properties": { "osmid": 6406873529.0 }, "geometry": { "type": "Point", "coordinates": [ 1194667.0, 8380946.0 ] } },
{ "type": "Feature", "properties": { "osmid": 1374738735.0 }, "geometry": { "type": "Point", "coordinates": [ 1206525.0, 8386584.0 ] } },
{ "type": "Feature", "properties": { "osmid": 11229844100.0 }, "geometry": { "type": "Point", "coordinates": [ 1206956.0, 8372245.0 ] } },
{ "type": "Feature", "properties": { "osmid": 3254073565.0 }, "geometry": { "type": "Point", "coordinates": [ 1190620.0, 8385215.0 ] } },
{ "type": "Feature", "properties": { "osmid": 485020556.0 }, "geometry": { "type": "Point", "coordinates": [ 1186100.0, 8392392.0 ] } },
{ "type": "Feature", "properties": { "osmid": 8238043086.0 }, "geometry": { "type": "Point", "coordinates": [ 1190769.0, 8389908.0 ] } },
{ "type": "Feature", "properties": { "osmid": 3442801836.0 }, "geometry": { "type": "Point", "coordinates": [ 1184942.0, 8387893.0 ] } },
{ "type": "Feature", "properties": { "osmid": 13713740758.0 }, "geometry": { "type": "Point", "coordinates": [ 1194473.0, 8380776.0 ] } },
{ "type": "Feature", "properties": { "osmid": 6964910927.0 }, "geometry": { "type": "Point", "coordinates": [ 1202861.0, 8373249.0 ] } },
{ "type": "Feature", "properties": { "osmid": 3421902604.0 }, "geometry": { "type": "Point", "coordinates": [ 1191552.0, 8388219.0 ] } },
{ "type": "Feature", "properties": { "osmid": 10115195611.0 }, "geometry": { "type": "Point", "coordinates": [ 1190068.0, 8391209.0 ] } },
{ "type": "Feature", "properties": { "osmid": 10115063668.0 }, "geometry": { "type": "Point", "coordinates": [ 1190597.0, 8390846.0 ] } },
{ "type": "Feature", "properties": { "osmid": 3421637154.0 }, "geometry": { "type": "Point", "coordinates": [ 1185260.0, 8394217.0 ] } },
{ "type": "Feature", "properties": { "osmid": 2901484278.0 }, "geometry": { "type": "Point", "coordinates": [ 1203688.0, 8408128.0 ] } },
{ "type": "Feature", "properties": { "osmid": 2497194245.0 }, "geometry": { "type": "Point", "coordinates": [ 1192100.0, 8385202.0 ] } },
{ "type": "Feature", "properties": { "osmid": 1347436665.0 }, "geometry": { "type": "Point", "coordinates": [ 1188190.0, 8390335.0 ] } },
{ "type": "Feature", "properties": { "osmid": 7006458543.0 }, "geometry": { "type": "Point", "coordinates": [ 1203320.0, 8405085.0 ] } },
{ "type": "Feature", "properties": { "osmid": 3421902917.0 }, "geometry": { "type": "Point", "coordinates": [ 1191293.0, 8389751.0 ] } },
{ "type": "Feature", "properties": { "osmid": 9556792649.0 }, "geometry": { "type": "Point", "coordinates": [ 1184138.0, 8388547.0 ] } },
{ "type": "Feature", "properties": { "osmid": 1319452561.0 }, "geometry": { "type": "Point", "coordinates": [ 1191582.0, 8386217.0 ] } },
{ "type": "Feature", "properties": { "osmid": 10045157902.0 }, "geometry": { "type": "Point", "coordinates": [ 1195658.0, 8390882.0 ] } },
{ "type": "Feature", "properties": { "osmid": 664012050.0 }, "geometry": { "type": "Point", "coordinates": [ 1206130.0, 8384805.0 ] } },
{ "type": "Feature", "properties": { "osmid": 79141.0 }, "geometry": { "type": "Point", "coordinates": [ 1200553.0, 8390853.0 ] } },
{ "type": "Feature", "properties": { "osmid": 25730692.0 }, "geometry": { "type": "Point", "coordinates": [ 1200459.0, 8391357.0 ] } },
{ "type": "Feature", "properties": { "osmid": 8767969823.0 }, "geometry": { "type": "Point", "coordinates": [ 1200744.0, 8392128.0 ] } },
{ "type": "Feature", "properties": { "osmid": 1229206292.0 }, "geometry": { "type": "Point", "coordinates": [ 1200977.0, 8389600.0 ] } },
{ "type": "Feature", "properties": { "osmid": 835666216.0 }, "geometry": { "type": "Point", "coordinates": [ 1201570.0, 8389450.0 ] } },
{ "type": "Feature", "properties": { "osmid": 3884700848.0 }, "geometry": { "type": "Point", "coordinates": [ 1199394.0, 8389529.0 ] } },
{ "type": "Feature", "properties": { "osmid": 79170.0 }, "geometry": { "type": "Point", "coordinates": [ 1199287.0, 8392380.0 ] } },
{ "type": "Feature", "properties": { "osmid": 150.0 }, "geometry": { "type": "Point", "coordinates": [ 1199693.0, 8388910.0 ] } },
{ "type": "Feature", "properties": { "osmid": 467124478.0 }, "geometry": { "type": "Point", "coordinates": [ 1198862.0, 8389296.0 ] } },
{ "type": "Feature", "properties": { "osmid": 60672930.0 }, "geometry": { "type": "Point", "coordinates": [ 1198394.0, 8389661.0 ] } },
{ "type": "Feature", "properties": { "osmid": 796136299.0 }, "geometry": { "type": "Point", "coordinates": [ 1201408.0, 8388410.0 ] } },
{ "type": "Feature", "properties": { "osmid": 79237.0 }, "geometry": { "type": "Point", "coordinates": [ 1199242.0, 8388456.0 ] } },
{ "type": "Feature", "properties": { "osmid": 1316569474.0 }, "geometry": { "type": "Point", "coordinates": [ 1198230.0, 8389184.0 ] } },
{ "type": "Feature", "properties": { "osmid": 3173036013.0 }, "geometry": { "type": "Point", "coordinates": [ 1199929.0, 8387869.0 ] } },
{ "type": "Feature", "properties": { "osmid": 11842551962.0 }, "geometry": { "type": "Point", "coordinates": [ 1198676.0, 8388450.0 ] } },
{ "type": "Feature", "properties": { "osmid": 3695396594.0 }, "geometry": { "type": "Point", "coordinates": [ 1200963.0, 8387814.0 ] } },
{ "type": "Feature", "properties": { "osmid": 11096490526.0 }, "geometry": { "type": "Point", "coordinates": [ 1199096.0, 8387729.0 ] } },
{ "type": "Feature", "properties": { "osmid": 1634656681.0 }, "geometry": { "type": "Point", "coordinates": [ 1197144.0, 8391397.0 ] } },
{ "type": "Feature", "properties": { "osmid": 3538745481.0 }, "geometry": { "type": "Point", "coordinates": [ 1202572.0, 8388018.0 ] } },
{ "type": "Feature", "properties": { "osmid": 2367900007.0 }, "geometry": { "type": "Point", "coordinates": [ 1199803.0, 8387383.0 ] } },
{ "type": "Feature", "properties": { "osmid": 7119360689.0 }, "geometry": { "type": "Point", "coordinates": [ 1198057.0, 8388306.0 ] } },
{ "type": "Feature", "properties": { "osmid": 738971689.0 }, "geometry": { "type": "Point", "coordinates": [ 1200681.0, 8387244.0 ] } },
{ "type": "Feature", "properties": { "osmid": 4434342524.0 }, "geometry": { "type": "Point", "coordinates": [ 1198554.0, 8387761.0 ] } },
{ "type": "Feature", "properties": { "osmid": 8476396258.0 }, "geometry": { "type": "Point", "coordinates": [ 1199297.0, 8387254.0 ] } },
{ "type": "Feature", "properties": { "osmid": 1310887060.0 }, "geometry": { "type": "Point", "coordinates": [ 1197070.0, 8389277.0 ] } },
{ "type": "Feature", "properties": { "osmid": 103909.0 }, "geometry": { "type": "Point", "coordinates": [ 1202590.0, 8387469.0 ] } },
{ "type": "Feature", "properties": { "osmid": 790233018.0 }, "geometry": { "type": "Point", "coordinates": [ 1200368.0, 8386843.0 ] } },
{ "type": "Feature", "properties": { "osmid": 7508677934.0 }, "geometry": { "type": "Point", "coordinates": [ 1204472.0, 8389654.0 ] } },
{ "type": "Feature", "properties": { "osmid": 7129414432.0 }, "geometry": { "type": "Point", "coordinates": [ 1198004.0, 8387645.0 ] } },
{ "type": "Feature", "properties": { "osmid": 29556441.0 }, "geometry": { "type": "Point", "coordinates": [ 1198618.0, 8387229.0 ] } },
{ "type": "Feature", "properties": { "osmid": 8496468618.0 }, "geometry": { "type": "Point", "coordinates": [ 1199719.0, 8386828.0 ] } },
{ "type": "Feature", "properties": { "osmid": 1326858296.0 }, "geometry": { "type": "Point", "coordinates": [ 1196572.0, 8389185.0 ] } },
{ "type": "Feature", "properties": { "osmid": 282629887.0 }, "geometry": { "type": "Point", "coordinates": [ 1202324.0, 8386890.0 ] } },
{ "type": "Feature", "properties": { "osmid": 3214834830.0 }, "geometry": { "type": "Point", "coordinates": [ 1203123.0, 8387348.0 ] } },
{ "type": "Feature", "properties": { "osmid": 1316603320.0 }, "geometry": { "type": "Point", "coordinates": [ 1196837.0, 8388598.0 ] } },
{ "type": "Feature", "properties": { "osmid": 79865.0 }, "geometry": { "type": "Point", "coordinates": [ 1196289.0, 8389988.0 ] } },
{ "type": "Feature", "properties": { "osmid": 286369799.0 }, "geometry": { "type": "Point", "coordinates": [ 1201042.0, 8386499.0 ] } },
{ "type": "Feature", "properties": { "osmid": 773163295.0 }, "geometry": { "type": "Point", "coordinates": [ 1201808.0, 8386630.0 ] } },
{ "type": "Feature", "properties": { "osmid": 7508677977.0 }, "geometry": { "type": "Point", "coordinates": [ 1204520.0, 8388934.0 ] } },
{ "type": "Feature", "properties": { "osmid": 3536398097.0 }, "geometry": { "type": "Point", "coordinates": [ 1196123.0, 8391124.0 ] } },
{ "type": "Feature", "properties": { "osmid": 3849099701.0 }, "geometry": { "type": "Point", "coordinates": [ 1198755.0, 8386684.0 ] } },
{ "type": "Feature", "properties": { "osmid": 7508679892.0 }, "geometry": { "type": "Point", "coordinates": [ 1204355.0, 8388244.0 ] } },
{ "type": "Feature", "properties": { "osmid": 1687488796.0 }, "geometry": { "type": "Point", "coordinates": [ 1195965.0, 8391636.0 ] } },
{ "type": "Feature", "properties": { "osmid": 1309289062.0 }, "geometry": { "type": "Point", "coordinates": [ 1202943.0, 8386846.0 ] } },
{ "type": "Feature", "properties": { "osmid": 10965348549.0 }, "geometry": { "type": "Point", "coordinates": [ 1203832.0, 8387509.0 ] } },
{ "type": "Feature", "properties": { "osmid": 743184419.0 }, "geometry": { "type": "Point", "coordinates": [ 1200259.0, 8386170.0 ] } },
{ "type": "Feature", "properties": { "osmid": 5820940.0 }, "geometry": { "type": "Point", "coordinates": [ 1199649.0, 8386182.0 ] } },
{ "type": "Feature", "properties": { "osmid": 8862575501.0 }, "geometry": { "type": "Point", "coordinates": [ 1195991.0, 8389164.0 ] } },
{ "type": "Feature", "properties": { "osmid": 282629473.0 }, "geometry": { "type": "Point", "coordinates": [ 1204297.0, 8387742.0 ] } },
{ "type": "Feature", "properties": { "osmid": 7693166806.0 }, "geometry": { "type": "Point", "coordinates": [ 1198994.0, 8386187.0 ] } },
{ "type": "Feature", "properties": { "osmid": 3554889524.0 }, "geometry": { "type": "Point", "coordinates": [ 1200720.0, 8385927.0 ] } },
{ "type": "Feature", "properties": { "osmid": 10805289511.0 }, "geometry": { "type": "Point", "coordinates": [ 1201908.0, 8386025.0 ] } },
{ "type": "Feature", "properties": { "osmid": 15848320.0 }, "geometry": { "type": "Point", "coordinates": [ 1198407.0, 8386319.0 ] } },
{ "type": "Feature", "properties": { "osmid": 3473949345.0 }, "geometry": { "type": "Point", "coordinates": [ 1203741.0, 8386979.0 ] } },
{ "type": "Feature", "properties": { "osmid": 18302524.0 }, "geometry": { "type": "Point", "coordinates": [ 1197505.0, 8386820.0 ] } },
{ "type": "Feature", "properties": { "osmid": 30762883.0 }, "geometry": { "type": "Point", "coordinates": [ 1202795.0, 8386168.0 ] } },
{ "type": "Feature", "properties": { "osmid": 33245585.0 }, "geometry": { "type": "Point", "coordinates": [ 1204327.0, 8387232.0 ] } },
{ "type": "Feature", "properties": { "osmid": 1486464101.0 }, "geometry": { "type": "Point", "coordinates": [ 1196511.0, 8387355.0 ] } },
{ "type": "Feature", "properties": { "osmid": 3459807301.0 }, "geometry": { "type": "Point", "coordinates": [ 1197615.0, 8386200.0 ] } },
{ "type": "Feature", "properties": { "osmid": 942702163.0 }, "geometry": { "type": "Point", "coordinates": [ 1202340.0, 8385639.0 ] } },
{ "type": "Feature", "properties": { "osmid": 619507919.0 }, "geometry": { "type": "Point", "coordinates": [ 1195046.0, 8391122.0 ] } },
{ "type": "Feature", "properties": { "osmid": 3849099057.0 }, "geometry": { "type": "Point", "coordinates": [ 1198122.0, 8385876.0 ] } },
{ "type": "Feature", "properties": { "osmid": 16264434.0 }, "geometry": { "type": "Point", "coordinates": [ 1199995.0, 8385335.0 ] } },
{ "type": "Feature", "properties": { "osmid": 8335971682.0 }, "geometry": { "type": "Point", "coordinates": [ 1195111.0, 8391926.0 ] } },
{ "type": "Feature", "properties": { "osmid": 2503188452.0 }, "geometry": { "type": "Point", "coordinates": [ 1201187.0, 8385326.0 ] } },
{ "type": "Feature", "properties": { "osmid": 327177807.0 }, "geometry": { "type": "Point", "coordinates": [ 1196028.0, 8387542.0 ] } },
{ "type": "Feature", "properties": { "osmid": 897594227.0 }, "geometry": { "type": "Point", "coordinates": [ 1205015.0, 8387403.0 ] } },
{ "type": "Feature", "properties": { "osmid": 80217.0 }, "geometry": { "type": "Point", "coordinates": [ 1196666.0, 8386682.0 ] } },
{ "type": "Feature", "properties": { "osmid": 8291518476.0 }, "geometry": { "type": "Point", "coordinates": [ 1203273.0, 8385733.0 ] } },
{ "type": "Feature", "properties": { "osmid": 1329916101.0 }, "geometry": { "type": "Point", "coordinates": [ 1204677.0, 8386764.0 ] } },
{ "type": "Feature", "properties": { "osmid": 805674487.0 }, "geometry": { "type": "Point", "coordinates": [ 1194715.0, 8390359.0 ] } },
{ "type": "Feature", "properties": { "osmid": 820800071.0 }, "geometry": { "type": "Point", "coordinates": [ 1194831.0, 8392501.0 ] } },
{ "type": "Feature", "properties": { "osmid": 808811137.0 }, "geometry": { "type": "Point", "coordinates": [ 1194570.0, 8391499.0 ] } },
{ "type": "Feature", "properties": { "osmid": 28389919.0 }, "geometry": { "type": "Point", "coordinates": [ 1202551.0, 8385168.0 ] } },
{ "type": "Feature", "properties": { "osmid": 7024055108.0 }, "geometry": { "type": "Point", "coordinates": [ 1200357.0, 8384811.0 ] } },
{ "type": "Feature", "properties": { "osmid": 741124284.0 }, "geometry": { "type": "Point", "coordinates": [ 1195662.0, 8387173.0 ] } },
{ "type": "Feature", "properties": { "osmid": 7202299866.0 }, "geometry": { "type": "Point", "coordinates": [ 1194486.0, 8389901.0 ] } },
{ "type": "Feature", "properties": { "osmid": 13310976126.0 }, "geometry": { "type": "Point", "coordinates": [ 1201550.0, 8384789.0 ] } },
{ "type": "Feature", "properties": { "osmid": 8190157931.0 }, "geometry": { "type": "Point", "coordinates": [ 1196679.0, 8386004.0 ] } },
{ "type": "Feature", "properties": { "osmid": 3214834405.0 }, "geometry": { "type": "Point", "coordinates": [ 1205490.0, 8387069.0 ] } },
{ "type": "Feature", "properties": { "osmid": 15848303.0 }, "geometry": { "type": "Point", "coordinates": [ 1197578.0, 8385389.0 ] } },
{ "type": "Feature", "properties": { "osmid": 808756065.0 }, "geometry": { "type": "Point", "coordinates": [ 1194314.0, 8390700.0 ] } },
{ "type": "Feature", "properties": { "osmid": 7305526303.0 }, "geometry": { "type": "Point", "coordinates": [ 1198738.0, 8384833.0 ] } },
{ "type": "Feature", "properties": { "osmid": 2576105367.0 }, "geometry": { "type": "Point", "coordinates": [ 1202192.0, 8384686.0 ] } },
{ "type": "Feature", "properties": { "osmid": 19465856.0 }, "geometry": { "type": "Point", "coordinates": [ 1194733.0, 8388147.0 ] } },
{ "type": "Feature", "properties": { "osmid": 285989710.0 }, "geometry": { "type": "Point", "coordinates": [ 1199432.0, 8384515.0 ] } },
{ "type": "Feature", "properties": { "osmid": 3473947329.0 }, "geometry": { "type": "Point", "coordinates": [ 1205074.0, 8386175.0 ] } },
{ "type": "Feature", "properties": { "osmid": 808756059.0 }, "geometry": { "type": "Point", "coordinates": [ 1194186.0, 8389500.0 ] } },
{ "type": "Feature", "properties": { "osmid": 1934334668.0 }, "geometry": { "type": "Point", "coordinates": [ 1194382.0, 8388769.0 ] } },
{ "type": "Feature", "properties": { "osmid": 3567075260.0 }, "geometry": { "type": "Point", "coordinates": [ 1194058.0, 8390162.0 ] } },
{ "type": "Feature", "properties": { "osmid": 820936742.0 }, "geometry": { "type": "Point", "coordinates": [ 1194185.0, 8392327.0 ] } },
{ "type": "Feature", "properties": { "osmid": 1302749701.0 }, "geometry": { "type": "Point", "coordinates": [ 1206182.0, 8387526.0 ] } },
{ "type": "Feature", "properties": { "osmid": 3257494807.0 }, "geometry": { "type": "Point", "coordinates": [ 1197573.0, 8384843.0 ] } },
{ "type": "Feature", "properties": { "osmid": 28389824.0 }, "geometry": { "type": "Point", "coordinates": [ 1202798.0, 8384495.0 ] } },
{ "type": "Feature", "properties": { "osmid": 7694664606.0 }, "geometry": { "type": "Point", "coordinates": [ 1201834.0, 8384220.0 ] } },
{ "type": "Feature", "properties": { "osmid": 1387444873.0 }, "geometry": { "type": "Point", "coordinates": [ 1198138.0, 8384536.0 ] } },
{ "type": "Feature", "properties": { "osmid": 79264.0 }, "geometry": { "type": "Point", "coordinates": [ 1196669.0, 8385289.0 ] } },
{ "type": "Feature", "properties": { "osmid": 808847109.0 }, "geometry": { "type": "Point", "coordinates": [ 1193756.0, 8390736.0 ] } },
{ "type": "Feature", "properties": { "osmid": 8718308647.0 }, "geometry": { "type": "Point", "coordinates": [ 1200061.0, 8384024.0 ] } },
{ "type": "Feature", "properties": { "osmid": 1749539573.0 }, "geometry": { "type": "Point", "coordinates": [ 1205918.0, 8386581.0 ] } },
{ "type": "Feature", "properties": { "osmid": 13241518689.0 }, "geometry": { "type": "Point", "coordinates": [ 1201322.0, 8383999.0 ] } },
{ "type": "Feature", "properties": { "osmid": 811580220.0 }, "geometry": { "type": "Point", "coordinates": [ 1193891.0, 8389042.0 ] } },
{ "type": "Feature", "properties": { "osmid": 1387444964.0 }, "geometry": { "type": "Point", "coordinates": [ 1198763.0, 8384107.0 ] } },
{ "type": "Feature", "properties": { "osmid": 1912938810.0 }, "geometry": { "type": "Point", "coordinates": [ 1207116.0, 8388416.0 ] } },
{ "type": "Feature", "properties": { "osmid": 8507335516.0 }, "geometry": { "type": "Point", "coordinates": [ 1195640.0, 8385720.0 ] } },
{ "type": "Feature", "properties": { "osmid": 13638363650.0 }, "geometry": { "type": "Point", "coordinates": [ 1202357.0, 8383974.0 ] } },
{ "type": "Feature", "properties": { "osmid": 6559211.0 }, "geometry": { "type": "Point", "coordinates": [ 1194740.0, 8386754.0 ] } },
{ "type": "Feature", "properties": { "osmid": 25313772.0 }, "geometry": { "type": "Point", "coordinates": [ 1205503.0, 8385723.0 ] } },
{ "type": "Feature", "properties": { "osmid": 1486491401.0 }, "geometry": { "type": "Point", "coordinates": [ 1196011.0, 8385321.0 ] } },
{ "type": "Feature", "properties": { "osmid": 1486464262.0 }, "geometry": { "type": "Point", "coordinates": [ 1193771.0, 8388379.0 ] } },
{ "type": "Feature", "properties": { "osmid": 15848289.0 }, "geometry": { "type": "Point", "coordinates": [ 1197524.0, 8384247.0 ] } },
{ "type": "Feature", "properties": { "osmid": 7141564314.0 }, "geometry": { "type": "Point", "coordinates": [ 1200380.0, 8383574.0 ] } },
{ "type": "Feature", "properties": { "osmid": 12630991.0 }, "geometry": { "type": "Point", "coordinates": [ 1198023.0, 8384022.0 ] } },
{ "type": "Feature", "properties": { "osmid": 7650734396.0 }, "geometry": { "type": "Point", "coordinates": [ 1196544.0, 8384717.0 ] } },
{ "type": "Feature", "properties": { "osmid": 11013549815.0 }, "geometry": { "type": "Point", "coordinates": [ 1206955.0, 8387259.0 ] } },
{ "type": "Feature", "properties": { "osmid": 3255501437.0 }, "geometry": { "type": "Point", "coordinates": [ 1199303.0, 8383578.0 ] } },
{ "type": "Feature", "properties": { "osmid": 28389120.0 }, "geometry": { "type": "Point", "coordinates": [ 1204684.0, 8384692.0 ] } },
{ "type": "Feature", "properties": { "osmid": 1348751644.0 }, "geometry": { "type": "Point", "coordinates": [ 1203441.0, 8384003.0 ] } },
{ "type": "Feature", "properties": { "osmid": 11374286234.0 }, "geometry": { "type": "Point", "coordinates": [ 1201995.0, 8383516.0 ] } },
{ "type": "Feature", "properties": { "osmid": 1571704646.0 }, "geometry": { "type": "Point", "coordinates": [ 1202912.0, 8383756.0 ] } },
{ "type": "Feature", "properties": { "osmid": 13737395858.0 }, "geometry": { "type": "Point", "coordinates": [ 1193732.0, 8387692.0 ] } },
{ "type": "Feature", "properties": { "osmid": 1951107075.0 }, "geometry": { "type": "Point", "coordinates": [ 1205285.0, 8385004.0 ] } },
{ "type": "Feature", "properties": { "osmid": 106199.0 }, "geometry": { "type": "Point", "coordinates": [ 1198431.0, 8383563.0 ] } },
{ "type": "Feature", "properties": { "osmid": 9900951140.0 }, "geometry": { "type": "Point", "coordinates": [ 1194387.0, 8386391.0 ] } },
{ "type": "Feature", "properties": { "osmid": 1301139946.0 }, "geometry": { "type": "Point", "coordinates": [ 1195101.0, 8385508.0 ] } },
{ "type": "Feature", "properties": { "osmid": 31208828.0 }, "geometry": { "type": "Point", "coordinates": [ 1193015.0, 8389413.0 ] } },
{ "type": "Feature", "properties": { "osmid": 1819184867.0 }, "geometry": { "type": "Point", "coordinates": [ 1206430.0, 8385913.0 ] } },
{ "type": "Feature", "properties": { "osmid": 843530318.0 }, "geometry": { "type": "Point", "coordinates": [ 1208107.0, 8389092.0 ] } },
{ "type": "Feature", "properties": { "osmid": 12092702446.0 }, "geometry": { "type": "Point", "coordinates": [ 1193885.0, 8386829.0 ] } },
{ "type": "Feature", "properties": { "osmid": 8190057257.0 }, "geometry": { "type": "Point", "coordinates": [ 1199544.0, 8383130.0 ] } },
{ "type": "Feature", "properties": { "osmid": 1374258611.0 }, "geometry": { "type": "Point", "coordinates": [ 1196798.0, 8384012.0 ] } },
{ "type": "Feature", "properties": { "osmid": 1334087982.0 }, "geometry": { "type": "Point", "coordinates": [ 1193228.0, 8388082.0 ] } },
{ "type": "Feature", "properties": { "osmid": 11374286242.0 }, "geometry": { "type": "Point", "coordinates": [ 1201838.0, 8383023.0 ] } },
{ "type": "Feature", "properties": { "osmid": 1330931552.0 }, "geometry": { "type": "Point", "coordinates": [ 1200836.0, 8382872.0 ] } },
{ "type": "Feature", "properties": { "osmid": 1571704007.0 }, "geometry": { "type": "Point", "coordinates": [ 1202706.0, 8383139.0 ] } },
{ "type": "Feature", "properties": { "osmid": 12896935498.0 }, "geometry": { "type": "Point", "coordinates": [ 1198653.0, 8383070.0 ] } },
{ "type": "Feature", "properties": { "osmid": 12542383641.0 }, "geometry": { "type": "Point", "coordinates": [ 1203410.0, 8383309.0 ] } },
{ "type": "Feature", "properties": { "osmid": 1330931359.0 }, "geometry": { "type": "Point", "coordinates": [ 1200253.0, 8382761.0 ] } },
{ "type": "Feature", "properties": { "osmid": 2085228040.0 }, "geometry": { "type": "Point", "coordinates": [ 1208301.0, 8388485.0 ] } },
{ "type": "Feature", "properties": { "osmid": 8190057138.0 }, "geometry": { "type": "Point", "coordinates": [ 1194557.0, 8385366.0 ] } },
{ "type": "Feature", "properties": { "osmid": 1703187207.0 }, "geometry": { "type": "Point", "coordinates": [ 1201384.0, 8382763.0 ] } },
{ "type": "Feature", "properties": { "osmid": 3471993383.0 }, "geometry": { "type": "Point", "coordinates": [ 1204945.0, 8384000.0 ] } },
{ "type": "Feature", "properties": { "osmid": 28389161.0 }, "geometry": { "type": "Point", "coordinates": [ 1207597.0, 8386716.0 ] } },
{ "type": "Feature", "properties": { "osmid": 10024540417.0 }, "geometry": { "type": "Point", "coordinates": [ 1203909.0, 8383385.0 ] } },
{ "type": "Feature", "properties": { "osmid": 1184632843.0 }, "geometry": { "type": "Point", "coordinates": [ 1193184.0, 8387276.0 ] } },
{ "type": "Feature", "properties": { "osmid": 7959754730.0 }, "geometry": { "type": "Point", "coordinates": [ 1199327.0, 8382655.0 ] } },
{ "type": "Feature", "properties": { "osmid": 3849202018.0 }, "geometry": { "type": "Point", "coordinates": [ 1196991.0, 8383277.0 ] } },
{ "type": "Feature", "properties": { "osmid": 287041173.0 }, "geometry": { "type": "Point", "coordinates": [ 1208744.0, 8388884.0 ] } },
{ "type": "Feature", "properties": { "osmid": 8700910715.0 }, "geometry": { "type": "Point", "coordinates": [ 1195125.0, 8384372.0 ] } },
{ "type": "Feature", "properties": { "osmid": 7326524218.0 }, "geometry": { "type": "Point", "coordinates": [ 1208095.0, 8387025.0 ] } },
{ "type": "Feature", "properties": { "osmid": 3173448528.0 }, "geometry": { "type": "Point", "coordinates": [ 1192699.0, 8387629.0 ] } },
{ "type": "Feature", "properties": { "osmid": 1200153065.0 }, "geometry": { "type": "Point", "coordinates": [ 1200528.0, 8382319.0 ] } },
{ "type": "Feature", "properties": { "osmid": 1242048287.0 }, "geometry": { "type": "Point", "coordinates": [ 1197948.0, 8382715.0 ] } },
{ "type": "Feature", "properties": { "osmid": 3655282160.0 }, "geometry": { "type": "Point", "coordinates": [ 1193669.0, 8385762.0 ] } },
{ "type": "Feature", "properties": { "osmid": 1330919207.0 }, "geometry": { "type": "Point", "coordinates": [ 1199727.0, 8382287.0 ] } },
{ "type": "Feature", "properties": { "osmid": 2369938768.0 }, "geometry": { "type": "Point", "coordinates": [ 1208559.0, 8387360.0 ] } },
{ "type": "Feature", "properties": { "osmid": 288410356.0 }, "geometry": { "type": "Point", "coordinates": [ 1208879.0, 8388208.0 ] } },
{ "type": "Feature", "properties": { "osmid": 16258792.0 }, "geometry": { "type": "Point", "coordinates": [ 1202116.0, 8382253.0 ] } },
{ "type": "Feature", "properties": { "osmid": 7895007659.0 }, "geometry": { "type": "Point", "coordinates": [ 1192804.0, 8386753.0 ] } },
{ "type": "Feature", "properties": { "osmid": 1301028265.0 }, "geometry": { "type": "Point", "coordinates": [ 1194240.0, 8384728.0 ] } },
{ "type": "Feature", "properties": { "osmid": 4789069169.0 }, "geometry": { "type": "Point", "coordinates": [ 1201405.0, 8382076.0 ] } },
{ "type": "Feature", "properties": { "osmid": 5873853482.0 }, "geometry": { "type": "Point", "coordinates": [ 1197166.0, 8382709.0 ] } },
{ "type": "Feature", "properties": { "osmid": 3607880196.0 }, "geometry": { "type": "Point", "coordinates": [ 1200174.0, 8381965.0 ] } },
{ "type": "Feature", "properties": { "osmid": 12631037.0 }, "geometry": { "type": "Point", "coordinates": [ 1198326.0, 8382240.0 ] } },
{ "type": "Feature", "properties": { "osmid": 4495143619.0 }, "geometry": { "type": "Point", "coordinates": [ 1203037.0, 8382230.0 ] } },
{ "type": "Feature", "properties": { "osmid": 3423698418.0 }, "geometry": { "type": "Point", "coordinates": [ 1192120.0, 8387785.0 ] } },
{ "type": "Feature", "properties": { "osmid": 288500028.0 }, "geometry": { "type": "Point", "coordinates": [ 1209386.0, 8388979.0 ] } },
{ "type": "Feature", "properties": { "osmid": 339320556.0 }, "geometry": { "type": "Point", "coordinates": [ 1209609.0, 8390604.0 ] } },
{ "type": "Feature", "properties": { "osmid": 1277679949.0 }, "geometry": { "type": "Point", "coordinates": [ 1196510.0, 8382696.0 ] } },
{ "type": "Feature", "properties": { "osmid": 8463799354.0 }, "geometry": { "type": "Point", "coordinates": [ 1205836.0, 8383395.0 ] } },
{ "type": "Feature", "properties": { "osmid": 16258701.0 }, "geometry": { "type": "Point", "coordinates": [ 1199500.0, 8381757.0 ] } },
{ "type": "Feature", "properties": { "osmid": 8346277235.0 }, "geometry": { "type": "Point", "coordinates": [ 1200791.0, 8381685.0 ] } },
{ "type": "Feature", "properties": { "osmid": 288500047.0 }, "geometry": { "type": "Point", "coordinates": [ 1209657.0, 8389432.0 ] } },
{ "type": "Feature", "properties": { "osmid": 1940800377.0 }, "geometry": { "type": "Point", "coordinates": [ 1209261.0, 8387810.0 ] } },
{ "type": "Feature", "properties": { "osmid": 7125017972.0 }, "geometry": { "type": "Point", "coordinates": [ 1197317.0, 8382204.0 ] } },
{ "type": "Feature", "properties": { "osmid": 18302451.0 }, "geometry": { "type": "Point", "coordinates": [ 1195628.0, 8383038.0 ] } },
{ "type": "Feature", "properties": { "osmid": 10297508559.0 }, "geometry": { "type": "Point", "coordinates": [ 1197883.0, 8381998.0 ] } },
{ "type": "Feature", "properties": { "osmid": 8259423039.0 }, "geometry": { "type": "Point", "coordinates": [ 1192296.0, 8386686.0 ] } },
{ "type": "Feature", "properties": { "osmid": 292101300.0 }, "geometry": { "type": "Point", "coordinates": [ 1198621.0, 8381786.0 ] } },
{ "type": "Feature", "properties": { "osmid": 3514951104.0 }, "geometry": { "type": "Point", "coordinates": [ 1208679.0, 8386166.0 ] } },
{ "type": "Feature", "properties": { "osmid": 289433443.0 }, "geometry": { "type": "Point", "coordinates": [ 1207486.0, 8384472.0 ] } },
{ "type": "Feature", "properties": { "osmid": 6465975.0 }, "geometry": { "type": "Point", "coordinates": [ 1202331.0, 8381573.0 ] } },
{ "type": "Feature", "properties": { "osmid": 6716284214.0 }, "geometry": { "type": "Point", "coordinates": [ 1209989.0, 8390134.0 ] } },
{ "type": "Feature", "properties": { "osmid": 3513375775.0 }, "geometry": { "type": "Point", "coordinates": [ 1208025.0, 8385042.0 ] } },
{ "type": "Feature", "properties": { "osmid": 8463211742.0 }, "geometry": { "type": "Point", "coordinates": [ 1206881.0, 8383805.0 ] } },
{ "type": "Feature", "properties": { "osmid": 6575592807.0 }, "geometry": { "type": "Point", "coordinates": [ 1201355.0, 8381408.0 ] } },
{ "type": "Feature", "properties": { "osmid": 79271.0 }, "geometry": { "type": "Point", "coordinates": [ 1192939.0, 8385202.0 ] } },
{ "type": "Feature", "properties": { "osmid": 6277261578.0 }, "geometry": { "type": "Point", "coordinates": [ 1203342.0, 8381747.0 ] } },
{ "type": "Feature", "properties": { "osmid": 1277684563.0 }, "geometry": { "type": "Point", "coordinates": [ 1196688.0, 8382115.0 ] } },
{ "type": "Feature", "properties": { "osmid": 16258721.0 }, "geometry": { "type": "Point", "coordinates": [ 1199920.0, 8381292.0 ] } },
{ "type": "Feature", "properties": { "osmid": 4148609152.0 }, "geometry": { "type": "Point", "coordinates": [ 1191594.0, 8387438.0 ] } },
{ "type": "Feature", "properties": { "osmid": 339321498.0 }, "geometry": { "type": "Point", "coordinates": [ 1210095.0, 8391838.0 ] } },
{ "type": "Feature", "properties": { "osmid": 2925276129.0 }, "geometry": { "type": "Point", "coordinates": [ 1204160.0, 8381960.0 ] } },
{ "type": "Feature", "properties": { "osmid": 1036167557.0 }, "geometry": { "type": "Point", "coordinates": [ 1210059.0, 8392581.0 ] } },
{ "type": "Feature", "properties": { "osmid": 4384410749.0 }, "geometry": { "type": "Point", "coordinates": [ 1208650.0, 8385576.0 ] } },
{ "type": "Feature", "properties": { "osmid": 8463211719.0 }, "geometry": { "type": "Point", "coordinates": [ 1206600.0, 8383306.0 ] } },
{ "type": "Feature", "properties": { "osmid": 1346356210.0 }, "geometry": { "type": "Point", "coordinates": [ 1194384.0, 8383377.0 ] } },
{ "type": "Feature", "properties": { "osmid": 3522030979.0 }, "geometry": { "type": "Point", "coordinates": [ 1205656.0, 8382547.0 ] } },
{ "type": "Feature", "properties": { "osmid": 5683593899.0 }, "geometry": { "type": "Point", "coordinates": [ 1195449.0, 8382453.0 ] } },
{ "type": "Feature", "properties": { "osmid": 8315397584.0 }, "geometry": { "type": "Point", "coordinates": [ 1210085.0, 8388247.0 ] } },
{ "type": "Feature", "properties": { "osmid": 1424670585.0 }, "geometry": { "type": "Point", "coordinates": [ 1196940.0, 8381631.0 ] } },
{ "type": "Feature", "properties": { "osmid": 288500448.0 }, "geometry": { "type": "Point", "coordinates": [ 1210449.0, 8390412.0 ] } },
{ "type": "Feature", "properties": { "osmid": 8507130312.0 }, "geometry": { "type": "Point", "coordinates": [ 1192935.0, 8384521.0 ] } },
{ "type": "Feature", "properties": { "osmid": 1486148582.0 }, "geometry": { "type": "Point", "coordinates": [ 1199057.0, 8381028.0 ] } },
{ "type": "Feature", "properties": { "osmid": 8379684730.0 }, "geometry": { "type": "Point", "coordinates": [ 1202766.0, 8381151.0 ] } },
{ "type": "Feature", "properties": { "osmid": 1834365215.0 }, "geometry": { "type": "Point", "coordinates": [ 1210498.0, 8391285.0 ] } },
{ "type": "Feature", "properties": { "osmid": 621515044.0 }, "geometry": { "type": "Point", "coordinates": [ 1207600.0, 8383815.0 ] } },
{ "type": "Feature", "properties": { "osmid": 660433.0 }, "geometry": { "type": "Point", "coordinates": [ 1196228.0, 8381852.0 ] } },
{ "type": "Feature", "properties": { "osmid": 8712274514.0 }, "geometry": { "type": "Point", "coordinates": [ 1200944.0, 8380858.0 ] } },
{ "type": "Feature", "properties": { "osmid": 248172137.0 }, "geometry": { "type": "Point", "coordinates": [ 1203625.0, 8381329.0 ] } },
{ "type": "Feature", "properties": { "osmid": 9987824660.0 }, "geometry": { "type": "Point", "coordinates": [ 1210483.0, 8392258.0 ] } },
{ "type": "Feature", "properties": { "osmid": 7300726390.0 }, "geometry": { "type": "Point", "coordinates": [ 1201590.0, 8380838.0 ] } },
{ "type": "Feature", "properties": { "osmid": 3471140042.0 }, "geometry": { "type": "Point", "coordinates": [ 1207038.0, 8383042.0 ] } },
{ "type": "Feature", "properties": { "osmid": 9229935492.0 }, "geometry": { "type": "Point", "coordinates": [ 1192427.0, 8384710.0 ] } },
{ "type": "Feature", "properties": { "osmid": 3779865460.0 }, "geometry": { "type": "Point", "coordinates": [ 1191021.0, 8387134.0 ] } },
{ "type": "Feature", "properties": { "osmid": 837552734.0 }, "geometry": { "type": "Point", "coordinates": [ 1204191.0, 8381247.0 ] } },
{ "type": "Feature", "properties": { "osmid": 364796424.0 }, "geometry": { "type": "Point", "coordinates": [ 1196473.0, 8381416.0 ] } },
{ "type": "Feature", "properties": { "osmid": 106161.0 }, "geometry": { "type": "Point", "coordinates": [ 1197692.0, 8380938.0 ] } },
{ "type": "Feature", "properties": { "osmid": 1239355640.0 }, "geometry": { "type": "Point", "coordinates": [ 1194030.0, 8382823.0 ] } },
{ "type": "Feature", "properties": { "osmid": 668172087.0 }, "geometry": { "type": "Point", "coordinates": [ 1210920.0, 8391613.0 ] } },
{ "type": "Feature", "properties": { "osmid": 659887.0 }, "geometry": { "type": "Point", "coordinates": [ 1196888.0, 8381103.0 ] } },
{ "type": "Feature", "properties": { "osmid": 28393072.0 }, "geometry": { "type": "Point", "coordinates": [ 1208931.0, 8384647.0 ] } },
{ "type": "Feature", "properties": { "osmid": 383994808.0 }, "geometry": { "type": "Point", "coordinates": [ 1194631.0, 8382248.0 ] } },
{ "type": "Feature", "properties": { "osmid": 3407746234.0 }, "geometry": { "type": "Point", "coordinates": [ 1192719.0, 8383803.0 ] } },
{ "type": "Feature", "properties": { "osmid": 11383129320.0 }, "geometry": { "type": "Point", "coordinates": [ 1201197.0, 8380329.0 ] } },
{ "type": "Feature", "properties": { "osmid": 2369807893.0 }, "geometry": { "type": "Point", "coordinates": [ 1210864.0, 8388588.0 ] } },
{ "type": "Feature", "properties": { "osmid": 16260227.0 }, "geometry": { "type": "Point", "coordinates": [ 1199293.0, 8380367.0 ] } },
{ "type": "Feature", "properties": { "osmid": 837373587.0 }, "geometry": { "type": "Point", "coordinates": [ 1204679.0, 8381075.0 ] } },
{ "type": "Feature", "properties": { "osmid": 1329126788.0 }, "geometry": { "type": "Point", "coordinates": [ 1211181.0, 8391171.0 ] } },
{ "type": "Feature", "properties": { "osmid": 1085973912.0 }, "geometry": { "type": "Point", "coordinates": [ 1202486.0, 8380397.0 ] } },
{ "type": "Feature", "properties": { "osmid": 442589600.0 }, "geometry": { "type": "Point", "coordinates": [ 1193040.0, 8383320.0 ] } },
{ "type": "Feature", "properties": { "osmid": 1312110795.0 }, "geometry": { "type": "Point", "coordinates": [ 1193527.0, 8382845.0 ] } },
{ "type": "Feature", "properties": { "osmid": 1454359134.0 }, "geometry": { "type": "Point", "coordinates": [ 1200154.0, 8380181.0 ] } },
{ "type": "Feature", "properties": { "osmid": 1703305302.0 }, "geometry": { "type": "Point", "coordinates": [ 1201812.0, 8380206.0 ] } },
{ "type": "Feature", "properties": { "osmid": 33721501.0 }, "geometry": { "type": "Point", "coordinates": [ 1189834.0, 8390358.0 ] } },
{ "type": "Feature", "properties": { "osmid": 286299290.0 }, "geometry": { "type": "Point", "coordinates": [ 1211181.0, 8392349.0 ] } },
{ "type": "Feature", "properties": { "osmid": 836394772.0 }, "geometry": { "type": "Point", "coordinates": [ 1204103.0, 8380685.0 ] } },
{ "type": "Feature", "properties": { "osmid": 611761.0 }, "geometry": { "type": "Point", "coordinates": [ 1197973.0, 8380368.0 ] } },
{ "type": "Feature", "properties": { "osmid": 328614.0 }, "geometry": { "type": "Point", "coordinates": [ 1200644.0, 8380047.0 ] } },
{ "type": "Feature", "properties": { "osmid": 8188435087.0 }, "geometry": { "type": "Point", "coordinates": [ 1198546.0, 8380195.0 ] } },
{ "type": "Feature", "properties": { "osmid": 11374206029.0 }, "geometry": { "type": "Point", "coordinates": [ 1191561.0, 8384788.0 ] } },
{ "type": "Feature", "properties": { "osmid": 12249058064.0 }, "geometry": { "type": "Point", "coordinates": [ 1203080.0, 8380302.0 ] } },
{ "type": "Feature", "properties": { "osmid": 1271971680.0 }, "geometry": { "type": "Point", "coordinates": [ 1194964.0, 8381443.0 ] } },
{ "type": "Feature", "properties": { "osmid": 33407701.0 }, "geometry": { "type": "Point", "coordinates": [ 1190448.0, 8386567.0 ] } },
{ "type": "Feature", "properties": { "osmid": 412840478.0 }, "geometry": { "type": "Point", "coordinates": [ 1211394.0, 8389019.0 ] } },
{ "type": "Feature", "properties": { "osmid": 418031664.0 }, "geometry": { "type": "Point", "coordinates": [ 1211577.0, 8390711.0 ] } },
{ "type": "Feature", "properties": { "osmid": 6190888739.0 }, "geometry": { "type": "Point", "coordinates": [ 1195697.0, 8380952.0 ] } },
{ "type": "Feature", "properties": { "osmid": 3538902382.0 }, "geometry": { "type": "Point", "coordinates": [ 1209358.0, 8384171.0 ] } },
{ "type": "Feature", "properties": { "osmid": 8694892045.0 }, "geometry": { "type": "Point", "coordinates": [ 1196678.0, 8380499.0 ] } },
{ "type": "Feature", "properties": { "osmid": 338997521.0 }, "geometry": { "type": "Point", "coordinates": [ 1191880.0, 8383992.0 ] } },
{ "type": "Feature", "properties": { "osmid": 291236912.0 }, "geometry": { "type": "Point", "coordinates": [ 1210045.0, 8385165.0 ] } },
{ "type": "Feature", "properties": { "osmid": 6139909287.0 }, "geometry": { "type": "Point", "coordinates": [ 1206470.0, 8381480.0 ] } },
{ "type": "Feature", "properties": { "osmid": 240688152.0 }, "geometry": { "type": "Point", "coordinates": [ 1201326.0, 8379794.0 ] } },
{ "type": "Feature", "properties": { "osmid": 87219441.0 }, "geometry": { "type": "Point", "coordinates": [ 1202313.0, 8379884.0 ] } },
{ "type": "Feature", "properties": { "osmid": 2780588188.0 }, "geometry": { "type": "Point", "coordinates": [ 1211799.0, 8391337.0 ] } },
{ "type": "Feature", "properties": { "osmid": 11374616984.0 }, "geometry": { "type": "Point", "coordinates": [ 1204871.0, 8380456.0 ] } },
{ "type": "Feature", "properties": { "osmid": 6139626618.0 }, "geometry": { "type": "Point", "coordinates": [ 1207062.0, 8381660.0 ] } },
{ "type": "Feature", "properties": { "osmid": 560084487.0 }, "geometry": { "type": "Point", "coordinates": [ 1189285.0, 8391195.0 ] } },
{ "type": "Feature", "properties": { "osmid": 267936877.0 }, "geometry": { "type": "Point", "coordinates": [ 1198071.0, 8379835.0 ] } },
{ "type": "Feature", "properties": { "osmid": 1485390121.0 }, "geometry": { "type": "Point", "coordinates": [ 1199674.0, 8379573.0 ] } },
{ "type": "Feature", "properties": { "osmid": 1329325794.0 }, "geometry": { "type": "Point", "coordinates": [ 1189240.0, 8389974.0 ] } },
{ "type": "Feature", "properties": { "osmid": 1672530870.0 }, "geometry": { "type": "Point", "coordinates": [ 1208360.0, 8382537.0 ] } },
{ "type": "Feature", "properties": { "osmid": 6076862332.0 }, "geometry": { "type": "Point", "coordinates": [ 1210110.0, 8384600.0 ] } },
{ "type": "Feature", "properties": { "osmid": 1287.0 }, "geometry": { "type": "Point", "coordinates": [ 1195152.0, 8380741.0 ] } },
{ "type": "Feature", "properties": { "osmid": 1189864368.0 }, "geometry": { "type": "Point", "coordinates": [ 1189088.0, 8390715.0 ] } },
{ "type": "Feature", "properties": { "osmid": 33653018.0 }, "geometry": { "type": "Point", "coordinates": [ 1189981.0, 8386365.0 ] } },
{ "type": "Feature", "properties": { "osmid": 2296749776.0 }, "geometry": { "type": "Point", "coordinates": [ 1191127.0, 8384221.0 ] } },
{ "type": "Feature", "properties": { "osmid": 9045445113.0 }, "geometry": { "type": "Point", "coordinates": [ 1209421.0, 8383473.0 ] } },
{ "type": "Feature", "properties": { "osmid": 6139909297.0 }, "geometry": { "type": "Point", "coordinates": [ 1206488.0, 8380959.0 ] } },
{ "type": "Feature", "properties": { "osmid": 4568585710.0 }, "geometry": { "type": "Point", "coordinates": [ 1200447.0, 8379315.0 ] } },
{ "type": "Feature", "properties": { "osmid": 8092775.0 }, "geometry": { "type": "Point", "coordinates": [ 1202671.0, 8379498.0 ] } },
{ "type": "Feature", "properties": { "osmid": 6139543689.0 }, "geometry": { "type": "Point", "coordinates": [ 1206001.0, 8380663.0 ] } },
{ "type": "Feature", "properties": { "osmid": 6076862344.0 }, "geometry": { "type": "Point", "coordinates": [ 1209991.0, 8384111.0 ] } },
{ "type": "Feature", "properties": { "osmid": 106354.0 }, "geometry": { "type": "Point", "coordinates": [ 1198866.0, 8379350.0 ] } },
{ "type": "Feature", "properties": { "osmid": 8386249835.0 }, "geometry": { "type": "Point", "coordinates": [ 1203275.0, 8379544.0 ] } },
{ "type": "Feature", "properties": { "osmid": 6060925699.0 }, "geometry": { "type": "Point", "coordinates": [ 1208979.0, 8382790.0 ] } },
{ "type": "Feature", "properties": { "osmid": 1141154620.0 }, "geometry": { "type": "Point", "coordinates": [ 1207613.0, 8381559.0 ] } },
{ "type": "Feature", "properties": { "osmid": 3779777823.0 }, "geometry": { "type": "Point", "coordinates": [ 1189026.0, 8388790.0 ] } },
{ "type": "Feature", "properties": { "osmid": 6187754260.0 }, "geometry": { "type": "Point", "coordinates": [ 1204491.0, 8379816.0 ] } },
{ "type": "Feature", "properties": { "osmid": 750633761.0 }, "geometry": { "type": "Point", "coordinates": [ 1212282.0, 8391485.0 ] } },
{ "type": "Feature", "properties": { "osmid": 2641398364.0 }, "geometry": { "type": "Point", "coordinates": [ 1199975.0, 8379112.0 ] } },
{ "type": "Feature", "properties": { "osmid": 6112398221.0 }, "geometry": { "type": "Point", "coordinates": [ 1205079.0, 8379951.0 ] } },
{ "type": "Feature", "properties": { "osmid": 750642938.0 }, "geometry": { "type": "Point", "coordinates": [ 1212373.0, 8390988.0 ] } },
{ "type": "Feature", "properties": { "osmid": 8046332087.0 }, "geometry": { "type": "Point", "coordinates": [ 1196782.0, 8379646.0 ] } },
{ "type": "Feature", "properties": { "osmid": 1807979739.0 }, "geometry": { "type": "Point", "coordinates": [ 1188780.0, 8389672.0 ] } },
{ "type": "Feature", "properties": { "osmid": 7300726571.0 }, "geometry": { "type": "Point", "coordinates": [ 1200979.0, 8379007.0 ] } },
{ "type": "Feature", "properties": { "osmid": 1702402124.0 }, "geometry": { "type": "Point", "coordinates": [ 1201850.0, 8379049.0 ] } },
{ "type": "Feature", "properties": { "osmid": 1445481682.0 }, "geometry": { "type": "Point", "coordinates": [ 1198124.0, 8379214.0 ] } },
{ "type": "Feature", "properties": { "osmid": 2849288255.0 }, "geometry": { "type": "Point", "coordinates": [ 1197334.0, 8379380.0 ] } },
{ "type": "Feature", "properties": { "osmid": 7868622614.0 }, "geometry": { "type": "Point", "coordinates": [ 1208447.0, 8381890.0 ] } },
{ "type": "Feature", "properties": { "osmid": 1350348164.0 }, "geometry": { "type": "Point", "coordinates": [ 1212284.0, 8388591.0 ] } },
{ "type": "Feature", "properties": { "osmid": 336501248.0 }, "geometry": { "type": "Point", "coordinates": [ 1193409.0, 8381242.0 ] } },
{ "type": "Feature", "properties": { "osmid": 1278853014.0 }, "geometry": { "type": "Point", "coordinates": [ 1203862.0, 8379323.0 ] } },
{ "type": "Feature", "properties": { "osmid": 9021420866.0 }, "geometry": { "type": "Point", "coordinates": [ 1212439.0, 8392511.0 ] } },
{ "type": "Feature", "properties": { "osmid": 6131382985.0 }, "geometry": { "type": "Point", "coordinates": [ 1205646.0, 8379961.0 ] } },
{ "type": "Feature", "properties": { "osmid": 277833.0 }, "geometry": { "type": "Point", "coordinates": [ 1192394.0, 8382005.0 ] } },
{ "type": "Feature", "properties": { "osmid": 6077522739.0 }, "geometry": { "type": "Point", "coordinates": [ 1210579.0, 8384188.0 ] } },
{ "type": "Feature", "properties": { "osmid": 1134762363.0 }, "geometry": { "type": "Point", "coordinates": [ 1190601.0, 8384015.0 ] } },
{ "type": "Feature", "properties": { "osmid": 33765567.0 }, "geometry": { "type": "Point", "coordinates": [ 1188949.0, 8387382.0 ] } },
{ "type": "Feature", "properties": { "osmid": 911662599.0 }, "geometry": { "type": "Point", "coordinates": [ 1206210.0, 8380141.0 ] } },
{ "type": "Feature", "properties": { "osmid": 5353273747.0 }, "geometry": { "type": "Point", "coordinates": [ 1189459.0, 8385965.0 ] } },
{ "type": "Feature", "properties": { "osmid": 568099722.0 }, "geometry": { "type": "Point", "coordinates": [ 1210275.0, 8383603.0 ] } },
{ "type": "Feature", "properties": { "osmid": 6069223720.0 }, "geometry": { "type": "Point", "coordinates": [ 1209432.0, 8382552.0 ] } },
{ "type": "Feature", "properties": { "osmid": 1340071280.0 }, "geometry": { "type": "Point", "coordinates": [ 1195568.0, 8379753.0 ] } },
{ "type": "Feature", "properties": { "osmid": 2291113576.0 }, "geometry": { "type": "Point", "coordinates": [ 1189066.0, 8386765.0 ] } },
{ "type": "Feature", "properties": { "osmid": 3097511336.0 }, "geometry": { "type": "Point", "coordinates": [ 1195056.0, 8379970.0 ] } },
{ "type": "Feature", "properties": { "osmid": 2667717527.0 }, "geometry": { "type": "Point", "coordinates": [ 1198610.0, 8378803.0 ] } },
{ "type": "Feature", "properties": { "osmid": 6796589523.0 }, "geometry": { "type": "Point", "coordinates": [ 1196249.0, 8379424.0 ] } },
{ "type": "Feature", "properties": { "osmid": 3470077327.0 }, "geometry": { "type": "Point", "coordinates": [ 1207072.0, 8380524.0 ] } },
{ "type": "Feature", "properties": { "osmid": 1493348083.0 }, "geometry": { "type": "Point", "coordinates": [ 1212729.0, 8391846.0 ] } },
{ "type": "Feature", "properties": { "osmid": 3270630037.0 }, "geometry": { "type": "Point", "coordinates": [ 1200354.0, 8378635.0 ] } },
{ "type": "Feature", "properties": { "osmid": 6053412965.0 }, "geometry": { "type": "Point", "coordinates": [ 1209063.0, 8382073.0 ] } },
{ "type": "Feature", "properties": { "osmid": 240676115.0 }, "geometry": { "type": "Point", "coordinates": [ 1211555.0, 8385490.0 ] } },
{ "type": "Feature", "properties": { "osmid": 7103477.0 }, "geometry": { "type": "Point", "coordinates": [ 1190862.0, 8383372.0 ] } },
{ "type": "Feature", "properties": { "osmid": 237097186.0 }, "geometry": { "type": "Point", "coordinates": [ 1212484.0, 8388016.0 ] } },
{ "type": "Feature", "properties": { "osmid": 7554540792.0 }, "geometry": { "type": "Point", "coordinates": [ 1191326.0, 8382667.0 ] } },
{ "type": "Feature", "properties": { "osmid": 1682276965.0 }, "geometry": { "type": "Point", "coordinates": [ 1212346.0, 8387232.0 ] } },
{ "type": "Feature", "properties": { "osmid": 6089503690.0 }, "geometry": { "type": "Point", "coordinates": [ 1211356.0, 8384842.0 ] } },
{ "type": "Feature", "properties": { "osmid": 1825866174.0 }, "geometry": { "type": "Point", "coordinates": [ 1212917.0, 8391355.0 ] } },
{ "type": "Feature", "properties": { "osmid": 1285166632.0 }, "geometry": { "type": "Point", "coordinates": [ 1201301.0, 8378476.0 ] } },
{ "type": "Feature", "properties": { "osmid": 11179121818.0 }, "geometry": { "type": "Point", "coordinates": [ 1204458.0, 8379063.0 ] } },
{ "type": "Feature", "properties": { "osmid": 286301366.0 }, "geometry": { "type": "Point", "coordinates": [ 1212819.0, 8393088.0 ] } },
{ "type": "Feature", "properties": { "osmid": 237100851.0 }, "geometry": { "type": "Point", "coordinates": [ 1211980.0, 8385815.0 ] } },
{ "type": "Feature", "properties": { "osmid": 1807979639.0 }, "geometry": { "type": "Point", "coordinates": [ 1188126.0, 8389594.0 ] } },
{ "type": "Feature", "properties": { "osmid": 6070213010.0 }, "geometry": { "type": "Point", "coordinates": [ 1210828.0, 8383728.0 ] } },
{ "type": "Feature", "properties": { "osmid": 6051707675.0 }, "geometry": { "type": "Point", "coordinates": [ 1208480.0, 8381166.0 ] } },
{ "type": "Feature", "properties": { "osmid": 5170182605.0 }, "geometry": { "type": "Point", "coordinates": [ 1210214.0, 8382883.0 ] } },
{ "type": "Feature", "properties": { "osmid": 5648369556.0 }, "geometry": { "type": "Point", "coordinates": [ 1206750.0, 8379965.0 ] } },
{ "type": "Feature", "properties": { "osmid": 1329698083.0 }, "geometry": { "type": "Point", "coordinates": [ 1212340.0, 8386602.0 ] } },
{ "type": "Feature", "properties": { "osmid": 1365825862.0 }, "geometry": { "type": "Point", "coordinates": [ 1194079.0, 8380101.0 ] } },
{ "type": "Feature", "properties": { "osmid": 285123122.0 }, "geometry": { "type": "Point", "coordinates": [ 1213043.0, 8392270.0 ] } },
{ "type": "Feature", "properties": { "osmid": 20229506.0 }, "geometry": { "type": "Point", "coordinates": [ 1190121.0, 8383816.0 ] } },
{ "type": "Feature", "properties": { "osmid": 1079118204.0 }, "geometry": { "type": "Point", "coordinates": [ 1199818.0, 8378280.0 ] } },
{ "type": "Feature", "properties": { "osmid": 25318320.0 }, "geometry": { "type": "Point", "coordinates": [ 1188887.0, 8386073.0 ] } },
{ "type": "Feature", "properties": { "osmid": 3270629966.0 }, "geometry": { "type": "Point", "coordinates": [ 1200657.0, 8378182.0 ] } },
{ "type": "Feature", "properties": { "osmid": 79422.0 }, "geometry": { "type": "Point", "coordinates": [ 1193329.0, 8380415.0 ] } },
{ "type": "Feature", "properties": { "osmid": 2293983177.0 }, "geometry": { "type": "Point", "coordinates": [ 1189227.0, 8385079.0 ] } },
{ "type": "Feature", "properties": { "osmid": 10171785338.0 }, "geometry": { "type": "Point", "coordinates": [ 1196082.0, 8378907.0 ] } },
{ "type": "Feature", "properties": { "osmid": 9010068663.0 }, "geometry": { "type": "Point", "coordinates": [ 1188956.0, 8385539.0 ] } },
{ "type": "Feature", "properties": { "osmid": 6087372510.0 }, "geometry": { "type": "Point", "coordinates": [ 1211980.0, 8385128.0 ] } },
{ "type": "Feature", "properties": { "osmid": 3764357893.0 }, "geometry": { "type": "Point", "coordinates": [ 1187858.0, 8388986.0 ] } },
{ "type": "Feature", "properties": { "osmid": 835696935.0 }, "geometry": { "type": "Point", "coordinates": [ 1212842.0, 8387080.0 ] } },
{ "type": "Feature", "properties": { "osmid": 6083392514.0 }, "geometry": { "type": "Point", "coordinates": [ 1211654.0, 8384361.0 ] } },
{ "type": "Feature", "properties": { "osmid": 1242392659.0 }, "geometry": { "type": "Point", "coordinates": [ 1198596.0, 8378087.0 ] } },
{ "type": "Feature", "properties": { "osmid": 9021421146.0 }, "geometry": { "type": "Point", "coordinates": [ 1213340.0, 8392686.0 ] } },
{ "type": "Feature", "properties": { "osmid": 2292759151.0 }, "geometry": { "type": "Point", "coordinates": [ 1189636.0, 8383944.0 ] } },
{ "type": "Feature", "properties": { "osmid": 412843107.0 }, "geometry": { "type": "Point", "coordinates": [ 1212577.0, 8386112.0 ] } },
{ "type": "Feature", "properties": { "osmid": 5627500918.0 }, "geometry": { "type": "Point", "coordinates": [ 1207421.0, 8379871.0 ] } },
{ "type": "Feature", "properties": { "osmid": 3805866204.0 }, "geometry": { "type": "Point", "coordinates": [ 1213512.0, 8391562.0 ] } },
{ "type": "Feature", "properties": { "osmid": 1533139322.0 }, "geometry": { "type": "Point", "coordinates": [ 1206536.0, 8379325.0 ] } },
{ "type": "Feature", "properties": { "osmid": 1256285586.0 }, "geometry": { "type": "Point", "coordinates": [ 1188209.0, 8386699.0 ] } },
{ "type": "Feature", "properties": { "osmid": 261055281.0 }, "geometry": { "type": "Point", "coordinates": [ 1204653.0, 8378478.0 ] } },
{ "type": "Feature", "properties": { "osmid": 265758913.0 }, "geometry": { "type": "Point", "coordinates": [ 1193450.0, 8379864.0 ] } },
{ "type": "Feature", "properties": { "osmid": 2533900385.0 }, "geometry": { "type": "Point", "coordinates": [ 1187800.0, 8387860.0 ] } },
{ "type": "Feature", "properties": { "osmid": 5631159312.0 }, "geometry": { "type": "Point", "coordinates": [ 1206133.0, 8378981.0 ] } },
{ "type": "Feature", "properties": { "osmid": 6751133256.0 }, "geometry": { "type": "Point", "coordinates": [ 1200310.0, 8377733.0 ] } },
{ "type": "Feature", "properties": { "osmid": 818530138.0 }, "geometry": { "type": "Point", "coordinates": [ 1213251.0, 8387500.0 ] } },
{ "type": "Feature", "properties": { "osmid": 6794518379.0 }, "geometry": { "type": "Point", "coordinates": [ 1197838.0, 8378002.0 ] } },
{ "type": "Feature", "properties": { "osmid": 34741792.0 }, "geometry": { "type": "Point", "coordinates": [ 1188984.0, 8384630.0 ] } },
{ "type": "Feature", "properties": { "osmid": 6051167148.0 }, "geometry": { "type": "Point", "coordinates": [ 1208708.0, 8380541.0 ] } },
{ "type": "Feature", "properties": { "osmid": 1455170164.0 }, "geometry": { "type": "Point", "coordinates": [ 1188685.0, 8385061.0 ] } },
{ "type": "Feature", "properties": { "osmid": 300530665.0 }, "geometry": { "type": "Point", "coordinates": [ 1213565.0, 8393300.0 ] } },
{ "type": "Feature", "properties": { "osmid": 7554447666.0 }, "geometry": { "type": "Point", "coordinates": [ 1190546.0, 8382165.0 ] } },
{ "type": "Feature", "properties": { "osmid": 6051370015.0 }, "geometry": { "type": "Point", "coordinates": [ 1208333.0, 8380115.0 ] } },
{ "type": "Feature", "properties": { "osmid": 3541970315.0 }, "geometry": { "type": "Point", "coordinates": [ 1213142.0, 8386506.0 ] } },
{ "type": "Feature", "properties": { "osmid": 8524974047.0 }, "geometry": { "type": "Point", "coordinates": [ 1188247.0, 8385661.0 ] } },
{ "type": "Feature", "properties": { "osmid": 6313246863.0 }, "geometry": { "type": "Point", "coordinates": [ 1203689.0, 8377848.0 ] } },
{ "type": "Feature", "properties": { "osmid": 262160528.0 }, "geometry": { "type": "Point", "coordinates": [ 1204271.0, 8377982.0 ] } },
{ "type": "Feature", "properties": { "osmid": 339776507.0 }, "geometry": { "type": "Point", "coordinates": [ 1189104.0, 8383885.0 ] } },
{ "type": "Feature", "properties": { "osmid": 11257707034.0 }, "geometry": { "type": "Point", "coordinates": [ 1195319.0, 8378490.0 ] } },
{ "type": "Feature", "properties": { "osmid": 8566868659.0 }, "geometry": { "type": "Point", "coordinates": [ 1196869.0, 8377935.0 ] } },
{ "type": "Feature", "properties": { "osmid": 6089646360.0 }, "geometry": { "type": "Point", "coordinates": [ 1213031.0, 8385864.0 ] } },
{ "type": "Feature", "properties": { "osmid": 1350363997.0 }, "geometry": { "type": "Point", "coordinates": [ 1213912.0, 8389101.0 ] } },
{ "type": "Feature", "properties": { "osmid": 25318278.0 }, "geometry": { "type": "Point", "coordinates": [ 1187908.0, 8386044.0 ] } },
{ "type": "Feature", "properties": { "osmid": 33325017.0 }, "geometry": { "type": "Point", "coordinates": [ 1213888.0, 8388397.0 ] } },
{ "type": "Feature", "properties": { "osmid": 864260299.0 }, "geometry": { "type": "Point", "coordinates": [ 1213640.0, 8387105.0 ] } },
{ "type": "Feature", "properties": { "osmid": 5618040436.0 }, "geometry": { "type": "Point", "coordinates": [ 1205441.0, 8378144.0 ] } },
{ "type": "Feature", "properties": { "osmid": 4142271543.0 }, "geometry": { "type": "Point", "coordinates": [ 1202017.0, 8377307.0 ] } },
{ "type": "Feature", "properties": { "osmid": 1329110114.0 }, "geometry": { "type": "Point", "coordinates": [ 1188438.0, 8384598.0 ] } },
{ "type": "Feature", "properties": { "osmid": 315858779.0 }, "geometry": { "type": "Point", "coordinates": [ 1192747.0, 8379633.0 ] } },
{ "type": "Feature", "properties": { "osmid": 3405907868.0 }, "geometry": { "type": "Point", "coordinates": [ 1191199.0, 8380885.0 ] } },
{ "type": "Feature", "properties": { "osmid": 2286781294.0 }, "geometry": { "type": "Point", "coordinates": [ 1214266.0, 8391279.0 ] } },
{ "type": "Feature", "properties": { "osmid": 34741847.0 }, "geometry": { "type": "Point", "coordinates": [ 1190434.0, 8381587.0 ] } },
{ "type": "Feature", "properties": { "osmid": 1557692776.0 }, "geometry": { "type": "Point", "coordinates": [ 1213966.0, 8387871.0 ] } },
{ "type": "Feature", "properties": { "osmid": 9162268228.0 }, "geometry": { "type": "Point", "coordinates": [ 1189579.0, 8382567.0 ] } },
{ "type": "Feature", "properties": { "osmid": 6779180695.0 }, "geometry": { "type": "Point", "coordinates": [ 1200491.0, 8377089.0 ] } },
{ "type": "Feature", "properties": { "osmid": 33765618.0 }, "geometry": { "type": "Point", "coordinates": [ 1187089.0, 8387948.0 ] } },
{ "type": "Feature", "properties": { "osmid": 12551673348.0 }, "geometry": { "type": "Point", "coordinates": [ 1213647.0, 8386512.0 ] } },
{ "type": "Feature", "properties": { "osmid": 329648301.0 }, "geometry": { "type": "Point", "coordinates": [ 1202713.0, 8377198.0 ] } },
{ "type": "Feature", "properties": { "osmid": 168372233.0 }, "geometry": { "type": "Point", "coordinates": [ 1187593.0, 8395683.0 ] } },
{ "type": "Feature", "properties": { "osmid": 792778101.0 }, "geometry": { "type": "Point", "coordinates": [ 1214363.0, 8389654.0 ] } },
{ "type": "Feature", "properties": { "osmid": 7846865559.0 }, "geometry": { "type": "Point", "coordinates": [ 1190723.0, 8381074.0 ] } },
{ "type": "Feature", "properties": { "osmid": 261054845.0 }, "geometry": { "type": "Point", "coordinates": [ 1203902.0, 8377376.0 ] } },
{ "type": "Feature", "properties": { "osmid": 3554713596.0 }, "geometry": { "type": "Point", "coordinates": [ 1192200.0, 8379743.0 ] } },
{ "type": "Feature", "properties": { "osmid": 5636075906.0 }, "geometry": { "type": "Point", "coordinates": [ 1189014.0, 8383090.0 ] } },
{ "type": "Feature", "properties": { "osmid": 5627500899.0 }, "geometry": { "type": "Point", "coordinates": [ 1207619.0, 8378865.0 ] } },
{ "type": "Feature", "properties": { "osmid": 1350363995.0 }, "geometry": { "type": "Point", "coordinates": [ 1214338.0, 8388823.0 ] } },
{ "type": "Feature", "properties": { "osmid": 1885797985.0 }, "geometry": { "type": "Point", "coordinates": [ 1199579.0, 8376926.0 ] } },
{ "type": "Feature", "properties": { "osmid": 4384420992.0 }, "geometry": { "type": "Point", "coordinates": [ 1187930.0, 8384874.0 ] } },
{ "type": "Feature", "properties": { "osmid": 2707754795.0 }, "geometry": { "type": "Point", "coordinates": [ 1197830.0, 8377095.0 ] } },
{ "type": "Feature", "properties": { "osmid": 3201956672.0 }, "geometry": { "type": "Point", "coordinates": [ 1188393.0, 8383832.0 ] } },
{ "type": "Feature", "properties": { "osmid": 3805869526.0 }, "geometry": { "type": "Point", "coordinates": [ 1214592.0, 8391814.0 ] } },
{ "type": "Feature", "properties": { "osmid": 6309000572.0 }, "geometry": { "type": "Point", "coordinates": [ 1203299.0, 8377046.0 ] } },
{ "type": "Feature", "properties": { "osmid": 412845382.0 }, "geometry": { "type": "Point", "coordinates": [ 1213603.0, 8385556.0 ] } },
{ "type": "Feature", "properties": { "osmid": 10923835372.0 }, "geometry": { "type": "Point", "coordinates": [ 1202314.0, 8376877.0 ] } },
{ "type": "Feature", "properties": { "osmid": 33325579.0 }, "geometry": { "type": "Point", "coordinates": [ 1214128.0, 8386973.0 ] } },
{ "type": "Feature", "properties": { "osmid": 485132018.0 }, "geometry": { "type": "Point", "coordinates": [ 1187160.0, 8395388.0 ] } },
{ "type": "Feature", "properties": { "osmid": 1256053678.0 }, "geometry": { "type": "Point", "coordinates": [ 1187452.0, 8385364.0 ] } },
{ "type": "Feature", "properties": { "osmid": 9721489996.0 }, "geometry": { "type": "Point", "coordinates": [ 1205620.0, 8377583.0 ] } },
{ "type": "Feature", "properties": { "osmid": 2811356477.0 }, "geometry": { "type": "Point", "coordinates": [ 1186486.0, 8388863.0 ] } },
{ "type": "Feature", "properties": { "osmid": 996326564.0 }, "geometry": { "type": "Point", "coordinates": [ 1211322.0, 8381534.0 ] } },
{ "type": "Feature", "properties": { "osmid": 5701945259.0 }, "geometry": { "type": "Point", "coordinates": [ 1213965.0, 8386038.0 ] } },
{ "type": "Feature", "properties": { "osmid": 4578253896.0 }, "geometry": { "type": "Point", "coordinates": [ 1186885.0, 8394961.0 ] } },
{ "type": "Feature", "properties": { "osmid": 315858589.0 }, "geometry": { "type": "Point", "coordinates": [ 1189394.0, 8381945.0 ] } },
{ "type": "Feature", "properties": { "osmid": 1291474167.0 }, "geometry": { "type": "Point", "coordinates": [ 1189734.0, 8381482.0 ] } },
{ "type": "Feature", "properties": { "osmid": 33362231.0 }, "geometry": { "type": "Point", "coordinates": [ 1214465.0, 8387407.0 ] } },
{ "type": "Feature", "properties": { "osmid": 792784189.0 }, "geometry": { "type": "Point", "coordinates": [ 1214864.0, 8389947.0 ] } },
{ "type": "Feature", "properties": { "osmid": 4720721619.0 }, "geometry": { "type": "Point", "coordinates": [ 1202789.0, 8376662.0 ] } },
{ "type": "Feature", "properties": { "osmid": 382465794.0 }, "geometry": { "type": "Point", "coordinates": [ 1214930.0, 8391038.0 ] } },
{ "type": "Feature", "properties": { "osmid": 2986724619.0 }, "geometry": { "type": "Point", "coordinates": [ 1200810.0, 8376464.0 ] } },
{ "type": "Feature", "properties": { "osmid": 335897984.0 }, "geometry": { "type": "Point", "coordinates": [ 1204301.0, 8376956.0 ] } },
{ "type": "Feature", "properties": { "osmid": 2454617671.0 }, "geometry": { "type": "Point", "coordinates": [ 1188394.0, 8383042.0 ] } },
{ "type": "Feature", "properties": { "osmid": 1689190693.0 }, "geometry": { "type": "Point", "coordinates": [ 1214925.0, 8392614.0 ] } },
{ "type": "Feature", "properties": { "osmid": 3766078615.0 }, "geometry": { "type": "Point", "coordinates": [ 1186128.0, 8389542.0 ] } },
{ "type": "Feature", "properties": { "osmid": 150718069.0 }, "geometry": { "type": "Point", "coordinates": [ 1215013.0, 8389338.0 ] } },
{ "type": "Feature", "properties": { "osmid": 315858671.0 }, "geometry": { "type": "Point", "coordinates": [ 1188774.0, 8382278.0 ] } },
{ "type": "Feature", "properties": { "osmid": 1816688584.0 }, "geometry": { "type": "Point", "coordinates": [ 1186141.0, 8388461.0 ] } },
{ "type": "Feature", "properties": { "osmid": 1256285794.0 }, "geometry": { "type": "Point", "coordinates": [ 1186255.0, 8387811.0 ] } },
{ "type": "Feature", "properties": { "osmid": 382465812.0 }, "geometry": { "type": "Point", "coordinates": [ 1215160.0, 8391785.0 ] } },
{ "type": "Feature", "properties": { "osmid": 2807857002.0 }, "geometry": { "type": "Point", "coordinates": [ 1201600.0, 8376227.0 ] } },
{ "type": "Feature", "properties": { "osmid": 2245432684.0 }, "geometry": { "type": "Point", "coordinates": [ 1186603.0, 8385949.0 ] } },
{ "type": "Feature", "properties": { "osmid": 792784147.0 }, "geometry": { "type": "Point", "coordinates": [ 1215360.0, 8390362.0 ] } },
{ "type": "Feature", "properties": { "osmid": 2613724190.0 }, "geometry": { "type": "Point", "coordinates": [ 1197533.0, 8376311.0 ] } },
{ "type": "Feature", "properties": { "osmid": 26131510.0 }, "geometry": { "type": "Point", "coordinates": [ 1198285.0, 8376167.0 ] } },
{ "type": "Feature", "properties": { "osmid": 1109564927.0 }, "geometry": { "type": "Point", "coordinates": [ 1203495.0, 8376286.0 ] } },
{ "type": "Feature", "properties": { "osmid": 1257636089.0 }, "geometry": { "type": "Point", "coordinates": [ 1215292.0, 8388691.0 ] } },
{ "type": "Feature", "properties": { "osmid": 3192172250.0 }, "geometry": { "type": "Point", "coordinates": [ 1204561.0, 8376480.0 ] } },
{ "type": "Feature", "properties": { "osmid": 2807431058.0 }, "geometry": { "type": "Point", "coordinates": [ 1205156.0, 8376651.0 ] } },
{ "type": "Feature", "properties": { "osmid": 5625965813.0 }, "geometry": { "type": "Point", "coordinates": [ 1206281.0, 8377064.0 ] } },
{ "type": "Feature", "properties": { "osmid": 33066073.0 }, "geometry": { "type": "Point", "coordinates": [ 1214821.0, 8386415.0 ] } },
{ "type": "Feature", "properties": { "osmid": 6095812671.0 }, "geometry": { "type": "Point", "coordinates": [ 1214668.0, 8385922.0 ] } },
{ "type": "Feature", "properties": { "osmid": 487100847.0 }, "geometry": { "type": "Point", "coordinates": [ 1186238.0, 8395194.0 ] } },
{ "type": "Feature", "properties": { "osmid": 35878826.0 }, "geometry": { "type": "Point", "coordinates": [ 1185713.0, 8388923.0 ] } },
{ "type": "Feature", "properties": { "osmid": 25705904.0 }, "geometry": { "type": "Point", "coordinates": [ 1187755.0, 8383006.0 ] } },
{ "type": "Feature", "properties": { "osmid": 265624117.0 }, "geometry": { "type": "Point", "coordinates": [ 1187129.0, 8384094.0 ] } },
{ "type": "Feature", "properties": { "osmid": 1757413057.0 }, "geometry": { "type": "Point", "coordinates": [ 1185598.0, 8392353.0 ] } },
{ "type": "Feature", "properties": { "osmid": 5627500878.0 }, "geometry": { "type": "Point", "coordinates": [ 1207530.0, 8377533.0 ] } },
{ "type": "Feature", "properties": { "osmid": 1240246553.0 }, "geometry": { "type": "Point", "coordinates": [ 1215574.0, 8392080.0 ] } },
{ "type": "Feature", "properties": { "osmid": 1369291254.0 }, "geometry": { "type": "Point", "coordinates": [ 1201169.0, 8375771.0 ] } },
{ "type": "Feature", "properties": { "osmid": 11341418066.0 }, "geometry": { "type": "Point", "coordinates": [ 1185697.0, 8388139.0 ] } },
{ "type": "Feature", "properties": { "osmid": 35878852.0 }, "geometry": { "type": "Point", "coordinates": [ 1185469.0, 8389559.0 ] } },
{ "type": "Feature", "properties": { "osmid": 236988865.0 }, "geometry": { "type": "Point", "coordinates": [ 1215654.0, 8392651.0 ] } },
{ "type": "Feature", "properties": { "osmid": 6898179054.0 }, "geometry": { "type": "Point", "coordinates": [ 1198792.0, 8375740.0 ] } },
{ "type": "Feature", "properties": { "osmid": 312533539.0 }, "geometry": { "type": "Point", "coordinates": [ 1200113.0, 8375594.0 ] } },
{ "type": "Feature", "properties": { "osmid": 385613426.0 }, "geometry": { "type": "Point", "coordinates": [ 1215777.0, 8389711.0 ] } },
{ "type": "Feature", "properties": { "osmid": 6090945272.0 }, "geometry": { "type": "Point", "coordinates": [ 1214724.0, 8385141.0 ] } },
{ "type": "Feature", "properties": { "osmid": 1770721126.0 }, "geometry": { "type": "Point", "coordinates": [ 1185996.0, 8395651.0 ] } },
{ "type": "Feature", "properties": { "osmid": 11914014710.0 }, "geometry": { "type": "Point", "coordinates": [ 1185376.0, 8393158.0 ] } },
{ "type": "Feature", "properties": { "osmid": 33065915.0 }, "geometry": { "type": "Point", "coordinates": [ 1215318.0, 8386633.0 ] } },
{ "type": "Feature", "properties": { "osmid": 49475237.0 }, "geometry": { "type": "Point", "coordinates": [ 1215819.0, 8389077.0 ] } },
{ "type": "Feature", "properties": { "osmid": 3270430270.0 }, "geometry": { "type": "Point", "coordinates": [ 1185187.0, 8391371.0 ] } },
{ "type": "Feature", "properties": { "osmid": 339322216.0 }, "geometry": { "type": "Point", "coordinates": [ 1215927.0, 8390437.0 ] } },
{ "type": "Feature", "properties": { "osmid": 3850205761.0 }, "geometry": { "type": "Point", "coordinates": [ 1215929.0, 8391233.0 ] } },
{ "type": "Feature", "properties": { "osmid": 382465865.0 }, "geometry": { "type": "Point", "coordinates": [ 1215776.0, 8393299.0 ] } },
{ "type": "Feature", "properties": { "osmid": 6096411767.0 }, "geometry": { "type": "Point", "coordinates": [ 1215102.0, 8385569.0 ] } },
{ "type": "Feature", "properties": { "osmid": 1434413196.0 }, "geometry": { "type": "Point", "coordinates": [ 1187221.0, 8382985.0 ] } },
{ "type": "Feature", "properties": { "osmid": 3185370419.0 }, "geometry": { "type": "Point", "coordinates": [ 1186613.0, 8384065.0 ] } },
{ "type": "Feature", "properties": { "osmid": 7842933.0 }, "geometry": { "type": "Point", "coordinates": [ 1185238.0, 8388432.0 ] } },
{ "type": "Feature", "properties": { "osmid": 1698542910.0 }, "geometry": { "type": "Point", "coordinates": [ 1206406.0, 8376421.0 ] } },
{ "type": "Feature", "properties": { "osmid": 35346060.0 }, "geometry": { "type": "Point", "coordinates": [ 1215949.0, 8388439.0 ] } },
{ "type": "Feature", "properties": { "osmid": 3270430312.0 }, "geometry": { "type": "Point", "coordinates": [ 1185002.0, 8392108.0 ] } },
{ "type": "Feature", "properties": { "osmid": 1757413206.0 }, "geometry": { "type": "Point", "coordinates": [ 1185102.0, 8393577.0 ] } },
{ "type": "Feature", "properties": { "osmid": 417224934.0 }, "geometry": { "type": "Point", "coordinates": [ 1185840.0, 8385399.0 ] } },
{ "type": "Feature", "properties": { "osmid": 38482704.0 }, "geometry": { "type": "Point", "coordinates": [ 1216225.0, 8389984.0 ] } },
{ "type": "Feature", "properties": { "osmid": 382465889.0 }, "geometry": { "type": "Point", "coordinates": [ 1216015.0, 8393841.0 ] } },
{ "type": "Feature", "properties": { "osmid": 35878967.0 }, "geometry": { "type": "Point", "coordinates": [ 1186135.0, 8384491.0 ] } },
{ "type": "Feature", "properties": { "osmid": 3765446319.0 }, "geometry": { "type": "Point", "coordinates": [ 1199579.0, 8375123.0 ] } },
{ "type": "Feature", "properties": { "osmid": 1258588155.0 }, "geometry": { "type": "Point", "coordinates": [ 1216243.0, 8389361.0 ] } },
{ "type": "Feature", "properties": { "osmid": 417224951.0 }, "geometry": { "type": "Point", "coordinates": [ 1185571.0, 8385929.0 ] } },
{ "type": "Feature", "properties": { "osmid": 1238335851.0 }, "geometry": { "type": "Point", "coordinates": [ 1216219.0, 8392698.0 ] } },
{ "type": "Feature", "properties": { "osmid": 1238427143.0 }, "geometry": { "type": "Point", "coordinates": [ 1216362.0, 8391539.0 ] } },
{ "type": "Feature", "properties": { "osmid": 38497654.0 }, "geometry": { "type": "Point", "coordinates": [ 1216265.0, 8388838.0 ] } },
{ "type": "Feature", "properties": { "osmid": 841819593.0 }, "geometry": { "type": "Point", "coordinates": [ 1184848.0, 8392923.0 ] } },
{ "type": "Feature", "properties": { "osmid": 2560147620.0 }, "geometry": { "type": "Point", "coordinates": [ 1216394.0, 8391034.0 ] } },
{ "type": "Feature", "properties": { "osmid": 1340277555.0 }, "geometry": { "type": "Point", "coordinates": [ 1184709.0, 8390156.0 ] } },
{ "type": "Feature", "properties": { "osmid": 5628295794.0 }, "geometry": { "type": "Point", "coordinates": [ 1206883.0, 8376269.0 ] } },
{ "type": "Feature", "properties": { "osmid": 1238335825.0 }, "geometry": { "type": "Point", "coordinates": [ 1216300.0, 8393349.0 ] } },
{ "type": "Feature", "properties": { "osmid": 1427409940.0 }, "geometry": { "type": "Point", "coordinates": [ 1215241.0, 8384618.0 ] } },
{ "type": "Feature", "properties": { "osmid": 6108965469.0 }, "geometry": { "type": "Point", "coordinates": [ 1215501.0, 8385216.0 ] } },
{ "type": "Feature", "properties": { "osmid": 3783605237.0 }, "geometry": { "type": "Point", "coordinates": [ 1184565.0, 8390987.0 ] } },
{ "type": "Feature", "properties": { "osmid": 287992472.0 }, "geometry": { "type": "Point", "coordinates": [ 1216169.0, 8394322.0 ] } },
{ "type": "Feature", "properties": { "osmid": 5196932010.0 }, "geometry": { "type": "Point", "coordinates": [ 1198926.0, 8374921.0 ] } },
{ "type": "Feature", "properties": { "osmid": 3566761322.0 }, "geometry": { "type": "Point", "coordinates": [ 1186182.0, 8383726.0 ] } },
{ "type": "Feature", "properties": { "osmid": 4077403186.0 }, "geometry": { "type": "Point", "coordinates": [ 1216607.0, 8390323.0 ] } },
{ "type": "Feature", "properties": { "osmid": 3311017069.0 }, "geometry": { "type": "Point", "coordinates": [ 1187289.0, 8381695.0 ] } },
{ "type": "Feature", "properties": { "osmid": 35347947.0 }, "geometry": { "type": "Point", "coordinates": [ 1216466.0, 8388218.0 ] } },
{ "type": "Feature", "properties": { "osmid": 1476567703.0 }, "geometry": { "type": "Point", "coordinates": [ 1186637.0, 8382647.0 ] } },
{ "type": "Feature", "properties": { "osmid": 12180655209.0 }, "geometry": { "type": "Point", "coordinates": [ 1203756.0, 8375011.0 ] } },
{ "type": "Feature", "properties": { "osmid": 5198726004.0 }, "geometry": { "type": "Point", "coordinates": [ 1200451.0, 8374689.0 ] } },
{ "type": "Feature", "properties": { "osmid": 264767230.0 }, "geometry": { "type": "Point", "coordinates": [ 1202260.0, 8374707.0 ] } },
{ "type": "Feature", "properties": { "osmid": 7448322252.0 }, "geometry": { "type": "Point", "coordinates": [ 1184296.0, 8391860.0 ] } },
{ "type": "Feature", "properties": { "osmid": 3719368792.0 }, "geometry": { "type": "Point", "coordinates": [ 1216725.0, 8392813.0 ] } },
{ "type": "Feature", "properties": { "osmid": 6109652895.0 }, "geometry": { "type": "Point", "coordinates": [ 1216013.0, 8385637.0 ] } },
{ "type": "Feature", "properties": { "osmid": 1329340960.0 }, "geometry": { "type": "Point", "coordinates": [ 1184886.0, 8386199.0 ] } },
{ "type": "Feature", "properties": { "osmid": 38472668.0 }, "geometry": { "type": "Point", "coordinates": [ 1216898.0, 8391057.0 ] } },
{ "type": "Feature", "properties": { "osmid": 8189057140.0 }, "geometry": { "type": "Point", "coordinates": [ 1216848.0, 8389377.0 ] } },
{ "type": "Feature", "properties": { "osmid": 1209335327.0 }, "geometry": { "type": "Point", "coordinates": [ 1216659.0, 8393924.0 ] } },
{ "type": "Feature", "properties": { "osmid": 5612250625.0 }, "geometry": { "type": "Point", "coordinates": [ 1206899.0, 8375725.0 ] } },
{ "type": "Feature", "properties": { "osmid": 1857957677.0 }, "geometry": { "type": "Point", "coordinates": [ 1216946.0, 8388880.0 ] } },
{ "type": "Feature", "properties": { "osmid": 6109188198.0 }, "geometry": { "type": "Point", "coordinates": [ 1216052.0, 8385110.0 ] } },
{ "type": "Feature", "properties": { "osmid": 287991922.0 }, "geometry": { "type": "Point", "coordinates": [ 1216407.0, 8395552.0 ] } },
{ "type": "Feature", "properties": { "osmid": 4077403170.0 }, "geometry": { "type": "Point", "coordinates": [ 1217104.0, 8390110.0 ] } },
{ "type": "Feature", "properties": { "osmid": 496877235.0 }, "geometry": { "type": "Point", "coordinates": [ 1185985.0, 8382899.0 ] } },
{ "type": "Feature", "properties": { "osmid": 6681469553.0 }, "geometry": { "type": "Point", "coordinates": [ 1216757.0, 8394454.0 ] } },
{ "type": "Feature", "properties": { "osmid": 3194379348.0 }, "geometry": { "type": "Point", "coordinates": [ 1206150.0, 8375178.0 ] } },
{ "type": "Feature", "properties": { "osmid": 1073681420.0 }, "geometry": { "type": "Point", "coordinates": [ 1217254.0, 8390691.0 ] } },
{ "type": "Feature", "properties": { "osmid": 3633240645.0 }, "geometry": { "type": "Point", "coordinates": [ 1217029.0, 8387563.0 ] } },
{ "type": "Feature", "properties": { "osmid": 2363351119.0 }, "geometry": { "type": "Point", "coordinates": [ 1185036.0, 8384349.0 ] } },
{ "type": "Feature", "properties": { "osmid": 1283158370.0 }, "geometry": { "type": "Point", "coordinates": [ 1185426.0, 8383473.0 ] } },
{ "type": "Feature", "properties": { "osmid": 3265531975.0 }, "geometry": { "type": "Point", "coordinates": [ 1184481.0, 8385816.0 ] } },
{ "type": "Feature", "properties": { "osmid": 1276384039.0 }, "geometry": { "type": "Point", "coordinates": [ 1184314.0, 8386297.0 ] } },
{ "type": "Feature", "properties": { "osmid": 3542138341.0 }, "geometry": { "type": "Point", "coordinates": [ 1216636.0, 8385754.0 ] } },
{ "type": "Feature", "properties": { "osmid": 103702.0 }, "geometry": { "type": "Point", "coordinates": [ 1217509.0, 8389747.0 ] } },
{ "type": "Feature", "properties": { "osmid": 5607847128.0 }, "geometry": { "type": "Point", "coordinates": [ 1207644.0, 8375400.0 ] } },
{ "type": "Feature", "properties": { "osmid": 33589293.0 }, "geometry": { "type": "Point", "coordinates": [ 1217358.0, 8388157.0 ] } },
{ "type": "Feature", "properties": { "osmid": 6964910541.0 }, "geometry": { "type": "Point", "coordinates": [ 1202639.0, 8373959.0 ] } },
{ "type": "Feature", "properties": { "osmid": 12180655194.0 }, "geometry": { "type": "Point", "coordinates": [ 1204184.0, 8374187.0 ] } },
{ "type": "Feature", "properties": { "osmid": 6900006636.0 }, "geometry": { "type": "Point", "coordinates": [ 1198961.0, 8373816.0 ] } },
{ "type": "Feature", "properties": { "osmid": 530826114.0 }, "geometry": { "type": "Point", "coordinates": [ 1183432.0, 8391081.0 ] } },
{ "type": "Feature", "properties": { "osmid": 487236068.0 }, "geometry": { "type": "Point", "coordinates": [ 1184334.0, 8385037.0 ] } },
{ "type": "Feature", "properties": { "osmid": 1511971288.0 }, "geometry": { "type": "Point", "coordinates": [ 1217249.0, 8386538.0 ] } },
{ "type": "Feature", "properties": { "osmid": 26459965.0 }, "geometry": { "type": "Point", "coordinates": [ 1217184.0, 8385997.0 ] } },
{ "type": "Feature", "properties": { "osmid": 6939072182.0 }, "geometry": { "type": "Point", "coordinates": [ 1203702.0, 8373812.0 ] } },
{ "type": "Feature", "properties": { "osmid": 1695268641.0 }, "geometry": { "type": "Point", "coordinates": [ 1184821.0, 8383310.0 ] } },
{ "type": "Feature", "properties": { "osmid": 87825455.0 }, "geometry": { "type": "Point", "coordinates": [ 1200402.0, 8373342.0 ] } },
{ "type": "Feature", "properties": { "osmid": 265624175.0 }, "geometry": { "type": "Point", "coordinates": [ 1184963.0, 8382818.0 ] } },
{ "type": "Feature", "properties": { "osmid": 3197474148.0 }, "geometry": { "type": "Point", "coordinates": [ 1208045.0, 8374975.0 ] } },
{ "type": "Feature", "properties": { "osmid": 33589364.0 }, "geometry": { "type": "Point", "coordinates": [ 1218025.0, 8388759.0 ] } },
{ "type": "Feature", "properties": { "osmid": 265758854.0 }, "geometry": { "type": "Point", "coordinates": [ 1186010.0, 8380942.0 ] } },
{ "type": "Feature", "properties": { "osmid": 265624192.0 }, "geometry": { "type": "Point", "coordinates": [ 1185180.0, 8382272.0 ] } },
{ "type": "Feature", "properties": { "osmid": 7644169756.0 }, "geometry": { "type": "Point", "coordinates": [ 1189343.0, 8377202.0 ] } },
{ "type": "Feature", "properties": { "osmid": 3265531799.0 }, "geometry": { "type": "Point", "coordinates": [ 1184222.0, 8383993.0 ] } },
{ "type": "Feature", "properties": { "osmid": 5611113390.0 }, "geometry": { "type": "Point", "coordinates": [ 1207019.0, 8374348.0 ] } },
{ "type": "Feature", "properties": { "osmid": 469305834.0 }, "geometry": { "type": "Point", "coordinates": [ 1182992.0, 8393429.0 ] } },
{ "type": "Feature", "properties": { "osmid": 6110742740.0 }, "geometry": { "type": "Point", "coordinates": [ 1217796.0, 8386588.0 ] } },
{ "type": "Feature", "properties": { "osmid": 6900425456.0 }, "geometry": { "type": "Point", "coordinates": [ 1199203.0, 8373118.0 ] } },
{ "type": "Feature", "properties": { "osmid": 9558400474.0 }, "geometry": { "type": "Point", "coordinates": [ 1184330.0, 8383442.0 ] } },
{ "type": "Feature", "properties": { "osmid": 6939072138.0 }, "geometry": { "type": "Point", "coordinates": [ 1203757.0, 8373280.0 ] } },
{ "type": "Feature", "properties": { "osmid": 1072621825.0 }, "geometry": { "type": "Point", "coordinates": [ 1218562.0, 8388911.0 ] } },
{ "type": "Feature", "properties": { "osmid": 11125610018.0 }, "geometry": { "type": "Point", "coordinates": [ 1207586.0, 8374125.0 ] } },
{ "type": "Feature", "properties": { "osmid": 1469877963.0 }, "geometry": { "type": "Point", "coordinates": [ 1207117.0, 8373842.0 ] } },
{ "type": "Feature", "properties": { "osmid": 5611812014.0 }, "geometry": { "type": "Point", "coordinates": [ 1208172.0, 8374266.0 ] } },
{ "type": "Feature", "properties": { "osmid": 487436452.0 }, "geometry": { "type": "Point", "coordinates": [ 1184384.0, 8382236.0 ] } },
{ "type": "Feature", "properties": { "osmid": 7644169770.0 }, "geometry": { "type": "Point", "coordinates": [ 1188786.0, 8376780.0 ] } },
{ "type": "Feature", "properties": { "osmid": 3481860247.0 }, "geometry": { "type": "Point", "coordinates": [ 1188248.0, 8377246.0 ] } },
{ "type": "Feature", "properties": { "osmid": 1642066453.0 }, "geometry": { "type": "Point", "coordinates": [ 1184759.0, 8381449.0 ] } },
{ "type": "Feature", "properties": { "osmid": 9934210232.0 }, "geometry": { "type": "Point", "coordinates": [ 1183544.0, 8383581.0 ] } },
{ "type": "Feature", "properties": { "osmid": 514751267.0 }, "geometry": { "type": "Point", "coordinates": [ 1185301.0, 8380373.0 ] } },
{ "type": "Feature", "properties": { "osmid": 5587070210.0 }, "geometry": { "type": "Point", "coordinates": [ 1208511.0, 8373863.0 ] } },
{ "type": "Feature", "properties": { "osmid": 6935445793.0 }, "geometry": { "type": "Point", "coordinates": [ 1203373.0, 8372289.0 ] } },
{ "type": "Feature", "properties": { "osmid": 1396503950.0 }, "geometry": { "type": "Point", "coordinates": [ 1184075.0, 8381417.0 ] } },
{ "type": "Feature", "properties": { "osmid": 9934199790.0 }, "geometry": { "type": "Point", "coordinates": [ 1183695.0, 8382088.0 ] } },
{ "type": "Feature", "properties": { "osmid": 3186999739.0 }, "geometry": { "type": "Point", "coordinates": [ 1184507.0, 8380636.0 ] } },
{ "type": "Feature", "properties": { "osmid": 2291797192.0 }, "geometry": { "type": "Point", "coordinates": [ 1199883.0, 8371705.0 ] } },
{ "type": "Feature", "properties": { "osmid": 426660069.0 }, "geometry": { "type": "Point", "coordinates": [ 1205392.0, 8372313.0 ] } },
{ "type": "Feature", "properties": { "osmid": 950749020.0 }, "geometry": { "type": "Point", "coordinates": [ 1203963.0, 8371758.0 ] } },
{ "type": "Feature", "properties": { "osmid": 4975106835.0 }, "geometry": { "type": "Point", "coordinates": [ 1203356.0, 8371617.0 ] } },
{ "type": "Feature", "properties": { "osmid": 487365422.0 }, "geometry": { "type": "Point", "coordinates": [ 1183683.0, 8380981.0 ] } },
{ "type": "Feature", "properties": { "osmid": 6942408095.0 }, "geometry": { "type": "Point", "coordinates": [ 1202232.0, 8371219.0 ] } },
{ "type": "Feature", "properties": { "osmid": 266560410.0 }, "geometry": { "type": "Point", "coordinates": [ 1201496.0, 8371052.0 ] } },
{ "type": "Feature", "properties": { "osmid": 950748845.0 }, "geometry": { "type": "Point", "coordinates": [ 1204186.0, 8371269.0 ] } },
{ "type": "Feature", "properties": { "osmid": 262182512.0 }, "geometry": { "type": "Point", "coordinates": [ 1203542.0, 8370941.0 ] } },
{ "type": "Feature", "properties": { "osmid": 6903989189.0 }, "geometry": { "type": "Point", "coordinates": [ 1200264.0, 8370569.0 ] } },
{ "type": "Feature", "properties": { "osmid": 27363014.0 }, "geometry": { "type": "Point", "coordinates": [ 1206339.0, 8371387.0 ] } },
{ "type": "Feature", "properties": { "osmid": 1398847225.0 }, "geometry": { "type": "Point", "coordinates": [ 1205451.0, 8371040.0 ] } },
{ "type": "Feature", "properties": { "osmid": 1709728184.0 }, "geometry": { "type": "Point", "coordinates": [ 1204565.0, 8370684.0 ] } },
{ "type": "Feature", "properties": { "osmid": 4361023572.0 }, "geometry": { "type": "Point", "coordinates": [ 1205964.0, 8370998.0 ] } },
{ "type": "Feature", "properties": { "osmid": 404316687.0 }, "geometry": { "type": "Point", "coordinates": [ 1207938.0, 8371442.0 ] } },
{ "type": "Feature", "properties": { "osmid": 6606570051.0 }, "geometry": { "type": "Point", "coordinates": [ 1197789.0, 8370263.0 ] } },
{ "type": "Feature", "properties": { "osmid": 4362031215.0 }, "geometry": { "type": "Point", "coordinates": [ 1206717.0, 8370993.0 ] } },
{ "type": "Feature", "properties": { "osmid": 6942408367.0 }, "geometry": { "type": "Point", "coordinates": [ 1202012.0, 8370108.0 ] } },
{ "type": "Feature", "properties": { "osmid": 261904457.0 }, "geometry": { "type": "Point", "coordinates": [ 1204243.0, 8370248.0 ] } },
{ "type": "Feature", "properties": { "osmid": 505438814.0 }, "geometry": { "type": "Point", "coordinates": [ 1200535.0, 8369848.0 ] } },
{ "type": "Feature", "properties": { "osmid": 10604228499.0 }, "geometry": { "type": "Point", "coordinates": [ 1203836.0, 8369938.0 ] } },
{ "type": "Feature", "properties": { "osmid": 4366915912.0 }, "geometry": { "type": "Point", "coordinates": [ 1206730.0, 8370478.0 ] } },
{ "type": "Feature", "properties": { "osmid": 4881183756.0 }, "geometry": { "type": "Point", "coordinates": [ 1207616.0, 8370692.0 ] } },
{ "type": "Feature", "properties": { "osmid": 4360146094.0 }, "geometry": { "type": "Point", "coordinates": [ 1205790.0, 8369461.0 ] } },
{ "type": "Feature", "properties": { "osmid": 257399752.0 }, "geometry": { "type": "Point", "coordinates": [ 1205394.0, 8369012.0 ] } },
{ "type": "Feature", "properties": { "osmid": 257426275.0 }, "geometry": { "type": "Point", "coordinates": [ 1204569.0, 8368320.0 ] } },
{ "type": "Feature", "properties": { "osmid": 2512216400.0 }, "geometry": { "type": "Point", "coordinates": [ 1205056.0, 8367997.0 ] } },
{ "type": "Feature", "properties": { "osmid": 6918421887.0 }, "geometry": { "type": "Point", "coordinates": [ 1202505.0, 8367403.0 ] } },
{ "type": "Feature", "properties": { "osmid": 6604579390.0 }, "geometry": { "type": "Point", "coordinates": [ 1205411.0, 8367570.0 ] } },
{ "type": "Feature", "properties": { "osmid": 26283088.0 }, "geometry": { "type": "Point", "coordinates": [ 1201454.0, 8366923.0 ] } },
{ "type": "Feature", "properties": { "osmid": 6602003002.0 }, "geometry": { "type": "Point", "coordinates": [ 1204863.0, 8367203.0 ] } },
{ "type": "Feature", "properties": { "osmid": 6918709255.0 }, "geometry": { "type": "Point", "coordinates": [ 1202514.0, 8366812.0 ] } },
{ "type": "Feature", "properties": { "osmid": 257388927.0 }, "geometry": { "type": "Point", "coordinates": [ 1205333.0, 8366988.0 ] } },
{ "type": "Feature", "properties": { "osmid": 4369416883.0 }, "geometry": { "type": "Point", "coordinates": [ 1206847.0, 8366968.0 ] } },
{ "type": "Feature", "properties": { "osmid": 1340965681.0 }, "geometry": { "type": "Point", "coordinates": [ 1202684.0, 8366237.0 ] } },
{ "type": "Feature", "properties": { "osmid": 6535033274.0 }, "geometry": { "type": "Point", "coordinates": [ 1201757.0, 8366173.0 ] } },
{ "type": "Feature", "properties": { "osmid": 6916078815.0 }, "geometry": { "type": "Point", "coordinates": [ 1201223.0, 8366086.0 ] } },
{ "type": "Feature", "properties": { "osmid": 12509226070.0 }, "geometry": { "type": "Point", "coordinates": [ 1206395.0, 8366690.0 ] } },
{ "type": "Feature", "properties": { "osmid": 5505968340.0 }, "geometry": { "type": "Point", "coordinates": [ 1205416.0, 8366469.0 ] } },
{ "type": "Feature", "properties": { "osmid": 6535898020.0 }, "geometry": { "type": "Point", "coordinates": [ 1204283.0, 8366021.0 ] } },
{ "type": "Feature", "properties": { "osmid": 257401065.0 }, "geometry": { "type": "Point", "coordinates": [ 1206750.0, 8366337.0 ] } },
{ "type": "Feature", "properties": { "osmid": 6343187726.0 }, "geometry": { "type": "Point", "coordinates": [ 1203084.0, 8365622.0 ] } },
{ "type": "Feature", "properties": { "osmid": 2809415432.0 }, "geometry": { "type": "Point", "coordinates": [ 1202540.0, 8365444.0 ] } },
{ "type": "Feature", "properties": { "osmid": 6342741936.0 }, "geometry": { "type": "Point", "coordinates": [ 1203532.0, 8365344.0 ] } },
{ "type": "Feature", "properties": { "osmid": 6343187552.0 }, "geometry": { "type": "Point", "coordinates": [ 1203026.0, 8365050.0 ] } },
{ "type": "Feature", "properties": { "osmid": 1642134816.0 }, "geometry": { "type": "Point", "coordinates": [ 1201167.0, 8364828.0 ] } },
{ "type": "Feature", "properties": { "osmid": 1139932660.0 }, "geometry": { "type": "Point", "coordinates": [ 1200567.0, 8364773.0 ] } },
{ "type": "Feature", "properties": { "osmid": 3712138930.0 }, "geometry": { "type": "Point", "coordinates": [ 1201792.0, 8364779.0 ] } },
{ "type": "Feature", "properties": { "osmid": 1793352943.0 }, "geometry": { "type": "Point", "coordinates": [ 1204392.0, 8364997.0 ] } },
{ "type": "Feature", "properties": { "osmid": 1308812046.0 }, "geometry": { "type": "Point", "coordinates": [ 1205463.0, 8365110.0 ] } },
{ "type": "Feature", "properties": { "osmid": 257398010.0 }, "geometry": { "type": "Point", "coordinates": [ 1206738.0, 8365293.0 ] } },
{ "type": "Feature", "properties": { "osmid": 6534228703.0 }, "geometry": { "type": "Point", "coordinates": [ 1200069.0, 8364532.0 ] } },
{ "type": "Feature", "properties": { "osmid": 1642135211.0 }, "geometry": { "type": "Point", "coordinates": [ 1201422.0, 8364391.0 ] } },
{ "type": "Feature", "properties": { "osmid": 6343556374.0 }, "geometry": { "type": "Point", "coordinates": [ 1203583.0, 8364444.0 ] } },
{ "type": "Feature", "properties": { "osmid": 2810293714.0 }, "geometry": { "type": "Point", "coordinates": [ 1203015.0, 8364300.0 ] } },
{ "type": "Feature", "properties": { "osmid": 287208412.0 }, "geometry": { "type": "Point", "coordinates": [ 1200796.0, 8364152.0 ] } },
{ "type": "Feature", "properties": { "osmid": 6565130721.0 }, "geometry": { "type": "Point", "coordinates": [ 1205681.0, 8364577.0 ] } },
{ "type": "Feature", "properties": { "osmid": 4374364945.0 }, "geometry": { "type": "Point", "coordinates": [ 1207054.0, 8364819.0 ] } },
{ "type": "Feature", "properties": { "osmid": 6389625616.0 }, "geometry": { "type": "Point", "coordinates": [ 1201720.0, 8363925.0 ] } },
{ "type": "Feature", "properties": { "osmid": 6423950351.0 }, "geometry": { "type": "Point", "coordinates": [ 1202232.0, 8363917.0 ] } },
{ "type": "Feature", "properties": { "osmid": 8762853710.0 }, "geometry": { "type": "Point", "coordinates": [ 1199780.0, 8363677.0 ] } },
{ "type": "Feature", "properties": { "osmid": 5325946907.0 }, "geometry": { "type": "Point", "coordinates": [ 1202842.0, 8363573.0 ] } },
{ "type": "Feature", "properties": { "osmid": 4838832514.0 }, "geometry": { "type": "Point", "coordinates": [ 1202167.0, 8363396.0 ] } },
{ "type": "Feature", "properties": { "osmid": 282678959.0 }, "geometry": { "type": "Point", "coordinates": [ 1201025.0, 8363344.0 ] } },
{ "type": "Feature", "properties": { "osmid": 6343767433.0 }, "geometry": { "type": "Point", "coordinates": [ 1203769.0, 8363342.0 ] } },
{ "type": "Feature", "properties": { "osmid": 309183188.0 }, "geometry": { "type": "Point", "coordinates": [ 1201676.0, 8363147.0 ] } },
{ "type": "Feature", "properties": { "osmid": 697791678.0 }, "geometry": { "type": "Point", "coordinates": [ 1199379.0, 8363039.0 ] } },
{ "type": "Feature", "properties": { "osmid": 2917705471.0 }, "geometry": { "type": "Point", "coordinates": [ 1206090.0, 8363528.0 ] } },
{ "type": "Feature", "properties": { "osmid": 6372265477.0 }, "geometry": { "type": "Point", "coordinates": [ 1202296.0, 8362855.0 ] } },
{ "type": "Feature", "properties": { "osmid": 1636849008.0 }, "geometry": { "type": "Point", "coordinates": [ 1200811.0, 8362776.0 ] } },
{ "type": "Feature", "properties": { "osmid": 4383630126.0 }, "geometry": { "type": "Point", "coordinates": [ 1206998.0, 8363477.0 ] } },
{ "type": "Feature", "properties": { "osmid": 1330227419.0 }, "geometry": { "type": "Point", "coordinates": [ 1201369.0, 8362537.0 ] } },
{ "type": "Feature", "properties": { "osmid": 1330570874.0 }, "geometry": { "type": "Point", "coordinates": [ 1201989.0, 8362386.0 ] } },
{ "type": "Feature", "properties": { "osmid": 1308732525.0 }, "geometry": { "type": "Point", "coordinates": [ 1206524.0, 8362969.0 ] } },
{ "type": "Feature", "properties": { "osmid": 3590353545.0 }, "geometry": { "type": "Point", "coordinates": [ 1198720.0, 8362232.0 ] } },
{ "type": "Feature", "properties": { "osmid": 4119667253.0 }, "geometry": { "type": "Point", "coordinates": [ 1200960.0, 8362174.0 ] } },
{ "type": "Feature", "properties": { "osmid": 12041238154.0 }, "geometry": { "type": "Point", "coordinates": [ 1207364.0, 8362930.0 ] } },
{ "type": "Feature", "properties": { "osmid": 4119667106.0 }, "geometry": { "type": "Point", "coordinates": [ 1201487.0, 8362042.0 ] } },
{ "type": "Feature", "properties": { "osmid": 1330570749.0 }, "geometry": { "type": "Point", "coordinates": [ 1200105.0, 8362000.0 ] } },
{ "type": "Feature", "properties": { "osmid": 6373589353.0 }, "geometry": { "type": "Point", "coordinates": [ 1202329.0, 8361736.0 ] } },
{ "type": "Feature", "properties": { "osmid": 1308732519.0 }, "geometry": { "type": "Point", "coordinates": [ 1206445.0, 8362253.0 ] } },
{ "type": "Feature", "properties": { "osmid": 88160584.0 }, "geometry": { "type": "Point", "coordinates": [ 1199797.0, 8361478.0 ] } },
{ "type": "Feature", "properties": { "osmid": 1295296932.0 }, "geometry": { "type": "Point", "coordinates": [ 1208925.0, 8362633.0 ] } },
{ "type": "Feature", "properties": { "osmid": 1634294151.0 }, "geometry": { "type": "Point", "coordinates": [ 1200397.0, 8361253.0 ] } },
{ "type": "Feature", "properties": { "osmid": 4762717687.0 }, "geometry": { "type": "Point", "coordinates": [ 1205835.0, 8361715.0 ] } },
{ "type": "Feature", "properties": { "osmid": 4119666594.0 }, "geometry": { "type": "Point", "coordinates": [ 1202192.0, 8361154.0 ] } },
{ "type": "Feature", "properties": { "osmid": 6327830657.0 }, "geometry": { "type": "Point", "coordinates": [ 1206394.0, 8361464.0 ] } },
{ "type": "Feature", "properties": { "osmid": 4083536616.0 }, "geometry": { "type": "Point", "coordinates": [ 1202026.0, 8360645.0 ] } },
{ "type": "Feature", "properties": { "osmid": 4546855728.0 }, "geometry": { "type": "Point", "coordinates": [ 1206043.0, 8360740.0 ] } },
{ "type": "Feature", "properties": { "osmid": 1307969581.0 }, "geometry": { "type": "Point", "coordinates": [ 1206261.0, 8360137.0 ] } },
{ "type": "Feature", "properties": { "osmid": 6316620969.0 }, "geometry": { "type": "Point", "coordinates": [ 1206531.0, 8359613.0 ] } },
{ "type": "Feature", "properties": { "osmid": 4416882058.0 }, "geometry": { "type": "Point", "coordinates": [ 1207959.0, 8359902.0 ] } },
{ "type": "Feature", "properties": { "osmid": 4305179676.0 }, "geometry": { "type": "Point", "coordinates": [ 1212255.0, 8359281.0 ] } },
{ "type": "Feature", "properties": { "osmid": 4377659054.0 }, "geometry": { "type": "Point", "coordinates": [ 1211457.0, 8358578.0 ] } }
]
}
