{
"type": "FeatureCollection",
"name": "paris-rail",
"crs": { "type": "name", "properties": { "name": "urn:ogc:def:crs:EPSG::3857" } },
"features": [
{ "type": "Feature", "properties": { "osmid": 3146958064.0 }, "geometry": { "type": "Point", "coordinates": [ 265603.0, 6246665.0 ] } },
{ "type": "Feature", "properties": { "osmid": 34818843.0 }, "geometry": { "type": "Point", "coordinates": [ 252720.0, 6250387.0 ] } },
{ "type": "Feature", "properties": { "osmid": 926887474.0 }, "geometry": { "type": "Point", "coordinates": [ 255312.0, 6253121.0 ] } },
{ "type": "Feature", "properties": { "osmid": 704778.0 }, "geometry": { "type": "Point", "coordinates": [ 267847.0, 6249904.0 ] } },
{ "type": "Feature", "properties": { "osmid": 25624234.0 }, "geometry": { "type": "Point", "coordinates": [ 255332.0, 6251918.0 ] } },
{ "type": "Feature", "properties": { "osmid": 3834095858.0 }, "geometry": { "type": "Point", "coordinates": [ 264617.0, 6246014.0 ] } },
{ "type": "Feature", "properties": { "osmid": 2180096943.0 }, "geometry": { "type": "Point", "coordinates": [ 258402.0, 6254912.0 ] } },
{ "type": "Feature", "properties": { "osmid": 5526393104.0 }, "geometry": { "type": "Point", "coordinates": [ 252494.0, 6249873.0 ] } },
{ "type": "Feature", "properties": { "osmid": 13485149164.0 }, "geometry": { "type": "Point", "coordinates": [ 265682.0, 6255731.0 ] } },
{ "type": "Feature", "properties": { "osmid": 3268095074.0 }, "geometry": { "type": "Point", "coordinates": [ 264583.0, 6246073.0 ] } },
{ "type": "Feature", "properties": { "osmid": 11037634048.0 }, "geometry": { "type": "Point", "coordinates": [ 261859.0, 6248257.0 ] } },
{ "type": "Feature", "properties": { "osmid": 4083299230.0 }, "geometry": { "type": "Point", "coordinates": [ 262143.0, 6248758.0 ] } },
{ "type": "Feature", "properties": { "osmid": 10242567335.0 }, "geometry": { "type": "Point", "coordinates": [ 257033.0, 6255041.0 ] } },
{ "type": "Feature", "properties": { "osmid": 10992352840.0 }, "geometry": { "type": "Point", "coordinates": [ 252887.0, 6248923.0 ] } },
{ "type": "Feature", "properties": { "osmid": 24924006.0 }, "geometry": { "type": "Point", "coordinates": [ 259352.0, 6246268.0 ] } },
{ "type": "Feature", "properties": { "osmid": 4084629209.0 }, "geometry": { "type": "Point", "coordinates": [ 260335.0, 6256181.0 ] } },
{ "type": "Feature", "properties": { "osmid": 11022527244.0 }, "geometry": { "type": "Point", "coordinates": [ 258609.0, 6250902.0 ] } },
{ "type": "Feature", "properties": { "osmid": 2428209977.0 }, "geometry": { "type": "Point", "coordinates": [ 257173.0, 6250709.0 ] } },
{ "type": "Feature", "properties": { "osmid": 11022864756.0 }, "geometry": { "type": "Point", "coordinates": [ 258482.0, 6249321.0 ] } },
{ "type": "Feature", "properties": { "osmid": 1987167031.0 }, "geometry": { "type": "Point", "coordinates": [ 254926.0, 6252308.0 ] } },
{ "type": "Feature", "properties": { "osmid": 2121960474.0 }, "geometry": { "type": "Point", "coordinates": [ 256488.0, 6255215.0 ] } },
{ "type": "Feature", "properties": { "osmid": 10991784834.0 }, "geometry": { "type": "Point", "coordinates": [ 251759.0, 6248632.0 ] } },
{ "type": "Feature", "properties": { "osmid": 10218266232.0 }, "geometry": { "type": "Point", "coordinates": [ 256577.0, 6254444.0 ] } },
{ "type": "Feature", "properties": { "osmid": 368058.0 }, "geometry": { "type": "Point", "coordinates": [ 268300.0, 6248482.0 ] } },
{ "type": "Feature", "properties": { "osmid": 277542387.0 }, "geometry": { "type": "Point", "coordinates": [ 268662.0, 6248839.0 ] } },
{ "type": "Feature", "properties": { "osmid": 277541823.0 }, "geometry": { "type": "Point", "coordinates": [ 268624.0, 6248068.0 ] } },
{ "type": "Feature", "properties": { "osmid": 2784211975.0 }, "geometry": { "type": "Point", "coordinates": [ 267773.0, 6248550.0 ] } },
{ "type": "Feature", "properties": { "osmid": 24909837.0 }, "geometry": { "type": "Point", "coordinates": [ 268165.0, 6249033.0 ] } },
{ "type": "Feature", "properties": { "osmid": 2813796662.0 }, "geometry": { "type": "Point", "coordinates": [ 268151.0, 6247820.0 ] } },
{ "type": "Feature", "properties": { "osmid": 257404414.0 }, "geometry": { "type": "Point", "coordinates": [ 267625.0, 6249102.0 ] } },
{ "type": "Feature", "properties": { "osmid": 159666101.0 }, "geometry": { "type": "Point", "coordinates": [ 267421.0, 6248086.0 ] } },
{ "type": "Feature", "properties": { "osmid": 1440519108.0 }, "geometry": { "type": "Point", "coordinates": [ 268558.0, 6247474.0 ] } },
{ "type": "Feature", "properties": { "osmid": 442335346.0 }, "geometry": { "type": "Point", "coordinates": [ 268955.0, 6249317.0 ] } },
{ "type": "Feature", "properties": { "osmid": 13128013329.0 }, "geometry": { "type": "Point", "coordinates": [ 269396.0, 6248333.0 ] } },
{ "type": "Feature", "properties": { "osmid": 249685368.0 }, "geometry": { "type": "Point", "coordinates": [ 268581.0, 6249806.0 ] } },
{ "type": "Feature", "properties": { "osmid": 707940873.0 }, "geometry": { "type": "Point", "coordinates": [ 267078.0, 6249076.0 ] } },
{ "type": "Feature", "properties": { "osmid": 5295234143.0 }, "geometry": { "type": "Point", "coordinates": [ 267062.0, 6247713.0 ] } },
{ "type": "Feature", "properties": { "osmid": 1088437056.0 }, "geometry": { "type": "Point", "coordinates": [ 267968.0, 6247011.0 ] } },
{ "type": "Feature", "properties": { "osmid": 648217899.0 }, "geometry": { "type": "Point", "coordinates": [ 266717.0, 6248687.0 ] } },
{ "type": "Feature", "properties": { "osmid": 1627531270.0 }, "geometry": { "type": "Point", "coordinates": [ 269888.0, 6248066.0 ] } },
{ "type": "Feature", "properties": { "osmid": 690202241.0 }, "geometry": { "type": "Point", "coordinates": [ 267040.0, 6249576.0 ] } },
{ "type": "Feature", "properties": { "osmid": 612427963.0 }, "geometry": { "type": "Point", "coordinates": [ 268396.0, 6246724.0 ] } },
{ "type": "Feature", "properties": { "osmid": 252260939.0 }, "geometry": { "type": "Point", "coordinates": [ 268858.0, 6250319.0 ] } },
{ "type": "Feature", "properties": { "osmid": 2334245986.0 }, "geometry": { "type": "Point", "coordinates": [ 267261.0, 6246857.0 ] } },
{ "type": "Feature", "properties": { "osmid": 1287837045.0 }, "geometry": { "type": "Point", "coordinates": [ 266499.0, 6247757.0 ] } },
{ "type": "Feature", "properties": { "osmid": 10280454403.0 }, "geometry": { "type": "Point", "coordinates": [ 266381.0, 6249241.0 ] } },
{ "type": "Feature", "properties": { "osmid": 2325477522.0 }, "geometry": { "type": "Point", "coordinates": [ 267619.0, 6246456.0 ] } },
{ "type": "Feature", "properties": { "osmid": 244455564.0 }, "geometry": { "type": "Point", "coordinates": [ 268412.0, 6250629.0 ] } },
{ "type": "Feature", "properties": { "osmid": 619237599.0 }, "geometry": { "type": "Point", "coordinates": [ 267173.0, 6250344.0 ] } },
{ "type": "Feature", "properties": { "osmid": 24667523.0 }, "geometry": { "type": "Point", "coordinates": [ 266030.0, 6248200.0 ] } },
{ "type": "Feature", "properties": { "osmid": 257712913.0 }, "geometry": { "type": "Point", "coordinates": [ 266224.0, 6247241.0 ] } },
{ "type": "Feature", "properties": { "osmid": 244455489.0 }, "geometry": { "type": "Point", "coordinates": [ 267682.0, 6250822.0 ] } },
{ "type": "Feature", "properties": { "osmid": 442301.0 }, "geometry": { "type": "Point", "coordinates": [ 266597.0, 6246679.0 ] } },
{ "type": "Feature", "properties": { "osmid": 1286571455.0 }, "geometry": { "type": "Point", "coordinates": [ 265787.0, 6249015.0 ] } },
{ "type": "Feature", "properties": { "osmid": 268223189.0 }, "geometry": { "type": "Point", "coordinates": [ 267095.0, 6246193.0 ] } },
{ "type": "Feature", "properties": { "osmid": 346582222.0 }, "geometry": { "type": "Point", "coordinates": [ 266681.0, 6250586.0 ] } },
{ "type": "Feature", "properties": { "osmid": 15378802.0 }, "geometry": { "type": "Point", "coordinates": [ 265678.0, 6247830.0 ] } },
{ "type": "Feature", "properties": { "osmid": 6282793817.0 }, "geometry": { "type": "Point", "coordinates": [ 265966.0, 6249865.0 ] } },
{ "type": "Feature", "properties": { "osmid": 7612679771.0 }, "geometry": { "type": "Point", "coordinates": [ 270964.0, 6247884.0 ] } },
{ "type": "Feature", "properties": { "osmid": 1760382619.0 }, "geometry": { "type": "Point", "coordinates": [ 267576.0, 6251316.0 ] } },
{ "type": "Feature", "properties": { "osmid": 12393328905.0 }, "geometry": { "type": "Point", "coordinates": [ 265459.0, 6249453.0 ] } },
{ "type": "Feature", "properties": { "osmid": 1890447487.0 }, "geometry": { "type": "Point", "coordinates": [ 265265.0, 6248572.0 ] } },
{ "type": "Feature", "properties": { "osmid": 8528583437.0 }, "geometry": { "type": "Point", "coordinates": [ 271445.0, 6248172.0 ] } },
{ "type": "Feature", "properties": { "osmid": 195393625.0 }, "geometry": { "type": "Point", "coordinates": [ 265862.0, 6250501.0 ] } },
{ "type": "Feature", "properties": { "osmid": 12093033279.0 }, "geometry": { "type": "Point", "coordinates": [ 265212.0, 6247613.0 ] } },
{ "type": "Feature", "properties": { "osmid": 208361871.0 }, "geometry": { "type": "Point", "coordinates": [ 266187.0, 6250957.0 ] } },
{ "type": "Feature", "properties": { "osmid": 12179625841.0 }, "geometry": { "type": "Point", "coordinates": [ 268360.0, 6251742.0 ] } },
{ "type": "Feature", "properties": { "osmid": 143652614.0 }, "geometry": { "type": "Point", "coordinates": [ 267651.0, 6251878.0 ] } },
{ "type": "Feature", "properties": { "osmid": 14950169.0 }, "geometry": { "type": "Point", "coordinates": [ 264824.0, 6248849.0 ] } },
{ "type": "Feature", "properties": { "osmid": 2419399455.0 }, "geometry": { "type": "Point", "coordinates": [ 264806.0, 6248302.0 ] } },
{ "type": "Feature", "properties": { "osmid": 3649554779.0 }, "geometry": { "type": "Point", "coordinates": [ 266935.0, 6251723.0 ] } },
{ "type": "Feature", "properties": { "osmid": 9560897063.0 }, "geometry": { "type": "Point", "coordinates": [ 269372.0, 6245087.0 ] } },
{ "type": "Feature", "properties": { "osmid": 268209359.0 }, "geometry": { "type": "Point", "coordinates": [ 265600.0, 6246144.0 ] } },
{ "type": "Feature", "properties": { "osmid": 6148480560.0 }, "geometry": { "type": "Point", "coordinates": [ 265319.0, 6250450.0 ] } },
{ "type": "Feature", "properties": { "osmid": 10124076556.0 }, "geometry": { "type": "Point", "coordinates": [ 264775.0, 6249560.0 ] } },
{ "type": "Feature", "properties": { "osmid": 502604826.0 }, "geometry": { "type": "Point", "coordinates": [ 268072.0, 6252246.0 ] } },
{ "type": "Feature", "properties": { "osmid": 411722083.0 }, "geometry": { "type": "Point", "coordinates": [ 264540.0, 6247571.0 ] } },
{ "type": "Feature", "properties": { "osmid": 12642919748.0 }, "geometry": { "type": "Point", "coordinates": [ 267130.0, 6252190.0 ] } },
{ "type": "Feature", "properties": { "osmid": 8438558745.0 }, "geometry": { "type": "Point", "coordinates": [ 266307.0, 6251829.0 ] } },
{ "type": "Feature", "properties": { "osmid": 659769326.0 }, "geometry": { "type": "Point", "coordinates": [ 264932.0, 6246456.0 ] } },
{ "type": "Feature", "properties": { "osmid": 1088481059.0 }, "geometry": { "type": "Point", "coordinates": [ 265524.0, 6245590.0 ] } },
{ "type": "Feature", "properties": { "osmid": 10244782479.0 }, "geometry": { "type": "Point", "coordinates": [ 265796.0, 6251619.0 ] } },
{ "type": "Feature", "properties": { "osmid": 306091711.0 }, "geometry": { "type": "Point", "coordinates": [ 264294.0, 6248747.0 ] } },
{ "type": "Feature", "properties": { "osmid": 13272009728.0 }, "geometry": { "type": "Point", "coordinates": [ 264965.0, 6250806.0 ] } },
{ "type": "Feature", "properties": { "osmid": 14950166.0 }, "geometry": { "type": "Point", "coordinates": [ 264304.0, 6249383.0 ] } },
{ "type": "Feature", "properties": { "osmid": 12356227627.0 }, "geometry": { "type": "Point", "coordinates": [ 272439.0, 6248329.0 ] } },
{ "type": "Feature", "properties": { "osmid": 417308198.0 }, "geometry": { "type": "Point", "coordinates": [ 272090.0, 6246744.0 ] } },
{ "type": "Feature", "properties": { "osmid": 203333251.0 }, "geometry": { "type": "Point", "coordinates": [ 267707.0, 6252647.0 ] } },
{ "type": "Feature", "properties": { "osmid": 148945399.0 }, "geometry": { "type": "Point", "coordinates": [ 265322.0, 6251454.0 ] } },
{ "type": "Feature", "properties": { "osmid": 4741705774.0 }, "geometry": { "type": "Point", "coordinates": [ 268387.0, 6252689.0 ] } },
{ "type": "Feature", "properties": { "osmid": 206155083.0 }, "geometry": { "type": "Point", "coordinates": [ 264328.0, 6249926.0 ] } },
{ "type": "Feature", "properties": { "osmid": 573424249.0 }, "geometry": { "type": "Point", "coordinates": [ 263955.0, 6248373.0 ] } },
{ "type": "Feature", "properties": { "osmid": 1916193831.0 }, "geometry": { "type": "Point", "coordinates": [ 265041.0, 6245440.0 ] } },
{ "type": "Feature", "properties": { "osmid": 12887389910.0 }, "geometry": { "type": "Point", "coordinates": [ 263984.0, 6247098.0 ] } },
{ "type": "Feature", "properties": { "osmid": 34632786.0 }, "geometry": { "type": "Point", "coordinates": [ 264479.0, 6251044.0 ] } },
{ "type": "Feature", "properties": { "osmid": 153501216.0 }, "geometry": { "type": "Point", "coordinates": [ 263815.0, 6249691.0 ] } },
{ "type": "Feature", "properties": { "osmid": 10248861450.0 }, "geometry": { "type": "Point", "coordinates": [ 263633.0, 6248791.0 ] } },
{ "type": "Feature", "properties": { "osmid": 256409741.0 }, "geometry": { "type": "Point", "coordinates": [ 264728.0, 6251561.0 ] } },
{ "type": "Feature", "properties": { "osmid": 1089076048.0 }, "geometry": { "type": "Point", "coordinates": [ 268091.0, 6253295.0 ] } },
{ "type": "Feature", "properties": { "osmid": 431394661.0 }, "geometry": { "type": "Point", "coordinates": [ 263928.0, 6250520.0 ] } },
{ "type": "Feature", "properties": { "osmid": 96153935.0 }, "geometry": { "type": "Point", "coordinates": [ 266983.0, 6253140.0 ] } },
{ "type": "Feature", "properties": { "osmid": 1672310033.0 }, "geometry": { "type": "Point", "coordinates": [ 265652.0, 6252534.0 ] } },
{ "type": "Feature", "properties": { "osmid": 12122235082.0 }, "geometry": { "type": "Point", "coordinates": [ 263448.0, 6248149.0 ] } },
{ "type": "Feature", "properties": { "osmid": 2932541322.0 }, "geometry": { "type": "Point", "coordinates": [ 264621.0, 6245099.0 ] } },
{ "type": "Feature", "properties": { "osmid": 6752716729.0 }, "geometry": { "type": "Point", "coordinates": [ 263519.0, 6246876.0 ] } },
{ "type": "Feature", "properties": { "osmid": 60912123.0 }, "geometry": { "type": "Point", "coordinates": [ 266211.0, 6253085.0 ] } },
{ "type": "Feature", "properties": { "osmid": 32176126.0 }, "geometry": { "type": "Point", "coordinates": [ 271849.0, 6244881.0 ] } },
{ "type": "Feature", "properties": { "osmid": 152737902.0 }, "geometry": { "type": "Point", "coordinates": [ 263926.0, 6251136.0 ] } },
{ "type": "Feature", "properties": { "osmid": 135149187.0 }, "geometry": { "type": "Point", "coordinates": [ 263172.0, 6248579.0 ] } },
{ "type": "Feature", "properties": { "osmid": 26401727.0 }, "geometry": { "type": "Point", "coordinates": [ 263325.0, 6249795.0 ] } },
{ "type": "Feature", "properties": { "osmid": 15859474.0 }, "geometry": { "type": "Point", "coordinates": [ 263626.0, 6246245.0 ] } },
{ "type": "Feature", "properties": { "osmid": 287609931.0 }, "geometry": { "type": "Point", "coordinates": [ 267654.0, 6253628.0 ] } },
{ "type": "Feature", "properties": { "osmid": 482835108.0 }, "geometry": { "type": "Point", "coordinates": [ 264832.0, 6244586.0 ] } },
{ "type": "Feature", "properties": { "osmid": 8198686477.0 }, "geometry": { "type": "Point", "coordinates": [ 266630.0, 6253501.0 ] } },
{ "type": "Feature", "properties": { "osmid": 151358603.0 }, "geometry": { "type": "Point", "coordinates": [ 264343.0, 6251993.0 ] } },
{ "type": "Feature", "properties": { "osmid": 654572259.0 }, "geometry": { "type": "Point", "coordinates": [ 264894.0, 6252558.0 ] } },
{ "type": "Feature", "properties": { "osmid": 96139483.0 }, "geometry": { "type": "Point", "coordinates": [ 265611.0, 6253081.0 ] } },
{ "type": "Feature", "properties": { "osmid": 26401922.0 }, "geometry": { "type": "Point", "coordinates": [ 263382.0, 6250603.0 ] } },
{ "type": "Feature", "properties": { "osmid": 366596.0 }, "geometry": { "type": "Point", "coordinates": [ 263730.0, 6245621.0 ] } },
{ "type": "Feature", "properties": { "osmid": 5486932279.0 }, "geometry": { "type": "Point", "coordinates": [ 262923.0, 6247742.0 ] } },
{ "type": "Feature", "properties": { "osmid": 4526987823.0 }, "geometry": { "type": "Point", "coordinates": [ 264186.0, 6244836.0 ] } },
{ "type": "Feature", "properties": { "osmid": 26401823.0 }, "geometry": { "type": "Point", "coordinates": [ 263042.0, 6250226.0 ] } },
{ "type": "Feature", "properties": { "osmid": 8975045528.0 }, "geometry": { "type": "Point", "coordinates": [ 263043.0, 6246720.0 ] } },
{ "type": "Feature", "properties": { "osmid": 5076228537.0 }, "geometry": { "type": "Point", "coordinates": [ 268307.0, 6254026.0 ] } },
{ "type": "Feature", "properties": { "osmid": 12912146332.0 }, "geometry": { "type": "Point", "coordinates": [ 262848.0, 6249574.0 ] } },
{ "type": "Feature", "properties": { "osmid": 12297104409.0 }, "geometry": { "type": "Point", "coordinates": [ 273862.0, 6247586.0 ] } },
{ "type": "Feature", "properties": { "osmid": 151358219.0 }, "geometry": { "type": "Point", "coordinates": [ 263840.0, 6251938.0 ] } },
{ "type": "Feature", "properties": { "osmid": 1089076058.0 }, "geometry": { "type": "Point", "coordinates": [ 267797.0, 6254139.0 ] } },
{ "type": "Feature", "properties": { "osmid": 26401107.0 }, "geometry": { "type": "Point", "coordinates": [ 263221.0, 6251134.0 ] } },
{ "type": "Feature", "properties": { "osmid": 11876462626.0 }, "geometry": { "type": "Point", "coordinates": [ 262650.0, 6247185.0 ] } },
{ "type": "Feature", "properties": { "osmid": 13651686105.0 }, "geometry": { "type": "Point", "coordinates": [ 272154.0, 6244152.0 ] } },
{ "type": "Feature", "properties": { "osmid": 8144008774.0 }, "geometry": { "type": "Point", "coordinates": [ 264683.0, 6253029.0 ] } },
{ "type": "Feature", "properties": { "osmid": 96136327.0 }, "geometry": { "type": "Point", "coordinates": [ 266333.0, 6253950.0 ] } },
{ "type": "Feature", "properties": { "osmid": 94151147.0 }, "geometry": { "type": "Point", "coordinates": [ 264096.0, 6252513.0 ] } },
{ "type": "Feature", "properties": { "osmid": 356403710.0 }, "geometry": { "type": "Point", "coordinates": [ 262965.0, 6246113.0 ] } },
{ "type": "Feature", "properties": { "osmid": 660512250.0 }, "geometry": { "type": "Point", "coordinates": [ 267223.0, 6254287.0 ] } },
{ "type": "Feature", "properties": { "osmid": 26400956.0 }, "geometry": { "type": "Point", "coordinates": [ 262797.0, 6250747.0 ] } },
{ "type": "Feature", "properties": { "osmid": 10111437051.0 }, "geometry": { "type": "Point", "coordinates": [ 263706.0, 6244653.0 ] } },
{ "type": "Feature", "properties": { "osmid": 3809893084.0 }, "geometry": { "type": "Point", "coordinates": [ 262375.0, 6249326.0 ] } },
{ "type": "Feature", "properties": { "osmid": 94140289.0 }, "geometry": { "type": "Point", "coordinates": [ 263235.0, 6251755.0 ] } },
{ "type": "Feature", "properties": { "osmid": 178803742.0 }, "geometry": { "type": "Point", "coordinates": [ 262461.0, 6249994.0 ] } },
{ "type": "Feature", "properties": { "osmid": 94196984.0 }, "geometry": { "type": "Point", "coordinates": [ 265063.0, 6253626.0 ] } },
{ "type": "Feature", "properties": { "osmid": 2250943366.0 }, "geometry": { "type": "Point", "coordinates": [ 263471.0, 6252279.0 ] } },
{ "type": "Feature", "properties": { "osmid": 361737.0 }, "geometry": { "type": "Point", "coordinates": [ 262485.0, 6246351.0 ] } },
{ "type": "Feature", "properties": { "osmid": 94151697.0 }, "geometry": { "type": "Point", "coordinates": [ 264084.0, 6253060.0 ] } },
{ "type": "Feature", "properties": { "osmid": 270911061.0 }, "geometry": { "type": "Point", "coordinates": [ 263867.0, 6244097.0 ] } },
{ "type": "Feature", "properties": { "osmid": 6594188981.0 }, "geometry": { "type": "Point", "coordinates": [ 273574.0, 6245045.0 ] } },
{ "type": "Feature", "properties": { "osmid": 693515561.0 }, "geometry": { "type": "Point", "coordinates": [ 262337.0, 6250517.0 ] } },
{ "type": "Feature", "properties": { "osmid": 234985433.0 }, "geometry": { "type": "Point", "coordinates": [ 266026.0, 6254367.0 ] } },
{ "type": "Feature", "properties": { "osmid": 15035558.0 }, "geometry": { "type": "Point", "coordinates": [ 262827.0, 6245333.0 ] } },
{ "type": "Feature", "properties": { "osmid": 227053183.0 }, "geometry": { "type": "Point", "coordinates": [ 262763.0, 6251519.0 ] } },
{ "type": "Feature", "properties": { "osmid": 2900471134.0 }, "geometry": { "type": "Point", "coordinates": [ 274389.0, 6246749.0 ] } },
{ "type": "Feature", "properties": { "osmid": 13397443595.0 }, "geometry": { "type": "Point", "coordinates": [ 266883.0, 6254654.0 ] } },
{ "type": "Feature", "properties": { "osmid": 12548981351.0 }, "geometry": { "type": "Point", "coordinates": [ 264465.0, 6253536.0 ] } },
{ "type": "Feature", "properties": { "osmid": 361705.0 }, "geometry": { "type": "Point", "coordinates": [ 262503.0, 6245807.0 ] } },
{ "type": "Feature", "properties": { "osmid": 11768599862.0 }, "geometry": { "type": "Point", "coordinates": [ 263022.0, 6244818.0 ] } },
{ "type": "Feature", "properties": { "osmid": 416495233.0 }, "geometry": { "type": "Point", "coordinates": [ 263469.0, 6252814.0 ] } },
{ "type": "Feature", "properties": { "osmid": 6220939818.0 }, "geometry": { "type": "Point", "coordinates": [ 261892.0, 6249574.0 ] } },
{ "type": "Feature", "properties": { "osmid": 8623046940.0 }, "geometry": { "type": "Point", "coordinates": [ 263275.0, 6244354.0 ] } },
{ "type": "Feature", "properties": { "osmid": 26401024.0 }, "geometry": { "type": "Point", "coordinates": [ 262285.0, 6251032.0 ] } },
{ "type": "Feature", "properties": { "osmid": 21648013.0 }, "geometry": { "type": "Point", "coordinates": [ 261881.0, 6247053.0 ] } },
{ "type": "Feature", "properties": { "osmid": 94137693.0 }, "geometry": { "type": "Point", "coordinates": [ 262814.0, 6252128.0 ] } },
{ "type": "Feature", "properties": { "osmid": 13461201375.0 }, "geometry": { "type": "Point", "coordinates": [ 266361.0, 6254833.0 ] } },
{ "type": "Feature", "properties": { "osmid": 2458010979.0 }, "geometry": { "type": "Point", "coordinates": [ 261688.0, 6247544.0 ] } },
{ "type": "Feature", "properties": { "osmid": 17809198.0 }, "geometry": { "type": "Point", "coordinates": [ 263865.0, 6253515.0 ] } },
{ "type": "Feature", "properties": { "osmid": 2638454014.0 }, "geometry": { "type": "Point", "coordinates": [ 274348.0, 6245543.0 ] } },
{ "type": "Feature", "properties": { "osmid": 11159007736.0 }, "geometry": { "type": "Point", "coordinates": [ 274913.0, 6247168.0 ] } },
{ "type": "Feature", "properties": { "osmid": 13241695972.0 }, "geometry": { "type": "Point", "coordinates": [ 262983.0, 6252667.0 ] } },
{ "type": "Feature", "properties": { "osmid": 11903837207.0 }, "geometry": { "type": "Point", "coordinates": [ 262513.0, 6244917.0 ] } },
{ "type": "Feature", "properties": { "osmid": 25554705.0 }, "geometry": { "type": "Point", "coordinates": [ 261863.0, 6250680.0 ] } },
{ "type": "Feature", "properties": { "osmid": 987604383.0 }, "geometry": { "type": "Point", "coordinates": [ 264759.0, 6254298.0 ] } },
{ "type": "Feature", "properties": { "osmid": 320905106.0 }, "geometry": { "type": "Point", "coordinates": [ 267125.0, 6255205.0 ] } },
{ "type": "Feature", "properties": { "osmid": 21658512.0 }, "geometry": { "type": "Point", "coordinates": [ 261911.0, 6246035.0 ] } },
{ "type": "Feature", "properties": { "osmid": 9848974375.0 }, "geometry": { "type": "Point", "coordinates": [ 273874.0, 6244501.0 ] } },
{ "type": "Feature", "properties": { "osmid": 10300221687.0 }, "geometry": { "type": "Point", "coordinates": [ 262041.0, 6251481.0 ] } },
{ "type": "Feature", "properties": { "osmid": 6827766938.0 }, "geometry": { "type": "Point", "coordinates": [ 261361.0, 6248911.0 ] } },
{ "type": "Feature", "properties": { "osmid": 24923329.0 }, "geometry": { "type": "Point", "coordinates": [ 261511.0, 6250059.0 ] } },
{ "type": "Feature", "properties": { "osmid": 12529386700.0 }, "geometry": { "type": "Point", "coordinates": [ 262298.0, 6252064.0 ] } },
{ "type": "Feature", "properties": { "osmid": 11993414933.0 }, "geometry": { "type": "Point", "coordinates": [ 263224.0, 6253293.0 ] } },
{ "type": "Feature", "properties": { "osmid": 100289178.0 }, "geometry": { "type": "Point", "coordinates": [ 262007.0, 6245387.0 ] } },
{ "type": "Feature", "properties": { "osmid": 675843299.0 }, "geometry": { "type": "Point", "coordinates": [ 261585.0, 6246421.0 ] } },
{ "type": "Feature", "properties": { "osmid": 11693596743.0 }, "geometry": { "type": "Point", "coordinates": [ 262688.0, 6244179.0 ] } },
{ "type": "Feature", "properties": { "osmid": 3375721567.0 }, "geometry": { "type": "Point", "coordinates": [ 261382.0, 6247007.0 ] } },
{ "type": "Feature", "properties": { "osmid": 2736300205.0 }, "geometry": { "type": "Point", "coordinates": [ 273739.0, 6243940.0 ] } },
{ "type": "Feature", "properties": { "osmid": 2499815434.0 }, "geometry": { "type": "Point", "coordinates": [ 264127.0, 6254226.0 ] } },
{ "type": "Feature", "properties": { "osmid": 94126806.0 }, "geometry": { "type": "Point", "coordinates": [ 265559.0, 6255033.0 ] } },
{ "type": "Feature", "properties": { "osmid": 11987507805.0 }, "geometry": { "type": "Point", "coordinates": [ 261209.0, 6247771.0 ] } },
{ "type": "Feature", "properties": { "osmid": 10737439151.0 }, "geometry": { "type": "Point", "coordinates": [ 263568.0, 6253926.0 ] } },
{ "type": "Feature", "properties": { "osmid": 3335200908.0 }, "geometry": { "type": "Point", "coordinates": [ 261145.0, 6249608.0 ] } },
{ "type": "Feature", "properties": { "osmid": 11998470767.0 }, "geometry": { "type": "Point", "coordinates": [ 266743.0, 6255575.0 ] } },
{ "type": "Feature", "properties": { "osmid": 683073875.0 }, "geometry": { "type": "Point", "coordinates": [ 262175.0, 6244543.0 ] } },
{ "type": "Feature", "properties": { "osmid": 6369010762.0 }, "geometry": { "type": "Point", "coordinates": [ 261392.0, 6250886.0 ] } },
{ "type": "Feature", "properties": { "osmid": 246262622.0 }, "geometry": { "type": "Point", "coordinates": [ 261540.0, 6245680.0 ] } },
{ "type": "Feature", "properties": { "osmid": 470135.0 }, "geometry": { "type": "Point", "coordinates": [ 260860.0, 6248906.0 ] } },
{ "type": "Feature", "properties": { "osmid": 6777913395.0 }, "geometry": { "type": "Point", "coordinates": [ 261961.0, 6252434.0 ] } },
{ "type": "Feature", "properties": { "osmid": 690886730.0 }, "geometry": { "type": "Point", "coordinates": [ 262605.0, 6253363.0 ] } },
{ "type": "Feature", "properties": { "osmid": 11070910850.0 }, "geometry": { "type": "Point", "coordinates": [ 260962.0, 6250099.0 ] } },
{ "type": "Feature", "properties": { "osmid": 94114880.0 }, "geometry": { "type": "Point", "coordinates": [ 264252.0, 6254819.0 ] } },
{ "type": "Feature", "properties": { "osmid": 644143.0 }, "geometry": { "type": "Point", "coordinates": [ 261143.0, 6246121.0 ] } },
{ "type": "Feature", "properties": { "osmid": 5951390673.0 }, "geometry": { "type": "Point", "coordinates": [ 261532.0, 6251800.0 ] } },
{ "type": "Feature", "properties": { "osmid": 2493546436.0 }, "geometry": { "type": "Point", "coordinates": [ 263620.0, 6254432.0 ] } },
{ "type": "Feature", "properties": { "osmid": 25207358.0 }, "geometry": { "type": "Point", "coordinates": [ 262157.0, 6252932.0 ] } },
{ "type": "Feature", "properties": { "osmid": 2255738071.0 }, "geometry": { "type": "Point", "coordinates": [ 264686.0, 6255193.0 ] } },
{ "type": "Feature", "properties": { "osmid": 245396637.0 }, "geometry": { "type": "Point", "coordinates": [ 260737.0, 6247467.0 ] } },
{ "type": "Feature", "properties": { "osmid": 25033533.0 }, "geometry": { "type": "Point", "coordinates": [ 260639.0, 6248220.0 ] } },
{ "type": "Feature", "properties": { "osmid": 621294942.0 }, "geometry": { "type": "Point", "coordinates": [ 265193.0, 6255520.0 ] } },
{ "type": "Feature", "properties": { "osmid": 558457800.0 }, "geometry": { "type": "Point", "coordinates": [ 261661.0, 6244569.0 ] } },
{ "type": "Feature", "properties": { "osmid": 10926831414.0 }, "geometry": { "type": "Point", "coordinates": [ 261976.0, 6244078.0 ] } },
{ "type": "Feature", "properties": { "osmid": 9976506698.0 }, "geometry": { "type": "Point", "coordinates": [ 262780.0, 6253865.0 ] } },
{ "type": "Feature", "properties": { "osmid": 5309171835.0 }, "geometry": { "type": "Point", "coordinates": [ 266930.0, 6256103.0 ] } },
{ "type": "Feature", "properties": { "osmid": 1756761482.0 }, "geometry": { "type": "Point", "coordinates": [ 260631.0, 6249597.0 ] } },
{ "type": "Feature", "properties": { "osmid": 9386208655.0 }, "geometry": { "type": "Point", "coordinates": [ 266351.0, 6255994.0 ] } },
{ "type": "Feature", "properties": { "osmid": 15643102.0 }, "geometry": { "type": "Point", "coordinates": [ 261033.0, 6251320.0 ] } },
{ "type": "Feature", "properties": { "osmid": 21292409.0 }, "geometry": { "type": "Point", "coordinates": [ 260664.0, 6246879.0 ] } },
{ "type": "Feature", "properties": { "osmid": 360938.0 }, "geometry": { "type": "Point", "coordinates": [ 261068.0, 6245379.0 ] } },
{ "type": "Feature", "properties": { "osmid": 6632314607.0 }, "geometry": { "type": "Point", "coordinates": [ 263068.0, 6254373.0 ] } },
{ "type": "Feature", "properties": { "osmid": 676728040.0 }, "geometry": { "type": "Point", "coordinates": [ 260689.0, 6250607.0 ] } },
{ "type": "Feature", "properties": { "osmid": 430799.0 }, "geometry": { "type": "Point", "coordinates": [ 263732.0, 6254945.0 ] } },
{ "type": "Feature", "properties": { "osmid": 268105655.0 }, "geometry": { "type": "Point", "coordinates": [ 261658.0, 6252857.0 ] } },
{ "type": "Feature", "properties": { "osmid": 650572575.0 }, "geometry": { "type": "Point", "coordinates": [ 261337.0, 6252372.0 ] } },
{ "type": "Feature", "properties": { "osmid": 326996572.0 }, "geometry": { "type": "Point", "coordinates": [ 262272.0, 6253739.0 ] } },
{ "type": "Feature", "properties": { "osmid": 249581621.0 }, "geometry": { "type": "Point", "coordinates": [ 260585.0, 6246354.0 ] } },
{ "type": "Feature", "properties": { "osmid": 8707910344.0 }, "geometry": { "type": "Point", "coordinates": [ 261056.0, 6251953.0 ] } },
{ "type": "Feature", "properties": { "osmid": 1835212504.0 }, "geometry": { "type": "Point", "coordinates": [ 261190.0, 6244741.0 ] } },
{ "type": "Feature", "properties": { "osmid": 25183261.0 }, "geometry": { "type": "Point", "coordinates": [ 260391.0, 6250049.0 ] } },
{ "type": "Feature", "properties": { "osmid": 2258450461.0 }, "geometry": { "type": "Point", "coordinates": [ 264036.0, 6255422.0 ] } },
{ "type": "Feature", "properties": { "osmid": 11257263666.0 }, "geometry": { "type": "Point", "coordinates": [ 260174.0, 6247873.0 ] } },
{ "type": "Feature", "properties": { "osmid": 258050694.0 }, "geometry": { "type": "Point", "coordinates": [ 265033.0, 6256009.0 ] } },
{ "type": "Feature", "properties": { "osmid": 2258450463.0 }, "geometry": { "type": "Point", "coordinates": [ 264443.0, 6255729.0 ] } },
{ "type": "Feature", "properties": { "osmid": 11071194275.0 }, "geometry": { "type": "Point", "coordinates": [ 262566.0, 6254399.0 ] } },
{ "type": "Feature", "properties": { "osmid": 12657012701.0 }, "geometry": { "type": "Point", "coordinates": [ 263064.0, 6254888.0 ] } },
{ "type": "Feature", "properties": { "osmid": 5884692170.0 }, "geometry": { "type": "Point", "coordinates": [ 260161.0, 6246871.0 ] } },
{ "type": "Feature", "properties": { "osmid": 94161169.0 }, "geometry": { "type": "Point", "coordinates": [ 261658.0, 6253478.0 ] } },
{ "type": "Feature", "properties": { "osmid": 693583570.0 }, "geometry": { "type": "Point", "coordinates": [ 260473.0, 6251359.0 ] } },
{ "type": "Feature", "properties": { "osmid": 24969692.0 }, "geometry": { "type": "Point", "coordinates": [ 260019.0, 6249576.0 ] } },
{ "type": "Feature", "properties": { "osmid": 258050727.0 }, "geometry": { "type": "Point", "coordinates": [ 265477.0, 6256347.0 ] } },
{ "type": "Feature", "properties": { "osmid": 11839212851.0 }, "geometry": { "type": "Point", "coordinates": [ 261014.0, 6244257.0 ] } },
{ "type": "Feature", "properties": { "osmid": 7893758988.0 }, "geometry": { "type": "Point", "coordinates": [ 266938.0, 6256825.0 ] } },
{ "type": "Feature", "properties": { "osmid": 11042342785.0 }, "geometry": { "type": "Point", "coordinates": [ 261161.0, 6253012.0 ] } },
{ "type": "Feature", "properties": { "osmid": 11021749529.0 }, "geometry": { "type": "Point", "coordinates": [ 262076.0, 6254291.0 ] } },
{ "type": "Feature", "properties": { "osmid": 247040776.0 }, "geometry": { "type": "Point", "coordinates": [ 261244.0, 6243698.0 ] } },
{ "type": "Feature", "properties": { "osmid": 6665327699.0 }, "geometry": { "type": "Point", "coordinates": [ 260073.0, 6250791.0 ] } },
{ "type": "Feature", "properties": { "osmid": 94185770.0 }, "geometry": { "type": "Point", "coordinates": [ 263443.0, 6255608.0 ] } },
{ "type": "Feature", "properties": { "osmid": 362190115.0 }, "geometry": { "type": "Point", "coordinates": [ 259934.0, 6246326.0 ] } },
{ "type": "Feature", "properties": { "osmid": 24959188.0 }, "geometry": { "type": "Point", "coordinates": [ 259644.0, 6248578.0 ] } },
{ "type": "Feature", "properties": { "osmid": 13004042777.0 }, "geometry": { "type": "Point", "coordinates": [ 264550.0, 6256304.0 ] } },
{ "type": "Feature", "properties": { "osmid": 2350539244.0 }, "geometry": { "type": "Point", "coordinates": [ 263931.0, 6255990.0 ] } },
{ "type": "Feature", "properties": { "osmid": 24958725.0 }, "geometry": { "type": "Point", "coordinates": [ 259747.0, 6250035.0 ] } },
{ "type": "Feature", "properties": { "osmid": 25273885.0 }, "geometry": { "type": "Point", "coordinates": [ 260636.0, 6252603.0 ] } },
{ "type": "Feature", "properties": { "osmid": 25581029.0 }, "geometry": { "type": "Point", "coordinates": [ 260399.0, 6252145.0 ] } },
{ "type": "Feature", "properties": { "osmid": 393803340.0 }, "geometry": { "type": "Point", "coordinates": [ 259663.0, 6246825.0 ] } },
{ "type": "Feature", "properties": { "osmid": 11955323582.0 }, "geometry": { "type": "Point", "coordinates": [ 262644.0, 6255227.0 ] } },
{ "type": "Feature", "properties": { "osmid": 36594364.0 }, "geometry": { "type": "Point", "coordinates": [ 259500.0, 6248018.0 ] } },
{ "type": "Feature", "properties": { "osmid": 94157754.0 }, "geometry": { "type": "Point", "coordinates": [ 261285.0, 6253821.0 ] } },
{ "type": "Feature", "properties": { "osmid": 13081984077.0 }, "geometry": { "type": "Point", "coordinates": [ 259521.0, 6247384.0 ] } },
{ "type": "Feature", "properties": { "osmid": 24913004.0 }, "geometry": { "type": "Point", "coordinates": [ 259913.0, 6245638.0 ] } },
{ "type": "Feature", "properties": { "osmid": 7096719928.0 }, "geometry": { "type": "Point", "coordinates": [ 260412.0, 6244426.0 ] } },
{ "type": "Feature", "properties": { "osmid": 2763050905.0 }, "geometry": { "type": "Point", "coordinates": [ 266414.0, 6257189.0 ] } },
{ "type": "Feature", "properties": { "osmid": 482376721.0 }, "geometry": { "type": "Point", "coordinates": [ 260049.0, 6245066.0 ] } },
{ "type": "Feature", "properties": { "osmid": 11563663280.0 }, "geometry": { "type": "Point", "coordinates": [ 260666.0, 6253122.0 ] } },
{ "type": "Feature", "properties": { "osmid": 9951379992.0 }, "geometry": { "type": "Point", "coordinates": [ 259738.0, 6251183.0 ] } },
{ "type": "Feature", "properties": { "osmid": 94166688.0 }, "geometry": { "type": "Point", "coordinates": [ 261904.0, 6254849.0 ] } },
{ "type": "Feature", "properties": { "osmid": 258573336.0 }, "geometry": { "type": "Point", "coordinates": [ 264101.0, 6256529.0 ] } },
{ "type": "Feature", "properties": { "osmid": 847813980.0 }, "geometry": { "type": "Point", "coordinates": [ 259798.0, 6251691.0 ] } },
{ "type": "Feature", "properties": { "osmid": 5752032515.0 }, "geometry": { "type": "Point", "coordinates": [ 265243.0, 6257056.0 ] } },
{ "type": "Feature", "properties": { "osmid": 25272943.0 }, "geometry": { "type": "Point", "coordinates": [ 260100.0, 6252567.0 ] } },
{ "type": "Feature", "properties": { "osmid": 1030161704.0 }, "geometry": { "type": "Point", "coordinates": [ 262686.0, 6255743.0 ] } },
{ "type": "Feature", "properties": { "osmid": 11937077113.0 }, "geometry": { "type": "Point", "coordinates": [ 265949.0, 6257462.0 ] } },
{ "type": "Feature", "properties": { "osmid": 7741342571.0 }, "geometry": { "type": "Point", "coordinates": [ 259853.0, 6244606.0 ] } },
{ "type": "Feature", "properties": { "osmid": 5291869763.0 }, "geometry": { "type": "Point", "coordinates": [ 260584.0, 6253687.0 ] } },
{ "type": "Feature", "properties": { "osmid": 25256276.0 }, "geometry": { "type": "Point", "coordinates": [ 259001.0, 6248937.0 ] } },
{ "type": "Feature", "properties": { "osmid": 6176080241.0 }, "geometry": { "type": "Point", "coordinates": [ 259070.0, 6249727.0 ] } },
{ "type": "Feature", "properties": { "osmid": 5905841574.0 }, "geometry": { "type": "Point", "coordinates": [ 259069.0, 6247111.0 ] } },
{ "type": "Feature", "properties": { "osmid": 24913010.0 }, "geometry": { "type": "Point", "coordinates": [ 259457.0, 6245410.0 ] } },
{ "type": "Feature", "properties": { "osmid": 268063177.0 }, "geometry": { "type": "Point", "coordinates": [ 263004.0, 6256335.0 ] } },
{ "type": "Feature", "properties": { "osmid": 158620611.0 }, "geometry": { "type": "Point", "coordinates": [ 258835.0, 6247818.0 ] } },
{ "type": "Feature", "properties": { "osmid": 25272896.0 }, "geometry": { "type": "Point", "coordinates": [ 259512.0, 6252179.0 ] } },
{ "type": "Feature", "properties": { "osmid": 16820937.0 }, "geometry": { "type": "Point", "coordinates": [ 258736.0, 6248324.0 ] } },
{ "type": "Feature", "properties": { "osmid": 94251337.0 }, "geometry": { "type": "Point", "coordinates": [ 261982.0, 6255664.0 ] } },
{ "type": "Feature", "properties": { "osmid": 94206128.0 }, "geometry": { "type": "Point", "coordinates": [ 261236.0, 6254939.0 ] } },
{ "type": "Feature", "properties": { "osmid": 2473739079.0 }, "geometry": { "type": "Point", "coordinates": [ 263886.0, 6256984.0 ] } },
{ "type": "Feature", "properties": { "osmid": 94214157.0 }, "geometry": { "type": "Point", "coordinates": [ 260605.0, 6254220.0 ] } },
{ "type": "Feature", "properties": { "osmid": 1227287667.0 }, "geometry": { "type": "Point", "coordinates": [ 260077.0, 6253484.0 ] } },
{ "type": "Feature", "properties": { "osmid": 25254138.0 }, "geometry": { "type": "Point", "coordinates": [ 258874.0, 6250447.0 ] } },
{ "type": "Feature", "properties": { "osmid": 9513361910.0 }, "geometry": { "type": "Point", "coordinates": [ 259039.0, 6245748.0 ] } },
{ "type": "Feature", "properties": { "osmid": 398773.0 }, "geometry": { "type": "Point", "coordinates": [ 259677.0, 6252882.0 ] } },
{ "type": "Feature", "properties": { "osmid": 347455664.0 }, "geometry": { "type": "Point", "coordinates": [ 265208.0, 6257687.0 ] } },
{ "type": "Feature", "properties": { "osmid": 6543245175.0 }, "geometry": { "type": "Point", "coordinates": [ 259627.0, 6243908.0 ] } },
{ "type": "Feature", "properties": { "osmid": 9787417386.0 }, "geometry": { "type": "Point", "coordinates": [ 258552.0, 6247343.0 ] } },
{ "type": "Feature", "properties": { "osmid": 8367694734.0 }, "geometry": { "type": "Point", "coordinates": [ 266135.0, 6258066.0 ] } },
{ "type": "Feature", "properties": { "osmid": 1484630050.0 }, "geometry": { "type": "Point", "coordinates": [ 262175.0, 6256278.0 ] } },
{ "type": "Feature", "properties": { "osmid": 2702920385.0 }, "geometry": { "type": "Point", "coordinates": [ 258918.0, 6245177.0 ] } },
{ "type": "Feature", "properties": { "osmid": 9561713750.0 }, "geometry": { "type": "Point", "coordinates": [ 264541.0, 6257694.0 ] } },
{ "type": "Feature", "properties": { "osmid": 5157284090.0 }, "geometry": { "type": "Point", "coordinates": [ 258832.0, 6251574.0 ] } },
{ "type": "Feature", "properties": { "osmid": 7640550852.0 }, "geometry": { "type": "Point", "coordinates": [ 261329.0, 6255602.0 ] } },
{ "type": "Feature", "properties": { "osmid": 13381298263.0 }, "geometry": { "type": "Point", "coordinates": [ 258298.0, 6248631.0 ] } },
{ "type": "Feature", "properties": { "osmid": 202809157.0 }, "geometry": { "type": "Point", "coordinates": [ 262673.0, 6256778.0 ] } },
{ "type": "Feature", "properties": { "osmid": 1841262174.0 }, "geometry": { "type": "Point", "coordinates": [ 258934.0, 6252115.0 ] } },
{ "type": "Feature", "properties": { "osmid": 360946.0 }, "geometry": { "type": "Point", "coordinates": [ 258556.0, 6245947.0 ] } },
{ "type": "Feature", "properties": { "osmid": 94173692.0 }, "geometry": { "type": "Point", "coordinates": [ 259630.0, 6253722.0 ] } },
{ "type": "Feature", "properties": { "osmid": 277591244.0 }, "geometry": { "type": "Point", "coordinates": [ 263978.0, 6257676.0 ] } },
{ "type": "Feature", "properties": { "osmid": 251489608.0 }, "geometry": { "type": "Point", "coordinates": [ 258867.0, 6244674.0 ] } },
{ "type": "Feature", "properties": { "osmid": 29604239.0 }, "geometry": { "type": "Point", "coordinates": [ 259176.0, 6253222.0 ] } },
{ "type": "Feature", "properties": { "osmid": 1233985902.0 }, "geometry": { "type": "Point", "coordinates": [ 260181.0, 6254841.0 ] } },
{ "type": "Feature", "properties": { "osmid": 5775894624.0 }, "geometry": { "type": "Point", "coordinates": [ 258047.0, 6247324.0 ] } },
{ "type": "Feature", "properties": { "osmid": 25273486.0 }, "geometry": { "type": "Point", "coordinates": [ 258856.0, 6252655.0 ] } },
{ "type": "Feature", "properties": { "osmid": 57336018.0 }, "geometry": { "type": "Point", "coordinates": [ 261556.0, 6256303.0 ] } },
{ "type": "Feature", "properties": { "osmid": 2354781630.0 }, "geometry": { "type": "Point", "coordinates": [ 263461.0, 6257647.0 ] } },
{ "type": "Feature", "properties": { "osmid": 94226435.0 }, "geometry": { "type": "Point", "coordinates": [ 260540.0, 6255365.0 ] } },
{ "type": "Feature", "properties": { "osmid": 158684688.0 }, "geometry": { "type": "Point", "coordinates": [ 258404.0, 6245291.0 ] } },
{ "type": "Feature", "properties": { "osmid": 13180634055.0 }, "geometry": { "type": "Point", "coordinates": [ 257898.0, 6248944.0 ] } },
{ "type": "Feature", "properties": { "osmid": 12314245269.0 }, "geometry": { "type": "Point", "coordinates": [ 258419.0, 6252013.0 ] } },
{ "type": "Feature", "properties": { "osmid": 12025716430.0 }, "geometry": { "type": "Point", "coordinates": [ 258206.0, 6251530.0 ] } },
{ "type": "Feature", "properties": { "osmid": 36480662.0 }, "geometry": { "type": "Point", "coordinates": [ 257982.0, 6246242.0 ] } },
{ "type": "Feature", "properties": { "osmid": 2537082845.0 }, "geometry": { "type": "Point", "coordinates": [ 262857.0, 6257629.0 ] } },
{ "type": "Feature", "properties": { "osmid": 7172675431.0 }, "geometry": { "type": "Point", "coordinates": [ 263849.0, 6258164.0 ] } },
{ "type": "Feature", "properties": { "osmid": 21389560.0 }, "geometry": { "type": "Point", "coordinates": [ 258380.0, 6244510.0 ] } },
{ "type": "Feature", "properties": { "osmid": 7690653663.0 }, "geometry": { "type": "Point", "coordinates": [ 259010.0, 6253789.0 ] } },
{ "type": "Feature", "properties": { "osmid": 5586019390.0 }, "geometry": { "type": "Point", "coordinates": [ 257693.0, 6250036.0 ] } },
{ "type": "Feature", "properties": { "osmid": 260693073.0 }, "geometry": { "type": "Point", "coordinates": [ 259446.0, 6254537.0 ] } },
{ "type": "Feature", "properties": { "osmid": 12488224278.0 }, "geometry": { "type": "Point", "coordinates": [ 261395.0, 6256821.0 ] } },
{ "type": "Feature", "properties": { "osmid": 94237705.0 }, "geometry": { "type": "Point", "coordinates": [ 259811.0, 6255229.0 ] } },
{ "type": "Feature", "properties": { "osmid": 10059069974.0 }, "geometry": { "type": "Point", "coordinates": [ 257456.0, 6248268.0 ] } },
{ "type": "Feature", "properties": { "osmid": 25580455.0 }, "geometry": { "type": "Point", "coordinates": [ 257671.0, 6250808.0 ] } },
{ "type": "Feature", "properties": { "osmid": 7264001777.0 }, "geometry": { "type": "Point", "coordinates": [ 257965.0, 6244995.0 ] } },
{ "type": "Feature", "properties": { "osmid": 6368119514.0 }, "geometry": { "type": "Point", "coordinates": [ 260797.0, 6256427.0 ] } },
{ "type": "Feature", "properties": { "osmid": 128065399.0 }, "geometry": { "type": "Point", "coordinates": [ 257727.0, 6245694.0 ] } },
{ "type": "Feature", "properties": { "osmid": 6847382008.0 }, "geometry": { "type": "Point", "coordinates": [ 257185.0, 6248691.0 ] } },
{ "type": "Feature", "properties": { "osmid": 5752032491.0 }, "geometry": { "type": "Point", "coordinates": [ 257313.0, 6246532.0 ] } },
{ "type": "Feature", "properties": { "osmid": 13290256244.0 }, "geometry": { "type": "Point", "coordinates": [ 261880.0, 6257616.0 ] } },
{ "type": "Feature", "properties": { "osmid": 11930936172.0 }, "geometry": { "type": "Point", "coordinates": [ 262657.0, 6258187.0 ] } },
{ "type": "Feature", "properties": { "osmid": 13236130209.0 }, "geometry": { "type": "Point", "coordinates": [ 257511.0, 6251631.0 ] } },
{ "type": "Feature", "properties": { "osmid": 94220945.0 }, "geometry": { "type": "Point", "coordinates": [ 259130.0, 6254983.0 ] } },
{ "type": "Feature", "properties": { "osmid": 11919380725.0 }, "geometry": { "type": "Point", "coordinates": [ 258293.0, 6253607.0 ] } },
{ "type": "Feature", "properties": { "osmid": 13536123398.0 }, "geometry": { "type": "Point", "coordinates": [ 258810.0, 6254593.0 ] } },
{ "type": "Feature", "properties": { "osmid": 5736700953.0 }, "geometry": { "type": "Point", "coordinates": [ 257346.0, 6245293.0 ] } },
{ "type": "Feature", "properties": { "osmid": 24910701.0 }, "geometry": { "type": "Point", "coordinates": [ 260866.0, 6257199.0 ] } },
{ "type": "Feature", "properties": { "osmid": 116111865.0 }, "geometry": { "type": "Point", "coordinates": [ 256778.0, 6247943.0 ] } },
{ "type": "Feature", "properties": { "osmid": 7392922869.0 }, "geometry": { "type": "Point", "coordinates": [ 261206.0, 6257586.0 ] } },
{ "type": "Feature", "properties": { "osmid": 24911706.0 }, "geometry": { "type": "Point", "coordinates": [ 259925.0, 6256504.0 ] } },
{ "type": "Feature", "properties": { "osmid": 64624092.0 }, "geometry": { "type": "Point", "coordinates": [ 256885.0, 6245856.0 ] } },
{ "type": "Feature", "properties": { "osmid": 9966747451.0 }, "geometry": { "type": "Point", "coordinates": [ 258950.0, 6255591.0 ] } },
{ "type": "Feature", "properties": { "osmid": 368272.0 }, "geometry": { "type": "Point", "coordinates": [ 256641.0, 6250170.0 ] } },
{ "type": "Feature", "properties": { "osmid": 27235266.0 }, "geometry": { "type": "Point", "coordinates": [ 257683.0, 6253722.0 ] } },
{ "type": "Feature", "properties": { "osmid": 6620531007.0 }, "geometry": { "type": "Point", "coordinates": [ 257209.0, 6252658.0 ] } },
{ "type": "Feature", "properties": { "osmid": 6840567023.0 }, "geometry": { "type": "Point", "coordinates": [ 256376.0, 6249044.0 ] } },
{ "type": "Feature", "properties": { "osmid": 24911952.0 }, "geometry": { "type": "Point", "coordinates": [ 260294.0, 6257391.0 ] } },
{ "type": "Feature", "properties": { "osmid": 9589451142.0 }, "geometry": { "type": "Point", "coordinates": [ 256520.0, 6246313.0 ] } },
{ "type": "Feature", "properties": { "osmid": 11921771167.0 }, "geometry": { "type": "Point", "coordinates": [ 257785.0, 6254250.0 ] } },
{ "type": "Feature", "properties": { "osmid": 113494973.0 }, "geometry": { "type": "Point", "coordinates": [ 256317.0, 6247744.0 ] } },
{ "type": "Feature", "properties": { "osmid": 24911715.0 }, "geometry": { "type": "Point", "coordinates": [ 259432.0, 6256633.0 ] } },
{ "type": "Feature", "properties": { "osmid": 12258543303.0 }, "geometry": { "type": "Point", "coordinates": [ 257923.0, 6254750.0 ] } },
{ "type": "Feature", "properties": { "osmid": 9996867194.0 }, "geometry": { "type": "Point", "coordinates": [ 259005.0, 6256315.0 ] } },
{ "type": "Feature", "properties": { "osmid": 32560746.0 }, "geometry": { "type": "Point", "coordinates": [ 257151.0, 6253355.0 ] } },
{ "type": "Feature", "properties": { "osmid": 25625650.0 }, "geometry": { "type": "Point", "coordinates": [ 256739.0, 6252327.0 ] } },
{ "type": "Feature", "properties": { "osmid": 12297066056.0 }, "geometry": { "type": "Point", "coordinates": [ 256417.0, 6245500.0 ] } },
{ "type": "Feature", "properties": { "osmid": 241083467.0 }, "geometry": { "type": "Point", "coordinates": [ 258567.0, 6256069.0 ] } },
{ "type": "Feature", "properties": { "osmid": 2905350307.0 }, "geometry": { "type": "Point", "coordinates": [ 257257.0, 6254108.0 ] } },
{ "type": "Feature", "properties": { "osmid": 25625641.0 }, "geometry": { "type": "Point", "coordinates": [ 256400.0, 6251945.0 ] } },
{ "type": "Feature", "properties": { "osmid": 3406965273.0 }, "geometry": { "type": "Point", "coordinates": [ 259763.0, 6257551.0 ] } },
{ "type": "Feature", "properties": { "osmid": 1928784676.0 }, "geometry": { "type": "Point", "coordinates": [ 255826.0, 6249301.0 ] } },
{ "type": "Feature", "properties": { "osmid": 9968501188.0 }, "geometry": { "type": "Point", "coordinates": [ 257402.0, 6254663.0 ] } },
{ "type": "Feature", "properties": { "osmid": 10246666287.0 }, "geometry": { "type": "Point", "coordinates": [ 259197.0, 6257187.0 ] } },
{ "type": "Feature", "properties": { "osmid": 8371428262.0 }, "geometry": { "type": "Point", "coordinates": [ 255713.0, 6247907.0 ] } },
{ "type": "Feature", "properties": { "osmid": 139248385.0 }, "geometry": { "type": "Point", "coordinates": [ 255748.0, 6247373.0 ] } },
{ "type": "Feature", "properties": { "osmid": 1777319596.0 }, "geometry": { "type": "Point", "coordinates": [ 255927.0, 6245926.0 ] } },
{ "type": "Feature", "properties": { "osmid": 2270376042.0 }, "geometry": { "type": "Point", "coordinates": [ 259961.0, 6258072.0 ] } },
{ "type": "Feature", "properties": { "osmid": 12098888206.0 }, "geometry": { "type": "Point", "coordinates": [ 256612.0, 6253634.0 ] } },
{ "type": "Feature", "properties": { "osmid": 4616541.0 }, "geometry": { "type": "Point", "coordinates": [ 255912.0, 6251803.0 ] } },
{ "type": "Feature", "properties": { "osmid": 25625960.0 }, "geometry": { "type": "Point", "coordinates": [ 256194.0, 6252847.0 ] } },
{ "type": "Feature", "properties": { "osmid": 11348326100.0 }, "geometry": { "type": "Point", "coordinates": [ 257755.0, 6255945.0 ] } },
{ "type": "Feature", "properties": { "osmid": 139226277.0 }, "geometry": { "type": "Point", "coordinates": [ 255367.0, 6248573.0 ] } },
{ "type": "Feature", "properties": { "osmid": 3692964159.0 }, "geometry": { "type": "Point", "coordinates": [ 258028.0, 6256382.0 ] } },
{ "type": "Feature", "properties": { "osmid": 2268003733.0 }, "geometry": { "type": "Point", "coordinates": [ 259387.0, 6257952.0 ] } },
{ "type": "Feature", "properties": { "osmid": 470180.0 }, "geometry": { "type": "Point", "coordinates": [ 255547.0, 6251231.0 ] } },
{ "type": "Feature", "properties": { "osmid": 178766485.0 }, "geometry": { "type": "Point", "coordinates": [ 258469.0, 6257196.0 ] } },
{ "type": "Feature", "properties": { "osmid": 9422726688.0 }, "geometry": { "type": "Point", "coordinates": [ 255208.0, 6249600.0 ] } },
{ "type": "Feature", "properties": { "osmid": 268238284.0 }, "geometry": { "type": "Point", "coordinates": [ 258798.0, 6257724.0 ] } },
{ "type": "Feature", "properties": { "osmid": 5996498042.0 }, "geometry": { "type": "Point", "coordinates": [ 255899.0, 6253290.0 ] } },
{ "type": "Feature", "properties": { "osmid": 34909787.0 }, "geometry": { "type": "Point", "coordinates": [ 255189.0, 6246202.0 ] } },
{ "type": "Feature", "properties": { "osmid": 116147457.0 }, "geometry": { "type": "Point", "coordinates": [ 254977.0, 6246754.0 ] } },
{ "type": "Feature", "properties": { "osmid": 470177.0 }, "geometry": { "type": "Point", "coordinates": [ 255032.0, 6250715.0 ] } },
{ "type": "Feature", "properties": { "osmid": 677125484.0 }, "geometry": { "type": "Point", "coordinates": [ 254840.0, 6247477.0 ] } },
{ "type": "Feature", "properties": { "osmid": 5475363670.0 }, "geometry": { "type": "Point", "coordinates": [ 257685.0, 6256839.0 ] } },
{ "type": "Feature", "properties": { "osmid": 6304250506.0 }, "geometry": { "type": "Point", "coordinates": [ 254871.0, 6250114.0 ] } },
{ "type": "Feature", "properties": { "osmid": 338733015.0 }, "geometry": { "type": "Point", "coordinates": [ 254698.0, 6248881.0 ] } },
{ "type": "Feature", "properties": { "osmid": 3686921239.0 }, "geometry": { "type": "Point", "coordinates": [ 255880.0, 6254196.0 ] } },
{ "type": "Feature", "properties": { "osmid": 12506750892.0 }, "geometry": { "type": "Point", "coordinates": [ 255574.0, 6253703.0 ] } },
{ "type": "Feature", "properties": { "osmid": 12264434708.0 }, "geometry": { "type": "Point", "coordinates": [ 256592.0, 6255765.0 ] } },
{ "type": "Feature", "properties": { "osmid": 10878470029.0 }, "geometry": { "type": "Point", "coordinates": [ 254546.0, 6250574.0 ] } },
{ "type": "Feature", "properties": { "osmid": 12791904190.0 }, "geometry": { "type": "Point", "coordinates": [ 254719.0, 6251646.0 ] } },
{ "type": "Feature", "properties": { "osmid": 10841468856.0 }, "geometry": { "type": "Point", "coordinates": [ 256796.0, 6256486.0 ] } },
{ "type": "Feature", "properties": { "osmid": 12606665811.0 }, "geometry": { "type": "Point", "coordinates": [ 254283.0, 6246810.0 ] } },
{ "type": "Feature", "properties": { "osmid": 11712135496.0 }, "geometry": { "type": "Point", "coordinates": [ 254221.0, 6249586.0 ] } },
{ "type": "Feature", "properties": { "osmid": 5751911435.0 }, "geometry": { "type": "Point", "coordinates": [ 254352.0, 6246146.0 ] } },
{ "type": "Feature", "properties": { "osmid": 11001766394.0 }, "geometry": { "type": "Point", "coordinates": [ 257208.0, 6257298.0 ] } },
{ "type": "Feature", "properties": { "osmid": 11333186747.0 }, "geometry": { "type": "Point", "coordinates": [ 255069.0, 6253651.0 ] } },
{ "type": "Feature", "properties": { "osmid": 11300086297.0 }, "geometry": { "type": "Point", "coordinates": [ 256150.0, 6256014.0 ] } },
{ "type": "Feature", "properties": { "osmid": 27235519.0 }, "geometry": { "type": "Point", "coordinates": [ 255512.0, 6255157.0 ] } },
{ "type": "Feature", "properties": { "osmid": 21292974.0 }, "geometry": { "type": "Point", "coordinates": [ 255094.0, 6254400.0 ] } },
{ "type": "Feature", "properties": { "osmid": 13528962965.0 }, "geometry": { "type": "Point", "coordinates": [ 253991.0, 6250715.0 ] } },
{ "type": "Feature", "properties": { "osmid": 116120352.0 }, "geometry": { "type": "Point", "coordinates": [ 253867.0, 6247146.0 ] } },
{ "type": "Feature", "properties": { "osmid": 11300086277.0 }, "geometry": { "type": "Point", "coordinates": [ 255723.0, 6255709.0 ] } },
{ "type": "Feature", "properties": { "osmid": 9014035582.0 }, "geometry": { "type": "Point", "coordinates": [ 256216.0, 6256523.0 ] } },
{ "type": "Feature", "properties": { "osmid": 34816538.0 }, "geometry": { "type": "Point", "coordinates": [ 254387.0, 6252742.0 ] } },
{ "type": "Feature", "properties": { "osmid": 3094537825.0 }, "geometry": { "type": "Point", "coordinates": [ 253890.0, 6246441.0 ] } },
{ "type": "Feature", "properties": { "osmid": 140107707.0 }, "geometry": { "type": "Point", "coordinates": [ 253685.0, 6249005.0 ] } },
{ "type": "Feature", "properties": { "osmid": 4616553.0 }, "geometry": { "type": "Point", "coordinates": [ 253639.0, 6249672.0 ] } },
{ "type": "Feature", "properties": { "osmid": 11307709007.0 }, "geometry": { "type": "Point", "coordinates": [ 255217.0, 6255568.0 ] } },
{ "type": "Feature", "properties": { "osmid": 6792141425.0 }, "geometry": { "type": "Point", "coordinates": [ 253349.0, 6248606.0 ] } },
{ "type": "Feature", "properties": { "osmid": 11333186702.0 }, "geometry": { "type": "Point", "coordinates": [ 254407.0, 6254012.0 ] } },
{ "type": "Feature", "properties": { "osmid": 2784211930.0 }, "geometry": { "type": "Point", "coordinates": [ 253389.0, 6246636.0 ] } },
{ "type": "Feature", "properties": { "osmid": 12048793812.0 }, "geometry": { "type": "Point", "coordinates": [ 253483.0, 6250993.0 ] } },
{ "type": "Feature", "properties": { "osmid": 11311444836.0 }, "geometry": { "type": "Point", "coordinates": [ 254821.0, 6255195.0 ] } },
{ "type": "Feature", "properties": { "osmid": 6490857702.0 }, "geometry": { "type": "Point", "coordinates": [ 253205.0, 6247261.0 ] } },
{ "type": "Feature", "properties": { "osmid": 11327653078.0 }, "geometry": { "type": "Point", "coordinates": [ 254395.0, 6254609.0 ] } },
{ "type": "Feature", "properties": { "osmid": 291589026.0 }, "geometry": { "type": "Point", "coordinates": [ 253949.0, 6253806.0 ] } },
{ "type": "Feature", "properties": { "osmid": 130234860.0 }, "geometry": { "type": "Point", "coordinates": [ 252913.0, 6247788.0 ] } },
{ "type": "Feature", "properties": { "osmid": 1524863497.0 }, "geometry": { "type": "Point", "coordinates": [ 253273.0, 6251881.0 ] } },
{ "type": "Feature", "properties": { "osmid": 248175139.0 }, "geometry": { "type": "Point", "coordinates": [ 253093.0, 6245820.0 ] } },
{ "type": "Feature", "properties": { "osmid": 268140568.0 }, "geometry": { "type": "Point", "coordinates": [ 254676.0, 6255806.0 ] } },
{ "type": "Feature", "properties": { "osmid": 1911142315.0 }, "geometry": { "type": "Point", "coordinates": [ 252941.0, 6250848.0 ] } },
{ "type": "Feature", "properties": { "osmid": 10716350011.0 }, "geometry": { "type": "Point", "coordinates": [ 253853.0, 6254306.0 ] } },
{ "type": "Feature", "properties": { "osmid": 13395225952.0 }, "geometry": { "type": "Point", "coordinates": [ 253402.0, 6253048.0 ] } },
{ "type": "Feature", "properties": { "osmid": 10733009382.0 }, "geometry": { "type": "Point", "coordinates": [ 252670.0, 6249376.0 ] } },
{ "type": "Feature", "properties": { "osmid": 6088222351.0 }, "geometry": { "type": "Point", "coordinates": [ 253929.0, 6254806.0 ] } },
{ "type": "Feature", "properties": { "osmid": 13372288958.0 }, "geometry": { "type": "Point", "coordinates": [ 253081.0, 6252635.0 ] } },
{ "type": "Feature", "properties": { "osmid": 13071206035.0 }, "geometry": { "type": "Point", "coordinates": [ 253453.0, 6253994.0 ] } },
{ "type": "Feature", "properties": { "osmid": 297891323.0 }, "geometry": { "type": "Point", "coordinates": [ 252411.0, 6248342.0 ] } },
{ "type": "Feature", "properties": { "osmid": 7786436917.0 }, "geometry": { "type": "Point", "coordinates": [ 252446.0, 6247178.0 ] } },
{ "type": "Feature", "properties": { "osmid": 957634567.0 }, "geometry": { "type": "Point", "coordinates": [ 252616.0, 6251640.0 ] } },
{ "type": "Feature", "properties": { "osmid": 34818665.0 }, "geometry": { "type": "Point", "coordinates": [ 252042.0, 6249106.0 ] } },
{ "type": "Feature", "properties": { "osmid": 10142801476.0 }, "geometry": { "type": "Point", "coordinates": [ 252849.0, 6253615.0 ] } },
{ "type": "Feature", "properties": { "osmid": 260655250.0 }, "geometry": { "type": "Point", "coordinates": [ 252013.0, 6248008.0 ] } },
{ "type": "Feature", "properties": { "osmid": 5593849574.0 }, "geometry": { "type": "Point", "coordinates": [ 252129.0, 6250699.0 ] } },
{ "type": "Feature", "properties": { "osmid": 3756424984.0 }, "geometry": { "type": "Point", "coordinates": [ 252053.0, 6251579.0 ] } },
{ "type": "Feature", "properties": { "osmid": 12357768728.0 }, "geometry": { "type": "Point", "coordinates": [ 252236.0, 6252591.0 ] } },
{ "type": "Feature", "properties": { "osmid": 5021625362.0 }, "geometry": { "type": "Point", "coordinates": [ 251798.0, 6246828.0 ] } },
{ "type": "Feature", "properties": { "osmid": 260618028.0 }, "geometry": { "type": "Point", "coordinates": [ 251726.0, 6247553.0 ] } },
{ "type": "Feature", "properties": { "osmid": 428878181.0 }, "geometry": { "type": "Point", "coordinates": [ 252337.0, 6253385.0 ] } },
{ "type": "Feature", "properties": { "osmid": 34818779.0 }, "geometry": { "type": "Point", "coordinates": [ 251533.0, 6249131.0 ] } },
{ "type": "Feature", "properties": { "osmid": 13144187719.0 }, "geometry": { "type": "Point", "coordinates": [ 251476.0, 6248052.0 ] } },
{ "type": "Feature", "properties": { "osmid": 5586937146.0 }, "geometry": { "type": "Point", "coordinates": [ 251446.0, 6250859.0 ] } },
{ "type": "Feature", "properties": { "osmid": 7844084725.0 }, "geometry": { "type": "Point", "coordinates": [ 251172.0, 6247472.0 ] } },
{ "type": "Feature", "properties": { "osmid": 5291742745.0 }, "geometry": { "type": "Point", "coordinates": [ 251051.0, 6246928.0 ] } },
{ "type": "Feature", "properties": { "osmid": 27373428.0 }, "geometry": { "type": "Point", "coordinates": [ 250931.0, 6253457.0 ] } },
{ "type": "Feature", "properties": { "osmid": 359071960.0 }, "geometry": { "type": "Point", "coordinates": [ 250313.0, 6252644.0 ] } },
{ "type": "Feature", "properties": { "osmid": 564741133.0 }, "geometry": { "type": "Point", "coordinates": [ 250090.0, 6253846.0 ] } },
{ "type": "Feature", "properties": { "osmid": 1517499236.0 }, "geometry": { "type": "Point", "coordinates": [ 249456.0, 6251846.0 ] } },
{ "type": "Feature", "properties": { "osmid": 271461622.0 }, "geometry": { "type": "Point", "coordinates": [ 249007.0, 6249773.0 ] } },
{ "type": "Feature", "properties": { "osmid": 428881621.0 }, "geometry": { "type": "Point", "coordinates": [ 249125.0, 6251448.0 ] } },
{ "type": "Feature", "properties": { "osmid": 428917342.0 }, "geometry": { "type": "Point", "coordinates": [ 248764.0, 6252008.0 ] } },
{ "type": "Feature", "properties": { "osmid": 27180835.0 }, "geometry": { "type": "Point", "coordinates": [ 248254.0, 6251382.0 ] } },
{ "type": "Feature", "properties": { "osmid": 6591432554.0 }, "geometry": { "type": "Point", "coordinates": [ 248081.0, 6250586.0 ] } },
{ "type": "Feature", "properties": { "osmid": 12546051923.0 }, "geometry": { "type": "Point", "coordinates": [ 247861.0, 6250019.0 ] } }
]
}
