{
"type": "FeatureCollection",
"name": "paris-city_boundary",
"crs": { "type": "name", "properties": { "name": "urn:ogc:def:crs:EPSG::3857" } },
"features": [
{ "type": "Feature", "properties": { "bbox_west": 2.224122, "bbox_south": 48.8155755, "bbox_east": 2.4697602, "bbox_north": 48.902156, "place_id": 88066702, "osm_type": "relation", "osm_id": 71525, "lat": 48.8534951, "lon": 2.3483915, "class": "boundary", "type": "administrative", "place_rank": 12, "importance": 0.89709809213602598, "addresstype": "city", "name": "Paris", "display_name": "Paris, Ile-de-France, Metropolitan France, France" }, "geometry": { "type": "Polygon", "coordinates": [ [ [ 257484.0, 6244799.0 ], [ 257384.0, 6244833.0 ], [ 257318.0, 6244855.0 ], [ 257177.0, 6244903.0 ], [ 257043.0, 6244947.0 ], [ 256972.0, 6244971.0 ], [ 256958.0, 6244975.0 ], [ 256813.0, 6245025.0 ], [ 256802.0, 6245028.0 ], [ 256793.0, 6245031.0 ], [ 256759.0, 6245043.0 ], [ 256741.0, 6245049.0 ], [ 256684.0, 6245068.0 ], [ 256522.0, 6245124.0 ], [ 256494.0, 6245134.0 ], [ 256485.0, 6245137.0 ], [ 256481.0, 6245138.0 ], [ 256478.0, 6245139.0 ], [ 256295.0, 6245203.0 ], [ 256272.0, 6245211.0 ], [ 256259.0, 6245215.0 ], [ 256255.0, 6245216.0 ], [ 256233.0, 6245223.0 ], [ 256182.0, 6245241.0 ], [ 256114.0, 6245263.0 ], [ 256089.0, 6245271.0 ], [ 256067.0, 6245278.0 ], [ 255773.0, 6245374.0 ], [ 255700.0, 6245399.0 ], [ 255480.0, 6245475.0 ], [ 255392.0, 6245505.0 ], [ 255346.0, 6245521.0 ], [ 255179.0, 6245577.0 ], [ 255169.0, 6245581.0 ], [ 255159.0, 6245587.0 ], [ 255151.0, 6245593.0 ], [ 255146.0, 6245596.0 ], [ 255138.0, 6245601.0 ], [ 255022.0, 6245674.0 ], [ 254853.0, 6245782.0 ], [ 254475.0, 6246025.0 ], [ 254417.0, 6246061.0 ], [ 254358.0, 6246099.0 ], [ 254347.0, 6246106.0 ], [ 254330.0, 6246117.0 ], [ 254183.0, 6246211.0 ], [ 254129.0, 6246241.0 ], [ 253972.0, 6246328.0 ], [ 253867.0, 6246387.0 ], [ 253850.0, 6246397.0 ], [ 253836.0, 6246404.0 ], [ 253714.0, 6246472.0 ], [ 253703.0, 6246479.0 ], [ 253569.0, 6246310.0 ], [ 253403.0, 6246101.0 ], [ 253340.0, 6246015.0 ], [ 253077.0, 6245778.0 ], [ 253076.0, 6245778.0 ], [ 253008.0, 6245721.0 ], [ 253001.0, 6245716.0 ], [ 252844.0, 6245711.0 ], [ 252818.0, 6245710.0 ], [ 252451.0, 6245701.0 ], [ 252447.0, 6245705.0 ], [ 252429.0, 6245721.0 ], [ 252395.0, 6246329.0 ], [ 252659.0, 6246541.0 ], [ 252699.0, 6246574.0 ], [ 252694.0, 6246580.0 ], [ 252690.0, 6246585.0 ], [ 252686.0, 6246589.0 ], [ 252570.0, 6246710.0 ], [ 252514.0, 6246777.0 ], [ 252467.0, 6246839.0 ], [ 252413.0, 6246847.0 ], [ 252356.0, 6246830.0 ], [ 252353.0, 6246829.0 ], [ 252344.0, 6246828.0 ], [ 252324.0, 6246825.0 ], [ 252275.0, 6246819.0 ], [ 252270.0, 6246818.0 ], [ 252165.0, 6246790.0 ], [ 252140.0, 6246784.0 ], [ 252129.0, 6246781.0 ], [ 252068.0, 6246766.0 ], [ 251912.0, 6246724.0 ], [ 251891.0, 6246728.0 ], [ 251807.0, 6246743.0 ], [ 251765.0, 6246751.0 ], [ 251752.0, 6246753.0 ], [ 251751.0, 6246753.0 ], [ 251728.0, 6246757.0 ], [ 251712.0, 6246759.0 ], [ 251523.0, 6246793.0 ], [ 251299.0, 6246833.0 ], [ 251260.0, 6246839.0 ], [ 251248.0, 6246842.0 ], [ 251230.0, 6246845.0 ], [ 251156.0, 6246858.0 ], [ 251090.0, 6246869.0 ], [ 251061.0, 6246874.0 ], [ 251043.0, 6246878.0 ], [ 251033.0, 6246894.0 ], [ 250936.0, 6247066.0 ], [ 250862.0, 6247205.0 ], [ 250848.0, 6247226.0 ], [ 250836.0, 6247243.0 ], [ 250804.0, 6247301.0 ], [ 250728.0, 6247442.0 ], [ 250716.0, 6247458.0 ], [ 250701.0, 6247484.0 ], [ 250698.0, 6247490.0 ], [ 250652.0, 6247571.0 ], [ 250648.0, 6247635.0 ], [ 250643.0, 6247697.0 ], [ 250639.0, 6247757.0 ], [ 250635.0, 6247818.0 ], [ 250625.0, 6247951.0 ], [ 250614.0, 6248101.0 ], [ 250614.0, 6248110.0 ], [ 250614.0, 6248113.0 ], [ 250610.0, 6248162.0 ], [ 250607.0, 6248209.0 ], [ 250605.0, 6248240.0 ], [ 250751.0, 6248698.0 ], [ 250574.0, 6248704.0 ], [ 250571.0, 6248703.0 ], [ 250566.0, 6248704.0 ], [ 250561.0, 6248705.0 ], [ 250544.0, 6248708.0 ], [ 250529.0, 6248713.0 ], [ 250524.0, 6248715.0 ], [ 250516.0, 6248718.0 ], [ 250442.0, 6248745.0 ], [ 250234.0, 6248828.0 ], [ 250105.0, 6248879.0 ], [ 249690.0, 6249041.0 ], [ 249630.0, 6249064.0 ], [ 249617.0, 6249081.0 ], [ 249588.0, 6249119.0 ], [ 249533.0, 6249192.0 ], [ 249525.0, 6249204.0 ], [ 249523.0, 6249206.0 ], [ 249514.0, 6249217.0 ], [ 249390.0, 6249380.0 ], [ 249369.0, 6249405.0 ], [ 249350.0, 6249423.0 ], [ 249322.0, 6249444.0 ], [ 249306.0, 6249454.0 ], [ 249280.0, 6249466.0 ], [ 249254.0, 6249475.0 ], [ 249149.0, 6249510.0 ], [ 249111.0, 6249522.0 ], [ 247837.0, 6249948.0 ], [ 247748.0, 6249978.0 ], [ 247593.0, 6250030.0 ], [ 247592.0, 6250036.0 ], [ 247590.0, 6250053.0 ], [ 247590.0, 6250066.0 ], [ 247589.0, 6250084.0 ], [ 247588.0, 6250102.0 ], [ 247588.0, 6250128.0 ], [ 247588.0, 6250158.0 ], [ 247592.0, 6250229.0 ], [ 247603.0, 6250334.0 ], [ 247610.0, 6250387.0 ], [ 247616.0, 6250431.0 ], [ 247626.0, 6250502.0 ], [ 247639.0, 6250570.0 ], [ 247662.0, 6250688.0 ], [ 247672.0, 6250734.0 ], [ 247686.0, 6250798.0 ], [ 247692.0, 6250822.0 ], [ 247699.0, 6250847.0 ], [ 247711.0, 6250889.0 ], [ 247718.0, 6250907.0 ], [ 247734.0, 6250956.0 ], [ 247765.0, 6251044.0 ], [ 247842.0, 6251302.0 ], [ 247898.0, 6251443.0 ], [ 247941.0, 6251575.0 ], [ 248014.0, 6251873.0 ], [ 248047.0, 6252010.0 ], [ 248067.0, 6252058.0 ], [ 248092.0, 6252115.0 ], [ 248184.0, 6252278.0 ], [ 248196.0, 6252298.0 ], [ 248284.0, 6252448.0 ], [ 248379.0, 6252599.0 ], [ 248474.0, 6252748.0 ], [ 248559.0, 6252790.0 ], [ 248690.0, 6252846.0 ], [ 249063.0, 6253003.0 ], [ 249319.0, 6253098.0 ], [ 249369.0, 6253123.0 ], [ 249407.0, 6253151.0 ], [ 249472.0, 6253217.0 ], [ 249730.0, 6253530.0 ], [ 249982.0, 6253909.0 ], [ 250024.0, 6253895.0 ], [ 250203.0, 6253826.0 ], [ 250423.0, 6253742.0 ], [ 251005.0, 6253522.0 ], [ 251032.0, 6253535.0 ], [ 251071.0, 6253553.0 ], [ 251405.0, 6254541.0 ], [ 251411.0, 6254544.0 ], [ 251414.0, 6254546.0 ], [ 251458.0, 6254572.0 ], [ 251612.0, 6254542.0 ], [ 252097.0, 6254451.0 ], [ 253529.0, 6254179.0 ], [ 253590.0, 6254207.0 ], [ 253653.0, 6254236.0 ], [ 253655.0, 6254237.0 ], [ 253786.0, 6254296.0 ], [ 253804.0, 6254305.0 ], [ 253908.0, 6254997.0 ], [ 253919.0, 6255023.0 ], [ 253933.0, 6255040.0 ], [ 254012.0, 6255134.0 ], [ 254016.0, 6255138.0 ], [ 254048.0, 6255176.0 ], [ 254306.0, 6255477.0 ], [ 254416.0, 6255613.0 ], [ 254439.0, 6255637.0 ], [ 254484.0, 6255671.0 ], [ 254600.0, 6255757.0 ], [ 254672.0, 6255811.0 ], [ 254882.0, 6255968.0 ], [ 255052.0, 6256095.0 ], [ 255050.0, 6256098.0 ], [ 255089.0, 6256126.0 ], [ 255109.0, 6256129.0 ], [ 255225.0, 6256149.0 ], [ 255249.0, 6256153.0 ], [ 255313.0, 6256164.0 ], [ 255334.0, 6256168.0 ], [ 255371.0, 6256175.0 ], [ 255394.0, 6256179.0 ], [ 255395.0, 6256179.0 ], [ 255408.0, 6256181.0 ], [ 255483.0, 6256195.0 ], [ 255541.0, 6256240.0 ], [ 255547.0, 6256245.0 ], [ 255552.0, 6256249.0 ], [ 255641.0, 6256319.0 ], [ 255737.0, 6256396.0 ], [ 255748.0, 6256405.0 ], [ 255753.0, 6256409.0 ], [ 255797.0, 6256445.0 ], [ 255813.0, 6256457.0 ], [ 255815.0, 6256459.0 ], [ 255823.0, 6256465.0 ], [ 255833.0, 6256473.0 ], [ 255835.0, 6256474.0 ], [ 255875.0, 6256506.0 ], [ 255883.0, 6256512.0 ], [ 255923.0, 6256541.0 ], [ 255930.0, 6256546.0 ], [ 255960.0, 6256567.0 ], [ 255976.0, 6256579.0 ], [ 256000.0, 6256596.0 ], [ 256016.0, 6256607.0 ], [ 256038.0, 6256623.0 ], [ 256073.0, 6256648.0 ], [ 256082.0, 6256655.0 ], [ 256087.0, 6256658.0 ], [ 256104.0, 6256670.0 ], [ 256208.0, 6256745.0 ], [ 256400.0, 6256880.0 ], [ 256413.0, 6256890.0 ], [ 256457.0, 6256923.0 ], [ 256705.0, 6257102.0 ], [ 256835.0, 6257197.0 ], [ 256849.0, 6257207.0 ], [ 256876.0, 6257226.0 ], [ 256891.0, 6257235.0 ], [ 256905.0, 6257243.0 ], [ 257097.0, 6257353.0 ], [ 257355.0, 6257500.0 ], [ 257409.0, 6257531.0 ], [ 257491.0, 6257568.0 ], [ 257527.0, 6257584.0 ], [ 257737.0, 6257682.0 ], [ 257835.0, 6257731.0 ], [ 258098.0, 6257848.0 ], [ 258119.0, 6257867.0 ], [ 258161.0, 6257906.0 ], [ 258249.0, 6257988.0 ], [ 258288.0, 6258026.0 ], [ 258301.0, 6258039.0 ], [ 258406.0, 6258045.0 ], [ 258516.0, 6258050.0 ], [ 258716.0, 6258060.0 ], [ 258916.0, 6258072.0 ], [ 259127.0, 6258078.0 ], [ 259395.0, 6258085.0 ], [ 259504.0, 6258089.0 ], [ 259523.0, 6258089.0 ], [ 259566.0, 6258091.0 ], [ 259888.0, 6258103.0 ], [ 259890.0, 6258103.0 ], [ 259896.0, 6258103.0 ], [ 259899.0, 6258103.0 ], [ 259913.0, 6258104.0 ], [ 259932.0, 6258104.0 ], [ 259943.0, 6258105.0 ], [ 259949.0, 6258105.0 ], [ 259961.0, 6258105.0 ], [ 259973.0, 6258106.0 ], [ 259979.0, 6258106.0 ], [ 259986.0, 6258106.0 ], [ 259987.0, 6258106.0 ], [ 260000.0, 6258107.0 ], [ 260004.0, 6258107.0 ], [ 260024.0, 6258107.0 ], [ 260046.0, 6258108.0 ], [ 260049.0, 6258108.0 ], [ 260062.0, 6258109.0 ], [ 260084.0, 6258109.0 ], [ 260103.0, 6258110.0 ], [ 260109.0, 6258110.0 ], [ 260121.0, 6258111.0 ], [ 260122.0, 6258111.0 ], [ 260127.0, 6258111.0 ], [ 260150.0, 6258112.0 ], [ 260169.0, 6258112.0 ], [ 260170.0, 6258113.0 ], [ 260184.0, 6258113.0 ], [ 260191.0, 6258113.0 ], [ 260199.0, 6258114.0 ], [ 260248.0, 6258115.0 ], [ 260338.0, 6258118.0 ], [ 260476.0, 6258122.0 ], [ 260736.0, 6258130.0 ], [ 260853.0, 6258133.0 ], [ 260931.0, 6258135.0 ], [ 260945.0, 6258136.0 ], [ 260962.0, 6258136.0 ], [ 261043.0, 6258139.0 ], [ 261385.0, 6258150.0 ], [ 261810.0, 6258163.0 ], [ 261818.0, 6258163.0 ], [ 261830.0, 6258163.0 ], [ 261946.0, 6258166.0 ], [ 261963.0, 6258167.0 ], [ 262165.0, 6258173.0 ], [ 262474.0, 6258183.0 ], [ 262539.0, 6258184.0 ], [ 262545.0, 6258185.0 ], [ 262586.0, 6258186.0 ], [ 262652.0, 6258188.0 ], [ 262882.0, 6258195.0 ], [ 262905.0, 6258195.0 ], [ 262935.0, 6258196.0 ], [ 263341.0, 6258209.0 ], [ 263839.0, 6258224.0 ], [ 263860.0, 6258225.0 ], [ 264000.0, 6258230.0 ], [ 264493.0, 6258246.0 ], [ 264829.0, 6258257.0 ], [ 264949.0, 6258261.0 ], [ 265433.0, 6258276.0 ], [ 265495.0, 6258258.0 ], [ 265629.0, 6258220.0 ], [ 265746.0, 6258186.0 ], [ 265965.0, 6258124.0 ], [ 265986.0, 6258117.0 ], [ 266130.0, 6258077.0 ], [ 266188.0, 6258028.0 ], [ 266189.0, 6258027.0 ], [ 266190.0, 6258027.0 ], [ 266196.0, 6258022.0 ], [ 266470.0, 6257786.0 ], [ 266669.0, 6257616.0 ], [ 266697.0, 6257546.0 ], [ 266724.0, 6257479.0 ], [ 266771.0, 6257365.0 ], [ 266773.0, 6257360.0 ], [ 266825.0, 6257230.0 ], [ 266833.0, 6257211.0 ], [ 266836.0, 6257203.0 ], [ 266841.0, 6257190.0 ], [ 266914.0, 6257005.0 ], [ 266918.0, 6256995.0 ], [ 266946.0, 6256840.0 ], [ 266947.0, 6256835.0 ], [ 266947.0, 6256830.0 ], [ 266949.0, 6256820.0 ], [ 266953.0, 6256799.0 ], [ 266957.0, 6256773.0 ], [ 266976.0, 6256663.0 ], [ 267014.0, 6256445.0 ], [ 267033.0, 6256258.0 ], [ 267046.0, 6256143.0 ], [ 267074.0, 6255934.0 ], [ 267077.0, 6255918.0 ], [ 267077.0, 6255823.0 ], [ 267077.0, 6255817.0 ], [ 267078.0, 6255661.0 ], [ 267078.0, 6255632.0 ], [ 267079.0, 6255518.0 ], [ 267080.0, 6255442.0 ], [ 267177.0, 6255170.0 ], [ 267330.0, 6254966.0 ], [ 267581.0, 6254776.0 ], [ 267680.0, 6254731.0 ], [ 267962.0, 6254611.0 ], [ 268099.0, 6254589.0 ], [ 268201.0, 6254571.0 ], [ 268373.0, 6254258.0 ], [ 268375.0, 6254254.0 ], [ 268487.0, 6254042.0 ], [ 268558.0, 6253911.0 ], [ 268561.0, 6253895.0 ], [ 268562.0, 6253890.0 ], [ 268597.0, 6253713.0 ], [ 268598.0, 6253707.0 ], [ 268631.0, 6253532.0 ], [ 268635.0, 6253516.0 ], [ 268638.0, 6253499.0 ], [ 268646.0, 6253457.0 ], [ 268659.0, 6253392.0 ], [ 268664.0, 6253365.0 ], [ 268684.0, 6253246.0 ], [ 268686.0, 6253239.0 ], [ 268705.0, 6252927.0 ], [ 268719.0, 6252749.0 ], [ 268722.0, 6252714.0 ], [ 268726.0, 6252650.0 ], [ 268722.0, 6252468.0 ], [ 268721.0, 6252425.0 ], [ 268721.0, 6252402.0 ], [ 268715.0, 6252100.0 ], [ 268713.0, 6252015.0 ], [ 268710.0, 6251828.0 ], [ 268714.0, 6251777.0 ], [ 268716.0, 6251761.0 ], [ 268721.0, 6251704.0 ], [ 268732.0, 6251575.0 ], [ 268762.0, 6251287.0 ], [ 268771.0, 6251211.0 ], [ 268781.0, 6251110.0 ], [ 268800.0, 6250948.0 ], [ 268804.0, 6250921.0 ], [ 268820.0, 6250767.0 ], [ 268833.0, 6250646.0 ], [ 268855.0, 6250440.0 ], [ 268866.0, 6250338.0 ], [ 268868.0, 6250324.0 ], [ 268874.0, 6250268.0 ], [ 268888.0, 6250163.0 ], [ 268895.0, 6250113.0 ], [ 268903.0, 6250034.0 ], [ 268916.0, 6249919.0 ], [ 268935.0, 6249753.0 ], [ 268950.0, 6249616.0 ], [ 268952.0, 6249591.0 ], [ 268970.0, 6249429.0 ], [ 268988.0, 6249318.0 ], [ 268997.0, 6249243.0 ], [ 268993.0, 6249218.0 ], [ 268993.0, 6249214.0 ], [ 268991.0, 6249205.0 ], [ 268988.0, 6249174.0 ], [ 268982.0, 6249130.0 ], [ 268981.0, 6249123.0 ], [ 268977.0, 6249095.0 ], [ 268976.0, 6249089.0 ], [ 268970.0, 6249043.0 ], [ 268969.0, 6249036.0 ], [ 268968.0, 6249029.0 ], [ 268968.0, 6249023.0 ], [ 268966.0, 6249008.0 ], [ 268965.0, 6249005.0 ], [ 268963.0, 6248990.0 ], [ 268961.0, 6248975.0 ], [ 268956.0, 6248937.0 ], [ 268950.0, 6248893.0 ], [ 268947.0, 6248875.0 ], [ 268941.0, 6248856.0 ], [ 268942.0, 6248846.0 ], [ 268933.0, 6248764.0 ], [ 268932.0, 6248758.0 ], [ 268927.0, 6248715.0 ], [ 268925.0, 6248700.0 ], [ 268922.0, 6248678.0 ], [ 268920.0, 6248663.0 ], [ 268917.0, 6248644.0 ], [ 268914.0, 6248620.0 ], [ 268871.0, 6248411.0 ], [ 268864.0, 6248376.0 ], [ 268860.0, 6248353.0 ], [ 268857.0, 6248338.0 ], [ 268856.0, 6248336.0 ], [ 268852.0, 6248318.0 ], [ 268780.0, 6247965.0 ], [ 268764.0, 6247883.0 ], [ 268760.0, 6247863.0 ], [ 268757.0, 6247847.0 ], [ 268754.0, 6247830.0 ], [ 268753.0, 6247826.0 ], [ 268733.0, 6247720.0 ], [ 268732.0, 6247713.0 ], [ 268723.0, 6247671.0 ], [ 268720.0, 6247657.0 ], [ 268718.0, 6247643.0 ], [ 268717.0, 6247640.0 ], [ 268715.0, 6247627.0 ], [ 268714.0, 6247622.0 ], [ 268713.0, 6247616.0 ], [ 268710.0, 6247600.0 ], [ 268708.0, 6247594.0 ], [ 268705.0, 6247575.0 ], [ 268703.0, 6247568.0 ], [ 268702.0, 6247561.0 ], [ 268701.0, 6247556.0 ], [ 268694.0, 6247519.0 ], [ 268685.0, 6247474.0 ], [ 268680.0, 6247449.0 ], [ 268674.0, 6247416.0 ], [ 268673.0, 6247410.0 ], [ 268671.0, 6247398.0 ], [ 268655.0, 6247335.0 ], [ 268653.0, 6247323.0 ], [ 268648.0, 6247306.0 ], [ 268630.0, 6247231.0 ], [ 268625.0, 6247212.0 ], [ 268618.0, 6247183.0 ], [ 268616.0, 6247177.0 ], [ 268614.0, 6247167.0 ], [ 268612.0, 6247157.0 ], [ 268609.0, 6247147.0 ], [ 268605.0, 6247132.0 ], [ 268598.0, 6247100.0 ], [ 268590.0, 6247067.0 ], [ 268589.0, 6247061.0 ], [ 268557.0, 6246930.0 ], [ 268548.0, 6246897.0 ], [ 268533.0, 6246834.0 ], [ 268494.0, 6246796.0 ], [ 268436.0, 6246737.0 ], [ 268427.0, 6246727.0 ], [ 268417.0, 6246719.0 ], [ 268439.0, 6246713.0 ], [ 268591.0, 6246679.0 ], [ 268628.0, 6246675.0 ], [ 268661.0, 6246672.0 ], [ 268687.0, 6246670.0 ], [ 268715.0, 6246669.0 ], [ 268741.0, 6246669.0 ], [ 268766.0, 6246670.0 ], [ 268794.0, 6246672.0 ], [ 268824.0, 6246675.0 ], [ 268850.0, 6246678.0 ], [ 268877.0, 6246682.0 ], [ 268904.0, 6246688.0 ], [ 268932.0, 6246694.0 ], [ 268960.0, 6246701.0 ], [ 268986.0, 6246708.0 ], [ 269019.0, 6246719.0 ], [ 269047.0, 6246729.0 ], [ 269072.0, 6246739.0 ], [ 269096.0, 6246749.0 ], [ 269267.0, 6246829.0 ], [ 269572.0, 6247004.0 ], [ 269628.0, 6247042.0 ], [ 269636.0, 6247048.0 ], [ 269582.0, 6247193.0 ], [ 269576.0, 6247217.0 ], [ 269567.0, 6247255.0 ], [ 269564.0, 6247274.0 ], [ 269552.0, 6247368.0 ], [ 269538.0, 6247460.0 ], [ 269529.0, 6247512.0 ], [ 269513.0, 6247596.0 ], [ 269504.0, 6247638.0 ], [ 269489.0, 6247698.0 ], [ 269474.0, 6247747.0 ], [ 269460.0, 6247788.0 ], [ 269440.0, 6247841.0 ], [ 269436.0, 6247850.0 ], [ 269423.0, 6247873.0 ], [ 269397.0, 6247908.0 ], [ 269377.0, 6247937.0 ], [ 269345.0, 6248016.0 ], [ 269329.0, 6248177.0 ], [ 269342.0, 6248212.0 ], [ 269346.0, 6248219.0 ], [ 269353.0, 6248226.0 ], [ 269361.0, 6248236.0 ], [ 269368.0, 6248246.0 ], [ 269374.0, 6248256.0 ], [ 269379.0, 6248269.0 ], [ 269380.0, 6248271.0 ], [ 269382.0, 6248281.0 ], [ 269384.0, 6248289.0 ], [ 269384.0, 6248303.0 ], [ 269384.0, 6248314.0 ], [ 269383.0, 6248324.0 ], [ 269391.0, 6248343.0 ], [ 269628.0, 6248517.0 ], [ 269654.0, 6248496.0 ], [ 269666.0, 6248483.0 ], [ 269680.0, 6248467.0 ], [ 269700.0, 6248434.0 ], [ 269711.0, 6248414.0 ], [ 269720.0, 6248395.0 ], [ 269734.0, 6248364.0 ], [ 269749.0, 6248332.0 ], [ 269780.0, 6248260.0 ], [ 269805.0, 6248211.0 ], [ 269845.0, 6248151.0 ], [ 269902.0, 6248086.0 ], [ 269929.0, 6248078.0 ], [ 269923.0, 6248056.0 ], [ 269955.0, 6248048.0 ], [ 269960.0, 6248047.0 ], [ 270014.0, 6248040.0 ], [ 270235.0, 6248011.0 ], [ 270314.0, 6248001.0 ], [ 270779.0, 6247941.0 ], [ 270911.0, 6247923.0 ], [ 270916.0, 6247958.0 ], [ 270947.0, 6247954.0 ], [ 270967.0, 6247951.0 ], [ 271307.0, 6247907.0 ], [ 271316.0, 6247975.0 ], [ 271345.0, 6248190.0 ], [ 271347.0, 6248206.0 ], [ 271386.0, 6248496.0 ], [ 271390.0, 6248529.0 ], [ 271479.0, 6248517.0 ], [ 271551.0, 6248508.0 ], [ 271561.0, 6248506.0 ], [ 271677.0, 6248491.0 ], [ 271678.0, 6248501.0 ], [ 271679.0, 6248515.0 ], [ 271684.0, 6248550.0 ], [ 271686.0, 6248564.0 ], [ 271686.0, 6248570.0 ], [ 271687.0, 6248577.0 ], [ 271688.0, 6248583.0 ], [ 271710.0, 6248580.0 ], [ 271717.0, 6248637.0 ], [ 271697.0, 6248637.0 ], [ 271697.0, 6248638.0 ], [ 271697.0, 6248644.0 ], [ 271698.0, 6248650.0 ], [ 271705.0, 6248757.0 ], [ 272078.0, 6248745.0 ], [ 272346.0, 6248729.0 ], [ 272349.0, 6248725.0 ], [ 272333.0, 6248590.0 ], [ 272342.0, 6248589.0 ], [ 272492.0, 6248567.0 ], [ 272665.0, 6248540.0 ], [ 272978.0, 6248471.0 ], [ 273142.0, 6248437.0 ], [ 273630.0, 6248341.0 ], [ 273812.0, 6248288.0 ], [ 273939.0, 6248250.0 ], [ 273971.0, 6248239.0 ], [ 273972.0, 6248239.0 ], [ 274040.0, 6248212.0 ], [ 274092.0, 6248188.0 ], [ 274150.0, 6248157.0 ], [ 274209.0, 6248122.0 ], [ 274273.0, 6248080.0 ], [ 274317.0, 6248046.0 ], [ 274353.0, 6248014.0 ], [ 274402.0, 6247965.0 ], [ 274435.0, 6247929.0 ], [ 274476.0, 6247880.0 ], [ 274507.0, 6247842.0 ], [ 274556.0, 6247776.0 ], [ 274574.0, 6247746.0 ], [ 274651.0, 6247603.0 ], [ 274787.0, 6247396.0 ], [ 274882.0, 6247269.0 ], [ 274894.0, 6247250.0 ], [ 274904.0, 6247230.0 ], [ 274925.0, 6247180.0 ], [ 274928.0, 6247172.0 ], [ 274931.0, 6247163.0 ], [ 274932.0, 6247155.0 ], [ 274932.0, 6247145.0 ], [ 274926.0, 6247005.0 ], [ 274918.0, 6246959.0 ], [ 274902.0, 6246882.0 ], [ 274891.0, 6246845.0 ], [ 274881.0, 6246818.0 ], [ 274868.0, 6246789.0 ], [ 274853.0, 6246762.0 ], [ 274841.0, 6246740.0 ], [ 274821.0, 6246710.0 ], [ 274802.0, 6246687.0 ], [ 274778.0, 6246663.0 ], [ 274747.0, 6246640.0 ], [ 274702.0, 6246609.0 ], [ 274595.0, 6246525.0 ], [ 274561.0, 6246492.0 ], [ 274524.0, 6246446.0 ], [ 274502.0, 6246415.0 ], [ 274483.0, 6246384.0 ], [ 274457.0, 6246336.0 ], [ 274443.0, 6246303.0 ], [ 274428.0, 6246260.0 ], [ 274414.0, 6246207.0 ], [ 274401.0, 6246141.0 ], [ 274363.0, 6245958.0 ], [ 274348.0, 6245830.0 ], [ 274352.0, 6245717.0 ], [ 274359.0, 6245664.0 ], [ 274392.0, 6245655.0 ], [ 274412.0, 6245649.0 ], [ 274428.0, 6245671.0 ], [ 274450.0, 6245654.0 ], [ 274534.0, 6245614.0 ], [ 274497.0, 6245473.0 ], [ 274487.0, 6245436.0 ], [ 274480.0, 6245401.0 ], [ 274443.0, 6245220.0 ], [ 274414.0, 6245217.0 ], [ 274422.0, 6245168.0 ], [ 274430.0, 6245134.0 ], [ 274371.0, 6244928.0 ], [ 274365.0, 6244928.0 ], [ 274169.0, 6244409.0 ], [ 274140.0, 6244263.0 ], [ 274127.0, 6244250.0 ], [ 274159.0, 6244218.0 ], [ 274158.0, 6244210.0 ], [ 273992.0, 6244086.0 ], [ 273819.0, 6243958.0 ], [ 273757.0, 6243924.0 ], [ 273762.0, 6243908.0 ], [ 273694.0, 6243869.0 ], [ 273536.0, 6243870.0 ], [ 273255.0, 6243889.0 ], [ 273239.0, 6243890.0 ], [ 273166.0, 6243904.0 ], [ 273102.0, 6243917.0 ], [ 272825.0, 6244004.0 ], [ 272692.0, 6244030.0 ], [ 272467.0, 6244041.0 ], [ 272174.0, 6244028.0 ], [ 271917.0, 6244029.0 ], [ 271860.0, 6244032.0 ], [ 271803.0, 6244043.0 ], [ 271621.0, 6244095.0 ], [ 271604.0, 6244097.0 ], [ 271592.0, 6244098.0 ], [ 271574.0, 6244097.0 ], [ 271325.0, 6244073.0 ], [ 271329.0, 6244136.0 ], [ 271333.0, 6244176.0 ], [ 271338.0, 6244223.0 ], [ 271326.0, 6244236.0 ], [ 271314.0, 6244246.0 ], [ 271295.0, 6244259.0 ], [ 271282.0, 6244267.0 ], [ 271259.0, 6244278.0 ], [ 271226.0, 6244292.0 ], [ 271204.0, 6244300.0 ], [ 271186.0, 6244304.0 ], [ 271170.0, 6244307.0 ], [ 271081.0, 6244315.0 ], [ 271078.0, 6244315.0 ], [ 271072.0, 6244312.0 ], [ 271056.0, 6244305.0 ], [ 271043.0, 6244297.0 ], [ 271007.0, 6244268.0 ], [ 270988.0, 6244270.0 ], [ 270972.0, 6244253.0 ], [ 270982.0, 6244361.0 ], [ 270985.0, 6244401.0 ], [ 270782.0, 6244614.0 ], [ 270828.0, 6244660.0 ], [ 270798.0, 6244696.0 ], [ 270750.0, 6244648.0 ], [ 270746.0, 6244652.0 ], [ 270549.0, 6244861.0 ], [ 270567.0, 6244894.0 ], [ 270575.0, 6244908.0 ], [ 270583.0, 6244921.0 ], [ 270533.0, 6244949.0 ], [ 270479.0, 6244977.0 ], [ 270423.0, 6245001.0 ], [ 270389.0, 6245014.0 ], [ 270326.0, 6245036.0 ], [ 270265.0, 6245052.0 ], [ 270189.0, 6245069.0 ], [ 270117.0, 6245082.0 ], [ 270056.0, 6245089.0 ], [ 270022.0, 6245092.0 ], [ 269944.0, 6245096.0 ], [ 269891.0, 6245096.0 ], [ 269836.0, 6245094.0 ], [ 269713.0, 6245086.0 ], [ 269674.0, 6245083.0 ], [ 269615.0, 6245078.0 ], [ 269591.0, 6245077.0 ], [ 269583.0, 6245076.0 ], [ 269581.0, 6245072.0 ], [ 269518.0, 6245069.0 ], [ 269483.0, 6245068.0 ], [ 269433.0, 6245070.0 ], [ 269419.0, 6245071.0 ], [ 269387.0, 6245075.0 ], [ 269378.0, 6245076.0 ], [ 269343.0, 6245082.0 ], [ 269318.0, 6245086.0 ], [ 269318.0, 6245093.0 ], [ 269308.0, 6245095.0 ], [ 269286.0, 6245101.0 ], [ 269246.0, 6245115.0 ], [ 269179.0, 6245142.0 ], [ 269161.0, 6245149.0 ], [ 269150.0, 6245153.0 ], [ 269140.0, 6245156.0 ], [ 269129.0, 6245159.0 ], [ 269083.0, 6245172.0 ], [ 269027.0, 6245185.0 ], [ 268991.0, 6245190.0 ], [ 268956.0, 6245193.0 ], [ 268910.0, 6245195.0 ], [ 268854.0, 6245196.0 ], [ 268795.0, 6245194.0 ], [ 268708.0, 6245185.0 ], [ 268635.0, 6245184.0 ], [ 268571.0, 6245188.0 ], [ 268536.0, 6245193.0 ], [ 268484.0, 6245201.0 ], [ 268424.0, 6245214.0 ], [ 268369.0, 6245228.0 ], [ 268338.0, 6245239.0 ], [ 268308.0, 6245251.0 ], [ 268307.0, 6245252.0 ], [ 268285.0, 6245263.0 ], [ 268269.0, 6245272.0 ], [ 268238.0, 6245290.0 ], [ 268196.0, 6245319.0 ], [ 268143.0, 6245360.0 ], [ 268092.0, 6245404.0 ], [ 268025.0, 6245469.0 ], [ 267977.0, 6245518.0 ], [ 267892.0, 6245619.0 ], [ 267860.0, 6245655.0 ], [ 267774.0, 6245752.0 ], [ 267745.0, 6245783.0 ], [ 267714.0, 6245814.0 ], [ 267677.0, 6245849.0 ], [ 267642.0, 6245880.0 ], [ 267603.0, 6245908.0 ], [ 267575.0, 6245926.0 ], [ 267510.0, 6245968.0 ], [ 267444.0, 6246005.0 ], [ 267333.0, 6245958.0 ], [ 267312.0, 6245948.0 ], [ 267278.0, 6245934.0 ], [ 267142.0, 6245875.0 ], [ 266693.0, 6245682.0 ], [ 266538.0, 6245644.0 ], [ 266421.0, 6245567.0 ], [ 266411.0, 6245560.0 ], [ 266159.0, 6245394.0 ], [ 266082.0, 6245342.0 ], [ 266029.0, 6245308.0 ], [ 265924.0, 6245223.0 ], [ 265921.0, 6245221.0 ], [ 265916.0, 6245218.0 ], [ 265742.0, 6245124.0 ], [ 265739.0, 6245122.0 ], [ 265725.0, 6245115.0 ], [ 265514.0, 6245000.0 ], [ 265382.0, 6244929.0 ], [ 265109.0, 6244782.0 ], [ 265023.0, 6244660.0 ], [ 264844.0, 6244571.0 ], [ 264839.0, 6244568.0 ], [ 264836.0, 6244567.0 ], [ 264800.0, 6244549.0 ], [ 264702.0, 6244501.0 ], [ 264697.0, 6244498.0 ], [ 264693.0, 6244496.0 ], [ 264498.0, 6244394.0 ], [ 264340.0, 6244317.0 ], [ 264290.0, 6244292.0 ], [ 263491.0, 6243902.0 ], [ 263401.0, 6243852.0 ], [ 263241.0, 6243779.0 ], [ 263187.0, 6243753.0 ], [ 263093.0, 6243708.0 ], [ 262724.0, 6243701.0 ], [ 262337.0, 6243695.0 ], [ 262260.0, 6243693.0 ], [ 261868.0, 6244126.0 ], [ 261455.0, 6243821.0 ], [ 261439.0, 6243809.0 ], [ 261433.0, 6243805.0 ], [ 261418.0, 6243794.0 ], [ 261399.0, 6243780.0 ], [ 261376.0, 6243762.0 ], [ 261354.0, 6243747.0 ], [ 261310.0, 6243714.0 ], [ 261288.0, 6243698.0 ], [ 261258.0, 6243675.0 ], [ 261225.0, 6243680.0 ], [ 261203.0, 6243683.0 ], [ 260981.0, 6243716.0 ], [ 260988.0, 6243626.0 ], [ 260930.0, 6243658.0 ], [ 260894.0, 6243676.0 ], [ 260828.0, 6243709.0 ], [ 260673.0, 6243756.0 ], [ 260539.0, 6243767.0 ], [ 260520.0, 6243768.0 ], [ 260435.0, 6243773.0 ], [ 260339.0, 6243780.0 ], [ 260267.0, 6243786.0 ], [ 260053.0, 6243803.0 ], [ 259997.0, 6243809.0 ], [ 259968.0, 6243812.0 ], [ 259956.0, 6243813.0 ], [ 259947.0, 6243814.0 ], [ 259924.0, 6243816.0 ], [ 259906.0, 6243817.0 ], [ 259900.0, 6243817.0 ], [ 259819.0, 6243824.0 ], [ 259800.0, 6243826.0 ], [ 259787.0, 6243827.0 ], [ 259635.0, 6243860.0 ], [ 259624.0, 6243861.0 ], [ 259613.0, 6243864.0 ], [ 259595.0, 6243867.0 ], [ 259593.0, 6243868.0 ], [ 259588.0, 6243868.0 ], [ 259568.0, 6243871.0 ], [ 259607.0, 6243983.0 ], [ 259638.0, 6244071.0 ], [ 259621.0, 6244078.0 ], [ 259615.0, 6244080.0 ], [ 259572.0, 6244094.0 ], [ 259550.0, 6244102.0 ], [ 259519.0, 6244112.0 ], [ 259465.0, 6244130.0 ], [ 259463.0, 6244131.0 ], [ 259406.0, 6244149.0 ], [ 259398.0, 6244152.0 ], [ 259395.0, 6244153.0 ], [ 259302.0, 6244185.0 ], [ 259293.0, 6244187.0 ], [ 259091.0, 6244256.0 ], [ 259031.0, 6244277.0 ], [ 259026.0, 6244278.0 ], [ 259018.0, 6244280.0 ], [ 259003.0, 6244286.0 ], [ 258965.0, 6244299.0 ], [ 258959.0, 6244301.0 ], [ 258939.0, 6244308.0 ], [ 258922.0, 6244313.0 ], [ 258907.0, 6244319.0 ], [ 258903.0, 6244320.0 ], [ 258884.0, 6244327.0 ], [ 258408.0, 6244488.0 ], [ 258374.0, 6244500.0 ], [ 258358.0, 6244505.0 ], [ 258332.0, 6244514.0 ], [ 258243.0, 6244544.0 ], [ 258164.0, 6244571.0 ], [ 258127.0, 6244583.0 ], [ 258122.0, 6244584.0 ], [ 258119.0, 6244585.0 ], [ 258117.0, 6244586.0 ], [ 258081.0, 6244598.0 ], [ 258076.0, 6244600.0 ], [ 258040.0, 6244612.0 ], [ 257911.0, 6244655.0 ], [ 257675.0, 6244736.0 ], [ 257655.0, 6244742.0 ], [ 257634.0, 6244749.0 ], [ 257608.0, 6244757.0 ], [ 257571.0, 6244769.0 ], [ 257525.0, 6244785.0 ], [ 257484.0, 6244799.0 ] ] ] } }
]
}
