{
"type": "FeatureCollection",
"name": "podgorica-grid",
"crs": { "type": "name", "properties": { "name": "urn:ogc:def:crs:EPSG::3857" } },
"features": [
{ "type": "Feature", "properties": { "osmid": 310843005.0 }, "geometry": { "type": "Point", "coordinates": [ 2146494.0, 5226475.0 ] } },
{ "type": "Feature", "properties": { "osmid": 4466977010.0 }, "geometry": { "type": "Point", "coordinates": [ 2144965.0, 5227193.0 ] } },
{ "type": "Feature", "properties": { "osmid": 5465182830.0 }, "geometry": { "type": "Point", "coordinates": [ 2141846.0, 5228645.0 ] } },
{ "type": "Feature", "properties": { "osmid": 9588382122.0 }, "geometry": { "type": "Point", "coordinates": [ 2144359.0, 5221841.0 ] } },
{ "type": "Feature", "properties": { "osmid": 2330582356.0 }, "geometry": { "type": "Point", "coordinates": [ 2139612.0, 5227813.0 ] } },
{ "type": "Feature", "properties": { "osmid": 11011708276.0 }, "geometry": { "type": "Point", "coordinates": [ 2143536.0, 5224099.0 ] } },
{ "type": "Feature", "properties": { "osmid": 11013399983.0 }, "geometry": { "type": "Point", "coordinates": [ 2144103.0, 5229460.0 ] } },
{ "type": "Feature", "properties": { "osmid": 1831816428.0 }, "geometry": { "type": "Point", "coordinates": [ 2146365.0, 5230293.0 ] } },
{ "type": "Feature", "properties": { "osmid": 9641787135.0 }, "geometry": { "type": "Point", "coordinates": [ 2137434.0, 5223146.0 ] } },
{ "type": "Feature", "properties": { "osmid": 5432363517.0 }, "geometry": { "type": "Point", "coordinates": [ 2147926.0, 5229610.0 ] } },
{ "type": "Feature", "properties": { "osmid": 11013518044.0 }, "geometry": { "type": "Point", "coordinates": [ 2143267.0, 5231728.0 ] } },
{ "type": "Feature", "properties": { "osmid": 308728397.0 }, "geometry": { "type": "Point", "coordinates": [ 2145736.0, 5224938.0 ] } },
{ "type": "Feature", "properties": { "osmid": 307858984.0 }, "geometry": { "type": "Point", "coordinates": [ 2138855.0, 5226320.0 ] } },
{ "type": "Feature", "properties": { "osmid": 2698946751.0 }, "geometry": { "type": "Point", "coordinates": [ 2147188.0, 5227998.0 ] } },
{ "type": "Feature", "properties": { "osmid": 2330582574.0 }, "geometry": { "type": "Point", "coordinates": [ 2140312.0, 5229420.0 ] } },
{ "type": "Feature", "properties": { "osmid": 2474097161.0 }, "geometry": { "type": "Point", "coordinates": [ 2140445.0, 5225510.0 ] } },
{ "type": "Feature", "properties": { "osmid": 1831816080.0 }, "geometry": { "type": "Point", "coordinates": [ 2148099.0, 5225791.0 ] } },
{ "type": "Feature", "properties": { "osmid": 6913446906.0 }, "geometry": { "type": "Point", "coordinates": [ 2141949.0, 5224781.0 ] } },
{ "type": "Feature", "properties": { "osmid": 8445624849.0 }, "geometry": { "type": "Point", "coordinates": [ 2137158.0, 5230819.0 ] } },
{ "type": "Feature", "properties": { "osmid": 13430978286.0 }, "geometry": { "type": "Point", "coordinates": [ 2148804.0, 5227379.0 ] } },
{ "type": "Feature", "properties": { "osmid": 2294394631.0 }, "geometry": { "type": "Point", "coordinates": [ 2144805.0, 5230941.0 ] } },
{ "type": "Feature", "properties": { "osmid": 1832062873.0 }, "geometry": { "type": "Point", "coordinates": [ 2141093.0, 5230836.0 ] } },
{ "type": "Feature", "properties": { "osmid": 9599651813.0 }, "geometry": { "type": "Point", "coordinates": [ 2139596.0, 5223986.0 ] } },
{ "type": "Feature", "properties": { "osmid": 2421319505.0 }, "geometry": { "type": "Point", "coordinates": [ 2142897.0, 5222550.0 ] } },
{ "type": "Feature", "properties": { "osmid": 11041844576.0 }, "geometry": { "type": "Point", "coordinates": [ 2142641.0, 5226276.0 ] } },
{ "type": "Feature", "properties": { "osmid": 1873992748.0 }, "geometry": { "type": "Point", "coordinates": [ 2148723.0, 5231015.0 ] } },
{ "type": "Feature", "properties": { "osmid": 6868559362.0 }, "geometry": { "type": "Point", "coordinates": [ 2140570.0, 5221855.0 ] } },
{ "type": "Feature", "properties": { "osmid": 9555023049.0 }, "geometry": { "type": "Point", "coordinates": [ 2138252.0, 5224813.0 ] } },
{ "type": "Feature", "properties": { "osmid": 9588382580.0 }, "geometry": { "type": "Point", "coordinates": [ 2145978.0, 5221026.0 ] } },
{ "type": "Feature", "properties": { "osmid": 10665456443.0 }, "geometry": { "type": "Point", "coordinates": [ 2144926.0, 5223402.0 ] } },
{ "type": "Feature", "properties": { "osmid": 11186898241.0 }, "geometry": { "type": "Point", "coordinates": [ 2145709.0, 5232542.0 ] } },
{ "type": "Feature", "properties": { "osmid": 151234493.0 }, "geometry": { "type": "Point", "coordinates": [ 2149440.0, 5228995.0 ] } },
{ "type": "Feature", "properties": { "osmid": 6946101806.0 }, "geometry": { "type": "Point", "coordinates": [ 2149437.0, 5232533.0 ] } },
{ "type": "Feature", "properties": { "osmid": 6858991001.0 }, "geometry": { "type": "Point", "coordinates": [ 2143981.0, 5233147.0 ] } },
{ "type": "Feature", "properties": { "osmid": 6938490115.0 }, "geometry": { "type": "Point", "coordinates": [ 2138204.0, 5228602.0 ] } },
{ "type": "Feature", "properties": { "osmid": 13749697944.0 }, "geometry": { "type": "Point", "coordinates": [ 2149426.0, 5225029.0 ] } },
{ "type": "Feature", "properties": { "osmid": 2421319443.0 }, "geometry": { "type": "Point", "coordinates": [ 2142111.0, 5220848.0 ] } },
{ "type": "Feature", "properties": { "osmid": 9476485876.0 }, "geometry": { "type": "Point", "coordinates": [ 2137273.0, 5226827.0 ] } },
{ "type": "Feature", "properties": { "osmid": 310155492.0 }, "geometry": { "type": "Point", "coordinates": [ 2143394.0, 5220302.0 ] } },
{ "type": "Feature", "properties": { "osmid": 5388319589.0 }, "geometry": { "type": "Point", "coordinates": [ 2150075.0, 5230590.0 ] } },
{ "type": "Feature", "properties": { "osmid": 1846898249.0 }, "geometry": { "type": "Point", "coordinates": [ 2146943.0, 5232019.0 ] } },
{ "type": "Feature", "properties": { "osmid": 13373111789.0 }, "geometry": { "type": "Point", "coordinates": [ 2141485.0, 5223140.0 ] } },
{ "type": "Feature", "properties": { "osmid": 12954686086.0 }, "geometry": { "type": "Point", "coordinates": [ 2151051.0, 5227818.0 ] } },
{ "type": "Feature", "properties": { "osmid": 3098904183.0 }, "geometry": { "type": "Point", "coordinates": [ 2150339.0, 5226914.0 ] } },
{ "type": "Feature", "properties": { "osmid": 2234302161.0 }, "geometry": { "type": "Point", "coordinates": [ 2142754.0, 5233802.0 ] } },
{ "type": "Feature", "properties": { "osmid": 2617249492.0 }, "geometry": { "type": "Point", "coordinates": [ 2147001.0, 5224367.0 ] } },
{ "type": "Feature", "properties": { "osmid": 3186484680.0 }, "geometry": { "type": "Point", "coordinates": [ 2138972.0, 5222849.0 ] } },
{ "type": "Feature", "properties": { "osmid": 9555022910.0 }, "geometry": { "type": "Point", "coordinates": [ 2136966.0, 5225272.0 ] } },
{ "type": "Feature", "properties": { "osmid": 2112494688.0 }, "geometry": { "type": "Point", "coordinates": [ 2138830.0, 5229664.0 ] } },
{ "type": "Feature", "properties": { "osmid": 11186906251.0 }, "geometry": { "type": "Point", "coordinates": [ 2146296.0, 5233682.0 ] } },
{ "type": "Feature", "properties": { "osmid": 10699696842.0 }, "geometry": { "type": "Point", "coordinates": [ 2142140.0, 5232766.0 ] } },
{ "type": "Feature", "properties": { "osmid": 1771745938.0 }, "geometry": { "type": "Point", "coordinates": [ 2143096.0, 5227444.0 ] } },
{ "type": "Feature", "properties": { "osmid": 10555446462.0 }, "geometry": { "type": "Point", "coordinates": [ 2142611.0, 5227282.0 ] } },
{ "type": "Feature", "properties": { "osmid": 12183070854.0 }, "geometry": { "type": "Point", "coordinates": [ 2143222.0, 5226807.0 ] } },
{ "type": "Feature", "properties": { "osmid": 2335177422.0 }, "geometry": { "type": "Point", "coordinates": [ 2143705.0, 5227197.0 ] } },
{ "type": "Feature", "properties": { "osmid": 12179232931.0 }, "geometry": { "type": "Point", "coordinates": [ 2143559.0, 5227982.0 ] } },
{ "type": "Feature", "properties": { "osmid": 12179232915.0 }, "geometry": { "type": "Point", "coordinates": [ 2142964.0, 5228202.0 ] } },
{ "type": "Feature", "properties": { "osmid": 5475246100.0 }, "geometry": { "type": "Point", "coordinates": [ 2142193.0, 5227792.0 ] } },
{ "type": "Feature", "properties": { "osmid": 10555446299.0 }, "geometry": { "type": "Point", "coordinates": [ 2143319.0, 5226282.0 ] } },
{ "type": "Feature", "properties": { "osmid": 5468057072.0 }, "geometry": { "type": "Point", "coordinates": [ 2144243.0, 5226959.0 ] } },
{ "type": "Feature", "properties": { "osmid": 5468085420.0 }, "geometry": { "type": "Point", "coordinates": [ 2141598.0, 5228115.0 ] } },
{ "type": "Feature", "properties": { "osmid": 10555446497.0 }, "geometry": { "type": "Point", "coordinates": [ 2141508.0, 5226969.0 ] } },
{ "type": "Feature", "properties": { "osmid": 10555446289.0 }, "geometry": { "type": "Point", "coordinates": [ 2143799.0, 5225929.0 ] } },
{ "type": "Feature", "properties": { "osmid": 8405730630.0 }, "geometry": { "type": "Point", "coordinates": [ 2141417.0, 5226284.0 ] } },
{ "type": "Feature", "properties": { "osmid": 10555446419.0 }, "geometry": { "type": "Point", "coordinates": [ 2144358.0, 5225776.0 ] } },
{ "type": "Feature", "properties": { "osmid": 12179176289.0 }, "geometry": { "type": "Point", "coordinates": [ 2142808.0, 5224918.0 ] } },
{ "type": "Feature", "properties": { "osmid": 12183070821.0 }, "geometry": { "type": "Point", "coordinates": [ 2143337.0, 5224733.0 ] } },
{ "type": "Feature", "properties": { "osmid": 2038246418.0 }, "geometry": { "type": "Point", "coordinates": [ 2145816.0, 5228913.0 ] } },
{ "type": "Feature", "properties": { "osmid": 12178882914.0 }, "geometry": { "type": "Point", "coordinates": [ 2144979.0, 5224630.0 ] } },
{ "type": "Feature", "properties": { "osmid": 13423898749.0 }, "geometry": { "type": "Point", "coordinates": [ 2145472.0, 5224079.0 ] } },
{ "type": "Feature", "properties": { "osmid": 12920380648.0 }, "geometry": { "type": "Point", "coordinates": [ 2146009.0, 5223536.0 ] } },
{ "type": "Feature", "properties": { "osmid": 12183070877.0 }, "geometry": { "type": "Point", "coordinates": [ 2146401.0, 5223097.0 ] } },
{ "type": "Feature", "properties": { "osmid": 12920380642.0 }, "geometry": { "type": "Point", "coordinates": [ 2146955.0, 5222497.0 ] } },
{ "type": "Feature", "properties": { "osmid": 10581406176.0 }, "geometry": { "type": "Point", "coordinates": [ 2147445.0, 5221945.0 ] } },
{ "type": "Feature", "properties": { "osmid": 5473339607.0 }, "geometry": { "type": "Point", "coordinates": [ 2136222.0, 5230976.0 ] } }
]
}
