{
"type": "FeatureCollection",
"name": "podgorica-city_boundary",
"crs": { "type": "name", "properties": { "name": "urn:ogc:def:crs:EPSG::3857" } },
"features": [
{ "type": "Feature", "properties": { "bbox_west": 19.1817483, "bbox_south": 42.3771251, "bbox_east": 19.331538, "bbox_north": 42.4960625, "place_id": 57033352, "osm_type": "relation", "osm_id": 8882104, "lat": 42.4415238, "lon": 19.2621081, "class": "boundary", "type": "administrative", "place_rank": 16, "importance": 0.6445359199209264, "addresstype": "city", "name": "Podgorica", "display_name": "Podgorica, Podgorica Capital City, Montenegro" }, "geometry": { "type": "Polygon", "coordinates": [ [ [ 2135506.0, 5230098.0 ], [ 2135611.0, 5230154.0 ], [ 2135609.0, 5230215.0 ], [ 2135635.0, 5230241.0 ], [ 2135635.0, 5230303.0 ], [ 2135719.0, 5230329.0 ], [ 2135693.0, 5230368.0 ], [ 2135703.0, 5230401.0 ], [ 2135750.0, 5230417.0 ], [ 2135781.0, 5230483.0 ], [ 2135822.0, 5230653.0 ], [ 2135867.0, 5230728.0 ], [ 2135943.0, 5230760.0 ], [ 2135963.0, 5230811.0 ], [ 2135980.0, 5230846.0 ], [ 2135944.0, 5230895.0 ], [ 2135920.0, 5230998.0 ], [ 2135933.0, 5231213.0 ], [ 2135877.0, 5231249.0 ], [ 2135873.0, 5231327.0 ], [ 2135836.0, 5231376.0 ], [ 2135786.0, 5231399.0 ], [ 2135766.0, 5231407.0 ], [ 2135752.0, 5231450.0 ], [ 2135740.0, 5231564.0 ], [ 2135756.0, 5231597.0 ], [ 2135750.0, 5231632.0 ], [ 2135808.0, 5231668.0 ], [ 2135833.0, 5231676.0 ], [ 2135847.0, 5231727.0 ], [ 2135854.0, 5231769.0 ], [ 2135826.0, 5231852.0 ], [ 2135833.0, 5231900.0 ], [ 2135845.0, 5231944.0 ], [ 2135869.0, 5231947.0 ], [ 2135932.0, 5231923.0 ], [ 2136016.0, 5231941.0 ], [ 2136049.0, 5231962.0 ], [ 2136157.0, 5232002.0 ], [ 2136184.0, 5232005.0 ], [ 2136211.0, 5232022.0 ], [ 2136216.0, 5232029.0 ], [ 2136219.0, 5232038.0 ], [ 2136229.0, 5232038.0 ], [ 2136235.0, 5232078.0 ], [ 2136262.0, 5232094.0 ], [ 2136285.0, 5232103.0 ], [ 2136301.0, 5232077.0 ], [ 2136335.0, 5232075.0 ], [ 2136359.0, 5232092.0 ], [ 2136373.0, 5232093.0 ], [ 2136373.0, 5232110.0 ], [ 2136383.0, 5232118.0 ], [ 2136400.0, 5232110.0 ], [ 2137183.0, 5232545.0 ], [ 2137420.0, 5232623.0 ], [ 2138749.0, 5231386.0 ], [ 2139351.0, 5231064.0 ], [ 2139923.0, 5231078.0 ], [ 2140245.0, 5231012.0 ], [ 2140416.0, 5231198.0 ], [ 2140278.0, 5231491.0 ], [ 2140488.0, 5231645.0 ], [ 2141104.0, 5231870.0 ], [ 2141217.0, 5232168.0 ], [ 2141159.0, 5232228.0 ], [ 2141419.0, 5232526.0 ], [ 2141253.0, 5232669.0 ], [ 2141215.0, 5232740.0 ], [ 2141104.0, 5232834.0 ], [ 2141060.0, 5232950.0 ], [ 2140964.0, 5232975.0 ], [ 2140984.0, 5233119.0 ], [ 2140967.0, 5233252.0 ], [ 2141303.0, 5233344.0 ], [ 2141637.0, 5233833.0 ], [ 2141487.0, 5233951.0 ], [ 2141341.0, 5234118.0 ], [ 2141232.0, 5234248.0 ], [ 2141080.0, 5234349.0 ], [ 2141161.0, 5234489.0 ], [ 2141124.0, 5234508.0 ], [ 2141231.0, 5234657.0 ], [ 2141256.0, 5234721.0 ], [ 2141404.0, 5234677.0 ], [ 2141433.0, 5234741.0 ], [ 2141612.0, 5234600.0 ], [ 2141505.0, 5234409.0 ], [ 2141653.0, 5234294.0 ], [ 2141710.0, 5234418.0 ], [ 2141641.0, 5234490.0 ], [ 2141713.0, 5234600.0 ], [ 2141859.0, 5234483.0 ], [ 2141959.0, 5234378.0 ], [ 2141922.0, 5234292.0 ], [ 2141904.0, 5234175.0 ], [ 2142035.0, 5234046.0 ], [ 2142138.0, 5234173.0 ], [ 2142262.0, 5234040.0 ], [ 2142362.0, 5234171.0 ], [ 2142455.0, 5234271.0 ], [ 2142551.0, 5234344.0 ], [ 2142726.0, 5234420.0 ], [ 2142982.0, 5234459.0 ], [ 2143105.0, 5234315.0 ], [ 2143464.0, 5234173.0 ], [ 2143496.0, 5234235.0 ], [ 2143426.0, 5234290.0 ], [ 2143487.0, 5234381.0 ], [ 2143556.0, 5234347.0 ], [ 2143645.0, 5234500.0 ], [ 2143683.0, 5234486.0 ], [ 2143780.0, 5234682.0 ], [ 2143922.0, 5234622.0 ], [ 2143853.0, 5234473.0 ], [ 2143899.0, 5234446.0 ], [ 2143841.0, 5234335.0 ], [ 2143920.0, 5234288.0 ], [ 2143952.0, 5234338.0 ], [ 2144082.0, 5234209.0 ], [ 2143943.0, 5234025.0 ], [ 2143995.0, 5233990.0 ], [ 2144131.0, 5234181.0 ], [ 2144160.0, 5234149.0 ], [ 2144073.0, 5234028.0 ], [ 2144161.0, 5233951.0 ], [ 2144184.0, 5233996.0 ], [ 2144221.0, 5233986.0 ], [ 2144256.0, 5234035.0 ], [ 2144302.0, 5234015.0 ], [ 2144338.0, 5234071.0 ], [ 2144404.0, 5234039.0 ], [ 2144518.0, 5234201.0 ], [ 2144536.0, 5234199.0 ], [ 2144622.0, 5234350.0 ], [ 2144675.0, 5234334.0 ], [ 2144554.0, 5234124.0 ], [ 2144598.0, 5234099.0 ], [ 2144544.0, 5234018.0 ], [ 2144590.0, 5233996.0 ], [ 2144618.0, 5234028.0 ], [ 2144673.0, 5234009.0 ], [ 2144618.0, 5233848.0 ], [ 2144712.0, 5233818.0 ], [ 2144794.0, 5233918.0 ], [ 2144930.0, 5233902.0 ], [ 2144943.0, 5233992.0 ], [ 2144992.0, 5234000.0 ], [ 2144992.0, 5234067.0 ], [ 2145065.0, 5234079.0 ], [ 2145085.0, 5234141.0 ], [ 2145118.0, 5234145.0 ], [ 2145234.0, 5234277.0 ], [ 2145261.0, 5234264.0 ], [ 2145224.0, 5234200.0 ], [ 2145265.0, 5234163.0 ], [ 2145258.0, 5234104.0 ], [ 2145366.0, 5234029.0 ], [ 2145503.0, 5234204.0 ], [ 2145483.0, 5234225.0 ], [ 2145517.0, 5234268.0 ], [ 2145537.0, 5234258.0 ], [ 2145576.0, 5234298.0 ], [ 2145618.0, 5234267.0 ], [ 2145654.0, 5234312.0 ], [ 2145701.0, 5234286.0 ], [ 2145732.0, 5234351.0 ], [ 2145719.0, 5234395.0 ], [ 2145791.0, 5234481.0 ], [ 2145995.0, 5234358.0 ], [ 2146038.0, 5234451.0 ], [ 2146186.0, 5234490.0 ], [ 2146374.0, 5234961.0 ], [ 2146420.0, 5235001.0 ], [ 2147084.0, 5235371.0 ], [ 2147444.0, 5235445.0 ], [ 2147923.0, 5235421.0 ], [ 2148395.0, 5235571.0 ], [ 2148752.0, 5235579.0 ], [ 2149207.0, 5235007.0 ], [ 2149336.0, 5234962.0 ], [ 2149340.0, 5234830.0 ], [ 2149388.0, 5234729.0 ], [ 2149484.0, 5234677.0 ], [ 2149456.0, 5234587.0 ], [ 2149558.0, 5234424.0 ], [ 2149639.0, 5234236.0 ], [ 2149629.0, 5234012.0 ], [ 2149544.0, 5233885.0 ], [ 2149261.0, 5233629.0 ], [ 2149061.0, 5233401.0 ], [ 2149058.0, 5233341.0 ], [ 2148965.0, 5233239.0 ], [ 2148911.0, 5233113.0 ], [ 2148915.0, 5232975.0 ], [ 2149204.0, 5233014.0 ], [ 2149539.0, 5233172.0 ], [ 2149587.0, 5233353.0 ], [ 2149753.0, 5233379.0 ], [ 2149788.0, 5233462.0 ], [ 2149853.0, 5233462.0 ], [ 2149926.0, 5233549.0 ], [ 2150069.0, 5233468.0 ], [ 2150142.0, 5233451.0 ], [ 2150210.0, 5233368.0 ], [ 2150304.0, 5233275.0 ], [ 2150318.0, 5233142.0 ], [ 2150348.0, 5233026.0 ], [ 2150298.0, 5232846.0 ], [ 2150562.0, 5232552.0 ], [ 2150558.0, 5232282.0 ], [ 2150530.0, 5232220.0 ], [ 2150594.0, 5232134.0 ], [ 2150577.0, 5231966.0 ], [ 2150798.0, 5231673.0 ], [ 2150822.0, 5231337.0 ], [ 2151058.0, 5231066.0 ], [ 2151091.0, 5230853.0 ], [ 2151088.0, 5230684.0 ], [ 2151213.0, 5230554.0 ], [ 2151378.0, 5230546.0 ], [ 2151459.0, 5230567.0 ], [ 2151787.0, 5230537.0 ], [ 2151971.0, 5230324.0 ], [ 2151966.0, 5230124.0 ], [ 2151920.0, 5230099.0 ], [ 2151954.0, 5230019.0 ], [ 2151977.0, 5229847.0 ], [ 2151873.0, 5229829.0 ], [ 2151815.0, 5229829.0 ], [ 2151818.0, 5229811.0 ], [ 2151799.0, 5229775.0 ], [ 2151757.0, 5229736.0 ], [ 2151762.0, 5229709.0 ], [ 2151755.0, 5229688.0 ], [ 2151726.0, 5229681.0 ], [ 2151690.0, 5229668.0 ], [ 2151626.0, 5229661.0 ], [ 2151642.0, 5229527.0 ], [ 2151449.0, 5229454.0 ], [ 2151379.0, 5229433.0 ], [ 2151335.0, 5229401.0 ], [ 2151152.0, 5229304.0 ], [ 2151172.0, 5229179.0 ], [ 2151221.0, 5229122.0 ], [ 2151200.0, 5229042.0 ], [ 2151332.0, 5228807.0 ], [ 2151215.0, 5228755.0 ], [ 2151238.0, 5228604.0 ], [ 2151256.0, 5228543.0 ], [ 2151106.0, 5228398.0 ], [ 2151344.0, 5228108.0 ], [ 2151591.0, 5227945.0 ], [ 2151586.0, 5227797.0 ], [ 2151517.0, 5227582.0 ], [ 2151452.0, 5227473.0 ], [ 2151287.0, 5227262.0 ], [ 2150904.0, 5226950.0 ], [ 2150598.0, 5226931.0 ], [ 2150116.0, 5226782.0 ], [ 2150070.0, 5226735.0 ], [ 2150009.0, 5226719.0 ], [ 2149971.0, 5226690.0 ], [ 2149882.0, 5226646.0 ], [ 2149835.0, 5226623.0 ], [ 2149764.0, 5226599.0 ], [ 2149727.0, 5226594.0 ], [ 2149666.0, 5226609.0 ], [ 2149682.0, 5225699.0 ], [ 2149715.0, 5225706.0 ], [ 2149742.0, 5225728.0 ], [ 2149800.0, 5225724.0 ], [ 2149894.0, 5225687.0 ], [ 2149938.0, 5225678.0 ], [ 2149995.0, 5225531.0 ], [ 2149992.0, 5225495.0 ], [ 2149974.0, 5225488.0 ], [ 2149946.0, 5225432.0 ], [ 2149917.0, 5225404.0 ], [ 2149904.0, 5225351.0 ], [ 2149886.0, 5225325.0 ], [ 2149860.0, 5225306.0 ], [ 2149818.0, 5225305.0 ], [ 2149745.0, 5225247.0 ], [ 2149714.0, 5225118.0 ], [ 2149709.0, 5225031.0 ], [ 2149699.0, 5224942.0 ], [ 2149650.0, 5224742.0 ], [ 2149565.0, 5224771.0 ], [ 2149525.0, 5224598.0 ], [ 2149280.0, 5224666.0 ], [ 2149208.0, 5224675.0 ], [ 2149054.0, 5224708.0 ], [ 2149032.0, 5224697.0 ], [ 2148735.0, 5223897.0 ], [ 2148151.0, 5222578.0 ], [ 2147904.0, 5222104.0 ], [ 2147469.0, 5221737.0 ], [ 2147410.0, 5221771.0 ], [ 2147111.0, 5221503.0 ], [ 2146967.0, 5221412.0 ], [ 2146686.0, 5221223.0 ], [ 2146493.0, 5221051.0 ], [ 2146042.0, 5220552.0 ], [ 2146071.0, 5220236.0 ], [ 2146055.0, 5220127.0 ], [ 2146011.0, 5219776.0 ], [ 2146003.0, 5219573.0 ], [ 2146009.0, 5219440.0 ], [ 2146002.0, 5219128.0 ], [ 2145962.0, 5218855.0 ], [ 2145966.0, 5218665.0 ], [ 2145998.0, 5218496.0 ], [ 2145984.0, 5218483.0 ], [ 2146091.0, 5218360.0 ], [ 2146042.0, 5218268.0 ], [ 2145964.0, 5218171.0 ], [ 2145869.0, 5218080.0 ], [ 2145793.0, 5218027.0 ], [ 2145715.0, 5218000.0 ], [ 2145562.0, 5217981.0 ], [ 2145430.0, 5217955.0 ], [ 2145127.0, 5217839.0 ], [ 2145014.0, 5217810.0 ], [ 2144889.0, 5217783.0 ], [ 2144818.0, 5217780.0 ], [ 2144764.0, 5217791.0 ], [ 2144647.0, 5217834.0 ], [ 2144621.0, 5217842.0 ], [ 2144592.0, 5217840.0 ], [ 2144454.0, 5217820.0 ], [ 2144406.0, 5217803.0 ], [ 2144351.0, 5217786.0 ], [ 2144287.0, 5217774.0 ], [ 2144173.0, 5217753.0 ], [ 2144022.0, 5217725.0 ], [ 2143737.0, 5217746.0 ], [ 2143672.0, 5217759.0 ], [ 2143608.0, 5217787.0 ], [ 2143544.0, 5217800.0 ], [ 2143490.0, 5217807.0 ], [ 2143445.0, 5217795.0 ], [ 2143405.0, 5217774.0 ], [ 2143351.0, 5217769.0 ], [ 2143313.0, 5217736.0 ], [ 2143273.0, 5217721.0 ], [ 2143228.0, 5217685.0 ], [ 2143189.0, 5217673.0 ], [ 2143156.0, 5217639.0 ], [ 2143097.0, 5217733.0 ], [ 2143092.0, 5217745.0 ], [ 2143091.0, 5217764.0 ], [ 2143093.0, 5217790.0 ], [ 2143119.0, 5217932.0 ], [ 2143215.0, 5218296.0 ], [ 2143397.0, 5218841.0 ], [ 2142156.0, 5219338.0 ], [ 2141506.0, 5219591.0 ], [ 2141059.0, 5219643.0 ], [ 2140499.0, 5219823.0 ], [ 2139549.0, 5220149.0 ], [ 2139248.0, 5220273.0 ], [ 2139136.0, 5220319.0 ], [ 2139039.0, 5220392.0 ], [ 2139161.0, 5220613.0 ], [ 2139267.0, 5220903.0 ], [ 2139333.0, 5221417.0 ], [ 2139360.0, 5222039.0 ], [ 2139362.0, 5222380.0 ], [ 2139446.0, 5222735.0 ], [ 2139538.0, 5222986.0 ], [ 2139460.0, 5222998.0 ], [ 2139416.0, 5222963.0 ], [ 2139359.0, 5222939.0 ], [ 2139335.0, 5222930.0 ], [ 2139321.0, 5222866.0 ], [ 2138973.0, 5222840.0 ], [ 2138858.0, 5222797.0 ], [ 2138809.0, 5222761.0 ], [ 2138731.0, 5222713.0 ], [ 2138689.0, 5222685.0 ], [ 2138663.0, 5222663.0 ], [ 2138361.0, 5222690.0 ], [ 2138140.0, 5222692.0 ], [ 2137967.0, 5222624.0 ], [ 2137925.0, 5222623.0 ], [ 2137750.0, 5222564.0 ], [ 2137742.0, 5222556.0 ], [ 2137547.0, 5222515.0 ], [ 2137260.0, 5222430.0 ], [ 2137246.0, 5222428.0 ], [ 2137244.0, 5222490.0 ], [ 2136998.0, 5222529.0 ], [ 2136992.0, 5222534.0 ], [ 2136872.0, 5222421.0 ], [ 2136821.0, 5222411.0 ], [ 2136676.0, 5222417.0 ], [ 2136681.0, 5222459.0 ], [ 2136718.0, 5222636.0 ], [ 2136754.0, 5222713.0 ], [ 2136791.0, 5222769.0 ], [ 2136991.0, 5223034.0 ], [ 2137184.0, 5223271.0 ], [ 2137272.0, 5223579.0 ], [ 2137267.0, 5223952.0 ], [ 2137208.0, 5224136.0 ], [ 2137150.0, 5224209.0 ], [ 2137051.0, 5224377.0 ], [ 2136986.0, 5224512.0 ], [ 2136937.0, 5224561.0 ], [ 2136851.0, 5224619.0 ], [ 2136697.0, 5224688.0 ], [ 2136612.0, 5224710.0 ], [ 2136555.0, 5224707.0 ], [ 2136326.0, 5224681.0 ], [ 2136237.0, 5224663.0 ], [ 2136160.0, 5224666.0 ], [ 2136060.0, 5224714.0 ], [ 2135989.0, 5224752.0 ], [ 2135901.0, 5224828.0 ], [ 2135886.0, 5224818.0 ], [ 2135867.0, 5224834.0 ], [ 2135861.0, 5224876.0 ], [ 2135869.0, 5224956.0 ], [ 2135734.0, 5225068.0 ], [ 2135688.0, 5225129.0 ], [ 2135680.0, 5225183.0 ], [ 2135728.0, 5225277.0 ], [ 2135761.0, 5225308.0 ], [ 2135789.0, 5225332.0 ], [ 2135804.0, 5225359.0 ], [ 2135795.0, 5225388.0 ], [ 2135953.0, 5225322.0 ], [ 2135958.0, 5225316.0 ], [ 2135959.0, 5225311.0 ], [ 2135958.0, 5225302.0 ], [ 2136011.0, 5225276.0 ], [ 2136037.0, 5225276.0 ], [ 2136050.0, 5225284.0 ], [ 2136061.0, 5225306.0 ], [ 2136060.0, 5225335.0 ], [ 2136046.0, 5225416.0 ], [ 2136012.0, 5225521.0 ], [ 2135989.0, 5225574.0 ], [ 2135973.0, 5225580.0 ], [ 2135962.0, 5225596.0 ], [ 2135956.0, 5225615.0 ], [ 2135948.0, 5225648.0 ], [ 2135950.0, 5225685.0 ], [ 2135959.0, 5225712.0 ], [ 2135982.0, 5225761.0 ], [ 2136063.0, 5225832.0 ], [ 2136096.0, 5225918.0 ], [ 2136099.0, 5225946.0 ], [ 2136117.0, 5226016.0 ], [ 2136135.0, 5226046.0 ], [ 2136154.0, 5226096.0 ], [ 2136205.0, 5226157.0 ], [ 2136212.0, 5226217.0 ], [ 2136198.0, 5226222.0 ], [ 2136205.0, 5226270.0 ], [ 2136225.0, 5226303.0 ], [ 2136270.0, 5226334.0 ], [ 2136234.0, 5226394.0 ], [ 2136225.0, 5226422.0 ], [ 2136213.0, 5226443.0 ], [ 2136196.0, 5226477.0 ], [ 2136152.0, 5226522.0 ], [ 2136147.0, 5226558.0 ], [ 2136137.0, 5226615.0 ], [ 2136149.0, 5226647.0 ], [ 2136166.0, 5226691.0 ], [ 2136185.0, 5226717.0 ], [ 2136228.0, 5226764.0 ], [ 2136343.0, 5226870.0 ], [ 2136396.0, 5226890.0 ], [ 2136467.0, 5226920.0 ], [ 2136478.0, 5226889.0 ], [ 2136562.0, 5226897.0 ], [ 2136624.0, 5226906.0 ], [ 2136666.0, 5226904.0 ], [ 2136693.0, 5226910.0 ], [ 2136724.0, 5226905.0 ], [ 2136804.0, 5226934.0 ], [ 2136838.0, 5226956.0 ], [ 2136963.0, 5227131.0 ], [ 2136968.0, 5227169.0 ], [ 2137035.0, 5227236.0 ], [ 2137046.0, 5227298.0 ], [ 2137064.0, 5227354.0 ], [ 2137091.0, 5227409.0 ], [ 2137121.0, 5227449.0 ], [ 2137188.0, 5227482.0 ], [ 2137285.0, 5227510.0 ], [ 2137540.0, 5227538.0 ], [ 2137607.0, 5227574.0 ], [ 2137620.0, 5227543.0 ], [ 2137673.0, 5227581.0 ], [ 2137732.0, 5227631.0 ], [ 2137761.0, 5227677.0 ], [ 2137746.0, 5227742.0 ], [ 2137744.0, 5227827.0 ], [ 2137727.0, 5227855.0 ], [ 2137697.0, 5227906.0 ], [ 2137759.0, 5227927.0 ], [ 2137685.0, 5228156.0 ], [ 2137645.0, 5228292.0 ], [ 2137624.0, 5228333.0 ], [ 2137487.0, 5228514.0 ], [ 2137285.0, 5228725.0 ], [ 2137211.0, 5228794.0 ], [ 2137172.0, 5228851.0 ], [ 2137060.0, 5229032.0 ], [ 2137011.0, 5229083.0 ], [ 2136973.0, 5229107.0 ], [ 2136768.0, 5229241.0 ], [ 2136563.0, 5229332.0 ], [ 2136354.0, 5229417.0 ], [ 2136082.0, 5229506.0 ], [ 2135919.0, 5229583.0 ], [ 2135600.0, 5229707.0 ], [ 2135511.0, 5229765.0 ], [ 2135458.0, 5229777.0 ], [ 2135406.0, 5229789.0 ], [ 2135377.0, 5229804.0 ], [ 2135337.0, 5229877.0 ], [ 2135302.0, 5229967.0 ], [ 2135506.0, 5230098.0 ] ] ] } }
]
}
