{
"type": "FeatureCollection",
"name": "prague-city_boundary",
"crs": { "type": "name", "properties": { "name": "urn:ogc:def:crs:EPSG::3857" } },
"features": [
{ "type": "Feature", "properties": { "bbox_west": 14.2244355, "bbox_south": 49.9419006, "bbox_east": 14.7067867, "bbox_north": 50.1774302, "place_id": 134225343, "osm_type": "relation", "osm_id": 435514, "lat": 50.0874654, "lon": 14.4212535, "class": "boundary", "type": "administrative", "place_rank": 8, "importance": 0.80871103585667581, "addresstype": "city", "name": "Prague", "display_name": "Prague, Czechia" }, "geometry": { "type": "Polygon", "coordinates": [ [ [ 1588864.0, 6452606.0 ], [ 1588844.0, 6452630.0 ], [ 1588787.0, 6452705.0 ], [ 1588769.0, 6452734.0 ], [ 1588736.0, 6452788.0 ], [ 1588706.0, 6452845.0 ], [ 1588664.0, 6452929.0 ], [ 1588649.0, 6452959.0 ], [ 1588639.0, 6452987.0 ], [ 1588625.0, 6453016.0 ], [ 1588565.0, 6453160.0 ], [ 1588553.0, 6453190.0 ], [ 1588540.0, 6453223.0 ], [ 1588535.0, 6453238.0 ], [ 1588531.0, 6453253.0 ], [ 1588510.0, 6453346.0 ], [ 1588501.0, 6453379.0 ], [ 1588481.0, 6453473.0 ], [ 1588472.0, 6453505.0 ], [ 1588474.0, 6453539.0 ], [ 1588468.0, 6453573.0 ], [ 1588455.0, 6453631.0 ], [ 1588449.0, 6453659.0 ], [ 1588443.0, 6453682.0 ], [ 1588436.0, 6453697.0 ], [ 1588380.0, 6453732.0 ], [ 1588378.0, 6453784.0 ], [ 1588388.0, 6453784.0 ], [ 1588415.0, 6453789.0 ], [ 1588476.0, 6453793.0 ], [ 1588506.0, 6453794.0 ], [ 1588515.0, 6453788.0 ], [ 1588516.0, 6453789.0 ], [ 1588523.0, 6453828.0 ], [ 1588548.0, 6453919.0 ], [ 1588549.0, 6453927.0 ], [ 1588542.0, 6453950.0 ], [ 1588550.0, 6453986.0 ], [ 1588553.0, 6454007.0 ], [ 1588562.0, 6454049.0 ], [ 1588575.0, 6454099.0 ], [ 1588584.0, 6454128.0 ], [ 1588605.0, 6454187.0 ], [ 1588617.0, 6454216.0 ], [ 1588624.0, 6454239.0 ], [ 1588622.0, 6454243.0 ], [ 1588632.0, 6454272.0 ], [ 1588641.0, 6454300.0 ], [ 1588585.0, 6454296.0 ], [ 1588581.0, 6454329.0 ], [ 1588606.0, 6454350.0 ], [ 1588631.0, 6454352.0 ], [ 1588649.0, 6454377.0 ], [ 1588645.0, 6454408.0 ], [ 1588640.0, 6454435.0 ], [ 1588592.0, 6454549.0 ], [ 1588600.0, 6454552.0 ], [ 1588593.0, 6454576.0 ], [ 1588579.0, 6454603.0 ], [ 1588563.0, 6454628.0 ], [ 1588523.0, 6454668.0 ], [ 1588497.0, 6454685.0 ], [ 1588472.0, 6454697.0 ], [ 1588449.0, 6454706.0 ], [ 1588418.0, 6454711.0 ], [ 1588388.0, 6454714.0 ], [ 1588326.0, 6454713.0 ], [ 1588336.0, 6454790.0 ], [ 1588402.0, 6454794.0 ], [ 1588435.0, 6454795.0 ], [ 1588464.0, 6454797.0 ], [ 1588530.0, 6454803.0 ], [ 1588563.0, 6454809.0 ], [ 1588592.0, 6454818.0 ], [ 1588617.0, 6454829.0 ], [ 1588641.0, 6454845.0 ], [ 1588662.0, 6454863.0 ], [ 1588739.0, 6454960.0 ], [ 1588781.0, 6455007.0 ], [ 1588805.0, 6455028.0 ], [ 1588823.0, 6455045.0 ], [ 1588821.0, 6455060.0 ], [ 1588808.0, 6455082.0 ], [ 1588778.0, 6455188.0 ], [ 1588759.0, 6455274.0 ], [ 1588718.0, 6455388.0 ], [ 1588714.0, 6455402.0 ], [ 1588696.0, 6455473.0 ], [ 1588691.0, 6455520.0 ], [ 1588692.0, 6455566.0 ], [ 1588694.0, 6455591.0 ], [ 1588709.0, 6455680.0 ], [ 1588711.0, 6455688.0 ], [ 1588703.0, 6455691.0 ], [ 1588698.0, 6455692.0 ], [ 1588627.0, 6455692.0 ], [ 1588542.0, 6455668.0 ], [ 1588521.0, 6455658.0 ], [ 1588467.0, 6455620.0 ], [ 1588406.0, 6455574.0 ], [ 1588353.0, 6455537.0 ], [ 1588235.0, 6455469.0 ], [ 1588148.0, 6455435.0 ], [ 1588064.0, 6455402.0 ], [ 1588019.0, 6455387.0 ], [ 1587895.0, 6455344.0 ], [ 1587865.0, 6455439.0 ], [ 1587672.0, 6455898.0 ], [ 1587576.0, 6455860.0 ], [ 1587474.0, 6455830.0 ], [ 1587206.0, 6455731.0 ], [ 1587108.0, 6455706.0 ], [ 1587067.0, 6455807.0 ], [ 1587055.0, 6455835.0 ], [ 1587032.0, 6455881.0 ], [ 1587026.0, 6455899.0 ], [ 1586959.0, 6456025.0 ], [ 1586950.0, 6456049.0 ], [ 1586936.0, 6456102.0 ], [ 1586935.0, 6456108.0 ], [ 1586926.0, 6456168.0 ], [ 1586765.0, 6456178.0 ], [ 1586700.0, 6456176.0 ], [ 1586676.0, 6456173.0 ], [ 1586671.0, 6456172.0 ], [ 1586627.0, 6456167.0 ], [ 1586546.0, 6456152.0 ], [ 1586510.0, 6456145.0 ], [ 1586447.0, 6456135.0 ], [ 1586397.0, 6456113.0 ], [ 1586386.0, 6456125.0 ], [ 1586383.0, 6456133.0 ], [ 1586347.0, 6456214.0 ], [ 1586314.0, 6456261.0 ], [ 1586242.0, 6456317.0 ], [ 1586214.0, 6456329.0 ], [ 1586194.0, 6456338.0 ], [ 1586148.0, 6456352.0 ], [ 1586100.0, 6456371.0 ], [ 1586090.0, 6456380.0 ], [ 1586051.0, 6456625.0 ], [ 1586060.0, 6456864.0 ], [ 1586046.0, 6456988.0 ], [ 1586038.0, 6457027.0 ], [ 1586031.0, 6457059.0 ], [ 1586036.0, 6457063.0 ], [ 1586063.0, 6457063.0 ], [ 1586152.0, 6457068.0 ], [ 1586221.0, 6457074.0 ], [ 1586344.0, 6457088.0 ], [ 1586451.0, 6457102.0 ], [ 1586596.0, 6457115.0 ], [ 1586620.0, 6457114.0 ], [ 1586663.0, 6457117.0 ], [ 1586671.0, 6457118.0 ], [ 1586703.0, 6457147.0 ], [ 1586728.0, 6457196.0 ], [ 1586747.0, 6457209.0 ], [ 1586765.0, 6457219.0 ], [ 1586807.0, 6457238.0 ], [ 1586881.0, 6457271.0 ], [ 1586956.0, 6457309.0 ], [ 1587000.0, 6457333.0 ], [ 1587065.0, 6457374.0 ], [ 1587141.0, 6457398.0 ], [ 1587205.0, 6457414.0 ], [ 1587246.0, 6457426.0 ], [ 1587273.0, 6457440.0 ], [ 1587286.0, 6457645.0 ], [ 1587288.0, 6457678.0 ], [ 1587314.0, 6457908.0 ], [ 1587317.0, 6457978.0 ], [ 1587303.0, 6457985.0 ], [ 1587231.0, 6458019.0 ], [ 1587222.0, 6458030.0 ], [ 1587220.0, 6458086.0 ], [ 1587214.0, 6458158.0 ], [ 1587219.0, 6458243.0 ], [ 1587192.0, 6458325.0 ], [ 1587183.0, 6458435.0 ], [ 1587177.0, 6458498.0 ], [ 1587171.0, 6458552.0 ], [ 1587180.0, 6458604.0 ], [ 1587193.0, 6458654.0 ], [ 1587199.0, 6458670.0 ], [ 1587565.0, 6458745.0 ], [ 1588168.0, 6458863.0 ], [ 1588403.0, 6458886.0 ], [ 1588509.0, 6458895.0 ], [ 1588887.0, 6458928.0 ], [ 1589064.0, 6458938.0 ], [ 1589119.0, 6458943.0 ], [ 1589155.0, 6458884.0 ], [ 1589194.0, 6458835.0 ], [ 1589231.0, 6458794.0 ], [ 1589268.0, 6458762.0 ], [ 1589297.0, 6458738.0 ], [ 1589319.0, 6458721.0 ], [ 1589342.0, 6458704.0 ], [ 1589365.0, 6458682.0 ], [ 1589391.0, 6458655.0 ], [ 1589396.0, 6458649.0 ], [ 1589404.0, 6458639.0 ], [ 1589433.0, 6458594.0 ], [ 1589447.0, 6458559.0 ], [ 1589482.0, 6458567.0 ], [ 1589473.0, 6458591.0 ], [ 1589470.0, 6458605.0 ], [ 1589458.0, 6458615.0 ], [ 1589461.0, 6458642.0 ], [ 1589450.0, 6458654.0 ], [ 1589450.0, 6458669.0 ], [ 1589441.0, 6458673.0 ], [ 1589431.0, 6458707.0 ], [ 1589426.0, 6458711.0 ], [ 1589414.0, 6458729.0 ], [ 1589410.0, 6458733.0 ], [ 1589415.0, 6458740.0 ], [ 1589408.0, 6458755.0 ], [ 1589396.0, 6458766.0 ], [ 1589373.0, 6458774.0 ], [ 1589398.0, 6458788.0 ], [ 1589423.0, 6458803.0 ], [ 1589395.0, 6458837.0 ], [ 1589370.0, 6458872.0 ], [ 1589350.0, 6458904.0 ], [ 1589338.0, 6458925.0 ], [ 1589362.0, 6458926.0 ], [ 1589374.0, 6458926.0 ], [ 1589448.0, 6458917.0 ], [ 1589516.0, 6458923.0 ], [ 1589536.0, 6458925.0 ], [ 1589610.0, 6458939.0 ], [ 1589678.0, 6458947.0 ], [ 1589764.0, 6458976.0 ], [ 1589795.0, 6459004.0 ], [ 1589844.0, 6459054.0 ], [ 1589866.0, 6459083.0 ], [ 1589885.0, 6459114.0 ], [ 1589913.0, 6459154.0 ], [ 1589941.0, 6459134.0 ], [ 1590035.0, 6459080.0 ], [ 1590141.0, 6459030.0 ], [ 1590190.0, 6459020.0 ], [ 1590235.0, 6459014.0 ], [ 1590390.0, 6459011.0 ], [ 1590464.0, 6459006.0 ], [ 1590567.0, 6458999.0 ], [ 1590645.0, 6458989.0 ], [ 1590687.0, 6458978.0 ], [ 1590749.0, 6458966.0 ], [ 1590777.0, 6458959.0 ], [ 1590789.0, 6459000.0 ], [ 1590799.0, 6459079.0 ], [ 1590801.0, 6459129.0 ], [ 1590802.0, 6459187.0 ], [ 1590799.0, 6459228.0 ], [ 1590797.0, 6459263.0 ], [ 1590769.0, 6459264.0 ], [ 1590770.0, 6459313.0 ], [ 1590766.0, 6459351.0 ], [ 1590753.0, 6459439.0 ], [ 1590737.0, 6459488.0 ], [ 1590716.0, 6459533.0 ], [ 1590697.0, 6459559.0 ], [ 1590668.0, 6459579.0 ], [ 1590682.0, 6459609.0 ], [ 1590686.0, 6459645.0 ], [ 1590525.0, 6459658.0 ], [ 1590526.0, 6459672.0 ], [ 1590524.0, 6459737.0 ], [ 1590457.0, 6459759.0 ], [ 1590313.0, 6459804.0 ], [ 1590200.0, 6459840.0 ], [ 1590200.0, 6459869.0 ], [ 1590203.0, 6459993.0 ], [ 1590211.0, 6460089.0 ], [ 1590225.0, 6460252.0 ], [ 1590229.0, 6460329.0 ], [ 1590236.0, 6460352.0 ], [ 1590194.0, 6460369.0 ], [ 1590151.0, 6460390.0 ], [ 1590137.0, 6460396.0 ], [ 1590079.0, 6460417.0 ], [ 1590072.0, 6460418.0 ], [ 1590037.0, 6460421.0 ], [ 1589999.0, 6460427.0 ], [ 1589985.0, 6460428.0 ], [ 1589933.0, 6460431.0 ], [ 1589855.0, 6460427.0 ], [ 1589825.0, 6460423.0 ], [ 1589643.0, 6460384.0 ], [ 1589605.0, 6460377.0 ], [ 1589479.0, 6460351.0 ], [ 1589363.0, 6460335.0 ], [ 1589312.0, 6460332.0 ], [ 1589235.0, 6460330.0 ], [ 1589114.0, 6460328.0 ], [ 1589058.0, 6460728.0 ], [ 1589038.0, 6460880.0 ], [ 1589030.0, 6460929.0 ], [ 1589028.0, 6460979.0 ], [ 1589028.0, 6460983.0 ], [ 1589029.0, 6460997.0 ], [ 1589031.0, 6461034.0 ], [ 1589031.0, 6461058.0 ], [ 1589030.0, 6461098.0 ], [ 1589027.0, 6461145.0 ], [ 1589013.0, 6461197.0 ], [ 1588933.0, 6461378.0 ], [ 1588916.0, 6461421.0 ], [ 1588902.0, 6461464.0 ], [ 1588831.0, 6461459.0 ], [ 1588822.0, 6461457.0 ], [ 1588715.0, 6461307.0 ], [ 1588636.0, 6461207.0 ], [ 1588586.0, 6461200.0 ], [ 1588482.0, 6461194.0 ], [ 1588387.0, 6461191.0 ], [ 1588337.0, 6461139.0 ], [ 1588220.0, 6461228.0 ], [ 1588098.0, 6461319.0 ], [ 1588024.0, 6461375.0 ], [ 1587989.0, 6461406.0 ], [ 1587960.0, 6461401.0 ], [ 1587925.0, 6461399.0 ], [ 1587898.0, 6461397.0 ], [ 1587538.0, 6461373.0 ], [ 1587538.0, 6461489.0 ], [ 1587537.0, 6461645.0 ], [ 1587537.0, 6461800.0 ], [ 1587536.0, 6461957.0 ], [ 1587534.0, 6462269.0 ], [ 1587532.0, 6462737.0 ], [ 1587531.0, 6462893.0 ], [ 1587530.0, 6462929.0 ], [ 1587527.0, 6462968.0 ], [ 1587509.0, 6462993.0 ], [ 1587496.0, 6463006.0 ], [ 1587483.0, 6463016.0 ], [ 1587467.0, 6463020.0 ], [ 1587445.0, 6463023.0 ], [ 1587400.0, 6463023.0 ], [ 1587267.0, 6463026.0 ], [ 1587155.0, 6463029.0 ], [ 1587062.0, 6463033.0 ], [ 1586971.0, 6463037.0 ], [ 1586916.0, 6463040.0 ], [ 1586898.0, 6463042.0 ], [ 1586877.0, 6463048.0 ], [ 1586859.0, 6463055.0 ], [ 1586836.0, 6463068.0 ], [ 1586820.0, 6463080.0 ], [ 1586797.0, 6463102.0 ], [ 1586778.0, 6463126.0 ], [ 1586767.0, 6463146.0 ], [ 1586756.0, 6463175.0 ], [ 1586750.0, 6463202.0 ], [ 1586748.0, 6463227.0 ], [ 1586750.0, 6463247.0 ], [ 1586755.0, 6463277.0 ], [ 1586768.0, 6463312.0 ], [ 1586784.0, 6463339.0 ], [ 1586804.0, 6463362.0 ], [ 1586822.0, 6463380.0 ], [ 1586848.0, 6463396.0 ], [ 1586874.0, 6463409.0 ], [ 1586993.0, 6463443.0 ], [ 1587112.0, 6463474.0 ], [ 1587232.0, 6463505.0 ], [ 1586826.0, 6463811.0 ], [ 1586632.0, 6463956.0 ], [ 1586600.0, 6463981.0 ], [ 1586547.0, 6464021.0 ], [ 1586448.0, 6464095.0 ], [ 1586285.0, 6464214.0 ], [ 1585959.0, 6464151.0 ], [ 1585966.0, 6464118.0 ], [ 1585994.0, 6464107.0 ], [ 1585988.0, 6464095.0 ], [ 1585940.0, 6464112.0 ], [ 1585926.0, 6464117.0 ], [ 1585911.0, 6464119.0 ], [ 1585896.0, 6464120.0 ], [ 1585880.0, 6464119.0 ], [ 1585866.0, 6464117.0 ], [ 1585852.0, 6464114.0 ], [ 1585745.0, 6464095.0 ], [ 1585745.0, 6464098.0 ], [ 1585744.0, 6464098.0 ], [ 1585507.0, 6464052.0 ], [ 1585486.0, 6464044.0 ], [ 1585464.0, 6464039.0 ], [ 1585433.0, 6464037.0 ], [ 1585211.0, 6463994.0 ], [ 1585076.0, 6463968.0 ], [ 1585064.0, 6463964.0 ], [ 1585053.0, 6463960.0 ], [ 1585046.0, 6463958.0 ], [ 1585033.0, 6463948.0 ], [ 1585024.0, 6463941.0 ], [ 1585016.0, 6463932.0 ], [ 1585009.0, 6463923.0 ], [ 1584997.0, 6463899.0 ], [ 1584987.0, 6463883.0 ], [ 1584969.0, 6463863.0 ], [ 1584947.0, 6463836.0 ], [ 1584936.0, 6463826.0 ], [ 1584924.0, 6463817.0 ], [ 1584910.0, 6463809.0 ], [ 1584896.0, 6463802.0 ], [ 1584882.0, 6463797.0 ], [ 1584867.0, 6463793.0 ], [ 1584850.0, 6463790.0 ], [ 1584835.0, 6463789.0 ], [ 1584819.0, 6463790.0 ], [ 1584804.0, 6463792.0 ], [ 1584789.0, 6463796.0 ], [ 1584774.0, 6463801.0 ], [ 1584760.0, 6463807.0 ], [ 1584749.0, 6463813.0 ], [ 1584660.0, 6463872.0 ], [ 1584576.0, 6463929.0 ], [ 1584550.0, 6463943.0 ], [ 1584533.0, 6463954.0 ], [ 1584519.0, 6463966.0 ], [ 1584486.0, 6463988.0 ], [ 1584472.0, 6463996.0 ], [ 1584457.0, 6464002.0 ], [ 1584442.0, 6464006.0 ], [ 1584428.0, 6464008.0 ], [ 1584412.0, 6464008.0 ], [ 1584398.0, 6464005.0 ], [ 1584384.0, 6464000.0 ], [ 1584302.0, 6463963.0 ], [ 1584202.0, 6463917.0 ], [ 1583706.0, 6463684.0 ], [ 1583690.0, 6463680.0 ], [ 1583675.0, 6463683.0 ], [ 1583662.0, 6463691.0 ], [ 1583651.0, 6463701.0 ], [ 1583643.0, 6463714.0 ], [ 1583568.0, 6463874.0 ], [ 1583558.0, 6463894.0 ], [ 1583521.0, 6463975.0 ], [ 1583510.0, 6463990.0 ], [ 1583498.0, 6464016.0 ], [ 1583494.0, 6464033.0 ], [ 1583462.0, 6464104.0 ], [ 1583458.0, 6464118.0 ], [ 1583457.0, 6464132.0 ], [ 1583461.0, 6464145.0 ], [ 1583467.0, 6464159.0 ], [ 1583474.0, 6464170.0 ], [ 1583550.0, 6464279.0 ], [ 1583572.0, 6464307.0 ], [ 1583586.0, 6464315.0 ], [ 1583603.0, 6464323.0 ], [ 1583622.0, 6464328.0 ], [ 1583641.0, 6464332.0 ], [ 1583717.0, 6464340.0 ], [ 1583758.0, 6464346.0 ], [ 1583779.0, 6464350.0 ], [ 1583801.0, 6464355.0 ], [ 1583821.0, 6464361.0 ], [ 1583841.0, 6464367.0 ], [ 1583860.0, 6464373.0 ], [ 1583878.0, 6464379.0 ], [ 1583895.0, 6464386.0 ], [ 1583912.0, 6464393.0 ], [ 1584132.0, 6464495.0 ], [ 1584140.0, 6464500.0 ], [ 1584148.0, 6464505.0 ], [ 1584156.0, 6464512.0 ], [ 1584161.0, 6464520.0 ], [ 1584164.0, 6464530.0 ], [ 1584166.0, 6464541.0 ], [ 1584169.0, 6464576.0 ], [ 1584172.0, 6464585.0 ], [ 1584175.0, 6464595.0 ], [ 1584178.0, 6464599.0 ], [ 1584181.0, 6464604.0 ], [ 1584189.0, 6464610.0 ], [ 1584198.0, 6464614.0 ], [ 1584259.0, 6464643.0 ], [ 1584382.0, 6464701.0 ], [ 1584511.0, 6464761.0 ], [ 1584633.0, 6464818.0 ], [ 1584780.0, 6464887.0 ], [ 1584790.0, 6464890.0 ], [ 1584801.0, 6464891.0 ], [ 1584812.0, 6464889.0 ], [ 1584822.0, 6464886.0 ], [ 1584831.0, 6464880.0 ], [ 1584838.0, 6464872.0 ], [ 1584844.0, 6464864.0 ], [ 1584867.0, 6464814.0 ], [ 1584872.0, 6464805.0 ], [ 1584877.0, 6464798.0 ], [ 1584884.0, 6464790.0 ], [ 1584893.0, 6464784.0 ], [ 1584903.0, 6464781.0 ], [ 1584914.0, 6464781.0 ], [ 1584924.0, 6464783.0 ], [ 1584935.0, 6464786.0 ], [ 1585097.0, 6464864.0 ], [ 1585106.0, 6464869.0 ], [ 1585114.0, 6464876.0 ], [ 1585120.0, 6464884.0 ], [ 1585124.0, 6464894.0 ], [ 1585124.0, 6464904.0 ], [ 1585123.0, 6464915.0 ], [ 1585119.0, 6464927.0 ], [ 1585113.0, 6464941.0 ], [ 1585101.0, 6464967.0 ], [ 1585093.0, 6464979.0 ], [ 1585077.0, 6465002.0 ], [ 1585068.0, 6465012.0 ], [ 1585056.0, 6465023.0 ], [ 1584959.0, 6465095.0 ], [ 1584938.0, 6465116.0 ], [ 1584930.0, 6465126.0 ], [ 1584923.0, 6465139.0 ], [ 1584914.0, 6465163.0 ], [ 1584877.0, 6465283.0 ], [ 1584869.0, 6465318.0 ], [ 1584862.0, 6465352.0 ], [ 1584857.0, 6465386.0 ], [ 1584862.0, 6465436.0 ], [ 1584984.0, 6465597.0 ], [ 1584968.0, 6465609.0 ], [ 1584978.0, 6465622.0 ], [ 1585000.0, 6465606.0 ], [ 1585025.0, 6465640.0 ], [ 1585036.0, 6465650.0 ], [ 1585057.0, 6465660.0 ], [ 1585073.0, 6465661.0 ], [ 1585092.0, 6465655.0 ], [ 1585112.0, 6465643.0 ], [ 1585156.0, 6465612.0 ], [ 1585180.0, 6465597.0 ], [ 1585215.0, 6465582.0 ], [ 1585244.0, 6465573.0 ], [ 1585265.0, 6465571.0 ], [ 1585381.0, 6465567.0 ], [ 1585415.0, 6465563.0 ], [ 1585455.0, 6465551.0 ], [ 1585511.0, 6465519.0 ], [ 1585549.0, 6465488.0 ], [ 1585720.0, 6465360.0 ], [ 1585739.0, 6465348.0 ], [ 1585744.0, 6465347.0 ], [ 1585758.0, 6465344.0 ], [ 1585781.0, 6465343.0 ], [ 1585801.0, 6465347.0 ], [ 1585844.0, 6465358.0 ], [ 1585864.0, 6465362.0 ], [ 1586010.0, 6465403.0 ], [ 1586137.0, 6465440.0 ], [ 1586219.0, 6465462.0 ], [ 1586246.0, 6465473.0 ], [ 1586262.0, 6465476.0 ], [ 1586307.0, 6465485.0 ], [ 1586413.0, 6465519.0 ], [ 1586544.0, 6465568.0 ], [ 1586657.0, 6465611.0 ], [ 1586755.0, 6465653.0 ], [ 1586845.0, 6465700.0 ], [ 1586930.0, 6465761.0 ], [ 1586979.0, 6465788.0 ], [ 1586983.0, 6465798.0 ], [ 1586981.0, 6465823.0 ], [ 1586984.0, 6465843.0 ], [ 1587011.0, 6465896.0 ], [ 1586975.0, 6465917.0 ], [ 1586996.0, 6465961.0 ], [ 1587100.0, 6466140.0 ], [ 1587147.0, 6466116.0 ], [ 1587268.0, 6466053.0 ], [ 1587286.0, 6466047.0 ], [ 1587296.0, 6466042.0 ], [ 1587310.0, 6466036.0 ], [ 1587421.0, 6465946.0 ], [ 1587629.0, 6466043.0 ], [ 1587703.0, 6466077.0 ], [ 1587843.0, 6466145.0 ], [ 1588955.0, 6466664.0 ], [ 1589513.0, 6466924.0 ], [ 1589577.0, 6466869.0 ], [ 1589630.0, 6466824.0 ], [ 1589664.0, 6466792.0 ], [ 1589717.0, 6466744.0 ], [ 1589809.0, 6466656.0 ], [ 1589866.0, 6466602.0 ], [ 1590089.0, 6466374.0 ], [ 1590115.0, 6466345.0 ], [ 1590139.0, 6466322.0 ], [ 1590161.0, 6466297.0 ], [ 1590175.0, 6466297.0 ], [ 1590230.0, 6466333.0 ], [ 1590231.0, 6466334.0 ], [ 1590261.0, 6466354.0 ], [ 1590301.0, 6466363.0 ], [ 1590330.0, 6466365.0 ], [ 1590388.0, 6466372.0 ], [ 1590433.0, 6466379.0 ], [ 1590519.0, 6466401.0 ], [ 1590572.0, 6466428.0 ], [ 1590623.0, 6466459.0 ], [ 1590660.0, 6466490.0 ], [ 1590680.0, 6466502.0 ], [ 1590708.0, 6466532.0 ], [ 1590769.0, 6466589.0 ], [ 1590822.0, 6466632.0 ], [ 1590882.0, 6466672.0 ], [ 1590968.0, 6466751.0 ], [ 1590985.0, 6466790.0 ], [ 1591005.0, 6466791.0 ], [ 1591016.0, 6466785.0 ], [ 1591035.0, 6466797.0 ], [ 1591045.0, 6466799.0 ], [ 1591076.0, 6466821.0 ], [ 1591146.0, 6466874.0 ], [ 1591184.0, 6466902.0 ], [ 1591193.0, 6466908.0 ], [ 1591237.0, 6466920.0 ], [ 1591269.0, 6466942.0 ], [ 1591310.0, 6466971.0 ], [ 1591329.0, 6466985.0 ], [ 1591387.0, 6467024.0 ], [ 1591414.0, 6467046.0 ], [ 1591481.0, 6467104.0 ], [ 1591507.0, 6467128.0 ], [ 1591535.0, 6467159.0 ], [ 1591554.0, 6467187.0 ], [ 1591578.0, 6467239.0 ], [ 1591585.0, 6467251.0 ], [ 1591529.0, 6467313.0 ], [ 1591493.0, 6467361.0 ], [ 1591414.0, 6467463.0 ], [ 1591396.0, 6467498.0 ], [ 1591383.0, 6467542.0 ], [ 1591372.0, 6467604.0 ], [ 1591348.0, 6467781.0 ], [ 1591339.0, 6467828.0 ], [ 1591326.0, 6467892.0 ], [ 1591296.0, 6467902.0 ], [ 1591277.0, 6467914.0 ], [ 1591281.0, 6467920.0 ], [ 1591305.0, 6467919.0 ], [ 1591348.0, 6467936.0 ], [ 1591391.0, 6467962.0 ], [ 1591396.0, 6467967.0 ], [ 1591437.0, 6467991.0 ], [ 1591540.0, 6468056.0 ], [ 1591561.0, 6468072.0 ], [ 1591578.0, 6468070.0 ], [ 1591591.0, 6468076.0 ], [ 1591605.0, 6468089.0 ], [ 1591618.0, 6468086.0 ], [ 1591635.0, 6468103.0 ], [ 1591729.0, 6468144.0 ], [ 1591745.0, 6468167.0 ], [ 1591778.0, 6468166.0 ], [ 1591826.0, 6468176.0 ], [ 1591810.0, 6468184.0 ], [ 1591840.0, 6468214.0 ], [ 1591891.0, 6468237.0 ], [ 1591941.0, 6468301.0 ], [ 1591967.0, 6468366.0 ], [ 1591984.0, 6468363.0 ], [ 1591985.0, 6468365.0 ], [ 1591985.0, 6468374.0 ], [ 1591939.0, 6468412.0 ], [ 1591904.0, 6468428.0 ], [ 1591952.0, 6468548.0 ], [ 1591921.0, 6468587.0 ], [ 1591949.0, 6468652.0 ], [ 1591968.0, 6468690.0 ], [ 1592017.0, 6468758.0 ], [ 1592109.0, 6468746.0 ], [ 1592126.0, 6468787.0 ], [ 1592127.0, 6468790.0 ], [ 1592128.0, 6468798.0 ], [ 1592128.0, 6468807.0 ], [ 1592127.0, 6468815.0 ], [ 1592125.0, 6468824.0 ], [ 1592140.0, 6468833.0 ], [ 1592173.0, 6468802.0 ], [ 1592231.0, 6468764.0 ], [ 1592322.0, 6468720.0 ], [ 1592346.0, 6468712.0 ], [ 1592355.0, 6468735.0 ], [ 1592358.0, 6468743.0 ], [ 1592358.0, 6468756.0 ], [ 1592360.0, 6468762.0 ], [ 1592371.0, 6468759.0 ], [ 1592388.0, 6468756.0 ], [ 1592399.0, 6468764.0 ], [ 1592429.0, 6468802.0 ], [ 1592449.0, 6468812.0 ], [ 1592496.0, 6468844.0 ], [ 1592509.0, 6468834.0 ], [ 1592516.0, 6468829.0 ], [ 1592522.0, 6468821.0 ], [ 1592527.0, 6468812.0 ], [ 1592558.0, 6468729.0 ], [ 1592561.0, 6468696.0 ], [ 1592559.0, 6468696.0 ], [ 1592559.0, 6468691.0 ], [ 1592557.0, 6468686.0 ], [ 1592553.0, 6468683.0 ], [ 1592555.0, 6468675.0 ], [ 1592558.0, 6468676.0 ], [ 1592572.0, 6468675.0 ], [ 1592583.0, 6468670.0 ], [ 1592600.0, 6468658.0 ], [ 1592619.0, 6468641.0 ], [ 1592652.0, 6468617.0 ], [ 1592685.0, 6468586.0 ], [ 1592710.0, 6468564.0 ], [ 1592749.0, 6468535.0 ], [ 1592787.0, 6468515.0 ], [ 1592826.0, 6468499.0 ], [ 1592871.0, 6468489.0 ], [ 1592939.0, 6468485.0 ], [ 1592980.0, 6468476.0 ], [ 1593002.0, 6468454.0 ], [ 1593018.0, 6468433.0 ], [ 1593025.0, 6468454.0 ], [ 1593054.0, 6468479.0 ], [ 1593074.0, 6468483.0 ], [ 1593102.0, 6468485.0 ], [ 1593174.0, 6468492.0 ], [ 1593296.0, 6468519.0 ], [ 1593339.0, 6468528.0 ], [ 1593445.0, 6468545.0 ], [ 1593466.0, 6468548.0 ], [ 1593636.0, 6468580.0 ], [ 1593613.0, 6468397.0 ], [ 1593603.0, 6468317.0 ], [ 1593605.0, 6468168.0 ], [ 1593608.0, 6468020.0 ], [ 1593615.0, 6468020.0 ], [ 1593615.0, 6468005.0 ], [ 1593624.0, 6467977.0 ], [ 1593625.0, 6467966.0 ], [ 1593628.0, 6467934.0 ], [ 1593629.0, 6467856.0 ], [ 1593629.0, 6467832.0 ], [ 1593631.0, 6467731.0 ], [ 1593627.0, 6467687.0 ], [ 1593620.0, 6467611.0 ], [ 1593626.0, 6467602.0 ], [ 1593616.0, 6467595.0 ], [ 1593654.0, 6467533.0 ], [ 1593668.0, 6467510.0 ], [ 1593680.0, 6467485.0 ], [ 1593742.0, 6467328.0 ], [ 1593764.0, 6467282.0 ], [ 1593772.0, 6467258.0 ], [ 1593829.0, 6466908.0 ], [ 1593829.0, 6466902.0 ], [ 1593825.0, 6466886.0 ], [ 1593835.0, 6466871.0 ], [ 1593864.0, 6466889.0 ], [ 1593870.0, 6466893.0 ], [ 1593890.0, 6466835.0 ], [ 1593907.0, 6466806.0 ], [ 1593948.0, 6466744.0 ], [ 1593972.0, 6466712.0 ], [ 1594012.0, 6466661.0 ], [ 1594119.0, 6466529.0 ], [ 1594133.0, 6466503.0 ], [ 1594153.0, 6466404.0 ], [ 1594170.0, 6466291.0 ], [ 1594163.0, 6466258.0 ], [ 1594270.0, 6466287.0 ], [ 1594369.0, 6466324.0 ], [ 1594456.0, 6466353.0 ], [ 1594527.0, 6466379.0 ], [ 1594589.0, 6466400.0 ], [ 1594638.0, 6466414.0 ], [ 1594780.0, 6466451.0 ], [ 1594832.0, 6466475.0 ], [ 1594877.0, 6466503.0 ], [ 1594898.0, 6466513.0 ], [ 1594918.0, 6466518.0 ], [ 1594946.0, 6466520.0 ], [ 1595033.0, 6466513.0 ], [ 1595078.0, 6466505.0 ], [ 1595154.0, 6466506.0 ], [ 1595169.0, 6466505.0 ], [ 1595189.0, 6466501.0 ], [ 1595255.0, 6466498.0 ], [ 1595311.0, 6466495.0 ], [ 1595394.0, 6466485.0 ], [ 1595436.0, 6466488.0 ], [ 1595514.0, 6466485.0 ], [ 1595547.0, 6466479.0 ], [ 1595563.0, 6466478.0 ], [ 1595675.0, 6466485.0 ], [ 1595716.0, 6466488.0 ], [ 1595816.0, 6466499.0 ], [ 1595828.0, 6466500.0 ], [ 1595920.0, 6466513.0 ], [ 1596077.0, 6466532.0 ], [ 1596115.0, 6466536.0 ], [ 1596158.0, 6466540.0 ], [ 1596192.0, 6466539.0 ], [ 1596251.0, 6466545.0 ], [ 1596284.0, 6466540.0 ], [ 1596326.0, 6466527.0 ], [ 1596366.0, 6466511.0 ], [ 1596392.0, 6466499.0 ], [ 1596429.0, 6466486.0 ], [ 1596448.0, 6466483.0 ], [ 1596463.0, 6466484.0 ], [ 1596564.0, 6466506.0 ], [ 1596587.0, 6466510.0 ], [ 1596630.0, 6466512.0 ], [ 1596677.0, 6466513.0 ], [ 1596711.0, 6466510.0 ], [ 1596767.0, 6466506.0 ], [ 1596818.0, 6466499.0 ], [ 1596833.0, 6466497.0 ], [ 1596837.0, 6466497.0 ], [ 1596924.0, 6466484.0 ], [ 1596995.0, 6466474.0 ], [ 1597063.0, 6466468.0 ], [ 1597105.0, 6466465.0 ], [ 1597186.0, 6466462.0 ], [ 1597209.0, 6466461.0 ], [ 1597240.0, 6466461.0 ], [ 1597268.0, 6466462.0 ], [ 1597277.0, 6466462.0 ], [ 1597323.0, 6466470.0 ], [ 1597344.0, 6466469.0 ], [ 1597367.0, 6466467.0 ], [ 1597438.0, 6466459.0 ], [ 1597453.0, 6466462.0 ], [ 1597643.0, 6466426.0 ], [ 1597735.0, 6466413.0 ], [ 1597785.0, 6466408.0 ], [ 1597816.0, 6466406.0 ], [ 1597847.0, 6466407.0 ], [ 1597881.0, 6466410.0 ], [ 1597902.0, 6466415.0 ], [ 1597946.0, 6466431.0 ], [ 1597965.0, 6466432.0 ], [ 1597985.0, 6466428.0 ], [ 1598022.0, 6466418.0 ], [ 1598096.0, 6466412.0 ], [ 1598200.0, 6466404.0 ], [ 1598347.0, 6466400.0 ], [ 1598401.0, 6466394.0 ], [ 1598459.0, 6466396.0 ], [ 1598525.0, 6466390.0 ], [ 1598562.0, 6466393.0 ], [ 1598635.0, 6466393.0 ], [ 1598684.0, 6466415.0 ], [ 1598711.0, 6466436.0 ], [ 1598723.0, 6466431.0 ], [ 1598699.0, 6466472.0 ], [ 1598593.0, 6466651.0 ], [ 1598686.0, 6466719.0 ], [ 1598671.0, 6466739.0 ], [ 1598643.0, 6466778.0 ], [ 1598617.0, 6466822.0 ], [ 1598593.0, 6466866.0 ], [ 1598561.0, 6466941.0 ], [ 1598542.0, 6466987.0 ], [ 1598481.0, 6467139.0 ], [ 1598416.0, 6467311.0 ], [ 1598300.0, 6467519.0 ], [ 1598183.0, 6467690.0 ], [ 1598136.0, 6467760.0 ], [ 1598087.0, 6467832.0 ], [ 1598065.0, 6467860.0 ], [ 1598063.0, 6467891.0 ], [ 1598113.0, 6468002.0 ], [ 1598173.0, 6468127.0 ], [ 1598223.0, 6468226.0 ], [ 1598287.0, 6468354.0 ], [ 1598360.0, 6468464.0 ], [ 1598433.0, 6468573.0 ], [ 1598553.0, 6468737.0 ], [ 1598354.0, 6468760.0 ], [ 1598263.0, 6468759.0 ], [ 1598254.0, 6468815.0 ], [ 1598224.0, 6469042.0 ], [ 1598200.0, 6469064.0 ], [ 1598197.0, 6469206.0 ], [ 1598192.0, 6469272.0 ], [ 1598182.0, 6469427.0 ], [ 1598165.0, 6469580.0 ], [ 1598139.0, 6469804.0 ], [ 1598120.0, 6469972.0 ], [ 1598096.0, 6469967.0 ], [ 1598091.0, 6469973.0 ], [ 1598087.0, 6469977.0 ], [ 1598036.0, 6469951.0 ], [ 1597927.0, 6469907.0 ], [ 1597894.0, 6470127.0 ], [ 1597941.0, 6470155.0 ], [ 1597987.0, 6470190.0 ], [ 1598030.0, 6470324.0 ], [ 1598050.0, 6470339.0 ], [ 1598103.0, 6470381.0 ], [ 1598258.0, 6470435.0 ], [ 1598262.0, 6470433.0 ], [ 1598302.0, 6470656.0 ], [ 1598298.0, 6470655.0 ], [ 1598270.0, 6470666.0 ], [ 1598108.0, 6470666.0 ], [ 1598113.0, 6470760.0 ], [ 1598165.0, 6470745.0 ], [ 1598171.0, 6470799.0 ], [ 1598298.0, 6470952.0 ], [ 1598405.0, 6471154.0 ], [ 1598555.0, 6471259.0 ], [ 1598654.0, 6471432.0 ], [ 1598713.0, 6471597.0 ], [ 1598785.0, 6471704.0 ], [ 1599011.0, 6471831.0 ], [ 1599099.0, 6471880.0 ], [ 1599154.0, 6471916.0 ], [ 1599178.0, 6471947.0 ], [ 1599183.0, 6471952.0 ], [ 1599268.0, 6471878.0 ], [ 1599305.0, 6471853.0 ], [ 1599370.0, 6471839.0 ], [ 1599413.0, 6471835.0 ], [ 1599432.0, 6471834.0 ], [ 1599452.0, 6471836.0 ], [ 1599471.0, 6471840.0 ], [ 1599485.0, 6471843.0 ], [ 1599547.0, 6471855.0 ], [ 1599741.0, 6471899.0 ], [ 1599794.0, 6471920.0 ], [ 1599837.0, 6471942.0 ], [ 1599857.0, 6471944.0 ], [ 1599871.0, 6471941.0 ], [ 1599892.0, 6471929.0 ], [ 1599929.0, 6471895.0 ], [ 1599931.0, 6471890.0 ], [ 1599926.0, 6471858.0 ], [ 1599996.0, 6471843.0 ], [ 1600071.0, 6471820.0 ], [ 1600222.0, 6471823.0 ], [ 1600274.0, 6471781.0 ], [ 1600301.0, 6471765.0 ], [ 1600332.0, 6471770.0 ], [ 1600468.0, 6471749.0 ], [ 1600558.0, 6471702.0 ], [ 1600601.0, 6471684.0 ], [ 1600704.0, 6471669.0 ], [ 1600796.0, 6471666.0 ], [ 1600808.0, 6471666.0 ], [ 1600841.0, 6471677.0 ], [ 1600874.0, 6471688.0 ], [ 1600919.0, 6471734.0 ], [ 1600934.0, 6471748.0 ], [ 1600970.0, 6471765.0 ], [ 1600974.0, 6471757.0 ], [ 1600975.0, 6471752.0 ], [ 1601001.0, 6471754.0 ], [ 1601150.0, 6471765.0 ], [ 1601215.0, 6471777.0 ], [ 1601317.0, 6471760.0 ], [ 1601321.0, 6471756.0 ], [ 1601412.0, 6471600.0 ], [ 1601419.0, 6471590.0 ], [ 1601435.0, 6471602.0 ], [ 1601465.0, 6471670.0 ], [ 1601501.0, 6471651.0 ], [ 1601528.0, 6471640.0 ], [ 1601562.0, 6471617.0 ], [ 1601631.0, 6471562.0 ], [ 1601597.0, 6471509.0 ], [ 1601601.0, 6471501.0 ], [ 1601635.0, 6471485.0 ], [ 1601695.0, 6471466.0 ], [ 1601756.0, 6471430.0 ], [ 1601812.0, 6471373.0 ], [ 1602012.0, 6471245.0 ], [ 1602014.0, 6471181.0 ], [ 1602021.0, 6471156.0 ], [ 1602098.0, 6471017.0 ], [ 1602132.0, 6470904.0 ], [ 1602116.0, 6470867.0 ], [ 1602229.0, 6470790.0 ], [ 1602297.0, 6470774.0 ], [ 1602404.0, 6470803.0 ], [ 1602433.0, 6470805.0 ], [ 1602475.0, 6470871.0 ], [ 1602523.0, 6470913.0 ], [ 1602517.0, 6470962.0 ], [ 1602529.0, 6470963.0 ], [ 1602577.0, 6470968.0 ], [ 1602595.0, 6470959.0 ], [ 1602633.0, 6470982.0 ], [ 1602672.0, 6471104.0 ], [ 1602671.0, 6471169.0 ], [ 1602788.0, 6471156.0 ], [ 1602906.0, 6471143.0 ], [ 1602913.0, 6471167.0 ], [ 1602906.0, 6471169.0 ], [ 1602910.0, 6471187.0 ], [ 1602922.0, 6471225.0 ], [ 1602917.0, 6471254.0 ], [ 1602917.0, 6471267.0 ], [ 1602953.0, 6471473.0 ], [ 1602967.0, 6471566.0 ], [ 1602988.0, 6471705.0 ], [ 1602997.0, 6471783.0 ], [ 1603002.0, 6471832.0 ], [ 1603010.0, 6471908.0 ], [ 1602998.0, 6471930.0 ], [ 1603087.0, 6471911.0 ], [ 1603118.0, 6471909.0 ], [ 1603158.0, 6471902.0 ], [ 1603216.0, 6471888.0 ], [ 1603241.0, 6471872.0 ], [ 1603269.0, 6471867.0 ], [ 1603295.0, 6471872.0 ], [ 1603326.0, 6471880.0 ], [ 1603372.0, 6471876.0 ], [ 1603402.0, 6471861.0 ], [ 1603431.0, 6471838.0 ], [ 1603456.0, 6471834.0 ], [ 1603502.0, 6471819.0 ], [ 1603526.0, 6471811.0 ], [ 1603559.0, 6471799.0 ], [ 1603580.0, 6471796.0 ], [ 1603648.0, 6471794.0 ], [ 1603686.0, 6471780.0 ], [ 1603762.0, 6471770.0 ], [ 1603793.0, 6471769.0 ], [ 1603860.0, 6471878.0 ], [ 1603875.0, 6471878.0 ], [ 1603895.0, 6471867.0 ], [ 1603972.0, 6471879.0 ], [ 1604020.0, 6471873.0 ], [ 1604106.0, 6471898.0 ], [ 1604136.0, 6471916.0 ], [ 1604167.0, 6471917.0 ], [ 1604225.0, 6471920.0 ], [ 1604237.0, 6471923.0 ], [ 1604246.0, 6471942.0 ], [ 1604268.0, 6471965.0 ], [ 1604284.0, 6471965.0 ], [ 1604309.0, 6471954.0 ], [ 1604329.0, 6471958.0 ], [ 1604348.0, 6471966.0 ], [ 1604400.0, 6471986.0 ], [ 1604478.0, 6471981.0 ], [ 1604530.0, 6471976.0 ], [ 1604561.0, 6471982.0 ], [ 1604623.0, 6471971.0 ], [ 1604669.0, 6471997.0 ], [ 1604695.0, 6472008.0 ], [ 1604717.0, 6472011.0 ], [ 1604717.0, 6472014.0 ], [ 1604735.0, 6472009.0 ], [ 1604746.0, 6472008.0 ], [ 1604755.0, 6472007.0 ], [ 1604774.0, 6471998.0 ], [ 1604803.0, 6472001.0 ], [ 1604891.0, 6472030.0 ], [ 1604912.0, 6472046.0 ], [ 1604924.0, 6472104.0 ], [ 1604932.0, 6472120.0 ], [ 1604941.0, 6472125.0 ], [ 1604976.0, 6472131.0 ], [ 1605008.0, 6472141.0 ], [ 1605013.0, 6472144.0 ], [ 1605070.0, 6472170.0 ], [ 1605130.0, 6472191.0 ], [ 1605241.0, 6472199.0 ], [ 1605289.0, 6472203.0 ], [ 1605314.0, 6472197.0 ], [ 1605323.0, 6472189.0 ], [ 1605351.0, 6472187.0 ], [ 1605350.0, 6472190.0 ], [ 1605350.0, 6472211.0 ], [ 1605351.0, 6472220.0 ], [ 1605386.0, 6472214.0 ], [ 1605398.0, 6472217.0 ], [ 1605437.0, 6472250.0 ], [ 1605500.0, 6472265.0 ], [ 1605506.0, 6472265.0 ], [ 1605483.0, 6472280.0 ], [ 1605433.0, 6472287.0 ], [ 1605416.0, 6472290.0 ], [ 1605356.0, 6472314.0 ], [ 1605317.0, 6472340.0 ], [ 1605304.0, 6472352.0 ], [ 1605294.0, 6472391.0 ], [ 1605285.0, 6472440.0 ], [ 1605255.0, 6472634.0 ], [ 1605242.0, 6472723.0 ], [ 1605229.0, 6472809.0 ], [ 1605232.0, 6472809.0 ], [ 1605233.0, 6472813.0 ], [ 1605250.0, 6472816.0 ], [ 1605368.0, 6472805.0 ], [ 1605446.0, 6472799.0 ], [ 1605576.0, 6472780.0 ], [ 1605576.0, 6472784.0 ], [ 1605670.0, 6472789.0 ], [ 1605785.0, 6472806.0 ], [ 1605911.0, 6472841.0 ], [ 1605920.0, 6472822.0 ], [ 1606082.0, 6472840.0 ], [ 1606077.0, 6472870.0 ], [ 1606226.0, 6472904.0 ], [ 1606216.0, 6472936.0 ], [ 1606225.0, 6472984.0 ], [ 1606249.0, 6472990.0 ], [ 1606191.0, 6473309.0 ], [ 1606155.0, 6473504.0 ], [ 1606133.0, 6473626.0 ], [ 1606357.0, 6473689.0 ], [ 1606416.0, 6473706.0 ], [ 1606453.0, 6473716.0 ], [ 1606499.0, 6473729.0 ], [ 1607009.0, 6473873.0 ], [ 1607011.0, 6473873.0 ], [ 1607041.0, 6473772.0 ], [ 1607084.0, 6473598.0 ], [ 1607088.0, 6473600.0 ], [ 1608123.0, 6473639.0 ], [ 1608129.0, 6473640.0 ], [ 1608774.0, 6473655.0 ], [ 1608805.0, 6473748.0 ], [ 1609310.0, 6473807.0 ], [ 1609328.0, 6473810.0 ], [ 1609728.0, 6473856.0 ], [ 1610139.0, 6474018.0 ], [ 1610094.0, 6474245.0 ], [ 1610108.0, 6474371.0 ], [ 1610108.0, 6474856.0 ], [ 1610108.0, 6474879.0 ], [ 1610175.0, 6474921.0 ], [ 1610433.0, 6474974.0 ], [ 1610460.0, 6475390.0 ], [ 1610449.0, 6475690.0 ], [ 1610686.0, 6475736.0 ], [ 1611084.0, 6475741.0 ], [ 1611296.0, 6475733.0 ], [ 1611697.0, 6475726.0 ], [ 1611923.0, 6475748.0 ], [ 1611906.0, 6476088.0 ], [ 1611853.0, 6476168.0 ], [ 1612096.0, 6476181.0 ], [ 1612335.0, 6476178.0 ], [ 1612354.0, 6476179.0 ], [ 1612730.0, 6476162.0 ], [ 1612972.0, 6476170.0 ], [ 1613263.0, 6476177.0 ], [ 1613610.0, 6476146.0 ], [ 1613806.0, 6476118.0 ], [ 1613909.0, 6476103.0 ], [ 1614062.0, 6476090.0 ], [ 1614303.0, 6476072.0 ], [ 1614649.0, 6476047.0 ], [ 1614901.0, 6476019.0 ], [ 1615014.0, 6476228.0 ], [ 1615142.0, 6476492.0 ], [ 1615358.0, 6476530.0 ], [ 1615594.0, 6476572.0 ], [ 1615655.0, 6476583.0 ], [ 1615776.0, 6476604.0 ], [ 1615782.0, 6476605.0 ], [ 1615804.0, 6476610.0 ], [ 1615870.0, 6476620.0 ], [ 1615910.0, 6476630.0 ], [ 1615960.0, 6476649.0 ], [ 1615977.0, 6476577.0 ], [ 1615980.0, 6476574.0 ], [ 1616058.0, 6476606.0 ], [ 1616154.0, 6476645.0 ], [ 1616216.0, 6476665.0 ], [ 1616239.0, 6476596.0 ], [ 1616312.0, 6476617.0 ], [ 1616614.0, 6476727.0 ], [ 1616624.0, 6476731.0 ], [ 1616877.0, 6476823.0 ], [ 1617092.0, 6476902.0 ], [ 1617105.0, 6476978.0 ], [ 1617119.0, 6476994.0 ], [ 1617128.0, 6477054.0 ], [ 1617121.0, 6477056.0 ], [ 1617122.0, 6477061.0 ], [ 1617144.0, 6477058.0 ], [ 1617177.0, 6477045.0 ], [ 1617209.0, 6477037.0 ], [ 1617322.0, 6477021.0 ], [ 1617425.0, 6477014.0 ], [ 1617563.0, 6477013.0 ], [ 1617734.0, 6477016.0 ], [ 1617749.0, 6477018.0 ], [ 1617717.0, 6476866.0 ], [ 1617710.0, 6476784.0 ], [ 1617697.0, 6476643.0 ], [ 1617681.0, 6476532.0 ], [ 1617676.0, 6476498.0 ], [ 1617668.0, 6476437.0 ], [ 1617655.0, 6476338.0 ], [ 1617636.0, 6476258.0 ], [ 1617617.0, 6476204.0 ], [ 1617625.0, 6476143.0 ], [ 1617636.0, 6475931.0 ], [ 1617697.0, 6475672.0 ], [ 1617744.0, 6475486.0 ], [ 1617763.0, 6475330.0 ], [ 1617728.0, 6475299.0 ], [ 1617662.0, 6475245.0 ], [ 1617613.0, 6475215.0 ], [ 1617590.0, 6475198.0 ], [ 1617549.0, 6475176.0 ], [ 1617536.0, 6475144.0 ], [ 1617529.0, 6475107.0 ], [ 1617559.0, 6475085.0 ], [ 1617573.0, 6475074.0 ], [ 1617653.0, 6474978.0 ], [ 1617656.0, 6474974.0 ], [ 1617663.0, 6474966.0 ], [ 1617648.0, 6474952.0 ], [ 1617735.0, 6474752.0 ], [ 1617830.0, 6474535.0 ], [ 1617944.0, 6474303.0 ], [ 1617971.0, 6474331.0 ], [ 1617992.0, 6474350.0 ], [ 1618076.0, 6474408.0 ], [ 1618138.0, 6474444.0 ], [ 1618182.0, 6474469.0 ], [ 1618279.0, 6474515.0 ], [ 1618385.0, 6474568.0 ], [ 1618403.0, 6474578.0 ], [ 1618456.0, 6474612.0 ], [ 1618524.0, 6474697.0 ], [ 1618615.0, 6474889.0 ], [ 1618623.0, 6474915.0 ], [ 1618644.0, 6474913.0 ], [ 1618646.0, 6474895.0 ], [ 1618652.0, 6474877.0 ], [ 1618719.0, 6474771.0 ], [ 1618847.0, 6474526.0 ], [ 1618850.0, 6474479.0 ], [ 1618866.0, 6474491.0 ], [ 1618885.0, 6474515.0 ], [ 1618924.0, 6474575.0 ], [ 1618937.0, 6474605.0 ], [ 1618966.0, 6474647.0 ], [ 1619011.0, 6474705.0 ], [ 1619019.0, 6474727.0 ], [ 1619042.0, 6474723.0 ], [ 1619071.0, 6474718.0 ], [ 1619129.0, 6474724.0 ], [ 1619134.0, 6474724.0 ], [ 1619141.0, 6474741.0 ], [ 1619193.0, 6474784.0 ], [ 1619387.0, 6474879.0 ], [ 1619390.0, 6474898.0 ], [ 1619409.0, 6474910.0 ], [ 1619408.0, 6474930.0 ], [ 1619458.0, 6474966.0 ], [ 1619582.0, 6475010.0 ], [ 1619608.0, 6475036.0 ], [ 1619633.0, 6475065.0 ], [ 1619759.0, 6475095.0 ], [ 1619751.0, 6474983.0 ], [ 1619748.0, 6474870.0 ], [ 1619816.0, 6474856.0 ], [ 1619917.0, 6474834.0 ], [ 1619986.0, 6474814.0 ], [ 1620098.0, 6474769.0 ], [ 1620079.0, 6474738.0 ], [ 1620041.0, 6474678.0 ], [ 1620069.0, 6474668.0 ], [ 1620118.0, 6474655.0 ], [ 1620229.0, 6474625.0 ], [ 1620406.0, 6474537.0 ], [ 1620658.0, 6474451.0 ], [ 1620781.0, 6474404.0 ], [ 1620881.0, 6474380.0 ], [ 1620881.0, 6474309.0 ], [ 1620881.0, 6474305.0 ], [ 1620898.0, 6474305.0 ], [ 1620922.0, 6474305.0 ], [ 1620947.0, 6474178.0 ], [ 1620966.0, 6474080.0 ], [ 1620980.0, 6474004.0 ], [ 1621002.0, 6473901.0 ], [ 1621039.0, 6473720.0 ], [ 1621043.0, 6473705.0 ], [ 1621082.0, 6473512.0 ], [ 1621093.0, 6473452.0 ], [ 1621118.0, 6473341.0 ], [ 1620866.0, 6473226.0 ], [ 1620887.0, 6473159.0 ], [ 1620973.0, 6472916.0 ], [ 1621040.0, 6472719.0 ], [ 1621121.0, 6472481.0 ], [ 1621171.0, 6472323.0 ], [ 1621391.0, 6472415.0 ], [ 1621471.0, 6472503.0 ], [ 1621497.0, 6472580.0 ], [ 1621628.0, 6472508.0 ], [ 1621604.0, 6472467.0 ], [ 1621652.0, 6472429.0 ], [ 1621680.0, 6472420.0 ], [ 1621721.0, 6472431.0 ], [ 1621768.0, 6472441.0 ], [ 1621784.0, 6472364.0 ], [ 1621790.0, 6472300.0 ], [ 1621995.0, 6472304.0 ], [ 1622123.0, 6472302.0 ], [ 1622217.0, 6472300.0 ], [ 1622325.0, 6472282.0 ], [ 1622414.0, 6472307.0 ], [ 1622852.0, 6472435.0 ], [ 1622875.0, 6472329.0 ], [ 1623150.0, 6472488.0 ], [ 1623243.0, 6472542.0 ], [ 1623450.0, 6472760.0 ], [ 1623503.0, 6472845.0 ], [ 1623497.0, 6472891.0 ], [ 1623523.0, 6472927.0 ], [ 1623586.0, 6472926.0 ], [ 1623683.0, 6472949.0 ], [ 1623808.0, 6472984.0 ], [ 1623825.0, 6472991.0 ], [ 1623856.0, 6473005.0 ], [ 1623927.0, 6473009.0 ], [ 1623988.0, 6473013.0 ], [ 1624052.0, 6473019.0 ], [ 1624072.0, 6473014.0 ], [ 1624076.0, 6473040.0 ], [ 1624287.0, 6473014.0 ], [ 1624339.0, 6472998.0 ], [ 1624379.0, 6472985.0 ], [ 1624399.0, 6472978.0 ], [ 1624441.0, 6472968.0 ], [ 1624473.0, 6472961.0 ], [ 1624508.0, 6472956.0 ], [ 1624539.0, 6472952.0 ], [ 1624551.0, 6472952.0 ], [ 1624601.0, 6472957.0 ], [ 1624628.0, 6472953.0 ], [ 1624862.0, 6472986.0 ], [ 1624885.0, 6472990.0 ], [ 1625040.0, 6473014.0 ], [ 1625077.0, 6473017.0 ], [ 1625108.0, 6473016.0 ], [ 1625154.0, 6473012.0 ], [ 1625159.0, 6472971.0 ], [ 1625118.0, 6472985.0 ], [ 1625114.0, 6472990.0 ], [ 1625097.0, 6472992.0 ], [ 1625080.0, 6472994.0 ], [ 1625008.0, 6472963.0 ], [ 1624939.0, 6472892.0 ], [ 1624843.0, 6472709.0 ], [ 1624746.0, 6472593.0 ], [ 1624727.0, 6472530.0 ], [ 1624679.0, 6472440.0 ], [ 1624621.0, 6472373.0 ], [ 1624541.0, 6472306.0 ], [ 1624488.0, 6472204.0 ], [ 1624436.0, 6472024.0 ], [ 1624474.0, 6472015.0 ], [ 1624432.0, 6471930.0 ], [ 1624505.0, 6471882.0 ], [ 1624401.0, 6471833.0 ], [ 1624342.0, 6471836.0 ], [ 1624284.0, 6471816.0 ], [ 1624208.0, 6471802.0 ], [ 1624131.0, 6471792.0 ], [ 1624085.0, 6471815.0 ], [ 1624035.0, 6471813.0 ], [ 1623977.0, 6471800.0 ], [ 1623960.0, 6471769.0 ], [ 1623950.0, 6471688.0 ], [ 1623964.0, 6471608.0 ], [ 1623953.0, 6471575.0 ], [ 1623936.0, 6471534.0 ], [ 1623899.0, 6471468.0 ], [ 1623935.0, 6471396.0 ], [ 1623930.0, 6471321.0 ], [ 1623998.0, 6471243.0 ], [ 1624081.0, 6471191.0 ], [ 1624149.0, 6471145.0 ], [ 1624154.0, 6471142.0 ], [ 1624293.0, 6471057.0 ], [ 1624303.0, 6471024.0 ], [ 1624284.0, 6470961.0 ], [ 1624270.0, 6470897.0 ], [ 1624251.0, 6470841.0 ], [ 1624168.0, 6470611.0 ], [ 1624140.0, 6470548.0 ], [ 1624122.0, 6470500.0 ], [ 1624252.0, 6470462.0 ], [ 1624284.0, 6470459.0 ], [ 1624305.0, 6470457.0 ], [ 1624306.0, 6470438.0 ], [ 1624371.0, 6470388.0 ], [ 1624411.0, 6470338.0 ], [ 1624433.0, 6470300.0 ], [ 1624452.0, 6470251.0 ], [ 1624546.0, 6469930.0 ], [ 1624582.0, 6469819.0 ], [ 1624620.0, 6469735.0 ], [ 1624700.0, 6469566.0 ], [ 1624732.0, 6469501.0 ], [ 1624757.0, 6469457.0 ], [ 1624825.0, 6469359.0 ], [ 1624867.0, 6469299.0 ], [ 1624881.0, 6469281.0 ], [ 1624971.0, 6469155.0 ], [ 1625068.0, 6469026.0 ], [ 1625124.0, 6468959.0 ], [ 1625190.0, 6468883.0 ], [ 1625218.0, 6468854.0 ], [ 1625250.0, 6468817.0 ], [ 1625322.0, 6468737.0 ], [ 1625362.0, 6468700.0 ], [ 1625383.0, 6468685.0 ], [ 1625410.0, 6468671.0 ], [ 1625442.0, 6468659.0 ], [ 1625506.0, 6468637.0 ], [ 1625614.0, 6468601.0 ], [ 1625744.0, 6468555.0 ], [ 1625773.0, 6468545.0 ], [ 1626066.0, 6468443.0 ], [ 1626101.0, 6468427.0 ], [ 1626122.0, 6468411.0 ], [ 1626213.0, 6468321.0 ], [ 1626226.0, 6468319.0 ], [ 1626573.0, 6468425.0 ], [ 1626809.0, 6468497.0 ], [ 1627136.0, 6468596.0 ], [ 1627551.0, 6468722.0 ], [ 1627557.0, 6468733.0 ], [ 1627565.0, 6468706.0 ], [ 1627658.0, 6468444.0 ], [ 1627676.0, 6468449.0 ], [ 1627688.0, 6468443.0 ], [ 1628045.0, 6468553.0 ], [ 1628339.0, 6468643.0 ], [ 1628587.0, 6468719.0 ], [ 1628855.0, 6468801.0 ], [ 1628860.0, 6468803.0 ], [ 1628881.0, 6468783.0 ], [ 1628932.0, 6468693.0 ], [ 1628974.0, 6468637.0 ], [ 1629014.0, 6468595.0 ], [ 1629080.0, 6468514.0 ], [ 1629098.0, 6468484.0 ], [ 1629109.0, 6468465.0 ], [ 1629131.0, 6468403.0 ], [ 1629138.0, 6468390.0 ], [ 1629177.0, 6468257.0 ], [ 1629207.0, 6468191.0 ], [ 1629210.0, 6468151.0 ], [ 1629180.0, 6467905.0 ], [ 1629174.0, 6467774.0 ], [ 1629183.0, 6467764.0 ], [ 1629202.0, 6467764.0 ], [ 1629251.0, 6467761.0 ], [ 1629299.0, 6467756.0 ], [ 1629348.0, 6467748.0 ], [ 1629397.0, 6467739.0 ], [ 1629544.0, 6467710.0 ], [ 1629692.0, 6467807.0 ], [ 1629751.0, 6467717.0 ], [ 1629772.0, 6467702.0 ], [ 1629787.0, 6467697.0 ], [ 1630211.0, 6467676.0 ], [ 1630316.0, 6467676.0 ], [ 1630360.0, 6467685.0 ], [ 1630386.0, 6467696.0 ], [ 1630450.0, 6467734.0 ], [ 1630554.0, 6467810.0 ], [ 1630569.0, 6467803.0 ], [ 1630826.0, 6467692.0 ], [ 1630839.0, 6467686.0 ], [ 1631072.0, 6467698.0 ], [ 1631092.0, 6467696.0 ], [ 1631103.0, 6467694.0 ], [ 1631152.0, 6467676.0 ], [ 1631305.0, 6467639.0 ], [ 1631356.0, 6467625.0 ], [ 1631548.0, 6467589.0 ], [ 1631706.0, 6467558.0 ], [ 1631845.0, 6467536.0 ], [ 1631839.0, 6467493.0 ], [ 1631837.0, 6467485.0 ], [ 1631808.0, 6467301.0 ], [ 1631788.0, 6467174.0 ], [ 1631897.0, 6467199.0 ], [ 1631894.0, 6467172.0 ], [ 1631873.0, 6467001.0 ], [ 1631872.0, 6466997.0 ], [ 1631844.0, 6466831.0 ], [ 1631821.0, 6466693.0 ], [ 1631817.0, 6466693.0 ], [ 1631795.0, 6466583.0 ], [ 1631793.0, 6466571.0 ], [ 1631793.0, 6466568.0 ], [ 1631763.0, 6466415.0 ], [ 1631724.0, 6466186.0 ], [ 1631656.0, 6465865.0 ], [ 1631657.0, 6465716.0 ], [ 1631632.0, 6465581.0 ], [ 1631616.0, 6465491.0 ], [ 1631583.0, 6465329.0 ], [ 1631658.0, 6464740.0 ], [ 1631767.0, 6464740.0 ], [ 1631837.0, 6464741.0 ], [ 1631899.0, 6464742.0 ], [ 1632013.0, 6464746.0 ], [ 1632022.0, 6464731.0 ], [ 1632034.0, 6464692.0 ], [ 1632049.0, 6464656.0 ], [ 1632062.0, 6464624.0 ], [ 1632117.0, 6464506.0 ], [ 1632149.0, 6464478.0 ], [ 1632214.0, 6464427.0 ], [ 1632250.0, 6464398.0 ], [ 1632262.0, 6464388.0 ], [ 1632291.0, 6464364.0 ], [ 1632339.0, 6464324.0 ], [ 1632353.0, 6464313.0 ], [ 1632363.0, 6464304.0 ], [ 1632387.0, 6464284.0 ], [ 1632409.0, 6464262.0 ], [ 1632438.0, 6464235.0 ], [ 1632461.0, 6464256.0 ], [ 1632599.0, 6464072.0 ], [ 1632636.0, 6464096.0 ], [ 1632692.0, 6464134.0 ], [ 1632718.0, 6464152.0 ], [ 1632763.0, 6464184.0 ], [ 1632834.0, 6464240.0 ], [ 1632862.0, 6464264.0 ], [ 1632900.0, 6464301.0 ], [ 1632904.0, 6464295.0 ], [ 1632928.0, 6464245.0 ], [ 1632938.0, 6464213.0 ], [ 1632943.0, 6464180.0 ], [ 1633063.0, 6464172.0 ], [ 1633111.0, 6464169.0 ], [ 1633142.0, 6464166.0 ], [ 1633166.0, 6464162.0 ], [ 1633174.0, 6464160.0 ], [ 1633218.0, 6464144.0 ], [ 1633258.0, 6464129.0 ], [ 1633267.0, 6464152.0 ], [ 1633306.0, 6464134.0 ], [ 1633383.0, 6464094.0 ], [ 1633480.0, 6464044.0 ], [ 1633522.0, 6464026.0 ], [ 1633586.0, 6463998.0 ], [ 1633661.0, 6463963.0 ], [ 1633675.0, 6463955.0 ], [ 1633708.0, 6463943.0 ], [ 1633723.0, 6463937.0 ], [ 1633738.0, 6463932.0 ], [ 1633753.0, 6463927.0 ], [ 1633768.0, 6463923.0 ], [ 1633776.0, 6463921.0 ], [ 1633798.0, 6463908.0 ], [ 1633814.0, 6463898.0 ], [ 1633834.0, 6463896.0 ], [ 1633987.0, 6463880.0 ], [ 1634855.0, 6463780.0 ], [ 1634903.0, 6463774.0 ], [ 1634977.0, 6463766.0 ], [ 1635051.0, 6463757.0 ], [ 1635082.0, 6463754.0 ], [ 1635140.0, 6463747.0 ], [ 1635179.0, 6463743.0 ], [ 1635184.0, 6463742.0 ], [ 1635281.0, 6463731.0 ], [ 1635296.0, 6463727.0 ], [ 1635320.0, 6463721.0 ], [ 1635365.0, 6463661.0 ], [ 1635396.0, 6463619.0 ], [ 1635398.0, 6463617.0 ], [ 1635416.0, 6463594.0 ], [ 1635355.0, 6463559.0 ], [ 1635303.0, 6463528.0 ], [ 1635279.0, 6463511.0 ], [ 1635256.0, 6463495.0 ], [ 1635243.0, 6463486.0 ], [ 1635203.0, 6463458.0 ], [ 1635133.0, 6463411.0 ], [ 1635122.0, 6463291.0 ], [ 1635130.0, 6463171.0 ], [ 1635132.0, 6462988.0 ], [ 1635138.0, 6462970.0 ], [ 1635222.0, 6462936.0 ], [ 1635246.0, 6462921.0 ], [ 1635293.0, 6462903.0 ], [ 1635342.0, 6462884.0 ], [ 1635411.0, 6462863.0 ], [ 1635453.0, 6462857.0 ], [ 1635515.0, 6462843.0 ], [ 1635583.0, 6462824.0 ], [ 1635639.0, 6462766.0 ], [ 1635661.0, 6462737.0 ], [ 1635673.0, 6462721.0 ], [ 1635702.0, 6462692.0 ], [ 1635720.0, 6462678.0 ], [ 1635738.0, 6462658.0 ], [ 1635750.0, 6462621.0 ], [ 1635800.0, 6462624.0 ], [ 1635889.0, 6462642.0 ], [ 1635928.0, 6462637.0 ], [ 1635965.0, 6462629.0 ], [ 1636005.0, 6462609.0 ], [ 1636039.0, 6462588.0 ], [ 1636083.0, 6462554.0 ], [ 1636156.0, 6462514.0 ], [ 1636219.0, 6462469.0 ], [ 1636247.0, 6462455.0 ], [ 1636329.0, 6462420.0 ], [ 1636373.0, 6462396.0 ], [ 1636409.0, 6462383.0 ], [ 1636433.0, 6462369.0 ], [ 1636521.0, 6462331.0 ], [ 1636569.0, 6462307.0 ], [ 1636685.0, 6462256.0 ], [ 1636734.0, 6462227.0 ], [ 1636745.0, 6462219.0 ], [ 1636758.0, 6462211.0 ], [ 1636833.0, 6462179.0 ], [ 1636919.0, 6462057.0 ], [ 1636924.0, 6462027.0 ], [ 1636964.0, 6461996.0 ], [ 1636992.0, 6461907.0 ], [ 1636986.0, 6461839.0 ], [ 1636983.0, 6461761.0 ], [ 1636994.0, 6461677.0 ], [ 1636990.0, 6461583.0 ], [ 1637076.0, 6461427.0 ], [ 1637152.0, 6461360.0 ], [ 1637069.0, 6461047.0 ], [ 1636975.0, 6460644.0 ], [ 1636951.0, 6460563.0 ], [ 1636887.0, 6460313.0 ], [ 1636833.0, 6460102.0 ], [ 1636685.0, 6459544.0 ], [ 1636592.0, 6459547.0 ], [ 1636471.0, 6459076.0 ], [ 1636400.0, 6458804.0 ], [ 1636398.0, 6458792.0 ], [ 1636396.0, 6458777.0 ], [ 1636343.0, 6458775.0 ], [ 1636252.0, 6458769.0 ], [ 1636215.0, 6458767.0 ], [ 1636022.0, 6458747.0 ], [ 1635954.0, 6458745.0 ], [ 1635854.0, 6458736.0 ], [ 1635763.0, 6458729.0 ], [ 1635667.0, 6458725.0 ], [ 1635632.0, 6458727.0 ], [ 1635530.0, 6458739.0 ], [ 1635443.0, 6458751.0 ], [ 1635379.0, 6458757.0 ], [ 1635305.0, 6458705.0 ], [ 1635207.0, 6458637.0 ], [ 1635197.0, 6458627.0 ], [ 1635187.0, 6458612.0 ], [ 1635182.0, 6458610.0 ], [ 1634820.0, 6458453.0 ], [ 1634572.0, 6458338.0 ], [ 1634549.0, 6458350.0 ], [ 1634480.0, 6458291.0 ], [ 1634402.0, 6458258.0 ], [ 1634173.0, 6458241.0 ], [ 1634160.0, 6458251.0 ], [ 1634039.0, 6458170.0 ], [ 1633948.0, 6458118.0 ], [ 1633881.0, 6458079.0 ], [ 1633857.0, 6458055.0 ], [ 1633802.0, 6458093.0 ], [ 1633760.0, 6458071.0 ], [ 1633683.0, 6458018.0 ], [ 1633644.0, 6458000.0 ], [ 1633610.0, 6457986.0 ], [ 1633587.0, 6457984.0 ], [ 1633560.0, 6457968.0 ], [ 1633508.0, 6457936.0 ], [ 1633476.0, 6457917.0 ], [ 1633434.0, 6457895.0 ], [ 1633393.0, 6457873.0 ], [ 1633339.0, 6457835.0 ], [ 1633252.0, 6457779.0 ], [ 1633150.0, 6457712.0 ], [ 1633142.0, 6457704.0 ], [ 1633127.0, 6457693.0 ], [ 1633113.0, 6457683.0 ], [ 1633086.0, 6457662.0 ], [ 1633077.0, 6457655.0 ], [ 1633023.0, 6457616.0 ], [ 1633000.0, 6457595.0 ], [ 1632932.0, 6457540.0 ], [ 1632852.0, 6457457.0 ], [ 1632738.0, 6457330.0 ], [ 1632725.0, 6457343.0 ], [ 1632677.0, 6457332.0 ], [ 1632649.0, 6457330.0 ], [ 1632574.0, 6457309.0 ], [ 1632530.0, 6457295.0 ], [ 1632474.0, 6457273.0 ], [ 1632395.0, 6457243.0 ], [ 1632338.0, 6457227.0 ], [ 1632272.0, 6457219.0 ], [ 1632213.0, 6457215.0 ], [ 1632143.0, 6457208.0 ], [ 1632110.0, 6457195.0 ], [ 1632057.0, 6457167.0 ], [ 1632033.0, 6457156.0 ], [ 1632013.0, 6457149.0 ], [ 1631993.0, 6457142.0 ], [ 1631942.0, 6457130.0 ], [ 1631867.0, 6457099.0 ], [ 1631805.0, 6457082.0 ], [ 1631767.0, 6457078.0 ], [ 1631740.0, 6457069.0 ], [ 1631698.0, 6457041.0 ], [ 1631723.0, 6457007.0 ], [ 1631769.0, 6457013.0 ], [ 1631767.0, 6456966.0 ], [ 1631826.0, 6456975.0 ], [ 1631809.0, 6456921.0 ], [ 1631756.0, 6456927.0 ], [ 1631732.0, 6456858.0 ], [ 1631707.0, 6456895.0 ], [ 1631579.0, 6456893.0 ], [ 1631539.0, 6456897.0 ], [ 1631494.0, 6456892.0 ], [ 1631458.0, 6456900.0 ], [ 1631334.0, 6456909.0 ], [ 1631276.0, 6456923.0 ], [ 1631241.0, 6456949.0 ], [ 1631161.0, 6456969.0 ], [ 1631057.0, 6457004.0 ], [ 1630992.0, 6457012.0 ], [ 1631009.0, 6456865.0 ], [ 1631027.0, 6456778.0 ], [ 1631068.0, 6456593.0 ], [ 1630256.0, 6456683.0 ], [ 1630366.0, 6456454.0 ], [ 1630249.0, 6456413.0 ], [ 1630164.0, 6456371.0 ], [ 1630121.0, 6456342.0 ], [ 1630099.0, 6456296.0 ], [ 1630091.0, 6456287.0 ], [ 1630076.0, 6456272.0 ], [ 1630057.0, 6456249.0 ], [ 1630005.0, 6456226.0 ], [ 1629739.0, 6456135.0 ], [ 1629757.0, 6456014.0 ], [ 1629767.0, 6455933.0 ], [ 1629784.0, 6455804.0 ], [ 1629792.0, 6455782.0 ], [ 1629802.0, 6455769.0 ], [ 1629817.0, 6455763.0 ], [ 1629838.0, 6455762.0 ], [ 1629857.0, 6455764.0 ], [ 1629865.0, 6455743.0 ], [ 1629868.0, 6455656.0 ], [ 1629865.0, 6455576.0 ], [ 1629860.0, 6455480.0 ], [ 1629853.0, 6455417.0 ], [ 1629832.0, 6455310.0 ], [ 1629807.0, 6455232.0 ], [ 1629792.0, 6455189.0 ], [ 1629787.0, 6455155.0 ], [ 1629787.0, 6455087.0 ], [ 1629792.0, 6455022.0 ], [ 1629790.0, 6454995.0 ], [ 1629799.0, 6454887.0 ], [ 1629807.0, 6454843.0 ], [ 1629821.0, 6454784.0 ], [ 1629826.0, 6454763.0 ], [ 1629827.0, 6454740.0 ], [ 1629805.0, 6454700.0 ], [ 1629784.0, 6454685.0 ], [ 1629747.0, 6454667.0 ], [ 1629742.0, 6454664.0 ], [ 1629756.0, 6454624.0 ], [ 1629806.0, 6454527.0 ], [ 1629860.0, 6454427.0 ], [ 1629911.0, 6454334.0 ], [ 1629990.0, 6454197.0 ], [ 1630024.0, 6454144.0 ], [ 1630044.0, 6454107.0 ], [ 1630073.0, 6454041.0 ], [ 1630128.0, 6453928.0 ], [ 1630124.0, 6453878.0 ], [ 1630124.0, 6453830.0 ], [ 1630130.0, 6453761.0 ], [ 1630140.0, 6453706.0 ], [ 1630163.0, 6453602.0 ], [ 1630167.0, 6453584.0 ], [ 1630183.0, 6453588.0 ], [ 1630194.0, 6453590.0 ], [ 1630229.0, 6453603.0 ], [ 1630264.0, 6453617.0 ], [ 1630358.0, 6453666.0 ], [ 1630426.0, 6453703.0 ], [ 1630475.0, 6453736.0 ], [ 1630526.0, 6453774.0 ], [ 1630551.0, 6453792.0 ], [ 1630575.0, 6453814.0 ], [ 1630602.0, 6453842.0 ], [ 1630622.0, 6453865.0 ], [ 1630647.0, 6453900.0 ], [ 1630662.0, 6453926.0 ], [ 1630687.0, 6453978.0 ], [ 1630696.0, 6454006.0 ], [ 1630718.0, 6454064.0 ], [ 1630727.0, 6454087.0 ], [ 1630757.0, 6454139.0 ], [ 1630787.0, 6454186.0 ], [ 1630843.0, 6454266.0 ], [ 1630871.0, 6454302.0 ], [ 1630930.0, 6454367.0 ], [ 1630940.0, 6454374.0 ], [ 1630977.0, 6454412.0 ], [ 1631021.0, 6454456.0 ], [ 1631051.0, 6454484.0 ], [ 1631086.0, 6454540.0 ], [ 1631112.0, 6454583.0 ], [ 1631126.0, 6454610.0 ], [ 1631134.0, 6454633.0 ], [ 1631143.0, 6454660.0 ], [ 1631152.0, 6454680.0 ], [ 1631169.0, 6454709.0 ], [ 1631206.0, 6454758.0 ], [ 1631230.0, 6454784.0 ], [ 1631261.0, 6454810.0 ], [ 1631312.0, 6454766.0 ], [ 1631369.0, 6454703.0 ], [ 1631404.0, 6454654.0 ], [ 1631461.0, 6454578.0 ], [ 1631553.0, 6454458.0 ], [ 1631610.0, 6454398.0 ], [ 1631651.0, 6454354.0 ], [ 1631807.0, 6454203.0 ], [ 1631813.0, 6454198.0 ], [ 1631960.0, 6454065.0 ], [ 1631984.0, 6454016.0 ], [ 1631999.0, 6453956.0 ], [ 1632018.0, 6453906.0 ], [ 1632059.0, 6453828.0 ], [ 1632108.0, 6453729.0 ], [ 1632157.0, 6453651.0 ], [ 1632246.0, 6453508.0 ], [ 1632286.0, 6453447.0 ], [ 1632359.0, 6453354.0 ], [ 1632364.0, 6453349.0 ], [ 1632558.0, 6453123.0 ], [ 1632688.0, 6452981.0 ], [ 1632706.0, 6452951.0 ], [ 1632635.0, 6452934.0 ], [ 1632511.0, 6452910.0 ], [ 1632435.0, 6452890.0 ], [ 1632143.0, 6452841.0 ], [ 1632035.0, 6452825.0 ], [ 1631985.0, 6452821.0 ], [ 1631900.0, 6452824.0 ], [ 1631817.0, 6452827.0 ], [ 1631744.0, 6452823.0 ], [ 1631694.0, 6452829.0 ], [ 1631605.0, 6452828.0 ], [ 1631599.0, 6452617.0 ], [ 1631577.0, 6452174.0 ], [ 1631543.0, 6451873.0 ], [ 1631513.0, 6451638.0 ], [ 1632094.0, 6450738.0 ], [ 1632838.0, 6449558.0 ], [ 1633005.0, 6449539.0 ], [ 1632994.0, 6449447.0 ], [ 1632957.0, 6449302.0 ], [ 1632948.0, 6449262.0 ], [ 1632942.0, 6449113.0 ], [ 1632932.0, 6449009.0 ], [ 1632919.0, 6448933.0 ], [ 1632912.0, 6448883.0 ], [ 1632900.0, 6448809.0 ], [ 1632895.0, 6448758.0 ], [ 1632893.0, 6448701.0 ], [ 1632895.0, 6448603.0 ], [ 1632831.0, 6448610.0 ], [ 1632754.0, 6448627.0 ], [ 1632732.0, 6448563.0 ], [ 1632692.0, 6448564.0 ], [ 1632641.0, 6448521.0 ], [ 1632613.0, 6448496.0 ], [ 1632546.0, 6448592.0 ], [ 1632534.0, 6448599.0 ], [ 1632518.0, 6448601.0 ], [ 1632437.0, 6448626.0 ], [ 1632411.0, 6448633.0 ], [ 1632386.0, 6448630.0 ], [ 1632361.0, 6448628.0 ], [ 1632299.0, 6448629.0 ], [ 1632287.0, 6448586.0 ], [ 1632288.0, 6448562.0 ], [ 1632282.0, 6448555.0 ], [ 1632245.0, 6448557.0 ], [ 1632226.0, 6448518.0 ], [ 1632199.0, 6448514.0 ], [ 1632186.0, 6448509.0 ], [ 1632161.0, 6448494.0 ], [ 1632125.0, 6448496.0 ], [ 1632120.0, 6448490.0 ], [ 1632106.0, 6448460.0 ], [ 1632086.0, 6448423.0 ], [ 1632105.0, 6448413.0 ], [ 1632131.0, 6448397.0 ], [ 1632173.0, 6448375.0 ], [ 1632189.0, 6448364.0 ], [ 1632207.0, 6448339.0 ], [ 1632226.0, 6448315.0 ], [ 1632254.0, 6448292.0 ], [ 1632253.0, 6448269.0 ], [ 1632258.0, 6448244.0 ], [ 1632264.0, 6448218.0 ], [ 1632241.0, 6448158.0 ], [ 1632266.0, 6448122.0 ], [ 1632267.0, 6448110.0 ], [ 1632263.0, 6448096.0 ], [ 1632233.0, 6448051.0 ], [ 1632185.0, 6447975.0 ], [ 1632124.0, 6447887.0 ], [ 1632134.0, 6447864.0 ], [ 1632162.0, 6447760.0 ], [ 1632235.0, 6447731.0 ], [ 1632207.0, 6447675.0 ], [ 1632153.0, 6447552.0 ], [ 1632145.0, 6447540.0 ], [ 1632108.0, 6447519.0 ], [ 1632079.0, 6447499.0 ], [ 1632033.0, 6447455.0 ], [ 1632002.0, 6447420.0 ], [ 1631993.0, 6447405.0 ], [ 1631974.0, 6447382.0 ], [ 1631809.0, 6447182.0 ], [ 1631697.0, 6447029.0 ], [ 1631639.0, 6447080.0 ], [ 1631466.0, 6447229.0 ], [ 1631228.0, 6447436.0 ], [ 1630996.0, 6447637.0 ], [ 1630809.0, 6447799.0 ], [ 1630694.0, 6447628.0 ], [ 1630475.0, 6447298.0 ], [ 1630440.0, 6447275.0 ], [ 1630414.0, 6447258.0 ], [ 1630363.0, 6447194.0 ], [ 1630329.0, 6447096.0 ], [ 1630312.0, 6447097.0 ], [ 1630296.0, 6447104.0 ], [ 1630314.0, 6447169.0 ], [ 1630286.0, 6447236.0 ], [ 1630239.0, 6447286.0 ], [ 1630195.0, 6447343.0 ], [ 1630142.0, 6447408.0 ], [ 1630093.0, 6447399.0 ], [ 1630059.0, 6447394.0 ], [ 1630017.0, 6447398.0 ], [ 1630045.0, 6447337.0 ], [ 1629986.0, 6447326.0 ], [ 1629957.0, 6447325.0 ], [ 1629842.0, 6447336.0 ], [ 1629816.0, 6447340.0 ], [ 1629791.0, 6447347.0 ], [ 1629752.0, 6447361.0 ], [ 1629719.0, 6447372.0 ], [ 1629679.0, 6447377.0 ], [ 1629675.0, 6447374.0 ], [ 1629527.0, 6447277.0 ], [ 1629559.0, 6447262.0 ], [ 1629576.0, 6447250.0 ], [ 1629597.0, 6447231.0 ], [ 1629616.0, 6447211.0 ], [ 1629630.0, 6447193.0 ], [ 1629714.0, 6447056.0 ], [ 1629738.0, 6447021.0 ], [ 1629817.0, 6446902.0 ], [ 1629824.0, 6446892.0 ], [ 1629855.0, 6446839.0 ], [ 1629938.0, 6446711.0 ], [ 1630016.0, 6446584.0 ], [ 1630044.0, 6446539.0 ], [ 1630074.0, 6446498.0 ], [ 1630095.0, 6446474.0 ], [ 1630119.0, 6446450.0 ], [ 1630153.0, 6446417.0 ], [ 1630182.0, 6446388.0 ], [ 1630223.0, 6446344.0 ], [ 1630250.0, 6446316.0 ], [ 1630268.0, 6446297.0 ], [ 1630270.0, 6446295.0 ], [ 1630284.0, 6446285.0 ], [ 1630488.0, 6446060.0 ], [ 1630484.0, 6446056.0 ], [ 1630472.0, 6446045.0 ], [ 1630310.0, 6445894.0 ], [ 1629734.0, 6445313.0 ], [ 1629587.0, 6445440.0 ], [ 1629573.0, 6445449.0 ], [ 1629553.0, 6445454.0 ], [ 1629480.0, 6445463.0 ], [ 1629414.0, 6445468.0 ], [ 1629373.0, 6445475.0 ], [ 1629341.0, 6445482.0 ], [ 1629278.0, 6445506.0 ], [ 1629246.0, 6445521.0 ], [ 1629192.0, 6445551.0 ], [ 1629136.0, 6445581.0 ], [ 1629086.0, 6445600.0 ], [ 1629049.0, 6445606.0 ], [ 1629005.0, 6445601.0 ], [ 1628624.0, 6445515.0 ], [ 1628554.0, 6445511.0 ], [ 1628511.0, 6445503.0 ], [ 1628439.0, 6445582.0 ], [ 1628402.0, 6445615.0 ], [ 1628382.0, 6445626.0 ], [ 1628298.0, 6445683.0 ], [ 1628214.0, 6445736.0 ], [ 1628118.0, 6445790.0 ], [ 1628085.0, 6445815.0 ], [ 1628046.0, 6445839.0 ], [ 1627930.0, 6445921.0 ], [ 1627835.0, 6445988.0 ], [ 1627783.0, 6446023.0 ], [ 1627752.0, 6446036.0 ], [ 1627721.0, 6446042.0 ], [ 1627648.0, 6446051.0 ], [ 1627638.0, 6445998.0 ], [ 1627605.0, 6446004.0 ], [ 1627458.0, 6446031.0 ], [ 1627434.0, 6446036.0 ], [ 1627421.0, 6445941.0 ], [ 1627425.0, 6445927.0 ], [ 1627404.0, 6445853.0 ], [ 1627401.0, 6445847.0 ], [ 1627383.0, 6445862.0 ], [ 1627369.0, 6445872.0 ], [ 1627350.0, 6445884.0 ], [ 1627332.0, 6445895.0 ], [ 1627318.0, 6445905.0 ], [ 1627305.0, 6445916.0 ], [ 1627289.0, 6445932.0 ], [ 1627269.0, 6445944.0 ], [ 1627254.0, 6445958.0 ], [ 1627244.0, 6445971.0 ], [ 1627227.0, 6445981.0 ], [ 1627155.0, 6446019.0 ], [ 1627138.0, 6445973.0 ], [ 1627123.0, 6445978.0 ], [ 1627121.0, 6445979.0 ], [ 1627066.0, 6446000.0 ], [ 1627026.0, 6446018.0 ], [ 1626994.0, 6446038.0 ], [ 1626964.0, 6446063.0 ], [ 1626911.0, 6446115.0 ], [ 1626872.0, 6446161.0 ], [ 1626829.0, 6446223.0 ], [ 1626824.0, 6446231.0 ], [ 1626823.0, 6446231.0 ], [ 1626807.0, 6446251.0 ], [ 1626766.0, 6446276.0 ], [ 1626758.0, 6446276.0 ], [ 1626714.0, 6446281.0 ], [ 1626713.0, 6446287.0 ], [ 1626681.0, 6446283.0 ], [ 1626630.0, 6446269.0 ], [ 1626633.0, 6446258.0 ], [ 1626586.0, 6446250.0 ], [ 1626535.0, 6446225.0 ], [ 1626531.0, 6446235.0 ], [ 1626528.0, 6446233.0 ], [ 1626546.0, 6446199.0 ], [ 1626580.0, 6446150.0 ], [ 1626605.0, 6446118.0 ], [ 1626630.0, 6446086.0 ], [ 1626626.0, 6446083.0 ], [ 1626566.0, 6446047.0 ], [ 1626549.0, 6446059.0 ], [ 1626538.0, 6446060.0 ], [ 1626527.0, 6446047.0 ], [ 1626514.0, 6446020.0 ], [ 1626470.0, 6446015.0 ], [ 1626447.0, 6446029.0 ], [ 1626416.0, 6446040.0 ], [ 1626403.0, 6446051.0 ], [ 1626387.0, 6446064.0 ], [ 1626387.0, 6446095.0 ], [ 1626379.0, 6446112.0 ], [ 1626350.0, 6446136.0 ], [ 1626344.0, 6446145.0 ], [ 1626341.0, 6446148.0 ], [ 1626331.0, 6446182.0 ], [ 1626320.0, 6446198.0 ], [ 1626282.0, 6446229.0 ], [ 1626253.0, 6446256.0 ], [ 1626242.0, 6446267.0 ], [ 1626221.0, 6446294.0 ], [ 1626184.0, 6446397.0 ], [ 1626183.0, 6446447.0 ], [ 1626214.0, 6446468.0 ], [ 1626223.0, 6446474.0 ], [ 1626244.0, 6446512.0 ], [ 1626285.0, 6446540.0 ], [ 1626303.0, 6446548.0 ], [ 1626293.0, 6446593.0 ], [ 1626280.0, 6446598.0 ], [ 1626232.0, 6446622.0 ], [ 1626196.0, 6446656.0 ], [ 1626150.0, 6446690.0 ], [ 1626147.0, 6446708.0 ], [ 1626150.0, 6446758.0 ], [ 1626136.0, 6446784.0 ], [ 1625891.0, 6446711.0 ], [ 1625699.0, 6446609.0 ], [ 1625666.0, 6446822.0 ], [ 1625660.0, 6446873.0 ], [ 1625659.0, 6446887.0 ], [ 1625659.0, 6446891.0 ], [ 1625657.0, 6446915.0 ], [ 1625649.0, 6446979.0 ], [ 1625638.0, 6447053.0 ], [ 1625632.0, 6447092.0 ], [ 1625619.0, 6447192.0 ], [ 1625605.0, 6447281.0 ], [ 1625592.0, 6447366.0 ], [ 1625578.0, 6447430.0 ], [ 1625563.0, 6447495.0 ], [ 1625548.0, 6447550.0 ], [ 1625536.0, 6447601.0 ], [ 1625526.0, 6447649.0 ], [ 1625518.0, 6447762.0 ], [ 1625514.0, 6447861.0 ], [ 1625517.0, 6447909.0 ], [ 1625497.0, 6447910.0 ], [ 1625486.0, 6447900.0 ], [ 1625311.0, 6447835.0 ], [ 1625171.0, 6447791.0 ], [ 1625120.0, 6447772.0 ], [ 1625069.0, 6447750.0 ], [ 1624891.0, 6447675.0 ], [ 1624865.0, 6447660.0 ], [ 1624846.0, 6447642.0 ], [ 1624815.0, 6447591.0 ], [ 1624786.0, 6447554.0 ], [ 1624705.0, 6447513.0 ], [ 1624672.0, 6447617.0 ], [ 1624669.0, 6447679.0 ], [ 1624666.0, 6447680.0 ], [ 1624674.0, 6447811.0 ], [ 1624704.0, 6447895.0 ], [ 1624642.0, 6448017.0 ], [ 1624630.0, 6448003.0 ], [ 1624580.0, 6447950.0 ], [ 1624563.0, 6447938.0 ], [ 1624472.0, 6447899.0 ], [ 1624456.0, 6447900.0 ], [ 1624436.0, 6447906.0 ], [ 1624367.0, 6447963.0 ], [ 1624356.0, 6447966.0 ], [ 1624346.0, 6447963.0 ], [ 1624273.0, 6447930.0 ], [ 1624058.0, 6447775.0 ], [ 1624033.0, 6447793.0 ], [ 1624007.0, 6447821.0 ], [ 1623993.0, 6447835.0 ], [ 1623976.0, 6447864.0 ], [ 1623975.0, 6447868.0 ], [ 1623963.0, 6447897.0 ], [ 1623949.0, 6447928.0 ], [ 1623935.0, 6447962.0 ], [ 1623914.0, 6448012.0 ], [ 1623861.0, 6448177.0 ], [ 1623846.0, 6448219.0 ], [ 1623837.0, 6448241.0 ], [ 1623827.0, 6448259.0 ], [ 1623698.0, 6448230.0 ], [ 1623546.0, 6448204.0 ], [ 1623265.0, 6448189.0 ], [ 1623260.0, 6448177.0 ], [ 1623229.0, 6448173.0 ], [ 1623231.0, 6448184.0 ], [ 1623254.0, 6448329.0 ], [ 1623260.0, 6448373.0 ], [ 1623265.0, 6448452.0 ], [ 1623265.0, 6448471.0 ], [ 1623254.0, 6448681.0 ], [ 1623255.0, 6448715.0 ], [ 1623270.0, 6448856.0 ], [ 1623305.0, 6449110.0 ], [ 1623259.0, 6449078.0 ], [ 1623204.0, 6449042.0 ], [ 1623181.0, 6449023.0 ], [ 1623144.0, 6448997.0 ], [ 1623084.0, 6448957.0 ], [ 1623047.0, 6448930.0 ], [ 1622915.0, 6448837.0 ], [ 1622871.0, 6448808.0 ], [ 1622823.0, 6448773.0 ], [ 1622790.0, 6448747.0 ], [ 1622747.0, 6448718.0 ], [ 1622663.0, 6448657.0 ], [ 1622624.0, 6448631.0 ], [ 1622603.0, 6448613.0 ], [ 1622584.0, 6448592.0 ], [ 1622535.0, 6448513.0 ], [ 1622509.0, 6448468.0 ], [ 1622501.0, 6448459.0 ], [ 1622482.0, 6448432.0 ], [ 1622449.0, 6448394.0 ], [ 1622431.0, 6448363.0 ], [ 1622421.0, 6448335.0 ], [ 1622416.0, 6448293.0 ], [ 1622402.0, 6448267.0 ], [ 1622380.0, 6448241.0 ], [ 1622350.0, 6448212.0 ], [ 1622300.0, 6448160.0 ], [ 1622260.0, 6448114.0 ], [ 1622202.0, 6448031.0 ], [ 1622183.0, 6448004.0 ], [ 1622171.0, 6447983.0 ], [ 1622153.0, 6447929.0 ], [ 1622141.0, 6447906.0 ], [ 1622138.0, 6447887.0 ], [ 1622122.0, 6447850.0 ], [ 1622108.0, 6447829.0 ], [ 1622087.0, 6447814.0 ], [ 1622050.0, 6447791.0 ], [ 1622023.0, 6447774.0 ], [ 1621972.0, 6447746.0 ], [ 1621929.0, 6447719.0 ], [ 1621889.0, 6447693.0 ], [ 1621807.0, 6447634.0 ], [ 1621797.0, 6447628.0 ], [ 1621763.0, 6447588.0 ], [ 1621755.0, 6447576.0 ], [ 1621738.0, 6447549.0 ], [ 1621705.0, 6447592.0 ], [ 1621701.0, 6447625.0 ], [ 1621697.0, 6447646.0 ], [ 1621700.0, 6447715.0 ], [ 1621695.0, 6447751.0 ], [ 1621683.0, 6447796.0 ], [ 1621674.0, 6447831.0 ], [ 1621661.0, 6447868.0 ], [ 1621650.0, 6447919.0 ], [ 1621574.0, 6447910.0 ], [ 1621532.0, 6447913.0 ], [ 1621326.0, 6447944.0 ], [ 1621301.0, 6447948.0 ], [ 1621283.0, 6447953.0 ], [ 1621275.0, 6447958.0 ], [ 1621266.0, 6447962.0 ], [ 1621269.0, 6447967.0 ], [ 1621273.0, 6447969.0 ], [ 1621274.0, 6447975.0 ], [ 1621275.0, 6447984.0 ], [ 1621252.0, 6448045.0 ], [ 1621251.0, 6448053.0 ], [ 1621244.0, 6448068.0 ], [ 1621229.0, 6448109.0 ], [ 1621223.0, 6448129.0 ], [ 1621218.0, 6448165.0 ], [ 1621213.0, 6448197.0 ], [ 1621211.0, 6448212.0 ], [ 1621208.0, 6448221.0 ], [ 1621175.0, 6448259.0 ], [ 1621142.0, 6448277.0 ], [ 1621118.0, 6448283.0 ], [ 1620965.0, 6448299.0 ], [ 1620860.0, 6448308.0 ], [ 1620711.0, 6448328.0 ], [ 1620610.0, 6448318.0 ], [ 1620568.0, 6448316.0 ], [ 1620533.0, 6448318.0 ], [ 1620452.0, 6448339.0 ], [ 1620408.0, 6448338.0 ], [ 1620375.0, 6448340.0 ], [ 1620338.0, 6448350.0 ], [ 1620292.0, 6448360.0 ], [ 1620261.0, 6448350.0 ], [ 1620230.0, 6448346.0 ], [ 1620211.0, 6448352.0 ], [ 1620180.0, 6448370.0 ], [ 1620170.0, 6448381.0 ], [ 1620173.0, 6448361.0 ], [ 1620150.0, 6448316.0 ], [ 1620146.0, 6448290.0 ], [ 1620153.0, 6448267.0 ], [ 1620185.0, 6448238.0 ], [ 1620194.0, 6448227.0 ], [ 1620203.0, 6448211.0 ], [ 1620203.0, 6448179.0 ], [ 1620174.0, 6448193.0 ], [ 1620140.0, 6448191.0 ], [ 1620130.0, 6448210.0 ], [ 1620110.0, 6448232.0 ], [ 1620095.0, 6448221.0 ], [ 1620034.0, 6448181.0 ], [ 1620041.0, 6448167.0 ], [ 1620071.0, 6448095.0 ], [ 1620100.0, 6448031.0 ], [ 1620121.0, 6447993.0 ], [ 1620113.0, 6447973.0 ], [ 1620094.0, 6447958.0 ], [ 1620092.0, 6447951.0 ], [ 1620091.0, 6447931.0 ], [ 1620085.0, 6447915.0 ], [ 1620072.0, 6447913.0 ], [ 1620036.0, 6447882.0 ], [ 1620006.0, 6447861.0 ], [ 1619980.0, 6447840.0 ], [ 1619870.0, 6447768.0 ], [ 1619835.0, 6447723.0 ], [ 1619829.0, 6447723.0 ], [ 1619793.0, 6447659.0 ], [ 1619706.0, 6447684.0 ], [ 1619663.0, 6447698.0 ], [ 1619595.0, 6447714.0 ], [ 1619545.0, 6447727.0 ], [ 1619441.0, 6447753.0 ], [ 1619400.0, 6447765.0 ], [ 1619341.0, 6447778.0 ], [ 1619304.0, 6447789.0 ], [ 1619276.0, 6447795.0 ], [ 1619250.0, 6447794.0 ], [ 1619216.0, 6447774.0 ], [ 1619197.0, 6447766.0 ], [ 1619182.0, 6447760.0 ], [ 1619115.0, 6447734.0 ], [ 1619090.0, 6447730.0 ], [ 1619043.0, 6447743.0 ], [ 1618980.0, 6447763.0 ], [ 1618940.0, 6447775.0 ], [ 1618885.0, 6447775.0 ], [ 1618848.0, 6447783.0 ], [ 1618820.0, 6447797.0 ], [ 1618773.0, 6447853.0 ], [ 1618752.0, 6447888.0 ], [ 1618738.0, 6447924.0 ], [ 1618711.0, 6447966.0 ], [ 1618689.0, 6447989.0 ], [ 1618628.0, 6448024.0 ], [ 1618513.0, 6448079.0 ], [ 1618426.0, 6448121.0 ], [ 1618357.0, 6448152.0 ], [ 1618285.0, 6448195.0 ], [ 1618231.0, 6448225.0 ], [ 1618160.0, 6448266.0 ], [ 1618083.0, 6448311.0 ], [ 1618059.0, 6448304.0 ], [ 1618017.0, 6448296.0 ], [ 1617968.0, 6448289.0 ], [ 1617918.0, 6448284.0 ], [ 1617868.0, 6448275.0 ], [ 1617769.0, 6448247.0 ], [ 1617723.0, 6448233.0 ], [ 1617677.0, 6448219.0 ], [ 1617583.0, 6448194.0 ], [ 1617414.0, 6448144.0 ], [ 1617384.0, 6448143.0 ], [ 1617282.0, 6448148.0 ], [ 1617236.0, 6448151.0 ], [ 1617191.0, 6448153.0 ], [ 1617158.0, 6448121.0 ], [ 1617134.0, 6448084.0 ], [ 1617102.0, 6448054.0 ], [ 1617042.0, 6448004.0 ], [ 1616901.0, 6447900.0 ], [ 1616836.0, 6447843.0 ], [ 1616772.0, 6447787.0 ], [ 1616703.0, 6447734.0 ], [ 1616664.0, 6447706.0 ], [ 1616630.0, 6447681.0 ], [ 1616584.0, 6447661.0 ], [ 1616556.0, 6447652.0 ], [ 1616492.0, 6447622.0 ], [ 1616470.0, 6447613.0 ], [ 1616502.0, 6447573.0 ], [ 1616532.0, 6447542.0 ], [ 1616565.0, 6447513.0 ], [ 1616598.0, 6447485.0 ], [ 1616634.0, 6447451.0 ], [ 1616661.0, 6447419.0 ], [ 1616697.0, 6447376.0 ], [ 1616722.0, 6447341.0 ], [ 1616742.0, 6447300.0 ], [ 1616772.0, 6447260.0 ], [ 1616799.0, 6447215.0 ], [ 1616819.0, 6447175.0 ], [ 1616869.0, 6447098.0 ], [ 1616892.0, 6447067.0 ], [ 1616921.0, 6447026.0 ], [ 1616958.0, 6446981.0 ], [ 1616983.0, 6446947.0 ], [ 1617046.0, 6446875.0 ], [ 1617080.0, 6446840.0 ], [ 1617112.0, 6446806.0 ], [ 1617143.0, 6446770.0 ], [ 1617204.0, 6446700.0 ], [ 1617283.0, 6446608.0 ], [ 1617332.0, 6446543.0 ], [ 1617361.0, 6446513.0 ], [ 1617390.0, 6446481.0 ], [ 1617421.0, 6446449.0 ], [ 1617449.0, 6446422.0 ], [ 1617474.0, 6446400.0 ], [ 1617407.0, 6446358.0 ], [ 1617383.0, 6446341.0 ], [ 1617278.0, 6446248.0 ], [ 1617230.0, 6446203.0 ], [ 1617203.0, 6446177.0 ], [ 1617148.0, 6446122.0 ], [ 1617037.0, 6446019.0 ], [ 1616840.0, 6445832.0 ], [ 1616451.0, 6445798.0 ], [ 1616333.0, 6445787.0 ], [ 1616318.0, 6445788.0 ], [ 1616310.0, 6445786.0 ], [ 1616269.0, 6445775.0 ], [ 1616263.0, 6445774.0 ], [ 1616285.0, 6445622.0 ], [ 1616158.0, 6445604.0 ], [ 1616239.0, 6445384.0 ], [ 1616223.0, 6445371.0 ], [ 1616131.0, 6445309.0 ], [ 1616126.0, 6445322.0 ], [ 1616082.0, 6445438.0 ], [ 1616078.0, 6445437.0 ], [ 1615924.0, 6445400.0 ], [ 1615931.0, 6445382.0 ], [ 1615728.0, 6445346.0 ], [ 1615719.0, 6445345.0 ], [ 1615639.0, 6445332.0 ], [ 1615627.0, 6445329.0 ], [ 1615629.0, 6445264.0 ], [ 1615627.0, 6445213.0 ], [ 1615641.0, 6445117.0 ], [ 1615643.0, 6445108.0 ], [ 1615651.0, 6445056.0 ], [ 1615660.0, 6445004.0 ], [ 1615663.0, 6444991.0 ], [ 1615234.0, 6444935.0 ], [ 1615229.0, 6444934.0 ], [ 1615221.0, 6444933.0 ], [ 1615225.0, 6444958.0 ], [ 1615093.0, 6444926.0 ], [ 1615044.0, 6444915.0 ], [ 1615042.0, 6444919.0 ], [ 1615033.0, 6444944.0 ], [ 1615029.0, 6444956.0 ], [ 1615017.0, 6444993.0 ], [ 1615011.0, 6445011.0 ], [ 1615001.0, 6445046.0 ], [ 1614991.0, 6445076.0 ], [ 1614982.0, 6445105.0 ], [ 1614969.0, 6445146.0 ], [ 1615042.0, 6445169.0 ], [ 1615051.0, 6445171.0 ], [ 1615174.0, 6445211.0 ], [ 1615155.0, 6445283.0 ], [ 1615132.0, 6445340.0 ], [ 1615123.0, 6445364.0 ], [ 1615073.0, 6445495.0 ], [ 1615068.0, 6445506.0 ], [ 1615060.0, 6445527.0 ], [ 1615057.0, 6445533.0 ], [ 1615048.0, 6445559.0 ], [ 1615038.0, 6445585.0 ], [ 1615027.0, 6445612.0 ], [ 1615025.0, 6445617.0 ], [ 1615016.0, 6445638.0 ], [ 1615014.0, 6445643.0 ], [ 1615004.0, 6445664.0 ], [ 1614992.0, 6445690.0 ], [ 1614992.0, 6445691.0 ], [ 1614972.0, 6445744.0 ], [ 1614957.0, 6445794.0 ], [ 1614940.0, 6445839.0 ], [ 1614772.0, 6445786.0 ], [ 1614574.0, 6445715.0 ], [ 1614504.0, 6445691.0 ], [ 1614344.0, 6445638.0 ], [ 1613912.0, 6445491.0 ], [ 1613895.0, 6445485.0 ], [ 1613790.0, 6445456.0 ], [ 1613784.0, 6445454.0 ], [ 1613701.0, 6445426.0 ], [ 1613514.0, 6445362.0 ], [ 1613347.0, 6445304.0 ], [ 1613323.0, 6445297.0 ], [ 1613118.0, 6445228.0 ], [ 1612873.0, 6445141.0 ], [ 1612847.0, 6445133.0 ], [ 1612686.0, 6445080.0 ], [ 1612533.0, 6445026.0 ], [ 1612344.0, 6444963.0 ], [ 1612350.0, 6444896.0 ], [ 1612366.0, 6444833.0 ], [ 1612409.0, 6444845.0 ], [ 1612430.0, 6444775.0 ], [ 1612450.0, 6444666.0 ], [ 1612439.0, 6444602.0 ], [ 1612446.0, 6444555.0 ], [ 1612395.0, 6444495.0 ], [ 1612378.0, 6444439.0 ], [ 1612377.0, 6444377.0 ], [ 1612416.0, 6444097.0 ], [ 1612480.0, 6444101.0 ], [ 1612557.0, 6444119.0 ], [ 1612690.0, 6444126.0 ], [ 1612675.0, 6444048.0 ], [ 1612673.0, 6444034.0 ], [ 1612660.0, 6443976.0 ], [ 1612655.0, 6443919.0 ], [ 1612662.0, 6443842.0 ], [ 1612684.0, 6443797.0 ], [ 1612214.0, 6443723.0 ], [ 1612165.0, 6443719.0 ], [ 1611990.0, 6443711.0 ], [ 1611903.0, 6443681.0 ], [ 1611856.0, 6443663.0 ], [ 1611644.0, 6443587.0 ], [ 1611588.0, 6443561.0 ], [ 1611536.0, 6443533.0 ], [ 1611525.0, 6443526.0 ], [ 1611485.0, 6443497.0 ], [ 1611455.0, 6443524.0 ], [ 1611305.0, 6443376.0 ], [ 1611304.0, 6443376.0 ], [ 1611294.0, 6443369.0 ], [ 1611238.0, 6443466.0 ], [ 1611220.0, 6443466.0 ], [ 1611205.0, 6443463.0 ], [ 1611215.0, 6443423.0 ], [ 1611220.0, 6443401.0 ], [ 1611221.0, 6443330.0 ], [ 1611222.0, 6443257.0 ], [ 1611223.0, 6443199.0 ], [ 1611227.0, 6443118.0 ], [ 1611228.0, 6443062.0 ], [ 1611229.0, 6442978.0 ], [ 1611231.0, 6442931.0 ], [ 1611237.0, 6442883.0 ], [ 1611146.0, 6442868.0 ], [ 1610970.0, 6442836.0 ], [ 1610732.0, 6442792.0 ], [ 1610735.0, 6442832.0 ], [ 1610644.0, 6442864.0 ], [ 1610568.0, 6442917.0 ], [ 1610430.0, 6442978.0 ], [ 1610382.0, 6442992.0 ], [ 1610375.0, 6442925.0 ], [ 1610368.0, 6442878.0 ], [ 1610359.0, 6442828.0 ], [ 1610350.0, 6442768.0 ], [ 1610342.0, 6442714.0 ], [ 1610243.0, 6442081.0 ], [ 1610220.0, 6441978.0 ], [ 1610167.0, 6441727.0 ], [ 1610147.0, 6441622.0 ], [ 1610137.0, 6441548.0 ], [ 1610078.0, 6441552.0 ], [ 1610039.0, 6441556.0 ], [ 1610027.0, 6441504.0 ], [ 1609960.0, 6441520.0 ], [ 1609949.0, 6441471.0 ], [ 1609983.0, 6441464.0 ], [ 1609929.0, 6441215.0 ], [ 1609825.0, 6441239.0 ], [ 1609754.0, 6441269.0 ], [ 1609691.0, 6441304.0 ], [ 1609577.0, 6441363.0 ], [ 1609456.0, 6441397.0 ], [ 1609381.0, 6441408.0 ], [ 1609241.0, 6441411.0 ], [ 1609185.0, 6441409.0 ], [ 1609178.0, 6441410.0 ], [ 1609178.0, 6441408.0 ], [ 1609067.0, 6441405.0 ], [ 1609031.0, 6441406.0 ], [ 1609010.0, 6441410.0 ], [ 1608972.0, 6441404.0 ], [ 1608970.0, 6441413.0 ], [ 1608967.0, 6441425.0 ], [ 1608916.0, 6441443.0 ], [ 1608875.0, 6441464.0 ], [ 1608793.0, 6441517.0 ], [ 1608688.0, 6441594.0 ], [ 1608640.0, 6441628.0 ], [ 1608598.0, 6441653.0 ], [ 1608557.0, 6441675.0 ], [ 1608501.0, 6441696.0 ], [ 1608400.0, 6441728.0 ], [ 1608294.0, 6441747.0 ], [ 1608200.0, 6441734.0 ], [ 1608101.0, 6441719.0 ], [ 1608022.0, 6441727.0 ], [ 1607965.0, 6441751.0 ], [ 1607961.0, 6441741.0 ], [ 1607764.0, 6441231.0 ], [ 1607594.0, 6440967.0 ], [ 1607300.0, 6440757.0 ], [ 1607292.0, 6440752.0 ], [ 1607283.0, 6440747.0 ], [ 1607252.0, 6440748.0 ], [ 1607183.0, 6440768.0 ], [ 1607128.0, 6440758.0 ], [ 1607077.0, 6440766.0 ], [ 1607014.0, 6440743.0 ], [ 1606998.0, 6440735.0 ], [ 1606962.0, 6440737.0 ], [ 1606949.0, 6440735.0 ], [ 1606884.0, 6440691.0 ], [ 1606827.0, 6440690.0 ], [ 1606720.0, 6440658.0 ], [ 1606679.0, 6440642.0 ], [ 1606627.0, 6440643.0 ], [ 1606626.0, 6440637.0 ], [ 1606584.0, 6440612.0 ], [ 1606526.0, 6440607.0 ], [ 1606471.0, 6440574.0 ], [ 1606366.0, 6440535.0 ], [ 1606312.0, 6440482.0 ], [ 1606257.0, 6440407.0 ], [ 1606259.0, 6440366.0 ], [ 1606200.0, 6440309.0 ], [ 1606155.0, 6440197.0 ], [ 1606089.0, 6440130.0 ], [ 1605965.0, 6440104.0 ], [ 1605835.0, 6440054.0 ], [ 1605748.0, 6440033.0 ], [ 1605702.0, 6440024.0 ], [ 1605573.0, 6440015.0 ], [ 1605461.0, 6440017.0 ], [ 1605405.0, 6440016.0 ], [ 1605261.0, 6439979.0 ], [ 1605219.0, 6439971.0 ], [ 1605162.0, 6439968.0 ], [ 1605114.0, 6439972.0 ], [ 1604922.0, 6440016.0 ], [ 1604877.0, 6440027.0 ], [ 1604838.0, 6440045.0 ], [ 1604724.0, 6440134.0 ], [ 1604693.0, 6440173.0 ], [ 1604647.0, 6440258.0 ], [ 1604625.0, 6440284.0 ], [ 1604590.0, 6440301.0 ], [ 1604572.0, 6440307.0 ], [ 1604512.0, 6440316.0 ], [ 1604290.0, 6440354.0 ], [ 1604254.0, 6440368.0 ], [ 1604224.0, 6440384.0 ], [ 1604200.0, 6440404.0 ], [ 1604074.0, 6440531.0 ], [ 1604042.0, 6440578.0 ], [ 1603994.0, 6440674.0 ], [ 1603960.0, 6440708.0 ], [ 1603916.0, 6440729.0 ], [ 1603819.0, 6440754.0 ], [ 1603755.0, 6440779.0 ], [ 1603657.0, 6440831.0 ], [ 1603567.0, 6440880.0 ], [ 1603506.0, 6440910.0 ], [ 1603481.0, 6440930.0 ], [ 1603440.0, 6440975.0 ], [ 1603377.0, 6441047.0 ], [ 1603342.0, 6441093.0 ], [ 1603276.0, 6441180.0 ], [ 1603252.0, 6441172.0 ], [ 1603242.0, 6441172.0 ], [ 1603235.0, 6441166.0 ], [ 1603218.0, 6441153.0 ], [ 1603202.0, 6441144.0 ], [ 1603186.0, 6441139.0 ], [ 1603169.0, 6441148.0 ], [ 1603159.0, 6441163.0 ], [ 1603151.0, 6441194.0 ], [ 1603152.0, 6441207.0 ], [ 1603159.0, 6441228.0 ], [ 1603144.0, 6441242.0 ], [ 1603130.0, 6441220.0 ], [ 1603124.0, 6441215.0 ], [ 1603084.0, 6441202.0 ], [ 1603073.0, 6441198.0 ], [ 1603058.0, 6441148.0 ], [ 1603047.0, 6441151.0 ], [ 1603045.0, 6441138.0 ], [ 1603041.0, 6441139.0 ], [ 1603033.0, 6441051.0 ], [ 1603012.0, 6440934.0 ], [ 1603003.0, 6440843.0 ], [ 1602992.0, 6440722.0 ], [ 1602988.0, 6440707.0 ], [ 1602976.0, 6440693.0 ], [ 1602903.0, 6440704.0 ], [ 1602884.0, 6440572.0 ], [ 1602877.0, 6440496.0 ], [ 1602857.0, 6440377.0 ], [ 1602846.0, 6440331.0 ], [ 1602842.0, 6440250.0 ], [ 1602832.0, 6440161.0 ], [ 1602821.0, 6440090.0 ], [ 1602803.0, 6440002.0 ], [ 1602793.0, 6439885.0 ], [ 1602748.0, 6439680.0 ], [ 1602707.0, 6439556.0 ], [ 1602674.0, 6439490.0 ], [ 1602655.0, 6439417.0 ], [ 1602619.0, 6439332.0 ], [ 1602594.0, 6439266.0 ], [ 1602563.0, 6439183.0 ], [ 1602539.0, 6439116.0 ], [ 1602522.0, 6439059.0 ], [ 1602502.0, 6439012.0 ], [ 1602487.0, 6438962.0 ], [ 1602472.0, 6438917.0 ], [ 1602462.0, 6438887.0 ], [ 1602453.0, 6438848.0 ], [ 1602446.0, 6438805.0 ], [ 1602439.0, 6438769.0 ], [ 1602424.0, 6438659.0 ], [ 1602416.0, 6438610.0 ], [ 1602413.0, 6438555.0 ], [ 1602404.0, 6438502.0 ], [ 1602390.0, 6438407.0 ], [ 1602382.0, 6438347.0 ], [ 1602358.0, 6438296.0 ], [ 1602380.0, 6438284.0 ], [ 1602375.0, 6438201.0 ], [ 1602371.0, 6438179.0 ], [ 1602373.0, 6438140.0 ], [ 1602385.0, 6438032.0 ], [ 1602392.0, 6437986.0 ], [ 1602393.0, 6437925.0 ], [ 1602399.0, 6437832.0 ], [ 1602401.0, 6437780.0 ], [ 1602406.0, 6437721.0 ], [ 1602412.0, 6437654.0 ], [ 1602419.0, 6437615.0 ], [ 1602424.0, 6437583.0 ], [ 1602432.0, 6437527.0 ], [ 1602438.0, 6437481.0 ], [ 1602442.0, 6437462.0 ], [ 1602446.0, 6437438.0 ], [ 1602451.0, 6437415.0 ], [ 1602463.0, 6437365.0 ], [ 1602485.0, 6437289.0 ], [ 1602486.0, 6437286.0 ], [ 1602495.0, 6437250.0 ], [ 1602502.0, 6437228.0 ], [ 1602518.0, 6437180.0 ], [ 1602521.0, 6437172.0 ], [ 1602530.0, 6437120.0 ], [ 1602544.0, 6437077.0 ], [ 1602549.0, 6437042.0 ], [ 1602573.0, 6436967.0 ], [ 1602590.0, 6436910.0 ], [ 1602611.0, 6436847.0 ], [ 1602628.0, 6436787.0 ], [ 1602642.0, 6436732.0 ], [ 1602648.0, 6436693.0 ], [ 1602652.0, 6436655.0 ], [ 1602651.0, 6436628.0 ], [ 1602645.0, 6436584.0 ], [ 1602643.0, 6436536.0 ], [ 1602650.0, 6436534.0 ], [ 1602643.0, 6436488.0 ], [ 1602634.0, 6436440.0 ], [ 1602620.0, 6436395.0 ], [ 1602604.0, 6436352.0 ], [ 1602598.0, 6436354.0 ], [ 1602563.0, 6436294.0 ], [ 1602538.0, 6436257.0 ], [ 1602507.0, 6436220.0 ], [ 1602308.0, 6436371.0 ], [ 1602276.0, 6436395.0 ], [ 1602275.0, 6436395.0 ], [ 1602250.0, 6436410.0 ], [ 1602250.0, 6436411.0 ], [ 1602097.0, 6436527.0 ], [ 1602036.0, 6436572.0 ], [ 1601982.0, 6436591.0 ], [ 1601977.0, 6436605.0 ], [ 1601984.0, 6436625.0 ], [ 1601981.0, 6436667.0 ], [ 1601958.0, 6436680.0 ], [ 1601938.0, 6436686.0 ], [ 1601937.0, 6436692.0 ], [ 1601830.0, 6436773.0 ], [ 1601818.0, 6436769.0 ], [ 1601782.0, 6436786.0 ], [ 1601778.0, 6436833.0 ], [ 1601774.0, 6436886.0 ], [ 1601765.0, 6436910.0 ], [ 1601780.0, 6437037.0 ], [ 1601775.0, 6437058.0 ], [ 1601765.0, 6437076.0 ], [ 1601760.0, 6437113.0 ], [ 1601745.0, 6437152.0 ], [ 1601739.0, 6437204.0 ], [ 1601766.0, 6437268.0 ], [ 1601770.0, 6437272.0 ], [ 1601773.0, 6437277.0 ], [ 1601769.0, 6437281.0 ], [ 1601769.0, 6437292.0 ], [ 1601764.0, 6437301.0 ], [ 1601755.0, 6437334.0 ], [ 1601662.0, 6437584.0 ], [ 1601648.0, 6437579.0 ], [ 1601641.0, 6437591.0 ], [ 1601611.0, 6437588.0 ], [ 1601572.0, 6437586.0 ], [ 1601533.0, 6437564.0 ], [ 1601516.0, 6437558.0 ], [ 1601492.0, 6437554.0 ], [ 1601440.0, 6437548.0 ], [ 1601387.0, 6437518.0 ], [ 1601375.0, 6437490.0 ], [ 1601032.0, 6437483.0 ], [ 1600754.0, 6437482.0 ], [ 1600747.0, 6437485.0 ], [ 1600726.0, 6437462.0 ], [ 1600683.0, 6437426.0 ], [ 1600664.0, 6437407.0 ], [ 1600638.0, 6437387.0 ], [ 1600604.0, 6437345.0 ], [ 1600573.0, 6437279.0 ], [ 1600553.0, 6437241.0 ], [ 1600444.0, 6437044.0 ], [ 1600419.0, 6437037.0 ], [ 1600312.0, 6437120.0 ], [ 1600263.0, 6437161.0 ], [ 1600227.0, 6437188.0 ], [ 1600225.0, 6437178.0 ], [ 1600121.0, 6437062.0 ], [ 1600018.0, 6437123.0 ], [ 1600007.0, 6437163.0 ], [ 1599988.0, 6437192.0 ], [ 1599956.0, 6437311.0 ], [ 1599954.0, 6437335.0 ], [ 1599908.0, 6437448.0 ], [ 1599900.0, 6437478.0 ], [ 1599898.0, 6437494.0 ], [ 1599898.0, 6437508.0 ], [ 1599901.0, 6437568.0 ], [ 1599896.0, 6437589.0 ], [ 1599886.0, 6437615.0 ], [ 1599874.0, 6437637.0 ], [ 1599849.0, 6437677.0 ], [ 1599830.0, 6437703.0 ], [ 1599815.0, 6437717.0 ], [ 1599797.0, 6437731.0 ], [ 1599637.0, 6437805.0 ], [ 1599599.0, 6437823.0 ], [ 1599525.0, 6437845.0 ], [ 1599480.0, 6437850.0 ], [ 1599337.0, 6437846.0 ], [ 1599331.0, 6437795.0 ], [ 1599325.0, 6437778.0 ], [ 1599326.0, 6437667.0 ], [ 1599301.0, 6437643.0 ], [ 1599261.0, 6437598.0 ], [ 1599226.0, 6437540.0 ], [ 1599202.0, 6437522.0 ], [ 1599172.0, 6437514.0 ], [ 1599144.0, 6437525.0 ], [ 1599122.0, 6437508.0 ], [ 1599048.0, 6437448.0 ], [ 1598859.0, 6437345.0 ], [ 1598718.0, 6437266.0 ], [ 1598693.0, 6437249.0 ], [ 1598592.0, 6437181.0 ], [ 1598407.0, 6437394.0 ], [ 1598390.0, 6437389.0 ], [ 1597843.0, 6437238.0 ], [ 1597765.0, 6437268.0 ], [ 1597620.0, 6437312.0 ], [ 1597508.0, 6437313.0 ], [ 1597467.0, 6437306.0 ], [ 1597375.0, 6437298.0 ], [ 1597365.0, 6437298.0 ], [ 1597330.0, 6437297.0 ], [ 1597259.0, 6437297.0 ], [ 1597228.0, 6437299.0 ], [ 1597055.0, 6437318.0 ], [ 1596981.0, 6437282.0 ], [ 1596935.0, 6437270.0 ], [ 1596858.0, 6437246.0 ], [ 1596776.0, 6437206.0 ], [ 1596707.0, 6437205.0 ], [ 1596678.0, 6437198.0 ], [ 1596642.0, 6437203.0 ], [ 1596481.0, 6437288.0 ], [ 1596458.0, 6437331.0 ], [ 1596449.0, 6437363.0 ], [ 1596455.0, 6437371.0 ], [ 1596411.0, 6437390.0 ], [ 1596360.0, 6437391.0 ], [ 1596295.0, 6437380.0 ], [ 1596217.0, 6437370.0 ], [ 1596146.0, 6437359.0 ], [ 1596141.0, 6437358.0 ], [ 1596142.0, 6437363.0 ], [ 1596058.0, 6437342.0 ], [ 1596036.0, 6437471.0 ], [ 1596007.0, 6437585.0 ], [ 1595990.0, 6437632.0 ], [ 1595946.0, 6437737.0 ], [ 1595887.0, 6437862.0 ], [ 1595761.0, 6438065.0 ], [ 1595688.0, 6438149.0 ], [ 1595628.0, 6438209.0 ], [ 1595547.0, 6438280.0 ], [ 1595445.0, 6438359.0 ], [ 1595400.0, 6438395.0 ], [ 1595360.0, 6438434.0 ], [ 1595328.0, 6438473.0 ], [ 1595300.0, 6438503.0 ], [ 1595185.0, 6438576.0 ], [ 1595121.0, 6438605.0 ], [ 1594980.0, 6438646.0 ], [ 1594952.0, 6438658.0 ], [ 1594849.0, 6438689.0 ], [ 1594816.0, 6438716.0 ], [ 1594765.0, 6438779.0 ], [ 1594701.0, 6438868.0 ], [ 1594656.0, 6438994.0 ], [ 1594649.0, 6439070.0 ], [ 1594662.0, 6439141.0 ], [ 1594697.0, 6439210.0 ], [ 1594774.0, 6439325.0 ], [ 1594784.0, 6439397.0 ], [ 1594858.0, 6439651.0 ], [ 1594877.0, 6439820.0 ], [ 1594908.0, 6439922.0 ], [ 1594999.0, 6440079.0 ], [ 1595123.0, 6440191.0 ], [ 1595210.0, 6440247.0 ], [ 1595291.0, 6440295.0 ], [ 1595468.0, 6440447.0 ], [ 1595621.0, 6440574.0 ], [ 1595678.0, 6440611.0 ], [ 1595712.0, 6440630.0 ], [ 1595731.0, 6440655.0 ], [ 1595780.0, 6440653.0 ], [ 1595817.0, 6440647.0 ], [ 1595857.0, 6440636.0 ], [ 1595947.0, 6440605.0 ], [ 1596015.0, 6440573.0 ], [ 1596072.0, 6440543.0 ], [ 1596157.0, 6440480.0 ], [ 1596239.0, 6440434.0 ], [ 1596340.0, 6440397.0 ], [ 1596378.0, 6440375.0 ], [ 1596417.0, 6440351.0 ], [ 1596432.0, 6440345.0 ], [ 1596460.0, 6440339.0 ], [ 1596487.0, 6440343.0 ], [ 1596551.0, 6440371.0 ], [ 1596598.0, 6440392.0 ], [ 1596642.0, 6440415.0 ], [ 1596699.0, 6440451.0 ], [ 1596753.0, 6440501.0 ], [ 1596819.0, 6440586.0 ], [ 1596869.0, 6440671.0 ], [ 1596913.0, 6440833.0 ], [ 1596915.0, 6440896.0 ], [ 1596923.0, 6441074.0 ], [ 1596936.0, 6441160.0 ], [ 1596943.0, 6441250.0 ], [ 1596956.0, 6441322.0 ], [ 1596972.0, 6441371.0 ], [ 1596982.0, 6441393.0 ], [ 1596990.0, 6441406.0 ], [ 1597054.0, 6441472.0 ], [ 1597070.0, 6441486.0 ], [ 1597094.0, 6441503.0 ], [ 1597109.0, 6441510.0 ], [ 1597093.0, 6441550.0 ], [ 1597089.0, 6441556.0 ], [ 1597081.0, 6441659.0 ], [ 1597059.0, 6441660.0 ], [ 1597052.0, 6441667.0 ], [ 1597036.0, 6441701.0 ], [ 1597018.0, 6441721.0 ], [ 1596921.0, 6441682.0 ], [ 1596900.0, 6441690.0 ], [ 1596894.0, 6441692.0 ], [ 1596878.0, 6441708.0 ], [ 1596892.0, 6441734.0 ], [ 1596911.0, 6441758.0 ], [ 1596931.0, 6441784.0 ], [ 1596955.0, 6441814.0 ], [ 1596960.0, 6441820.0 ], [ 1597009.0, 6441897.0 ], [ 1596968.0, 6441907.0 ], [ 1596914.0, 6441903.0 ], [ 1596859.0, 6441902.0 ], [ 1596797.0, 6441903.0 ], [ 1596682.0, 6441917.0 ], [ 1596616.0, 6441922.0 ], [ 1596578.0, 6441920.0 ], [ 1596573.0, 6441917.0 ], [ 1596533.0, 6441913.0 ], [ 1596474.0, 6441905.0 ], [ 1596390.0, 6441881.0 ], [ 1596236.0, 6441810.0 ], [ 1596128.0, 6441759.0 ], [ 1596031.0, 6441714.0 ], [ 1595972.0, 6441687.0 ], [ 1595925.0, 6441664.0 ], [ 1595784.0, 6441585.0 ], [ 1595711.0, 6441531.0 ], [ 1595645.0, 6441473.0 ], [ 1595601.0, 6441430.0 ], [ 1595503.0, 6441316.0 ], [ 1595482.0, 6441289.0 ], [ 1595464.0, 6441260.0 ], [ 1595347.0, 6441266.0 ], [ 1595192.0, 6441245.0 ], [ 1595100.0, 6441233.0 ], [ 1594926.0, 6441209.0 ], [ 1594892.0, 6441254.0 ], [ 1594859.0, 6441326.0 ], [ 1594854.0, 6441404.0 ], [ 1594888.0, 6441485.0 ], [ 1594942.0, 6441590.0 ], [ 1594970.0, 6441636.0 ], [ 1595088.0, 6441729.0 ], [ 1595140.0, 6441755.0 ], [ 1595232.0, 6441805.0 ], [ 1595227.0, 6441839.0 ], [ 1595202.0, 6441866.0 ], [ 1595134.0, 6441859.0 ], [ 1595135.0, 6441866.0 ], [ 1595139.0, 6441883.0 ], [ 1595141.0, 6441889.0 ], [ 1595147.0, 6441907.0 ], [ 1595150.0, 6441912.0 ], [ 1595152.0, 6441918.0 ], [ 1595155.0, 6441923.0 ], [ 1595165.0, 6441939.0 ], [ 1595173.0, 6441949.0 ], [ 1595177.0, 6441954.0 ], [ 1595191.0, 6441966.0 ], [ 1595205.0, 6441977.0 ], [ 1595214.0, 6441986.0 ], [ 1595214.0, 6441992.0 ], [ 1595213.0, 6441998.0 ], [ 1595210.0, 6442003.0 ], [ 1595208.0, 6442009.0 ], [ 1595201.0, 6442019.0 ], [ 1595279.0, 6442050.0 ], [ 1595346.0, 6442070.0 ], [ 1595394.0, 6442083.0 ], [ 1595499.0, 6442100.0 ], [ 1595503.0, 6442139.0 ], [ 1595502.0, 6442171.0 ], [ 1595494.0, 6442201.0 ], [ 1595482.0, 6442256.0 ], [ 1595476.0, 6442299.0 ], [ 1595469.0, 6442345.0 ], [ 1595469.0, 6442347.0 ], [ 1595683.0, 6442379.0 ], [ 1595728.0, 6442385.0 ], [ 1595733.0, 6442400.0 ], [ 1595819.0, 6442487.0 ], [ 1595796.0, 6442538.0 ], [ 1595786.0, 6442555.0 ], [ 1595847.0, 6442598.0 ], [ 1595930.0, 6442673.0 ], [ 1595993.0, 6442735.0 ], [ 1596055.0, 6442779.0 ], [ 1596137.0, 6442836.0 ], [ 1596221.0, 6442892.0 ], [ 1596276.0, 6442943.0 ], [ 1596243.0, 6443009.0 ], [ 1596220.0, 6443015.0 ], [ 1596215.0, 6443018.0 ], [ 1596193.0, 6443024.0 ], [ 1596189.0, 6443033.0 ], [ 1596181.0, 6443034.0 ], [ 1596178.0, 6443051.0 ], [ 1596174.0, 6443084.0 ], [ 1596163.0, 6443122.0 ], [ 1596163.0, 6443148.0 ], [ 1596149.0, 6443150.0 ], [ 1596142.0, 6443155.0 ], [ 1596126.0, 6443159.0 ], [ 1596122.0, 6443163.0 ], [ 1596117.0, 6443178.0 ], [ 1596104.0, 6443192.0 ], [ 1596087.0, 6443199.0 ], [ 1596053.0, 6443227.0 ], [ 1596055.0, 6443240.0 ], [ 1596054.0, 6443257.0 ], [ 1596060.0, 6443278.0 ], [ 1596072.0, 6443285.0 ], [ 1596095.0, 6443309.0 ], [ 1596107.0, 6443312.0 ], [ 1596122.0, 6443326.0 ], [ 1596151.0, 6443338.0 ], [ 1596160.0, 6443352.0 ], [ 1596176.0, 6443373.0 ], [ 1596181.0, 6443380.0 ], [ 1596199.0, 6443421.0 ], [ 1596219.0, 6443436.0 ], [ 1596228.0, 6443447.0 ], [ 1596231.0, 6443459.0 ], [ 1596216.0, 6443480.0 ], [ 1596222.0, 6443570.0 ], [ 1596217.0, 6443590.0 ], [ 1596219.0, 6443599.0 ], [ 1596214.0, 6443622.0 ], [ 1596199.0, 6443645.0 ], [ 1596201.0, 6443658.0 ], [ 1596209.0, 6443669.0 ], [ 1596207.0, 6443684.0 ], [ 1596194.0, 6443693.0 ], [ 1596183.0, 6443716.0 ], [ 1596202.0, 6443737.0 ], [ 1596204.0, 6443765.0 ], [ 1596176.0, 6443800.0 ], [ 1596148.0, 6443806.0 ], [ 1596125.0, 6443806.0 ], [ 1596123.0, 6443781.0 ], [ 1596102.0, 6443780.0 ], [ 1596097.0, 6443784.0 ], [ 1596078.0, 6443833.0 ], [ 1596059.0, 6443836.0 ], [ 1596037.0, 6443822.0 ], [ 1596029.0, 6443823.0 ], [ 1596029.0, 6443832.0 ], [ 1595995.0, 6443851.0 ], [ 1595986.0, 6443839.0 ], [ 1595975.0, 6443840.0 ], [ 1595942.0, 6443867.0 ], [ 1595922.0, 6443881.0 ], [ 1595900.0, 6443905.0 ], [ 1595891.0, 6443910.0 ], [ 1595868.0, 6443911.0 ], [ 1595851.0, 6443929.0 ], [ 1595827.0, 6443928.0 ], [ 1595793.0, 6443933.0 ], [ 1595775.0, 6443929.0 ], [ 1595727.0, 6444014.0 ], [ 1595733.0, 6444043.0 ], [ 1595745.0, 6444100.0 ], [ 1595751.0, 6444151.0 ], [ 1595741.0, 6444196.0 ], [ 1595800.0, 6444313.0 ], [ 1595828.0, 6444338.0 ], [ 1595853.0, 6444347.0 ], [ 1595878.0, 6444348.0 ], [ 1595886.0, 6444350.0 ], [ 1595903.0, 6444351.0 ], [ 1595925.0, 6444352.0 ], [ 1595945.0, 6444353.0 ], [ 1595971.0, 6444357.0 ], [ 1595998.0, 6444362.0 ], [ 1596019.0, 6444366.0 ], [ 1596043.0, 6444373.0 ], [ 1596067.0, 6444380.0 ], [ 1596105.0, 6444396.0 ], [ 1596145.0, 6444414.0 ], [ 1596165.0, 6444423.0 ], [ 1596186.0, 6444431.0 ], [ 1596202.0, 6444435.0 ], [ 1596222.0, 6444442.0 ], [ 1596244.0, 6444451.0 ], [ 1596264.0, 6444459.0 ], [ 1596290.0, 6444468.0 ], [ 1596312.0, 6444477.0 ], [ 1596333.0, 6444486.0 ], [ 1596355.0, 6444495.0 ], [ 1596389.0, 6444512.0 ], [ 1596407.0, 6444521.0 ], [ 1596432.0, 6444535.0 ], [ 1596475.0, 6444563.0 ], [ 1596496.0, 6444578.0 ], [ 1596515.0, 6444596.0 ], [ 1596532.0, 6444611.0 ], [ 1596551.0, 6444624.0 ], [ 1596577.0, 6444637.0 ], [ 1596597.0, 6444645.0 ], [ 1596625.0, 6444649.0 ], [ 1596628.0, 6444653.0 ], [ 1596625.0, 6444656.0 ], [ 1596165.0, 6444813.0 ], [ 1596170.0, 6444823.0 ], [ 1596122.0, 6444887.0 ], [ 1596094.0, 6444949.0 ], [ 1596070.0, 6445067.0 ], [ 1596063.0, 6445087.0 ], [ 1596044.0, 6445114.0 ], [ 1595997.0, 6445153.0 ], [ 1595947.0, 6445175.0 ], [ 1595914.0, 6445199.0 ], [ 1595892.0, 6445205.0 ], [ 1595854.0, 6445212.0 ], [ 1595814.0, 6445214.0 ], [ 1595763.0, 6445211.0 ], [ 1595723.0, 6445199.0 ], [ 1595673.0, 6445168.0 ], [ 1595647.0, 6445153.0 ], [ 1595558.0, 6445114.0 ], [ 1595538.0, 6445108.0 ], [ 1595464.0, 6445074.0 ], [ 1595439.0, 6445060.0 ], [ 1595426.0, 6445053.0 ], [ 1595413.0, 6445047.0 ], [ 1595398.0, 6445039.0 ], [ 1595368.0, 6445026.0 ], [ 1595324.0, 6445007.0 ], [ 1595259.0, 6444972.0 ], [ 1595245.0, 6444965.0 ], [ 1595176.0, 6444929.0 ], [ 1595013.0, 6444847.0 ], [ 1594949.0, 6444812.0 ], [ 1594889.0, 6444769.0 ], [ 1594872.0, 6444751.0 ], [ 1594858.0, 6444735.0 ], [ 1594848.0, 6444718.0 ], [ 1594838.0, 6444725.0 ], [ 1594816.0, 6444824.0 ], [ 1594266.0, 6444525.0 ], [ 1593884.0, 6444353.0 ], [ 1593862.0, 6444454.0 ], [ 1593847.0, 6444494.0 ], [ 1593839.0, 6444498.0 ], [ 1593816.0, 6444521.0 ], [ 1593804.0, 6444529.0 ], [ 1593789.0, 6444552.0 ], [ 1593787.0, 6444554.0 ], [ 1593797.0, 6444579.0 ], [ 1593796.0, 6444583.0 ], [ 1593799.0, 6444607.0 ], [ 1593785.0, 6444639.0 ], [ 1593758.0, 6444674.0 ], [ 1593731.0, 6444709.0 ], [ 1593703.0, 6444746.0 ], [ 1593668.0, 6444785.0 ], [ 1593636.0, 6444825.0 ], [ 1593604.0, 6444862.0 ], [ 1593580.0, 6444886.0 ], [ 1593552.0, 6444930.0 ], [ 1593523.0, 6444995.0 ], [ 1593507.0, 6445031.0 ], [ 1593497.0, 6445067.0 ], [ 1593491.0, 6445098.0 ], [ 1593482.0, 6445142.0 ], [ 1593461.0, 6445201.0 ], [ 1593447.0, 6445245.0 ], [ 1593439.0, 6445276.0 ], [ 1593427.0, 6445331.0 ], [ 1593423.0, 6445372.0 ], [ 1593365.0, 6445357.0 ], [ 1593285.0, 6445337.0 ], [ 1593240.0, 6445324.0 ], [ 1593186.0, 6445305.0 ], [ 1593156.0, 6445292.0 ], [ 1593020.0, 6445222.0 ], [ 1592993.0, 6445209.0 ], [ 1592979.0, 6445249.0 ], [ 1592968.0, 6445269.0 ], [ 1592953.0, 6445291.0 ], [ 1592947.0, 6445299.0 ], [ 1592928.0, 6445317.0 ], [ 1592874.0, 6445340.0 ], [ 1592814.0, 6445366.0 ], [ 1592792.0, 6445379.0 ], [ 1592757.0, 6445405.0 ], [ 1592746.0, 6445416.0 ], [ 1592738.0, 6445427.0 ], [ 1592720.0, 6445449.0 ], [ 1592673.0, 6445491.0 ], [ 1592715.0, 6445616.0 ], [ 1592726.0, 6445625.0 ], [ 1592715.0, 6445626.0 ], [ 1592701.0, 6445624.0 ], [ 1592691.0, 6445628.0 ], [ 1592684.0, 6445639.0 ], [ 1592677.0, 6445656.0 ], [ 1592659.0, 6445689.0 ], [ 1592646.0, 6445724.0 ], [ 1592624.0, 6445759.0 ], [ 1592607.0, 6445776.0 ], [ 1592580.0, 6445791.0 ], [ 1592581.0, 6445835.0 ], [ 1592564.0, 6445853.0 ], [ 1592548.0, 6445861.0 ], [ 1592528.0, 6445868.0 ], [ 1592509.0, 6445870.0 ], [ 1592475.0, 6445874.0 ], [ 1592446.0, 6445869.0 ], [ 1592433.0, 6445863.0 ], [ 1592404.0, 6445864.0 ], [ 1592377.0, 6445862.0 ], [ 1592359.0, 6445861.0 ], [ 1592335.0, 6445857.0 ], [ 1592313.0, 6445851.0 ], [ 1592303.0, 6445855.0 ], [ 1592291.0, 6445856.0 ], [ 1592281.0, 6445856.0 ], [ 1592269.0, 6445854.0 ], [ 1592258.0, 6445851.0 ], [ 1592248.0, 6445846.0 ], [ 1592231.0, 6445848.0 ], [ 1592223.0, 6445851.0 ], [ 1592214.0, 6445854.0 ], [ 1592206.0, 6445854.0 ], [ 1592198.0, 6445854.0 ], [ 1592181.0, 6445847.0 ], [ 1592175.0, 6445845.0 ], [ 1592153.0, 6445844.0 ], [ 1592124.0, 6445850.0 ], [ 1592116.0, 6445854.0 ], [ 1592106.0, 6445855.0 ], [ 1592097.0, 6445857.0 ], [ 1592070.0, 6445861.0 ], [ 1592039.0, 6445872.0 ], [ 1592015.0, 6445889.0 ], [ 1592012.0, 6445885.0 ], [ 1592003.0, 6445887.0 ], [ 1591996.0, 6445888.0 ], [ 1591984.0, 6445893.0 ], [ 1591980.0, 6445899.0 ], [ 1591967.0, 6445934.0 ], [ 1591960.0, 6445944.0 ], [ 1591949.0, 6445947.0 ], [ 1591932.0, 6445965.0 ], [ 1591931.0, 6445985.0 ], [ 1591927.0, 6445995.0 ], [ 1591927.0, 6446017.0 ], [ 1591927.0, 6446030.0 ], [ 1591935.0, 6446048.0 ], [ 1591946.0, 6446063.0 ], [ 1591953.0, 6446079.0 ], [ 1591963.0, 6446091.0 ], [ 1591979.0, 6446113.0 ], [ 1591987.0, 6446120.0 ], [ 1592001.0, 6446131.0 ], [ 1592011.0, 6446135.0 ], [ 1592019.0, 6446142.0 ], [ 1592028.0, 6446153.0 ], [ 1592029.0, 6446158.0 ], [ 1592051.0, 6446216.0 ], [ 1592064.0, 6446229.0 ], [ 1592074.0, 6446257.0 ], [ 1592073.0, 6446267.0 ], [ 1592035.0, 6446276.0 ], [ 1592028.0, 6446282.0 ], [ 1592002.0, 6446287.0 ], [ 1591980.0, 6446278.0 ], [ 1591943.0, 6446268.0 ], [ 1591907.0, 6446269.0 ], [ 1591843.0, 6446274.0 ], [ 1591831.0, 6446282.0 ], [ 1591819.0, 6446314.0 ], [ 1591799.0, 6446337.0 ], [ 1591784.0, 6446340.0 ], [ 1591769.0, 6446335.0 ], [ 1591754.0, 6446338.0 ], [ 1591731.0, 6446352.0 ], [ 1591720.0, 6446355.0 ], [ 1591696.0, 6446362.0 ], [ 1591585.0, 6446384.0 ], [ 1591573.0, 6446401.0 ], [ 1591523.0, 6446449.0 ], [ 1591484.0, 6446478.0 ], [ 1591462.0, 6446508.0 ], [ 1591443.0, 6446527.0 ], [ 1591415.0, 6446574.0 ], [ 1591400.0, 6446591.0 ], [ 1591372.0, 6446616.0 ], [ 1591357.0, 6446638.0 ], [ 1591325.0, 6446664.0 ], [ 1591294.0, 6446659.0 ], [ 1591295.0, 6446668.0 ], [ 1591338.0, 6446680.0 ], [ 1591393.0, 6446694.0 ], [ 1591417.0, 6446704.0 ], [ 1591463.0, 6446743.0 ], [ 1591480.0, 6446753.0 ], [ 1591495.0, 6446758.0 ], [ 1591499.0, 6446759.0 ], [ 1591549.0, 6446767.0 ], [ 1591555.0, 6446767.0 ], [ 1591651.0, 6446793.0 ], [ 1591702.0, 6446837.0 ], [ 1591732.0, 6446884.0 ], [ 1591750.0, 6446952.0 ], [ 1591769.0, 6446976.0 ], [ 1591801.0, 6446993.0 ], [ 1591902.0, 6447025.0 ], [ 1591928.0, 6447034.0 ], [ 1591919.0, 6447107.0 ], [ 1591913.0, 6447173.0 ], [ 1591896.0, 6447333.0 ], [ 1591889.0, 6447413.0 ], [ 1591887.0, 6447462.0 ], [ 1591883.0, 6447603.0 ], [ 1591884.0, 6447691.0 ], [ 1591889.0, 6447841.0 ], [ 1591897.0, 6447962.0 ], [ 1591906.0, 6448078.0 ], [ 1591914.0, 6448169.0 ], [ 1591929.0, 6448220.0 ], [ 1591957.0, 6448322.0 ], [ 1592141.0, 6448249.0 ], [ 1592164.0, 6448238.0 ], [ 1592196.0, 6448218.0 ], [ 1592210.0, 6448203.0 ], [ 1592238.0, 6448163.0 ], [ 1592395.0, 6447903.0 ], [ 1592444.0, 6447817.0 ], [ 1592469.0, 6447777.0 ], [ 1592489.0, 6447752.0 ], [ 1592541.0, 6447697.0 ], [ 1592584.0, 6447653.0 ], [ 1592628.0, 6447634.0 ], [ 1592847.0, 6447508.0 ], [ 1592886.0, 6447496.0 ], [ 1592942.0, 6447492.0 ], [ 1592968.0, 6447489.0 ], [ 1593011.0, 6447489.0 ], [ 1593068.0, 6447488.0 ], [ 1593144.0, 6447484.0 ], [ 1593135.0, 6447514.0 ], [ 1593128.0, 6447556.0 ], [ 1593133.0, 6447615.0 ], [ 1593136.0, 6447663.0 ], [ 1593141.0, 6447705.0 ], [ 1593174.0, 6447871.0 ], [ 1593209.0, 6447984.0 ], [ 1593239.0, 6448071.0 ], [ 1593271.0, 6448170.0 ], [ 1593277.0, 6448187.0 ], [ 1593285.0, 6448214.0 ], [ 1593295.0, 6448245.0 ], [ 1593322.0, 6448323.0 ], [ 1593323.0, 6448323.0 ], [ 1593335.0, 6448362.0 ], [ 1593338.0, 6448383.0 ], [ 1593337.0, 6448395.0 ], [ 1593332.0, 6448408.0 ], [ 1593328.0, 6448416.0 ], [ 1593323.0, 6448420.0 ], [ 1593312.0, 6448448.0 ], [ 1593292.0, 6448474.0 ], [ 1593279.0, 6448497.0 ], [ 1593272.0, 6448518.0 ], [ 1593282.0, 6448547.0 ], [ 1593301.0, 6448571.0 ], [ 1593347.0, 6448611.0 ], [ 1593396.0, 6448640.0 ], [ 1593440.0, 6448666.0 ], [ 1593491.0, 6448696.0 ], [ 1593505.0, 6448709.0 ], [ 1593528.0, 6448765.0 ], [ 1593540.0, 6448813.0 ], [ 1593553.0, 6448871.0 ], [ 1593555.0, 6448919.0 ], [ 1593556.0, 6448972.0 ], [ 1593560.0, 6449025.0 ], [ 1593564.0, 6449085.0 ], [ 1593571.0, 6449136.0 ], [ 1593588.0, 6449255.0 ], [ 1593597.0, 6449304.0 ], [ 1593611.0, 6449348.0 ], [ 1593657.0, 6449482.0 ], [ 1593710.0, 6449725.0 ], [ 1593717.0, 6449808.0 ], [ 1593725.0, 6449879.0 ], [ 1593727.0, 6449905.0 ], [ 1593724.0, 6449940.0 ], [ 1593719.0, 6449975.0 ], [ 1593696.0, 6450087.0 ], [ 1593668.0, 6450195.0 ], [ 1593656.0, 6450237.0 ], [ 1593645.0, 6450270.0 ], [ 1593633.0, 6450289.0 ], [ 1593625.0, 6450287.0 ], [ 1593616.0, 6450284.0 ], [ 1593608.0, 6450306.0 ], [ 1593625.0, 6450315.0 ], [ 1593632.0, 6450322.0 ], [ 1593635.0, 6450331.0 ], [ 1593637.0, 6450344.0 ], [ 1593635.0, 6450363.0 ], [ 1593600.0, 6450376.0 ], [ 1593014.0, 6450434.0 ], [ 1593006.0, 6450434.0 ], [ 1592982.0, 6450439.0 ], [ 1592954.0, 6450439.0 ], [ 1592922.0, 6450441.0 ], [ 1592892.0, 6450448.0 ], [ 1592858.0, 6450452.0 ], [ 1592850.0, 6450458.0 ], [ 1592765.0, 6450464.0 ], [ 1592733.0, 6450467.0 ], [ 1592671.0, 6450476.0 ], [ 1592652.0, 6450477.0 ], [ 1592651.0, 6450481.0 ], [ 1592640.0, 6450484.0 ], [ 1592641.0, 6450489.0 ], [ 1592579.0, 6450494.0 ], [ 1592550.0, 6450497.0 ], [ 1592456.0, 6450512.0 ], [ 1592395.0, 6450524.0 ], [ 1592334.0, 6450525.0 ], [ 1592147.0, 6450534.0 ], [ 1592116.0, 6450535.0 ], [ 1592085.0, 6450534.0 ], [ 1592053.0, 6450537.0 ], [ 1592022.0, 6450539.0 ], [ 1591992.0, 6450540.0 ], [ 1591962.0, 6450542.0 ], [ 1591928.0, 6450543.0 ], [ 1591904.0, 6450546.0 ], [ 1591896.0, 6450539.0 ], [ 1591878.0, 6450517.0 ], [ 1591865.0, 6450509.0 ], [ 1591847.0, 6450501.0 ], [ 1591793.0, 6450503.0 ], [ 1591775.0, 6450506.0 ], [ 1591771.0, 6450483.0 ], [ 1591743.0, 6450440.0 ], [ 1591706.0, 6450429.0 ], [ 1591664.0, 6450427.0 ], [ 1591652.0, 6450422.0 ], [ 1591631.0, 6450372.0 ], [ 1591626.0, 6450350.0 ], [ 1591598.0, 6450356.0 ], [ 1591596.0, 6450366.0 ], [ 1591595.0, 6450380.0 ], [ 1591599.0, 6450417.0 ], [ 1591599.0, 6450450.0 ], [ 1591601.0, 6450535.0 ], [ 1591595.0, 6450536.0 ], [ 1591582.0, 6450539.0 ], [ 1591567.0, 6450543.0 ], [ 1591491.0, 6450597.0 ], [ 1591475.0, 6450605.0 ], [ 1591459.0, 6450612.0 ], [ 1591337.0, 6450635.0 ], [ 1591305.0, 6450642.0 ], [ 1591274.0, 6450650.0 ], [ 1591243.0, 6450660.0 ], [ 1591217.0, 6450670.0 ], [ 1591185.0, 6450688.0 ], [ 1591181.0, 6450690.0 ], [ 1591099.0, 6450726.0 ], [ 1591070.0, 6450738.0 ], [ 1590961.0, 6450805.0 ], [ 1590934.0, 6450822.0 ], [ 1590862.0, 6450852.0 ], [ 1590839.0, 6450866.0 ], [ 1590831.0, 6450864.0 ], [ 1590828.0, 6450869.0 ], [ 1590822.0, 6450873.0 ], [ 1590788.0, 6450888.0 ], [ 1590759.0, 6450904.0 ], [ 1590731.0, 6450917.0 ], [ 1590706.0, 6450932.0 ], [ 1590681.0, 6450947.0 ], [ 1590661.0, 6450969.0 ], [ 1590630.0, 6451002.0 ], [ 1590616.0, 6451004.0 ], [ 1590567.0, 6451043.0 ], [ 1590540.0, 6451064.0 ], [ 1590489.0, 6451100.0 ], [ 1590456.0, 6451124.0 ], [ 1590446.0, 6451119.0 ], [ 1590420.0, 6451145.0 ], [ 1590394.0, 6451168.0 ], [ 1590367.0, 6451200.0 ], [ 1590315.0, 6451254.0 ], [ 1590299.0, 6451269.0 ], [ 1590293.0, 6451271.0 ], [ 1590293.0, 6451275.0 ], [ 1590292.0, 6451278.0 ], [ 1590288.0, 6451279.0 ], [ 1590233.0, 6451340.0 ], [ 1590209.0, 6451367.0 ], [ 1590009.0, 6451616.0 ], [ 1589987.0, 6451642.0 ], [ 1589907.0, 6451732.0 ], [ 1589872.0, 6451801.0 ], [ 1589857.0, 6451811.0 ], [ 1589841.0, 6451825.0 ], [ 1589834.0, 6451825.0 ], [ 1589830.0, 6451828.0 ], [ 1589752.0, 6451905.0 ], [ 1589727.0, 6451927.0 ], [ 1589706.0, 6451946.0 ], [ 1589676.0, 6451968.0 ], [ 1589650.0, 6451988.0 ], [ 1589623.0, 6452009.0 ], [ 1589603.0, 6452023.0 ], [ 1589570.0, 6452045.0 ], [ 1589485.0, 6452100.0 ], [ 1589428.0, 6452136.0 ], [ 1589402.0, 6452157.0 ], [ 1589375.0, 6452177.0 ], [ 1589347.0, 6452196.0 ], [ 1589236.0, 6452264.0 ], [ 1589209.0, 6452281.0 ], [ 1589132.0, 6452338.0 ], [ 1589107.0, 6452358.0 ], [ 1589016.0, 6452439.0 ], [ 1588990.0, 6452464.0 ], [ 1588864.0, 6452606.0 ] ] ] } }
]
}
