{
"type": "FeatureCollection",
"name": "pristina-city_boundary",
"crs": { "type": "name", "properties": { "name": "urn:ogc:def:crs:EPSG::3857" } },
"features": [
{ "type": "Feature", "properties": { "bbox_west": 21.1066198, "bbox_south": 42.6088014, "bbox_east": 21.2136267, "bbox_north": 42.696965, "place_id": 414560568, "osm_type": "relation", "osm_id": 19425413, "lat": 42.6638771, "lon": 21.1640849, "class": "boundary", "type": "administrative", "place_rank": 15, "importance": 0.63454956379639238, "addresstype": "city", "name": "Pristina", "display_name": "Pristina, Municipality of Pristina, District of Prishtina, Kosovo" }, "geometry": { "type": "Polygon", "coordinates": [ [ [ 2349644.0, 5257566.0 ], [ 2349754.0, 5257609.0 ], [ 2349891.0, 5257663.0 ], [ 2349924.0, 5257676.0 ], [ 2349920.0, 5257684.0 ], [ 2349918.0, 5257689.0 ], [ 2349916.0, 5257694.0 ], [ 2349913.0, 5257701.0 ], [ 2349909.0, 5257710.0 ], [ 2349895.0, 5257741.0 ], [ 2349863.0, 5257811.0 ], [ 2349852.0, 5257836.0 ], [ 2349835.0, 5257873.0 ], [ 2349818.0, 5257910.0 ], [ 2349813.0, 5257923.0 ], [ 2349811.0, 5257927.0 ], [ 2349801.0, 5257983.0 ], [ 2349792.0, 5258022.0 ], [ 2349778.0, 5258087.0 ], [ 2349765.0, 5258139.0 ], [ 2349754.0, 5258182.0 ], [ 2349747.0, 5258216.0 ], [ 2349735.0, 5258271.0 ], [ 2349727.0, 5258308.0 ], [ 2349716.0, 5258366.0 ], [ 2349708.0, 5258401.0 ], [ 2349707.0, 5258405.0 ], [ 2349706.0, 5258409.0 ], [ 2349703.0, 5258429.0 ], [ 2349703.0, 5258433.0 ], [ 2349700.0, 5258446.0 ], [ 2349828.0, 5258457.0 ], [ 2349892.0, 5258470.0 ], [ 2349959.0, 5258482.0 ], [ 2350009.0, 5258494.0 ], [ 2350095.0, 5258511.0 ], [ 2350185.0, 5258530.0 ], [ 2350247.0, 5258557.0 ], [ 2350317.0, 5258592.0 ], [ 2350411.0, 5258652.0 ], [ 2350425.0, 5258662.0 ], [ 2350479.0, 5258702.0 ], [ 2350535.0, 5258743.0 ], [ 2350591.0, 5258782.0 ], [ 2350646.0, 5258821.0 ], [ 2350657.0, 5258830.0 ], [ 2350675.0, 5258837.0 ], [ 2350786.0, 5258918.0 ], [ 2350832.0, 5258950.0 ], [ 2350887.0, 5258991.0 ], [ 2350943.0, 5259030.0 ], [ 2350975.0, 5259055.0 ], [ 2351031.0, 5259094.0 ], [ 2351084.0, 5259135.0 ], [ 2351122.0, 5259162.0 ], [ 2351167.0, 5259194.0 ], [ 2351187.0, 5259210.0 ], [ 2351205.0, 5259226.0 ], [ 2351218.0, 5259242.0 ], [ 2351230.0, 5259253.0 ], [ 2351241.0, 5259263.0 ], [ 2351256.0, 5259271.0 ], [ 2351308.0, 5259282.0 ], [ 2351311.0, 5259320.0 ], [ 2351311.0, 5259361.0 ], [ 2351306.0, 5259377.0 ], [ 2351303.0, 5259383.0 ], [ 2351295.0, 5259410.0 ], [ 2351294.0, 5259416.0 ], [ 2351292.0, 5259490.0 ], [ 2351273.0, 5259566.0 ], [ 2351265.0, 5259603.0 ], [ 2351259.0, 5259624.0 ], [ 2351251.0, 5259653.0 ], [ 2351244.0, 5259680.0 ], [ 2351233.0, 5259713.0 ], [ 2351224.0, 5259745.0 ], [ 2351222.0, 5259752.0 ], [ 2351205.0, 5259816.0 ], [ 2351180.0, 5259905.0 ], [ 2351161.0, 5259973.0 ], [ 2351153.0, 5260008.0 ], [ 2351145.0, 5260038.0 ], [ 2351134.0, 5260082.0 ], [ 2351125.0, 5260116.0 ], [ 2351113.0, 5260166.0 ], [ 2351105.0, 5260192.0 ], [ 2351091.0, 5260250.0 ], [ 2351078.0, 5260301.0 ], [ 2351070.0, 5260326.0 ], [ 2351064.0, 5260349.0 ], [ 2351057.0, 5260377.0 ], [ 2351050.0, 5260400.0 ], [ 2351037.0, 5260448.0 ], [ 2351023.0, 5260505.0 ], [ 2351026.0, 5260513.0 ], [ 2351160.0, 5260522.0 ], [ 2351268.0, 5260529.0 ], [ 2351394.0, 5260577.0 ], [ 2351562.0, 5260635.0 ], [ 2351681.0, 5260687.0 ], [ 2351698.0, 5260697.0 ], [ 2351744.0, 5260718.0 ], [ 2351901.0, 5260780.0 ], [ 2351924.0, 5260788.0 ], [ 2352004.0, 5260818.0 ], [ 2352082.0, 5260846.0 ], [ 2352076.0, 5260854.0 ], [ 2351876.0, 5261079.0 ], [ 2351814.0, 5261143.0 ], [ 2351769.0, 5261186.0 ], [ 2352059.0, 5261418.0 ], [ 2352069.0, 5261414.0 ], [ 2352139.0, 5261467.0 ], [ 2352053.0, 5261584.0 ], [ 2352388.0, 5261842.0 ], [ 2352497.0, 5261927.0 ], [ 2352482.0, 5261977.0 ], [ 2352457.0, 5261992.0 ], [ 2352408.0, 5262035.0 ], [ 2352361.0, 5262103.0 ], [ 2352313.0, 5262173.0 ], [ 2352273.0, 5262232.0 ], [ 2352244.0, 5262228.0 ], [ 2352233.0, 5262213.0 ], [ 2352207.0, 5262222.0 ], [ 2352184.0, 5262219.0 ], [ 2352167.0, 5262230.0 ], [ 2352125.0, 5262236.0 ], [ 2352099.0, 5262240.0 ], [ 2352087.0, 5262233.0 ], [ 2352074.0, 5262246.0 ], [ 2352057.0, 5262269.0 ], [ 2352058.0, 5262284.0 ], [ 2352051.0, 5262293.0 ], [ 2352037.0, 5262288.0 ], [ 2352009.0, 5262298.0 ], [ 2351998.0, 5262310.0 ], [ 2351980.0, 5262313.0 ], [ 2351972.0, 5262331.0 ], [ 2352001.0, 5262369.0 ], [ 2352026.0, 5262389.0 ], [ 2352066.0, 5262430.0 ], [ 2352070.0, 5262440.0 ], [ 2352077.0, 5262448.0 ], [ 2352115.0, 5262471.0 ], [ 2352114.0, 5262490.0 ], [ 2352130.0, 5262518.0 ], [ 2352145.0, 5262517.0 ], [ 2352153.0, 5262513.0 ], [ 2352152.0, 5262503.0 ], [ 2352155.0, 5262494.0 ], [ 2352184.0, 5262504.0 ], [ 2352231.0, 5262550.0 ], [ 2352222.0, 5262577.0 ], [ 2352223.0, 5262604.0 ], [ 2352261.0, 5262639.0 ], [ 2352259.0, 5262663.0 ], [ 2352275.0, 5262711.0 ], [ 2352271.0, 5262720.0 ], [ 2352290.0, 5262749.0 ], [ 2352280.0, 5262764.0 ], [ 2352282.0, 5262773.0 ], [ 2352300.0, 5262774.0 ], [ 2352311.0, 5262764.0 ], [ 2352322.0, 5262756.0 ], [ 2352333.0, 5262758.0 ], [ 2352336.0, 5262768.0 ], [ 2352348.0, 5262778.0 ], [ 2352352.0, 5262784.0 ], [ 2352345.0, 5262787.0 ], [ 2352337.0, 5262782.0 ], [ 2352331.0, 5262795.0 ], [ 2352339.0, 5262824.0 ], [ 2352372.0, 5262849.0 ], [ 2352405.0, 5262876.0 ], [ 2352412.0, 5262891.0 ], [ 2352416.0, 5262916.0 ], [ 2352430.0, 5262925.0 ], [ 2352438.0, 5262923.0 ], [ 2352454.0, 5262907.0 ], [ 2352465.0, 5262896.0 ], [ 2352473.0, 5262902.0 ], [ 2352488.0, 5262921.0 ], [ 2352502.0, 5262954.0 ], [ 2352524.0, 5262957.0 ], [ 2352545.0, 5262964.0 ], [ 2352558.0, 5262981.0 ], [ 2352565.0, 5262996.0 ], [ 2352583.0, 5263007.0 ], [ 2352613.0, 5263025.0 ], [ 2352636.0, 5263055.0 ], [ 2352655.0, 5263087.0 ], [ 2352663.0, 5263145.0 ], [ 2352673.0, 5263169.0 ], [ 2352677.0, 5263199.0 ], [ 2352671.0, 5263225.0 ], [ 2352680.0, 5263247.0 ], [ 2352681.0, 5263271.0 ], [ 2352696.0, 5263289.0 ], [ 2352610.0, 5263383.0 ], [ 2352569.0, 5263373.0 ], [ 2352497.0, 5263381.0 ], [ 2352494.0, 5263393.0 ], [ 2352478.0, 5263397.0 ], [ 2352485.0, 5263464.0 ], [ 2352485.0, 5263551.0 ], [ 2352478.0, 5263565.0 ], [ 2352470.0, 5263694.0 ], [ 2352469.0, 5263798.0 ], [ 2352463.0, 5263822.0 ], [ 2352473.0, 5263864.0 ], [ 2352469.0, 5263900.0 ], [ 2352476.0, 5263930.0 ], [ 2352465.0, 5263955.0 ], [ 2352484.0, 5264014.0 ], [ 2352457.0, 5264031.0 ], [ 2352481.0, 5264073.0 ], [ 2352491.0, 5264107.0 ], [ 2352476.0, 5264132.0 ], [ 2352455.0, 5264157.0 ], [ 2352430.0, 5264232.0 ], [ 2352419.0, 5264277.0 ], [ 2352427.0, 5264306.0 ], [ 2352491.0, 5264326.0 ], [ 2352571.0, 5264376.0 ], [ 2352696.0, 5264474.0 ], [ 2352796.0, 5264535.0 ], [ 2352865.0, 5264589.0 ], [ 2352998.0, 5264668.0 ], [ 2353161.0, 5264741.0 ], [ 2353357.0, 5264833.0 ], [ 2353525.0, 5264942.0 ], [ 2353521.0, 5264951.0 ], [ 2353655.0, 5265016.0 ], [ 2353701.0, 5265043.0 ], [ 2353752.0, 5265072.0 ], [ 2353820.0, 5265111.0 ], [ 2353978.0, 5265221.0 ], [ 2354112.0, 5265297.0 ], [ 2354282.0, 5265388.0 ], [ 2354424.0, 5265449.0 ], [ 2354510.0, 5265472.0 ], [ 2354584.0, 5265485.0 ], [ 2354597.0, 5265493.0 ], [ 2354647.0, 5265510.0 ], [ 2354720.0, 5265552.0 ], [ 2354734.0, 5265574.0 ], [ 2354759.0, 5265605.0 ], [ 2354810.0, 5265641.0 ], [ 2354865.0, 5265659.0 ], [ 2354941.0, 5265692.0 ], [ 2354967.0, 5265689.0 ], [ 2355018.0, 5265721.0 ], [ 2355067.0, 5265742.0 ], [ 2355117.0, 5265755.0 ], [ 2355187.0, 5265768.0 ], [ 2355287.0, 5265760.0 ], [ 2355340.0, 5265749.0 ], [ 2355391.0, 5265733.0 ], [ 2355533.0, 5265745.0 ], [ 2355687.0, 5265750.0 ], [ 2355929.0, 5265764.0 ], [ 2355963.0, 5265656.0 ], [ 2355981.0, 5265649.0 ], [ 2355988.0, 5265639.0 ], [ 2356064.0, 5265623.0 ], [ 2356100.0, 5265749.0 ], [ 2356171.0, 5265717.0 ], [ 2356239.0, 5265690.0 ], [ 2356261.0, 5265687.0 ], [ 2356280.0, 5265686.0 ], [ 2356309.0, 5265670.0 ], [ 2356331.0, 5265679.0 ], [ 2356355.0, 5265685.0 ], [ 2356390.0, 5265688.0 ], [ 2356428.0, 5265678.0 ], [ 2356447.0, 5265669.0 ], [ 2356483.0, 5265748.0 ], [ 2356510.0, 5265830.0 ], [ 2356528.0, 5265886.0 ], [ 2356549.0, 5265912.0 ], [ 2356606.0, 5265949.0 ], [ 2356624.0, 5265960.0 ], [ 2356633.0, 5265952.0 ], [ 2356627.0, 5265940.0 ], [ 2356617.0, 5265920.0 ], [ 2356596.0, 5265871.0 ], [ 2356592.0, 5265860.0 ], [ 2356579.0, 5265828.0 ], [ 2356557.0, 5265774.0 ], [ 2356539.0, 5265721.0 ], [ 2356542.0, 5265708.0 ], [ 2356543.0, 5265684.0 ], [ 2356544.0, 5265672.0 ], [ 2356548.0, 5265621.0 ], [ 2356550.0, 5265551.0 ], [ 2356561.0, 5265438.0 ], [ 2356600.0, 5265446.0 ], [ 2356612.0, 5265395.0 ], [ 2356622.0, 5265351.0 ], [ 2356635.0, 5265290.0 ], [ 2356639.0, 5265247.0 ], [ 2356627.0, 5265222.0 ], [ 2356624.0, 5265211.0 ], [ 2356672.0, 5265183.0 ], [ 2356714.0, 5265176.0 ], [ 2356760.0, 5265178.0 ], [ 2356789.0, 5265164.0 ], [ 2356792.0, 5265136.0 ], [ 2356808.0, 5265119.0 ], [ 2356809.0, 5265092.0 ], [ 2356805.0, 5265079.0 ], [ 2356802.0, 5265059.0 ], [ 2356800.0, 5265047.0 ], [ 2356800.0, 5265034.0 ], [ 2356800.0, 5265028.0 ], [ 2356804.0, 5265001.0 ], [ 2356807.0, 5264991.0 ], [ 2356816.0, 5264969.0 ], [ 2356837.0, 5264939.0 ], [ 2356854.0, 5264941.0 ], [ 2356861.0, 5264948.0 ], [ 2356884.0, 5264962.0 ], [ 2356903.0, 5264972.0 ], [ 2356933.0, 5264997.0 ], [ 2357012.0, 5265021.0 ], [ 2357056.0, 5265125.0 ], [ 2357152.0, 5265100.0 ], [ 2357201.0, 5264955.0 ], [ 2357217.0, 5264941.0 ], [ 2357230.0, 5264930.0 ], [ 2357250.0, 5264921.0 ], [ 2357273.0, 5264902.0 ], [ 2357285.0, 5264887.0 ], [ 2357319.0, 5264849.0 ], [ 2357326.0, 5264837.0 ], [ 2357342.0, 5264845.0 ], [ 2357356.0, 5264823.0 ], [ 2357367.0, 5264794.0 ], [ 2357371.0, 5264741.0 ], [ 2357368.0, 5264722.0 ], [ 2357444.0, 5264691.0 ], [ 2357471.0, 5264693.0 ], [ 2357524.0, 5264713.0 ], [ 2357542.0, 5264705.0 ], [ 2357506.0, 5264618.0 ], [ 2357468.0, 5264549.0 ], [ 2357433.0, 5264487.0 ], [ 2357390.0, 5264415.0 ], [ 2357385.0, 5264406.0 ], [ 2357373.0, 5264385.0 ], [ 2357327.0, 5264299.0 ], [ 2357306.0, 5264268.0 ], [ 2357294.0, 5264247.0 ], [ 2357268.0, 5264203.0 ], [ 2357234.0, 5264153.0 ], [ 2357207.0, 5264121.0 ], [ 2357162.0, 5264053.0 ], [ 2357141.0, 5263999.0 ], [ 2357137.0, 5263939.0 ], [ 2357112.0, 5263799.0 ], [ 2357099.0, 5263741.0 ], [ 2357082.0, 5263705.0 ], [ 2357073.0, 5263687.0 ], [ 2357067.0, 5263674.0 ], [ 2357096.0, 5263694.0 ], [ 2357188.0, 5263723.0 ], [ 2357207.0, 5263723.0 ], [ 2357215.0, 5263714.0 ], [ 2357218.0, 5263709.0 ], [ 2357239.0, 5263712.0 ], [ 2357266.0, 5263718.0 ], [ 2357373.0, 5263740.0 ], [ 2357435.0, 5263742.0 ], [ 2357461.0, 5263753.0 ], [ 2357517.0, 5263765.0 ], [ 2357538.0, 5263772.0 ], [ 2357573.0, 5263757.0 ], [ 2357600.0, 5263769.0 ], [ 2357633.0, 5263753.0 ], [ 2357579.0, 5263693.0 ], [ 2357562.0, 5263663.0 ], [ 2357550.0, 5263628.0 ], [ 2357563.0, 5263604.0 ], [ 2357637.0, 5263693.0 ], [ 2357673.0, 5263729.0 ], [ 2357697.0, 5263744.0 ], [ 2357778.0, 5263766.0 ], [ 2357831.0, 5263767.0 ], [ 2357860.0, 5263766.0 ], [ 2357882.0, 5263769.0 ], [ 2357894.0, 5263771.0 ], [ 2357932.0, 5263738.0 ], [ 2357949.0, 5263708.0 ], [ 2357960.0, 5263693.0 ], [ 2357959.0, 5263687.0 ], [ 2357996.0, 5263644.0 ], [ 2358017.0, 5263614.0 ], [ 2358026.0, 5263592.0 ], [ 2358030.0, 5263562.0 ], [ 2358033.0, 5263524.0 ], [ 2358040.0, 5263503.0 ], [ 2358058.0, 5263471.0 ], [ 2358133.0, 5263382.0 ], [ 2358156.0, 5263353.0 ], [ 2358160.0, 5263305.0 ], [ 2358171.0, 5263245.0 ], [ 2358199.0, 5263197.0 ], [ 2358223.0, 5263179.0 ], [ 2358255.0, 5263153.0 ], [ 2358266.0, 5263140.0 ], [ 2358301.0, 5263133.0 ], [ 2358325.0, 5263127.0 ], [ 2358333.0, 5263107.0 ], [ 2358354.0, 5263086.0 ], [ 2358393.0, 5263084.0 ], [ 2358439.0, 5263076.0 ], [ 2358466.0, 5263059.0 ], [ 2358489.0, 5263054.0 ], [ 2358531.0, 5263033.0 ], [ 2358534.0, 5263023.0 ], [ 2358563.0, 5263001.0 ], [ 2358574.0, 5262989.0 ], [ 2358620.0, 5262991.0 ], [ 2358712.0, 5262944.0 ], [ 2358738.0, 5262925.0 ], [ 2358734.0, 5262911.0 ], [ 2358738.0, 5262905.0 ], [ 2358779.0, 5262851.0 ], [ 2358809.0, 5262819.0 ], [ 2358830.0, 5262813.0 ], [ 2358873.0, 5262804.0 ], [ 2358927.0, 5262787.0 ], [ 2358966.0, 5262759.0 ], [ 2359040.0, 5262769.0 ], [ 2359100.0, 5262769.0 ], [ 2359144.0, 5262806.0 ], [ 2359178.0, 5262799.0 ], [ 2359189.0, 5262810.0 ], [ 2359205.0, 5262813.0 ], [ 2359232.0, 5262825.0 ], [ 2359256.0, 5262827.0 ], [ 2359268.0, 5262835.0 ], [ 2359280.0, 5262832.0 ], [ 2359280.0, 5262837.0 ], [ 2359291.0, 5262841.0 ], [ 2359298.0, 5262854.0 ], [ 2359309.0, 5262854.0 ], [ 2359325.0, 5262884.0 ], [ 2359351.0, 5262920.0 ], [ 2359386.0, 5262937.0 ], [ 2359440.0, 5262946.0 ], [ 2359455.0, 5262957.0 ], [ 2359465.0, 5262961.0 ], [ 2359490.0, 5262982.0 ], [ 2359490.0, 5262990.0 ], [ 2359487.0, 5263000.0 ], [ 2359494.0, 5263003.0 ], [ 2359497.0, 5262988.0 ], [ 2359504.0, 5262973.0 ], [ 2359511.0, 5262968.0 ], [ 2359533.0, 5262956.0 ], [ 2359561.0, 5262924.0 ], [ 2359582.0, 5262898.0 ], [ 2359594.0, 5262869.0 ], [ 2359597.0, 5262860.0 ], [ 2359603.0, 5262839.0 ], [ 2359609.0, 5262818.0 ], [ 2359620.0, 5262788.0 ], [ 2359629.0, 5262760.0 ], [ 2359671.0, 5262661.0 ], [ 2359691.0, 5262598.0 ], [ 2359693.0, 5262575.0 ], [ 2359715.0, 5262545.0 ], [ 2359736.0, 5262507.0 ], [ 2359761.0, 5262465.0 ], [ 2359776.0, 5262430.0 ], [ 2359784.0, 5262412.0 ], [ 2359779.0, 5262396.0 ], [ 2359730.0, 5262360.0 ], [ 2359735.0, 5262342.0 ], [ 2359691.0, 5262310.0 ], [ 2359646.0, 5262280.0 ], [ 2359611.0, 5262258.0 ], [ 2359610.0, 5262257.0 ], [ 2359599.0, 5262241.0 ], [ 2359559.0, 5262214.0 ], [ 2359536.0, 5262196.0 ], [ 2359455.0, 5262130.0 ], [ 2359411.0, 5262095.0 ], [ 2359393.0, 5262081.0 ], [ 2359418.0, 5262055.0 ], [ 2359425.0, 5262043.0 ], [ 2359438.0, 5262029.0 ], [ 2359420.0, 5262012.0 ], [ 2359416.0, 5261991.0 ], [ 2359416.0, 5261981.0 ], [ 2359423.0, 5261960.0 ], [ 2359432.0, 5261944.0 ], [ 2359435.0, 5261934.0 ], [ 2359444.0, 5261915.0 ], [ 2359389.0, 5261868.0 ], [ 2359344.0, 5261828.0 ], [ 2359249.0, 5261754.0 ], [ 2359203.0, 5261712.0 ], [ 2359172.0, 5261726.0 ], [ 2359166.0, 5261728.0 ], [ 2359155.0, 5261670.0 ], [ 2359146.0, 5261645.0 ], [ 2359130.0, 5261651.0 ], [ 2359110.0, 5261654.0 ], [ 2359103.0, 5261638.0 ], [ 2359085.0, 5261643.0 ], [ 2359057.0, 5261650.0 ], [ 2359051.0, 5261593.0 ], [ 2359066.0, 5261590.0 ], [ 2359080.0, 5261465.0 ], [ 2359051.0, 5261457.0 ], [ 2359021.0, 5261454.0 ], [ 2358995.0, 5261463.0 ], [ 2358929.0, 5261450.0 ], [ 2358873.0, 5261445.0 ], [ 2358837.0, 5261440.0 ], [ 2358805.0, 5261434.0 ], [ 2358799.0, 5261432.0 ], [ 2358767.0, 5261432.0 ], [ 2358755.0, 5261432.0 ], [ 2358740.0, 5261432.0 ], [ 2358736.0, 5261430.0 ], [ 2358724.0, 5261431.0 ], [ 2358717.0, 5261433.0 ], [ 2358703.0, 5261434.0 ], [ 2358632.0, 5261403.0 ], [ 2358576.0, 5261365.0 ], [ 2358530.0, 5261327.0 ], [ 2358442.0, 5261252.0 ], [ 2358396.0, 5261215.0 ], [ 2358397.0, 5261206.0 ], [ 2358403.0, 5261211.0 ], [ 2358404.0, 5261215.0 ], [ 2358407.0, 5261213.0 ], [ 2358430.0, 5261202.0 ], [ 2358453.0, 5261199.0 ], [ 2358470.0, 5261198.0 ], [ 2358520.0, 5261207.0 ], [ 2358571.0, 5261219.0 ], [ 2358601.0, 5261224.0 ], [ 2358635.0, 5261235.0 ], [ 2358666.0, 5261244.0 ], [ 2358720.0, 5261262.0 ], [ 2358800.0, 5261270.0 ], [ 2358827.0, 5261270.0 ], [ 2358887.0, 5261246.0 ], [ 2358903.0, 5261234.0 ], [ 2358945.0, 5261191.0 ], [ 2358965.0, 5261112.0 ], [ 2358968.0, 5261096.0 ], [ 2358993.0, 5261052.0 ], [ 2359018.0, 5260991.0 ], [ 2359026.0, 5260950.0 ], [ 2359030.0, 5260930.0 ], [ 2359079.0, 5260880.0 ], [ 2359120.0, 5260918.0 ], [ 2359206.0, 5260856.0 ], [ 2359214.0, 5260808.0 ], [ 2359228.0, 5260782.0 ], [ 2359273.0, 5260796.0 ], [ 2359329.0, 5260826.0 ], [ 2359335.0, 5260822.0 ], [ 2359377.0, 5260753.0 ], [ 2359387.0, 5260736.0 ], [ 2359396.0, 5260735.0 ], [ 2359441.0, 5260687.0 ], [ 2359451.0, 5260651.0 ], [ 2359450.0, 5260639.0 ], [ 2359491.0, 5260588.0 ], [ 2359504.0, 5260576.0 ], [ 2359511.0, 5260551.0 ], [ 2359511.0, 5260540.0 ], [ 2359567.0, 5260567.0 ], [ 2359583.0, 5260501.0 ], [ 2359579.0, 5260477.0 ], [ 2359533.0, 5260478.0 ], [ 2359536.0, 5260448.0 ], [ 2359584.0, 5260371.0 ], [ 2359652.0, 5260397.0 ], [ 2359670.0, 5260388.0 ], [ 2359720.0, 5260319.0 ], [ 2359740.0, 5260279.0 ], [ 2359751.0, 5260247.0 ], [ 2359794.0, 5260214.0 ], [ 2359860.0, 5260173.0 ], [ 2359927.0, 5260111.0 ], [ 2359915.0, 5260093.0 ], [ 2359933.0, 5260045.0 ], [ 2359974.0, 5259974.0 ], [ 2360021.0, 5259926.0 ], [ 2360078.0, 5259890.0 ], [ 2360115.0, 5259885.0 ], [ 2360152.0, 5259885.0 ], [ 2360186.0, 5259879.0 ], [ 2360207.0, 5259824.0 ], [ 2360240.0, 5259776.0 ], [ 2360264.0, 5259751.0 ], [ 2360271.0, 5259730.0 ], [ 2360303.0, 5259710.0 ], [ 2360323.0, 5259687.0 ], [ 2360318.0, 5259680.0 ], [ 2360316.0, 5259672.0 ], [ 2360261.0, 5259602.0 ], [ 2360318.0, 5259577.0 ], [ 2360341.0, 5259548.0 ], [ 2360375.0, 5259539.0 ], [ 2360413.0, 5259522.0 ], [ 2360428.0, 5259512.0 ], [ 2360441.0, 5259513.0 ], [ 2360427.0, 5259524.0 ], [ 2360416.0, 5259530.0 ], [ 2360421.0, 5259537.0 ], [ 2360446.0, 5259527.0 ], [ 2360464.0, 5259530.0 ], [ 2360479.0, 5259531.0 ], [ 2360499.0, 5259528.0 ], [ 2360524.0, 5259510.0 ], [ 2360546.0, 5259504.0 ], [ 2360594.0, 5259500.0 ], [ 2360617.0, 5259491.0 ], [ 2360654.0, 5259489.0 ], [ 2360700.0, 5259480.0 ], [ 2360714.0, 5259472.0 ], [ 2360729.0, 5259457.0 ], [ 2360744.0, 5259419.0 ], [ 2360745.0, 5259379.0 ], [ 2360743.0, 5259349.0 ], [ 2360759.0, 5259296.0 ], [ 2360768.0, 5259246.0 ], [ 2360801.0, 5259196.0 ], [ 2360839.0, 5259158.0 ], [ 2360893.0, 5259130.0 ], [ 2360943.0, 5259110.0 ], [ 2361066.0, 5259078.0 ], [ 2361204.0, 5259066.0 ], [ 2361261.0, 5259071.0 ], [ 2361273.0, 5259060.0 ], [ 2361291.0, 5259031.0 ], [ 2361329.0, 5259037.0 ], [ 2361354.0, 5259031.0 ], [ 2361490.0, 5259076.0 ], [ 2361465.0, 5259049.0 ], [ 2361473.0, 5259039.0 ], [ 2361449.0, 5259025.0 ], [ 2361379.0, 5258981.0 ], [ 2361335.0, 5258925.0 ], [ 2361230.0, 5258873.0 ], [ 2361170.0, 5258857.0 ], [ 2361134.0, 5258840.0 ], [ 2361001.0, 5258932.0 ], [ 2360940.0, 5258954.0 ], [ 2360793.0, 5258972.0 ], [ 2360738.0, 5258987.0 ], [ 2360691.0, 5259012.0 ], [ 2360659.0, 5259019.0 ], [ 2360599.0, 5259019.0 ], [ 2360545.0, 5259034.0 ], [ 2360521.0, 5259032.0 ], [ 2360446.0, 5259048.0 ], [ 2360392.0, 5259053.0 ], [ 2360342.0, 5259069.0 ], [ 2360240.0, 5259126.0 ], [ 2360164.0, 5259170.0 ], [ 2360047.0, 5259243.0 ], [ 2359992.0, 5259271.0 ], [ 2359934.0, 5259312.0 ], [ 2359874.0, 5259330.0 ], [ 2359822.0, 5259327.0 ], [ 2359779.0, 5259325.0 ], [ 2359713.0, 5259336.0 ], [ 2359638.0, 5259362.0 ], [ 2359605.0, 5259387.0 ], [ 2359543.0, 5259401.0 ], [ 2359468.0, 5259418.0 ], [ 2359409.0, 5259422.0 ], [ 2359390.0, 5259430.0 ], [ 2359323.0, 5259449.0 ], [ 2359251.0, 5259475.0 ], [ 2359147.0, 5259539.0 ], [ 2359130.0, 5259539.0 ], [ 2359082.0, 5259563.0 ], [ 2359057.0, 5259570.0 ], [ 2358970.0, 5259598.0 ], [ 2358941.0, 5259602.0 ], [ 2358865.0, 5259623.0 ], [ 2358809.0, 5259645.0 ], [ 2358779.0, 5259660.0 ], [ 2358773.0, 5259666.0 ], [ 2358756.0, 5259652.0 ], [ 2358679.0, 5259739.0 ], [ 2358656.0, 5259765.0 ], [ 2358647.0, 5259773.0 ], [ 2358641.0, 5259778.0 ], [ 2358610.0, 5259809.0 ], [ 2358588.0, 5259832.0 ], [ 2358571.0, 5259847.0 ], [ 2358561.0, 5259856.0 ], [ 2358535.0, 5259882.0 ], [ 2358507.0, 5259904.0 ], [ 2358390.0, 5259975.0 ], [ 2358309.0, 5260025.0 ], [ 2358307.0, 5260032.0 ], [ 2358246.0, 5260076.0 ], [ 2358213.0, 5260096.0 ], [ 2358174.0, 5260123.0 ], [ 2358131.0, 5260153.0 ], [ 2358124.0, 5260161.0 ], [ 2358123.0, 5260165.0 ], [ 2358110.0, 5260169.0 ], [ 2358069.0, 5260176.0 ], [ 2358055.0, 5260182.0 ], [ 2358022.0, 5260137.0 ], [ 2357941.0, 5260089.0 ], [ 2357887.0, 5260045.0 ], [ 2357886.0, 5260025.0 ], [ 2357904.0, 5259970.0 ], [ 2357927.0, 5259906.0 ], [ 2357931.0, 5259897.0 ], [ 2357932.0, 5259887.0 ], [ 2357931.0, 5259876.0 ], [ 2357926.0, 5259854.0 ], [ 2357916.0, 5259832.0 ], [ 2357912.0, 5259820.0 ], [ 2357901.0, 5259804.0 ], [ 2357888.0, 5259798.0 ], [ 2357872.0, 5259792.0 ], [ 2357852.0, 5259784.0 ], [ 2357832.0, 5259781.0 ], [ 2357815.0, 5259780.0 ], [ 2357801.0, 5259779.0 ], [ 2357787.0, 5259778.0 ], [ 2357750.0, 5259775.0 ], [ 2357719.0, 5259770.0 ], [ 2357684.0, 5259762.0 ], [ 2357675.0, 5259759.0 ], [ 2357659.0, 5259752.0 ], [ 2357649.0, 5259746.0 ], [ 2357630.0, 5259733.0 ], [ 2357622.0, 5259728.0 ], [ 2357615.0, 5259725.0 ], [ 2357604.0, 5259719.0 ], [ 2357588.0, 5259704.0 ], [ 2357574.0, 5259690.0 ], [ 2357566.0, 5259681.0 ], [ 2357558.0, 5259672.0 ], [ 2357545.0, 5259652.0 ], [ 2357534.0, 5259639.0 ], [ 2357527.0, 5259630.0 ], [ 2357522.0, 5259622.0 ], [ 2357514.0, 5259613.0 ], [ 2357510.0, 5259607.0 ], [ 2357505.0, 5259600.0 ], [ 2357497.0, 5259588.0 ], [ 2357489.0, 5259578.0 ], [ 2357475.0, 5259558.0 ], [ 2357459.0, 5259536.0 ], [ 2357445.0, 5259515.0 ], [ 2357429.0, 5259492.0 ], [ 2357416.0, 5259472.0 ], [ 2357400.0, 5259448.0 ], [ 2357380.0, 5259415.0 ], [ 2357362.0, 5259385.0 ], [ 2357337.0, 5259345.0 ], [ 2357322.0, 5259321.0 ], [ 2357315.0, 5259309.0 ], [ 2357304.0, 5259290.0 ], [ 2357294.0, 5259273.0 ], [ 2357289.0, 5259265.0 ], [ 2357277.0, 5259246.0 ], [ 2357257.0, 5259212.0 ], [ 2357243.0, 5259187.0 ], [ 2357238.0, 5259175.0 ], [ 2357230.0, 5259161.0 ], [ 2357221.0, 5259142.0 ], [ 2357219.0, 5259137.0 ], [ 2357192.0, 5259077.0 ], [ 2357185.0, 5259062.0 ], [ 2357168.0, 5259021.0 ], [ 2357159.0, 5259004.0 ], [ 2357155.0, 5258997.0 ], [ 2357137.0, 5258967.0 ], [ 2357125.0, 5258950.0 ], [ 2357121.0, 5258945.0 ], [ 2357116.0, 5258938.0 ], [ 2357103.0, 5258923.0 ], [ 2357077.0, 5258889.0 ], [ 2357040.0, 5258847.0 ], [ 2357023.0, 5258825.0 ], [ 2357015.0, 5258812.0 ], [ 2357000.0, 5258793.0 ], [ 2356978.0, 5258759.0 ], [ 2356972.0, 5258751.0 ], [ 2356953.0, 5258719.0 ], [ 2356941.0, 5258698.0 ], [ 2356935.0, 5258687.0 ], [ 2356922.0, 5258667.0 ], [ 2356914.0, 5258655.0 ], [ 2356908.0, 5258645.0 ], [ 2356886.0, 5258603.0 ], [ 2356856.0, 5258551.0 ], [ 2356826.0, 5258501.0 ], [ 2356805.0, 5258468.0 ], [ 2356785.0, 5258434.0 ], [ 2356771.0, 5258413.0 ], [ 2356769.0, 5258409.0 ], [ 2356758.0, 5258392.0 ], [ 2356752.0, 5258382.0 ], [ 2356729.0, 5258355.0 ], [ 2356725.0, 5258350.0 ], [ 2356719.0, 5258343.0 ], [ 2356713.0, 5258337.0 ], [ 2356696.0, 5258322.0 ], [ 2356685.0, 5258312.0 ], [ 2356667.0, 5258297.0 ], [ 2356655.0, 5258286.0 ], [ 2356630.0, 5258263.0 ], [ 2356614.0, 5258243.0 ], [ 2356593.0, 5258207.0 ], [ 2356578.0, 5258174.0 ], [ 2356557.0, 5258109.0 ], [ 2356542.0, 5258063.0 ], [ 2356537.0, 5258045.0 ], [ 2356534.0, 5258034.0 ], [ 2356480.0, 5257954.0 ], [ 2356458.0, 5257920.0 ], [ 2356431.0, 5257867.0 ], [ 2356413.0, 5257830.0 ], [ 2356401.0, 5257806.0 ], [ 2356397.0, 5257795.0 ], [ 2356396.0, 5257777.0 ], [ 2356401.0, 5257759.0 ], [ 2356405.0, 5257749.0 ], [ 2356408.0, 5257742.0 ], [ 2356417.0, 5257729.0 ], [ 2356424.0, 5257716.0 ], [ 2356456.0, 5257678.0 ], [ 2356421.0, 5257656.0 ], [ 2356391.0, 5257640.0 ], [ 2356364.0, 5257609.0 ], [ 2356401.0, 5257593.0 ], [ 2356474.0, 5257572.0 ], [ 2356476.0, 5257516.0 ], [ 2356469.0, 5257495.0 ], [ 2356469.0, 5257453.0 ], [ 2356468.0, 5257388.0 ], [ 2356502.0, 5257359.0 ], [ 2356505.0, 5257321.0 ], [ 2356515.0, 5257284.0 ], [ 2356516.0, 5257260.0 ], [ 2356568.0, 5257244.0 ], [ 2356603.0, 5257222.0 ], [ 2356625.0, 5257193.0 ], [ 2356675.0, 5257146.0 ], [ 2356691.0, 5257146.0 ], [ 2356710.0, 5257138.0 ], [ 2356729.0, 5257136.0 ], [ 2356751.0, 5257128.0 ], [ 2356802.0, 5257109.0 ], [ 2356800.0, 5257087.0 ], [ 2356828.0, 5256998.0 ], [ 2356833.0, 5256953.0 ], [ 2356846.0, 5256918.0 ], [ 2356843.0, 5256893.0 ], [ 2356840.0, 5256873.0 ], [ 2356875.0, 5256856.0 ], [ 2356959.0, 5256805.0 ], [ 2357043.0, 5256745.0 ], [ 2357149.0, 5256685.0 ], [ 2357138.0, 5256637.0 ], [ 2357147.0, 5256575.0 ], [ 2357144.0, 5256524.0 ], [ 2357192.0, 5256530.0 ], [ 2357347.0, 5256569.0 ], [ 2357495.0, 5256633.0 ], [ 2357578.0, 5256662.0 ], [ 2357791.0, 5256712.0 ], [ 2358122.0, 5256780.0 ], [ 2358212.0, 5256788.0 ], [ 2358283.0, 5256782.0 ], [ 2358389.0, 5256746.0 ], [ 2358531.0, 5256692.0 ], [ 2358676.0, 5256657.0 ], [ 2358815.0, 5256653.0 ], [ 2358928.0, 5256668.0 ], [ 2358979.0, 5256656.0 ], [ 2359107.0, 5256632.0 ], [ 2359190.0, 5256605.0 ], [ 2359193.0, 5256549.0 ], [ 2359129.0, 5256410.0 ], [ 2359144.0, 5256096.0 ], [ 2359183.0, 5256048.0 ], [ 2359168.0, 5256021.0 ], [ 2359141.0, 5255904.0 ], [ 2359147.0, 5255708.0 ], [ 2359148.0, 5255694.0 ], [ 2359153.0, 5255522.0 ], [ 2359150.0, 5255424.0 ], [ 2359152.0, 5255217.0 ], [ 2358963.0, 5255169.0 ], [ 2358855.0, 5255144.0 ], [ 2358791.0, 5255143.0 ], [ 2358711.0, 5255139.0 ], [ 2358457.0, 5255104.0 ], [ 2358306.0, 5255091.0 ], [ 2358180.0, 5255092.0 ], [ 2358064.0, 5255080.0 ], [ 2357948.0, 5255059.0 ], [ 2357852.0, 5255035.0 ], [ 2357778.0, 5255023.0 ], [ 2357689.0, 5255017.0 ], [ 2357599.0, 5255003.0 ], [ 2357463.0, 5255010.0 ], [ 2357387.0, 5254988.0 ], [ 2357252.0, 5254896.0 ], [ 2357210.0, 5254865.0 ], [ 2357150.0, 5254813.0 ], [ 2357055.0, 5254747.0 ], [ 2357029.0, 5254753.0 ], [ 2357016.0, 5254708.0 ], [ 2356975.0, 5254658.0 ], [ 2356951.0, 5254651.0 ], [ 2356941.0, 5254618.0 ], [ 2356910.0, 5254594.0 ], [ 2356877.0, 5254611.0 ], [ 2356827.0, 5254608.0 ], [ 2356764.0, 5254569.0 ], [ 2356757.0, 5254551.0 ], [ 2356750.0, 5254534.0 ], [ 2356710.0, 5254504.0 ], [ 2356710.0, 5254436.0 ], [ 2356685.0, 5254427.0 ], [ 2356676.0, 5254413.0 ], [ 2356679.0, 5254391.0 ], [ 2356657.0, 5254371.0 ], [ 2356678.0, 5254350.0 ], [ 2356665.0, 5254292.0 ], [ 2356620.0, 5254252.0 ], [ 2356600.0, 5254255.0 ], [ 2356576.0, 5254271.0 ], [ 2356539.0, 5254264.0 ], [ 2356522.0, 5254225.0 ], [ 2356507.0, 5254231.0 ], [ 2356489.0, 5254189.0 ], [ 2356511.0, 5254157.0 ], [ 2356509.0, 5254124.0 ], [ 2356484.0, 5254107.0 ], [ 2356456.0, 5254120.0 ], [ 2356438.0, 5254070.0 ], [ 2356386.0, 5254024.0 ], [ 2356374.0, 5254019.0 ], [ 2356365.0, 5254015.0 ], [ 2356359.0, 5254005.0 ], [ 2356351.0, 5254002.0 ], [ 2356325.0, 5253989.0 ], [ 2356326.0, 5253984.0 ], [ 2356307.0, 5253973.0 ], [ 2356277.0, 5253958.0 ], [ 2356265.0, 5253952.0 ], [ 2356261.0, 5253942.0 ], [ 2356233.0, 5253899.0 ], [ 2356213.0, 5253884.0 ], [ 2356194.0, 5253849.0 ], [ 2356176.0, 5253826.0 ], [ 2356168.0, 5253820.0 ], [ 2356160.0, 5253809.0 ], [ 2356154.0, 5253803.0 ], [ 2356144.0, 5253808.0 ], [ 2356117.0, 5253782.0 ], [ 2356084.0, 5253750.0 ], [ 2356025.0, 5253692.0 ], [ 2356004.0, 5253678.0 ], [ 2355996.0, 5253665.0 ], [ 2355995.0, 5253648.0 ], [ 2355986.0, 5253625.0 ], [ 2355974.0, 5253610.0 ], [ 2355963.0, 5253603.0 ], [ 2355945.0, 5253600.0 ], [ 2355922.0, 5253590.0 ], [ 2355903.0, 5253575.0 ], [ 2355905.0, 5253568.0 ], [ 2355912.0, 5253556.0 ], [ 2355908.0, 5253551.0 ], [ 2355905.0, 5253547.0 ], [ 2355883.0, 5253562.0 ], [ 2355840.0, 5253610.0 ], [ 2355821.0, 5253630.0 ], [ 2355804.0, 5253650.0 ], [ 2355724.0, 5253743.0 ], [ 2355697.0, 5253771.0 ], [ 2355652.0, 5253818.0 ], [ 2355639.0, 5253881.0 ], [ 2355634.0, 5253912.0 ], [ 2355598.0, 5253958.0 ], [ 2355550.0, 5253994.0 ], [ 2355525.0, 5253999.0 ], [ 2355497.0, 5253996.0 ], [ 2355471.0, 5253988.0 ], [ 2355445.0, 5253979.0 ], [ 2355411.0, 5253963.0 ], [ 2355371.0, 5253950.0 ], [ 2355369.0, 5253976.0 ], [ 2355367.0, 5254043.0 ], [ 2355368.0, 5254081.0 ], [ 2355369.0, 5254135.0 ], [ 2355370.0, 5254203.0 ], [ 2355369.0, 5254276.0 ], [ 2355370.0, 5254279.0 ], [ 2355372.0, 5254339.0 ], [ 2355376.0, 5254409.0 ], [ 2355381.0, 5254475.0 ], [ 2355385.0, 5254544.0 ], [ 2355383.0, 5254598.0 ], [ 2355378.0, 5254668.0 ], [ 2355370.0, 5254734.0 ], [ 2355368.0, 5254771.0 ], [ 2355356.0, 5254770.0 ], [ 2355329.0, 5254764.0 ], [ 2355300.0, 5254759.0 ], [ 2355267.0, 5254754.0 ], [ 2355236.0, 5254759.0 ], [ 2355183.0, 5254771.0 ], [ 2355172.0, 5254795.0 ], [ 2355110.0, 5254796.0 ], [ 2355072.0, 5254790.0 ], [ 2355066.0, 5254790.0 ], [ 2355052.0, 5254791.0 ], [ 2355048.0, 5254844.0 ], [ 2355044.0, 5254891.0 ], [ 2355026.0, 5254888.0 ], [ 2354973.0, 5254883.0 ], [ 2354905.0, 5254880.0 ], [ 2354768.0, 5254872.0 ], [ 2354700.0, 5254864.0 ], [ 2354683.0, 5254917.0 ], [ 2354679.0, 5254932.0 ], [ 2354664.0, 5254977.0 ], [ 2354658.0, 5254998.0 ], [ 2354629.0, 5254989.0 ], [ 2354613.0, 5254981.0 ], [ 2354601.0, 5254975.0 ], [ 2354585.0, 5254967.0 ], [ 2354575.0, 5254961.0 ], [ 2354572.0, 5254958.0 ], [ 2354545.0, 5254941.0 ], [ 2354515.0, 5254925.0 ], [ 2354484.0, 5254908.0 ], [ 2354485.0, 5254904.0 ], [ 2354460.0, 5254885.0 ], [ 2354447.0, 5254907.0 ], [ 2354420.0, 5254950.0 ], [ 2354401.0, 5254985.0 ], [ 2354387.0, 5255010.0 ], [ 2354381.0, 5255023.0 ], [ 2354360.0, 5255065.0 ], [ 2354343.0, 5255101.0 ], [ 2354330.0, 5255123.0 ], [ 2354326.0, 5255127.0 ], [ 2354320.0, 5255140.0 ], [ 2354242.0, 5255055.0 ], [ 2354229.0, 5255037.0 ], [ 2354207.0, 5255004.0 ], [ 2354185.0, 5254982.0 ], [ 2354150.0, 5254954.0 ], [ 2354121.0, 5254905.0 ], [ 2354112.0, 5254891.0 ], [ 2354084.0, 5254837.0 ], [ 2354075.0, 5254822.0 ], [ 2354058.0, 5254783.0 ], [ 2354037.0, 5254739.0 ], [ 2354020.0, 5254699.0 ], [ 2353995.0, 5254636.0 ], [ 2353990.0, 5254621.0 ], [ 2353969.0, 5254571.0 ], [ 2353960.0, 5254549.0 ], [ 2353959.0, 5254546.0 ], [ 2353958.0, 5254545.0 ], [ 2353939.0, 5254495.0 ], [ 2353901.0, 5254399.0 ], [ 2353898.0, 5254393.0 ], [ 2353872.0, 5254325.0 ], [ 2353846.0, 5254261.0 ], [ 2353845.0, 5254261.0 ], [ 2353834.0, 5254235.0 ], [ 2353800.0, 5254164.0 ], [ 2353753.0, 5254067.0 ], [ 2353733.0, 5254013.0 ], [ 2353715.0, 5253973.0 ], [ 2353682.0, 5253894.0 ], [ 2353623.0, 5253757.0 ], [ 2353570.0, 5253633.0 ], [ 2353568.0, 5253628.0 ], [ 2353546.0, 5253565.0 ], [ 2353543.0, 5253555.0 ], [ 2353526.0, 5253504.0 ], [ 2353520.0, 5253482.0 ], [ 2353480.0, 5253467.0 ], [ 2353469.0, 5253474.0 ], [ 2353397.0, 5253318.0 ], [ 2353370.0, 5253259.0 ], [ 2353340.0, 5253195.0 ], [ 2353312.0, 5253131.0 ], [ 2353281.0, 5253070.0 ], [ 2353252.0, 5253009.0 ], [ 2353221.0, 5252948.0 ], [ 2353190.0, 5252888.0 ], [ 2353173.0, 5252855.0 ], [ 2353159.0, 5252828.0 ], [ 2353114.0, 5252742.0 ], [ 2353092.0, 5252703.0 ], [ 2353044.0, 5252616.0 ], [ 2353008.0, 5252623.0 ], [ 2353003.0, 5252624.0 ], [ 2352965.0, 5252633.0 ], [ 2352945.0, 5252636.0 ], [ 2352878.0, 5252650.0 ], [ 2352811.0, 5252664.0 ], [ 2352748.0, 5252677.0 ], [ 2352722.0, 5252681.0 ], [ 2352710.0, 5252683.0 ], [ 2352699.0, 5252685.0 ], [ 2352688.0, 5252687.0 ], [ 2352672.0, 5252688.0 ], [ 2352655.0, 5252692.0 ], [ 2352649.0, 5252695.0 ], [ 2352613.0, 5252701.0 ], [ 2352609.0, 5252701.0 ], [ 2352578.0, 5252709.0 ], [ 2352570.0, 5252709.0 ], [ 2352540.0, 5252718.0 ], [ 2352506.0, 5252726.0 ], [ 2352517.0, 5252781.0 ], [ 2352531.0, 5252840.0 ], [ 2352547.0, 5252888.0 ], [ 2352549.0, 5252914.0 ], [ 2352551.0, 5252919.0 ], [ 2352554.0, 5252955.0 ], [ 2352558.0, 5253011.0 ], [ 2352542.0, 5253028.0 ], [ 2352535.0, 5253045.0 ], [ 2352531.0, 5253056.0 ], [ 2352526.0, 5253067.0 ], [ 2352521.0, 5253066.0 ], [ 2352483.0, 5253050.0 ], [ 2352435.0, 5253026.0 ], [ 2352417.0, 5253017.0 ], [ 2352374.0, 5252996.0 ], [ 2352331.0, 5252975.0 ], [ 2352283.0, 5252951.0 ], [ 2352258.0, 5253005.0 ], [ 2352237.0, 5253054.0 ], [ 2352256.0, 5253060.0 ], [ 2352256.0, 5253062.0 ], [ 2352259.0, 5253062.0 ], [ 2352246.0, 5253113.0 ], [ 2352234.0, 5253148.0 ], [ 2352214.0, 5253199.0 ], [ 2352195.0, 5253260.0 ], [ 2352187.0, 5253293.0 ], [ 2352175.0, 5253338.0 ], [ 2352157.0, 5253405.0 ], [ 2352157.0, 5253410.0 ], [ 2352134.0, 5253392.0 ], [ 2352133.0, 5253390.0 ], [ 2352114.0, 5253373.0 ], [ 2352062.0, 5253330.0 ], [ 2352026.0, 5253299.0 ], [ 2351995.0, 5253273.0 ], [ 2351952.0, 5253236.0 ], [ 2351949.0, 5253234.0 ], [ 2351927.0, 5253267.0 ], [ 2351896.0, 5253327.0 ], [ 2351862.0, 5253387.0 ], [ 2351852.0, 5253409.0 ], [ 2351852.0, 5253411.0 ], [ 2351881.0, 5253428.0 ], [ 2351922.0, 5253444.0 ], [ 2351924.0, 5253472.0 ], [ 2351932.0, 5253551.0 ], [ 2351936.0, 5253578.0 ], [ 2351936.0, 5253594.0 ], [ 2351942.0, 5253648.0 ], [ 2351948.0, 5253702.0 ], [ 2351964.0, 5253802.0 ], [ 2351961.0, 5253804.0 ], [ 2351940.0, 5253812.0 ], [ 2351917.0, 5253818.0 ], [ 2351858.0, 5253828.0 ], [ 2351801.0, 5253836.0 ], [ 2351805.0, 5253846.0 ], [ 2351795.0, 5253847.0 ], [ 2351803.0, 5253853.0 ], [ 2351809.0, 5253871.0 ], [ 2351814.0, 5253899.0 ], [ 2351821.0, 5253931.0 ], [ 2351827.0, 5253964.0 ], [ 2351837.0, 5254021.0 ], [ 2351857.0, 5254101.0 ], [ 2351861.0, 5254116.0 ], [ 2351872.0, 5254171.0 ], [ 2351877.0, 5254221.0 ], [ 2351888.0, 5254272.0 ], [ 2351895.0, 5254300.0 ], [ 2351912.0, 5254352.0 ], [ 2351913.0, 5254363.0 ], [ 2351923.0, 5254411.0 ], [ 2351950.0, 5254523.0 ], [ 2351957.0, 5254576.0 ], [ 2351962.0, 5254625.0 ], [ 2351968.0, 5254679.0 ], [ 2351976.0, 5254737.0 ], [ 2351981.0, 5254787.0 ], [ 2351982.0, 5254806.0 ], [ 2351986.0, 5254832.0 ], [ 2351990.0, 5254853.0 ], [ 2352000.0, 5254907.0 ], [ 2352012.0, 5254971.0 ], [ 2352012.0, 5254974.0 ], [ 2352029.0, 5255037.0 ], [ 2352043.0, 5255071.0 ], [ 2352069.0, 5255133.0 ], [ 2352075.0, 5255154.0 ], [ 2352088.0, 5255179.0 ], [ 2352091.0, 5255198.0 ], [ 2352096.0, 5255236.0 ], [ 2352096.0, 5255257.0 ], [ 2352095.0, 5255273.0 ], [ 2352099.0, 5255285.0 ], [ 2352118.0, 5255333.0 ], [ 2352143.0, 5255378.0 ], [ 2352145.0, 5255379.0 ], [ 2352144.0, 5255380.0 ], [ 2352142.0, 5255382.0 ], [ 2351994.0, 5255459.0 ], [ 2352047.0, 5255521.0 ], [ 2352005.0, 5255553.0 ], [ 2351999.0, 5255557.0 ], [ 2352000.0, 5255554.0 ], [ 2351999.0, 5255553.0 ], [ 2351998.0, 5255554.0 ], [ 2351972.0, 5255490.0 ], [ 2351941.0, 5255505.0 ], [ 2351886.0, 5255543.0 ], [ 2351872.0, 5255561.0 ], [ 2351851.0, 5255587.0 ], [ 2351818.0, 5255628.0 ], [ 2351788.0, 5255656.0 ], [ 2351748.0, 5255697.0 ], [ 2351723.0, 5255745.0 ], [ 2351769.0, 5255768.0 ], [ 2351760.0, 5255787.0 ], [ 2351755.0, 5255801.0 ], [ 2351743.0, 5255798.0 ], [ 2351742.0, 5255800.0 ], [ 2351739.0, 5255808.0 ], [ 2351732.0, 5255823.0 ], [ 2351729.0, 5255833.0 ], [ 2351722.0, 5255849.0 ], [ 2351690.0, 5255846.0 ], [ 2351633.0, 5255844.0 ], [ 2351613.0, 5255873.0 ], [ 2351604.0, 5255886.0 ], [ 2351556.0, 5255889.0 ], [ 2351497.0, 5255893.0 ], [ 2351472.0, 5255925.0 ], [ 2351444.0, 5255970.0 ], [ 2351460.0, 5255988.0 ], [ 2351444.0, 5256028.0 ], [ 2351433.0, 5256063.0 ], [ 2351414.0, 5256129.0 ], [ 2351398.0, 5256182.0 ], [ 2351385.0, 5256235.0 ], [ 2351370.0, 5256287.0 ], [ 2351354.0, 5256339.0 ], [ 2351359.0, 5256349.0 ], [ 2351410.0, 5256372.0 ], [ 2351460.0, 5256379.0 ], [ 2351523.0, 5256388.0 ], [ 2351560.0, 5256405.0 ], [ 2351606.0, 5256430.0 ], [ 2351651.0, 5256460.0 ], [ 2351685.0, 5256482.0 ], [ 2351773.0, 5256543.0 ], [ 2351801.0, 5256564.0 ], [ 2351842.0, 5256597.0 ], [ 2351874.0, 5256625.0 ], [ 2351918.0, 5256657.0 ], [ 2351956.0, 5256684.0 ], [ 2351967.0, 5256697.0 ], [ 2351991.0, 5256720.0 ], [ 2352020.0, 5256744.0 ], [ 2352061.0, 5256776.0 ], [ 2352064.0, 5256777.0 ], [ 2352135.0, 5256850.0 ], [ 2352158.0, 5256868.0 ], [ 2352187.0, 5256890.0 ], [ 2352223.0, 5256914.0 ], [ 2352268.0, 5256937.0 ], [ 2352324.0, 5256969.0 ], [ 2352390.0, 5257005.0 ], [ 2352422.0, 5257018.0 ], [ 2352476.0, 5257030.0 ], [ 2352524.0, 5257033.0 ], [ 2352599.0, 5257040.0 ], [ 2352638.0, 5257042.0 ], [ 2352724.0, 5257052.0 ], [ 2352769.0, 5257061.0 ], [ 2352777.0, 5257063.0 ], [ 2352769.0, 5257074.0 ], [ 2352752.0, 5257100.0 ], [ 2352653.0, 5257232.0 ], [ 2352633.0, 5257259.0 ], [ 2352621.0, 5257272.0 ], [ 2352597.0, 5257301.0 ], [ 2352694.0, 5257390.0 ], [ 2352722.0, 5257421.0 ], [ 2352769.0, 5257468.0 ], [ 2352791.0, 5257492.0 ], [ 2352816.0, 5257518.0 ], [ 2352866.0, 5257564.0 ], [ 2352872.0, 5257567.0 ], [ 2352863.0, 5257582.0 ], [ 2352815.0, 5257642.0 ], [ 2352740.0, 5257650.0 ], [ 2352733.0, 5257650.0 ], [ 2352693.0, 5257678.0 ], [ 2352681.0, 5257681.0 ], [ 2352667.0, 5257680.0 ], [ 2352636.0, 5257669.0 ], [ 2352601.0, 5257658.0 ], [ 2352566.0, 5257646.0 ], [ 2352527.0, 5257626.0 ], [ 2352502.0, 5257617.0 ], [ 2352463.0, 5257600.0 ], [ 2352399.0, 5257586.0 ], [ 2352333.0, 5257556.0 ], [ 2352314.0, 5257553.0 ], [ 2352278.0, 5257538.0 ], [ 2352238.0, 5257534.0 ], [ 2352194.0, 5257527.0 ], [ 2352096.0, 5257507.0 ], [ 2352071.0, 5257500.0 ], [ 2352047.0, 5257465.0 ], [ 2352024.0, 5257458.0 ], [ 2351999.0, 5257447.0 ], [ 2351998.0, 5257444.0 ], [ 2351984.0, 5257440.0 ], [ 2351946.0, 5257417.0 ], [ 2351926.0, 5257394.0 ], [ 2351925.0, 5257366.0 ], [ 2351916.0, 5257354.0 ], [ 2351873.0, 5257341.0 ], [ 2351853.0, 5257343.0 ], [ 2351789.0, 5257381.0 ], [ 2351765.0, 5257376.0 ], [ 2351736.0, 5257366.0 ], [ 2351692.0, 5257378.0 ], [ 2351658.0, 5257373.0 ], [ 2351636.0, 5257357.0 ], [ 2351536.0, 5257384.0 ], [ 2351514.0, 5257395.0 ], [ 2351511.0, 5257401.0 ], [ 2351509.0, 5257427.0 ], [ 2351504.0, 5257433.0 ], [ 2351495.0, 5257434.0 ], [ 2351432.0, 5257445.0 ], [ 2351396.0, 5257441.0 ], [ 2351380.0, 5257440.0 ], [ 2351366.0, 5257458.0 ], [ 2351360.0, 5257460.0 ], [ 2351344.0, 5257454.0 ], [ 2351330.0, 5257427.0 ], [ 2351304.0, 5257424.0 ], [ 2351296.0, 5257403.0 ], [ 2351277.0, 5257400.0 ], [ 2351213.0, 5257364.0 ], [ 2351176.0, 5257344.0 ], [ 2351144.0, 5257332.0 ], [ 2351119.0, 5257347.0 ], [ 2351095.0, 5257351.0 ], [ 2351059.0, 5257367.0 ], [ 2351026.0, 5257415.0 ], [ 2351004.0, 5257416.0 ], [ 2351004.0, 5257405.0 ], [ 2351001.0, 5257394.0 ], [ 2350975.0, 5257382.0 ], [ 2350956.0, 5257381.0 ], [ 2350943.0, 5257383.0 ], [ 2350934.0, 5257385.0 ], [ 2350932.0, 5257393.0 ], [ 2350950.0, 5257421.0 ], [ 2350961.0, 5257436.0 ], [ 2350956.0, 5257441.0 ], [ 2350950.0, 5257443.0 ], [ 2350930.0, 5257437.0 ], [ 2350922.0, 5257443.0 ], [ 2350921.0, 5257458.0 ], [ 2350919.0, 5257462.0 ], [ 2350905.0, 5257457.0 ], [ 2350896.0, 5257441.0 ], [ 2350890.0, 5257433.0 ], [ 2350880.0, 5257437.0 ], [ 2350874.0, 5257439.0 ], [ 2350867.0, 5257441.0 ], [ 2350856.0, 5257427.0 ], [ 2350844.0, 5257427.0 ], [ 2350831.0, 5257431.0 ], [ 2350825.0, 5257428.0 ], [ 2350823.0, 5257424.0 ], [ 2350828.0, 5257401.0 ], [ 2350824.0, 5257394.0 ], [ 2350806.0, 5257390.0 ], [ 2350786.0, 5257383.0 ], [ 2350771.0, 5257381.0 ], [ 2350759.0, 5257380.0 ], [ 2350724.0, 5257366.0 ], [ 2350713.0, 5257357.0 ], [ 2350712.0, 5257335.0 ], [ 2350675.0, 5257339.0 ], [ 2350665.0, 5257352.0 ], [ 2350639.0, 5257368.0 ], [ 2350622.0, 5257356.0 ], [ 2350610.0, 5257337.0 ], [ 2350598.0, 5257330.0 ], [ 2350585.0, 5257328.0 ], [ 2350568.0, 5257314.0 ], [ 2350564.0, 5257308.0 ], [ 2350562.0, 5257302.0 ], [ 2350565.0, 5257280.0 ], [ 2350527.0, 5257271.0 ], [ 2350499.0, 5257278.0 ], [ 2350470.0, 5257260.0 ], [ 2350464.0, 5257247.0 ], [ 2350467.0, 5257231.0 ], [ 2350468.0, 5257209.0 ], [ 2350450.0, 5257196.0 ], [ 2350415.0, 5257195.0 ], [ 2350402.0, 5257186.0 ], [ 2350407.0, 5257175.0 ], [ 2350402.0, 5257168.0 ], [ 2350393.0, 5257166.0 ], [ 2350387.0, 5257165.0 ], [ 2350371.0, 5257164.0 ], [ 2350365.0, 5257166.0 ], [ 2350351.0, 5257165.0 ], [ 2350345.0, 5257170.0 ], [ 2350331.0, 5257167.0 ], [ 2350300.0, 5257169.0 ], [ 2350278.0, 5257137.0 ], [ 2350270.0, 5257133.0 ], [ 2350251.0, 5257137.0 ], [ 2350226.0, 5257160.0 ], [ 2350214.0, 5257160.0 ], [ 2350202.0, 5257126.0 ], [ 2350184.0, 5257126.0 ], [ 2350165.0, 5257113.0 ], [ 2350166.0, 5257081.0 ], [ 2350140.0, 5257085.0 ], [ 2350120.0, 5257077.0 ], [ 2350110.0, 5257088.0 ], [ 2350089.0, 5257088.0 ], [ 2350079.0, 5257095.0 ], [ 2350073.0, 5257090.0 ], [ 2350047.0, 5257073.0 ], [ 2350017.0, 5257044.0 ], [ 2350019.0, 5257039.0 ], [ 2350031.0, 5257038.0 ], [ 2350036.0, 5257028.0 ], [ 2350049.0, 5257022.0 ], [ 2350046.0, 5257015.0 ], [ 2350041.0, 5257010.0 ], [ 2350022.0, 5257003.0 ], [ 2350009.0, 5257004.0 ], [ 2350006.0, 5256980.0 ], [ 2349995.0, 5256961.0 ], [ 2349988.0, 5256941.0 ], [ 2349984.0, 5256937.0 ], [ 2349978.0, 5256932.0 ], [ 2349980.0, 5256900.0 ], [ 2349973.0, 5256896.0 ], [ 2349950.0, 5256901.0 ], [ 2349956.0, 5256914.0 ], [ 2349939.0, 5256925.0 ], [ 2349920.0, 5256939.0 ], [ 2349906.0, 5256911.0 ], [ 2349895.0, 5256908.0 ], [ 2349878.0, 5256913.0 ], [ 2349856.0, 5256920.0 ], [ 2349841.0, 5256924.0 ], [ 2349813.0, 5256934.0 ], [ 2349812.0, 5256968.0 ], [ 2349801.0, 5257000.0 ], [ 2349784.0, 5257037.0 ], [ 2349747.0, 5257126.0 ], [ 2349706.0, 5257225.0 ], [ 2349682.0, 5257288.0 ], [ 2349658.0, 5257350.0 ], [ 2349632.0, 5257413.0 ], [ 2349604.0, 5257474.0 ], [ 2349597.0, 5257495.0 ], [ 2349596.0, 5257497.0 ], [ 2349578.0, 5257539.0 ], [ 2349644.0, 5257566.0 ] ] ] } }
]
}
