{
"type": "FeatureCollection",
"name": "reykjavik-grid",
"crs": { "type": "name", "properties": { "name": "urn:ogc:def:crs:EPSG::3857" } },
"features": [
{ "type": "Feature", "properties": { "osmid": 167293126.0 }, "geometry": { "type": "Point", "coordinates": [ -2443405.0, 9383485.0 ] } },
{ "type": "Feature", "properties": { "osmid": 6381435268.0 }, "geometry": { "type": "Point", "coordinates": [ -2422116.0, 9372089.0 ] } },
{ "type": "Feature", "properties": { "osmid": 8844694608.0 }, "geometry": { "type": "Point", "coordinates": [ -2433054.0, 9386959.0 ] } },
{ "type": "Feature", "properties": { "osmid": 2420877103.0 }, "geometry": { "type": "Point", "coordinates": [ -2432185.0, 9379372.0 ] } },
{ "type": "Feature", "properties": { "osmid": 3825514452.0 }, "geometry": { "type": "Point", "coordinates": [ -2434208.0, 9383770.0 ] } },
{ "type": "Feature", "properties": { "osmid": 6397368171.0 }, "geometry": { "type": "Point", "coordinates": [ -2418487.0, 9387145.0 ] } },
{ "type": "Feature", "properties": { "osmid": 6577594470.0 }, "geometry": { "type": "Point", "coordinates": [ -2428820.0, 9383648.0 ] } },
{ "type": "Feature", "properties": { "osmid": 34164072.0 }, "geometry": { "type": "Point", "coordinates": [ -2442279.0, 9386697.0 ] } },
{ "type": "Feature", "properties": { "osmid": 26478200.0 }, "geometry": { "type": "Point", "coordinates": [ -2443237.0, 9388884.0 ] } },
{ "type": "Feature", "properties": { "osmid": 1818634442.0 }, "geometry": { "type": "Point", "coordinates": [ -2429389.0, 9382045.0 ] } },
{ "type": "Feature", "properties": { "osmid": 8842569446.0 }, "geometry": { "type": "Point", "coordinates": [ -2432013.0, 9384826.0 ] } },
{ "type": "Feature", "properties": { "osmid": 6601245586.0 }, "geometry": { "type": "Point", "coordinates": [ -2426340.0, 9375396.0 ] } },
{ "type": "Feature", "properties": { "osmid": 4344245904.0 }, "geometry": { "type": "Point", "coordinates": [ -2443800.0, 9387241.0 ] } },
{ "type": "Feature", "properties": { "osmid": 1819159230.0 }, "geometry": { "type": "Point", "coordinates": [ -2417715.0, 9374191.0 ] } },
{ "type": "Feature", "properties": { "osmid": 2458671079.0 }, "geometry": { "type": "Point", "coordinates": [ -2419412.0, 9374764.0 ] } },
{ "type": "Feature", "properties": { "osmid": 303937189.0 }, "geometry": { "type": "Point", "coordinates": [ -2422932.0, 9385069.0 ] } },
{ "type": "Feature", "properties": { "osmid": 6401229322.0 }, "geometry": { "type": "Point", "coordinates": [ -2417555.0, 9379457.0 ] } },
{ "type": "Feature", "properties": { "osmid": 304851887.0 }, "geometry": { "type": "Point", "coordinates": [ -2423558.0, 9377988.0 ] } },
{ "type": "Feature", "properties": { "osmid": 1819163493.0 }, "geometry": { "type": "Point", "coordinates": [ -2420472.0, 9376852.0 ] } },
{ "type": "Feature", "properties": { "osmid": 1773079148.0 }, "geometry": { "type": "Point", "coordinates": [ -2421581.0, 9373819.0 ] } },
{ "type": "Feature", "properties": { "osmid": 303936584.0 }, "geometry": { "type": "Point", "coordinates": [ -2421551.0, 9388297.0 ] } },
{ "type": "Feature", "properties": { "osmid": 1073636916.0 }, "geometry": { "type": "Point", "coordinates": [ -2425698.0, 9382334.0 ] } },
{ "type": "Feature", "properties": { "osmid": 8367331125.0 }, "geometry": { "type": "Point", "coordinates": [ -2416960.0, 9381268.0 ] } },
{ "type": "Feature", "properties": { "osmid": 1074030305.0 }, "geometry": { "type": "Point", "coordinates": [ -2424265.0, 9376585.0 ] } },
{ "type": "Feature", "properties": { "osmid": 1819152365.0 }, "geometry": { "type": "Point", "coordinates": [ -2418939.0, 9376305.0 ] } },
{ "type": "Feature", "properties": { "osmid": 613713587.0 }, "geometry": { "type": "Point", "coordinates": [ -2427505.0, 9392395.0 ] } },
{ "type": "Feature", "properties": { "osmid": 8255242750.0 }, "geometry": { "type": "Point", "coordinates": [ -2424660.0, 9380440.0 ] } },
{ "type": "Feature", "properties": { "osmid": 6311065626.0 }, "geometry": { "type": "Point", "coordinates": [ -2418052.0, 9378053.0 ] } },
{ "type": "Feature", "properties": { "osmid": 56620264.0 }, "geometry": { "type": "Point", "coordinates": [ -2415836.0, 9384546.0 ] } },
{ "type": "Feature", "properties": { "osmid": 483454191.0 }, "geometry": { "type": "Point", "coordinates": [ -2426823.0, 9364546.0 ] } },
{ "type": "Feature", "properties": { "osmid": 9491900419.0 }, "geometry": { "type": "Point", "coordinates": [ -2423283.0, 9368674.0 ] } },
{ "type": "Feature", "properties": { "osmid": 1514010834.0 }, "geometry": { "type": "Point", "coordinates": [ -2431688.0, 9386348.0 ] } },
{ "type": "Feature", "properties": { "osmid": 1854995998.0 }, "geometry": { "type": "Point", "coordinates": [ -2445917.0, 9386454.0 ] } },
{ "type": "Feature", "properties": { "osmid": 2308132639.0 }, "geometry": { "type": "Point", "coordinates": [ -2415080.0, 9386103.0 ] } },
{ "type": "Feature", "properties": { "osmid": 2313297499.0 }, "geometry": { "type": "Point", "coordinates": [ -2415652.0, 9380447.0 ] } },
{ "type": "Feature", "properties": { "osmid": 269177173.0 }, "geometry": { "type": "Point", "coordinates": [ -2442493.0, 9381543.0 ] } },
{ "type": "Feature", "properties": { "osmid": 11033465555.0 }, "geometry": { "type": "Point", "coordinates": [ -2427443.0, 9362879.0 ] } },
{ "type": "Feature", "properties": { "osmid": 1073434811.0 }, "geometry": { "type": "Point", "coordinates": [ -2420916.0, 9386213.0 ] } },
{ "type": "Feature", "properties": { "osmid": 1819158960.0 }, "geometry": { "type": "Point", "coordinates": [ -2415724.0, 9374925.0 ] } },
{ "type": "Feature", "properties": { "osmid": 10674257354.0 }, "geometry": { "type": "Point", "coordinates": [ -2420832.0, 9375566.0 ] } },
{ "type": "Feature", "properties": { "osmid": 1073792786.0 }, "geometry": { "type": "Point", "coordinates": [ -2416742.0, 9377100.0 ] } },
{ "type": "Feature", "properties": { "osmid": 434284090.0 }, "geometry": { "type": "Point", "coordinates": [ -2422517.0, 9366537.0 ] } },
{ "type": "Feature", "properties": { "osmid": 2410151755.0 }, "geometry": { "type": "Point", "coordinates": [ -2423618.0, 9383705.0 ] } },
{ "type": "Feature", "properties": { "osmid": 5796565766.0 }, "geometry": { "type": "Point", "coordinates": [ -2426557.0, 9389749.0 ] } },
{ "type": "Feature", "properties": { "osmid": 2313299888.0 }, "geometry": { "type": "Point", "coordinates": [ -2415049.0, 9382361.0 ] } },
{ "type": "Feature", "properties": { "osmid": 13774644923.0 }, "geometry": { "type": "Point", "coordinates": [ -2416614.0, 9386695.0 ] } },
{ "type": "Feature", "properties": { "osmid": 11033464842.0 }, "geometry": { "type": "Point", "coordinates": [ -2422629.0, 9370792.0 ] } },
{ "type": "Feature", "properties": { "osmid": 434283946.0 }, "geometry": { "type": "Point", "coordinates": [ -2419791.0, 9367610.0 ] } },
{ "type": "Feature", "properties": { "osmid": 434284628.0 }, "geometry": { "type": "Point", "coordinates": [ -2424013.0, 9367581.0 ] } },
{ "type": "Feature", "properties": { "osmid": 3011777637.0 }, "geometry": { "type": "Point", "coordinates": [ -2415045.0, 9371680.0 ] } },
{ "type": "Feature", "properties": { "osmid": 3460788615.0 }, "geometry": { "type": "Point", "coordinates": [ -2418273.0, 9372215.0 ] } },
{ "type": "Feature", "properties": { "osmid": 5879362616.0 }, "geometry": { "type": "Point", "coordinates": [ -2425487.0, 9362769.0 ] } },
{ "type": "Feature", "properties": { "osmid": 1761718784.0 }, "geometry": { "type": "Point", "coordinates": [ -2418562.0, 9366795.0 ] } },
{ "type": "Feature", "properties": { "osmid": 7049462513.0 }, "geometry": { "type": "Point", "coordinates": [ -2418781.0, 9385276.0 ] } },
{ "type": "Feature", "properties": { "osmid": 1851877644.0 }, "geometry": { "type": "Point", "coordinates": [ -2419941.0, 9378855.0 ] } },
{ "type": "Feature", "properties": { "osmid": 2313277311.0 }, "geometry": { "type": "Point", "coordinates": [ -2416067.0, 9373927.0 ] } },
{ "type": "Feature", "properties": { "osmid": 1717701324.0 }, "geometry": { "type": "Point", "coordinates": [ -2418139.0, 9383700.0 ] } },
{ "type": "Feature", "properties": { "osmid": 1073137274.0 }, "geometry": { "type": "Point", "coordinates": [ -2439023.0, 9380472.0 ] } },
{ "type": "Feature", "properties": { "osmid": 11033301176.0 }, "geometry": { "type": "Point", "coordinates": [ -2421189.0, 9369527.0 ] } },
{ "type": "Feature", "properties": { "osmid": 1072684015.0 }, "geometry": { "type": "Point", "coordinates": [ -2423199.0, 9380022.0 ] } },
{ "type": "Feature", "properties": { "osmid": 4960583372.0 }, "geometry": { "type": "Point", "coordinates": [ -2418817.0, 9380046.0 ] } },
{ "type": "Feature", "properties": { "osmid": 6311065806.0 }, "geometry": { "type": "Point", "coordinates": [ -2416901.0, 9376048.0 ] } },
{ "type": "Feature", "properties": { "osmid": 3460788609.0 }, "geometry": { "type": "Point", "coordinates": [ -2417080.0, 9371739.0 ] } },
{ "type": "Feature", "properties": { "osmid": 2079222759.0 }, "geometry": { "type": "Point", "coordinates": [ -2424809.0, 9364413.0 ] } },
{ "type": "Feature", "properties": { "osmid": 13290847767.0 }, "geometry": { "type": "Point", "coordinates": [ -2420020.0, 9387291.0 ] } },
{ "type": "Feature", "properties": { "osmid": 658057732.0 }, "geometry": { "type": "Point", "coordinates": [ -2413742.0, 9385781.0 ] } },
{ "type": "Feature", "properties": { "osmid": 1073256254.0 }, "geometry": { "type": "Point", "coordinates": [ -2421735.0, 9377836.0 ] } },
{ "type": "Feature", "properties": { "osmid": 13597693346.0 }, "geometry": { "type": "Point", "coordinates": [ -2428324.0, 9364825.0 ] } },
{ "type": "Feature", "properties": { "osmid": 1773078628.0 }, "geometry": { "type": "Point", "coordinates": [ -2419753.0, 9372728.0 ] } },
{ "type": "Feature", "properties": { "osmid": 7966099877.0 }, "geometry": { "type": "Point", "coordinates": [ -2421427.0, 9364103.0 ] } },
{ "type": "Feature", "properties": { "osmid": 4888287253.0 }, "geometry": { "type": "Point", "coordinates": [ -2423343.0, 9373874.0 ] } },
{ "type": "Feature", "properties": { "osmid": 1073674236.0 }, "geometry": { "type": "Point", "coordinates": [ -2426994.0, 9383429.0 ] } },
{ "type": "Feature", "properties": { "osmid": 5879361978.0 }, "geometry": { "type": "Point", "coordinates": [ -2426558.0, 9366353.0 ] } },
{ "type": "Feature", "properties": { "osmid": 21579344.0 }, "geometry": { "type": "Point", "coordinates": [ -2440800.0, 9386377.0 ] } },
{ "type": "Feature", "properties": { "osmid": 317887732.0 }, "geometry": { "type": "Point", "coordinates": [ -2441384.0, 9386090.0 ] } },
{ "type": "Feature", "properties": { "osmid": 13015191086.0 }, "geometry": { "type": "Point", "coordinates": [ -2440186.0, 9386007.0 ] } },
{ "type": "Feature", "properties": { "osmid": 31143034.0 }, "geometry": { "type": "Point", "coordinates": [ -2441462.0, 9386846.0 ] } },
{ "type": "Feature", "properties": { "osmid": 5559999399.0 }, "geometry": { "type": "Point", "coordinates": [ -2439850.0, 9386466.0 ] } },
{ "type": "Feature", "properties": { "osmid": 4254301784.0 }, "geometry": { "type": "Point", "coordinates": [ -2440220.0, 9387176.0 ] } },
{ "type": "Feature", "properties": { "osmid": 6764039065.0 }, "geometry": { "type": "Point", "coordinates": [ -2439579.0, 9386931.0 ] } },
{ "type": "Feature", "properties": { "osmid": 6693615046.0 }, "geometry": { "type": "Point", "coordinates": [ -2441782.0, 9387369.0 ] } },
{ "type": "Feature", "properties": { "osmid": 9515017580.0 }, "geometry": { "type": "Point", "coordinates": [ -2441182.0, 9384988.0 ] } },
{ "type": "Feature", "properties": { "osmid": 10229463822.0 }, "geometry": { "type": "Point", "coordinates": [ -2439351.0, 9386349.0 ] } },
{ "type": "Feature", "properties": { "osmid": 1756723508.0 }, "geometry": { "type": "Point", "coordinates": [ -2441398.0, 9387861.0 ] } },
{ "type": "Feature", "properties": { "osmid": 1466818294.0 }, "geometry": { "type": "Point", "coordinates": [ -2442232.0, 9385651.0 ] } },
{ "type": "Feature", "properties": { "osmid": 1071983198.0 }, "geometry": { "type": "Point", "coordinates": [ -2440454.0, 9384762.0 ] } },
{ "type": "Feature", "properties": { "osmid": 1064270539.0 }, "geometry": { "type": "Point", "coordinates": [ -2441941.0, 9385079.0 ] } },
{ "type": "Feature", "properties": { "osmid": 11178890938.0 }, "geometry": { "type": "Point", "coordinates": [ -2439053.0, 9386755.0 ] } },
{ "type": "Feature", "properties": { "osmid": 36155814.0 }, "geometry": { "type": "Point", "coordinates": [ -2439020.0, 9385903.0 ] } },
{ "type": "Feature", "properties": { "osmid": 7518559279.0 }, "geometry": { "type": "Point", "coordinates": [ -2441903.0, 9387932.0 ] } },
{ "type": "Feature", "properties": { "osmid": 1472975500.0 }, "geometry": { "type": "Point", "coordinates": [ -2442760.0, 9386197.0 ] } },
{ "type": "Feature", "properties": { "osmid": 34508851.0 }, "geometry": { "type": "Point", "coordinates": [ -2442338.0, 9387643.0 ] } },
{ "type": "Feature", "properties": { "osmid": 9017737602.0 }, "geometry": { "type": "Point", "coordinates": [ -2441123.0, 9384411.0 ] } },
{ "type": "Feature", "properties": { "osmid": 1071827576.0 }, "geometry": { "type": "Point", "coordinates": [ -2441627.0, 9384518.0 ] } },
{ "type": "Feature", "properties": { "osmid": 169087780.0 }, "geometry": { "type": "Point", "coordinates": [ -2442475.0, 9385136.0 ] } },
{ "type": "Feature", "properties": { "osmid": 280847550.0 }, "geometry": { "type": "Point", "coordinates": [ -2439920.0, 9384462.0 ] } },
{ "type": "Feature", "properties": { "osmid": 280851579.0 }, "geometry": { "type": "Point", "coordinates": [ -2440639.0, 9384259.0 ] } },
{ "type": "Feature", "properties": { "osmid": 1466818473.0 }, "geometry": { "type": "Point", "coordinates": [ -2442943.0, 9385696.0 ] } },
{ "type": "Feature", "properties": { "osmid": 537385987.0 }, "geometry": { "type": "Point", "coordinates": [ -2442851.0, 9387426.0 ] } },
{ "type": "Feature", "properties": { "osmid": 13792132718.0 }, "geometry": { "type": "Point", "coordinates": [ -2438400.0, 9385822.0 ] } },
{ "type": "Feature", "properties": { "osmid": 1071957633.0 }, "geometry": { "type": "Point", "coordinates": [ -2438851.0, 9384815.0 ] } },
{ "type": "Feature", "properties": { "osmid": 12345905659.0 }, "geometry": { "type": "Point", "coordinates": [ -2441589.0, 9383971.0 ] } },
{ "type": "Feature", "properties": { "osmid": 7625453099.0 }, "geometry": { "type": "Point", "coordinates": [ -2442794.0, 9387984.0 ] } },
{ "type": "Feature", "properties": { "osmid": 1071890952.0 }, "geometry": { "type": "Point", "coordinates": [ -2443339.0, 9386037.0 ] } },
{ "type": "Feature", "properties": { "osmid": 11541660532.0 }, "geometry": { "type": "Point", "coordinates": [ -2440023.0, 9383898.0 ] } },
{ "type": "Feature", "properties": { "osmid": 6577538130.0 }, "geometry": { "type": "Point", "coordinates": [ -2440608.0, 9383710.0 ] } },
{ "type": "Feature", "properties": { "osmid": 280383772.0 }, "geometry": { "type": "Point", "coordinates": [ -2439133.0, 9384231.0 ] } },
{ "type": "Feature", "properties": { "osmid": 5048627585.0 }, "geometry": { "type": "Point", "coordinates": [ -2438058.0, 9386886.0 ] } },
{ "type": "Feature", "properties": { "osmid": 7644114791.0 }, "geometry": { "type": "Point", "coordinates": [ -2442954.0, 9384496.0 ] } },
{ "type": "Feature", "properties": { "osmid": 5577287349.0 }, "geometry": { "type": "Point", "coordinates": [ -2443350.0, 9384895.0 ] } },
{ "type": "Feature", "properties": { "osmid": 11172494562.0 }, "geometry": { "type": "Point", "coordinates": [ -2441079.0, 9383426.0 ] } },
{ "type": "Feature", "properties": { "osmid": 845205921.0 }, "geometry": { "type": "Point", "coordinates": [ -2443362.0, 9388138.0 ] } },
{ "type": "Feature", "properties": { "osmid": 1505077213.0 }, "geometry": { "type": "Point", "coordinates": [ -2443921.0, 9385895.0 ] } },
{ "type": "Feature", "properties": { "osmid": 8040135514.0 }, "geometry": { "type": "Point", "coordinates": [ -2440463.0, 9383224.0 ] } },
{ "type": "Feature", "properties": { "osmid": 1071851882.0 }, "geometry": { "type": "Point", "coordinates": [ -2437579.0, 9386372.0 ] } },
{ "type": "Feature", "properties": { "osmid": 1073136192.0 }, "geometry": { "type": "Point", "coordinates": [ -2438569.0, 9383997.0 ] } },
{ "type": "Feature", "properties": { "osmid": 3865626575.0 }, "geometry": { "type": "Point", "coordinates": [ -2439339.0, 9383347.0 ] } },
{ "type": "Feature", "properties": { "osmid": 10281369464.0 }, "geometry": { "type": "Point", "coordinates": [ -2443483.0, 9384299.0 ] } },
{ "type": "Feature", "properties": { "osmid": 5049703984.0 }, "geometry": { "type": "Point", "coordinates": [ -2437444.0, 9386978.0 ] } },
{ "type": "Feature", "properties": { "osmid": 1223211741.0 }, "geometry": { "type": "Point", "coordinates": [ -2444032.0, 9385210.0 ] } },
{ "type": "Feature", "properties": { "osmid": 9516661591.0 }, "geometry": { "type": "Point", "coordinates": [ -2441506.0, 9382978.0 ] } },
{ "type": "Feature", "properties": { "osmid": 280860496.0 }, "geometry": { "type": "Point", "coordinates": [ -2440965.0, 9382881.0 ] } },
{ "type": "Feature", "properties": { "osmid": 1071745928.0 }, "geometry": { "type": "Point", "coordinates": [ -2443933.0, 9384689.0 ] } },
{ "type": "Feature", "properties": { "osmid": 1073582620.0 }, "geometry": { "type": "Point", "coordinates": [ -2443916.0, 9388138.0 ] } },
{ "type": "Feature", "properties": { "osmid": 35622585.0 }, "geometry": { "type": "Point", "coordinates": [ -2437970.0, 9384165.0 ] } },
{ "type": "Feature", "properties": { "osmid": 1073118172.0 }, "geometry": { "type": "Point", "coordinates": [ -2444485.0, 9385994.0 ] } },
{ "type": "Feature", "properties": { "osmid": 1071784842.0 }, "geometry": { "type": "Point", "coordinates": [ -2437091.0, 9386549.0 ] } },
{ "type": "Feature", "properties": { "osmid": 1073739006.0 }, "geometry": { "type": "Point", "coordinates": [ -2437191.0, 9385503.0 ] } },
{ "type": "Feature", "properties": { "osmid": 6088585173.0 }, "geometry": { "type": "Point", "coordinates": [ -2440097.0, 9382713.0 ] } },
{ "type": "Feature", "properties": { "osmid": 4194422327.0 }, "geometry": { "type": "Point", "coordinates": [ -2437179.0, 9387426.0 ] } },
{ "type": "Feature", "properties": { "osmid": 1071771167.0 }, "geometry": { "type": "Point", "coordinates": [ -2443839.0, 9388662.0 ] } },
{ "type": "Feature", "properties": { "osmid": 1203110608.0 }, "geometry": { "type": "Point", "coordinates": [ -2442535.0, 9389771.0 ] } },
{ "type": "Feature", "properties": { "osmid": 1073303799.0 }, "geometry": { "type": "Point", "coordinates": [ -2438202.0, 9383556.0 ] } },
{ "type": "Feature", "properties": { "osmid": 1407686011.0 }, "geometry": { "type": "Point", "coordinates": [ -2437158.0, 9384985.0 ] } },
{ "type": "Feature", "properties": { "osmid": 5531931462.0 }, "geometry": { "type": "Point", "coordinates": [ -2444776.0, 9386884.0 ] } },
{ "type": "Feature", "properties": { "osmid": 11288537244.0 }, "geometry": { "type": "Point", "coordinates": [ -2436847.0, 9387044.0 ] } },
{ "type": "Feature", "properties": { "osmid": 35924502.0 }, "geometry": { "type": "Point", "coordinates": [ -2444422.0, 9388218.0 ] } },
{ "type": "Feature", "properties": { "osmid": 1072738362.0 }, "geometry": { "type": "Point", "coordinates": [ -2436746.0, 9385804.0 ] } },
{ "type": "Feature", "properties": { "osmid": 26770019.0 }, "geometry": { "type": "Point", "coordinates": [ -2444756.0, 9385210.0 ] } },
{ "type": "Feature", "properties": { "osmid": 288037537.0 }, "geometry": { "type": "Point", "coordinates": [ -2444440.0, 9384438.0 ] } },
{ "type": "Feature", "properties": { "osmid": 1071993486.0 }, "geometry": { "type": "Point", "coordinates": [ -2444961.0, 9386301.0 ] } },
{ "type": "Feature", "properties": { "osmid": 1071878078.0 }, "geometry": { "type": "Point", "coordinates": [ -2437611.0, 9383688.0 ] } },
{ "type": "Feature", "properties": { "osmid": 288037501.0 }, "geometry": { "type": "Point", "coordinates": [ -2444940.0, 9385700.0 ] } },
{ "type": "Feature", "properties": { "osmid": 1071878040.0 }, "geometry": { "type": "Point", "coordinates": [ -2444886.0, 9387685.0 ] } },
{ "type": "Feature", "properties": { "osmid": 5538021281.0 }, "geometry": { "type": "Point", "coordinates": [ -2436799.0, 9387934.0 ] } },
{ "type": "Feature", "properties": { "osmid": 5610474617.0 }, "geometry": { "type": "Point", "coordinates": [ -2444326.0, 9383919.0 ] } },
{ "type": "Feature", "properties": { "osmid": 786082140.0 }, "geometry": { "type": "Point", "coordinates": [ -2443461.0, 9389753.0 ] } },
{ "type": "Feature", "properties": { "osmid": 1073089492.0 }, "geometry": { "type": "Point", "coordinates": [ -2438259.0, 9382869.0 ] } },
{ "type": "Feature", "properties": { "osmid": 5000050191.0 }, "geometry": { "type": "Point", "coordinates": [ -2440776.0, 9382027.0 ] } },
{ "type": "Feature", "properties": { "osmid": 1072730614.0 }, "geometry": { "type": "Point", "coordinates": [ -2436721.0, 9384709.0 ] } },
{ "type": "Feature", "properties": { "osmid": 1073581819.0 }, "geometry": { "type": "Point", "coordinates": [ -2443436.0, 9382734.0 ] } },
{ "type": "Feature", "properties": { "osmid": 26756915.0 }, "geometry": { "type": "Point", "coordinates": [ -2445366.0, 9386663.0 ] } },
{ "type": "Feature", "properties": { "osmid": 6015847973.0 }, "geometry": { "type": "Point", "coordinates": [ -2438796.0, 9382217.0 ] } },
{ "type": "Feature", "properties": { "osmid": 7807488992.0 }, "geometry": { "type": "Point", "coordinates": [ -2445097.0, 9388146.0 ] } },
{ "type": "Feature", "properties": { "osmid": 2413438255.0 }, "geometry": { "type": "Point", "coordinates": [ -2436189.0, 9385663.0 ] } },
{ "type": "Feature", "properties": { "osmid": 1073681254.0 }, "geometry": { "type": "Point", "coordinates": [ -2444431.0, 9383415.0 ] } },
{ "type": "Feature", "properties": { "osmid": 1399137568.0 }, "geometry": { "type": "Point", "coordinates": [ -2436097.0, 9387322.0 ] } },
{ "type": "Feature", "properties": { "osmid": 2391426085.0 }, "geometry": { "type": "Point", "coordinates": [ -2435986.0, 9386164.0 ] } },
{ "type": "Feature", "properties": { "osmid": 3878779963.0 }, "geometry": { "type": "Point", "coordinates": [ -2436657.0, 9383805.0 ] } },
{ "type": "Feature", "properties": { "osmid": 1073632989.0 }, "geometry": { "type": "Point", "coordinates": [ -2436994.0, 9383257.0 ] } },
{ "type": "Feature", "properties": { "osmid": 5921639827.0 }, "geometry": { "type": "Point", "coordinates": [ -2437951.0, 9382272.0 ] } },
{ "type": "Feature", "properties": { "osmid": 6104032260.0 }, "geometry": { "type": "Point", "coordinates": [ -2445563.0, 9387916.0 ] } },
{ "type": "Feature", "properties": { "osmid": 1071764304.0 }, "geometry": { "type": "Point", "coordinates": [ -2443726.0, 9382257.0 ] } },
{ "type": "Feature", "properties": { "osmid": 5606803872.0 }, "geometry": { "type": "Point", "coordinates": [ -2435971.0, 9384823.0 ] } },
{ "type": "Feature", "properties": { "osmid": 1071896506.0 }, "geometry": { "type": "Point", "coordinates": [ -2444285.0, 9382628.0 ] } },
{ "type": "Feature", "properties": { "osmid": 13389467449.0 }, "geometry": { "type": "Point", "coordinates": [ -2443351.0, 9381883.0 ] } },
{ "type": "Feature", "properties": { "osmid": 1073093368.0 }, "geometry": { "type": "Point", "coordinates": [ -2437184.0, 9382581.0 ] } },
{ "type": "Feature", "properties": { "osmid": 1809891985.0 }, "geometry": { "type": "Point", "coordinates": [ -2435813.0, 9388049.0 ] } },
{ "type": "Feature", "properties": { "osmid": 1232692736.0 }, "geometry": { "type": "Point", "coordinates": [ -2440540.0, 9381093.0 ] } },
{ "type": "Feature", "properties": { "osmid": 1071811211.0 }, "geometry": { "type": "Point", "coordinates": [ -2435621.0, 9385267.0 ] } },
{ "type": "Feature", "properties": { "osmid": 1396532831.0 }, "geometry": { "type": "Point", "coordinates": [ -2441354.0, 9381074.0 ] } },
{ "type": "Feature", "properties": { "osmid": 1811619814.0 }, "geometry": { "type": "Point", "coordinates": [ -2435461.0, 9386624.0 ] } },
{ "type": "Feature", "properties": { "osmid": 1073256665.0 }, "geometry": { "type": "Point", "coordinates": [ -2437434.0, 9382121.0 ] } },
{ "type": "Feature", "properties": { "osmid": 1251356822.0 }, "geometry": { "type": "Point", "coordinates": [ -2446141.0, 9387489.0 ] } },
{ "type": "Feature", "properties": { "osmid": 251963457.0 }, "geometry": { "type": "Point", "coordinates": [ -2438401.0, 9381374.0 ] } },
{ "type": "Feature", "properties": { "osmid": 5534131537.0 }, "geometry": { "type": "Point", "coordinates": [ -2437717.0, 9381632.0 ] } },
{ "type": "Feature", "properties": { "osmid": 1073453346.0 }, "geometry": { "type": "Point", "coordinates": [ -2436233.0, 9383029.0 ] } },
{ "type": "Feature", "properties": { "osmid": 1073246834.0 }, "geometry": { "type": "Point", "coordinates": [ -2435124.0, 9385615.0 ] } },
{ "type": "Feature", "properties": { "osmid": 1071723000.0 }, "geometry": { "type": "Point", "coordinates": [ -2435663.0, 9389058.0 ] } },
{ "type": "Feature", "properties": { "osmid": 1073694204.0 }, "geometry": { "type": "Point", "coordinates": [ -2435085.0, 9387394.0 ] } },
{ "type": "Feature", "properties": { "osmid": 310242630.0 }, "geometry": { "type": "Point", "coordinates": [ -2436591.0, 9382339.0 ] } },
{ "type": "Feature", "properties": { "osmid": 1071789121.0 }, "geometry": { "type": "Point", "coordinates": [ -2435353.0, 9384241.0 ] } },
{ "type": "Feature", "properties": { "osmid": 1071925242.0 }, "geometry": { "type": "Point", "coordinates": [ -2446505.0, 9387970.0 ] } },
{ "type": "Feature", "properties": { "osmid": 1072001771.0 }, "geometry": { "type": "Point", "coordinates": [ -2435544.0, 9383517.0 ] } },
{ "type": "Feature", "properties": { "osmid": 251963476.0 }, "geometry": { "type": "Point", "coordinates": [ -2437960.0, 9381072.0 ] } },
{ "type": "Feature", "properties": { "osmid": 11866950364.0 }, "geometry": { "type": "Point", "coordinates": [ -2435008.0, 9388163.0 ] } },
{ "type": "Feature", "properties": { "osmid": 1073524898.0 }, "geometry": { "type": "Point", "coordinates": [ -2436598.0, 9381837.0 ] } },
{ "type": "Feature", "properties": { "osmid": 2294598378.0 }, "geometry": { "type": "Point", "coordinates": [ -2437254.0, 9381211.0 ] } },
{ "type": "Feature", "properties": { "osmid": 1243941027.0 }, "geometry": { "type": "Point", "coordinates": [ -2435908.0, 9382409.0 ] } },
{ "type": "Feature", "properties": { "osmid": 1233588910.0 }, "geometry": { "type": "Point", "coordinates": [ -2438429.0, 9380484.0 ] } },
{ "type": "Feature", "properties": { "osmid": 1252082496.0 }, "geometry": { "type": "Point", "coordinates": [ -2434449.0, 9386139.0 ] } },
{ "type": "Feature", "properties": { "osmid": 12694937278.0 }, "geometry": { "type": "Point", "coordinates": [ -2434812.0, 9384083.0 ] } },
{ "type": "Feature", "properties": { "osmid": 1073761408.0 }, "geometry": { "type": "Point", "coordinates": [ -2434460.0, 9385078.0 ] } },
{ "type": "Feature", "properties": { "osmid": 1073504305.0 }, "geometry": { "type": "Point", "coordinates": [ -2447117.0, 9387795.0 ] } },
{ "type": "Feature", "properties": { "osmid": 4703580344.0 }, "geometry": { "type": "Point", "coordinates": [ -2436054.0, 9381843.0 ] } },
{ "type": "Feature", "properties": { "osmid": 1073183614.0 }, "geometry": { "type": "Point", "coordinates": [ -2435202.0, 9382818.0 ] } },
{ "type": "Feature", "properties": { "osmid": 6402585356.0 }, "geometry": { "type": "Point", "coordinates": [ -2437905.0, 9380391.0 ] } },
{ "type": "Feature", "properties": { "osmid": 1072809788.0 }, "geometry": { "type": "Point", "coordinates": [ -2434388.0, 9384418.0 ] } },
{ "type": "Feature", "properties": { "osmid": 12694993521.0 }, "geometry": { "type": "Point", "coordinates": [ -2434738.0, 9383454.0 ] } },
{ "type": "Feature", "properties": { "osmid": 1246473742.0 }, "geometry": { "type": "Point", "coordinates": [ -2433910.0, 9386550.0 ] } },
{ "type": "Feature", "properties": { "osmid": 1229548411.0 }, "geometry": { "type": "Point", "coordinates": [ -2435329.0, 9382175.0 ] } },
{ "type": "Feature", "properties": { "osmid": 9218666158.0 }, "geometry": { "type": "Point", "coordinates": [ -2437275.0, 9380439.0 ] } },
{ "type": "Feature", "properties": { "osmid": 1246473691.0 }, "geometry": { "type": "Point", "coordinates": [ -2434468.0, 9389361.0 ] } },
{ "type": "Feature", "properties": { "osmid": 6088558615.0 }, "geometry": { "type": "Point", "coordinates": [ -2433952.0, 9384858.0 ] } },
{ "type": "Feature", "properties": { "osmid": 1245027796.0 }, "geometry": { "type": "Point", "coordinates": [ -2435588.0, 9381523.0 ] } },
{ "type": "Feature", "properties": { "osmid": 1073136431.0 }, "geometry": { "type": "Point", "coordinates": [ -2433748.0, 9385348.0 ] } },
{ "type": "Feature", "properties": { "osmid": 5534131552.0 }, "geometry": { "type": "Point", "coordinates": [ -2436014.0, 9381095.0 ] } },
{ "type": "Feature", "properties": { "osmid": 6720067658.0 }, "geometry": { "type": "Point", "coordinates": [ -2437797.0, 9379831.0 ] } },
{ "type": "Feature", "properties": { "osmid": 1072979750.0 }, "geometry": { "type": "Point", "coordinates": [ -2434614.0, 9382612.0 ] } },
{ "type": "Feature", "properties": { "osmid": 1943751387.0 }, "geometry": { "type": "Point", "coordinates": [ -2434173.0, 9383262.0 ] } },
{ "type": "Feature", "properties": { "osmid": 1246473528.0 }, "geometry": { "type": "Point", "coordinates": [ -2433660.0, 9384416.0 ] } },
{ "type": "Feature", "properties": { "osmid": 1073582534.0 }, "geometry": { "type": "Point", "coordinates": [ -2436382.0, 9380367.0 ] } },
{ "type": "Feature", "properties": { "osmid": 5097468268.0 }, "geometry": { "type": "Point", "coordinates": [ -2435346.0, 9380932.0 ] } },
{ "type": "Feature", "properties": { "osmid": 296456235.0 }, "geometry": { "type": "Point", "coordinates": [ -2433981.0, 9389984.0 ] } },
{ "type": "Feature", "properties": { "osmid": 1072762681.0 }, "geometry": { "type": "Point", "coordinates": [ -2433887.0, 9382849.0 ] } },
{ "type": "Feature", "properties": { "osmid": 5822926190.0 }, "geometry": { "type": "Point", "coordinates": [ -2433636.0, 9383381.0 ] } },
{ "type": "Feature", "properties": { "osmid": 1246473847.0 }, "geometry": { "type": "Point", "coordinates": [ -2433202.0, 9384770.0 ] } },
{ "type": "Feature", "properties": { "osmid": 1239460762.0 }, "geometry": { "type": "Point", "coordinates": [ -2436577.0, 9379843.0 ] } },
{ "type": "Feature", "properties": { "osmid": 1245027619.0 }, "geometry": { "type": "Point", "coordinates": [ -2434295.0, 9381971.0 ] } },
{ "type": "Feature", "properties": { "osmid": 2518146535.0 }, "geometry": { "type": "Point", "coordinates": [ -2433895.0, 9382308.0 ] } },
{ "type": "Feature", "properties": { "osmid": 8933294499.0 }, "geometry": { "type": "Point", "coordinates": [ -2434563.0, 9381209.0 ] } },
{ "type": "Feature", "properties": { "osmid": 1072683383.0 }, "geometry": { "type": "Point", "coordinates": [ -2432643.0, 9386346.0 ] } },
{ "type": "Feature", "properties": { "osmid": 1071912673.0 }, "geometry": { "type": "Point", "coordinates": [ -2432708.0, 9384988.0 ] } },
{ "type": "Feature", "properties": { "osmid": 1239460157.0 }, "geometry": { "type": "Point", "coordinates": [ -2435692.0, 9379697.0 ] } },
{ "type": "Feature", "properties": { "osmid": 2191853482.0 }, "geometry": { "type": "Point", "coordinates": [ -2432429.0, 9385545.0 ] } },
{ "type": "Feature", "properties": { "osmid": 6486040166.0 }, "geometry": { "type": "Point", "coordinates": [ -2433275.0, 9382499.0 ] } },
{ "type": "Feature", "properties": { "osmid": 323460637.0 }, "geometry": { "type": "Point", "coordinates": [ -2434980.0, 9379928.0 ] } },
{ "type": "Feature", "properties": { "osmid": 1073067747.0 }, "geometry": { "type": "Point", "coordinates": [ -2434097.0, 9380835.0 ] } },
{ "type": "Feature", "properties": { "osmid": 1073615102.0 }, "geometry": { "type": "Point", "coordinates": [ -2433294.0, 9381863.0 ] } },
{ "type": "Feature", "properties": { "osmid": 1072809045.0 }, "geometry": { "type": "Point", "coordinates": [ -2432375.0, 9383890.0 ] } },
{ "type": "Feature", "properties": { "osmid": 1071772092.0 }, "geometry": { "type": "Point", "coordinates": [ -2432743.0, 9382591.0 ] } },
{ "type": "Feature", "properties": { "osmid": 1071990183.0 }, "geometry": { "type": "Point", "coordinates": [ -2432391.0, 9383329.0 ] } },
{ "type": "Feature", "properties": { "osmid": 9138727270.0 }, "geometry": { "type": "Point", "coordinates": [ -2432744.0, 9382059.0 ] } },
{ "type": "Feature", "properties": { "osmid": 11708804743.0 }, "geometry": { "type": "Point", "coordinates": [ -2433366.0, 9380841.0 ] } },
{ "type": "Feature", "properties": { "osmid": 11179618241.0 }, "geometry": { "type": "Point", "coordinates": [ -2431833.0, 9383587.0 ] } },
{ "type": "Feature", "properties": { "osmid": 2386493012.0 }, "geometry": { "type": "Point", "coordinates": [ -2434234.0, 9379555.0 ] } },
{ "type": "Feature", "properties": { "osmid": 8047958134.0 }, "geometry": { "type": "Point", "coordinates": [ -2431537.0, 9384177.0 ] } },
{ "type": "Feature", "properties": { "osmid": 12661026565.0 }, "geometry": { "type": "Point", "coordinates": [ -2431917.0, 9382744.0 ] } },
{ "type": "Feature", "properties": { "osmid": 1072773992.0 }, "geometry": { "type": "Point", "coordinates": [ -2433745.0, 9379812.0 ] } },
{ "type": "Feature", "properties": { "osmid": 1073040956.0 }, "geometry": { "type": "Point", "coordinates": [ -2432796.0, 9380869.0 ] } },
{ "type": "Feature", "properties": { "osmid": 1233105051.0 }, "geometry": { "type": "Point", "coordinates": [ -2431331.0, 9383135.0 ] } },
{ "type": "Feature", "properties": { "osmid": 1073645587.0 }, "geometry": { "type": "Point", "coordinates": [ -2432760.0, 9380344.0 ] } },
{ "type": "Feature", "properties": { "osmid": 286891146.0 }, "geometry": { "type": "Point", "coordinates": [ -2433005.0, 9379759.0 ] } },
{ "type": "Feature", "properties": { "osmid": 1072732760.0 }, "geometry": { "type": "Point", "coordinates": [ -2432124.0, 9380913.0 ] } },
{ "type": "Feature", "properties": { "osmid": 1073009312.0 }, "geometry": { "type": "Point", "coordinates": [ -2431658.0, 9381532.0 ] } },
{ "type": "Feature", "properties": { "osmid": 2435910259.0 }, "geometry": { "type": "Point", "coordinates": [ -2430710.0, 9383120.0 ] } },
{ "type": "Feature", "properties": { "osmid": 8858543462.0 }, "geometry": { "type": "Point", "coordinates": [ -2432046.0, 9380056.0 ] } },
{ "type": "Feature", "properties": { "osmid": 10973591917.0 }, "geometry": { "type": "Point", "coordinates": [ -2431227.0, 9380877.0 ] } },
{ "type": "Feature", "properties": { "osmid": 1073349555.0 }, "geometry": { "type": "Point", "coordinates": [ -2429353.0, 9385615.0 ] } },
{ "type": "Feature", "properties": { "osmid": 6301889173.0 }, "geometry": { "type": "Point", "coordinates": [ -2431080.0, 9380274.0 ] } },
{ "type": "Feature", "properties": { "osmid": 1071854938.0 }, "geometry": { "type": "Point", "coordinates": [ -2429721.0, 9383362.0 ] } },
{ "type": "Feature", "properties": { "osmid": 1393069969.0 }, "geometry": { "type": "Point", "coordinates": [ -2429230.0, 9386809.0 ] } },
{ "type": "Feature", "properties": { "osmid": 1073615170.0 }, "geometry": { "type": "Point", "coordinates": [ -2431459.0, 9379521.0 ] } },
{ "type": "Feature", "properties": { "osmid": 1072004532.0 }, "geometry": { "type": "Point", "coordinates": [ -2431758.0, 9379056.0 ] } },
{ "type": "Feature", "properties": { "osmid": 1073367727.0 }, "geometry": { "type": "Point", "coordinates": [ -2429132.0, 9384839.0 ] } },
{ "type": "Feature", "properties": { "osmid": 1072741864.0 }, "geometry": { "type": "Point", "coordinates": [ -2428795.0, 9385934.0 ] } },
{ "type": "Feature", "properties": { "osmid": 1073694050.0 }, "geometry": { "type": "Point", "coordinates": [ -2428812.0, 9385337.0 ] } },
{ "type": "Feature", "properties": { "osmid": 1073368492.0 }, "geometry": { "type": "Point", "coordinates": [ -2428771.0, 9384476.0 ] } },
{ "type": "Feature", "properties": { "osmid": 10683896705.0 }, "geometry": { "type": "Point", "coordinates": [ -2429071.0, 9382886.0 ] } },
{ "type": "Feature", "properties": { "osmid": 1073750500.0 }, "geometry": { "type": "Point", "coordinates": [ -2429852.0, 9380775.0 ] } },
{ "type": "Feature", "properties": { "osmid": 1072041836.0 }, "geometry": { "type": "Point", "coordinates": [ -2430039.0, 9380272.0 ] } },
{ "type": "Feature", "properties": { "osmid": 1073612518.0 }, "geometry": { "type": "Point", "coordinates": [ -2429405.0, 9381385.0 ] } },
{ "type": "Feature", "properties": { "osmid": 1073755343.0 }, "geometry": { "type": "Point", "coordinates": [ -2431268.0, 9378324.0 ] } },
{ "type": "Feature", "properties": { "osmid": 1072770796.0 }, "geometry": { "type": "Point", "coordinates": [ -2430696.0, 9379055.0 ] } },
{ "type": "Feature", "properties": { "osmid": 12305131631.0 }, "geometry": { "type": "Point", "coordinates": [ -2433568.0, 9376192.0 ] } },
{ "type": "Feature", "properties": { "osmid": 1203903644.0 }, "geometry": { "type": "Point", "coordinates": [ -2428345.0, 9384993.0 ] } },
{ "type": "Feature", "properties": { "osmid": 1072034221.0 }, "geometry": { "type": "Point", "coordinates": [ -2431724.0, 9377668.0 ] } },
{ "type": "Feature", "properties": { "osmid": 1073351589.0 }, "geometry": { "type": "Point", "coordinates": [ -2428379.0, 9384086.0 ] } },
{ "type": "Feature", "properties": { "osmid": 1840469931.0 }, "geometry": { "type": "Point", "coordinates": [ -2428053.0, 9386402.0 ] } },
{ "type": "Feature", "properties": { "osmid": 1073716812.0 }, "geometry": { "type": "Point", "coordinates": [ -2431881.0, 9377186.0 ] } },
{ "type": "Feature", "properties": { "osmid": 3866188781.0 }, "geometry": { "type": "Point", "coordinates": [ -2428075.0, 9384516.0 ] } },
{ "type": "Feature", "properties": { "osmid": 1073751016.0 }, "geometry": { "type": "Point", "coordinates": [ -2429249.0, 9380708.0 ] } },
{ "type": "Feature", "properties": { "osmid": 823901298.0 }, "geometry": { "type": "Point", "coordinates": [ -2427924.0, 9385622.0 ] } },
{ "type": "Feature", "properties": { "osmid": 4278390138.0 }, "geometry": { "type": "Point", "coordinates": [ -2428534.0, 9382196.0 ] } },
{ "type": "Feature", "properties": { "osmid": 12677057528.0 }, "geometry": { "type": "Point", "coordinates": [ -2427988.0, 9388371.0 ] } },
{ "type": "Feature", "properties": { "osmid": 11146078034.0 }, "geometry": { "type": "Point", "coordinates": [ -2432448.0, 9376440.0 ] } },
{ "type": "Feature", "properties": { "osmid": 5675970961.0 }, "geometry": { "type": "Point", "coordinates": [ -2430098.0, 9379011.0 ] } },
{ "type": "Feature", "properties": { "osmid": 1201239085.0 }, "geometry": { "type": "Point", "coordinates": [ -2430927.0, 9377873.0 ] } },
{ "type": "Feature", "properties": { "osmid": 1073652660.0 }, "geometry": { "type": "Point", "coordinates": [ -2429328.0, 9380178.0 ] } },
{ "type": "Feature", "properties": { "osmid": 1073745881.0 }, "geometry": { "type": "Point", "coordinates": [ -2430547.0, 9378253.0 ] } },
{ "type": "Feature", "properties": { "osmid": 1553742014.0 }, "geometry": { "type": "Point", "coordinates": [ -2433474.0, 9375445.0 ] } },
{ "type": "Feature", "properties": { "osmid": 1203320037.0 }, "geometry": { "type": "Point", "coordinates": [ -2431299.0, 9377237.0 ] } },
{ "type": "Feature", "properties": { "osmid": 8913787290.0 }, "geometry": { "type": "Point", "coordinates": [ -2427595.0, 9386030.0 ] } },
{ "type": "Feature", "properties": { "osmid": 1071866557.0 }, "geometry": { "type": "Point", "coordinates": [ -2428071.0, 9382523.0 ] } },
{ "type": "Feature", "properties": { "osmid": 1073598746.0 }, "geometry": { "type": "Point", "coordinates": [ -2431634.0, 9376725.0 ] } },
{ "type": "Feature", "properties": { "osmid": 8765435104.0 }, "geometry": { "type": "Point", "coordinates": [ -2429317.0, 9379602.0 ] } },
{ "type": "Feature", "properties": { "osmid": 1073582090.0 }, "geometry": { "type": "Point", "coordinates": [ -2432974.0, 9375557.0 ] } },
{ "type": "Feature", "properties": { "osmid": 1071950851.0 }, "geometry": { "type": "Point", "coordinates": [ -2427449.0, 9386659.0 ] } },
{ "type": "Feature", "properties": { "osmid": 1203904326.0 }, "geometry": { "type": "Point", "coordinates": [ -2427511.0, 9384859.0 ] } },
{ "type": "Feature", "properties": { "osmid": 1203490042.0 }, "geometry": { "type": "Point", "coordinates": [ -2428737.0, 9380595.0 ] } },
{ "type": "Feature", "properties": { "osmid": 1100577076.0 }, "geometry": { "type": "Point", "coordinates": [ -2428469.0, 9381123.0 ] } },
{ "type": "Feature", "properties": { "osmid": 1073140958.0 }, "geometry": { "type": "Point", "coordinates": [ -2427381.0, 9387357.0 ] } },
{ "type": "Feature", "properties": { "osmid": 5579192269.0 }, "geometry": { "type": "Point", "coordinates": [ -2427377.0, 9385405.0 ] } },
{ "type": "Feature", "properties": { "osmid": 11146173377.0 }, "geometry": { "type": "Point", "coordinates": [ -2431876.0, 9376277.0 ] } },
{ "type": "Feature", "properties": { "osmid": 1073598809.0 }, "geometry": { "type": "Point", "coordinates": [ -2432389.0, 9375842.0 ] } },
{ "type": "Feature", "properties": { "osmid": 1072011691.0 }, "geometry": { "type": "Point", "coordinates": [ -2428138.0, 9381726.0 ] } },
{ "type": "Feature", "properties": { "osmid": 1073756397.0 }, "geometry": { "type": "Point", "coordinates": [ -2430489.0, 9377608.0 ] } },
{ "type": "Feature", "properties": { "osmid": 1201238849.0 }, "geometry": { "type": "Point", "coordinates": [ -2429700.0, 9378592.0 ] } },
{ "type": "Feature", "properties": { "osmid": 11787313905.0 }, "geometry": { "type": "Point", "coordinates": [ -2427413.0, 9389075.0 ] } },
{ "type": "Feature", "properties": { "osmid": 1071918815.0 }, "geometry": { "type": "Point", "coordinates": [ -2433313.0, 9374918.0 ] } },
{ "type": "Feature", "properties": { "osmid": 1073736497.0 }, "geometry": { "type": "Point", "coordinates": [ -2430891.0, 9376904.0 ] } },
{ "type": "Feature", "properties": { "osmid": 6123893461.0 }, "geometry": { "type": "Point", "coordinates": [ -2429180.0, 9379098.0 ] } },
{ "type": "Feature", "properties": { "osmid": 1067830765.0 }, "geometry": { "type": "Point", "coordinates": [ -2427078.0, 9387850.0 ] } },
{ "type": "Feature", "properties": { "osmid": 1072795387.0 }, "geometry": { "type": "Point", "coordinates": [ -2429941.0, 9377847.0 ] } },
{ "type": "Feature", "properties": { "osmid": 824304086.0 }, "geometry": { "type": "Point", "coordinates": [ -2427039.0, 9384614.0 ] } },
{ "type": "Feature", "properties": { "osmid": 1203489951.0 }, "geometry": { "type": "Point", "coordinates": [ -2428395.0, 9380163.0 ] } },
{ "type": "Feature", "properties": { "osmid": 1073571846.0 }, "geometry": { "type": "Point", "coordinates": [ -2432626.0, 9375163.0 ] } },
{ "type": "Feature", "properties": { "osmid": 1073550939.0 }, "geometry": { "type": "Point", "coordinates": [ -2428789.0, 9379425.0 ] } },
{ "type": "Feature", "properties": { "osmid": 1073758741.0 }, "geometry": { "type": "Point", "coordinates": [ -2428152.0, 9380621.0 ] } },
{ "type": "Feature", "properties": { "osmid": 1206682536.0 }, "geometry": { "type": "Point", "coordinates": [ -2426895.0, 9385945.0 ] } },
{ "type": "Feature", "properties": { "osmid": 8570013223.0 }, "geometry": { "type": "Point", "coordinates": [ -2431744.0, 9375788.0 ] } },
{ "type": "Feature", "properties": { "osmid": 824305313.0 }, "geometry": { "type": "Point", "coordinates": [ -2426893.0, 9385101.0 ] } },
{ "type": "Feature", "properties": { "osmid": 11146278022.0 }, "geometry": { "type": "Point", "coordinates": [ -2426961.0, 9388618.0 ] } },
{ "type": "Feature", "properties": { "osmid": 11001930921.0 }, "geometry": { "type": "Point", "coordinates": [ -2430053.0, 9377324.0 ] } },
{ "type": "Feature", "properties": { "osmid": 1072989181.0 }, "geometry": { "type": "Point", "coordinates": [ -2432056.0, 9375351.0 ] } },
{ "type": "Feature", "properties": { "osmid": 1206682332.0 }, "geometry": { "type": "Point", "coordinates": [ -2426634.0, 9386785.0 ] } },
{ "type": "Feature", "properties": { "osmid": 1073732042.0 }, "geometry": { "type": "Point", "coordinates": [ -2430888.0, 9376230.0 ] } },
{ "type": "Feature", "properties": { "osmid": 87142756.0 }, "geometry": { "type": "Point", "coordinates": [ -2426610.0, 9388089.0 ] } },
{ "type": "Feature", "properties": { "osmid": 1073488536.0 }, "geometry": { "type": "Point", "coordinates": [ -2426511.0, 9385574.0 ] } },
{ "type": "Feature", "properties": { "osmid": 1072041758.0 }, "geometry": { "type": "Point", "coordinates": [ -2432221.0, 9374847.0 ] } },
{ "type": "Feature", "properties": { "osmid": 824305930.0 }, "geometry": { "type": "Point", "coordinates": [ -2426528.0, 9384501.0 ] } },
{ "type": "Feature", "properties": { "osmid": 611948552.0 }, "geometry": { "type": "Point", "coordinates": [ -2431251.0, 9375591.0 ] } },
{ "type": "Feature", "properties": { "osmid": 1073750356.0 }, "geometry": { "type": "Point", "coordinates": [ -2430367.0, 9376410.0 ] } },
{ "type": "Feature", "properties": { "osmid": 1071866387.0 }, "geometry": { "type": "Point", "coordinates": [ -2429415.0, 9377513.0 ] } },
{ "type": "Feature", "properties": { "osmid": 1073554982.0 }, "geometry": { "type": "Point", "coordinates": [ -2428118.0, 9379481.0 ] } },
{ "type": "Feature", "properties": { "osmid": 1073759690.0 }, "geometry": { "type": "Point", "coordinates": [ -2427638.0, 9380435.0 ] } },
{ "type": "Feature", "properties": { "osmid": 1073734156.0 }, "geometry": { "type": "Point", "coordinates": [ -2428980.0, 9377947.0 ] } },
{ "type": "Feature", "properties": { "osmid": 1073215592.0 }, "geometry": { "type": "Point", "coordinates": [ -2429900.0, 9376780.0 ] } },
{ "type": "Feature", "properties": { "osmid": 1071970218.0 }, "geometry": { "type": "Point", "coordinates": [ -2426295.0, 9387341.0 ] } },
{ "type": "Feature", "properties": { "osmid": 1073033598.0 }, "geometry": { "type": "Point", "coordinates": [ -2426457.0, 9388791.0 ] } },
{ "type": "Feature", "properties": { "osmid": 1073213924.0 }, "geometry": { "type": "Point", "coordinates": [ -2426464.0, 9383910.0 ] } },
{ "type": "Feature", "properties": { "osmid": 1073606795.0 }, "geometry": { "type": "Point", "coordinates": [ -2432608.0, 9374325.0 ] } },
{ "type": "Feature", "properties": { "osmid": 824306114.0 }, "geometry": { "type": "Point", "coordinates": [ -2426267.0, 9385076.0 ] } },
{ "type": "Feature", "properties": { "osmid": 1071979915.0 }, "geometry": { "type": "Point", "coordinates": [ -2426178.0, 9386574.0 ] } },
{ "type": "Feature", "properties": { "osmid": 1073716066.0 }, "geometry": { "type": "Point", "coordinates": [ -2431339.0, 9375005.0 ] } },
{ "type": "Feature", "properties": { "osmid": 1071936311.0 }, "geometry": { "type": "Point", "coordinates": [ -2426010.0, 9385620.0 ] } },
{ "type": "Feature", "properties": { "osmid": 1073327214.0 }, "geometry": { "type": "Point", "coordinates": [ -2429304.0, 9377025.0 ] } },
{ "type": "Feature", "properties": { "osmid": 6049319875.0 }, "geometry": { "type": "Point", "coordinates": [ -2430479.0, 9375675.0 ] } },
{ "type": "Feature", "properties": { "osmid": 1073218931.0 }, "geometry": { "type": "Point", "coordinates": [ -2425866.0, 9386976.0 ] } },
{ "type": "Feature", "properties": { "osmid": 1073026992.0 }, "geometry": { "type": "Point", "coordinates": [ -2425908.0, 9387930.0 ] } },
{ "type": "Feature", "properties": { "osmid": 1073533311.0 }, "geometry": { "type": "Point", "coordinates": [ -2425936.0, 9384550.0 ] } },
{ "type": "Feature", "properties": { "osmid": 1073721244.0 }, "geometry": { "type": "Point", "coordinates": [ -2428770.0, 9377448.0 ] } },
{ "type": "Feature", "properties": { "osmid": 1073771328.0 }, "geometry": { "type": "Point", "coordinates": [ -2427107.0, 9380233.0 ] } },
{ "type": "Feature", "properties": { "osmid": 94071420.0 }, "geometry": { "type": "Point", "coordinates": [ -2427652.0, 9379072.0 ] } },
{ "type": "Feature", "properties": { "osmid": 1073449729.0 }, "geometry": { "type": "Point", "coordinates": [ -2426457.0, 9381759.0 ] } },
{ "type": "Feature", "properties": { "osmid": 1073604746.0 }, "geometry": { "type": "Point", "coordinates": [ -2429599.0, 9376255.0 ] } },
{ "type": "Feature", "properties": { "osmid": 1021179965.0 }, "geometry": { "type": "Point", "coordinates": [ -2430657.0, 9375179.0 ] } },
{ "type": "Feature", "properties": { "osmid": 1073723913.0 }, "geometry": { "type": "Point", "coordinates": [ -2431584.0, 9374402.0 ] } },
{ "type": "Feature", "properties": { "osmid": 1073076299.0 }, "geometry": { "type": "Point", "coordinates": [ -2425642.0, 9387454.0 ] } },
{ "type": "Feature", "properties": { "osmid": 1073455525.0 }, "geometry": { "type": "Point", "coordinates": [ -2425595.0, 9385224.0 ] } },
{ "type": "Feature", "properties": { "osmid": 2433492570.0 }, "geometry": { "type": "Point", "coordinates": [ -2426443.0, 9381180.0 ] } },
{ "type": "Feature", "properties": { "osmid": 824294584.0 }, "geometry": { "type": "Point", "coordinates": [ -2425849.0, 9383268.0 ] } },
{ "type": "Feature", "properties": { "osmid": 1071958803.0 }, "geometry": { "type": "Point", "coordinates": [ -2429113.0, 9376481.0 ] } },
{ "type": "Feature", "properties": { "osmid": 1202434220.0 }, "geometry": { "type": "Point", "coordinates": [ -2430965.0, 9374572.0 ] } },
{ "type": "Feature", "properties": { "osmid": 1203904393.0 }, "geometry": { "type": "Point", "coordinates": [ -2425596.0, 9384133.0 ] } },
{ "type": "Feature", "properties": { "osmid": 1071892896.0 }, "geometry": { "type": "Point", "coordinates": [ -2425726.0, 9389426.0 ] } },
{ "type": "Feature", "properties": { "osmid": 326382180.0 }, "geometry": { "type": "Point", "coordinates": [ -2427932.0, 9377905.0 ] } },
{ "type": "Feature", "properties": { "osmid": 1073765603.0 }, "geometry": { "type": "Point", "coordinates": [ -2429879.0, 9375487.0 ] } },
{ "type": "Feature", "properties": { "osmid": 612684945.0 }, "geometry": { "type": "Point", "coordinates": [ -2431845.0, 9373804.0 ] } },
{ "type": "Feature", "properties": { "osmid": 1073690395.0 }, "geometry": { "type": "Point", "coordinates": [ -2425516.0, 9388577.0 ] } },
{ "type": "Feature", "properties": { "osmid": 1073734773.0 }, "geometry": { "type": "Point", "coordinates": [ -2428454.0, 9377033.0 ] } },
{ "type": "Feature", "properties": { "osmid": 5952561942.0 }, "geometry": { "type": "Point", "coordinates": [ -2425366.0, 9387969.0 ] } },
{ "type": "Feature", "properties": { "osmid": 1073700708.0 }, "geometry": { "type": "Point", "coordinates": [ -2427094.0, 9379015.0 ] } },
{ "type": "Feature", "properties": { "osmid": 1073759181.0 }, "geometry": { "type": "Point", "coordinates": [ -2426580.0, 9380065.0 ] } },
{ "type": "Feature", "properties": { "osmid": 1073742880.0 }, "geometry": { "type": "Point", "coordinates": [ -2430281.0, 9374823.0 ] } },
{ "type": "Feature", "properties": { "osmid": 1073428124.0 }, "geometry": { "type": "Point", "coordinates": [ -2429393.0, 9375652.0 ] } },
{ "type": "Feature", "properties": { "osmid": 1072820595.0 }, "geometry": { "type": "Point", "coordinates": [ -2425141.0, 9387272.0 ] } },
{ "type": "Feature", "properties": { "osmid": 1073747338.0 }, "geometry": { "type": "Point", "coordinates": [ -2428586.0, 9376442.0 ] } },
{ "type": "Feature", "properties": { "osmid": 1205150154.0 }, "geometry": { "type": "Point", "coordinates": [ -2425097.0, 9384818.0 ] } },
{ "type": "Feature", "properties": { "osmid": 1073134336.0 }, "geometry": { "type": "Point", "coordinates": [ -2425259.0, 9389165.0 ] } },
{ "type": "Feature", "properties": { "osmid": 1073730398.0 }, "geometry": { "type": "Point", "coordinates": [ -2427826.0, 9377276.0 ] } },
{ "type": "Feature", "properties": { "osmid": 1073132548.0 }, "geometry": { "type": "Point", "coordinates": [ -2425028.0, 9388469.0 ] } },
{ "type": "Feature", "properties": { "osmid": 326363265.0 }, "geometry": { "type": "Point", "coordinates": [ -2427405.0, 9377777.0 ] } },
{ "type": "Feature", "properties": { "osmid": 1073040938.0 }, "geometry": { "type": "Point", "coordinates": [ -2430833.0, 9373966.0 ] } },
{ "type": "Feature", "properties": { "osmid": 1073754898.0 }, "geometry": { "type": "Point", "coordinates": [ -2429573.0, 9375078.0 ] } },
{ "type": "Feature", "properties": { "osmid": 1073564794.0 }, "geometry": { "type": "Point", "coordinates": [ -2431297.0, 9373586.0 ] } },
{ "type": "Feature", "properties": { "osmid": 1073756603.0 }, "geometry": { "type": "Point", "coordinates": [ -2428069.0, 9376694.0 ] } },
{ "type": "Feature", "properties": { "osmid": 1072946790.0 }, "geometry": { "type": "Point", "coordinates": [ -2430211.0, 9374308.0 ] } },
{ "type": "Feature", "properties": { "osmid": 1034121025.0 }, "geometry": { "type": "Point", "coordinates": [ -2424873.0, 9384231.0 ] } },
{ "type": "Feature", "properties": { "osmid": 4116856840.0 }, "geometry": { "type": "Point", "coordinates": [ -2428501.0, 9375851.0 ] } },
{ "type": "Feature", "properties": { "osmid": 1073720240.0 }, "geometry": { "type": "Point", "coordinates": [ -2426535.0, 9378718.0 ] } },
{ "type": "Feature", "properties": { "osmid": 5581176807.0 }, "geometry": { "type": "Point", "coordinates": [ -2424894.0, 9389618.0 ] } },
{ "type": "Feature", "properties": { "osmid": 1072750132.0 }, "geometry": { "type": "Point", "coordinates": [ -2424589.0, 9385331.0 ] } },
{ "type": "Feature", "properties": { "osmid": 1073766492.0 }, "geometry": { "type": "Point", "coordinates": [ -2427272.0, 9377293.0 ] } },
{ "type": "Feature", "properties": { "osmid": 1073757011.0 }, "geometry": { "type": "Point", "coordinates": [ -2428072.0, 9376191.0 ] } },
{ "type": "Feature", "properties": { "osmid": 1071820044.0 }, "geometry": { "type": "Point", "coordinates": [ -2424571.0, 9388086.0 ] } },
{ "type": "Feature", "properties": { "osmid": 11837830976.0 }, "geometry": { "type": "Point", "coordinates": [ -2429489.0, 9374574.0 ] } },
{ "type": "Feature", "properties": { "osmid": 1073716121.0 }, "geometry": { "type": "Point", "coordinates": [ -2430835.0, 9373383.0 ] } },
{ "type": "Feature", "properties": { "osmid": 1073425387.0 }, "geometry": { "type": "Point", "coordinates": [ -2429082.0, 9374870.0 ] } },
{ "type": "Feature", "properties": { "osmid": 611937463.0 }, "geometry": { "type": "Point", "coordinates": [ -2430278.0, 9373714.0 ] } },
{ "type": "Feature", "properties": { "osmid": 1073209089.0 }, "geometry": { "type": "Point", "coordinates": [ -2424391.0, 9384733.0 ] } },
{ "type": "Feature", "properties": { "osmid": 11198108751.0 }, "geometry": { "type": "Point", "coordinates": [ -2426647.0, 9377863.0 ] } },
{ "type": "Feature", "properties": { "osmid": 1072821756.0 }, "geometry": { "type": "Point", "coordinates": [ -2424431.0, 9388628.0 ] } },
{ "type": "Feature", "properties": { "osmid": 1202434226.0 }, "geometry": { "type": "Point", "coordinates": [ -2429668.0, 9374106.0 ] } },
{ "type": "Feature", "properties": { "osmid": 1073765269.0 }, "geometry": { "type": "Point", "coordinates": [ -2428281.0, 9375393.0 ] } },
{ "type": "Feature", "properties": { "osmid": 1072774160.0 }, "geometry": { "type": "Point", "coordinates": [ -2424406.0, 9389383.0 ] } },
{ "type": "Feature", "properties": { "osmid": 1073477222.0 }, "geometry": { "type": "Point", "coordinates": [ -2424068.0, 9387369.0 ] } },
{ "type": "Feature", "properties": { "osmid": 10067189296.0 }, "geometry": { "type": "Point", "coordinates": [ -2427309.0, 9376423.0 ] } },
{ "type": "Feature", "properties": { "osmid": 1071842168.0 }, "geometry": { "type": "Point", "coordinates": [ -2425491.0, 9379541.0 ] } },
{ "type": "Feature", "properties": { "osmid": 1170444119.0 }, "geometry": { "type": "Point", "coordinates": [ -2426070.0, 9378344.0 ] } },
{ "type": "Feature", "properties": { "osmid": 1205150459.0 }, "geometry": { "type": "Point", "coordinates": [ -2424139.0, 9384221.0 ] } },
{ "type": "Feature", "properties": { "osmid": 1073253337.0 }, "geometry": { "type": "Point", "coordinates": [ -2428502.0, 9374919.0 ] } },
{ "type": "Feature", "properties": { "osmid": 11843542445.0 }, "geometry": { "type": "Point", "coordinates": [ -2423983.0, 9386591.0 ] } },
{ "type": "Feature", "properties": { "osmid": 2852022483.0 }, "geometry": { "type": "Point", "coordinates": [ -2430758.0, 9372872.0 ] } },
{ "type": "Feature", "properties": { "osmid": 1067871217.0 }, "geometry": { "type": "Point", "coordinates": [ -2424008.0, 9387966.0 ] } },
{ "type": "Feature", "properties": { "osmid": 1072713806.0 }, "geometry": { "type": "Point", "coordinates": [ -2423836.0, 9385651.0 ] } },
{ "type": "Feature", "properties": { "osmid": 1072704482.0 }, "geometry": { "type": "Point", "coordinates": [ -2424236.0, 9382319.0 ] } },
{ "type": "Feature", "properties": { "osmid": 1071982249.0 }, "geometry": { "type": "Point", "coordinates": [ -2424547.0, 9381138.0 ] } },
{ "type": "Feature", "properties": { "osmid": 75980182.0 }, "geometry": { "type": "Point", "coordinates": [ -2425780.0, 9377861.0 ] } },
{ "type": "Feature", "properties": { "osmid": 1071772776.0 }, "geometry": { "type": "Point", "coordinates": [ -2423683.0, 9388654.0 ] } },
{ "type": "Feature", "properties": { "osmid": 1073242788.0 }, "geometry": { "type": "Point", "coordinates": [ -2425200.0, 9378953.0 ] } },
{ "type": "Feature", "properties": { "osmid": 1071999978.0 }, "geometry": { "type": "Point", "coordinates": [ -2424078.0, 9381735.0 ] } },
{ "type": "Feature", "properties": { "osmid": 5905723028.0 }, "geometry": { "type": "Point", "coordinates": [ -2423427.0, 9386529.0 ] } },
{ "type": "Feature", "properties": { "osmid": 11385939750.0 }, "geometry": { "type": "Point", "coordinates": [ -2427186.0, 9375489.0 ] } },
{ "type": "Feature", "properties": { "osmid": 1073049630.0 }, "geometry": { "type": "Point", "coordinates": [ -2423309.0, 9384547.0 ] } },
{ "type": "Feature", "properties": { "osmid": 1073158864.0 }, "geometry": { "type": "Point", "coordinates": [ -2423421.0, 9389364.0 ] } },
{ "type": "Feature", "properties": { "osmid": 8418124962.0 }, "geometry": { "type": "Point", "coordinates": [ -2423187.0, 9387335.0 ] } },
{ "type": "Feature", "properties": { "osmid": 1073532629.0 }, "geometry": { "type": "Point", "coordinates": [ -2423205.0, 9388248.0 ] } },
{ "type": "Feature", "properties": { "osmid": 1073030205.0 }, "geometry": { "type": "Point", "coordinates": [ -2423499.0, 9382107.0 ] } },
{ "type": "Feature", "properties": { "osmid": 1208295548.0 }, "geometry": { "type": "Point", "coordinates": [ -2425405.0, 9377393.0 ] } },
{ "type": "Feature", "properties": { "osmid": 1071931401.0 }, "geometry": { "type": "Point", "coordinates": [ -2424575.0, 9378935.0 ] } },
{ "type": "Feature", "properties": { "osmid": 1072711996.0 }, "geometry": { "type": "Point", "coordinates": [ -2424797.0, 9378460.0 ] } },
{ "type": "Feature", "properties": { "osmid": 1071753365.0 }, "geometry": { "type": "Point", "coordinates": [ -2423304.0, 9382715.0 ] } },
{ "type": "Feature", "properties": { "osmid": 2478480747.0 }, "geometry": { "type": "Point", "coordinates": [ -2422919.0, 9386069.0 ] } },
{ "type": "Feature", "properties": { "osmid": 1071886358.0 }, "geometry": { "type": "Point", "coordinates": [ -2422961.0, 9388733.0 ] } },
{ "type": "Feature", "properties": { "osmid": 1072782472.0 }, "geometry": { "type": "Point", "coordinates": [ -2422972.0, 9383928.0 ] } },
{ "type": "Feature", "properties": { "osmid": 1071787017.0 }, "geometry": { "type": "Point", "coordinates": [ -2422962.0, 9383364.0 ] } },
{ "type": "Feature", "properties": { "osmid": 11665223820.0 }, "geometry": { "type": "Point", "coordinates": [ -2426708.0, 9374923.0 ] } },
{ "type": "Feature", "properties": { "osmid": 7533790548.0 }, "geometry": { "type": "Point", "coordinates": [ -2425438.0, 9376616.0 ] } },
{ "type": "Feature", "properties": { "osmid": 1073677235.0 }, "geometry": { "type": "Point", "coordinates": [ -2423275.0, 9381374.0 ] } },
{ "type": "Feature", "properties": { "osmid": 12618104077.0 }, "geometry": { "type": "Point", "coordinates": [ -2422561.0, 9386805.0 ] } },
{ "type": "Feature", "properties": { "osmid": 1073411671.0 }, "geometry": { "type": "Point", "coordinates": [ -2424015.0, 9378987.0 ] } },
{ "type": "Feature", "properties": { "osmid": 304851919.0 }, "geometry": { "type": "Point", "coordinates": [ -2424402.0, 9378141.0 ] } },
{ "type": "Feature", "properties": { "osmid": 5584591573.0 }, "geometry": { "type": "Point", "coordinates": [ -2425696.0, 9375943.0 ] } },
{ "type": "Feature", "properties": { "osmid": 1211427340.0 }, "geometry": { "type": "Point", "coordinates": [ -2422995.0, 9381831.0 ] } },
{ "type": "Feature", "properties": { "osmid": 1071881850.0 }, "geometry": { "type": "Point", "coordinates": [ -2422444.0, 9384340.0 ] } },
{ "type": "Feature", "properties": { "osmid": 11434964369.0 }, "geometry": { "type": "Point", "coordinates": [ -2422292.0, 9386374.0 ] } },
{ "type": "Feature", "properties": { "osmid": 1212416571.0 }, "geometry": { "type": "Point", "coordinates": [ -2422596.0, 9382857.0 ] } },
{ "type": "Feature", "properties": { "osmid": 1073587771.0 }, "geometry": { "type": "Point", "coordinates": [ -2422400.0, 9389175.0 ] } },
{ "type": "Feature", "properties": { "osmid": 1071707855.0 }, "geometry": { "type": "Point", "coordinates": [ -2422426.0, 9389735.0 ] } },
{ "type": "Feature", "properties": { "osmid": 1073098759.0 }, "geometry": { "type": "Point", "coordinates": [ -2422527.0, 9382031.0 ] } },
{ "type": "Feature", "properties": { "osmid": 1073097354.0 }, "geometry": { "type": "Point", "coordinates": [ -2422059.0, 9385071.0 ] } },
{ "type": "Feature", "properties": { "osmid": 1072822613.0 }, "geometry": { "type": "Point", "coordinates": [ -2422644.0, 9381429.0 ] } },
{ "type": "Feature", "properties": { "osmid": 1073925800.0 }, "geometry": { "type": "Point", "coordinates": [ -2424815.0, 9376426.0 ] } },
{ "type": "Feature", "properties": { "osmid": 6282069703.0 }, "geometry": { "type": "Point", "coordinates": [ -2422165.0, 9383258.0 ] } },
{ "type": "Feature", "properties": { "osmid": 1073776487.0 }, "geometry": { "type": "Point", "coordinates": [ -2426015.0, 9374598.0 ] } },
{ "type": "Feature", "properties": { "osmid": 1073093690.0 }, "geometry": { "type": "Point", "coordinates": [ -2421886.0, 9385622.0 ] } },
{ "type": "Feature", "properties": { "osmid": 1073136158.0 }, "geometry": { "type": "Point", "coordinates": [ -2422228.0, 9382441.0 ] } },
{ "type": "Feature", "properties": { "osmid": 1074116320.0 }, "geometry": { "type": "Point", "coordinates": [ -2424987.0, 9375797.0 ] } },
{ "type": "Feature", "properties": { "osmid": 1072683828.0 }, "geometry": { "type": "Point", "coordinates": [ -2422522.0, 9380757.0 ] } },
{ "type": "Feature", "properties": { "osmid": 1206955452.0 }, "geometry": { "type": "Point", "coordinates": [ -2421921.0, 9389538.0 ] } },
{ "type": "Feature", "properties": { "osmid": 1206955438.0 }, "geometry": { "type": "Point", "coordinates": [ -2421991.0, 9390036.0 ] } },
{ "type": "Feature", "properties": { "osmid": 303936383.0 }, "geometry": { "type": "Point", "coordinates": [ -2421624.0, 9387331.0 ] } },
{ "type": "Feature", "properties": { "osmid": 1073632916.0 }, "geometry": { "type": "Point", "coordinates": [ -2421889.0, 9382816.0 ] } },
{ "type": "Feature", "properties": { "osmid": 13740488600.0 }, "geometry": { "type": "Point", "coordinates": [ -2421571.0, 9384553.0 ] } },
{ "type": "Feature", "properties": { "osmid": 1211427557.0 }, "geometry": { "type": "Point", "coordinates": [ -2421991.0, 9381979.0 ] } },
{ "type": "Feature", "properties": { "osmid": 1073779762.0 }, "geometry": { "type": "Point", "coordinates": [ -2424490.0, 9375986.0 ] } },
{ "type": "Feature", "properties": { "osmid": 1073054725.0 }, "geometry": { "type": "Point", "coordinates": [ -2421431.0, 9385881.0 ] } },
{ "type": "Feature", "properties": { "osmid": 1211427123.0 }, "geometry": { "type": "Point", "coordinates": [ -2422089.0, 9381344.0 ] } },
{ "type": "Feature", "properties": { "osmid": 1073775719.0 }, "geometry": { "type": "Point", "coordinates": [ -2424961.0, 9375026.0 ] } },
{ "type": "Feature", "properties": { "osmid": 5417248323.0 }, "geometry": { "type": "Point", "coordinates": [ -2421264.0, 9386689.0 ] } },
{ "type": "Feature", "properties": { "osmid": 12302808071.0 }, "geometry": { "type": "Point", "coordinates": [ -2421399.0, 9389051.0 ] } },
{ "type": "Feature", "properties": { "osmid": 1072600140.0 }, "geometry": { "type": "Point", "coordinates": [ -2421581.0, 9382348.0 ] } },
{ "type": "Feature", "properties": { "osmid": 1071947837.0 }, "geometry": { "type": "Point", "coordinates": [ -2421632.0, 9390836.0 ] } },
{ "type": "Feature", "properties": { "osmid": 5554959221.0 }, "geometry": { "type": "Point", "coordinates": [ -2421394.0, 9383001.0 ] } },
{ "type": "Feature", "properties": { "osmid": 7406373371.0 }, "geometry": { "type": "Point", "coordinates": [ -2421235.0, 9383981.0 ] } },
{ "type": "Feature", "properties": { "osmid": 3748659842.0 }, "geometry": { "type": "Point", "coordinates": [ -2423955.0, 9376139.0 ] } },
{ "type": "Feature", "properties": { "osmid": 5564434246.0 }, "geometry": { "type": "Point", "coordinates": [ -2424397.0, 9375377.0 ] } },
{ "type": "Feature", "properties": { "osmid": 1073561866.0 }, "geometry": { "type": "Point", "coordinates": [ -2421322.0, 9389663.0 ] } },
{ "type": "Feature", "properties": { "osmid": 1071888710.0 }, "geometry": { "type": "Point", "coordinates": [ -2421601.0, 9381488.0 ] } },
{ "type": "Feature", "properties": { "osmid": 1073785039.0 }, "geometry": { "type": "Point", "coordinates": [ -2424442.0, 9374730.0 ] } },
{ "type": "Feature", "properties": { "osmid": 11366759014.0 }, "geometry": { "type": "Point", "coordinates": [ -2422788.0, 9377461.0 ] } },
{ "type": "Feature", "properties": { "osmid": 1071857168.0 }, "geometry": { "type": "Point", "coordinates": [ -2421426.0, 9380989.0 ] } },
{ "type": "Feature", "properties": { "osmid": 1072720705.0 }, "geometry": { "type": "Point", "coordinates": [ -2421032.0, 9382489.0 ] } },
{ "type": "Feature", "properties": { "osmid": 1071875591.0 }, "geometry": { "type": "Point", "coordinates": [ -2421172.0, 9381772.0 ] } },
{ "type": "Feature", "properties": { "osmid": 1073780447.0 }, "geometry": { "type": "Point", "coordinates": [ -2423465.0, 9375939.0 ] } },
{ "type": "Feature", "properties": { "osmid": 1073784164.0 }, "geometry": { "type": "Point", "coordinates": [ -2423581.0, 9375383.0 ] } },
{ "type": "Feature", "properties": { "osmid": 1071968535.0 }, "geometry": { "type": "Point", "coordinates": [ -2420876.0, 9390954.0 ] } },
{ "type": "Feature", "properties": { "osmid": 1074029830.0 }, "geometry": { "type": "Point", "coordinates": [ -2424035.0, 9374371.0 ] } },
{ "type": "Feature", "properties": { "osmid": 390538627.0 }, "geometry": { "type": "Point", "coordinates": [ -2420602.0, 9382178.0 ] } },
{ "type": "Feature", "properties": { "osmid": 1071819109.0 }, "geometry": { "type": "Point", "coordinates": [ -2420734.0, 9381268.0 ] } },
{ "type": "Feature", "properties": { "osmid": 7904807830.0 }, "geometry": { "type": "Point", "coordinates": [ -2420264.0, 9383382.0 ] } },
{ "type": "Feature", "properties": { "osmid": 1073843625.0 }, "geometry": { "type": "Point", "coordinates": [ -2423584.0, 9374743.0 ] } },
{ "type": "Feature", "properties": { "osmid": 6067419891.0 }, "geometry": { "type": "Point", "coordinates": [ -2420072.0, 9384581.0 ] } },
{ "type": "Feature", "properties": { "osmid": 406311100.0 }, "geometry": { "type": "Point", "coordinates": [ -2423057.0, 9375452.0 ] } },
{ "type": "Feature", "properties": { "osmid": 1071712394.0 }, "geometry": { "type": "Point", "coordinates": [ -2420215.0, 9382528.0 ] } },
{ "type": "Feature", "properties": { "osmid": 1072728864.0 }, "geometry": { "type": "Point", "coordinates": [ -2420380.0, 9381695.0 ] } },
{ "type": "Feature", "properties": { "osmid": 7794916442.0 }, "geometry": { "type": "Point", "coordinates": [ -2419804.0, 9384040.0 ] } },
{ "type": "Feature", "properties": { "osmid": 604621430.0 }, "geometry": { "type": "Point", "coordinates": [ -2419809.0, 9383142.0 ] } },
{ "type": "Feature", "properties": { "osmid": 1073783869.0 }, "geometry": { "type": "Point", "coordinates": [ -2422514.0, 9375571.0 ] } },
{ "type": "Feature", "properties": { "osmid": 1071987948.0 }, "geometry": { "type": "Point", "coordinates": [ -2419954.0, 9381963.0 ] } },
{ "type": "Feature", "properties": { "osmid": 1073386892.0 }, "geometry": { "type": "Point", "coordinates": [ -2419382.0, 9381951.0 ] } },
{ "type": "Feature", "properties": { "osmid": 5581376909.0 }, "geometry": { "type": "Point", "coordinates": [ -2418724.0, 9382708.0 ] } },
{ "type": "Feature", "properties": { "osmid": 315989570.0 }, "geometry": { "type": "Point", "coordinates": [ -2422803.0, 9373054.0 ] } },
{ "type": "Feature", "properties": { "osmid": 9990810918.0 }, "geometry": { "type": "Point", "coordinates": [ -2418456.0, 9384527.0 ] } },
{ "type": "Feature", "properties": { "osmid": 1072003993.0 }, "geometry": { "type": "Point", "coordinates": [ -2418646.0, 9381933.0 ] } },
{ "type": "Feature", "properties": { "osmid": 13774645161.0 }, "geometry": { "type": "Point", "coordinates": [ -2417724.0, 9384576.0 ] } },
{ "type": "Feature", "properties": { "osmid": 13774645092.0 }, "geometry": { "type": "Point", "coordinates": [ -2416869.0, 9386136.0 ] } }
]
}
