{
"type": "FeatureCollection",
"name": "riga-city_boundary",
"crs": { "type": "name", "properties": { "name": "urn:ogc:def:crs:EPSG::3857" } },
"features": [
{ "type": "Feature", "properties": { "bbox_west": 23.9325504, "bbox_south": 56.8573462, "bbox_east": 24.3245042, "bbox_north": 57.0861068, "place_id": 157948208, "osm_type": "relation", "osm_id": 13048688, "lat": 56.9493977, "lon": 24.1051846, "class": "boundary", "type": "administrative", "place_rank": 10, "importance": 0.7357097277344592, "addresstype": "city", "name": "Riga", "display_name": "Riga, Latvia" }, "geometry": { "type": "Polygon", "coordinates": [ [ [ 2666355.0, 7759041.0 ], [ 2666348.0, 7759047.0 ], [ 2666284.0, 7759099.0 ], [ 2666077.0, 7759266.0 ], [ 2665983.0, 7759340.0 ], [ 2665938.0, 7759375.0 ], [ 2665917.0, 7759391.0 ], [ 2665883.0, 7759418.0 ], [ 2665784.0, 7759497.0 ], [ 2665340.0, 7759456.0 ], [ 2664630.0, 7759290.0 ], [ 2664370.0, 7759229.0 ], [ 2664228.0, 7760083.0 ], [ 2664397.0, 7761132.0 ], [ 2664365.0, 7761696.0 ], [ 2664159.0, 7761915.0 ], [ 2664308.0, 7762030.0 ], [ 2664729.0, 7762296.0 ], [ 2664783.0, 7762372.0 ], [ 2664836.0, 7762436.0 ], [ 2664925.0, 7762511.0 ], [ 2665014.0, 7762594.0 ], [ 2665161.0, 7762688.0 ], [ 2665379.0, 7762853.0 ], [ 2665580.0, 7762985.0 ], [ 2665840.0, 7763147.0 ], [ 2666265.0, 7763416.0 ], [ 2666528.0, 7763581.0 ], [ 2666893.0, 7763819.0 ], [ 2667365.0, 7764129.0 ], [ 2667591.0, 7764297.0 ], [ 2667760.0, 7764408.0 ], [ 2667813.0, 7764443.0 ], [ 2668174.0, 7764718.0 ], [ 2668415.0, 7764907.0 ], [ 2668713.0, 7765123.0 ], [ 2669127.0, 7765481.0 ], [ 2669312.0, 7765661.0 ], [ 2669713.0, 7766063.0 ], [ 2669748.0, 7766093.0 ], [ 2670052.0, 7766422.0 ], [ 2670295.0, 7766734.0 ], [ 2670636.0, 7767107.0 ], [ 2670969.0, 7767481.0 ], [ 2671423.0, 7768056.0 ], [ 2671718.0, 7768416.0 ], [ 2671922.0, 7768642.0 ], [ 2672406.0, 7769355.0 ], [ 2672849.0, 7770024.0 ], [ 2673198.0, 7770482.0 ], [ 2673273.0, 7770579.0 ], [ 2673266.0, 7770670.0 ], [ 2673297.0, 7770743.0 ], [ 2673358.0, 7770838.0 ], [ 2673465.0, 7770946.0 ], [ 2673540.0, 7771037.0 ], [ 2673694.0, 7771286.0 ], [ 2673857.0, 7771572.0 ], [ 2673886.0, 7771637.0 ], [ 2673961.0, 7771784.0 ], [ 2673974.0, 7771843.0 ], [ 2674002.0, 7771947.0 ], [ 2674032.0, 7772010.0 ], [ 2674045.0, 7772042.0 ], [ 2674063.0, 7772107.0 ], [ 2674091.0, 7772197.0 ], [ 2673949.0, 7772353.0 ], [ 2673939.0, 7772359.0 ], [ 2673937.0, 7772365.0 ], [ 2673937.0, 7772371.0 ], [ 2673959.0, 7772411.0 ], [ 2673961.0, 7772419.0 ], [ 2673960.0, 7772434.0 ], [ 2673779.0, 7772591.0 ], [ 2673729.0, 7772622.0 ], [ 2673700.0, 7772658.0 ], [ 2673609.0, 7772736.0 ], [ 2673575.0, 7772754.0 ], [ 2673551.0, 7772792.0 ], [ 2673530.0, 7772805.0 ], [ 2673416.0, 7772908.0 ], [ 2673373.0, 7772938.0 ], [ 2673356.0, 7772944.0 ], [ 2673338.0, 7772972.0 ], [ 2673294.0, 7773010.0 ], [ 2673262.0, 7773040.0 ], [ 2673155.0, 7773124.0 ], [ 2673130.0, 7773133.0 ], [ 2673100.0, 7773171.0 ], [ 2673085.0, 7773200.0 ], [ 2673039.0, 7773240.0 ], [ 2673005.0, 7773270.0 ], [ 2672970.0, 7773299.0 ], [ 2672941.0, 7773333.0 ], [ 2672920.0, 7773357.0 ], [ 2672900.0, 7773381.0 ], [ 2672870.0, 7773417.0 ], [ 2672840.0, 7773452.0 ], [ 2672836.0, 7773456.0 ], [ 2672826.0, 7773467.0 ], [ 2672821.0, 7773466.0 ], [ 2672795.0, 7773490.0 ], [ 2672809.0, 7773511.0 ], [ 2672814.0, 7773516.0 ], [ 2673047.0, 7773807.0 ], [ 2673309.0, 7774122.0 ], [ 2673313.0, 7774121.0 ], [ 2673413.0, 7774088.0 ], [ 2673425.0, 7774082.0 ], [ 2673421.0, 7774071.0 ], [ 2673428.0, 7774069.0 ], [ 2673633.0, 7774002.0 ], [ 2673984.0, 7773868.0 ], [ 2674210.0, 7773756.0 ], [ 2674262.0, 7773730.0 ], [ 2674342.0, 7773686.0 ], [ 2674446.0, 7773620.0 ], [ 2674648.0, 7773497.0 ], [ 2674801.0, 7773382.0 ], [ 2674913.0, 7773301.0 ], [ 2674986.0, 7773340.0 ], [ 2675233.0, 7773465.0 ], [ 2675603.0, 7773658.0 ], [ 2675845.0, 7773796.0 ], [ 2675944.0, 7773855.0 ], [ 2676182.0, 7773935.0 ], [ 2676462.0, 7774045.0 ], [ 2676743.0, 7774138.0 ], [ 2677151.0, 7774286.0 ], [ 2677432.0, 7774349.0 ], [ 2678420.0, 7774664.0 ], [ 2678763.0, 7774791.0 ], [ 2679518.0, 7775030.0 ], [ 2679796.0, 7775143.0 ], [ 2680137.0, 7775273.0 ], [ 2680889.0, 7775591.0 ], [ 2681580.0, 7775911.0 ], [ 2681931.0, 7776082.0 ], [ 2682282.0, 7776258.0 ], [ 2683177.0, 7776739.0 ], [ 2683251.0, 7776778.0 ], [ 2683581.0, 7776948.0 ], [ 2684003.0, 7777206.0 ], [ 2684178.0, 7777317.0 ], [ 2684335.0, 7777394.0 ], [ 2684417.0, 7777438.0 ], [ 2684898.0, 7777739.0 ], [ 2684970.0, 7777580.0 ], [ 2685004.0, 7777498.0 ], [ 2685057.0, 7777365.0 ], [ 2685150.0, 7777122.0 ], [ 2684911.0, 7776967.0 ], [ 2684791.0, 7776890.0 ], [ 2684716.0, 7776840.0 ], [ 2684688.0, 7776822.0 ], [ 2684717.0, 7776776.0 ], [ 2684736.0, 7776748.0 ], [ 2684742.0, 7776738.0 ], [ 2684749.0, 7776727.0 ], [ 2684759.0, 7776713.0 ], [ 2684772.0, 7776693.0 ], [ 2684800.0, 7776653.0 ], [ 2684818.0, 7776628.0 ], [ 2684842.0, 7776593.0 ], [ 2684868.0, 7776559.0 ], [ 2684893.0, 7776524.0 ], [ 2684916.0, 7776492.0 ], [ 2684942.0, 7776456.0 ], [ 2684969.0, 7776419.0 ], [ 2684995.0, 7776383.0 ], [ 2685000.0, 7776377.0 ], [ 2685047.0, 7776301.0 ], [ 2685065.0, 7776275.0 ], [ 2685173.0, 7776122.0 ], [ 2685243.0, 7776022.0 ], [ 2685272.0, 7775981.0 ], [ 2685555.0, 7776187.0 ], [ 2685582.0, 7776128.0 ], [ 2685840.0, 7775538.0 ], [ 2686755.0, 7775930.0 ], [ 2686875.0, 7775664.0 ], [ 2686964.0, 7775466.0 ], [ 2686984.0, 7775422.0 ], [ 2687134.0, 7775089.0 ], [ 2687271.0, 7774784.0 ], [ 2687282.0, 7774765.0 ], [ 2687368.0, 7774718.0 ], [ 2687399.0, 7774699.0 ], [ 2687412.0, 7774691.0 ], [ 2687431.0, 7774680.0 ], [ 2687429.0, 7774609.0 ], [ 2687434.0, 7774595.0 ], [ 2687439.0, 7774582.0 ], [ 2687444.0, 7774581.0 ], [ 2687460.0, 7774523.0 ], [ 2687467.0, 7774503.0 ], [ 2687555.0, 7774277.0 ], [ 2687637.0, 7773809.0 ], [ 2687598.0, 7773792.0 ], [ 2687579.0, 7773779.0 ], [ 2687568.0, 7773771.0 ], [ 2687588.0, 7773659.0 ], [ 2687517.0, 7773505.0 ], [ 2687419.0, 7773384.0 ], [ 2687364.0, 7773371.0 ], [ 2687473.0, 7773327.0 ], [ 2687531.0, 7773303.0 ], [ 2687580.0, 7773088.0 ], [ 2687598.0, 7772936.0 ], [ 2687679.0, 7772798.0 ], [ 2687772.0, 7772733.0 ], [ 2687805.0, 7772765.0 ], [ 2687842.0, 7772775.0 ], [ 2687863.0, 7772781.0 ], [ 2687920.0, 7772830.0 ], [ 2688032.0, 7772769.0 ], [ 2688125.0, 7772817.0 ], [ 2688218.0, 7772865.0 ], [ 2688341.0, 7772929.0 ], [ 2688422.0, 7772800.0 ], [ 2688452.0, 7772742.0 ], [ 2688510.0, 7772632.0 ], [ 2688560.0, 7772522.0 ], [ 2688553.0, 7772478.0 ], [ 2688527.0, 7772362.0 ], [ 2688502.0, 7772244.0 ], [ 2688491.0, 7772194.0 ], [ 2688545.0, 7772154.0 ], [ 2688581.0, 7772081.0 ], [ 2688546.0, 7771991.0 ], [ 2688449.0, 7771946.0 ], [ 2688431.0, 7771938.0 ], [ 2688383.0, 7771916.0 ], [ 2688368.0, 7771908.0 ], [ 2688356.0, 7771912.0 ], [ 2688240.0, 7771945.0 ], [ 2688099.0, 7771908.0 ], [ 2688025.0, 7771810.0 ], [ 2688057.0, 7771745.0 ], [ 2688069.0, 7771731.0 ], [ 2688102.0, 7771692.0 ], [ 2688132.0, 7771658.0 ], [ 2688175.0, 7771608.0 ], [ 2688179.0, 7771603.0 ], [ 2688457.0, 7771560.0 ], [ 2688482.0, 7771556.0 ], [ 2688613.0, 7771519.0 ], [ 2688663.0, 7771506.0 ], [ 2688706.0, 7771495.0 ], [ 2688725.0, 7771496.0 ], [ 2688881.0, 7771506.0 ], [ 2688980.0, 7771488.0 ], [ 2689014.0, 7771480.0 ], [ 2689401.0, 7771368.0 ], [ 2689504.0, 7771338.0 ], [ 2689593.0, 7771311.0 ], [ 2689689.0, 7771282.0 ], [ 2689776.0, 7771256.0 ], [ 2689876.0, 7771226.0 ], [ 2690004.0, 7771230.0 ], [ 2690086.0, 7771232.0 ], [ 2690138.0, 7771234.0 ], [ 2690484.0, 7771243.0 ], [ 2690499.0, 7771243.0 ], [ 2690556.0, 7771246.0 ], [ 2690591.0, 7771247.0 ], [ 2690627.0, 7771249.0 ], [ 2690638.0, 7771249.0 ], [ 2690673.0, 7771246.0 ], [ 2690784.0, 7771237.0 ], [ 2690857.0, 7771231.0 ], [ 2690883.0, 7771228.0 ], [ 2691054.0, 7771213.0 ], [ 2691120.0, 7771207.0 ], [ 2691195.0, 7771181.0 ], [ 2691218.0, 7771172.0 ], [ 2691343.0, 7771131.0 ], [ 2691584.0, 7771050.0 ], [ 2691892.0, 7770945.0 ], [ 2691964.0, 7770919.0 ], [ 2692000.0, 7770915.0 ], [ 2692033.0, 7770928.0 ], [ 2692413.0, 7771107.0 ], [ 2692473.0, 7771132.0 ], [ 2692494.0, 7771136.0 ], [ 2692501.0, 7771078.0 ], [ 2692535.0, 7770906.0 ], [ 2692571.0, 7770635.0 ], [ 2692639.0, 7770202.0 ], [ 2692687.0, 7769895.0 ], [ 2692761.0, 7769427.0 ], [ 2692792.0, 7769318.0 ], [ 2692817.0, 7769229.0 ], [ 2692909.0, 7769250.0 ], [ 2693213.0, 7769315.0 ], [ 2693579.0, 7769393.0 ], [ 2693637.0, 7769147.0 ], [ 2693717.0, 7768797.0 ], [ 2693743.0, 7768684.0 ], [ 2693815.0, 7768372.0 ], [ 2693848.0, 7768242.0 ], [ 2693293.0, 7768111.0 ], [ 2693755.0, 7767271.0 ], [ 2693796.0, 7767182.0 ], [ 2693322.0, 7767071.0 ], [ 2693286.0, 7767062.0 ], [ 2693322.0, 7766908.0 ], [ 2693398.0, 7766586.0 ], [ 2693489.0, 7766194.0 ], [ 2693581.0, 7765792.0 ], [ 2693683.0, 7765360.0 ], [ 2693709.0, 7765336.0 ], [ 2693839.0, 7765207.0 ], [ 2694051.0, 7765006.0 ], [ 2694483.0, 7764596.0 ], [ 2694670.0, 7764418.0 ], [ 2694758.0, 7764333.0 ], [ 2694777.0, 7764315.0 ], [ 2694844.0, 7764251.0 ], [ 2695018.0, 7764083.0 ], [ 2695108.0, 7763955.0 ], [ 2695369.0, 7763576.0 ], [ 2695758.0, 7763474.0 ], [ 2695877.0, 7763442.0 ], [ 2696333.0, 7763325.0 ], [ 2696683.0, 7763235.0 ], [ 2696845.0, 7763189.0 ], [ 2696850.0, 7763188.0 ], [ 2697161.0, 7763115.0 ], [ 2697405.0, 7763050.0 ], [ 2697409.0, 7763048.0 ], [ 2697413.0, 7763047.0 ], [ 2697743.0, 7762959.0 ], [ 2697788.0, 7762948.0 ], [ 2697809.0, 7762943.0 ], [ 2698118.0, 7762860.0 ], [ 2698287.0, 7762815.0 ], [ 2698316.0, 7762807.0 ], [ 2698472.0, 7762763.0 ], [ 2698917.0, 7762644.0 ], [ 2699282.0, 7762548.0 ], [ 2699781.0, 7762417.0 ], [ 2700447.0, 7762233.0 ], [ 2700644.0, 7762140.0 ], [ 2700671.0, 7762130.0 ], [ 2700959.0, 7761988.0 ], [ 2701378.0, 7762083.0 ], [ 2701422.0, 7762093.0 ], [ 2701459.0, 7762102.0 ], [ 2701502.0, 7762123.0 ], [ 2701528.0, 7762136.0 ], [ 2701570.0, 7762158.0 ], [ 2701590.0, 7762161.0 ], [ 2701649.0, 7762178.0 ], [ 2701689.0, 7762184.0 ], [ 2701759.0, 7762194.0 ], [ 2701779.0, 7762197.0 ], [ 2701784.0, 7762197.0 ], [ 2701900.0, 7762204.0 ], [ 2701970.0, 7762207.0 ], [ 2701988.0, 7762208.0 ], [ 2702147.0, 7761983.0 ], [ 2702254.0, 7761828.0 ], [ 2702291.0, 7761814.0 ], [ 2702340.0, 7761739.0 ], [ 2702559.0, 7761417.0 ], [ 2702845.0, 7761171.0 ], [ 2702868.0, 7761113.0 ], [ 2702914.0, 7761008.0 ], [ 2702599.0, 7760822.0 ], [ 2702688.0, 7760632.0 ], [ 2702768.0, 7760632.0 ], [ 2702938.0, 7760485.0 ], [ 2703172.0, 7760592.0 ], [ 2703179.0, 7760579.0 ], [ 2703190.0, 7760561.0 ], [ 2703193.0, 7760555.0 ], [ 2703200.0, 7760543.0 ], [ 2703214.0, 7760515.0 ], [ 2703193.0, 7760502.0 ], [ 2702806.0, 7760266.0 ], [ 2702849.0, 7760164.0 ], [ 2702863.0, 7760131.0 ], [ 2702885.0, 7760077.0 ], [ 2702924.0, 7759984.0 ], [ 2702937.0, 7759891.0 ], [ 2702942.0, 7759857.0 ], [ 2702953.0, 7759779.0 ], [ 2702961.0, 7759724.0 ], [ 2702962.0, 7759718.0 ], [ 2702964.0, 7759691.0 ], [ 2702957.0, 7759644.0 ], [ 2702957.0, 7759640.0 ], [ 2702953.0, 7759608.0 ], [ 2702959.0, 7759608.0 ], [ 2702959.0, 7759605.0 ], [ 2702958.0, 7759586.0 ], [ 2702956.0, 7759564.0 ], [ 2702954.0, 7759536.0 ], [ 2702949.0, 7759496.0 ], [ 2702946.0, 7759472.0 ], [ 2702944.0, 7759464.0 ], [ 2702712.0, 7759405.0 ], [ 2702965.0, 7759153.0 ], [ 2703605.0, 7758641.0 ], [ 2703610.0, 7758648.0 ], [ 2703643.0, 7758621.0 ], [ 2703678.0, 7758593.0 ], [ 2703672.0, 7758586.0 ], [ 2703715.0, 7758551.0 ], [ 2703749.0, 7758524.0 ], [ 2703766.0, 7758512.0 ], [ 2703823.0, 7758465.0 ], [ 2703822.0, 7758463.0 ], [ 2703872.0, 7758421.0 ], [ 2703916.0, 7758386.0 ], [ 2703927.0, 7758377.0 ], [ 2703988.0, 7758329.0 ], [ 2704042.0, 7758282.0 ], [ 2704073.0, 7758250.0 ], [ 2704130.0, 7758192.0 ], [ 2704129.0, 7758191.0 ], [ 2704199.0, 7758149.0 ], [ 2704197.0, 7758147.0 ], [ 2704245.0, 7758119.0 ], [ 2704294.0, 7758091.0 ], [ 2704339.0, 7758065.0 ], [ 2704361.0, 7758053.0 ], [ 2704414.0, 7758029.0 ], [ 2704451.0, 7758013.0 ], [ 2704578.0, 7757960.0 ], [ 2704612.0, 7757944.0 ], [ 2704619.0, 7757941.0 ], [ 2704642.0, 7757931.0 ], [ 2704744.0, 7757873.0 ], [ 2704749.0, 7757871.0 ], [ 2704790.0, 7757850.0 ], [ 2704840.0, 7757832.0 ], [ 2704896.0, 7757809.0 ], [ 2704933.0, 7757800.0 ], [ 2704996.0, 7757782.0 ], [ 2705013.0, 7757778.0 ], [ 2705081.0, 7757755.0 ], [ 2705161.0, 7757731.0 ], [ 2705257.0, 7757690.0 ], [ 2705258.0, 7757697.0 ], [ 2705265.0, 7757694.0 ], [ 2705320.0, 7757666.0 ], [ 2705338.0, 7757654.0 ], [ 2705399.0, 7757626.0 ], [ 2705455.0, 7757600.0 ], [ 2705509.0, 7757574.0 ], [ 2705510.0, 7757573.0 ], [ 2705516.0, 7757570.0 ], [ 2705612.0, 7757534.0 ], [ 2705632.0, 7757526.0 ], [ 2705642.0, 7757522.0 ], [ 2705658.0, 7757516.0 ], [ 2705671.0, 7757511.0 ], [ 2705684.0, 7757506.0 ], [ 2705690.0, 7757504.0 ], [ 2705728.0, 7757489.0 ], [ 2705748.0, 7757482.0 ], [ 2705740.0, 7757440.0 ], [ 2705737.0, 7757442.0 ], [ 2705664.0, 7757136.0 ], [ 2705661.0, 7757113.0 ], [ 2705671.0, 7757073.0 ], [ 2706005.0, 7756640.0 ], [ 2705818.0, 7756487.0 ], [ 2705790.0, 7756358.0 ], [ 2705703.0, 7756202.0 ], [ 2705649.0, 7756147.0 ], [ 2705606.0, 7756034.0 ], [ 2705746.0, 7755977.0 ], [ 2705854.0, 7755861.0 ], [ 2705931.0, 7755788.0 ], [ 2705957.0, 7755779.0 ], [ 2706011.0, 7755731.0 ], [ 2706064.0, 7755684.0 ], [ 2706071.0, 7755678.0 ], [ 2706081.0, 7755677.0 ], [ 2706172.0, 7755668.0 ], [ 2706235.0, 7755661.0 ], [ 2706289.0, 7755656.0 ], [ 2706344.0, 7755650.0 ], [ 2706338.0, 7755637.0 ], [ 2706667.0, 7755611.0 ], [ 2706650.0, 7755590.0 ], [ 2706630.0, 7755551.0 ], [ 2706626.0, 7755526.0 ], [ 2706627.0, 7755501.0 ], [ 2706634.0, 7755471.0 ], [ 2706646.0, 7755438.0 ], [ 2706662.0, 7755402.0 ], [ 2706689.0, 7755347.0 ], [ 2706704.0, 7755320.0 ], [ 2706721.0, 7755300.0 ], [ 2706734.0, 7755287.0 ], [ 2706796.0, 7755238.0 ], [ 2706872.0, 7755158.0 ], [ 2706893.0, 7755136.0 ], [ 2706903.0, 7755121.0 ], [ 2706919.0, 7755097.0 ], [ 2706931.0, 7755073.0 ], [ 2706937.0, 7755060.0 ], [ 2706950.0, 7755005.0 ], [ 2706953.0, 7754986.0 ], [ 2706949.0, 7754972.0 ], [ 2706923.0, 7754938.0 ], [ 2706913.0, 7754918.0 ], [ 2706903.0, 7754897.0 ], [ 2706903.0, 7754883.0 ], [ 2706910.0, 7754756.0 ], [ 2707290.0, 7754489.0 ], [ 2707396.0, 7754416.0 ], [ 2707550.0, 7754280.0 ], [ 2707592.0, 7754242.0 ], [ 2707630.0, 7754177.0 ], [ 2707730.0, 7754008.0 ], [ 2707674.0, 7753971.0 ], [ 2707685.0, 7753947.0 ], [ 2707695.0, 7753888.0 ], [ 2707698.0, 7753835.0 ], [ 2707711.0, 7753776.0 ], [ 2707734.0, 7753737.0 ], [ 2707772.0, 7753684.0 ], [ 2707791.0, 7753657.0 ], [ 2707762.0, 7753642.0 ], [ 2707705.0, 7753583.0 ], [ 2707531.0, 7753399.0 ], [ 2707531.0, 7753349.0 ], [ 2707531.0, 7753326.0 ], [ 2707389.0, 7753356.0 ], [ 2707210.0, 7753282.0 ], [ 2707033.0, 7753211.0 ], [ 2706815.0, 7753235.0 ], [ 2706651.0, 7753337.0 ], [ 2706621.0, 7753311.0 ], [ 2706296.0, 7753026.0 ], [ 2705977.0, 7752747.0 ], [ 2705833.0, 7752599.0 ], [ 2705793.0, 7752527.0 ], [ 2705647.0, 7752257.0 ], [ 2705491.0, 7752194.0 ], [ 2705510.0, 7752158.0 ], [ 2705451.0, 7752136.0 ], [ 2705259.0, 7752053.0 ], [ 2705244.0, 7752040.0 ], [ 2705003.0, 7751839.0 ], [ 2704987.0, 7751829.0 ], [ 2704966.0, 7751816.0 ], [ 2704790.0, 7751710.0 ], [ 2704607.0, 7751629.0 ], [ 2704288.0, 7751424.0 ], [ 2704085.0, 7751350.0 ], [ 2703906.0, 7751175.0 ], [ 2703821.0, 7751091.0 ], [ 2703820.0, 7751092.0 ], [ 2703788.0, 7751059.0 ], [ 2703757.0, 7751025.0 ], [ 2703724.0, 7750992.0 ], [ 2703680.0, 7750950.0 ], [ 2703671.0, 7750942.0 ], [ 2703662.0, 7750951.0 ], [ 2703595.0, 7751021.0 ], [ 2703534.0, 7751085.0 ], [ 2703535.0, 7751088.0 ], [ 2703462.0, 7751170.0 ], [ 2703458.0, 7751165.0 ], [ 2703425.0, 7751200.0 ], [ 2703346.0, 7751288.0 ], [ 2703323.0, 7751315.0 ], [ 2703263.0, 7751382.0 ], [ 2703251.0, 7751383.0 ], [ 2703120.0, 7751392.0 ], [ 2703058.0, 7751397.0 ], [ 2702724.0, 7751423.0 ], [ 2702565.0, 7751422.0 ], [ 2702407.0, 7751421.0 ], [ 2702308.0, 7751420.0 ], [ 2701956.0, 7751425.0 ], [ 2701727.0, 7751433.0 ], [ 2701715.0, 7751371.0 ], [ 2701737.0, 7751260.0 ], [ 2701718.0, 7751194.0 ], [ 2701654.0, 7751048.0 ], [ 2701617.0, 7751005.0 ], [ 2701584.0, 7750953.0 ], [ 2701552.0, 7750708.0 ], [ 2701595.0, 7750580.0 ], [ 2701606.0, 7750549.0 ], [ 2701650.0, 7750369.0 ], [ 2701717.0, 7750042.0 ], [ 2701684.0, 7750030.0 ], [ 2701667.0, 7750023.0 ], [ 2701518.0, 7749964.0 ], [ 2701508.0, 7749960.0 ], [ 2701500.0, 7749956.0 ], [ 2701366.0, 7749862.0 ], [ 2701320.0, 7749840.0 ], [ 2701257.0, 7749811.0 ], [ 2701253.0, 7749809.0 ], [ 2701187.0, 7749779.0 ], [ 2701081.0, 7749730.0 ], [ 2700990.0, 7749688.0 ], [ 2700971.0, 7749712.0 ], [ 2700432.0, 7750395.0 ], [ 2700321.0, 7750782.0 ], [ 2700216.0, 7751148.0 ], [ 2699903.0, 7751104.0 ], [ 2699843.0, 7751095.0 ], [ 2699808.0, 7750879.0 ], [ 2699795.0, 7750796.0 ], [ 2699793.0, 7750788.0 ], [ 2699760.0, 7750726.0 ], [ 2699736.0, 7750670.0 ], [ 2699344.0, 7749866.0 ], [ 2699238.0, 7749650.0 ], [ 2699024.0, 7749026.0 ], [ 2699000.0, 7748957.0 ], [ 2698992.0, 7748932.0 ], [ 2698959.0, 7748835.0 ], [ 2698935.0, 7748764.0 ], [ 2698897.0, 7748651.0 ], [ 2698885.0, 7748616.0 ], [ 2698884.0, 7748613.0 ], [ 2698868.0, 7748565.0 ], [ 2698856.0, 7748529.0 ], [ 2698768.0, 7748488.0 ], [ 2698754.0, 7748481.0 ], [ 2698720.0, 7748466.0 ], [ 2698647.0, 7748432.0 ], [ 2698584.0, 7748402.0 ], [ 2698564.0, 7748393.0 ], [ 2698535.0, 7748380.0 ], [ 2698460.0, 7748345.0 ], [ 2698400.0, 7748275.0 ], [ 2698393.0, 7748266.0 ], [ 2698278.0, 7748133.0 ], [ 2698181.0, 7748021.0 ], [ 2698174.0, 7748012.0 ], [ 2698168.0, 7748006.0 ], [ 2698167.0, 7748004.0 ], [ 2698112.0, 7747940.0 ], [ 2698073.0, 7747895.0 ], [ 2698027.0, 7747841.0 ], [ 2697959.0, 7747763.0 ], [ 2697942.0, 7747742.0 ], [ 2697940.0, 7747740.0 ], [ 2697938.0, 7747738.0 ], [ 2697887.0, 7747664.0 ], [ 2697752.0, 7747471.0 ], [ 2697749.0, 7747457.0 ], [ 2697653.0, 7747325.0 ], [ 2697839.0, 7747072.0 ], [ 2697828.0, 7747045.0 ], [ 2697959.0, 7745919.0 ], [ 2697967.0, 7745842.0 ], [ 2697968.0, 7745833.0 ], [ 2698017.0, 7745403.0 ], [ 2698080.0, 7744837.0 ], [ 2698103.0, 7744592.0 ], [ 2698127.0, 7744339.0 ], [ 2697954.0, 7744338.0 ], [ 2697956.0, 7744300.0 ], [ 2697978.0, 7743920.0 ], [ 2697980.0, 7743892.0 ], [ 2697983.0, 7743839.0 ], [ 2697987.0, 7743698.0 ], [ 2697997.0, 7743375.0 ], [ 2698005.0, 7743073.0 ], [ 2698014.0, 7742871.0 ], [ 2698017.0, 7742803.0 ], [ 2698019.0, 7742786.0 ], [ 2698023.0, 7742741.0 ], [ 2698026.0, 7742570.0 ], [ 2698029.0, 7742424.0 ], [ 2698029.0, 7742407.0 ], [ 2698029.0, 7742388.0 ], [ 2698029.0, 7742382.0 ], [ 2698026.0, 7742344.0 ], [ 2698014.0, 7742273.0 ], [ 2698013.0, 7742266.0 ], [ 2697999.0, 7742178.0 ], [ 2697912.0, 7741649.0 ], [ 2697912.0, 7741648.0 ], [ 2697908.0, 7741616.0 ], [ 2697880.0, 7741402.0 ], [ 2697855.0, 7741205.0 ], [ 2697813.0, 7740875.0 ], [ 2697791.0, 7740701.0 ], [ 2697788.0, 7740678.0 ], [ 2697788.0, 7740677.0 ], [ 2697691.0, 7740221.0 ], [ 2697683.0, 7740180.0 ], [ 2697672.0, 7740129.0 ], [ 2697635.0, 7740131.0 ], [ 2697609.0, 7740132.0 ], [ 2697465.0, 7739978.0 ], [ 2697451.0, 7739962.0 ], [ 2697274.0, 7739772.0 ], [ 2697280.0, 7739766.0 ], [ 2697394.0, 7739659.0 ], [ 2697398.0, 7739656.0 ], [ 2697449.0, 7739608.0 ], [ 2697524.0, 7739538.0 ], [ 2697534.0, 7739528.0 ], [ 2697688.0, 7739383.0 ], [ 2697682.0, 7739377.0 ], [ 2697498.0, 7739181.0 ], [ 2697498.0, 7739183.0 ], [ 2697458.0, 7739221.0 ], [ 2697348.0, 7739324.0 ], [ 2697210.0, 7739176.0 ], [ 2697047.0, 7739010.0 ], [ 2697329.0, 7738746.0 ], [ 2697449.0, 7738633.0 ], [ 2697779.0, 7738322.0 ], [ 2697975.0, 7738137.0 ], [ 2697972.0, 7738133.0 ], [ 2698242.0, 7737883.0 ], [ 2698348.0, 7737782.0 ], [ 2698560.0, 7737583.0 ], [ 2698648.0, 7737498.0 ], [ 2698733.0, 7737416.0 ], [ 2698769.0, 7737382.0 ], [ 2699030.0, 7737130.0 ], [ 2699068.0, 7737091.0 ], [ 2699102.0, 7737057.0 ], [ 2699104.0, 7737056.0 ], [ 2699218.0, 7736979.0 ], [ 2699374.0, 7736832.0 ], [ 2699314.0, 7736744.0 ], [ 2699272.0, 7736658.0 ], [ 2698945.0, 7736198.0 ], [ 2698938.0, 7736188.0 ], [ 2698987.0, 7736151.0 ], [ 2699042.0, 7736109.0 ], [ 2699148.0, 7736029.0 ], [ 2699162.0, 7736018.0 ], [ 2699321.0, 7735882.0 ], [ 2699362.0, 7735854.0 ], [ 2699520.0, 7735744.0 ], [ 2699612.0, 7735674.0 ], [ 2699627.0, 7735662.0 ], [ 2699683.0, 7735619.0 ], [ 2699725.0, 7735587.0 ], [ 2699744.0, 7735572.0 ], [ 2699769.0, 7735553.0 ], [ 2699890.0, 7735460.0 ], [ 2699895.0, 7735456.0 ], [ 2699907.0, 7735447.0 ], [ 2700078.0, 7735316.0 ], [ 2700142.0, 7735268.0 ], [ 2700205.0, 7735219.0 ], [ 2700206.0, 7735218.0 ], [ 2700355.0, 7735103.0 ], [ 2700356.0, 7735103.0 ], [ 2700365.0, 7735096.0 ], [ 2700438.0, 7735040.0 ], [ 2700590.0, 7734924.0 ], [ 2700731.0, 7734819.0 ], [ 2701136.0, 7734516.0 ], [ 2701181.0, 7734481.0 ], [ 2701287.0, 7734400.0 ], [ 2701467.0, 7734261.0 ], [ 2701470.0, 7734258.0 ], [ 2701680.0, 7734091.0 ], [ 2701837.0, 7733966.0 ], [ 2701900.0, 7733917.0 ], [ 2702082.0, 7733780.0 ], [ 2702264.0, 7733643.0 ], [ 2702263.0, 7733642.0 ], [ 2702661.0, 7733336.0 ], [ 2703059.0, 7733031.0 ], [ 2703250.0, 7732885.0 ], [ 2703289.0, 7732856.0 ], [ 2703359.0, 7732807.0 ], [ 2703401.0, 7732778.0 ], [ 2703473.0, 7732733.0 ], [ 2703519.0, 7732705.0 ], [ 2703566.0, 7732676.0 ], [ 2703615.0, 7732649.0 ], [ 2703708.0, 7732599.0 ], [ 2704409.0, 7732267.0 ], [ 2705064.0, 7731956.0 ], [ 2705488.0, 7731755.0 ], [ 2705511.0, 7731745.0 ], [ 2705514.0, 7731733.0 ], [ 2705809.0, 7731593.0 ], [ 2705814.0, 7731607.0 ], [ 2705980.0, 7731527.0 ], [ 2706102.0, 7731468.0 ], [ 2706160.0, 7731450.0 ], [ 2706170.0, 7731446.0 ], [ 2706240.0, 7731418.0 ], [ 2706109.0, 7731352.0 ], [ 2706071.0, 7731328.0 ], [ 2705998.0, 7731282.0 ], [ 2705920.0, 7731261.0 ], [ 2705919.0, 7731262.0 ], [ 2705862.0, 7731241.0 ], [ 2705860.0, 7731245.0 ], [ 2705838.0, 7731232.0 ], [ 2705746.0, 7731222.0 ], [ 2705355.0, 7731152.0 ], [ 2705016.0, 7731101.0 ], [ 2704617.0, 7731047.0 ], [ 2704258.0, 7731017.0 ], [ 2704134.0, 7731041.0 ], [ 2704129.0, 7731023.0 ], [ 2704107.0, 7731021.0 ], [ 2704078.0, 7731030.0 ], [ 2704083.0, 7731051.0 ], [ 2703997.0, 7731067.0 ], [ 2703641.0, 7731224.0 ], [ 2703126.0, 7731403.0 ], [ 2703104.0, 7731405.0 ], [ 2702631.0, 7731447.0 ], [ 2702533.0, 7731441.0 ], [ 2702258.0, 7731424.0 ], [ 2702221.0, 7731416.0 ], [ 2702121.0, 7731396.0 ], [ 2702117.0, 7731395.0 ], [ 2701964.0, 7731396.0 ], [ 2701879.0, 7731393.0 ], [ 2701851.0, 7731392.0 ], [ 2701706.0, 7731401.0 ], [ 2701498.0, 7731456.0 ], [ 2701290.0, 7731512.0 ], [ 2701115.0, 7731582.0 ], [ 2701046.0, 7731483.0 ], [ 2701006.0, 7731427.0 ], [ 2700830.0, 7731178.0 ], [ 2700075.0, 7732030.0 ], [ 2698773.0, 7733366.0 ], [ 2698279.0, 7733738.0 ], [ 2697482.0, 7734344.0 ], [ 2696459.0, 7734804.0 ], [ 2695486.0, 7735325.0 ], [ 2694741.0, 7735993.0 ], [ 2693883.0, 7736763.0 ], [ 2693111.0, 7738205.0 ], [ 2692464.0, 7739437.0 ], [ 2692347.0, 7739670.0 ], [ 2692275.0, 7739811.0 ], [ 2690516.0, 7741128.0 ], [ 2689886.0, 7740606.0 ], [ 2689692.0, 7740716.0 ], [ 2689262.0, 7740961.0 ], [ 2689263.0, 7740920.0 ], [ 2689272.0, 7740699.0 ], [ 2689227.0, 7740700.0 ], [ 2689203.0, 7740701.0 ], [ 2689170.0, 7740702.0 ], [ 2688636.0, 7740733.0 ], [ 2688642.0, 7740841.0 ], [ 2688645.0, 7740914.0 ], [ 2688647.0, 7740946.0 ], [ 2688648.0, 7740956.0 ], [ 2688650.0, 7740994.0 ], [ 2688653.0, 7741041.0 ], [ 2688655.0, 7741074.0 ], [ 2688655.0, 7741081.0 ], [ 2688660.0, 7741164.0 ], [ 2688527.0, 7741176.0 ], [ 2688555.0, 7741504.0 ], [ 2688546.0, 7741546.0 ], [ 2688532.0, 7741568.0 ], [ 2688494.0, 7741629.0 ], [ 2688487.0, 7741640.0 ], [ 2688468.0, 7741671.0 ], [ 2688413.0, 7741758.0 ], [ 2688377.0, 7741756.0 ], [ 2688306.0, 7741750.0 ], [ 2688304.0, 7741727.0 ], [ 2688270.0, 7741725.0 ], [ 2688269.0, 7741711.0 ], [ 2688226.0, 7741710.0 ], [ 2688227.0, 7741686.0 ], [ 2688057.0, 7741695.0 ], [ 2687941.0, 7741701.0 ], [ 2687945.0, 7741632.0 ], [ 2687899.0, 7741606.0 ], [ 2687918.0, 7741233.0 ], [ 2687953.0, 7740506.0 ], [ 2687954.0, 7740500.0 ], [ 2687964.0, 7740317.0 ], [ 2687967.0, 7740269.0 ], [ 2687975.0, 7740120.0 ], [ 2687977.0, 7740077.0 ], [ 2687989.0, 7739859.0 ], [ 2688009.0, 7739493.0 ], [ 2688015.0, 7739402.0 ], [ 2688033.0, 7739219.0 ], [ 2688044.0, 7739072.0 ], [ 2688036.0, 7739068.0 ], [ 2688044.0, 7738978.0 ], [ 2688022.0, 7738950.0 ], [ 2688012.0, 7738950.0 ], [ 2687987.0, 7738947.0 ], [ 2687761.0, 7738928.0 ], [ 2687478.0, 7738785.0 ], [ 2687428.0, 7738760.0 ], [ 2687412.0, 7738782.0 ], [ 2687332.0, 7738888.0 ], [ 2687223.0, 7739033.0 ], [ 2686936.0, 7739416.0 ], [ 2686935.0, 7739422.0 ], [ 2686836.0, 7739555.0 ], [ 2686817.0, 7739582.0 ], [ 2686782.0, 7739631.0 ], [ 2686732.0, 7739604.0 ], [ 2686682.0, 7739581.0 ], [ 2686588.0, 7739507.0 ], [ 2686569.0, 7739498.0 ], [ 2686539.0, 7739483.0 ], [ 2686488.0, 7739466.0 ], [ 2686399.0, 7739435.0 ], [ 2686242.0, 7739335.0 ], [ 2686232.0, 7739336.0 ], [ 2686173.0, 7739339.0 ], [ 2686156.0, 7739343.0 ], [ 2685903.0, 7739394.0 ], [ 2685691.0, 7739437.0 ], [ 2685397.0, 7739379.0 ], [ 2685320.0, 7739364.0 ], [ 2685262.0, 7739352.0 ], [ 2685306.0, 7739239.0 ], [ 2685327.0, 7739078.0 ], [ 2685371.0, 7738987.0 ], [ 2685323.0, 7738969.0 ], [ 2685273.0, 7738950.0 ], [ 2685230.0, 7738934.0 ], [ 2685206.0, 7738957.0 ], [ 2685107.0, 7738883.0 ], [ 2684973.0, 7738785.0 ], [ 2684955.0, 7738760.0 ], [ 2684912.0, 7738706.0 ], [ 2684879.0, 7738664.0 ], [ 2684845.0, 7738621.0 ], [ 2684821.0, 7738591.0 ], [ 2684817.0, 7738585.0 ], [ 2684808.0, 7738574.0 ], [ 2684787.0, 7738547.0 ], [ 2684780.0, 7738538.0 ], [ 2684773.0, 7738529.0 ], [ 2684687.0, 7738569.0 ], [ 2684650.0, 7738576.0 ], [ 2684647.0, 7738577.0 ], [ 2684086.0, 7738683.0 ], [ 2683227.0, 7738288.0 ], [ 2682859.0, 7738042.0 ], [ 2682955.0, 7737585.0 ], [ 2683058.0, 7737090.0 ], [ 2683148.0, 7736660.0 ], [ 2683203.0, 7736400.0 ], [ 2683336.0, 7735761.0 ], [ 2683343.0, 7735728.0 ], [ 2683332.0, 7735725.0 ], [ 2682908.0, 7735623.0 ], [ 2682394.0, 7735500.0 ], [ 2682070.0, 7735422.0 ], [ 2681746.0, 7735344.0 ], [ 2681644.0, 7735319.0 ], [ 2681431.0, 7735268.0 ], [ 2681117.0, 7735192.0 ], [ 2680425.0, 7735026.0 ], [ 2680257.0, 7734985.0 ], [ 2679750.0, 7734863.0 ], [ 2679690.0, 7734849.0 ], [ 2679426.0, 7734785.0 ], [ 2679391.0, 7734777.0 ], [ 2679347.0, 7734767.0 ], [ 2679520.0, 7735432.0 ], [ 2679569.0, 7735616.0 ], [ 2679650.0, 7735928.0 ], [ 2679685.0, 7736062.0 ], [ 2679852.0, 7736695.0 ], [ 2679929.0, 7736874.0 ], [ 2679961.0, 7737016.0 ], [ 2679967.0, 7737048.0 ], [ 2679964.0, 7737049.0 ], [ 2679972.0, 7737088.0 ], [ 2679996.0, 7737207.0 ], [ 2680000.0, 7737229.0 ], [ 2680039.0, 7737646.0 ], [ 2680050.0, 7737825.0 ], [ 2680040.0, 7737851.0 ], [ 2680041.0, 7737870.0 ], [ 2680036.0, 7737896.0 ], [ 2679993.0, 7738122.0 ], [ 2679968.0, 7738289.0 ], [ 2679938.0, 7738487.0 ], [ 2680059.0, 7738808.0 ], [ 2680067.0, 7738828.0 ], [ 2680104.0, 7738927.0 ], [ 2680123.0, 7738978.0 ], [ 2680138.0, 7739016.0 ], [ 2680167.0, 7739113.0 ], [ 2680179.0, 7739111.0 ], [ 2680232.0, 7739243.0 ], [ 2680207.0, 7739246.0 ], [ 2680211.0, 7739259.0 ], [ 2680236.0, 7739323.0 ], [ 2680277.0, 7739370.0 ], [ 2680319.0, 7739478.0 ], [ 2680352.0, 7739563.0 ], [ 2680373.0, 7739617.0 ], [ 2680397.0, 7739680.0 ], [ 2680435.0, 7739783.0 ], [ 2680439.0, 7739795.0 ], [ 2680457.0, 7739850.0 ], [ 2680481.0, 7739900.0 ], [ 2680502.0, 7739954.0 ], [ 2680504.0, 7739968.0 ], [ 2680535.0, 7740052.0 ], [ 2680538.0, 7740064.0 ], [ 2680555.0, 7740111.0 ], [ 2680573.0, 7740165.0 ], [ 2680591.0, 7740215.0 ], [ 2680594.0, 7740220.0 ], [ 2680596.0, 7740225.0 ], [ 2680614.0, 7740275.0 ], [ 2680631.0, 7740320.0 ], [ 2680646.0, 7740361.0 ], [ 2680676.0, 7740440.0 ], [ 2680677.0, 7740443.0 ], [ 2680678.0, 7740446.0 ], [ 2680699.0, 7740495.0 ], [ 2680734.0, 7740586.0 ], [ 2680736.0, 7740590.0 ], [ 2680737.0, 7740590.0 ], [ 2680738.0, 7740593.0 ], [ 2680771.0, 7740679.0 ], [ 2680773.0, 7740686.0 ], [ 2680785.0, 7740714.0 ], [ 2680788.0, 7740723.0 ], [ 2680804.0, 7740764.0 ], [ 2680804.0, 7740770.0 ], [ 2680712.0, 7740805.0 ], [ 2680551.0, 7740865.0 ], [ 2680495.0, 7740885.0 ], [ 2680124.0, 7741026.0 ], [ 2680126.0, 7741035.0 ], [ 2680234.0, 7741548.0 ], [ 2680168.0, 7741562.0 ], [ 2680151.0, 7741566.0 ], [ 2680138.0, 7741567.0 ], [ 2680000.0, 7741596.0 ], [ 2679973.0, 7741602.0 ], [ 2679895.0, 7741617.0 ], [ 2679871.0, 7741622.0 ], [ 2679786.0, 7741639.0 ], [ 2679745.0, 7741648.0 ], [ 2679659.0, 7741665.0 ], [ 2679566.0, 7741684.0 ], [ 2679554.0, 7741687.0 ], [ 2679543.0, 7741689.0 ], [ 2679489.0, 7741700.0 ], [ 2679436.0, 7741710.0 ], [ 2679415.0, 7741714.0 ], [ 2679361.0, 7741726.0 ], [ 2679362.0, 7741728.0 ], [ 2679287.0, 7741744.0 ], [ 2679276.0, 7741746.0 ], [ 2679268.0, 7741748.0 ], [ 2679165.0, 7741769.0 ], [ 2679108.0, 7741781.0 ], [ 2679086.0, 7741786.0 ], [ 2679029.0, 7741797.0 ], [ 2678987.0, 7741807.0 ], [ 2678938.0, 7741818.0 ], [ 2678921.0, 7741821.0 ], [ 2678838.0, 7741842.0 ], [ 2678829.0, 7741843.0 ], [ 2678792.0, 7741853.0 ], [ 2678767.0, 7741859.0 ], [ 2678726.0, 7741868.0 ], [ 2678686.0, 7741879.0 ], [ 2678632.0, 7741890.0 ], [ 2678507.0, 7741916.0 ], [ 2678450.0, 7741926.0 ], [ 2678441.0, 7741928.0 ], [ 2678383.0, 7741939.0 ], [ 2678317.0, 7741956.0 ], [ 2678253.0, 7741973.0 ], [ 2678171.0, 7741990.0 ], [ 2678170.0, 7741986.0 ], [ 2678161.0, 7741988.0 ], [ 2678019.0, 7742018.0 ], [ 2677725.0, 7742085.0 ], [ 2677714.0, 7742087.0 ], [ 2677703.0, 7742089.0 ], [ 2677653.0, 7742100.0 ], [ 2677496.0, 7742132.0 ], [ 2677442.0, 7742143.0 ], [ 2677381.0, 7742156.0 ], [ 2677329.0, 7742167.0 ], [ 2677311.0, 7742172.0 ], [ 2677268.0, 7742182.0 ], [ 2677259.0, 7742184.0 ], [ 2677179.0, 7742201.0 ], [ 2677129.0, 7742212.0 ], [ 2677080.0, 7742221.0 ], [ 2677030.0, 7742231.0 ], [ 2676920.0, 7742249.0 ], [ 2676869.0, 7742260.0 ], [ 2676768.0, 7742286.0 ], [ 2676767.0, 7742276.0 ], [ 2676749.0, 7742279.0 ], [ 2676719.0, 7742271.0 ], [ 2676706.0, 7742304.0 ], [ 2676702.0, 7742304.0 ], [ 2676700.0, 7742323.0 ], [ 2676688.0, 7742536.0 ], [ 2676692.0, 7742536.0 ], [ 2676685.0, 7742600.0 ], [ 2676661.0, 7742805.0 ], [ 2676647.0, 7742850.0 ], [ 2676626.0, 7742866.0 ], [ 2676622.0, 7742872.0 ], [ 2676579.0, 7742932.0 ], [ 2676550.0, 7743024.0 ], [ 2676547.0, 7743056.0 ], [ 2676531.0, 7743085.0 ], [ 2676506.0, 7743159.0 ], [ 2676506.0, 7743180.0 ], [ 2676511.0, 7743200.0 ], [ 2676516.0, 7743212.0 ], [ 2676522.0, 7743228.0 ], [ 2676542.0, 7743248.0 ], [ 2676577.0, 7743266.0 ], [ 2676601.0, 7743279.0 ], [ 2676567.0, 7743308.0 ], [ 2676411.0, 7743273.0 ], [ 2676321.0, 7743333.0 ], [ 2676293.0, 7743336.0 ], [ 2676277.0, 7743479.0 ], [ 2676260.0, 7743509.0 ], [ 2676227.0, 7743788.0 ], [ 2676220.0, 7743853.0 ], [ 2676216.0, 7743887.0 ], [ 2676210.0, 7743932.0 ], [ 2676202.0, 7744002.0 ], [ 2676206.0, 7744020.0 ], [ 2676108.0, 7744894.0 ], [ 2676095.0, 7745067.0 ], [ 2676094.0, 7745078.0 ], [ 2676090.0, 7745135.0 ], [ 2675934.0, 7745162.0 ], [ 2675933.0, 7745169.0 ], [ 2675762.0, 7745179.0 ], [ 2675525.0, 7745193.0 ], [ 2675520.0, 7745193.0 ], [ 2675520.0, 7745192.0 ], [ 2675510.0, 7745192.0 ], [ 2675506.0, 7745218.0 ], [ 2675346.0, 7745232.0 ], [ 2675289.0, 7745235.0 ], [ 2675281.0, 7745236.0 ], [ 2674963.0, 7745272.0 ], [ 2674970.0, 7745204.0 ], [ 2674949.0, 7745211.0 ], [ 2674948.0, 7745220.0 ], [ 2674812.0, 7745257.0 ], [ 2674615.0, 7745313.0 ], [ 2674287.0, 7745383.0 ], [ 2674222.0, 7745395.0 ], [ 2674168.0, 7745406.0 ], [ 2674028.0, 7745435.0 ], [ 2673919.0, 7745457.0 ], [ 2673783.0, 7745485.0 ], [ 2673741.0, 7745496.0 ], [ 2673717.0, 7745500.0 ], [ 2673693.0, 7745508.0 ], [ 2673605.0, 7745534.0 ], [ 2673509.0, 7745566.0 ], [ 2673485.0, 7745574.0 ], [ 2673431.0, 7745595.0 ], [ 2673346.0, 7745630.0 ], [ 2673183.0, 7745604.0 ], [ 2672904.0, 7745606.0 ], [ 2672684.0, 7745603.0 ], [ 2672664.0, 7745597.0 ], [ 2672600.0, 7745560.0 ], [ 2672591.0, 7745554.0 ], [ 2672584.0, 7745549.0 ], [ 2672580.0, 7745547.0 ], [ 2672545.0, 7745519.0 ], [ 2672510.0, 7745492.0 ], [ 2672493.0, 7745479.0 ], [ 2672469.0, 7745461.0 ], [ 2672430.0, 7745440.0 ], [ 2672392.0, 7745429.0 ], [ 2672381.0, 7745425.0 ], [ 2672363.0, 7745413.0 ], [ 2672055.0, 7745380.0 ], [ 2672049.0, 7745379.0 ], [ 2671951.0, 7745368.0 ], [ 2671874.0, 7745360.0 ], [ 2671777.0, 7745379.0 ], [ 2671387.0, 7745299.0 ], [ 2670847.0, 7745552.0 ], [ 2670511.0, 7745863.0 ], [ 2669977.0, 7746345.0 ], [ 2669740.0, 7746568.0 ], [ 2669633.0, 7746527.0 ], [ 2669160.0, 7746964.0 ], [ 2669200.0, 7746988.0 ], [ 2669199.0, 7746997.0 ], [ 2668432.0, 7747004.0 ], [ 2668257.0, 7746757.0 ], [ 2668197.0, 7746672.0 ], [ 2668142.0, 7746595.0 ], [ 2668030.0, 7746500.0 ], [ 2667682.0, 7746789.0 ], [ 2667531.0, 7746905.0 ], [ 2667470.0, 7746951.0 ], [ 2667417.0, 7746991.0 ], [ 2667373.0, 7747024.0 ], [ 2667330.0, 7747058.0 ], [ 2667300.0, 7747080.0 ], [ 2667286.0, 7747091.0 ], [ 2667259.0, 7747111.0 ], [ 2667242.0, 7747125.0 ], [ 2667116.0, 7747232.0 ], [ 2667041.0, 7747295.0 ], [ 2666928.0, 7747378.0 ], [ 2666908.0, 7747394.0 ], [ 2666800.0, 7747483.0 ], [ 2666510.0, 7747709.0 ], [ 2665989.0, 7748097.0 ], [ 2665970.0, 7748114.0 ], [ 2665936.0, 7748165.0 ], [ 2665904.0, 7748221.0 ], [ 2665841.0, 7748318.0 ], [ 2665783.0, 7748418.0 ], [ 2665751.0, 7748463.0 ], [ 2665723.0, 7748507.0 ], [ 2665721.0, 7748512.0 ], [ 2665690.0, 7748559.0 ], [ 2665666.0, 7748595.0 ], [ 2665639.0, 7748635.0 ], [ 2665644.0, 7748640.0 ], [ 2665606.0, 7748697.0 ], [ 2665801.0, 7748837.0 ], [ 2665855.0, 7748874.0 ], [ 2665912.0, 7748913.0 ], [ 2666021.0, 7748989.0 ], [ 2666176.0, 7749097.0 ], [ 2666312.0, 7749191.0 ], [ 2666328.0, 7749222.0 ], [ 2666363.0, 7749244.0 ], [ 2666452.0, 7749298.0 ], [ 2666579.0, 7749382.0 ], [ 2666695.0, 7749459.0 ], [ 2666817.0, 7749542.0 ], [ 2667073.0, 7749726.0 ], [ 2667110.0, 7749755.0 ], [ 2667181.0, 7749810.0 ], [ 2667224.0, 7749843.0 ], [ 2667349.0, 7749917.0 ], [ 2667616.0, 7750075.0 ], [ 2667916.0, 7750282.0 ], [ 2668042.0, 7750369.0 ], [ 2668373.0, 7750586.0 ], [ 2668392.0, 7750598.0 ], [ 2667961.0, 7750759.0 ], [ 2667754.0, 7750839.0 ], [ 2666955.0, 7751166.0 ], [ 2667021.0, 7751205.0 ], [ 2667084.0, 7751245.0 ], [ 2667263.0, 7751357.0 ], [ 2667316.0, 7751368.0 ], [ 2667322.0, 7751373.0 ], [ 2667385.0, 7751435.0 ], [ 2667358.0, 7751566.0 ], [ 2667336.0, 7751672.0 ], [ 2667333.0, 7751689.0 ], [ 2667662.0, 7751739.0 ], [ 2668482.0, 7751872.0 ], [ 2668572.0, 7751739.0 ], [ 2668605.0, 7751706.0 ], [ 2668625.0, 7751684.0 ], [ 2668668.0, 7751689.0 ], [ 2668715.0, 7751694.0 ], [ 2668776.0, 7751700.0 ], [ 2668887.0, 7751712.0 ], [ 2668949.0, 7751718.0 ], [ 2668981.0, 7751721.0 ], [ 2669005.0, 7751735.0 ], [ 2669065.0, 7751772.0 ], [ 2669143.0, 7751819.0 ], [ 2669134.0, 7751873.0 ], [ 2669125.0, 7751932.0 ], [ 2669115.0, 7752002.0 ], [ 2669823.0, 7752249.0 ], [ 2670445.0, 7752467.0 ], [ 2670619.0, 7752512.0 ], [ 2670878.0, 7752508.0 ], [ 2670939.0, 7752508.0 ], [ 2670976.0, 7752507.0 ], [ 2671082.0, 7752506.0 ], [ 2671082.0, 7752547.0 ], [ 2671162.0, 7752635.0 ], [ 2671178.0, 7752653.0 ], [ 2671189.0, 7752665.0 ], [ 2671243.0, 7752710.0 ], [ 2671452.0, 7752881.0 ], [ 2671539.0, 7752917.0 ], [ 2671678.0, 7753042.0 ], [ 2671888.0, 7753222.0 ], [ 2671988.0, 7753313.0 ], [ 2672209.0, 7753538.0 ], [ 2672398.0, 7753729.0 ], [ 2672613.0, 7753953.0 ], [ 2672980.0, 7754332.0 ], [ 2672782.0, 7754477.0 ], [ 2672607.0, 7754609.0 ], [ 2672282.0, 7754845.0 ], [ 2671822.0, 7755180.0 ], [ 2671217.0, 7755633.0 ], [ 2670827.0, 7755927.0 ], [ 2670447.0, 7756208.0 ], [ 2670394.0, 7756258.0 ], [ 2670441.0, 7756274.0 ], [ 2670472.0, 7756280.0 ], [ 2670488.0, 7756283.0 ], [ 2670575.0, 7756288.0 ], [ 2670599.0, 7756290.0 ], [ 2670651.0, 7756299.0 ], [ 2670742.0, 7756323.0 ], [ 2670812.0, 7756352.0 ], [ 2670835.0, 7756365.0 ], [ 2670857.0, 7756380.0 ], [ 2670910.0, 7756426.0 ], [ 2670959.0, 7756472.0 ], [ 2670999.0, 7756507.0 ], [ 2671022.0, 7756525.0 ], [ 2671041.0, 7756538.0 ], [ 2671063.0, 7756552.0 ], [ 2671125.0, 7756584.0 ], [ 2671157.0, 7756592.0 ], [ 2671296.0, 7756604.0 ], [ 2671328.0, 7756610.0 ], [ 2671357.0, 7756619.0 ], [ 2671439.0, 7756618.0 ], [ 2671965.0, 7756542.0 ], [ 2672045.0, 7756623.0 ], [ 2672048.0, 7756625.0 ], [ 2672056.0, 7756634.0 ], [ 2672081.0, 7756617.0 ], [ 2672125.0, 7756586.0 ], [ 2672170.0, 7756554.0 ], [ 2672204.0, 7756530.0 ], [ 2672223.0, 7756530.0 ], [ 2672320.0, 7756526.0 ], [ 2672478.0, 7756413.0 ], [ 2672623.0, 7756658.0 ], [ 2672675.0, 7756617.0 ], [ 2672765.0, 7756715.0 ], [ 2672855.0, 7756933.0 ], [ 2672884.0, 7756965.0 ], [ 2673056.0, 7757103.0 ], [ 2673013.0, 7757167.0 ], [ 2672928.0, 7757296.0 ], [ 2672852.0, 7757419.0 ], [ 2672839.0, 7757439.0 ], [ 2672821.0, 7757459.0 ], [ 2672781.0, 7757541.0 ], [ 2672772.0, 7757563.0 ], [ 2672766.0, 7757573.0 ], [ 2672762.0, 7757576.0 ], [ 2672757.0, 7757578.0 ], [ 2672734.0, 7757577.0 ], [ 2672668.0, 7757579.0 ], [ 2672560.0, 7757583.0 ], [ 2672346.0, 7757590.0 ], [ 2672308.0, 7757591.0 ], [ 2671909.0, 7757599.0 ], [ 2671511.0, 7757709.0 ], [ 2671000.0, 7757796.0 ], [ 2670387.0, 7757891.0 ], [ 2670367.0, 7757894.0 ], [ 2670310.0, 7757897.0 ], [ 2669912.0, 7757743.0 ], [ 2669693.0, 7757530.0 ], [ 2669611.0, 7757509.0 ], [ 2669179.0, 7757398.0 ], [ 2668948.0, 7757338.0 ], [ 2668670.0, 7757404.0 ], [ 2668435.0, 7757354.0 ], [ 2668426.0, 7757361.0 ], [ 2668244.0, 7757510.0 ], [ 2667913.0, 7757772.0 ], [ 2667658.0, 7757972.0 ], [ 2667570.0, 7758043.0 ], [ 2667391.0, 7758191.0 ], [ 2667287.0, 7758276.0 ], [ 2667095.0, 7758436.0 ], [ 2667064.0, 7758461.0 ], [ 2667023.0, 7758495.0 ], [ 2666914.0, 7758585.0 ], [ 2666826.0, 7758657.0 ], [ 2666675.0, 7758781.0 ], [ 2666515.0, 7758911.0 ], [ 2666475.0, 7758944.0 ], [ 2666355.0, 7759041.0 ] ] ] } }
]
}
