{
"type": "FeatureCollection",
"name": "sarajevo-random-rail",
"crs": { "type": "name", "properties": { "name": "urn:ogc:def:crs:EPSG::3857" } },
"features": [
{ "type": "Feature", "properties": { "source": 84552782, "target": 6907153932, "ordering_random": 0, "length": 11327, "length_cumulative": 11327 }, "geometry": { "type": "LineString", "coordinates": [ [ 2044537.0, 5442902.0 ], [ 2044519.0, 5442900.0 ], [ 2044498.0, 5442897.0 ], [ 2044466.0, 5442892.0 ], [ 2044464.0, 5442898.0 ], [ 2044398.0, 5442880.0 ], [ 2044389.0, 5442877.0 ], [ 2044374.0, 5442880.0 ], [ 2044358.0, 5442882.0 ], [ 2044352.0, 5442887.0 ], [ 2044346.0, 5442885.0 ], [ 2044338.0, 5442883.0 ], [ 2044317.0, 5442878.0 ], [ 2044316.0, 5442881.0 ], [ 2044306.0, 5442888.0 ], [ 2044299.0, 5442893.0 ], [ 2044293.0, 5442889.0 ], [ 2044286.0, 5442887.0 ], [ 2044275.0, 5442888.0 ], [ 2044267.0, 5442891.0 ], [ 2044250.0, 5442900.0 ], [ 2044177.0, 5442933.0 ], [ 2044138.0, 5442949.0 ], [ 2044068.0, 5442952.0 ], [ 2044053.0, 5442956.0 ], [ 2043991.0, 5442974.0 ], [ 2043961.0, 5442992.0 ], [ 2043952.0, 5443002.0 ], [ 2043947.0, 5443011.0 ], [ 2043944.0, 5443017.0 ], [ 2043942.0, 5443047.0 ], [ 2043940.0, 5443050.0 ], [ 2043934.0, 5443052.0 ], [ 2043924.0, 5443053.0 ], [ 2043921.0, 5443056.0 ], [ 2043913.0, 5443070.0 ], [ 2043905.0, 5443087.0 ], [ 2043900.0, 5443112.0 ], [ 2043890.0, 5443133.0 ], [ 2043879.0, 5443146.0 ], [ 2043872.0, 5443152.0 ], [ 2043865.0, 5443155.0 ], [ 2043872.0, 5443173.0 ], [ 2043880.0, 5443186.0 ], [ 2043887.0, 5443192.0 ], [ 2043902.0, 5443198.0 ], [ 2043922.0, 5443207.0 ], [ 2043936.0, 5443212.0 ], [ 2043942.0, 5443217.0 ], [ 2043946.0, 5443223.0 ], [ 2043873.0, 5443235.0 ], [ 2043865.0, 5443235.0 ], [ 2043855.0, 5443257.0 ], [ 2043826.0, 5443286.0 ], [ 2043777.0, 5443303.0 ], [ 2043767.0, 5443307.0 ], [ 2043739.0, 5443320.0 ], [ 2043716.0, 5443332.0 ], [ 2043668.0, 5443354.0 ], [ 2043648.0, 5443366.0 ], [ 2043638.0, 5443374.0 ], [ 2043594.0, 5443423.0 ], [ 2043575.0, 5443441.0 ], [ 2043562.0, 5443452.0 ], [ 2043548.0, 5443464.0 ], [ 2043535.0, 5443464.0 ], [ 2043522.0, 5443468.0 ], [ 2043510.0, 5443476.0 ], [ 2043499.0, 5443486.0 ], [ 2043488.0, 5443505.0 ], [ 2043477.0, 5443531.0 ], [ 2043464.0, 5443568.0 ], [ 2043457.0, 5443582.0 ], [ 2043446.0, 5443595.0 ], [ 2043428.0, 5443610.0 ], [ 2043407.0, 5443620.0 ], [ 2043381.0, 5443622.0 ], [ 2043356.0, 5443618.0 ], [ 2043331.0, 5443608.0 ], [ 2043316.0, 5443598.0 ], [ 2043302.0, 5443579.0 ], [ 2043288.0, 5443559.0 ], [ 2043261.0, 5443521.0 ], [ 2043246.0, 5443502.0 ], [ 2043228.0, 5443491.0 ], [ 2043213.0, 5443486.0 ], [ 2043196.0, 5443481.0 ], [ 2043182.0, 5443479.0 ], [ 2043173.0, 5443479.0 ], [ 2043164.0, 5443483.0 ], [ 2043154.0, 5443489.0 ], [ 2043142.0, 5443502.0 ], [ 2043135.0, 5443516.0 ], [ 2043128.0, 5443535.0 ], [ 2043126.0, 5443554.0 ], [ 2043127.0, 5443562.0 ], [ 2043129.0, 5443574.0 ], [ 2043121.0, 5443577.0 ], [ 2043115.0, 5443578.0 ], [ 2043108.0, 5443579.0 ], [ 2043100.0, 5443578.0 ], [ 2043051.0, 5443562.0 ], [ 2043048.0, 5443562.0 ], [ 2043046.0, 5443565.0 ], [ 2043041.0, 5443587.0 ], [ 2042957.0, 5443586.0 ], [ 2042945.0, 5443585.0 ], [ 2042939.0, 5443585.0 ], [ 2042935.0, 5443588.0 ], [ 2042922.0, 5443613.0 ], [ 2042902.0, 5443614.0 ], [ 2042803.0, 5443631.0 ], [ 2042799.0, 5443634.0 ], [ 2042798.0, 5443639.0 ], [ 2042800.0, 5443663.0 ], [ 2042797.0, 5443673.0 ], [ 2042793.0, 5443678.0 ], [ 2042783.0, 5443690.0 ], [ 2042743.0, 5443698.0 ], [ 2042730.0, 5443703.0 ], [ 2042719.0, 5443711.0 ], [ 2042664.0, 5443775.0 ], [ 2042659.0, 5443777.0 ], [ 2042631.0, 5443769.0 ], [ 2042615.0, 5443768.0 ], [ 2042598.0, 5443773.0 ], [ 2042578.0, 5443773.0 ], [ 2042515.0, 5443761.0 ], [ 2042479.0, 5443759.0 ], [ 2042461.0, 5443758.0 ], [ 2042437.0, 5443761.0 ], [ 2042416.0, 5443763.0 ], [ 2042401.0, 5443767.0 ], [ 2042378.0, 5443777.0 ], [ 2042346.0, 5443765.0 ], [ 2042320.0, 5443756.0 ], [ 2042302.0, 5443750.0 ], [ 2042293.0, 5443746.0 ], [ 2042285.0, 5443743.0 ], [ 2042278.0, 5443741.0 ], [ 2042242.0, 5443742.0 ], [ 2042219.0, 5443742.0 ], [ 2042215.0, 5443739.0 ], [ 2042174.0, 5443760.0 ], [ 2042158.0, 5443767.0 ], [ 2042138.0, 5443777.0 ], [ 2042113.0, 5443784.0 ], [ 2042096.0, 5443789.0 ], [ 2042092.0, 5443790.0 ], [ 2042059.0, 5443792.0 ], [ 2042035.0, 5443791.0 ], [ 2042020.0, 5443784.0 ], [ 2042006.0, 5443775.0 ], [ 2041954.0, 5443721.0 ], [ 2041918.0, 5443750.0 ], [ 2041909.0, 5443759.0 ], [ 2041888.0, 5443777.0 ], [ 2041862.0, 5443806.0 ], [ 2041718.0, 5443891.0 ], [ 2041696.0, 5443890.0 ], [ 2041666.0, 5443893.0 ], [ 2041611.0, 5443893.0 ], [ 2041585.0, 5443892.0 ], [ 2041489.0, 5443888.0 ], [ 2041479.0, 5443887.0 ], [ 2041435.0, 5443874.0 ], [ 2041422.0, 5443875.0 ], [ 2041411.0, 5443878.0 ], [ 2041402.0, 5443885.0 ], [ 2041394.0, 5443894.0 ], [ 2041385.0, 5443912.0 ], [ 2041381.0, 5443924.0 ], [ 2041362.0, 5443963.0 ], [ 2041357.0, 5444015.0 ], [ 2041346.0, 5444050.0 ], [ 2041334.0, 5444075.0 ], [ 2041301.0, 5444097.0 ], [ 2041268.0, 5444111.0 ], [ 2041225.0, 5444125.0 ], [ 2041140.0, 5444167.0 ], [ 2041047.0, 5444209.0 ], [ 2040967.0, 5444248.0 ], [ 2040930.0, 5444281.0 ], [ 2040873.0, 5444364.0 ], [ 2040829.0, 5444418.0 ], [ 2040793.0, 5444458.0 ], [ 2040765.0, 5444483.0 ], [ 2040735.0, 5444519.0 ], [ 2040719.0, 5444532.0 ], [ 2040702.0, 5444542.0 ], [ 2040682.0, 5444550.0 ], [ 2040666.0, 5444551.0 ], [ 2040653.0, 5444550.0 ], [ 2040615.0, 5444539.0 ], [ 2040578.0, 5444535.0 ], [ 2040571.0, 5444534.0 ], [ 2040453.0, 5444436.0 ], [ 2040444.0, 5444432.0 ], [ 2040434.0, 5444431.0 ], [ 2040430.0, 5444442.0 ], [ 2040431.0, 5444453.0 ], [ 2040433.0, 5444477.0 ], [ 2040444.0, 5444517.0 ], [ 2040445.0, 5444530.0 ], [ 2040443.0, 5444544.0 ], [ 2040438.0, 5444558.0 ], [ 2040432.0, 5444577.0 ], [ 2040423.0, 5444598.0 ], [ 2040417.0, 5444614.0 ], [ 2040412.0, 5444632.0 ], [ 2040333.0, 5444722.0 ], [ 2040307.0, 5444759.0 ], [ 2040282.0, 5444771.0 ], [ 2040256.0, 5444777.0 ], [ 2040181.0, 5444778.0 ], [ 2040124.0, 5444790.0 ], [ 2040101.0, 5444801.0 ], [ 2040102.0, 5444806.0 ], [ 2040103.0, 5444833.0 ], [ 2040106.0, 5444855.0 ], [ 2040113.0, 5444882.0 ], [ 2040123.0, 5444901.0 ], [ 2040147.0, 5444942.0 ], [ 2040157.0, 5444982.0 ], [ 2040164.0, 5445011.0 ], [ 2040165.0, 5445048.0 ], [ 2040168.0, 5445086.0 ], [ 2040163.0, 5445114.0 ], [ 2040151.0, 5445127.0 ], [ 2040133.0, 5445128.0 ], [ 2040120.0, 5445110.0 ], [ 2040102.0, 5445113.0 ], [ 2040083.0, 5445102.0 ], [ 2040069.0, 5445085.0 ], [ 2040061.0, 5445082.0 ], [ 2040041.0, 5445113.0 ], [ 2040043.0, 5445159.0 ], [ 2040041.0, 5445184.0 ], [ 2040037.0, 5445207.0 ], [ 2040033.0, 5445236.0 ], [ 2040025.0, 5445258.0 ], [ 2040024.0, 5445275.0 ], [ 2040022.0, 5445283.0 ], [ 2040016.0, 5445286.0 ], [ 2039991.0, 5445286.0 ], [ 2039964.0, 5445291.0 ], [ 2039951.0, 5445305.0 ], [ 2039941.0, 5445315.0 ], [ 2039931.0, 5445322.0 ], [ 2039908.0, 5445339.0 ], [ 2039890.0, 5445343.0 ], [ 2039874.0, 5445352.0 ], [ 2039861.0, 5445367.0 ], [ 2039828.0, 5445423.0 ], [ 2039798.0, 5445468.0 ], [ 2039785.0, 5445490.0 ], [ 2039769.0, 5445513.0 ], [ 2039761.0, 5445531.0 ], [ 2039757.0, 5445555.0 ], [ 2039755.0, 5445571.0 ], [ 2039757.0, 5445597.0 ], [ 2039761.0, 5445625.0 ], [ 2039764.0, 5445634.0 ], [ 2039763.0, 5445645.0 ], [ 2039758.0, 5445655.0 ], [ 2039748.0, 5445665.0 ], [ 2039731.0, 5445675.0 ], [ 2039713.0, 5445684.0 ], [ 2039693.0, 5445691.0 ], [ 2039683.0, 5445693.0 ], [ 2039673.0, 5445693.0 ], [ 2039628.0, 5445689.0 ], [ 2039613.0, 5445692.0 ], [ 2039599.0, 5445697.0 ], [ 2039587.0, 5445705.0 ], [ 2039577.0, 5445719.0 ], [ 2039569.0, 5445742.0 ], [ 2039564.0, 5445761.0 ], [ 2039530.0, 5445772.0 ], [ 2039493.0, 5445783.0 ], [ 2039475.0, 5445803.0 ], [ 2039444.0, 5445825.0 ], [ 2039427.0, 5445839.0 ], [ 2039409.0, 5445852.0 ], [ 2039374.0, 5445872.0 ], [ 2039328.0, 5445896.0 ], [ 2039282.0, 5445922.0 ], [ 2039271.0, 5445928.0 ], [ 2039236.0, 5445950.0 ], [ 2039207.0, 5445977.0 ], [ 2039204.0, 5445980.0 ], [ 2039182.0, 5446011.0 ], [ 2039165.0, 5446028.0 ], [ 2039105.0, 5446070.0 ], [ 2039065.0, 5446093.0 ], [ 2038954.0, 5446159.0 ], [ 2038872.0, 5446205.0 ], [ 2038857.0, 5446212.0 ], [ 2038840.0, 5446217.0 ], [ 2038811.0, 5446223.0 ], [ 2038793.0, 5446227.0 ], [ 2038775.0, 5446228.0 ], [ 2038758.0, 5446229.0 ], [ 2038742.0, 5446228.0 ], [ 2038725.0, 5446226.0 ], [ 2038794.0, 5446296.0 ], [ 2038800.0, 5446304.0 ], [ 2038806.0, 5446313.0 ], [ 2038817.0, 5446336.0 ], [ 2038819.0, 5446340.0 ], [ 2038821.0, 5446346.0 ], [ 2038842.0, 5446443.0 ], [ 2038844.0, 5446452.0 ], [ 2038849.0, 5446466.0 ], [ 2038856.0, 5446479.0 ], [ 2038862.0, 5446488.0 ], [ 2038887.0, 5446524.0 ], [ 2038897.0, 5446540.0 ], [ 2038903.0, 5446556.0 ], [ 2038904.0, 5446567.0 ], [ 2038905.0, 5446608.0 ], [ 2038906.0, 5446624.0 ], [ 2038908.0, 5446666.0 ], [ 2038910.0, 5446677.0 ], [ 2038916.0, 5446697.0 ], [ 2038923.0, 5446715.0 ], [ 2038958.0, 5446774.0 ], [ 2039016.0, 5446860.0 ], [ 2039030.0, 5446883.0 ], [ 2039039.0, 5446906.0 ], [ 2039043.0, 5446920.0 ], [ 2039048.0, 5446946.0 ], [ 2039059.0, 5447057.0 ], [ 2039097.0, 5447094.0 ], [ 2039139.0, 5447132.0 ], [ 2039153.0, 5447144.0 ], [ 2039210.0, 5447200.0 ], [ 2039276.0, 5447270.0 ], [ 2039294.0, 5447289.0 ], [ 2039359.0, 5447358.0 ], [ 2039383.0, 5447382.0 ], [ 2039421.0, 5447418.0 ], [ 2039442.0, 5447438.0 ], [ 2039514.0, 5447492.0 ], [ 2039495.0, 5447531.0 ], [ 2039468.0, 5447572.0 ], [ 2039442.0, 5447617.0 ], [ 2039433.0, 5447629.0 ], [ 2039443.0, 5447670.0 ], [ 2039455.0, 5447689.0 ], [ 2039467.0, 5447703.0 ], [ 2039478.0, 5447711.0 ], [ 2039503.0, 5447716.0 ], [ 2039565.0, 5447711.0 ], [ 2039591.0, 5447709.0 ], [ 2039655.0, 5447720.0 ], [ 2039712.0, 5447737.0 ], [ 2039764.0, 5447761.0 ], [ 2039824.0, 5447805.0 ], [ 2039879.0, 5447839.0 ], [ 2039927.0, 5447876.0 ], [ 2039951.0, 5447885.0 ], [ 2039990.0, 5447876.0 ], [ 2040021.0, 5447876.0 ], [ 2040068.0, 5447883.0 ], [ 2040162.0, 5447938.0 ], [ 2040197.0, 5448000.0 ], [ 2040227.0, 5448058.0 ], [ 2040242.0, 5448117.0 ], [ 2040261.0, 5448183.0 ], [ 2040275.0, 5448204.0 ], [ 2040293.0, 5448214.0 ], [ 2040335.0, 5448223.0 ], [ 2040345.0, 5448226.0 ], [ 2040357.0, 5448228.0 ], [ 2040371.0, 5448232.0 ], [ 2040388.0, 5448241.0 ], [ 2040399.0, 5448258.0 ], [ 2040406.0, 5448285.0 ] ] } },
{ "type": "Feature", "properties": { "source": 2383605880, "target": 6907153932, "ordering_random": 1, "length": 5790, "length_cumulative": 17117 }, "geometry": { "type": "LineString", "coordinates": [ [ 2044537.0, 5442902.0 ], [ 2044553.0, 5442905.0 ], [ 2044615.0, 5442915.0 ], [ 2044628.0, 5442919.0 ], [ 2044637.0, 5442922.0 ], [ 2044686.0, 5442943.0 ], [ 2044833.0, 5443010.0 ], [ 2044891.0, 5443030.0 ], [ 2044944.0, 5443046.0 ], [ 2044957.0, 5443048.0 ], [ 2045042.0, 5443057.0 ], [ 2045125.0, 5443061.0 ], [ 2045352.0, 5443073.0 ], [ 2045394.0, 5443079.0 ], [ 2045432.0, 5443088.0 ], [ 2045509.0, 5443110.0 ], [ 2045615.0, 5443154.0 ], [ 2045730.0, 5443208.0 ], [ 2045786.0, 5443233.0 ], [ 2045784.0, 5443248.0 ], [ 2045785.0, 5443252.0 ], [ 2045801.0, 5443262.0 ], [ 2045803.0, 5443257.0 ], [ 2045854.0, 5443157.0 ], [ 2045857.0, 5443147.0 ], [ 2045861.0, 5443143.0 ], [ 2045864.0, 5443103.0 ], [ 2045867.0, 5443051.0 ], [ 2045997.0, 5443084.0 ], [ 2045999.0, 5443084.0 ], [ 2046091.0, 5443108.0 ], [ 2046182.0, 5443132.0 ], [ 2046246.0, 5443148.0 ], [ 2046293.0, 5443160.0 ], [ 2046308.0, 5443164.0 ], [ 2046393.0, 5443186.0 ], [ 2046402.0, 5443188.0 ], [ 2046507.0, 5443215.0 ], [ 2046522.0, 5443220.0 ], [ 2046524.0, 5443221.0 ], [ 2046529.0, 5443223.0 ], [ 2046540.0, 5443232.0 ], [ 2046552.0, 5443236.0 ], [ 2046574.0, 5443245.0 ], [ 2046659.0, 5443269.0 ], [ 2046693.0, 5443279.0 ], [ 2046873.0, 5443320.0 ], [ 2046995.0, 5443351.0 ], [ 2047029.0, 5443359.0 ], [ 2047055.0, 5443366.0 ], [ 2047113.0, 5443379.0 ], [ 2047168.0, 5443398.0 ], [ 2047267.0, 5443438.0 ], [ 2047278.0, 5443444.0 ], [ 2047281.0, 5443447.0 ], [ 2047285.0, 5443450.0 ], [ 2047289.0, 5443455.0 ], [ 2047292.0, 5443461.0 ], [ 2047293.0, 5443463.0 ], [ 2047296.0, 5443467.0 ], [ 2047298.0, 5443468.0 ], [ 2047304.0, 5443472.0 ], [ 2047312.0, 5443474.0 ], [ 2047315.0, 5443474.0 ], [ 2047320.0, 5443473.0 ], [ 2047329.0, 5443475.0 ], [ 2047343.0, 5443478.0 ], [ 2047354.0, 5443482.0 ], [ 2047379.0, 5443491.0 ], [ 2047407.0, 5443503.0 ], [ 2047431.0, 5443511.0 ], [ 2047457.0, 5443518.0 ], [ 2047506.0, 5443527.0 ], [ 2047539.0, 5443531.0 ], [ 2047575.0, 5443534.0 ], [ 2047719.0, 5443542.0 ], [ 2047740.0, 5443543.0 ], [ 2048012.0, 5443561.0 ], [ 2048012.0, 5443583.0 ], [ 2048069.0, 5443595.0 ], [ 2048081.0, 5443599.0 ], [ 2048109.0, 5443603.0 ], [ 2048118.0, 5443604.0 ], [ 2048142.0, 5443602.0 ], [ 2048157.0, 5443609.0 ], [ 2048155.0, 5443621.0 ], [ 2048156.0, 5443625.0 ], [ 2048181.0, 5443634.0 ], [ 2048180.0, 5443638.0 ], [ 2048180.0, 5443643.0 ], [ 2048178.0, 5443699.0 ], [ 2048178.0, 5443709.0 ], [ 2048179.0, 5443713.0 ], [ 2048188.0, 5443727.0 ], [ 2048198.0, 5443744.0 ], [ 2048215.0, 5443767.0 ], [ 2048217.0, 5443773.0 ], [ 2048227.0, 5443785.0 ], [ 2048264.0, 5443824.0 ], [ 2048274.0, 5443834.0 ], [ 2048292.0, 5443849.0 ], [ 2048306.0, 5443860.0 ], [ 2048317.0, 5443866.0 ], [ 2048324.0, 5443870.0 ], [ 2048323.0, 5443873.0 ], [ 2048327.0, 5443897.0 ], [ 2048335.0, 5443902.0 ], [ 2048330.0, 5443921.0 ], [ 2048329.0, 5443931.0 ], [ 2048330.0, 5443938.0 ], [ 2048331.0, 5443945.0 ], [ 2048335.0, 5443957.0 ], [ 2048348.0, 5443977.0 ], [ 2048364.0, 5443998.0 ], [ 2048387.0, 5444034.0 ], [ 2048406.0, 5444063.0 ], [ 2048415.0, 5444080.0 ], [ 2048423.0, 5444098.0 ], [ 2048430.0, 5444117.0 ], [ 2048432.0, 5444125.0 ], [ 2048437.0, 5444140.0 ], [ 2048443.0, 5444159.0 ], [ 2048455.0, 5444194.0 ], [ 2048459.0, 5444205.0 ], [ 2048469.0, 5444235.0 ], [ 2048479.0, 5444264.0 ], [ 2048490.0, 5444287.0 ], [ 2048518.0, 5444335.0 ], [ 2048519.0, 5444336.0 ], [ 2048527.0, 5444351.0 ], [ 2048535.0, 5444364.0 ], [ 2048543.0, 5444377.0 ], [ 2048544.0, 5444379.0 ], [ 2048546.0, 5444382.0 ], [ 2048546.0, 5444385.0 ], [ 2048546.0, 5444389.0 ], [ 2048548.0, 5444401.0 ], [ 2048550.0, 5444408.0 ], [ 2048552.0, 5444413.0 ], [ 2048555.0, 5444422.0 ], [ 2048556.0, 5444423.0 ], [ 2048565.0, 5444445.0 ], [ 2048570.0, 5444456.0 ], [ 2048579.0, 5444473.0 ], [ 2048590.0, 5444492.0 ], [ 2048602.0, 5444511.0 ], [ 2048619.0, 5444528.0 ], [ 2048634.0, 5444543.0 ], [ 2048656.0, 5444561.0 ], [ 2048670.0, 5444572.0 ], [ 2048695.0, 5444591.0 ], [ 2048706.0, 5444598.0 ], [ 2048728.0, 5444612.0 ], [ 2048743.0, 5444622.0 ], [ 2048750.0, 5444628.0 ], [ 2048755.0, 5444631.0 ], [ 2048766.0, 5444635.0 ], [ 2048781.0, 5444640.0 ], [ 2048791.0, 5444641.0 ], [ 2048824.0, 5444646.0 ], [ 2048854.0, 5444650.0 ], [ 2048897.0, 5444662.0 ], [ 2048932.0, 5444676.0 ], [ 2048957.0, 5444692.0 ], [ 2048962.0, 5444687.0 ], [ 2048964.0, 5444682.0 ], [ 2048965.0, 5444666.0 ], [ 2048968.0, 5444662.0 ], [ 2048969.0, 5444652.0 ], [ 2048974.0, 5444638.0 ], [ 2048982.0, 5444624.0 ], [ 2048986.0, 5444611.0 ], [ 2048994.0, 5444601.0 ], [ 2049002.0, 5444594.0 ], [ 2049004.0, 5444592.0 ], [ 2049016.0, 5444628.0 ], [ 2049019.0, 5444627.0 ], [ 2049031.0, 5444623.0 ], [ 2049032.0, 5444623.0 ], [ 2049042.0, 5444619.0 ], [ 2049064.0, 5444611.0 ], [ 2049065.0, 5444610.0 ], [ 2049078.0, 5444609.0 ], [ 2049077.0, 5444550.0 ], [ 2049077.0, 5444543.0 ], [ 2049088.0, 5444542.0 ], [ 2049115.0, 5444543.0 ], [ 2049124.0, 5444543.0 ], [ 2049131.0, 5444545.0 ], [ 2049131.0, 5444553.0 ], [ 2049131.0, 5444560.0 ], [ 2049141.0, 5444561.0 ], [ 2049141.0, 5444564.0 ] ] } },
{ "type": "Feature", "properties": { "source": 6907153932, "target": 1944730712, "ordering_random": 2, "length": 7145, "length_cumulative": 24262 }, "geometry": { "type": "LineString", "coordinates": [ [ 2039059.0, 5447057.0 ], [ 2038963.0, 5446968.0 ], [ 2038892.0, 5446897.0 ], [ 2038866.0, 5446872.0 ], [ 2038815.0, 5446809.0 ], [ 2038806.0, 5446797.0 ], [ 2038766.0, 5446739.0 ], [ 2038749.0, 5446713.0 ], [ 2038730.0, 5446683.0 ], [ 2038723.0, 5446672.0 ], [ 2038690.0, 5446615.0 ], [ 2038678.0, 5446591.0 ], [ 2038663.0, 5446561.0 ], [ 2038607.0, 5446453.0 ], [ 2038578.0, 5446385.0 ], [ 2038560.0, 5446340.0 ], [ 2038557.0, 5446334.0 ], [ 2038553.0, 5446323.0 ], [ 2038536.0, 5446279.0 ], [ 2038534.0, 5446273.0 ], [ 2038531.0, 5446264.0 ], [ 2038526.0, 5446251.0 ], [ 2038476.0, 5446112.0 ], [ 2038465.0, 5446083.0 ], [ 2038460.0, 5446067.0 ], [ 2038433.0, 5445982.0 ], [ 2038404.0, 5445884.0 ], [ 2038399.0, 5445865.0 ], [ 2038394.0, 5445847.0 ], [ 2038382.0, 5445788.0 ], [ 2038382.0, 5445762.0 ], [ 2038381.0, 5445716.0 ], [ 2038387.0, 5445599.0 ], [ 2038398.0, 5445533.0 ], [ 2038425.0, 5445411.0 ], [ 2038427.0, 5445404.0 ], [ 2038455.0, 5445298.0 ], [ 2038463.0, 5445268.0 ], [ 2038467.0, 5445254.0 ], [ 2038520.0, 5445101.0 ], [ 2038543.0, 5445040.0 ], [ 2038548.0, 5445026.0 ], [ 2038586.0, 5444930.0 ], [ 2038625.0, 5444849.0 ], [ 2038705.0, 5444693.0 ], [ 2038715.0, 5444677.0 ], [ 2038761.0, 5444597.0 ], [ 2038797.0, 5444539.0 ], [ 2038852.0, 5444460.0 ], [ 2038908.0, 5444382.0 ], [ 2038927.0, 5444356.0 ], [ 2038981.0, 5444283.0 ], [ 2038985.0, 5444276.0 ], [ 2038990.0, 5444270.0 ], [ 2038996.0, 5444261.0 ], [ 2039011.0, 5444242.0 ], [ 2039048.0, 5444188.0 ], [ 2039051.0, 5444183.0 ], [ 2039101.0, 5444108.0 ], [ 2039107.0, 5444099.0 ], [ 2039126.0, 5444071.0 ], [ 2039143.0, 5444045.0 ], [ 2039172.0, 5444000.0 ], [ 2039235.0, 5443906.0 ], [ 2039274.0, 5443841.0 ], [ 2039282.0, 5443829.0 ], [ 2039287.0, 5443821.0 ], [ 2039333.0, 5443750.0 ], [ 2039406.0, 5443649.0 ], [ 2039429.0, 5443619.0 ], [ 2039438.0, 5443607.0 ], [ 2039456.0, 5443586.0 ], [ 2039535.0, 5443492.0 ], [ 2039562.0, 5443465.0 ], [ 2039609.0, 5443418.0 ], [ 2039615.0, 5443411.0 ], [ 2039638.0, 5443389.0 ], [ 2039674.0, 5443354.0 ], [ 2039711.0, 5443318.0 ], [ 2039714.0, 5443315.0 ], [ 2039729.0, 5443302.0 ], [ 2039821.0, 5443220.0 ], [ 2039873.0, 5443177.0 ], [ 2039931.0, 5443127.0 ], [ 2039945.0, 5443114.0 ], [ 2039974.0, 5443081.0 ], [ 2039985.0, 5443084.0 ], [ 2039996.0, 5443081.0 ], [ 2040007.0, 5443076.0 ], [ 2040034.0, 5443062.0 ], [ 2040056.0, 5443049.0 ], [ 2040076.0, 5443037.0 ], [ 2040082.0, 5443033.0 ], [ 2040107.0, 5443015.0 ], [ 2040119.0, 5443006.0 ], [ 2040147.0, 5442987.0 ], [ 2040158.0, 5442979.0 ], [ 2040174.0, 5442972.0 ], [ 2040186.0, 5442968.0 ], [ 2040201.0, 5442965.0 ], [ 2040214.0, 5442963.0 ], [ 2040233.0, 5442963.0 ], [ 2040257.0, 5442961.0 ], [ 2040286.0, 5442958.0 ], [ 2040321.0, 5442950.0 ], [ 2040365.0, 5442929.0 ], [ 2040426.0, 5442899.0 ], [ 2040484.0, 5442873.0 ], [ 2040540.0, 5442852.0 ], [ 2040557.0, 5442845.0 ], [ 2040608.0, 5442826.0 ], [ 2040619.0, 5442821.0 ], [ 2040701.0, 5442775.0 ], [ 2040799.0, 5442719.0 ], [ 2040812.0, 5442712.0 ], [ 2040837.0, 5442700.0 ], [ 2040872.0, 5442687.0 ], [ 2040883.0, 5442683.0 ], [ 2040905.0, 5442677.0 ], [ 2040936.0, 5442669.0 ], [ 2040969.0, 5442663.0 ], [ 2040982.0, 5442660.0 ], [ 2040993.0, 5442657.0 ], [ 2041019.0, 5442653.0 ], [ 2041032.0, 5442651.0 ], [ 2041047.0, 5442650.0 ], [ 2041059.0, 5442649.0 ], [ 2041072.0, 5442649.0 ], [ 2041111.0, 5442650.0 ], [ 2041143.0, 5442651.0 ], [ 2041190.0, 5442651.0 ], [ 2041208.0, 5442651.0 ], [ 2041226.0, 5442649.0 ], [ 2041233.0, 5442647.0 ], [ 2041242.0, 5442646.0 ], [ 2041257.0, 5442642.0 ], [ 2041274.0, 5442639.0 ], [ 2041293.0, 5442633.0 ], [ 2041304.0, 5442632.0 ], [ 2041323.0, 5442630.0 ], [ 2041332.0, 5442632.0 ], [ 2041335.0, 5442631.0 ], [ 2041340.0, 5442630.0 ], [ 2041348.0, 5442627.0 ], [ 2041360.0, 5442625.0 ], [ 2041367.0, 5442625.0 ], [ 2041376.0, 5442625.0 ], [ 2041380.0, 5442613.0 ], [ 2041392.0, 5442617.0 ], [ 2041408.0, 5442619.0 ], [ 2041750.0, 5442601.0 ], [ 2041909.0, 5442589.0 ], [ 2041911.0, 5442584.0 ], [ 2041912.0, 5442582.0 ], [ 2041918.0, 5442578.0 ], [ 2041946.0, 5442573.0 ], [ 2041981.0, 5442571.0 ], [ 2042013.0, 5442568.0 ], [ 2042061.0, 5442565.0 ], [ 2042111.0, 5442556.0 ], [ 2042156.0, 5442548.0 ], [ 2042183.0, 5442546.0 ], [ 2042187.0, 5442546.0 ], [ 2042194.0, 5442546.0 ], [ 2042208.0, 5442546.0 ], [ 2042229.0, 5442548.0 ], [ 2042243.0, 5442550.0 ], [ 2042252.0, 5442552.0 ], [ 2042261.0, 5442554.0 ], [ 2042272.0, 5442556.0 ], [ 2042314.0, 5442559.0 ] ] } },
{ "type": "Feature", "properties": { "source": 13755647331, "target": 1944730712, "ordering_random": 3, "length": 237, "length_cumulative": 24500 }, "geometry": { "type": "LineString", "coordinates": [ [ 2039555.0, 5443148.0 ], [ 2039555.0, 5443154.0 ], [ 2039567.0, 5443170.0 ], [ 2039616.0, 5443221.0 ], [ 2039629.0, 5443237.0 ], [ 2039632.0, 5443236.0 ], [ 2039637.0, 5443235.0 ], [ 2039640.0, 5443237.0 ], [ 2039643.0, 5443239.0 ], [ 2039673.0, 5443270.0 ], [ 2039692.0, 5443291.0 ], [ 2039714.0, 5443315.0 ] ] } },
{ "type": "Feature", "properties": { "source": 2383605877, "target": 12903472109, "ordering_random": 4, "length": 982, "length_cumulative": 25482 }, "geometry": { "type": "MultiLineString", "coordinates": [ [ [ 2048132.0, 5443784.0 ], [ 2048121.0, 5443775.0 ], [ 2048120.0, 5443772.0 ], [ 2048118.0, 5443767.0 ], [ 2048122.0, 5443766.0 ], [ 2048128.0, 5443765.0 ], [ 2048183.0, 5443731.0 ], [ 2048184.0, 5443730.0 ], [ 2048188.0, 5443727.0 ] ], [ [ 2048957.0, 5444692.0 ], [ 2048957.0, 5444724.0 ], [ 2048967.0, 5444728.0 ], [ 2048972.0, 5444733.0 ], [ 2048975.0, 5444740.0 ], [ 2048976.0, 5444780.0 ], [ 2048974.0, 5444805.0 ], [ 2048977.0, 5444820.0 ], [ 2048984.0, 5444828.0 ], [ 2048995.0, 5444832.0 ], [ 2049004.0, 5444832.0 ], [ 2049007.0, 5444831.0 ], [ 2049011.0, 5444852.0 ], [ 2049013.0, 5444867.0 ], [ 2049019.0, 5444888.0 ], [ 2049030.0, 5444899.0 ], [ 2049039.0, 5444897.0 ], [ 2049049.0, 5444892.0 ], [ 2049060.0, 5444879.0 ], [ 2049069.0, 5444878.0 ], [ 2049080.0, 5444873.0 ], [ 2049083.0, 5444872.0 ], [ 2049087.0, 5444864.0 ], [ 2049098.0, 5444850.0 ], [ 2049103.0, 5444841.0 ], [ 2049106.0, 5444836.0 ], [ 2049112.0, 5444830.0 ], [ 2049117.0, 5444823.0 ], [ 2049123.0, 5444808.0 ], [ 2049131.0, 5444811.0 ], [ 2049132.0, 5444791.0 ], [ 2049134.0, 5444760.0 ], [ 2049137.0, 5444745.0 ], [ 2049139.0, 5444728.0 ], [ 2049144.0, 5444750.0 ], [ 2049160.0, 5444751.0 ], [ 2049164.0, 5444751.0 ], [ 2049170.0, 5444748.0 ], [ 2049176.0, 5444756.0 ], [ 2049172.0, 5444756.0 ], [ 2049172.0, 5444765.0 ], [ 2049174.0, 5444781.0 ], [ 2049177.0, 5444785.0 ], [ 2049186.0, 5444792.0 ], [ 2049189.0, 5444800.0 ], [ 2049198.0, 5444804.0 ], [ 2049202.0, 5444793.0 ], [ 2049207.0, 5444795.0 ], [ 2049215.0, 5444780.0 ], [ 2049222.0, 5444780.0 ], [ 2049226.0, 5444761.0 ], [ 2049228.0, 5444742.0 ], [ 2049229.0, 5444726.0 ], [ 2049226.0, 5444697.0 ], [ 2049220.0, 5444649.0 ], [ 2049222.0, 5444590.0 ], [ 2049222.0, 5444582.0 ], [ 2049230.0, 5444579.0 ], [ 2049232.0, 5444568.0 ], [ 2049215.0, 5444563.0 ], [ 2049210.0, 5444563.0 ] ] ] } },
{ "type": "Feature", "properties": { "source": 2383605872, "target": 2383605880, "ordering_random": 8, "length": 2, "length_cumulative": 25485 }, "geometry": { "type": "LineString", "coordinates": [ [ 2049141.0, 5444558.0 ], [ 2049141.0, 5444561.0 ] ] } },
{ "type": "Feature", "properties": { "source": 2383605877, "target": 2041015210, "ordering_random": 9, "length": 180, "length_cumulative": 25666 }, "geometry": { "type": "LineString", "coordinates": [ [ 2049222.0, 5444590.0 ], [ 2049217.0, 5444589.0 ], [ 2049216.0, 5444578.0 ], [ 2049214.0, 5444589.0 ], [ 2049212.0, 5444578.0 ], [ 2049209.0, 5444589.0 ], [ 2049208.0, 5444578.0 ], [ 2049205.0, 5444589.0 ], [ 2049204.0, 5444578.0 ], [ 2049201.0, 5444589.0 ], [ 2049200.0, 5444578.0 ], [ 2049196.0, 5444589.0 ], [ 2049194.0, 5444578.0 ], [ 2049192.0, 5444589.0 ], [ 2049190.0, 5444578.0 ], [ 2049188.0, 5444589.0 ], [ 2049185.0, 5444579.0 ], [ 2049183.0, 5444571.0 ] ] } },
{ "type": "Feature", "properties": { "source": 2383605882, "target": 2041015210, "ordering_random": 10, "length": 2, "length_cumulative": 25669 }, "geometry": { "type": "LineString", "coordinates": [ [ 2049210.0, 5444565.0 ], [ 2049210.0, 5444563.0 ] ] } },
{ "type": "Feature", "properties": { "source": 84552782, "target": 1944730712, "ordering_random": 12, "length": 2232, "length_cumulative": 27901 }, "geometry": { "type": "LineString", "coordinates": [ [ 2044466.0, 5442892.0 ], [ 2044441.0, 5442886.0 ], [ 2044432.0, 5442883.0 ], [ 2044410.0, 5442876.0 ], [ 2044401.0, 5442872.0 ], [ 2044393.0, 5442870.0 ], [ 2044386.0, 5442870.0 ], [ 2044379.0, 5442871.0 ], [ 2044372.0, 5442874.0 ], [ 2044365.0, 5442876.0 ], [ 2044357.0, 5442875.0 ], [ 2044351.0, 5442872.0 ], [ 2044344.0, 5442867.0 ], [ 2044340.0, 5442859.0 ], [ 2044338.0, 5442851.0 ], [ 2044335.0, 5442842.0 ], [ 2044331.0, 5442837.0 ], [ 2044325.0, 5442829.0 ], [ 2044139.0, 5442734.0 ], [ 2044096.0, 5442714.0 ], [ 2044080.0, 5442707.0 ], [ 2044007.0, 5442675.0 ], [ 2043928.0, 5442652.0 ], [ 2043855.0, 5442639.0 ], [ 2043771.0, 5442626.0 ], [ 2043762.0, 5442625.0 ], [ 2043752.0, 5442624.0 ], [ 2043744.0, 5442623.0 ], [ 2043652.0, 5442613.0 ], [ 2043492.0, 5442588.0 ], [ 2043426.0, 5442580.0 ], [ 2043416.0, 5442579.0 ], [ 2043409.0, 5442579.0 ], [ 2043367.0, 5442574.0 ], [ 2043339.0, 5442569.0 ], [ 2043289.0, 5442561.0 ], [ 2043256.0, 5442558.0 ], [ 2043232.0, 5442556.0 ], [ 2043184.0, 5442556.0 ], [ 2043118.0, 5442559.0 ], [ 2043073.0, 5442561.0 ], [ 2043047.0, 5442561.0 ], [ 2042992.0, 5442562.0 ], [ 2042960.0, 5442562.0 ], [ 2042944.0, 5442562.0 ], [ 2042827.0, 5442562.0 ], [ 2042768.0, 5442562.0 ], [ 2042602.0, 5442562.0 ], [ 2042532.0, 5442565.0 ], [ 2042493.0, 5442567.0 ], [ 2042439.0, 5442569.0 ], [ 2042439.0, 5442565.0 ], [ 2042323.0, 5442565.0 ], [ 2042314.0, 5442559.0 ] ] } },
{ "type": "Feature", "properties": { "source": 2383605872, "target": 2383605877, "ordering_random": 13, "length": 274, "length_cumulative": 28176 }, "geometry": { "type": "LineString", "coordinates": [ [ 2049060.0, 5444879.0 ], [ 2049068.0, 5444859.0 ], [ 2049069.0, 5444847.0 ], [ 2049077.0, 5444812.0 ], [ 2049084.0, 5444765.0 ], [ 2049086.0, 5444744.0 ], [ 2049088.0, 5444727.0 ], [ 2049088.0, 5444723.0 ], [ 2049089.0, 5444691.0 ], [ 2049089.0, 5444683.0 ], [ 2049087.0, 5444670.0 ], [ 2049084.0, 5444646.0 ], [ 2049083.0, 5444637.0 ], [ 2049079.0, 5444615.0 ], [ 2049078.0, 5444609.0 ] ] } },
{ "type": "Feature", "properties": { "source": 2383605880, "target": 2041015210, "ordering_random": 16, "length": 179, "length_cumulative": 28355 }, "geometry": { "type": "LineString", "coordinates": [ [ 2049183.0, 5444571.0 ], [ 2049179.0, 5444580.0 ], [ 2049177.0, 5444590.0 ], [ 2049175.0, 5444608.0 ], [ 2049175.0, 5444732.0 ], [ 2049173.0, 5444742.0 ], [ 2049170.0, 5444748.0 ] ] } },
{ "type": "Feature", "properties": { "source": 2383605882, "target": 6907153932, "ordering_random": 18, "length": 2263, "length_cumulative": 30619 }, "geometry": { "type": "LineString", "coordinates": [ [ 2049183.0, 5444571.0 ], [ 2049184.0, 5444550.0 ], [ 2049184.0, 5444531.0 ], [ 2049185.0, 5444501.0 ], [ 2049184.0, 5444472.0 ], [ 2049186.0, 5444440.0 ], [ 2049189.0, 5444424.0 ], [ 2049191.0, 5444416.0 ], [ 2049196.0, 5444408.0 ], [ 2049205.0, 5444398.0 ], [ 2049224.0, 5444376.0 ], [ 2049239.0, 5444362.0 ], [ 2049244.0, 5444357.0 ], [ 2049254.0, 5444349.0 ], [ 2049261.0, 5444340.0 ], [ 2049268.0, 5444327.0 ], [ 2049271.0, 5444319.0 ], [ 2049273.0, 5444307.0 ], [ 2049273.0, 5444250.0 ], [ 2049274.0, 5444232.0 ], [ 2049271.0, 5444224.0 ], [ 2049269.0, 5444214.0 ], [ 2049267.0, 5444200.0 ], [ 2049257.0, 5444202.0 ], [ 2049252.0, 5444201.0 ], [ 2049245.0, 5444200.0 ], [ 2049241.0, 5444195.0 ], [ 2049238.0, 5444190.0 ], [ 2049232.0, 5444185.0 ], [ 2049228.0, 5444181.0 ], [ 2049224.0, 5444177.0 ], [ 2049221.0, 5444175.0 ], [ 2049228.0, 5444159.0 ], [ 2049218.0, 5444154.0 ], [ 2049219.0, 5444152.0 ], [ 2049213.0, 5444147.0 ], [ 2049202.0, 5444143.0 ], [ 2049194.0, 5444132.0 ], [ 2049196.0, 5444093.0 ], [ 2049194.0, 5444050.0 ], [ 2049189.0, 5444004.0 ], [ 2049183.0, 5443972.0 ], [ 2049178.0, 5443935.0 ], [ 2049173.0, 5443921.0 ], [ 2049168.0, 5443915.0 ], [ 2049163.0, 5443909.0 ], [ 2049160.0, 5443907.0 ], [ 2049155.0, 5443904.0 ], [ 2049153.0, 5443903.0 ], [ 2049145.0, 5443904.0 ], [ 2049137.0, 5443904.0 ], [ 2049131.0, 5443906.0 ], [ 2049051.0, 5443867.0 ], [ 2049047.0, 5443856.0 ], [ 2049042.0, 5443844.0 ], [ 2049038.0, 5443818.0 ], [ 2049036.0, 5443810.0 ], [ 2049025.0, 5443790.0 ], [ 2049029.0, 5443780.0 ], [ 2049025.0, 5443780.0 ], [ 2049012.0, 5443781.0 ], [ 2048992.0, 5443783.0 ], [ 2048957.0, 5443791.0 ], [ 2048921.0, 5443799.0 ], [ 2048902.0, 5443801.0 ], [ 2048888.0, 5443800.0 ], [ 2048869.0, 5443799.0 ], [ 2048827.0, 5443798.0 ], [ 2048773.0, 5443801.0 ], [ 2048731.0, 5443798.0 ], [ 2048733.0, 5443774.0 ], [ 2048733.0, 5443734.0 ], [ 2048726.0, 5443735.0 ], [ 2048693.0, 5443735.0 ], [ 2048634.0, 5443735.0 ], [ 2048627.0, 5443735.0 ], [ 2048577.0, 5443734.0 ], [ 2048560.0, 5443735.0 ], [ 2048549.0, 5443739.0 ], [ 2048541.0, 5443744.0 ], [ 2048529.0, 5443753.0 ], [ 2048515.0, 5443764.0 ], [ 2048510.0, 5443766.0 ], [ 2048505.0, 5443765.0 ], [ 2048501.0, 5443763.0 ], [ 2048495.0, 5443758.0 ], [ 2048509.0, 5443740.0 ], [ 2048502.0, 5443731.0 ], [ 2048486.0, 5443714.0 ], [ 2048482.0, 5443709.0 ], [ 2048474.0, 5443698.0 ], [ 2048458.0, 5443682.0 ], [ 2048455.0, 5443679.0 ], [ 2048475.0, 5443658.0 ], [ 2048484.0, 5443656.0 ], [ 2048499.0, 5443656.0 ], [ 2048500.0, 5443642.0 ], [ 2048443.0, 5443641.0 ], [ 2048444.0, 5443627.0 ], [ 2048440.0, 5443627.0 ], [ 2048424.0, 5443629.0 ], [ 2048407.0, 5443627.0 ], [ 2048402.0, 5443626.0 ], [ 2048382.0, 5443621.0 ], [ 2048321.0, 5443608.0 ], [ 2048278.0, 5443599.0 ], [ 2048186.0, 5443579.0 ], [ 2048109.0, 5443568.0 ], [ 2048012.0, 5443561.0 ] ] } }
]
}
