{
"type": "FeatureCollection",
"name": "sarajevo-grid",
"crs": { "type": "name", "properties": { "name": "urn:ogc:def:crs:EPSG::3857" } },
"features": [
{ "type": "Feature", "properties": { "osmid": 2909329745.0 }, "geometry": { "type": "Point", "coordinates": [ 2043812.0, 5445809.0 ] } },
{ "type": "Feature", "properties": { "osmid": 388278189.0 }, "geometry": { "type": "Point", "coordinates": [ 2050091.0, 5442202.0 ] } },
{ "type": "Feature", "properties": { "osmid": 9229997508.0 }, "geometry": { "type": "Point", "coordinates": [ 2038413.0, 5446118.0 ] } },
{ "type": "Feature", "properties": { "osmid": 10902740199.0 }, "geometry": { "type": "Point", "coordinates": [ 2041853.0, 5439995.0 ] } },
{ "type": "Feature", "properties": { "osmid": 3941683602.0 }, "geometry": { "type": "Point", "coordinates": [ 2054286.0, 5439780.0 ] } },
{ "type": "Feature", "properties": { "osmid": 1334621170.0 }, "geometry": { "type": "Point", "coordinates": [ 2047534.0, 5445035.0 ] } },
{ "type": "Feature", "properties": { "osmid": 84554297.0 }, "geometry": { "type": "Point", "coordinates": [ 2044271.0, 5444143.0 ] } },
{ "type": "Feature", "properties": { "osmid": 9232847026.0 }, "geometry": { "type": "Point", "coordinates": [ 2039336.0, 5442836.0 ] } },
{ "type": "Feature", "properties": { "osmid": 12905447255.0 }, "geometry": { "type": "Point", "coordinates": [ 2046776.0, 5441276.0 ] } },
{ "type": "Feature", "properties": { "osmid": 89051355.0 }, "geometry": { "type": "Point", "coordinates": [ 2051241.0, 5444262.0 ] } },
{ "type": "Feature", "properties": { "osmid": 8174730333.0 }, "geometry": { "type": "Point", "coordinates": [ 2050877.0, 5445875.0 ] } },
{ "type": "Feature", "properties": { "osmid": 147929912.0 }, "geometry": { "type": "Point", "coordinates": [ 2040920.0, 5443228.0 ] } },
{ "type": "Feature", "properties": { "osmid": 1723267990.0 }, "geometry": { "type": "Point", "coordinates": [ 2036710.0, 5445690.0 ] } },
{ "type": "Feature", "properties": { "osmid": 3842489346.0 }, "geometry": { "type": "Point", "coordinates": [ 2037279.0, 5444009.0 ] } },
{ "type": "Feature", "properties": { "osmid": 11258115251.0 }, "geometry": { "type": "Point", "coordinates": [ 2045103.0, 5440929.0 ] } },
{ "type": "Feature", "properties": { "osmid": 6361101186.0 }, "geometry": { "type": "Point", "coordinates": [ 2038039.0, 5447833.0 ] } },
{ "type": "Feature", "properties": { "osmid": 6906935173.0 }, "geometry": { "type": "Point", "coordinates": [ 2035058.0, 5445205.0 ] } },
{ "type": "Feature", "properties": { "osmid": 6399181569.0 }, "geometry": { "type": "Point", "coordinates": [ 2047186.0, 5446648.0 ] } },
{ "type": "Feature", "properties": { "osmid": 8274214113.0 }, "geometry": { "type": "Point", "coordinates": [ 2054044.0, 5446837.0 ] } },
{ "type": "Feature", "properties": { "osmid": 5882308691.0 }, "geometry": { "type": "Point", "coordinates": [ 2048012.0, 5443505.0 ] } },
{ "type": "Feature", "properties": { "osmid": 9571205597.0 }, "geometry": { "type": "Point", "coordinates": [ 2038908.0, 5444382.0 ] } },
{ "type": "Feature", "properties": { "osmid": 471316582.0 }, "geometry": { "type": "Point", "coordinates": [ 2034684.0, 5446783.0 ] } },
{ "type": "Feature", "properties": { "osmid": 247266397.0 }, "geometry": { "type": "Point", "coordinates": [ 2036349.0, 5447465.0 ] } },
{ "type": "Feature", "properties": { "osmid": 11983377667.0 }, "geometry": { "type": "Point", "coordinates": [ 2040083.0, 5446438.0 ] } },
{ "type": "Feature", "properties": { "osmid": 6222433209.0 }, "geometry": { "type": "Point", "coordinates": [ 2053267.0, 5442966.0 ] } },
{ "type": "Feature", "properties": { "osmid": 88971274.0 }, "geometry": { "type": "Point", "coordinates": [ 2039741.0, 5448110.0 ] } },
{ "type": "Feature", "properties": { "osmid": 8275307005.0 }, "geometry": { "type": "Point", "coordinates": [ 2052522.0, 5446582.0 ] } },
{ "type": "Feature", "properties": { "osmid": 7060679442.0 }, "geometry": { "type": "Point", "coordinates": [ 2048974.0, 5447244.0 ] } },
{ "type": "Feature", "properties": { "osmid": 6184636768.0 }, "geometry": { "type": "Point", "coordinates": [ 2046121.0, 5444433.0 ] } },
{ "type": "Feature", "properties": { "osmid": 9250762120.0 }, "geometry": { "type": "Point", "coordinates": [ 2041417.0, 5447002.0 ] } },
{ "type": "Feature", "properties": { "osmid": 361423749.0 }, "geometry": { "type": "Point", "coordinates": [ 2048575.0, 5448997.0 ] } },
{ "type": "Feature", "properties": { "osmid": 84555542.0 }, "geometry": { "type": "Point", "coordinates": [ 2041857.0, 5445199.0 ] } },
{ "type": "Feature", "properties": { "osmid": 387431698.0 }, "geometry": { "type": "Point", "coordinates": [ 2054090.0, 5441768.0 ] } },
{ "type": "Feature", "properties": { "osmid": 10314736707.0 }, "geometry": { "type": "Point", "coordinates": [ 2043126.0, 5447033.0 ] } },
{ "type": "Feature", "properties": { "osmid": 78451997.0 }, "geometry": { "type": "Point", "coordinates": [ 2047454.0, 5442887.0 ] } },
{ "type": "Feature", "properties": { "osmid": 7826222503.0 }, "geometry": { "type": "Point", "coordinates": [ 2047572.0, 5442390.0 ] } },
{ "type": "Feature", "properties": { "osmid": 4900571189.0 }, "geometry": { "type": "Point", "coordinates": [ 2046766.0, 5442733.0 ] } },
{ "type": "Feature", "properties": { "osmid": 7826222532.0 }, "geometry": { "type": "Point", "coordinates": [ 2048374.0, 5442836.0 ] } },
{ "type": "Feature", "properties": { "osmid": 7826222570.0 }, "geometry": { "type": "Point", "coordinates": [ 2046782.0, 5442141.0 ] } },
{ "type": "Feature", "properties": { "osmid": 90309009.0 }, "geometry": { "type": "Point", "coordinates": [ 2047104.0, 5443975.0 ] } },
{ "type": "Feature", "properties": { "osmid": 316055289.0 }, "geometry": { "type": "Point", "coordinates": [ 2048023.0, 5441789.0 ] } },
{ "type": "Feature", "properties": { "osmid": 11775324624.0 }, "geometry": { "type": "Point", "coordinates": [ 2046185.0, 5442420.0 ] } },
{ "type": "Feature", "properties": { "osmid": 6879731228.0 }, "geometry": { "type": "Point", "coordinates": [ 2048642.0, 5443649.0 ] } },
{ "type": "Feature", "properties": { "osmid": 82624009.0 }, "geometry": { "type": "Point", "coordinates": [ 2049002.0, 5442817.0 ] } },
{ "type": "Feature", "properties": { "osmid": 4197007200.0 }, "geometry": { "type": "Point", "coordinates": [ 2047805.0, 5441306.0 ] } },
{ "type": "Feature", "properties": { "osmid": 3428376384.0 }, "geometry": { "type": "Point", "coordinates": [ 2048528.0, 5441597.0 ] } },
{ "type": "Feature", "properties": { "osmid": 301844576.0 }, "geometry": { "type": "Point", "coordinates": [ 2046833.0, 5444477.0 ] } },
{ "type": "Feature", "properties": { "osmid": 11261460579.0 }, "geometry": { "type": "Point", "coordinates": [ 2046133.0, 5441802.0 ] } },
{ "type": "Feature", "properties": { "osmid": 6391427789.0 }, "geometry": { "type": "Point", "coordinates": [ 2048659.0, 5444230.0 ] } },
{ "type": "Feature", "properties": { "osmid": 13250238324.0 }, "geometry": { "type": "Point", "coordinates": [ 2045651.0, 5442127.0 ] } },
{ "type": "Feature", "properties": { "osmid": 11401557890.0 }, "geometry": { "type": "Point", "coordinates": [ 2048305.0, 5444923.0 ] } },
{ "type": "Feature", "properties": { "osmid": 2395866981.0 }, "geometry": { "type": "Point", "coordinates": [ 2045225.0, 5442401.0 ] } },
{ "type": "Feature", "properties": { "osmid": 4975899390.0 }, "geometry": { "type": "Point", "coordinates": [ 2049593.0, 5444018.0 ] } },
{ "type": "Feature", "properties": { "osmid": 12167166338.0 }, "geometry": { "type": "Point", "coordinates": [ 2044783.0, 5442145.0 ] } },
{ "type": "Feature", "properties": { "osmid": 82655609.0 }, "geometry": { "type": "Point", "coordinates": [ 2049134.0, 5445769.0 ] } },
{ "type": "Feature", "properties": { "osmid": 2959396033.0 }, "geometry": { "type": "Point", "coordinates": [ 2050604.0, 5444195.0 ] } },
{ "type": "Feature", "properties": { "osmid": 12546604835.0 }, "geometry": { "type": "Point", "coordinates": [ 2044170.0, 5441806.0 ] } },
{ "type": "Feature", "properties": { "osmid": 301374461.0 }, "geometry": { "type": "Point", "coordinates": [ 2051241.0, 5442595.0 ] } },
{ "type": "Feature", "properties": { "osmid": 82627861.0 }, "geometry": { "type": "Point", "coordinates": [ 2051421.0, 5443082.0 ] } },
{ "type": "Feature", "properties": { "osmid": 1730671893.0 }, "geometry": { "type": "Point", "coordinates": [ 2043670.0, 5440828.0 ] } },
{ "type": "Feature", "properties": { "osmid": 386889412.0 }, "geometry": { "type": "Point", "coordinates": [ 2051696.0, 5442042.0 ] } },
{ "type": "Feature", "properties": { "osmid": 8068867918.0 }, "geometry": { "type": "Point", "coordinates": [ 2043156.0, 5441867.0 ] } },
{ "type": "Feature", "properties": { "osmid": 6199033616.0 }, "geometry": { "type": "Point", "coordinates": [ 2051387.0, 5445427.0 ] } },
{ "type": "Feature", "properties": { "osmid": 6218712589.0 }, "geometry": { "type": "Point", "coordinates": [ 2042871.0, 5443979.0 ] } },
{ "type": "Feature", "properties": { "osmid": 1969792195.0 }, "geometry": { "type": "Point", "coordinates": [ 2042648.0, 5442992.0 ] } },
{ "type": "Feature", "properties": { "osmid": 89044018.0 }, "geometry": { "type": "Point", "coordinates": [ 2052155.0, 5444104.0 ] } },
{ "type": "Feature", "properties": { "osmid": 6235090406.0 }, "geometry": { "type": "Point", "coordinates": [ 2052316.0, 5443216.0 ] } },
{ "type": "Feature", "properties": { "osmid": 254991027.0 }, "geometry": { "type": "Point", "coordinates": [ 2052088.0, 5444716.0 ] } },
{ "type": "Feature", "properties": { "osmid": 8068867898.0 }, "geometry": { "type": "Point", "coordinates": [ 2042439.0, 5441720.0 ] } },
{ "type": "Feature", "properties": { "osmid": 386889723.0 }, "geometry": { "type": "Point", "coordinates": [ 2052651.0, 5442804.0 ] } },
{ "type": "Feature", "properties": { "osmid": 13247358598.0 }, "geometry": { "type": "Point", "coordinates": [ 2052708.0, 5443571.0 ] } },
{ "type": "Feature", "properties": { "osmid": 12888326355.0 }, "geometry": { "type": "Point", "coordinates": [ 2049942.0, 5447609.0 ] } },
{ "type": "Feature", "properties": { "osmid": 4564931559.0 }, "geometry": { "type": "Point", "coordinates": [ 2052701.0, 5441236.0 ] } },
{ "type": "Feature", "properties": { "osmid": 6190913490.0 }, "geometry": { "type": "Point", "coordinates": [ 2052963.0, 5442210.0 ] } },
{ "type": "Feature", "properties": { "osmid": 254983072.0 }, "geometry": { "type": "Point", "coordinates": [ 2052742.0, 5444587.0 ] } },
{ "type": "Feature", "properties": { "osmid": 12546604862.0 }, "geometry": { "type": "Point", "coordinates": [ 2042903.0, 5439401.0 ] } },
{ "type": "Feature", "properties": { "osmid": 386899767.0 }, "geometry": { "type": "Point", "coordinates": [ 2053146.0, 5441656.0 ] } },
{ "type": "Feature", "properties": { "osmid": 8068835860.0 }, "geometry": { "type": "Point", "coordinates": [ 2041683.0, 5441492.0 ] } },
{ "type": "Feature", "properties": { "osmid": 84587917.0 }, "geometry": { "type": "Point", "coordinates": [ 2043234.0, 5438679.0 ] } },
{ "type": "Feature", "properties": { "osmid": 7704844783.0 }, "geometry": { "type": "Point", "coordinates": [ 2041787.0, 5440943.0 ] } },
{ "type": "Feature", "properties": { "osmid": 6398677534.0 }, "geometry": { "type": "Point", "coordinates": [ 2052770.0, 5445791.0 ] } },
{ "type": "Feature", "properties": { "osmid": 5324678028.0 }, "geometry": { "type": "Point", "coordinates": [ 2041171.0, 5441891.0 ] } },
{ "type": "Feature", "properties": { "osmid": 11911897557.0 }, "geometry": { "type": "Point", "coordinates": [ 2042044.0, 5439390.0 ] } },
{ "type": "Feature", "properties": { "osmid": 12546604870.0 }, "geometry": { "type": "Point", "coordinates": [ 2042509.0, 5438656.0 ] } },
{ "type": "Feature", "properties": { "osmid": 6352715817.0 }, "geometry": { "type": "Point", "coordinates": [ 2053946.0, 5445205.0 ] } },
{ "type": "Feature", "properties": { "osmid": 2041992006.0 }, "geometry": { "type": "Point", "coordinates": [ 2054723.0, 5442904.0 ] } },
{ "type": "Feature", "properties": { "osmid": 1841467777.0 }, "geometry": { "type": "Point", "coordinates": [ 2040274.0, 5444575.0 ] } },
{ "type": "Feature", "properties": { "osmid": 2108517912.0 }, "geometry": { "type": "Point", "coordinates": [ 2039732.0, 5444492.0 ] } }
]
}
