{
"type": "FeatureCollection",
"name": "skopje-grid",
"crs": { "type": "name", "properties": { "name": "urn:ogc:def:crs:EPSG::3857" } },
"features": [
{ "type": "Feature", "properties": { "osmid": 6525107800.0 }, "geometry": { "type": "Point", "coordinates": [ 2383371.0, 5160107.0 ] } },
{ "type": "Feature", "properties": { "osmid": 1937964847.0 }, "geometry": { "type": "Point", "coordinates": [ 2376643.0, 5161262.0 ] } },
{ "type": "Feature", "properties": { "osmid": 1851410910.0 }, "geometry": { "type": "Point", "coordinates": [ 2389015.0, 5162551.0 ] } },
{ "type": "Feature", "properties": { "osmid": 9595737964.0 }, "geometry": { "type": "Point", "coordinates": [ 2378603.0, 5162648.0 ] } },
{ "type": "Feature", "properties": { "osmid": 6804284280.0 }, "geometry": { "type": "Point", "coordinates": [ 2386226.0, 5166548.0 ] } },
{ "type": "Feature", "properties": { "osmid": 6184977637.0 }, "geometry": { "type": "Point", "coordinates": [ 2379969.0, 5160697.0 ] } },
{ "type": "Feature", "properties": { "osmid": 9597377621.0 }, "geometry": { "type": "Point", "coordinates": [ 2385915.0, 5164873.0 ] } },
{ "type": "Feature", "properties": { "osmid": 11417853108.0 }, "geometry": { "type": "Point", "coordinates": [ 2385311.0, 5161455.0 ] } },
{ "type": "Feature", "properties": { "osmid": 12728787805.0 }, "geometry": { "type": "Point", "coordinates": [ 2374984.0, 5161620.0 ] } },
{ "type": "Feature", "properties": { "osmid": 9597415254.0 }, "geometry": { "type": "Point", "coordinates": [ 2385587.0, 5163155.0 ] } },
{ "type": "Feature", "properties": { "osmid": 371800759.0 }, "geometry": { "type": "Point", "coordinates": [ 2395476.0, 5159660.0 ] } },
{ "type": "Feature", "properties": { "osmid": 3923800150.0 }, "geometry": { "type": "Point", "coordinates": [ 2384200.0, 5165154.0 ] } },
{ "type": "Feature", "properties": { "osmid": 12486742130.0 }, "geometry": { "type": "Point", "coordinates": [ 2393814.0, 5159999.0 ] } },
{ "type": "Feature", "properties": { "osmid": 416386944.0 }, "geometry": { "type": "Point", "coordinates": [ 2384620.0, 5166811.0 ] } },
{ "type": "Feature", "properties": { "osmid": 2552470557.0 }, "geometry": { "type": "Point", "coordinates": [ 2391819.0, 5158563.0 ] } },
{ "type": "Feature", "properties": { "osmid": 6806184293.0 }, "geometry": { "type": "Point", "coordinates": [ 2391257.0, 5155239.0 ] } },
{ "type": "Feature", "properties": { "osmid": 1898078616.0 }, "geometry": { "type": "Point", "coordinates": [ 2392638.0, 5153305.0 ] } },
{ "type": "Feature", "properties": { "osmid": 9347349756.0 }, "geometry": { "type": "Point", "coordinates": [ 2392405.0, 5162058.0 ] } },
{ "type": "Feature", "properties": { "osmid": 6276925358.0 }, "geometry": { "type": "Point", "coordinates": [ 2392140.0, 5160366.0 ] } },
{ "type": "Feature", "properties": { "osmid": 2386423836.0 }, "geometry": { "type": "Point", "coordinates": [ 2384834.0, 5158188.0 ] } },
{ "type": "Feature", "properties": { "osmid": 1870363027.0 }, "geometry": { "type": "Point", "coordinates": [ 2378953.0, 5164240.0 ] } },
{ "type": "Feature", "properties": { "osmid": 6540665459.0 }, "geometry": { "type": "Point", "coordinates": [ 2389394.0, 5164311.0 ] } },
{ "type": "Feature", "properties": { "osmid": 6540690311.0 }, "geometry": { "type": "Point", "coordinates": [ 2390592.0, 5162204.0 ] } },
{ "type": "Feature", "properties": { "osmid": 8187926808.0 }, "geometry": { "type": "Point", "coordinates": [ 2389769.0, 5157339.0 ] } },
{ "type": "Feature", "properties": { "osmid": 11787426418.0 }, "geometry": { "type": "Point", "coordinates": [ 2375202.0, 5163156.0 ] } },
{ "type": "Feature", "properties": { "osmid": 11246705279.0 }, "geometry": { "type": "Point", "coordinates": [ 2383869.0, 5163526.0 ] } },
{ "type": "Feature", "properties": { "osmid": 7519037979.0 }, "geometry": { "type": "Point", "coordinates": [ 2386077.0, 5156032.0 ] } },
{ "type": "Feature", "properties": { "osmid": 9437048541.0 }, "geometry": { "type": "Point", "coordinates": [ 2392961.0, 5154849.0 ] } },
{ "type": "Feature", "properties": { "osmid": 5000115909.0 }, "geometry": { "type": "Point", "coordinates": [ 2393580.0, 5158396.0 ] } },
{ "type": "Feature", "properties": { "osmid": 10697069429.0 }, "geometry": { "type": "Point", "coordinates": [ 2384313.0, 5156389.0 ] } },
{ "type": "Feature", "properties": { "osmid": 7799381906.0 }, "geometry": { "type": "Point", "coordinates": [ 2382125.0, 5163764.0 ] } },
{ "type": "Feature", "properties": { "osmid": 2552742752.0 }, "geometry": { "type": "Point", "coordinates": [ 2394468.0, 5163250.0 ] } },
{ "type": "Feature", "properties": { "osmid": 9595727811.0 }, "geometry": { "type": "Point", "coordinates": [ 2391054.0, 5153690.0 ] } },
{ "type": "Feature", "properties": { "osmid": 370522818.0 }, "geometry": { "type": "Point", "coordinates": [ 2391206.0, 5165861.0 ] } },
{ "type": "Feature", "properties": { "osmid": 2384782992.0 }, "geometry": { "type": "Point", "coordinates": [ 2382943.0, 5156556.0 ] } },
{ "type": "Feature", "properties": { "osmid": 1864079719.0 }, "geometry": { "type": "Point", "coordinates": [ 2377033.0, 5162699.0 ] } },
{ "type": "Feature", "properties": { "osmid": 6543141580.0 }, "geometry": { "type": "Point", "coordinates": [ 2392966.0, 5156434.0 ] } },
{ "type": "Feature", "properties": { "osmid": 7235004557.0 }, "geometry": { "type": "Point", "coordinates": [ 2380881.0, 5163982.0 ] } },
{ "type": "Feature", "properties": { "osmid": 5076856431.0 }, "geometry": { "type": "Point", "coordinates": [ 2394538.0, 5156378.0 ] } },
{ "type": "Feature", "properties": { "osmid": 2133466177.0 }, "geometry": { "type": "Point", "coordinates": [ 2387254.0, 5154373.0 ] } },
{ "type": "Feature", "properties": { "osmid": 3734219042.0 }, "geometry": { "type": "Point", "coordinates": [ 2382203.0, 5165255.0 ] } },
{ "type": "Feature", "properties": { "osmid": 2579904942.0 }, "geometry": { "type": "Point", "coordinates": [ 2389131.0, 5155775.0 ] } },
{ "type": "Feature", "properties": { "osmid": 6147483164.0 }, "geometry": { "type": "Point", "coordinates": [ 2389141.0, 5165974.0 ] } },
{ "type": "Feature", "properties": { "osmid": 170662452.0 }, "geometry": { "type": "Point", "coordinates": [ 2383970.0, 5161589.0 ] } },
{ "type": "Feature", "properties": { "osmid": 287496137.0 }, "geometry": { "type": "Point", "coordinates": [ 2384263.0, 5161105.0 ] } },
{ "type": "Feature", "properties": { "osmid": 2005507142.0 }, "geometry": { "type": "Point", "coordinates": [ 2383664.0, 5161073.0 ] } },
{ "type": "Feature", "properties": { "osmid": 170750136.0 }, "geometry": { "type": "Point", "coordinates": [ 2383495.0, 5161981.0 ] } },
{ "type": "Feature", "properties": { "osmid": 12941330388.0 }, "geometry": { "type": "Point", "coordinates": [ 2384683.0, 5161392.0 ] } },
{ "type": "Feature", "properties": { "osmid": 2322010675.0 }, "geometry": { "type": "Point", "coordinates": [ 2384633.0, 5160761.0 ] } },
{ "type": "Feature", "properties": { "osmid": 418396302.0 }, "geometry": { "type": "Point", "coordinates": [ 2382964.0, 5162020.0 ] } },
{ "type": "Feature", "properties": { "osmid": 1839000738.0 }, "geometry": { "type": "Point", "coordinates": [ 2382762.0, 5161245.0 ] } },
{ "type": "Feature", "properties": { "osmid": 170652742.0 }, "geometry": { "type": "Point", "coordinates": [ 2384337.0, 5160343.0 ] } },
{ "type": "Feature", "properties": { "osmid": 8464409638.0 }, "geometry": { "type": "Point", "coordinates": [ 2384010.0, 5162897.0 ] } },
{ "type": "Feature", "properties": { "osmid": 9609085594.0 }, "geometry": { "type": "Point", "coordinates": [ 2385165.0, 5160948.0 ] } },
{ "type": "Feature", "properties": { "osmid": 8464484545.0 }, "geometry": { "type": "Point", "coordinates": [ 2383021.0, 5162681.0 ] } },
{ "type": "Feature", "properties": { "osmid": 2008108528.0 }, "geometry": { "type": "Point", "coordinates": [ 2385005.0, 5160328.0 ] } },
{ "type": "Feature", "properties": { "osmid": 310423162.0 }, "geometry": { "type": "Point", "coordinates": [ 2382710.0, 5160438.0 ] } },
{ "type": "Feature", "properties": { "osmid": 1868826337.0 }, "geometry": { "type": "Point", "coordinates": [ 2382238.0, 5161854.0 ] } },
{ "type": "Feature", "properties": { "osmid": 1935969913.0 }, "geometry": { "type": "Point", "coordinates": [ 2385751.0, 5162119.0 ] } },
{ "type": "Feature", "properties": { "osmid": 13422146512.0 }, "geometry": { "type": "Point", "coordinates": [ 2385479.0, 5160488.0 ] } },
{ "type": "Feature", "properties": { "osmid": 3805220061.0 }, "geometry": { "type": "Point", "coordinates": [ 2386106.0, 5161595.0 ] } },
{ "type": "Feature", "properties": { "osmid": 3818709815.0 }, "geometry": { "type": "Point", "coordinates": [ 2385865.0, 5162717.0 ] } },
{ "type": "Feature", "properties": { "osmid": 1848563394.0 }, "geometry": { "type": "Point", "coordinates": [ 2385562.0, 5159843.0 ] } },
{ "type": "Feature", "properties": { "osmid": 369748906.0 }, "geometry": { "type": "Point", "coordinates": [ 2386289.0, 5162071.0 ] } },
{ "type": "Feature", "properties": { "osmid": 3650901925.0 }, "geometry": { "type": "Point", "coordinates": [ 2381651.0, 5161004.0 ] } },
{ "type": "Feature", "properties": { "osmid": 12505591236.0 }, "geometry": { "type": "Point", "coordinates": [ 2384200.0, 5159173.0 ] } },
{ "type": "Feature", "properties": { "osmid": 7932769405.0 }, "geometry": { "type": "Point", "coordinates": [ 2382839.0, 5159404.0 ] } },
{ "type": "Feature", "properties": { "osmid": 1869987575.0 }, "geometry": { "type": "Point", "coordinates": [ 2386485.0, 5161154.0 ] } },
{ "type": "Feature", "properties": { "osmid": 9078062158.0 }, "geometry": { "type": "Point", "coordinates": [ 2386146.0, 5160016.0 ] } },
{ "type": "Feature", "properties": { "osmid": 12925696902.0 }, "geometry": { "type": "Point", "coordinates": [ 2381567.0, 5162795.0 ] } },
{ "type": "Feature", "properties": { "osmid": 367671485.0 }, "geometry": { "type": "Point", "coordinates": [ 2381749.0, 5160006.0 ] } },
{ "type": "Feature", "properties": { "osmid": 370598459.0 }, "geometry": { "type": "Point", "coordinates": [ 2386542.0, 5162537.0 ] } },
{ "type": "Feature", "properties": { "osmid": 416398440.0 }, "geometry": { "type": "Point", "coordinates": [ 2386292.0, 5163171.0 ] } },
{ "type": "Feature", "properties": { "osmid": 2497031149.0 }, "geometry": { "type": "Point", "coordinates": [ 2384411.0, 5158699.0 ] } },
{ "type": "Feature", "properties": { "osmid": 170674544.0 }, "geometry": { "type": "Point", "coordinates": [ 2385946.0, 5159422.0 ] } },
{ "type": "Feature", "properties": { "osmid": 2712437305.0 }, "geometry": { "type": "Point", "coordinates": [ 2386949.0, 5161475.0 ] } },
{ "type": "Feature", "properties": { "osmid": 10758562468.0 }, "geometry": { "type": "Point", "coordinates": [ 2382685.0, 5158812.0 ] } },
{ "type": "Feature", "properties": { "osmid": 552580298.0 }, "geometry": { "type": "Point", "coordinates": [ 2387017.0, 5161974.0 ] } },
{ "type": "Feature", "properties": { "osmid": 5260088348.0 }, "geometry": { "type": "Point", "coordinates": [ 2385888.0, 5163989.0 ] } },
{ "type": "Feature", "properties": { "osmid": 4128501991.0 }, "geometry": { "type": "Point", "coordinates": [ 2386791.0, 5160311.0 ] } },
{ "type": "Feature", "properties": { "osmid": 9044473331.0 }, "geometry": { "type": "Point", "coordinates": [ 2386588.0, 5159773.0 ] } },
{ "type": "Feature", "properties": { "osmid": 1855982398.0 }, "geometry": { "type": "Point", "coordinates": [ 2386425.0, 5163657.0 ] } },
{ "type": "Feature", "properties": { "osmid": 9207768881.0 }, "geometry": { "type": "Point", "coordinates": [ 2383922.0, 5158319.0 ] } },
{ "type": "Feature", "properties": { "osmid": 1855982712.0 }, "geometry": { "type": "Point", "coordinates": [ 2386911.0, 5163034.0 ] } },
{ "type": "Feature", "properties": { "osmid": 395607390.0 }, "geometry": { "type": "Point", "coordinates": [ 2387206.0, 5160834.0 ] } },
{ "type": "Feature", "properties": { "osmid": 8724944201.0 }, "geometry": { "type": "Point", "coordinates": [ 2381806.0, 5159063.0 ] } },
{ "type": "Feature", "properties": { "osmid": 1874849795.0 }, "geometry": { "type": "Point", "coordinates": [ 2387321.0, 5162542.0 ] } },
{ "type": "Feature", "properties": { "osmid": 5095779200.0 }, "geometry": { "type": "Point", "coordinates": [ 2380571.0, 5162410.0 ] } },
{ "type": "Feature", "properties": { "osmid": 6277040647.0 }, "geometry": { "type": "Point", "coordinates": [ 2386372.0, 5164197.0 ] } },
{ "type": "Feature", "properties": { "osmid": 12977278395.0 }, "geometry": { "type": "Point", "coordinates": [ 2380928.0, 5163445.0 ] } },
{ "type": "Feature", "properties": { "osmid": 8143800324.0 }, "geometry": { "type": "Point", "coordinates": [ 2380386.0, 5161912.0 ] } },
{ "type": "Feature", "properties": { "osmid": 3787462066.0 }, "geometry": { "type": "Point", "coordinates": [ 2386365.0, 5158800.0 ] } },
{ "type": "Feature", "properties": { "osmid": 9077512440.0 }, "geometry": { "type": "Point", "coordinates": [ 2386821.0, 5159230.0 ] } },
{ "type": "Feature", "properties": { "osmid": 416384481.0 }, "geometry": { "type": "Point", "coordinates": [ 2385024.0, 5165149.0 ] } },
{ "type": "Feature", "properties": { "osmid": 7876582781.0 }, "geometry": { "type": "Point", "coordinates": [ 2387263.0, 5159730.0 ] } },
{ "type": "Feature", "properties": { "osmid": 395633174.0 }, "geometry": { "type": "Point", "coordinates": [ 2387676.0, 5160648.0 ] } },
{ "type": "Feature", "properties": { "osmid": 2442383465.0 }, "geometry": { "type": "Point", "coordinates": [ 2387490.0, 5163322.0 ] } },
{ "type": "Feature", "properties": { "osmid": 9207860628.0 }, "geometry": { "type": "Point", "coordinates": [ 2383155.0, 5157596.0 ] } },
{ "type": "Feature", "properties": { "osmid": 1870322810.0 }, "geometry": { "type": "Point", "coordinates": [ 2380269.0, 5163378.0 ] } },
{ "type": "Feature", "properties": { "osmid": 1902440697.0 }, "geometry": { "type": "Point", "coordinates": [ 2387826.0, 5160030.0 ] } },
{ "type": "Feature", "properties": { "osmid": 369405371.0 }, "geometry": { "type": "Point", "coordinates": [ 2382514.0, 5157673.0 ] } },
{ "type": "Feature", "properties": { "osmid": 4128439196.0 }, "geometry": { "type": "Point", "coordinates": [ 2379749.0, 5161161.0 ] } },
{ "type": "Feature", "properties": { "osmid": 1855942777.0 }, "geometry": { "type": "Point", "coordinates": [ 2387655.0, 5163839.0 ] } },
{ "type": "Feature", "properties": { "osmid": 9032524146.0 }, "geometry": { "type": "Point", "coordinates": [ 2386920.0, 5158298.0 ] } },
{ "type": "Feature", "properties": { "osmid": 1868404641.0 }, "geometry": { "type": "Point", "coordinates": [ 2386588.0, 5165221.0 ] } },
{ "type": "Feature", "properties": { "osmid": 1875061187.0 }, "geometry": { "type": "Point", "coordinates": [ 2379527.0, 5162165.0 ] } },
{ "type": "Feature", "properties": { "osmid": 1851410892.0 }, "geometry": { "type": "Point", "coordinates": [ 2388168.0, 5163253.0 ] } },
{ "type": "Feature", "properties": { "osmid": 12949323132.0 }, "geometry": { "type": "Point", "coordinates": [ 2379650.0, 5160093.0 ] } },
{ "type": "Feature", "properties": { "osmid": 1859281837.0 }, "geometry": { "type": "Point", "coordinates": [ 2388410.0, 5160496.0 ] } },
{ "type": "Feature", "properties": { "osmid": 10711945245.0 }, "geometry": { "type": "Point", "coordinates": [ 2383760.0, 5157007.0 ] } },
{ "type": "Feature", "properties": { "osmid": 4416794473.0 }, "geometry": { "type": "Point", "coordinates": [ 2386566.0, 5157752.0 ] } },
{ "type": "Feature", "properties": { "osmid": 471041958.0 }, "geometry": { "type": "Point", "coordinates": [ 2387977.0, 5159168.0 ] } },
{ "type": "Feature", "properties": { "osmid": 10718978508.0 }, "geometry": { "type": "Point", "coordinates": [ 2381695.0, 5157441.0 ] } },
{ "type": "Feature", "properties": { "osmid": 11418044098.0 }, "geometry": { "type": "Point", "coordinates": [ 2387818.0, 5164664.0 ] } },
{ "type": "Feature", "properties": { "osmid": 5865524063.0 }, "geometry": { "type": "Point", "coordinates": [ 2388467.0, 5159501.0 ] } },
{ "type": "Feature", "properties": { "osmid": 1461246185.0 }, "geometry": { "type": "Point", "coordinates": [ 2379056.0, 5160866.0 ] } },
{ "type": "Feature", "properties": { "osmid": 417777633.0 }, "geometry": { "type": "Point", "coordinates": [ 2388728.0, 5163087.0 ] } },
{ "type": "Feature", "properties": { "osmid": 1868499145.0 }, "geometry": { "type": "Point", "coordinates": [ 2386708.0, 5165838.0 ] } },
{ "type": "Feature", "properties": { "osmid": 6530574156.0 }, "geometry": { "type": "Point", "coordinates": [ 2378603.0, 5161341.0 ] } },
{ "type": "Feature", "properties": { "osmid": 9359418612.0 }, "geometry": { "type": "Point", "coordinates": [ 2389177.0, 5160031.0 ] } },
{ "type": "Feature", "properties": { "osmid": 11418038758.0 }, "geometry": { "type": "Point", "coordinates": [ 2387947.0, 5165708.0 ] } },
{ "type": "Feature", "properties": { "osmid": 10847818228.0 }, "geometry": { "type": "Point", "coordinates": [ 2389359.0, 5159450.0 ] } },
{ "type": "Feature", "properties": { "osmid": 10718963722.0 }, "geometry": { "type": "Point", "coordinates": [ 2380920.0, 5156636.0 ] } },
{ "type": "Feature", "properties": { "osmid": 10711814512.0 }, "geometry": { "type": "Point", "coordinates": [ 2382483.0, 5155931.0 ] } },
{ "type": "Feature", "properties": { "osmid": 3787571425.0 }, "geometry": { "type": "Point", "coordinates": [ 2388318.0, 5157630.0 ] } },
{ "type": "Feature", "properties": { "osmid": 1868553582.0 }, "geometry": { "type": "Point", "coordinates": [ 2387482.0, 5166313.0 ] } },
{ "type": "Feature", "properties": { "osmid": 5000120261.0 }, "geometry": { "type": "Point", "coordinates": [ 2389795.0, 5160163.0 ] } },
{ "type": "Feature", "properties": { "osmid": 1902767923.0 }, "geometry": { "type": "Point", "coordinates": [ 2381744.0, 5155857.0 ] } },
{ "type": "Feature", "properties": { "osmid": 12304590399.0 }, "geometry": { "type": "Point", "coordinates": [ 2387459.0, 5156496.0 ] } },
{ "type": "Feature", "properties": { "osmid": 1461236313.0 }, "geometry": { "type": "Point", "coordinates": [ 2377837.0, 5163305.0 ] } },
{ "type": "Feature", "properties": { "osmid": 368264238.0 }, "geometry": { "type": "Point", "coordinates": [ 2377571.0, 5162329.0 ] } },
{ "type": "Feature", "properties": { "osmid": 1880951442.0 }, "geometry": { "type": "Point", "coordinates": [ 2387283.0, 5156015.0 ] } },
{ "type": "Feature", "properties": { "osmid": 2321825407.0 }, "geometry": { "type": "Point", "coordinates": [ 2386562.0, 5155582.0 ] } },
{ "type": "Feature", "properties": { "osmid": 1894316925.0 }, "geometry": { "type": "Point", "coordinates": [ 2390426.0, 5160403.0 ] } },
{ "type": "Feature", "properties": { "osmid": 1868553626.0 }, "geometry": { "type": "Point", "coordinates": [ 2387943.0, 5166834.0 ] } },
{ "type": "Feature", "properties": { "osmid": 2079380057.0 }, "geometry": { "type": "Point", "coordinates": [ 2387492.0, 5167357.0 ] } },
{ "type": "Feature", "properties": { "osmid": 7683945770.0 }, "geometry": { "type": "Point", "coordinates": [ 2390408.0, 5159432.0 ] } },
{ "type": "Feature", "properties": { "osmid": 4652513299.0 }, "geometry": { "type": "Point", "coordinates": [ 2389164.0, 5157185.0 ] } },
{ "type": "Feature", "properties": { "osmid": 6184976249.0 }, "geometry": { "type": "Point", "coordinates": [ 2377330.0, 5163321.0 ] } },
{ "type": "Feature", "properties": { "osmid": 2321825481.0 }, "geometry": { "type": "Point", "coordinates": [ 2387056.0, 5155456.0 ] } },
{ "type": "Feature", "properties": { "osmid": 1900107050.0 }, "geometry": { "type": "Point", "coordinates": [ 2390115.0, 5158440.0 ] } },
{ "type": "Feature", "properties": { "osmid": 2555711797.0 }, "geometry": { "type": "Point", "coordinates": [ 2387693.0, 5155626.0 ] } },
{ "type": "Feature", "properties": { "osmid": 2555711854.0 }, "geometry": { "type": "Point", "coordinates": [ 2386702.0, 5155057.0 ] } },
{ "type": "Feature", "properties": { "osmid": 5798646924.0 }, "geometry": { "type": "Point", "coordinates": [ 2376720.0, 5161982.0 ] } },
{ "type": "Feature", "properties": { "osmid": 1850329227.0 }, "geometry": { "type": "Point", "coordinates": [ 2387815.0, 5167785.0 ] } },
{ "type": "Feature", "properties": { "osmid": 13351391258.0 }, "geometry": { "type": "Point", "coordinates": [ 2387466.0, 5155144.0 ] } },
{ "type": "Feature", "properties": { "osmid": 7869478416.0 }, "geometry": { "type": "Point", "coordinates": [ 2391561.0, 5161607.0 ] } },
{ "type": "Feature", "properties": { "osmid": 1461236307.0 }, "geometry": { "type": "Point", "coordinates": [ 2376822.0, 5164495.0 ] } },
{ "type": "Feature", "properties": { "osmid": 366214136.0 }, "geometry": { "type": "Point", "coordinates": [ 2376993.0, 5165018.0 ] } },
{ "type": "Feature", "properties": { "osmid": 6212603500.0 }, "geometry": { "type": "Point", "coordinates": [ 2376109.0, 5162430.0 ] } },
{ "type": "Feature", "properties": { "osmid": 8187926718.0 }, "geometry": { "type": "Point", "coordinates": [ 2390816.0, 5156923.0 ] } },
{ "type": "Feature", "properties": { "osmid": 4994462488.0 }, "geometry": { "type": "Point", "coordinates": [ 2391969.0, 5159163.0 ] } },
{ "type": "Feature", "properties": { "osmid": 2887574859.0 }, "geometry": { "type": "Point", "coordinates": [ 2391286.0, 5157502.0 ] } },
{ "type": "Feature", "properties": { "osmid": 11409171905.0 }, "geometry": { "type": "Point", "coordinates": [ 2392698.0, 5161361.0 ] } },
{ "type": "Feature", "properties": { "osmid": 1937964904.0 }, "geometry": { "type": "Point", "coordinates": [ 2375179.0, 5162579.0 ] } },
{ "type": "Feature", "properties": { "osmid": 2324328396.0 }, "geometry": { "type": "Point", "coordinates": [ 2374931.0, 5161074.0 ] } },
{ "type": "Feature", "properties": { "osmid": 3481094085.0 }, "geometry": { "type": "Point", "coordinates": [ 2393112.0, 5162261.0 ] } },
{ "type": "Feature", "properties": { "osmid": 2395659298.0 }, "geometry": { "type": "Point", "coordinates": [ 2393113.0, 5160453.0 ] } },
{ "type": "Feature", "properties": { "osmid": 6216358856.0 }, "geometry": { "type": "Point", "coordinates": [ 2392109.0, 5157270.0 ] } },
{ "type": "Feature", "properties": { "osmid": 2324448944.0 }, "geometry": { "type": "Point", "coordinates": [ 2374369.0, 5161065.0 ] } },
{ "type": "Feature", "properties": { "osmid": 6291665073.0 }, "geometry": { "type": "Point", "coordinates": [ 2392092.0, 5156412.0 ] } },
{ "type": "Feature", "properties": { "osmid": 6275558649.0 }, "geometry": { "type": "Point", "coordinates": [ 2392600.0, 5157151.0 ] } },
{ "type": "Feature", "properties": { "osmid": 6275554648.0 }, "geometry": { "type": "Point", "coordinates": [ 2391882.0, 5155642.0 ] } },
{ "type": "Feature", "properties": { "osmid": 370580207.0 }, "geometry": { "type": "Point", "coordinates": [ 2394241.0, 5161556.0 ] } },
{ "type": "Feature", "properties": { "osmid": 2324428269.0 }, "geometry": { "type": "Point", "coordinates": [ 2373659.0, 5161450.0 ] } },
{ "type": "Feature", "properties": { "osmid": 6277174498.0 }, "geometry": { "type": "Point", "coordinates": [ 2394284.0, 5162163.0 ] } },
{ "type": "Feature", "properties": { "osmid": 4994462212.0 }, "geometry": { "type": "Point", "coordinates": [ 2393549.0, 5157398.0 ] } },
{ "type": "Feature", "properties": { "osmid": 6281672819.0 }, "geometry": { "type": "Point", "coordinates": [ 2373386.0, 5160261.0 ] } },
{ "type": "Feature", "properties": { "osmid": 6276889336.0 }, "geometry": { "type": "Point", "coordinates": [ 2394997.0, 5163130.0 ] } },
{ "type": "Feature", "properties": { "osmid": 13034831760.0 }, "geometry": { "type": "Point", "coordinates": [ 2392237.0, 5154022.0 ] } },
{ "type": "Feature", "properties": { "osmid": 1878627316.0 }, "geometry": { "type": "Point", "coordinates": [ 2395266.0, 5162521.0 ] } }
]
}
