{
"type": "FeatureCollection",
"name": "sofia-grid",
"crs": { "type": "name", "properties": { "name": "urn:ogc:def:crs:EPSG::3857" } },
"features": [
{ "type": "Feature", "properties": { "osmid": 10171952282.0 }, "geometry": { "type": "Point", "coordinates": [ 2597782.0, 5259287.0 ] } },
{ "type": "Feature", "properties": { "osmid": 11364726960.0 }, "geometry": { "type": "Point", "coordinates": [ 2600166.0, 5259690.0 ] } },
{ "type": "Feature", "properties": { "osmid": 9205387580.0 }, "geometry": { "type": "Point", "coordinates": [ 2592625.0, 5260824.0 ] } },
{ "type": "Feature", "properties": { "osmid": 4714222990.0 }, "geometry": { "type": "Point", "coordinates": [ 2593716.0, 5268380.0 ] } },
{ "type": "Feature", "properties": { "osmid": 10271967285.0 }, "geometry": { "type": "Point", "coordinates": [ 2600992.0, 5254962.0 ] } },
{ "type": "Feature", "properties": { "osmid": 11224658113.0 }, "geometry": { "type": "Point", "coordinates": [ 2601576.0, 5258717.0 ] } },
{ "type": "Feature", "properties": { "osmid": 11733829921.0 }, "geometry": { "type": "Point", "coordinates": [ 2596377.0, 5260280.0 ] } },
{ "type": "Feature", "properties": { "osmid": 9629775754.0 }, "geometry": { "type": "Point", "coordinates": [ 2591493.0, 5274129.0 ] } },
{ "type": "Feature", "properties": { "osmid": 2179853582.0 }, "geometry": { "type": "Point", "coordinates": [ 2601701.0, 5264856.0 ] } },
{ "type": "Feature", "properties": { "osmid": 248808621.0 }, "geometry": { "type": "Point", "coordinates": [ 2597104.0, 5270204.0 ] } },
{ "type": "Feature", "properties": { "osmid": 5712262537.0 }, "geometry": { "type": "Point", "coordinates": [ 2594129.0, 5265988.0 ] } },
{ "type": "Feature", "properties": { "osmid": 259968599.0 }, "geometry": { "type": "Point", "coordinates": [ 2590955.0, 5270340.0 ] } },
{ "type": "Feature", "properties": { "osmid": 249183178.0 }, "geometry": { "type": "Point", "coordinates": [ 2589278.0, 5259008.0 ] } },
{ "type": "Feature", "properties": { "osmid": 1793910562.0 }, "geometry": { "type": "Point", "coordinates": [ 2596225.0, 5254095.0 ] } },
{ "type": "Feature", "properties": { "osmid": 7012169151.0 }, "geometry": { "type": "Point", "coordinates": [ 2599858.0, 5268244.0 ] } },
{ "type": "Feature", "properties": { "osmid": 9545012019.0 }, "geometry": { "type": "Point", "coordinates": [ 2594446.0, 5257446.0 ] } },
{ "type": "Feature", "properties": { "osmid": 4638763783.0 }, "geometry": { "type": "Point", "coordinates": [ 2603500.0, 5261499.0 ] } },
{ "type": "Feature", "properties": { "osmid": 10783303897.0 }, "geometry": { "type": "Point", "coordinates": [ 2591889.0, 5271714.0 ] } },
{ "type": "Feature", "properties": { "osmid": 4329619381.0 }, "geometry": { "type": "Point", "coordinates": [ 2601161.0, 5261122.0 ] } },
{ "type": "Feature", "properties": { "osmid": 1699508860.0 }, "geometry": { "type": "Point", "coordinates": [ 2596957.0, 5264012.0 ] } },
{ "type": "Feature", "properties": { "osmid": 9586583753.0 }, "geometry": { "type": "Point", "coordinates": [ 2586460.0, 5260935.0 ] } },
{ "type": "Feature", "properties": { "osmid": 4622654437.0 }, "geometry": { "type": "Point", "coordinates": [ 2604891.0, 5260526.0 ] } },
{ "type": "Feature", "properties": { "osmid": 267388363.0 }, "geometry": { "type": "Point", "coordinates": [ 2595136.0, 5267425.0 ] } },
{ "type": "Feature", "properties": { "osmid": 4395394345.0 }, "geometry": { "type": "Point", "coordinates": [ 2603963.0, 5259123.0 ] } },
{ "type": "Feature", "properties": { "osmid": 11966250043.0 }, "geometry": { "type": "Point", "coordinates": [ 2600306.0, 5265889.0 ] } },
{ "type": "Feature", "properties": { "osmid": 266567527.0 }, "geometry": { "type": "Point", "coordinates": [ 2599751.0, 5262047.0 ] } },
{ "type": "Feature", "properties": { "osmid": 6299704903.0 }, "geometry": { "type": "Point", "coordinates": [ 2596639.0, 5251757.0 ] } },
{ "type": "Feature", "properties": { "osmid": 154351159.0 }, "geometry": { "type": "Point", "coordinates": [ 2602574.0, 5260126.0 ] } },
{ "type": "Feature", "properties": { "osmid": 249461191.0 }, "geometry": { "type": "Point", "coordinates": [ 2593142.0, 5264577.0 ] } },
{ "type": "Feature", "properties": { "osmid": 344193809.0 }, "geometry": { "type": "Point", "coordinates": [ 2594556.0, 5263586.0 ] } },
{ "type": "Feature", "properties": { "osmid": 6444126882.0 }, "geometry": { "type": "Point", "coordinates": [ 2597539.0, 5267832.0 ] } },
{ "type": "Feature", "properties": { "osmid": 11850922706.0 }, "geometry": { "type": "Point", "coordinates": [ 2595706.0, 5271137.0 ] } },
{ "type": "Feature", "properties": { "osmid": 1574573835.0 }, "geometry": { "type": "Point", "coordinates": [ 2598591.0, 5254551.0 ] } },
{ "type": "Feature", "properties": { "osmid": 250610068.0 }, "geometry": { "type": "Point", "coordinates": [ 2598882.0, 5266867.0 ] } },
{ "type": "Feature", "properties": { "osmid": 11281980936.0 }, "geometry": { "type": "Point", "coordinates": [ 2594964.0, 5261274.0 ] } },
{ "type": "Feature", "properties": { "osmid": 5726142172.0 }, "geometry": { "type": "Point", "coordinates": [ 2600619.0, 5257335.0 ] } },
{ "type": "Feature", "properties": { "osmid": 4853820002.0 }, "geometry": { "type": "Point", "coordinates": [ 2619984.0, 5279124.0 ] } },
{ "type": "Feature", "properties": { "osmid": 4020577151.0 }, "geometry": { "type": "Point", "coordinates": [ 2603680.0, 5267708.0 ] } },
{ "type": "Feature", "properties": { "osmid": 2187147179.0 }, "geometry": { "type": "Point", "coordinates": [ 2585503.0, 5259532.0 ] } },
{ "type": "Feature", "properties": { "osmid": 2174833621.0 }, "geometry": { "type": "Point", "coordinates": [ 2588579.0, 5269878.0 ] } },
{ "type": "Feature", "properties": { "osmid": 2709947030.0 }, "geometry": { "type": "Point", "coordinates": [ 2614696.0, 5274484.0 ] } },
{ "type": "Feature", "properties": { "osmid": 2424111327.0 }, "geometry": { "type": "Point", "coordinates": [ 2600721.0, 5263435.0 ] } },
{ "type": "Feature", "properties": { "osmid": 10262580936.0 }, "geometry": { "type": "Point", "coordinates": [ 2595973.0, 5262597.0 ] } },
{ "type": "Feature", "properties": { "osmid": 2010806076.0 }, "geometry": { "type": "Point", "coordinates": [ 2602292.0, 5268622.0 ] } },
{ "type": "Feature", "properties": { "osmid": 6358881519.0 }, "geometry": { "type": "Point", "coordinates": [ 2619212.0, 5283929.0 ] } },
{ "type": "Feature", "properties": { "osmid": 9524689347.0 }, "geometry": { "type": "Point", "coordinates": [ 2606277.0, 5259537.0 ] } },
{ "type": "Feature", "properties": { "osmid": 11937081727.0 }, "geometry": { "type": "Point", "coordinates": [ 2604457.0, 5262941.0 ] } },
{ "type": "Feature", "properties": { "osmid": 254370614.0 }, "geometry": { "type": "Point", "coordinates": [ 2589950.0, 5268981.0 ] } },
{ "type": "Feature", "properties": { "osmid": 4011816492.0 }, "geometry": { "type": "Point", "coordinates": [ 2598491.0, 5269259.0 ] } },
{ "type": "Feature", "properties": { "osmid": 267408352.0 }, "geometry": { "type": "Point", "coordinates": [ 2591799.0, 5265539.0 ] } },
{ "type": "Feature", "properties": { "osmid": 2189481697.0 }, "geometry": { "type": "Point", "coordinates": [ 2599091.0, 5272999.0 ] } },
{ "type": "Feature", "properties": { "osmid": 267418844.0 }, "geometry": { "type": "Point", "coordinates": [ 2617178.0, 5281107.0 ] } },
{ "type": "Feature", "properties": { "osmid": 10605368607.0 }, "geometry": { "type": "Point", "coordinates": [ 2598184.0, 5256862.0 ] } },
{ "type": "Feature", "properties": { "osmid": 11582466122.0 }, "geometry": { "type": "Point", "coordinates": [ 2588168.0, 5272251.0 ] } },
{ "type": "Feature", "properties": { "osmid": 303492207.0 }, "geometry": { "type": "Point", "coordinates": [ 2595504.0, 5265046.0 ] } },
{ "type": "Feature", "properties": { "osmid": 12324499598.0 }, "geometry": { "type": "Point", "coordinates": [ 2598795.0, 5260723.0 ] } },
{ "type": "Feature", "properties": { "osmid": 2473530729.0 }, "geometry": { "type": "Point", "coordinates": [ 2588370.0, 5263787.0 ] } },
{ "type": "Feature", "properties": { "osmid": 1137845025.0 }, "geometry": { "type": "Point", "coordinates": [ 2592986.0, 5258416.0 ] } },
{ "type": "Feature", "properties": { "osmid": 10240299326.0 }, "geometry": { "type": "Point", "coordinates": [ 2587609.0, 5268560.0 ] } },
{ "type": "Feature", "properties": { "osmid": 11938131947.0 }, "geometry": { "type": "Point", "coordinates": [ 2587395.0, 5262403.0 ] } },
{ "type": "Feature", "properties": { "osmid": 253015157.0 }, "geometry": { "type": "Point", "coordinates": [ 2592724.0, 5266924.0 ] } },
{ "type": "Feature", "properties": { "osmid": 2904433974.0 }, "geometry": { "type": "Point", "coordinates": [ 2599316.0, 5264516.0 ] } },
{ "type": "Feature", "properties": { "osmid": 6486249785.0 }, "geometry": { "type": "Point", "coordinates": [ 2605891.0, 5261999.0 ] } },
{ "type": "Feature", "properties": { "osmid": 6299703230.0 }, "geometry": { "type": "Point", "coordinates": [ 2597647.0, 5253072.0 ] } },
{ "type": "Feature", "properties": { "osmid": 1819640668.0 }, "geometry": { "type": "Point", "coordinates": [ 2593416.0, 5256018.0 ] } },
{ "type": "Feature", "properties": { "osmid": 1868087718.0 }, "geometry": { "type": "Point", "coordinates": [ 2585001.0, 5261960.0 ] } },
{ "type": "Feature", "properties": { "osmid": 10856080022.0 }, "geometry": { "type": "Point", "coordinates": [ 2595805.0, 5256429.0 ] } },
{ "type": "Feature", "properties": { "osmid": 12033129169.0 }, "geometry": { "type": "Point", "coordinates": [ 2597199.0, 5255451.0 ] } },
{ "type": "Feature", "properties": { "osmid": 10293916499.0 }, "geometry": { "type": "Point", "coordinates": [ 2585636.0, 5265780.0 ] } },
{ "type": "Feature", "properties": { "osmid": 6854243380.0 }, "geometry": { "type": "Point", "coordinates": [ 2599247.0, 5258307.0 ] } },
{ "type": "Feature", "properties": { "osmid": 1404219596.0 }, "geometry": { "type": "Point", "coordinates": [ 2594869.0, 5255151.0 ] } },
{ "type": "Feature", "properties": { "osmid": 1812024274.0 }, "geometry": { "type": "Point", "coordinates": [ 2586101.0, 5263327.0 ] } },
{ "type": "Feature", "properties": { "osmid": 7948322461.0 }, "geometry": { "type": "Point", "coordinates": [ 2588909.0, 5267540.0 ] } },
{ "type": "Feature", "properties": { "osmid": 4457182661.0 }, "geometry": { "type": "Point", "coordinates": [ 2601217.0, 5267237.0 ] } },
{ "type": "Feature", "properties": { "osmid": 2303952638.0 }, "geometry": { "type": "Point", "coordinates": [ 2602724.0, 5266224.0 ] } },
{ "type": "Feature", "properties": { "osmid": 9560706117.0 }, "geometry": { "type": "Point", "coordinates": [ 2596460.0, 5266430.0 ] } },
{ "type": "Feature", "properties": { "osmid": 9700135342.0 }, "geometry": { "type": "Point", "coordinates": [ 2604334.0, 5256831.0 ] } },
{ "type": "Feature", "properties": { "osmid": 2174830372.0 }, "geometry": { "type": "Point", "coordinates": [ 2606105.0, 5268096.0 ] } },
{ "type": "Feature", "properties": { "osmid": 2278340182.0 }, "geometry": { "type": "Point", "coordinates": [ 2600080.0, 5253513.0 ] } },
{ "type": "Feature", "properties": { "osmid": 4326034106.0 }, "geometry": { "type": "Point", "coordinates": [ 2606664.0, 5257198.0 ] } },
{ "type": "Feature", "properties": { "osmid": 12350790772.0 }, "geometry": { "type": "Point", "coordinates": [ 2595399.0, 5258794.0 ] } },
{ "type": "Feature", "properties": { "osmid": 6806880299.0 }, "geometry": { "type": "Point", "coordinates": [ 2586213.0, 5269431.0 ] } },
{ "type": "Feature", "properties": { "osmid": 2276758376.0 }, "geometry": { "type": "Point", "coordinates": [ 2599049.0, 5252225.0 ] } },
{ "type": "Feature", "properties": { "osmid": 2702267289.0 }, "geometry": { "type": "Point", "coordinates": [ 2605512.0, 5264383.0 ] } },
{ "type": "Feature", "properties": { "osmid": 1929827336.0 }, "geometry": { "type": "Point", "coordinates": [ 2610155.0, 5265166.0 ] } },
{ "type": "Feature", "properties": { "osmid": 8068998466.0 }, "geometry": { "type": "Point", "coordinates": [ 2592367.0, 5269284.0 ] } },
{ "type": "Feature", "properties": { "osmid": 2150327000.0 }, "geometry": { "type": "Point", "coordinates": [ 2615238.0, 5278372.0 ] } },
{ "type": "Feature", "properties": { "osmid": 11833383963.0 }, "geometry": { "type": "Point", "coordinates": [ 2621032.0, 5280609.0 ] } },
{ "type": "Feature", "properties": { "osmid": 1700084965.0 }, "geometry": { "type": "Point", "coordinates": [ 2589876.0, 5262726.0 ] } },
{ "type": "Feature", "properties": { "osmid": 4810382357.0 }, "geometry": { "type": "Point", "coordinates": [ 2587775.0, 5259963.0 ] } },
{ "type": "Feature", "properties": { "osmid": 1198002172.0 }, "geometry": { "type": "Point", "coordinates": [ 2586175.0, 5248573.0 ] } },
{ "type": "Feature", "properties": { "osmid": 4235392780.0 }, "geometry": { "type": "Point", "coordinates": [ 2595183.0, 5273556.0 ] } },
{ "type": "Feature", "properties": { "osmid": 10974144282.0 }, "geometry": { "type": "Point", "coordinates": [ 2596099.0, 5268882.0 ] } },
{ "type": "Feature", "properties": { "osmid": 3611129224.0 }, "geometry": { "type": "Point", "coordinates": [ 2609729.0, 5267565.0 ] } },
{ "type": "Feature", "properties": { "osmid": 2150398876.0 }, "geometry": { "type": "Point", "coordinates": [ 2616169.0, 5279744.0 ] } },
{ "type": "Feature", "properties": { "osmid": 9193681616.0 }, "geometry": { "type": "Point", "coordinates": [ 2587111.0, 5270816.0 ] } },
{ "type": "Feature", "properties": { "osmid": 198722042.0 }, "geometry": { "type": "Point", "coordinates": [ 2591542.0, 5259430.0 ] } },
{ "type": "Feature", "properties": { "osmid": 13144884838.0 }, "geometry": { "type": "Point", "coordinates": [ 2616516.0, 5271259.0 ] } },
{ "type": "Feature", "properties": { "osmid": 9469982427.0 }, "geometry": { "type": "Point", "coordinates": [ 2596730.0, 5257949.0 ] } },
{ "type": "Feature", "properties": { "osmid": 1699394166.0 }, "geometry": { "type": "Point", "coordinates": [ 2617411.0, 5272529.0 ] } },
{ "type": "Feature", "properties": { "osmid": 6934266865.0 }, "geometry": { "type": "Point", "coordinates": [ 2599650.0, 5256016.0 ] } },
{ "type": "Feature", "properties": { "osmid": 5169691326.0 }, "geometry": { "type": "Point", "coordinates": [ 2586983.0, 5264644.0 ] } },
{ "type": "Feature", "properties": { "osmid": 9629722389.0 }, "geometry": { "type": "Point", "coordinates": [ 2588745.0, 5261437.0 ] } },
{ "type": "Feature", "properties": { "osmid": 4283056109.0 }, "geometry": { "type": "Point", "coordinates": [ 2594331.0, 5251216.0 ] } },
{ "type": "Feature", "properties": { "osmid": 11762117153.0 }, "geometry": { "type": "Point", "coordinates": [ 2608850.0, 5266241.0 ] } },
{ "type": "Feature", "properties": { "osmid": 2190486549.0 }, "geometry": { "type": "Point", "coordinates": [ 2589500.0, 5265190.0 ] } },
{ "type": "Feature", "properties": { "osmid": 6543740585.0 }, "geometry": { "type": "Point", "coordinates": [ 2607456.0, 5267222.0 ] } },
{ "type": "Feature", "properties": { "osmid": 5302312653.0 }, "geometry": { "type": "Point", "coordinates": [ 2581765.0, 5260218.0 ] } },
{ "type": "Feature", "properties": { "osmid": 13274579982.0 }, "geometry": { "type": "Point", "coordinates": [ 2596276.0, 5275058.0 ] } },
{ "type": "Feature", "properties": { "osmid": 11081948361.0 }, "geometry": { "type": "Point", "coordinates": [ 2590210.0, 5275055.0 ] } },
{ "type": "Feature", "properties": { "osmid": 249419068.0 }, "geometry": { "type": "Point", "coordinates": [ 2595949.0, 5277338.0 ] } },
{ "type": "Feature", "properties": { "osmid": 1540843275.0 }, "geometry": { "type": "Point", "coordinates": [ 2586666.0, 5252533.0 ] } },
{ "type": "Feature", "properties": { "osmid": 800373190.0 }, "geometry": { "type": "Point", "coordinates": [ 2591806.0, 5250961.0 ] } },
{ "type": "Feature", "properties": { "osmid": 6788497375.0 }, "geometry": { "type": "Point", "coordinates": [ 2592130.0, 5256951.0 ] } },
{ "type": "Feature", "properties": { "osmid": 7609763574.0 }, "geometry": { "type": "Point", "coordinates": [ 2585838.0, 5257077.0 ] } },
{ "type": "Feature", "properties": { "osmid": 2140935368.0 }, "geometry": { "type": "Point", "coordinates": [ 2612789.0, 5271603.0 ] } },
{ "type": "Feature", "properties": { "osmid": 344711491.0 }, "geometry": { "type": "Point", "coordinates": [ 2589473.0, 5271193.0 ] } },
{ "type": "Feature", "properties": { "osmid": 812119172.0 }, "geometry": { "type": "Point", "coordinates": [ 2592833.0, 5273007.0 ] } },
{ "type": "Feature", "properties": { "osmid": 9510157302.0 }, "geometry": { "type": "Point", "coordinates": [ 2602273.0, 5254022.0 ] } },
{ "type": "Feature", "properties": { "osmid": 458804790.0 }, "geometry": { "type": "Point", "coordinates": [ 2617710.0, 5278848.0 ] } },
{ "type": "Feature", "properties": { "osmid": 5278608665.0 }, "geometry": { "type": "Point", "coordinates": [ 2590631.0, 5272795.0 ] } },
{ "type": "Feature", "properties": { "osmid": 4265139981.0 }, "geometry": { "type": "Point", "coordinates": [ 2596808.0, 5272610.0 ] } },
{ "type": "Feature", "properties": { "osmid": 248844960.0 }, "geometry": { "type": "Point", "coordinates": [ 2599343.0, 5270527.0 ] } },
{ "type": "Feature", "properties": { "osmid": 13515042220.0 }, "geometry": { "type": "Point", "coordinates": [ 2595833.0, 5250340.0 ] } },
{ "type": "Feature", "properties": { "osmid": 458807620.0 }, "geometry": { "type": "Point", "coordinates": [ 2618474.0, 5280105.0 ] } },
{ "type": "Feature", "properties": { "osmid": 10293951315.0 }, "geometry": { "type": "Point", "coordinates": [ 2584669.0, 5264171.0 ] } },
{ "type": "Feature", "properties": { "osmid": 9967959222.0 }, "geometry": { "type": "Point", "coordinates": [ 2613043.0, 5277896.0 ] } },
{ "type": "Feature", "properties": { "osmid": 2503289786.0 }, "geometry": { "type": "Point", "coordinates": [ 2600825.0, 5269480.0 ] } },
{ "type": "Feature", "properties": { "osmid": 6543692040.0 }, "geometry": { "type": "Point", "coordinates": [ 2608329.0, 5268369.0 ] } },
{ "type": "Feature", "properties": { "osmid": 6642031510.0 }, "geometry": { "type": "Point", "coordinates": [ 2613461.0, 5275428.0 ] } },
{ "type": "Feature", "properties": { "osmid": 4773510116.0 }, "geometry": { "type": "Point", "coordinates": [ 2593730.0, 5253793.0 ] } },
{ "type": "Feature", "properties": { "osmid": 5210959181.0 }, "geometry": { "type": "Point", "coordinates": [ 2588297.0, 5251504.0 ] } },
{ "type": "Feature", "properties": { "osmid": 13137898493.0 }, "geometry": { "type": "Point", "coordinates": [ 2590541.0, 5266522.0 ] } },
{ "type": "Feature", "properties": { "osmid": 301388758.0 }, "geometry": { "type": "Point", "coordinates": [ 2582423.0, 5263823.0 ] } },
{ "type": "Feature", "properties": { "osmid": 7925633697.0 }, "geometry": { "type": "Point", "coordinates": [ 2595338.0, 5252876.0 ] } },
{ "type": "Feature", "properties": { "osmid": 13072628495.0 }, "geometry": { "type": "Point", "coordinates": [ 2603465.0, 5255210.0 ] } },
{ "type": "Feature", "properties": { "osmid": 430641451.0 }, "geometry": { "type": "Point", "coordinates": [ 2598057.0, 5271772.0 ] } },
{ "type": "Feature", "properties": { "osmid": 10816626064.0 }, "geometry": { "type": "Point", "coordinates": [ 2611685.0, 5270495.0 ] } },
{ "type": "Feature", "properties": { "osmid": 1347958951.0 }, "geometry": { "type": "Point", "coordinates": [ 2585385.0, 5268084.0 ] } },
{ "type": "Feature", "properties": { "osmid": 3670425536.0 }, "geometry": { "type": "Point", "coordinates": [ 2587577.0, 5253967.0 ] } },
{ "type": "Feature", "properties": { "osmid": 13043244236.0 }, "geometry": { "type": "Point", "coordinates": [ 2589152.0, 5273499.0 ] } },
{ "type": "Feature", "properties": { "osmid": 12235906823.0 }, "geometry": { "type": "Point", "coordinates": [ 2587898.0, 5265966.0 ] } },
{ "type": "Feature", "properties": { "osmid": 5633054937.0 }, "geometry": { "type": "Point", "coordinates": [ 2589313.0, 5252864.0 ] } },
{ "type": "Feature", "properties": { "osmid": 13174273104.0 }, "geometry": { "type": "Point", "coordinates": [ 2592578.0, 5246028.0 ] } },
{ "type": "Feature", "properties": { "osmid": 5528587247.0 }, "geometry": { "type": "Point", "coordinates": [ 2583299.0, 5259191.0 ] } },
{ "type": "Feature", "properties": { "osmid": 11360478406.0 }, "geometry": { "type": "Point", "coordinates": [ 2614331.0, 5270840.0 ] } },
{ "type": "Feature", "properties": { "osmid": 5216595106.0 }, "geometry": { "type": "Point", "coordinates": [ 2589803.0, 5256463.0 ] } },
{ "type": "Feature", "properties": { "osmid": 503902332.0 }, "geometry": { "type": "Point", "coordinates": [ 2588848.0, 5255375.0 ] } },
{ "type": "Feature", "properties": { "osmid": 9583875764.0 }, "geometry": { "type": "Point", "coordinates": [ 2611972.0, 5267938.0 ] } },
{ "type": "Feature", "properties": { "osmid": 301389934.0 }, "geometry": { "type": "Point", "coordinates": [ 2583202.0, 5265532.0 ] } },
{ "type": "Feature", "properties": { "osmid": 5302310568.0 }, "geometry": { "type": "Point", "coordinates": [ 2580961.0, 5258739.0 ] } },
{ "type": "Feature", "properties": { "osmid": 5405741935.0 }, "geometry": { "type": "Point", "coordinates": [ 2621791.0, 5281790.0 ] } },
{ "type": "Feature", "properties": { "osmid": 2470071677.0 }, "geometry": { "type": "Point", "coordinates": [ 2623101.0, 5283138.0 ] } },
{ "type": "Feature", "properties": { "osmid": 2304213400.0 }, "geometry": { "type": "Point", "coordinates": [ 2603037.0, 5264138.0 ] } },
{ "type": "Feature", "properties": { "osmid": 2710016637.0 }, "geometry": { "type": "Point", "coordinates": [ 2616901.0, 5274776.0 ] } },
{ "type": "Feature", "properties": { "osmid": 9410600122.0 }, "geometry": { "type": "Point", "coordinates": [ 2621238.0, 5277986.0 ] } },
{ "type": "Feature", "properties": { "osmid": 9641240954.0 }, "geometry": { "type": "Point", "coordinates": [ 2606792.0, 5269610.0 ] } },
{ "type": "Feature", "properties": { "osmid": 2632377232.0 }, "geometry": { "type": "Point", "coordinates": [ 2622257.0, 5279768.0 ] } },
{ "type": "Feature", "properties": { "osmid": 2449732779.0 }, "geometry": { "type": "Point", "coordinates": [ 2616019.0, 5281905.0 ] } },
{ "type": "Feature", "properties": { "osmid": 2286731279.0 }, "geometry": { "type": "Point", "coordinates": [ 2607865.0, 5258375.0 ] } },
{ "type": "Feature", "properties": { "osmid": 2682172695.0 }, "geometry": { "type": "Point", "coordinates": [ 2612504.0, 5279997.0 ] } },
{ "type": "Feature", "properties": { "osmid": 6130400274.0 }, "geometry": { "type": "Point", "coordinates": [ 2616418.0, 5286121.0 ] } },
{ "type": "Feature", "properties": { "osmid": 6543268195.0 }, "geometry": { "type": "Point", "coordinates": [ 2609511.0, 5269665.0 ] } },
{ "type": "Feature", "properties": { "osmid": 2691959466.0 }, "geometry": { "type": "Point", "coordinates": [ 2582125.0, 5266253.0 ] } },
{ "type": "Feature", "properties": { "osmid": 4707022562.0 }, "geometry": { "type": "Point", "coordinates": [ 2617158.0, 5287452.0 ] } },
{ "type": "Feature", "properties": { "osmid": 13168092498.0 }, "geometry": { "type": "Point", "coordinates": [ 2583790.0, 5260556.0 ] } },
{ "type": "Feature", "properties": { "osmid": 2680234130.0 }, "geometry": { "type": "Point", "coordinates": [ 2619814.0, 5281718.0 ] } },
{ "type": "Feature", "properties": { "osmid": 301388782.0 }, "geometry": { "type": "Point", "coordinates": [ 2581084.0, 5262286.0 ] } },
{ "type": "Feature", "properties": { "osmid": 3009226495.0 }, "geometry": { "type": "Point", "coordinates": [ 2604065.0, 5271190.0 ] } },
{ "type": "Feature", "properties": { "osmid": 10946824644.0 }, "geometry": { "type": "Point", "coordinates": [ 2604788.0, 5254087.0 ] } },
{ "type": "Feature", "properties": { "osmid": 2684172827.0 }, "geometry": { "type": "Point", "coordinates": [ 2584596.0, 5270231.0 ] } },
{ "type": "Feature", "properties": { "osmid": 1699444979.0 }, "geometry": { "type": "Point", "coordinates": [ 2615208.0, 5271853.0 ] } },
{ "type": "Feature", "properties": { "osmid": 11409438691.0 }, "geometry": { "type": "Point", "coordinates": [ 2594559.0, 5275820.0 ] } },
{ "type": "Feature", "properties": { "osmid": 13448457056.0 }, "geometry": { "type": "Point", "coordinates": [ 2611650.0, 5272789.0 ] } },
{ "type": "Feature", "properties": { "osmid": 4143111695.0 }, "geometry": { "type": "Point", "coordinates": [ 2603258.0, 5270369.0 ] } },
{ "type": "Feature", "properties": { "osmid": 3959608366.0 }, "geometry": { "type": "Point", "coordinates": [ 2588627.0, 5249387.0 ] } },
{ "type": "Feature", "properties": { "osmid": 2822648914.0 }, "geometry": { "type": "Point", "coordinates": [ 2584692.0, 5258428.0 ] } },
{ "type": "Feature", "properties": { "osmid": 2682150015.0 }, "geometry": { "type": "Point", "coordinates": [ 2617471.0, 5284785.0 ] } },
{ "type": "Feature", "properties": { "osmid": 6815635764.0 }, "geometry": { "type": "Point", "coordinates": [ 2616076.0, 5287920.0 ] } },
{ "type": "Feature", "properties": { "osmid": 4299048208.0 }, "geometry": { "type": "Point", "coordinates": [ 2604750.0, 5268757.0 ] } },
{ "type": "Feature", "properties": { "osmid": 13746673267.0 }, "geometry": { "type": "Point", "coordinates": [ 2603815.0, 5265087.0 ] } },
{ "type": "Feature", "properties": { "osmid": 310875236.0 }, "geometry": { "type": "Point", "coordinates": [ 2618736.0, 5286612.0 ] } },
{ "type": "Feature", "properties": { "osmid": 4595383312.0 }, "geometry": { "type": "Point", "coordinates": [ 2601931.0, 5271365.0 ] } },
{ "type": "Feature", "properties": { "osmid": 4973641186.0 }, "geometry": { "type": "Point", "coordinates": [ 2586902.0, 5249813.0 ] } },
{ "type": "Feature", "properties": { "osmid": 2680215333.0 }, "geometry": { "type": "Point", "coordinates": [ 2625087.0, 5284003.0 ] } },
{ "type": "Feature", "properties": { "osmid": 1540843007.0 }, "geometry": { "type": "Point", "coordinates": [ 2586116.0, 5251006.0 ] } },
{ "type": "Feature", "properties": { "osmid": 9677394058.0 }, "geometry": { "type": "Point", "coordinates": [ 2600365.0, 5274522.0 ] } },
{ "type": "Feature", "properties": { "osmid": 3637023369.0 }, "geometry": { "type": "Point", "coordinates": [ 2586989.0, 5256414.0 ] } },
{ "type": "Feature", "properties": { "osmid": 1126253504.0 }, "geometry": { "type": "Point", "coordinates": [ 2621300.0, 5284580.0 ] } },
{ "type": "Feature", "properties": { "osmid": 2269493247.0 }, "geometry": { "type": "Point", "coordinates": [ 2586498.0, 5272976.0 ] } },
{ "type": "Feature", "properties": { "osmid": 2680234294.0 }, "geometry": { "type": "Point", "coordinates": [ 2620895.0, 5283136.0 ] } },
{ "type": "Feature", "properties": { "osmid": 265535428.0 }, "geometry": { "type": "Point", "coordinates": [ 2583917.0, 5268709.0 ] } },
{ "type": "Feature", "properties": { "osmid": 3959119306.0 }, "geometry": { "type": "Point", "coordinates": [ 2588607.0, 5246569.0 ] } },
{ "type": "Feature", "properties": { "osmid": 3001939533.0 }, "geometry": { "type": "Point", "coordinates": [ 2591138.0, 5253097.0 ] } },
{ "type": "Feature", "properties": { "osmid": 312434030.0 }, "geometry": { "type": "Point", "coordinates": [ 2615381.0, 5286865.0 ] } },
{ "type": "Feature", "properties": { "osmid": 6543601520.0 }, "geometry": { "type": "Point", "coordinates": [ 2607533.0, 5264975.0 ] } },
{ "type": "Feature", "properties": { "osmid": 9630118607.0 }, "geometry": { "type": "Point", "coordinates": [ 2584316.0, 5266309.0 ] } },
{ "type": "Feature", "properties": { "osmid": 443434611.0 }, "geometry": { "type": "Point", "coordinates": [ 2586631.0, 5267526.0 ] } },
{ "type": "Feature", "properties": { "osmid": 10581798894.0 }, "geometry": { "type": "Point", "coordinates": [ 2605010.0, 5267104.0 ] } },
{ "type": "Feature", "properties": { "osmid": 5064465901.0 }, "geometry": { "type": "Point", "coordinates": [ 2617110.0, 5283759.0 ] } },
{ "type": "Feature", "properties": { "osmid": 4095078391.0 }, "geometry": { "type": "Point", "coordinates": [ 2598636.0, 5274942.0 ] } },
{ "type": "Feature", "properties": { "osmid": 4095076715.0 }, "geometry": { "type": "Point", "coordinates": [ 2598042.0, 5274132.0 ] } },
{ "type": "Feature", "properties": { "osmid": 8765959592.0 }, "geometry": { "type": "Point", "coordinates": [ 2614115.0, 5282763.0 ] } },
{ "type": "Feature", "properties": { "osmid": 4594419886.0 }, "geometry": { "type": "Point", "coordinates": [ 2593523.0, 5274274.0 ] } },
{ "type": "Feature", "properties": { "osmid": 11172593780.0 }, "geometry": { "type": "Point", "coordinates": [ 2594126.0, 5277989.0 ] } },
{ "type": "Feature", "properties": { "osmid": 3546236136.0 }, "geometry": { "type": "Point", "coordinates": [ 2587957.0, 5247908.0 ] } },
{ "type": "Feature", "properties": { "osmid": 11403902691.0 }, "geometry": { "type": "Point", "coordinates": [ 2591473.0, 5247549.0 ] } },
{ "type": "Feature", "properties": { "osmid": 4773439096.0 }, "geometry": { "type": "Point", "coordinates": [ 2588091.0, 5258023.0 ] } },
{ "type": "Feature", "properties": { "osmid": 312469890.0 }, "geometry": { "type": "Point", "coordinates": [ 2620861.0, 5276581.0 ] } },
{ "type": "Feature", "properties": { "osmid": 9436615211.0 }, "geometry": { "type": "Point", "coordinates": [ 2584059.0, 5262694.0 ] } },
{ "type": "Feature", "properties": { "osmid": 6515237298.0 }, "geometry": { "type": "Point", "coordinates": [ 2622989.0, 5285598.0 ] } },
{ "type": "Feature", "properties": { "osmid": 6092068041.0 }, "geometry": { "type": "Point", "coordinates": [ 2582279.0, 5258187.0 ] } },
{ "type": "Feature", "properties": { "osmid": 1126258171.0 }, "geometry": { "type": "Point", "coordinates": [ 2618232.0, 5282963.0 ] } },
{ "type": "Feature", "properties": { "osmid": 2189467523.0 }, "geometry": { "type": "Point", "coordinates": [ 2596757.0, 5276272.0 ] } },
{ "type": "Feature", "properties": { "osmid": 93528760.0 }, "geometry": { "type": "Point", "coordinates": [ 2609984.0, 5271019.0 ] } },
{ "type": "Feature", "properties": { "osmid": 5761896341.0 }, "geometry": { "type": "Point", "coordinates": [ 2623482.0, 5284904.0 ] } },
{ "type": "Feature", "properties": { "osmid": 302274699.0 }, "geometry": { "type": "Point", "coordinates": [ 2615250.0, 5280891.0 ] } },
{ "type": "Feature", "properties": { "osmid": 311128878.0 }, "geometry": { "type": "Point", "coordinates": [ 2613427.0, 5281104.0 ] } },
{ "type": "Feature", "properties": { "osmid": 310881858.0 }, "geometry": { "type": "Point", "coordinates": [ 2613285.0, 5280412.0 ] } },
{ "type": "Feature", "properties": { "osmid": 310877233.0 }, "geometry": { "type": "Point", "coordinates": [ 2615615.0, 5284063.0 ] } },
{ "type": "Feature", "properties": { "osmid": 311122056.0 }, "geometry": { "type": "Point", "coordinates": [ 2615309.0, 5284596.0 ] } },
{ "type": "Feature", "properties": { "osmid": 312432972.0 }, "geometry": { "type": "Point", "coordinates": [ 2614772.0, 5285884.0 ] } },
{ "type": "Feature", "properties": { "osmid": 4257783622.0 }, "geometry": { "type": "Point", "coordinates": [ 2606922.0, 5267725.0 ] } },
{ "type": "Feature", "properties": { "osmid": 9664227329.0 }, "geometry": { "type": "Point", "coordinates": [ 2606059.0, 5267516.0 ] } },
{ "type": "Feature", "properties": { "osmid": 3948970587.0 }, "geometry": { "type": "Point", "coordinates": [ 2602857.0, 5266794.0 ] } },
{ "type": "Feature", "properties": { "osmid": 9865432006.0 }, "geometry": { "type": "Point", "coordinates": [ 2602367.0, 5266668.0 ] } },
{ "type": "Feature", "properties": { "osmid": 13328727300.0 }, "geometry": { "type": "Point", "coordinates": [ 2595762.0, 5273330.0 ] } },
{ "type": "Feature", "properties": { "osmid": 9833318370.0 }, "geometry": { "type": "Point", "coordinates": [ 2595729.0, 5272673.0 ] } },
{ "type": "Feature", "properties": { "osmid": 9114112469.0 }, "geometry": { "type": "Point", "coordinates": [ 2605111.0, 5261542.0 ] } },
{ "type": "Feature", "properties": { "osmid": 8575511688.0 }, "geometry": { "type": "Point", "coordinates": [ 2598957.0, 5266103.0 ] } },
{ "type": "Feature", "properties": { "osmid": 13275237623.0 }, "geometry": { "type": "Point", "coordinates": [ 2594836.0, 5272592.0 ] } },
{ "type": "Feature", "properties": { "osmid": 9269534772.0 }, "geometry": { "type": "Point", "coordinates": [ 2598476.0, 5266351.0 ] } },
{ "type": "Feature", "properties": { "osmid": 147926268.0 }, "geometry": { "type": "Point", "coordinates": [ 2602224.0, 5262648.0 ] } },
{ "type": "Feature", "properties": { "osmid": 7554017851.0 }, "geometry": { "type": "Point", "coordinates": [ 2598905.0, 5265543.0 ] } },
{ "type": "Feature", "properties": { "osmid": 11895721565.0 }, "geometry": { "type": "Point", "coordinates": [ 2594382.0, 5272352.0 ] } },
{ "type": "Feature", "properties": { "osmid": 11860222308.0 }, "geometry": { "type": "Point", "coordinates": [ 2594827.0, 5271082.0 ] } },
{ "type": "Feature", "properties": { "osmid": 2528191240.0 }, "geometry": { "type": "Point", "coordinates": [ 2598178.0, 5265103.0 ] } },
{ "type": "Feature", "properties": { "osmid": 2870900927.0 }, "geometry": { "type": "Point", "coordinates": [ 2594982.0, 5269365.0 ] } },
{ "type": "Feature", "properties": { "osmid": 3156262568.0 }, "geometry": { "type": "Point", "coordinates": [ 2596371.0, 5267129.0 ] } },
{ "type": "Feature", "properties": { "osmid": 3688575991.0 }, "geometry": { "type": "Point", "coordinates": [ 2599154.0, 5263862.0 ] } },
{ "type": "Feature", "properties": { "osmid": 9442876370.0 }, "geometry": { "type": "Point", "coordinates": [ 2594343.0, 5270019.0 ] } },
{ "type": "Feature", "properties": { "osmid": 6299946992.0 }, "geometry": { "type": "Point", "coordinates": [ 2604256.0, 5260019.0 ] } },
{ "type": "Feature", "properties": { "osmid": 4516112410.0 }, "geometry": { "type": "Point", "coordinates": [ 2597308.0, 5265437.0 ] } },
{ "type": "Feature", "properties": { "osmid": 9838665238.0 }, "geometry": { "type": "Point", "coordinates": [ 2597537.0, 5264700.0 ] } },
{ "type": "Feature", "properties": { "osmid": 12250490674.0 }, "geometry": { "type": "Point", "coordinates": [ 2598437.0, 5263534.0 ] } },
{ "type": "Feature", "properties": { "osmid": 12309608816.0 }, "geometry": { "type": "Point", "coordinates": [ 2598807.0, 5263143.0 ] } },
{ "type": "Feature", "properties": { "osmid": 312251858.0 }, "geometry": { "type": "Point", "coordinates": [ 2599277.0, 5262656.0 ] } },
{ "type": "Feature", "properties": { "osmid": 9495851791.0 }, "geometry": { "type": "Point", "coordinates": [ 2592994.0, 5270975.0 ] } },
{ "type": "Feature", "properties": { "osmid": 3671536138.0 }, "geometry": { "type": "Point", "coordinates": [ 2596797.0, 5264811.0 ] } },
{ "type": "Feature", "properties": { "osmid": 148071103.0 }, "geometry": { "type": "Point", "coordinates": [ 2605266.0, 5258493.0 ] } },
{ "type": "Feature", "properties": { "osmid": 11171999121.0 }, "geometry": { "type": "Point", "coordinates": [ 2592506.0, 5271392.0 ] } },
{ "type": "Feature", "properties": { "osmid": 6111662646.0 }, "geometry": { "type": "Point", "coordinates": [ 2596156.0, 5264716.0 ] } },
{ "type": "Feature", "properties": { "osmid": 9643564406.0 }, "geometry": { "type": "Point", "coordinates": [ 2595408.0, 5265612.0 ] } },
{ "type": "Feature", "properties": { "osmid": 3704107997.0 }, "geometry": { "type": "Point", "coordinates": [ 2605013.0, 5258002.0 ] } },
{ "type": "Feature", "properties": { "osmid": 3926215733.0 }, "geometry": { "type": "Point", "coordinates": [ 2596068.0, 5264218.0 ] } },
{ "type": "Feature", "properties": { "osmid": 11198568446.0 }, "geometry": { "type": "Point", "coordinates": [ 2602223.0, 5258898.0 ] } },
{ "type": "Feature", "properties": { "osmid": 3863031152.0 }, "geometry": { "type": "Point", "coordinates": [ 2594982.0, 5265266.0 ] } },
{ "type": "Feature", "properties": { "osmid": 250077619.0 }, "geometry": { "type": "Point", "coordinates": [ 2595952.0, 5263516.0 ] } },
{ "type": "Feature", "properties": { "osmid": 4384491245.0 }, "geometry": { "type": "Point", "coordinates": [ 2602234.0, 5258351.0 ] } },
{ "type": "Feature", "properties": { "osmid": 9650994700.0 }, "geometry": { "type": "Point", "coordinates": [ 2595457.0, 5263920.0 ] } },
{ "type": "Feature", "properties": { "osmid": 3007603162.0 }, "geometry": { "type": "Point", "coordinates": [ 2597355.0, 5261919.0 ] } },
{ "type": "Feature", "properties": { "osmid": 414133865.0 }, "geometry": { "type": "Point", "coordinates": [ 2605844.0, 5256560.0 ] } },
{ "type": "Feature", "properties": { "osmid": 9697802232.0 }, "geometry": { "type": "Point", "coordinates": [ 2592044.0, 5268610.0 ] } },
{ "type": "Feature", "properties": { "osmid": 10973597720.0 }, "geometry": { "type": "Point", "coordinates": [ 2597879.0, 5261045.0 ] } },
{ "type": "Feature", "properties": { "osmid": 11085559835.0 }, "geometry": { "type": "Point", "coordinates": [ 2602798.0, 5257575.0 ] } },
{ "type": "Feature", "properties": { "osmid": 11253249261.0 }, "geometry": { "type": "Point", "coordinates": [ 2595602.0, 5263139.0 ] } },
{ "type": "Feature", "properties": { "osmid": 5344834996.0 }, "geometry": { "type": "Point", "coordinates": [ 2591503.0, 5269012.0 ] } },
{ "type": "Feature", "properties": { "osmid": 4376571676.0 }, "geometry": { "type": "Point", "coordinates": [ 2595053.0, 5263444.0 ] } },
{ "type": "Feature", "properties": { "osmid": 10269991950.0 }, "geometry": { "type": "Point", "coordinates": [ 2602303.0, 5257364.0 ] } },
{ "type": "Feature", "properties": { "osmid": 9682841470.0 }, "geometry": { "type": "Point", "coordinates": [ 2602745.0, 5256951.0 ] } },
{ "type": "Feature", "properties": { "osmid": 8894441767.0 }, "geometry": { "type": "Point", "coordinates": [ 2593804.0, 5264436.0 ] } },
{ "type": "Feature", "properties": { "osmid": 259488589.0 }, "geometry": { "type": "Point", "coordinates": [ 2595117.0, 5262821.0 ] } },
{ "type": "Feature", "properties": { "osmid": 566362319.0 }, "geometry": { "type": "Point", "coordinates": [ 2591191.0, 5268222.0 ] } },
{ "type": "Feature", "properties": { "osmid": 9601776745.0 }, "geometry": { "type": "Point", "coordinates": [ 2597810.0, 5259965.0 ] } },
{ "type": "Feature", "properties": { "osmid": 11012832665.0 }, "geometry": { "type": "Point", "coordinates": [ 2605645.0, 5255375.0 ] } },
{ "type": "Feature", "properties": { "osmid": 10632108140.0 }, "geometry": { "type": "Point", "coordinates": [ 2593926.0, 5263861.0 ] } },
{ "type": "Feature", "properties": { "osmid": 331993468.0 }, "geometry": { "type": "Point", "coordinates": [ 2596475.0, 5260840.0 ] } },
{ "type": "Feature", "properties": { "osmid": 344193768.0 }, "geometry": { "type": "Point", "coordinates": [ 2593973.0, 5263350.0 ] } },
{ "type": "Feature", "properties": { "osmid": 3635922950.0 }, "geometry": { "type": "Point", "coordinates": [ 2594851.0, 5262285.0 ] } },
{ "type": "Feature", "properties": { "osmid": 9699552356.0 }, "geometry": { "type": "Point", "coordinates": [ 2602673.0, 5256151.0 ] } },
{ "type": "Feature", "properties": { "osmid": 772644475.0 }, "geometry": { "type": "Point", "coordinates": [ 2590523.0, 5268103.0 ] } },
{ "type": "Feature", "properties": { "osmid": 10022418882.0 }, "geometry": { "type": "Point", "coordinates": [ 2605467.0, 5254817.0 ] } },
{ "type": "Feature", "properties": { "osmid": 10980223203.0 }, "geometry": { "type": "Point", "coordinates": [ 2596884.0, 5259869.0 ] } },
{ "type": "Feature", "properties": { "osmid": 2625403215.0 }, "geometry": { "type": "Point", "coordinates": [ 2593554.0, 5263004.0 ] } },
{ "type": "Feature", "properties": { "osmid": 1318703550.0 }, "geometry": { "type": "Point", "coordinates": [ 2602101.0, 5255865.0 ] } },
{ "type": "Feature", "properties": { "osmid": 6983423377.0 }, "geometry": { "type": "Point", "coordinates": [ 2595551.0, 5259890.0 ] } },
{ "type": "Feature", "properties": { "osmid": 8378153734.0 }, "geometry": { "type": "Point", "coordinates": [ 2593188.0, 5262212.0 ] } },
{ "type": "Feature", "properties": { "osmid": 2639703587.0 }, "geometry": { "type": "Point", "coordinates": [ 2594032.0, 5261212.0 ] } },
{ "type": "Feature", "properties": { "osmid": 644537686.0 }, "geometry": { "type": "Point", "coordinates": [ 2589148.0, 5268217.0 ] } },
{ "type": "Feature", "properties": { "osmid": 11238906636.0 }, "geometry": { "type": "Point", "coordinates": [ 2592446.0, 5262845.0 ] } },
{ "type": "Feature", "properties": { "osmid": 7164377002.0 }, "geometry": { "type": "Point", "coordinates": [ 2587509.0, 5270264.0 ] } },
{ "type": "Feature", "properties": { "osmid": 12208863934.0 }, "geometry": { "type": "Point", "coordinates": [ 2594046.0, 5260053.0 ] } },
{ "type": "Feature", "properties": { "osmid": 9193995747.0 }, "geometry": { "type": "Point", "coordinates": [ 2592602.0, 5261394.0 ] } },
{ "type": "Feature", "properties": { "osmid": 9194497264.0 }, "geometry": { "type": "Point", "coordinates": [ 2593208.0, 5260624.0 ] } },
{ "type": "Feature", "properties": { "osmid": 7042408385.0 }, "geometry": { "type": "Point", "coordinates": [ 2590576.0, 5263815.0 ] } },
{ "type": "Feature", "properties": { "osmid": 4350251793.0 }, "geometry": { "type": "Point", "coordinates": [ 2590251.0, 5263257.0 ] } },
{ "type": "Feature", "properties": { "osmid": 9495976464.0 }, "geometry": { "type": "Point", "coordinates": [ 2591158.0, 5261786.0 ] } },
{ "type": "Feature", "properties": { "osmid": 1122481808.0 }, "geometry": { "type": "Point", "coordinates": [ 2590337.0, 5262483.0 ] } },
{ "type": "Feature", "properties": { "osmid": 9995094163.0 }, "geometry": { "type": "Point", "coordinates": [ 2592114.0, 5260086.0 ] } },
{ "type": "Feature", "properties": { "osmid": 7012297985.0 }, "geometry": { "type": "Point", "coordinates": [ 2592493.0, 5259509.0 ] } },
{ "type": "Feature", "properties": { "osmid": 5189395267.0 }, "geometry": { "type": "Point", "coordinates": [ 2590671.0, 5260104.0 ] } },
{ "type": "Feature", "properties": { "osmid": 1819220679.0 }, "geometry": { "type": "Point", "coordinates": [ 2591390.0, 5258633.0 ] } },
{ "type": "Feature", "properties": { "osmid": 9403399322.0 }, "geometry": { "type": "Point", "coordinates": [ 2588370.0, 5262173.0 ] } },
{ "type": "Feature", "properties": { "osmid": 4433343605.0 }, "geometry": { "type": "Point", "coordinates": [ 2590405.0, 5258679.0 ] } },
{ "type": "Feature", "properties": { "osmid": 8632310063.0 }, "geometry": { "type": "Point", "coordinates": [ 2590941.0, 5258007.0 ] } },
{ "type": "Feature", "properties": { "osmid": 4806199611.0 }, "geometry": { "type": "Point", "coordinates": [ 2594127.0, 5254261.0 ] } },
{ "type": "Feature", "properties": { "osmid": 4774458239.0 }, "geometry": { "type": "Point", "coordinates": [ 2594822.0, 5253638.0 ] } },
{ "type": "Feature", "properties": { "osmid": 5582744598.0 }, "geometry": { "type": "Point", "coordinates": [ 2593923.0, 5253245.0 ] } },
{ "type": "Feature", "properties": { "osmid": 146095948.0 }, "geometry": { "type": "Point", "coordinates": [ 2593909.0, 5252667.0 ] } },
{ "type": "Feature", "properties": { "osmid": 5325755145.0 }, "geometry": { "type": "Point", "coordinates": [ 2587033.0, 5258848.0 ] } },
{ "type": "Feature", "properties": { "osmid": 4907869117.0 }, "geometry": { "type": "Point", "coordinates": [ 2593834.0, 5252127.0 ] } },
{ "type": "Feature", "properties": { "osmid": 4773467323.0 }, "geometry": { "type": "Point", "coordinates": [ 2587280.0, 5258184.0 ] } },
{ "type": "Feature", "properties": { "osmid": 12360126891.0 }, "geometry": { "type": "Point", "coordinates": [ 2594705.0, 5250634.0 ] } },
{ "type": "Feature", "properties": { "osmid": 4773510280.0 }, "geometry": { "type": "Point", "coordinates": [ 2593602.0, 5251205.0 ] } },
{ "type": "Feature", "properties": { "osmid": 4908786632.0 }, "geometry": { "type": "Point", "coordinates": [ 2593203.0, 5250741.0 ] } },
{ "type": "Feature", "properties": { "osmid": 4806199622.0 }, "geometry": { "type": "Point", "coordinates": [ 2593034.0, 5250025.0 ] } }
]
}
