{
"type": "FeatureCollection",
"name": "tallinn-grid",
"crs": { "type": "name", "properties": { "name": "urn:ogc:def:crs:EPSG::3857" } },
"features": [
{ "type": "Feature", "properties": { "osmid": 3135021872.0 }, "geometry": { "type": "Point", "coordinates": [ 2753699.0, 8278893.0 ] } },
{ "type": "Feature", "properties": { "osmid": 1254075288.0 }, "geometry": { "type": "Point", "coordinates": [ 2767282.0, 8276552.0 ] } },
{ "type": "Feature", "properties": { "osmid": 2654331683.0 }, "geometry": { "type": "Point", "coordinates": [ 2748303.0, 8258766.0 ] } },
{ "type": "Feature", "properties": { "osmid": 2565676793.0 }, "geometry": { "type": "Point", "coordinates": [ 2748161.0, 8264179.0 ] } },
{ "type": "Feature", "properties": { "osmid": 317726127.0 }, "geometry": { "type": "Point", "coordinates": [ 2752541.0, 8262102.0 ] } },
{ "type": "Feature", "properties": { "osmid": 5220349953.0 }, "geometry": { "type": "Point", "coordinates": [ 2751546.0, 8259917.0 ] } },
{ "type": "Feature", "properties": { "osmid": 10936718513.0 }, "geometry": { "type": "Point", "coordinates": [ 2742941.0, 8258645.0 ] } },
{ "type": "Feature", "properties": { "osmid": 6684640449.0 }, "geometry": { "type": "Point", "coordinates": [ 2766711.0, 8278153.0 ] } },
{ "type": "Feature", "properties": { "osmid": 11518945155.0 }, "geometry": { "type": "Point", "coordinates": [ 2739976.0, 8266645.0 ] } },
{ "type": "Feature", "properties": { "osmid": 7760980508.0 }, "geometry": { "type": "Point", "coordinates": [ 2767443.0, 8271194.0 ] } },
{ "type": "Feature", "properties": { "osmid": 13295331023.0 }, "geometry": { "type": "Point", "coordinates": [ 2750771.0, 8266919.0 ] } },
{ "type": "Feature", "properties": { "osmid": 7026149642.0 }, "geometry": { "type": "Point", "coordinates": [ 2758196.0, 8271456.0 ] } },
{ "type": "Feature", "properties": { "osmid": 5236100428.0 }, "geometry": { "type": "Point", "coordinates": [ 2752074.0, 8258330.0 ] } },
{ "type": "Feature", "properties": { "osmid": 36126995.0 }, "geometry": { "type": "Point", "coordinates": [ 2745587.0, 8261385.0 ] } },
{ "type": "Feature", "properties": { "osmid": 8219356717.0 }, "geometry": { "type": "Point", "coordinates": [ 2745290.0, 8272168.0 ] } },
{ "type": "Feature", "properties": { "osmid": 4229147598.0 }, "geometry": { "type": "Point", "coordinates": [ 2744998.0, 8263023.0 ] } },
{ "type": "Feature", "properties": { "osmid": 2599493782.0 }, "geometry": { "type": "Point", "coordinates": [ 2768688.0, 8282544.0 ] } },
{ "type": "Feature", "properties": { "osmid": 750856703.0 }, "geometry": { "type": "Point", "coordinates": [ 2746113.0, 8259828.0 ] } },
{ "type": "Feature", "properties": { "osmid": 7756460002.0 }, "geometry": { "type": "Point", "coordinates": [ 2749007.0, 8271769.0 ] } },
{ "type": "Feature", "properties": { "osmid": 747159021.0 }, "geometry": { "type": "Point", "coordinates": [ 2766230.0, 8274343.0 ] } },
{ "type": "Feature", "properties": { "osmid": 13405750555.0 }, "geometry": { "type": "Point", "coordinates": [ 2742237.0, 8265623.0 ] } },
{ "type": "Feature", "properties": { "osmid": 622596037.0 }, "geometry": { "type": "Point", "coordinates": [ 2747116.0, 8261947.0 ] } },
{ "type": "Feature", "properties": { "osmid": 10108436311.0 }, "geometry": { "type": "Point", "coordinates": [ 2768480.0, 8273389.0 ] } },
{ "type": "Feature", "properties": { "osmid": 7989142966.0 }, "geometry": { "type": "Point", "coordinates": [ 2742088.0, 8271043.0 ] } },
{ "type": "Feature", "properties": { "osmid": 2654331628.0 }, "geometry": { "type": "Point", "coordinates": [ 2747752.0, 8260317.0 ] } },
{ "type": "Feature", "properties": { "osmid": 2362322718.0 }, "geometry": { "type": "Point", "coordinates": [ 2752971.0, 8265858.0 ] } },
{ "type": "Feature", "properties": { "osmid": 5807935617.0 }, "geometry": { "type": "Point", "coordinates": [ 2745961.0, 8265129.0 ] } },
{ "type": "Feature", "properties": { "osmid": 7765171907.0 }, "geometry": { "type": "Point", "coordinates": [ 2745901.0, 8270573.0 ] } },
{ "type": "Feature", "properties": { "osmid": 36152272.0 }, "geometry": { "type": "Point", "coordinates": [ 2750351.0, 8263081.0 ] } },
{ "type": "Feature", "properties": { "osmid": 8467174594.0 }, "geometry": { "type": "Point", "coordinates": [ 2738340.0, 8266086.0 ] } },
{ "type": "Feature", "properties": { "osmid": 936386034.0 }, "geometry": { "type": "Point", "coordinates": [ 2741294.0, 8257975.0 ] } },
{ "type": "Feature", "properties": { "osmid": 8758094768.0 }, "geometry": { "type": "Point", "coordinates": [ 2771546.0, 8279866.0 ] } },
{ "type": "Feature", "properties": { "osmid": 325896904.0 }, "geometry": { "type": "Point", "coordinates": [ 2744448.0, 8264628.0 ] } },
{ "type": "Feature", "properties": { "osmid": 35313854.0 }, "geometry": { "type": "Point", "coordinates": [ 2744011.0, 8260780.0 ] } },
{ "type": "Feature", "properties": { "osmid": 10245405378.0 }, "geometry": { "type": "Point", "coordinates": [ 2736543.0, 8276329.0 ] } },
{ "type": "Feature", "properties": { "osmid": 5747471697.0 }, "geometry": { "type": "Point", "coordinates": [ 2767166.0, 8281899.0 ] } },
{ "type": "Feature", "properties": { "osmid": 1210594204.0 }, "geometry": { "type": "Point", "coordinates": [ 2768069.0, 8284157.0 ] } },
{ "type": "Feature", "properties": { "osmid": 4197329017.0 }, "geometry": { "type": "Point", "coordinates": [ 2754067.0, 8262711.0 ] } },
{ "type": "Feature", "properties": { "osmid": 8158227248.0 }, "geometry": { "type": "Point", "coordinates": [ 2755411.0, 8274160.0 ] } },
{ "type": "Feature", "properties": { "osmid": 12531505688.0 }, "geometry": { "type": "Point", "coordinates": [ 2743267.0, 8267736.0 ] } },
{ "type": "Feature", "properties": { "osmid": 7877810320.0 }, "geometry": { "type": "Point", "coordinates": [ 2765511.0, 8281473.0 ] } },
{ "type": "Feature", "properties": { "osmid": 1825722089.0 }, "geometry": { "type": "Point", "coordinates": [ 2750450.0, 8283128.0 ] } },
{ "type": "Feature", "properties": { "osmid": 2924536434.0 }, "geometry": { "type": "Point", "coordinates": [ 2736959.0, 8279965.0 ] } },
{ "type": "Feature", "properties": { "osmid": 11189847858.0 }, "geometry": { "type": "Point", "coordinates": [ 2754851.0, 8261090.0 ] } },
{ "type": "Feature", "properties": { "osmid": 29069054.0 }, "geometry": { "type": "Point", "coordinates": [ 2741698.0, 8261731.0 ] } },
{ "type": "Feature", "properties": { "osmid": 8618627717.0 }, "geometry": { "type": "Point", "coordinates": [ 2771005.0, 8276231.0 ] } },
{ "type": "Feature", "properties": { "osmid": 11939125864.0 }, "geometry": { "type": "Point", "coordinates": [ 2748854.0, 8262630.0 ] } },
{ "type": "Feature", "properties": { "osmid": 10261338770.0 }, "geometry": { "type": "Point", "coordinates": [ 2755317.0, 8259628.0 ] } },
{ "type": "Feature", "properties": { "osmid": 9084322215.0 }, "geometry": { "type": "Point", "coordinates": [ 2772048.0, 8283645.0 ] } },
{ "type": "Feature", "properties": { "osmid": 1149810052.0 }, "geometry": { "type": "Point", "coordinates": [ 2740358.0, 8275944.0 ] } },
{ "type": "Feature", "properties": { "osmid": 1271121298.0 }, "geometry": { "type": "Point", "coordinates": [ 2749384.0, 8275634.0 ] } },
{ "type": "Feature", "properties": { "osmid": 7636720692.0 }, "geometry": { "type": "Point", "coordinates": [ 2764953.0, 8277567.0 ] } },
{ "type": "Feature", "properties": { "osmid": 8541582305.0 }, "geometry": { "type": "Point", "coordinates": [ 2772073.0, 8278459.0 ] } },
{ "type": "Feature", "properties": { "osmid": 29078472.0 }, "geometry": { "type": "Point", "coordinates": [ 2743212.0, 8262398.0 ] } },
{ "type": "Feature", "properties": { "osmid": 6030028079.0 }, "geometry": { "type": "Point", "coordinates": [ 2746022.0, 8279880.0 ] } },
{ "type": "Feature", "properties": { "osmid": 958407929.0 }, "geometry": { "type": "Point", "coordinates": [ 2737661.0, 8278386.0 ] } },
{ "type": "Feature", "properties": { "osmid": 7316245328.0 }, "geometry": { "type": "Point", "coordinates": [ 2756181.0, 8261681.0 ] } },
{ "type": "Feature", "properties": { "osmid": 918659787.0 }, "geometry": { "type": "Point", "coordinates": [ 2742415.0, 8274662.0 ] } },
{ "type": "Feature", "properties": { "osmid": 7162436233.0 }, "geometry": { "type": "Point", "coordinates": [ 2735482.0, 8279394.0 ] } },
{ "type": "Feature", "properties": { "osmid": 845036809.0 }, "geometry": { "type": "Point", "coordinates": [ 2735068.0, 8275717.0 ] } },
{ "type": "Feature", "properties": { "osmid": 440095954.0 }, "geometry": { "type": "Point", "coordinates": [ 2741299.0, 8263555.0 ] } },
{ "type": "Feature", "properties": { "osmid": 8883651540.0 }, "geometry": { "type": "Point", "coordinates": [ 2762572.0, 8269591.0 ] } },
{ "type": "Feature", "properties": { "osmid": 8331378564.0 }, "geometry": { "type": "Point", "coordinates": [ 2771100.0, 8281499.0 ] } },
{ "type": "Feature", "properties": { "osmid": 962085999.0 }, "geometry": { "type": "Point", "coordinates": [ 2751002.0, 8281701.0 ] } },
{ "type": "Feature", "properties": { "osmid": 13789377436.0 }, "geometry": { "type": "Point", "coordinates": [ 2748357.0, 8284204.0 ] } },
{ "type": "Feature", "properties": { "osmid": 9288367908.0 }, "geometry": { "type": "Point", "coordinates": [ 2746811.0, 8278342.0 ] } },
{ "type": "Feature", "properties": { "osmid": 11780482.0 }, "geometry": { "type": "Point", "coordinates": [ 2751325.0, 8279970.0 ] } },
{ "type": "Feature", "properties": { "osmid": 3840798323.0 }, "geometry": { "type": "Point", "coordinates": [ 2765883.0, 8270784.0 ] } },
{ "type": "Feature", "properties": { "osmid": 715799215.0 }, "geometry": { "type": "Point", "coordinates": [ 2765143.0, 8272395.0 ] } },
{ "type": "Feature", "properties": { "osmid": 8241078956.0 }, "geometry": { "type": "Point", "coordinates": [ 2744702.0, 8259348.0 ] } },
{ "type": "Feature", "properties": { "osmid": 1635515076.0 }, "geometry": { "type": "Point", "coordinates": [ 2766874.0, 8272545.0 ] } },
{ "type": "Feature", "properties": { "osmid": 7983190936.0 }, "geometry": { "type": "Point", "coordinates": [ 2737047.0, 8274908.0 ] } },
{ "type": "Feature", "properties": { "osmid": 341986801.0 }, "geometry": { "type": "Point", "coordinates": [ 2741737.0, 8267004.0 ] } },
{ "type": "Feature", "properties": { "osmid": 36151533.0 }, "geometry": { "type": "Point", "coordinates": [ 2749359.0, 8261217.0 ] } },
{ "type": "Feature", "properties": { "osmid": 1728211645.0 }, "geometry": { "type": "Point", "coordinates": [ 2749548.0, 8284874.0 ] } },
{ "type": "Feature", "properties": { "osmid": 791685745.0 }, "geometry": { "type": "Point", "coordinates": [ 2766744.0, 8283785.0 ] } },
{ "type": "Feature", "properties": { "osmid": 8738145487.0 }, "geometry": { "type": "Point", "coordinates": [ 2746574.0, 8274504.0 ] } },
{ "type": "Feature", "properties": { "osmid": 960214126.0 }, "geometry": { "type": "Point", "coordinates": [ 2745607.0, 8281034.0 ] } },
{ "type": "Feature", "properties": { "osmid": 9610970440.0 }, "geometry": { "type": "Point", "coordinates": [ 2757451.0, 8278112.0 ] } },
{ "type": "Feature", "properties": { "osmid": 341986844.0 }, "geometry": { "type": "Point", "coordinates": [ 2739575.0, 8267922.0 ] } },
{ "type": "Feature", "properties": { "osmid": 2147619669.0 }, "geometry": { "type": "Point", "coordinates": [ 2760895.0, 8269178.0 ] } },
{ "type": "Feature", "properties": { "osmid": 1825709396.0 }, "geometry": { "type": "Point", "coordinates": [ 2749107.0, 8282596.0 ] } },
{ "type": "Feature", "properties": { "osmid": 7072890411.0 }, "geometry": { "type": "Point", "coordinates": [ 2773130.0, 8275463.0 ] } },
{ "type": "Feature", "properties": { "osmid": 11954261361.0 }, "geometry": { "type": "Point", "coordinates": [ 2761879.0, 8271370.0 ] } },
{ "type": "Feature", "properties": { "osmid": 10261338958.0 }, "geometry": { "type": "Point", "coordinates": [ 2753451.0, 8260762.0 ] } },
{ "type": "Feature", "properties": { "osmid": 12292306656.0 }, "geometry": { "type": "Point", "coordinates": [ 2749677.0, 8259017.0 ] } },
{ "type": "Feature", "properties": { "osmid": 76481076.0 }, "geometry": { "type": "Point", "coordinates": [ 2769903.0, 8273547.0 ] } },
{ "type": "Feature", "properties": { "osmid": 314579909.0 }, "geometry": { "type": "Point", "coordinates": [ 2740240.0, 8272216.0 ] } },
{ "type": "Feature", "properties": { "osmid": 6598533524.0 }, "geometry": { "type": "Point", "coordinates": [ 2739378.0, 8278636.0 ] } },
{ "type": "Feature", "properties": { "osmid": 740873126.0 }, "geometry": { "type": "Point", "coordinates": [ 2755702.0, 8262814.0 ] } },
{ "type": "Feature", "properties": { "osmid": 10579105.0 }, "geometry": { "type": "Point", "coordinates": [ 2753269.0, 8274978.0 ] } },
{ "type": "Feature", "properties": { "osmid": 60687739.0 }, "geometry": { "type": "Point", "coordinates": [ 2753917.0, 8275113.0 ] } },
{ "type": "Feature", "properties": { "osmid": 3151243608.0 }, "geometry": { "type": "Point", "coordinates": [ 2752540.0, 8275169.0 ] } },
{ "type": "Feature", "properties": { "osmid": 310409884.0 }, "geometry": { "type": "Point", "coordinates": [ 2754004.0, 8275629.0 ] } },
{ "type": "Feature", "properties": { "osmid": 845709484.0 }, "geometry": { "type": "Point", "coordinates": [ 2754067.0, 8274368.0 ] } },
{ "type": "Feature", "properties": { "osmid": 1254075277.0 }, "geometry": { "type": "Point", "coordinates": [ 2752499.0, 8275680.0 ] } },
{ "type": "Feature", "properties": { "osmid": 12066228640.0 }, "geometry": { "type": "Point", "coordinates": [ 2752229.0, 8274765.0 ] } },
{ "type": "Feature", "properties": { "osmid": 4622582280.0 }, "geometry": { "type": "Point", "coordinates": [ 2753125.0, 8276185.0 ] } },
{ "type": "Feature", "properties": { "osmid": 274239195.0 }, "geometry": { "type": "Point", "coordinates": [ 2754560.0, 8275301.0 ] } },
{ "type": "Feature", "properties": { "osmid": 10215325337.0 }, "geometry": { "type": "Point", "coordinates": [ 2753753.0, 8276260.0 ] } },
{ "type": "Feature", "properties": { "osmid": 344389610.0 }, "geometry": { "type": "Point", "coordinates": [ 2754612.0, 8274600.0 ] } },
{ "type": "Feature", "properties": { "osmid": 5730948295.0 }, "geometry": { "type": "Point", "coordinates": [ 2752846.0, 8273588.0 ] } },
{ "type": "Feature", "properties": { "osmid": 4069040179.0 }, "geometry": { "type": "Point", "coordinates": [ 2754110.0, 8273656.0 ] } },
{ "type": "Feature", "properties": { "osmid": 31283015.0 }, "geometry": { "type": "Point", "coordinates": [ 2754616.0, 8275954.0 ] } },
{ "type": "Feature", "properties": { "osmid": 11067792281.0 }, "geometry": { "type": "Point", "coordinates": [ 2753183.0, 8276686.0 ] } },
{ "type": "Feature", "properties": { "osmid": 291776566.0 }, "geometry": { "type": "Point", "coordinates": [ 2751809.0, 8276070.0 ] } },
{ "type": "Feature", "properties": { "osmid": 385811064.0 }, "geometry": { "type": "Point", "coordinates": [ 2755097.0, 8275167.0 ] } },
{ "type": "Feature", "properties": { "osmid": 10228416685.0 }, "geometry": { "type": "Point", "coordinates": [ 2752205.0, 8273416.0 ] } },
{ "type": "Feature", "properties": { "osmid": 13107971448.0 }, "geometry": { "type": "Point", "coordinates": [ 2754505.0, 8276503.0 ] } },
{ "type": "Feature", "properties": { "osmid": 309598080.0 }, "geometry": { "type": "Point", "coordinates": [ 2755109.0, 8275720.0 ] } },
{ "type": "Feature", "properties": { "osmid": 6838255814.0 }, "geometry": { "type": "Point", "coordinates": [ 2751304.0, 8274513.0 ] } },
{ "type": "Feature", "properties": { "osmid": 5878104734.0 }, "geometry": { "type": "Point", "coordinates": [ 2753968.0, 8272926.0 ] } },
{ "type": "Feature", "properties": { "osmid": 4817747007.0 }, "geometry": { "type": "Point", "coordinates": [ 2755043.0, 8276307.0 ] } },
{ "type": "Feature", "properties": { "osmid": 2934209310.0 }, "geometry": { "type": "Point", "coordinates": [ 2752845.0, 8272801.0 ] } },
{ "type": "Feature", "properties": { "osmid": 696929579.0 }, "geometry": { "type": "Point", "coordinates": [ 2753876.0, 8277231.0 ] } },
{ "type": "Feature", "properties": { "osmid": 12923762169.0 }, "geometry": { "type": "Point", "coordinates": [ 2750905.0, 8275153.0 ] } },
{ "type": "Feature", "properties": { "osmid": 621327064.0 }, "geometry": { "type": "Point", "coordinates": [ 2755647.0, 8275490.0 ] } },
{ "type": "Feature", "properties": { "osmid": 2980866279.0 }, "geometry": { "type": "Point", "coordinates": [ 2754493.0, 8277088.0 ] } },
{ "type": "Feature", "properties": { "osmid": 5893730376.0 }, "geometry": { "type": "Point", "coordinates": [ 2752251.0, 8277283.0 ] } },
{ "type": "Feature", "properties": { "osmid": 2532063734.0 }, "geometry": { "type": "Point", "coordinates": [ 2751675.0, 8273022.0 ] } },
{ "type": "Feature", "properties": { "osmid": 1769230925.0 }, "geometry": { "type": "Point", "coordinates": [ 2751180.0, 8276394.0 ] } },
{ "type": "Feature", "properties": { "osmid": 2456476136.0 }, "geometry": { "type": "Point", "coordinates": [ 2752363.0, 8272604.0 ] } },
{ "type": "Feature", "properties": { "osmid": 310230383.0 }, "geometry": { "type": "Point", "coordinates": [ 2755540.0, 8276170.0 ] } },
{ "type": "Feature", "properties": { "osmid": 13630592266.0 }, "geometry": { "type": "Point", "coordinates": [ 2755118.0, 8276859.0 ] } },
{ "type": "Feature", "properties": { "osmid": 2980866300.0 }, "geometry": { "type": "Point", "coordinates": [ 2753082.0, 8277633.0 ] } },
{ "type": "Feature", "properties": { "osmid": 7237343393.0 }, "geometry": { "type": "Point", "coordinates": [ 2750572.0, 8274732.0 ] } },
{ "type": "Feature", "properties": { "osmid": 10834223606.0 }, "geometry": { "type": "Point", "coordinates": [ 2753144.0, 8272230.0 ] } },
{ "type": "Feature", "properties": { "osmid": 12456499072.0 }, "geometry": { "type": "Point", "coordinates": [ 2756030.0, 8275112.0 ] } },
{ "type": "Feature", "properties": { "osmid": 146407739.0 }, "geometry": { "type": "Point", "coordinates": [ 2753593.0, 8277928.0 ] } },
{ "type": "Feature", "properties": { "osmid": 341064879.0 }, "geometry": { "type": "Point", "coordinates": [ 2755248.0, 8272759.0 ] } },
{ "type": "Feature", "properties": { "osmid": 13686643682.0 }, "geometry": { "type": "Point", "coordinates": [ 2756031.0, 8273856.0 ] } },
{ "type": "Feature", "properties": { "osmid": 13093221196.0 }, "geometry": { "type": "Point", "coordinates": [ 2750457.0, 8275981.0 ] } },
{ "type": "Feature", "properties": { "osmid": 3494788732.0 }, "geometry": { "type": "Point", "coordinates": [ 2751017.0, 8272924.0 ] } },
{ "type": "Feature", "properties": { "osmid": 7170512930.0 }, "geometry": { "type": "Point", "coordinates": [ 2754959.0, 8272333.0 ] } },
{ "type": "Feature", "properties": { "osmid": 13107971522.0 }, "geometry": { "type": "Point", "coordinates": [ 2756390.0, 8275519.0 ] } },
{ "type": "Feature", "properties": { "osmid": 281656683.0 }, "geometry": { "type": "Point", "coordinates": [ 2756252.0, 8276094.0 ] } },
{ "type": "Feature", "properties": { "osmid": 421713936.0 }, "geometry": { "type": "Point", "coordinates": [ 2750250.0, 8273829.0 ] } },
{ "type": "Feature", "properties": { "osmid": 13092306367.0 }, "geometry": { "type": "Point", "coordinates": [ 2754310.0, 8278041.0 ] } },
{ "type": "Feature", "properties": { "osmid": 11847818600.0 }, "geometry": { "type": "Point", "coordinates": [ 2751371.0, 8272353.0 ] } },
{ "type": "Feature", "properties": { "osmid": 13108902341.0 }, "geometry": { "type": "Point", "coordinates": [ 2754225.0, 8271876.0 ] } },
{ "type": "Feature", "properties": { "osmid": 291634548.0 }, "geometry": { "type": "Point", "coordinates": [ 2755359.0, 8277527.0 ] } },
{ "type": "Feature", "properties": { "osmid": 9064643819.0 }, "geometry": { "type": "Point", "coordinates": [ 2756570.0, 8274982.0 ] } },
{ "type": "Feature", "properties": { "osmid": 11786319.0 }, "geometry": { "type": "Point", "coordinates": [ 2756081.0, 8273207.0 ] } },
{ "type": "Feature", "properties": { "osmid": 11163599042.0 }, "geometry": { "type": "Point", "coordinates": [ 2752805.0, 8271615.0 ] } },
{ "type": "Feature", "properties": { "osmid": 4112431197.0 }, "geometry": { "type": "Point", "coordinates": [ 2753382.0, 8278405.0 ] } },
{ "type": "Feature", "properties": { "osmid": 8004580897.0 }, "geometry": { "type": "Point", "coordinates": [ 2756146.0, 8276866.0 ] } },
{ "type": "Feature", "properties": { "osmid": 341064867.0 }, "geometry": { "type": "Point", "coordinates": [ 2755459.0, 8272256.0 ] } },
{ "type": "Feature", "properties": { "osmid": 5268372635.0 }, "geometry": { "type": "Point", "coordinates": [ 2752704.0, 8278464.0 ] } },
{ "type": "Feature", "properties": { "osmid": 11781316.0 }, "geometry": { "type": "Point", "coordinates": [ 2750133.0, 8276623.0 ] } },
{ "type": "Feature", "properties": { "osmid": 7170512943.0 }, "geometry": { "type": "Point", "coordinates": [ 2755115.0, 8271857.0 ] } },
{ "type": "Feature", "properties": { "osmid": 3831539707.0 }, "geometry": { "type": "Point", "coordinates": [ 2752116.0, 8278429.0 ] } },
{ "type": "Feature", "properties": { "osmid": 11780920.0 }, "geometry": { "type": "Point", "coordinates": [ 2750714.0, 8277606.0 ] } },
{ "type": "Feature", "properties": { "osmid": 11309962570.0 }, "geometry": { "type": "Point", "coordinates": [ 2756818.0, 8276120.0 ] } },
{ "type": "Feature", "properties": { "osmid": 13706609105.0 }, "geometry": { "type": "Point", "coordinates": [ 2756945.0, 8274153.0 ] } },
{ "type": "Feature", "properties": { "osmid": 10210061191.0 }, "geometry": { "type": "Point", "coordinates": [ 2749664.0, 8276109.0 ] } },
{ "type": "Feature", "properties": { "osmid": 1769369294.0 }, "geometry": { "type": "Point", "coordinates": [ 2750292.0, 8277313.0 ] } },
{ "type": "Feature", "properties": { "osmid": 317710670.0 }, "geometry": { "type": "Point", "coordinates": [ 2750251.0, 8272630.0 ] } },
{ "type": "Feature", "properties": { "osmid": 638778516.0 }, "geometry": { "type": "Point", "coordinates": [ 2755907.0, 8277761.0 ] } },
{ "type": "Feature", "properties": { "osmid": 10981443340.0 }, "geometry": { "type": "Point", "coordinates": [ 2756737.0, 8276647.0 ] } },
{ "type": "Feature", "properties": { "osmid": 3716488280.0 }, "geometry": { "type": "Point", "coordinates": [ 2752966.0, 8271120.0 ] } },
{ "type": "Feature", "properties": { "osmid": 11426838985.0 }, "geometry": { "type": "Point", "coordinates": [ 2756037.0, 8272253.0 ] } },
{ "type": "Feature", "properties": { "osmid": 794048773.0 }, "geometry": { "type": "Point", "coordinates": [ 2757179.0, 8274833.0 ] } },
{ "type": "Feature", "properties": { "osmid": 7248693619.0 }, "geometry": { "type": "Point", "coordinates": [ 2751108.0, 8271682.0 ] } },
{ "type": "Feature", "properties": { "osmid": 601470620.0 }, "geometry": { "type": "Point", "coordinates": [ 2749550.0, 8273669.0 ] } },
{ "type": "Feature", "properties": { "osmid": 13037690232.0 }, "geometry": { "type": "Point", "coordinates": [ 2751914.0, 8271247.0 ] } },
{ "type": "Feature", "properties": { "osmid": 9402514864.0 }, "geometry": { "type": "Point", "coordinates": [ 2754915.0, 8271328.0 ] } },
{ "type": "Feature", "properties": { "osmid": 13108902340.0 }, "geometry": { "type": "Point", "coordinates": [ 2754137.0, 8271065.0 ] } },
{ "type": "Feature", "properties": { "osmid": 11780545.0 }, "geometry": { "type": "Point", "coordinates": [ 2751284.0, 8278473.0 ] } },
{ "type": "Feature", "properties": { "osmid": 4943013117.0 }, "geometry": { "type": "Point", "coordinates": [ 2749800.0, 8277132.0 ] } },
{ "type": "Feature", "properties": { "osmid": 4237542287.0 }, "geometry": { "type": "Point", "coordinates": [ 2750788.0, 8278343.0 ] } },
{ "type": "Feature", "properties": { "osmid": 3674399233.0 }, "geometry": { "type": "Point", "coordinates": [ 2757344.0, 8275986.0 ] } },
{ "type": "Feature", "properties": { "osmid": 1421332400.0 }, "geometry": { "type": "Point", "coordinates": [ 2749643.0, 8272728.0 ] } },
{ "type": "Feature", "properties": { "osmid": 1104932279.0 }, "geometry": { "type": "Point", "coordinates": [ 2755924.0, 8271590.0 ] } },
{ "type": "Feature", "properties": { "osmid": 951443642.0 }, "geometry": { "type": "Point", "coordinates": [ 2752324.0, 8270768.0 ] } },
{ "type": "Feature", "properties": { "osmid": 7162215056.0 }, "geometry": { "type": "Point", "coordinates": [ 2753169.0, 8270655.0 ] } },
{ "type": "Feature", "properties": { "osmid": 8691144982.0 }, "geometry": { "type": "Point", "coordinates": [ 2757497.0, 8273785.0 ] } },
{ "type": "Feature", "properties": { "osmid": 13196181199.0 }, "geometry": { "type": "Point", "coordinates": [ 2749312.0, 8276897.0 ] } },
{ "type": "Feature", "properties": { "osmid": 13093221181.0 }, "geometry": { "type": "Point", "coordinates": [ 2749803.0, 8277701.0 ] } },
{ "type": "Feature", "properties": { "osmid": 1684899950.0 }, "geometry": { "type": "Point", "coordinates": [ 2749962.0, 8272054.0 ] } },
{ "type": "Feature", "properties": { "osmid": 760605526.0 }, "geometry": { "type": "Point", "coordinates": [ 2756524.0, 8271983.0 ] } },
{ "type": "Feature", "properties": { "osmid": 10210061194.0 }, "geometry": { "type": "Point", "coordinates": [ 2749013.0, 8276277.0 ] } },
{ "type": "Feature", "properties": { "osmid": 7981314404.0 }, "geometry": { "type": "Point", "coordinates": [ 2757486.0, 8276480.0 ] } },
{ "type": "Feature", "properties": { "osmid": 7652799487.0 }, "geometry": { "type": "Point", "coordinates": [ 2757751.0, 8274695.0 ] } },
{ "type": "Feature", "properties": { "osmid": 630538917.0 }, "geometry": { "type": "Point", "coordinates": [ 2751338.0, 8279052.0 ] } },
{ "type": "Feature", "properties": { "osmid": 8010626638.0 }, "geometry": { "type": "Point", "coordinates": [ 2757392.0, 8273085.0 ] } },
{ "type": "Feature", "properties": { "osmid": 279773599.0 }, "geometry": { "type": "Point", "coordinates": [ 2750768.0, 8278849.0 ] } },
{ "type": "Feature", "properties": { "osmid": 990287992.0 }, "geometry": { "type": "Point", "coordinates": [ 2751216.0, 8270836.0 ] } },
{ "type": "Feature", "properties": { "osmid": 7212748025.0 }, "geometry": { "type": "Point", "coordinates": [ 2754197.0, 8270418.0 ] } },
{ "type": "Feature", "properties": { "osmid": 13361230294.0 }, "geometry": { "type": "Point", "coordinates": [ 2748697.0, 8273887.0 ] } },
{ "type": "Feature", "properties": { "osmid": 1860664904.0 }, "geometry": { "type": "Point", "coordinates": [ 2757926.0, 8275985.0 ] } },
{ "type": "Feature", "properties": { "osmid": 6921737511.0 }, "geometry": { "type": "Point", "coordinates": [ 2753639.0, 8270188.0 ] } },
{ "type": "Feature", "properties": { "osmid": 6605168816.0 }, "geometry": { "type": "Point", "coordinates": [ 2750685.0, 8270926.0 ] } },
{ "type": "Feature", "properties": { "osmid": 7579739600.0 }, "geometry": { "type": "Point", "coordinates": [ 2754705.0, 8270266.0 ] } },
{ "type": "Feature", "properties": { "osmid": 6605168837.0 }, "geometry": { "type": "Point", "coordinates": [ 2750070.0, 8271221.0 ] } },
{ "type": "Feature", "properties": { "osmid": 11222228619.0 }, "geometry": { "type": "Point", "coordinates": [ 2758007.0, 8273559.0 ] } },
{ "type": "Feature", "properties": { "osmid": 1769386576.0 }, "geometry": { "type": "Point", "coordinates": [ 2749277.0, 8277900.0 ] } },
{ "type": "Feature", "properties": { "osmid": 6698623886.0 }, "geometry": { "type": "Point", "coordinates": [ 2757958.0, 8276670.0 ] } },
{ "type": "Feature", "properties": { "osmid": 10582410291.0 }, "geometry": { "type": "Point", "coordinates": [ 2758257.0, 8275324.0 ] } },
{ "type": "Feature", "properties": { "osmid": 6525581581.0 }, "geometry": { "type": "Point", "coordinates": [ 2758286.0, 8274546.0 ] } },
{ "type": "Feature", "properties": { "osmid": 2493840198.0 }, "geometry": { "type": "Point", "coordinates": [ 2757498.0, 8272220.0 ] } },
{ "type": "Feature", "properties": { "osmid": 4486683938.0 }, "geometry": { "type": "Point", "coordinates": [ 2748652.0, 8277111.0 ] } },
{ "type": "Feature", "properties": { "osmid": 245406502.0 }, "geometry": { "type": "Point", "coordinates": [ 2748409.0, 8273478.0 ] } },
{ "type": "Feature", "properties": { "osmid": 317711241.0 }, "geometry": { "type": "Point", "coordinates": [ 2749522.0, 8271486.0 ] } },
{ "type": "Feature", "properties": { "osmid": 10009593147.0 }, "geometry": { "type": "Point", "coordinates": [ 2750286.0, 8279160.0 ] } },
{ "type": "Feature", "properties": { "osmid": 4950580866.0 }, "geometry": { "type": "Point", "coordinates": [ 2748141.0, 8274174.0 ] } },
{ "type": "Feature", "properties": { "osmid": 10210061153.0 }, "geometry": { "type": "Point", "coordinates": [ 2748277.0, 8276460.0 ] } },
{ "type": "Feature", "properties": { "osmid": 3934392114.0 }, "geometry": { "type": "Point", "coordinates": [ 2753246.0, 8269762.0 ] } },
{ "type": "Feature", "properties": { "osmid": 6525581569.0 }, "geometry": { "type": "Point", "coordinates": [ 2758400.0, 8273998.0 ] } },
{ "type": "Feature", "properties": { "osmid": 11789411.0 }, "geometry": { "type": "Point", "coordinates": [ 2748431.0, 8272948.0 ] } },
{ "type": "Feature", "properties": { "osmid": 13704268987.0 }, "geometry": { "type": "Point", "coordinates": [ 2758197.0, 8273073.0 ] } },
{ "type": "Feature", "properties": { "osmid": 361103615.0 }, "geometry": { "type": "Point", "coordinates": [ 2758521.0, 8275915.0 ] } },
{ "type": "Feature", "properties": { "osmid": 639249899.0 }, "geometry": { "type": "Point", "coordinates": [ 2757478.0, 8271675.0 ] } },
{ "type": "Feature", "properties": { "osmid": 13456670113.0 }, "geometry": { "type": "Point", "coordinates": [ 2749201.0, 8278463.0 ] } },
{ "type": "Feature", "properties": { "osmid": 13665553787.0 }, "geometry": { "type": "Point", "coordinates": [ 2756332.0, 8270464.0 ] } },
{ "type": "Feature", "properties": { "osmid": 246767736.0 }, "geometry": { "type": "Point", "coordinates": [ 2747836.0, 8275772.0 ] } },
{ "type": "Feature", "properties": { "osmid": 901229413.0 }, "geometry": { "type": "Point", "coordinates": [ 2753970.0, 8269515.0 ] } },
{ "type": "Feature", "properties": { "osmid": 619992803.0 }, "geometry": { "type": "Point", "coordinates": [ 2758779.0, 8275207.0 ] } },
{ "type": "Feature", "properties": { "osmid": 82522686.0 }, "geometry": { "type": "Point", "coordinates": [ 2751069.0, 8269896.0 ] } },
{ "type": "Feature", "properties": { "osmid": 13109268492.0 }, "geometry": { "type": "Point", "coordinates": [ 2758786.0, 8274403.0 ] } },
{ "type": "Feature", "properties": { "osmid": 1259892855.0 }, "geometry": { "type": "Point", "coordinates": [ 2750414.0, 8270213.0 ] } },
{ "type": "Feature", "properties": { "osmid": 11935517283.0 }, "geometry": { "type": "Point", "coordinates": [ 2747714.0, 8275045.0 ] } },
{ "type": "Feature", "properties": { "osmid": 7236571647.0 }, "geometry": { "type": "Point", "coordinates": [ 2748279.0, 8277489.0 ] } },
{ "type": "Feature", "properties": { "osmid": 4380557874.0 }, "geometry": { "type": "Point", "coordinates": [ 2747995.0, 8276879.0 ] } },
{ "type": "Feature", "properties": { "osmid": 10876263405.0 }, "geometry": { "type": "Point", "coordinates": [ 2758319.0, 8272520.0 ] } },
{ "type": "Feature", "properties": { "osmid": 2408401023.0 }, "geometry": { "type": "Point", "coordinates": [ 2748716.0, 8278326.0 ] } },
{ "type": "Feature", "properties": { "osmid": 6698624248.0 }, "geometry": { "type": "Point", "coordinates": [ 2758613.0, 8276831.0 ] } },
{ "type": "Feature", "properties": { "osmid": 2580706246.0 }, "geometry": { "type": "Point", "coordinates": [ 2752275.0, 8269376.0 ] } },
{ "type": "Feature", "properties": { "osmid": 10555407227.0 }, "geometry": { "type": "Point", "coordinates": [ 2758883.0, 8273682.0 ] } },
{ "type": "Feature", "properties": { "osmid": 147831206.0 }, "geometry": { "type": "Point", "coordinates": [ 2748868.0, 8278900.0 ] } },
{ "type": "Feature", "properties": { "osmid": 620783021.0 }, "geometry": { "type": "Point", "coordinates": [ 2759101.0, 8275836.0 ] } },
{ "type": "Feature", "properties": { "osmid": 13108696303.0 }, "geometry": { "type": "Point", "coordinates": [ 2747368.0, 8273605.0 ] } },
{ "type": "Feature", "properties": { "osmid": 7239737081.0 }, "geometry": { "type": "Point", "coordinates": [ 2759291.0, 8273973.0 ] } },
{ "type": "Feature", "properties": { "osmid": 6698624271.0 }, "geometry": { "type": "Point", "coordinates": [ 2759135.0, 8276793.0 ] } },
{ "type": "Feature", "properties": { "osmid": 958178884.0 }, "geometry": { "type": "Point", "coordinates": [ 2750387.0, 8269499.0 ] } },
{ "type": "Feature", "properties": { "osmid": 632429645.0 }, "geometry": { "type": "Point", "coordinates": [ 2749564.0, 8279957.0 ] } },
{ "type": "Feature", "properties": { "osmid": 13667327557.0 }, "geometry": { "type": "Point", "coordinates": [ 2747701.0, 8272231.0 ] } },
{ "type": "Feature", "properties": { "osmid": 2408402720.0 }, "geometry": { "type": "Point", "coordinates": [ 2748372.0, 8278797.0 ] } },
{ "type": "Feature", "properties": { "osmid": 313001404.0 }, "geometry": { "type": "Point", "coordinates": [ 2747430.0, 8272804.0 ] } },
{ "type": "Feature", "properties": { "osmid": 1102481228.0 }, "geometry": { "type": "Point", "coordinates": [ 2749768.0, 8269793.0 ] } },
{ "type": "Feature", "properties": { "osmid": 11784919.0 }, "geometry": { "type": "Point", "coordinates": [ 2759523.0, 8274504.0 ] } },
{ "type": "Feature", "properties": { "osmid": 6900143936.0 }, "geometry": { "type": "Point", "coordinates": [ 2752674.0, 8268714.0 ] } },
{ "type": "Feature", "properties": { "osmid": 281656279.0 }, "geometry": { "type": "Point", "coordinates": [ 2747798.0, 8278111.0 ] } },
{ "type": "Feature", "properties": { "osmid": 7239737398.0 }, "geometry": { "type": "Point", "coordinates": [ 2759453.0, 8273377.0 ] } },
{ "type": "Feature", "properties": { "osmid": 4289017911.0 }, "geometry": { "type": "Point", "coordinates": [ 2748504.0, 8279325.0 ] } },
{ "type": "Feature", "properties": { "osmid": 993957446.0 }, "geometry": { "type": "Point", "coordinates": [ 2751769.0, 8268704.0 ] } },
{ "type": "Feature", "properties": { "osmid": 82522693.0 }, "geometry": { "type": "Point", "coordinates": [ 2750674.0, 8269064.0 ] } },
{ "type": "Feature", "properties": { "osmid": 8248244729.0 }, "geometry": { "type": "Point", "coordinates": [ 2759275.0, 8272286.0 ] } },
{ "type": "Feature", "properties": { "osmid": 320222659.0 }, "geometry": { "type": "Point", "coordinates": [ 2748593.0, 8270333.0 ] } },
{ "type": "Feature", "properties": { "osmid": 3674403527.0 }, "geometry": { "type": "Point", "coordinates": [ 2759787.0, 8273901.0 ] } },
{ "type": "Feature", "properties": { "osmid": 2362322769.0 }, "geometry": { "type": "Point", "coordinates": [ 2753910.0, 8268373.0 ] } },
{ "type": "Feature", "properties": { "osmid": 5270632936.0 }, "geometry": { "type": "Point", "coordinates": [ 2747147.0, 8272377.0 ] } },
{ "type": "Feature", "properties": { "osmid": 8316615300.0 }, "geometry": { "type": "Point", "coordinates": [ 2753040.0, 8268324.0 ] } },
{ "type": "Feature", "properties": { "osmid": 11784930.0 }, "geometry": { "type": "Point", "coordinates": [ 2759928.0, 8274810.0 ] } },
{ "type": "Feature", "properties": { "osmid": 960249949.0 }, "geometry": { "type": "Point", "coordinates": [ 2750515.0, 8281045.0 ] } },
{ "type": "Feature", "properties": { "osmid": 346119116.0 }, "geometry": { "type": "Point", "coordinates": [ 2747571.0, 8271375.0 ] } },
{ "type": "Feature", "properties": { "osmid": 632429675.0 }, "geometry": { "type": "Point", "coordinates": [ 2749643.0, 8280681.0 ] } },
{ "type": "Feature", "properties": { "osmid": 696805752.0 }, "geometry": { "type": "Point", "coordinates": [ 2746651.0, 8273535.0 ] } },
{ "type": "Feature", "properties": { "osmid": 11791487.0 }, "geometry": { "type": "Point", "coordinates": [ 2749605.0, 8269233.0 ] } },
{ "type": "Feature", "properties": { "osmid": 320142191.0 }, "geometry": { "type": "Point", "coordinates": [ 2748822.0, 8269791.0 ] } },
{ "type": "Feature", "properties": { "osmid": 3831539019.0 }, "geometry": { "type": "Point", "coordinates": [ 2752088.0, 8268236.0 ] } },
{ "type": "Feature", "properties": { "osmid": 9395647964.0 }, "geometry": { "type": "Point", "coordinates": [ 2759850.0, 8273054.0 ] } },
{ "type": "Feature", "properties": { "osmid": 11785013.0 }, "geometry": { "type": "Point", "coordinates": [ 2760202.0, 8274195.0 ] } },
{ "type": "Feature", "properties": { "osmid": 7239737160.0 }, "geometry": { "type": "Point", "coordinates": [ 2760126.0, 8273471.0 ] } },
{ "type": "Feature", "properties": { "osmid": 635890492.0 }, "geometry": { "type": "Point", "coordinates": [ 2760277.0, 8275509.0 ] } },
{ "type": "Feature", "properties": { "osmid": 943846822.0 }, "geometry": { "type": "Point", "coordinates": [ 2751296.0, 8268217.0 ] } },
{ "type": "Feature", "properties": { "osmid": 1825230060.0 }, "geometry": { "type": "Point", "coordinates": [ 2748050.0, 8279728.0 ] } },
{ "type": "Feature", "properties": { "osmid": 10839029102.0 }, "geometry": { "type": "Point", "coordinates": [ 2748218.0, 8269996.0 ] } },
{ "type": "Feature", "properties": { "osmid": 996165441.0 }, "geometry": { "type": "Point", "coordinates": [ 2750204.0, 8268530.0 ] } },
{ "type": "Feature", "properties": { "osmid": 6698624217.0 }, "geometry": { "type": "Point", "coordinates": [ 2760149.0, 8276999.0 ] } },
{ "type": "Feature", "properties": { "osmid": 6575685259.0 }, "geometry": { "type": "Point", "coordinates": [ 2749114.0, 8269124.0 ] } },
{ "type": "Feature", "properties": { "osmid": 5270632934.0 }, "geometry": { "type": "Point", "coordinates": [ 2746803.0, 8271800.0 ] } },
{ "type": "Feature", "properties": { "osmid": 11784954.0 }, "geometry": { "type": "Point", "coordinates": [ 2760513.0, 8274767.0 ] } },
{ "type": "Feature", "properties": { "osmid": 8262513289.0 }, "geometry": { "type": "Point", "coordinates": [ 2747042.0, 8271264.0 ] } },
{ "type": "Feature", "properties": { "osmid": 2483908556.0 }, "geometry": { "type": "Point", "coordinates": [ 2759759.0, 8271669.0 ] } },
{ "type": "Feature", "properties": { "osmid": 385945204.0 }, "geometry": { "type": "Point", "coordinates": [ 2752804.0, 8267706.0 ] } },
{ "type": "Feature", "properties": { "osmid": 1259892863.0 }, "geometry": { "type": "Point", "coordinates": [ 2749704.0, 8268585.0 ] } },
{ "type": "Feature", "properties": { "osmid": 4822818256.0 }, "geometry": { "type": "Point", "coordinates": [ 2748607.0, 8269328.0 ] } },
{ "type": "Feature", "properties": { "osmid": 436366636.0 }, "geometry": { "type": "Point", "coordinates": [ 2747302.0, 8279248.0 ] } },
{ "type": "Feature", "properties": { "osmid": 7239737359.0 }, "geometry": { "type": "Point", "coordinates": [ 2760427.0, 8273019.0 ] } },
{ "type": "Feature", "properties": { "osmid": 435718281.0 }, "geometry": { "type": "Point", "coordinates": [ 2745958.0, 8273550.0 ] } },
{ "type": "Feature", "properties": { "osmid": 4780799267.0 }, "geometry": { "type": "Point", "coordinates": [ 2746356.0, 8272094.0 ] } },
{ "type": "Feature", "properties": { "osmid": 10568474975.0 }, "geometry": { "type": "Point", "coordinates": [ 2750356.0, 8268041.0 ] } },
{ "type": "Feature", "properties": { "osmid": 4822480529.0 }, "geometry": { "type": "Point", "coordinates": [ 2748098.0, 8269464.0 ] } },
{ "type": "Feature", "properties": { "osmid": 4803605119.0 }, "geometry": { "type": "Point", "coordinates": [ 2748712.0, 8268790.0 ] } },
{ "type": "Feature", "properties": { "osmid": 7538273661.0 }, "geometry": { "type": "Point", "coordinates": [ 2749780.0, 8268057.0 ] } },
{ "type": "Feature", "properties": { "osmid": 12119893511.0 }, "geometry": { "type": "Point", "coordinates": [ 2746440.0, 8271233.0 ] } },
{ "type": "Feature", "properties": { "osmid": 10908389610.0 }, "geometry": { "type": "Point", "coordinates": [ 2752669.0, 8267204.0 ] } },
{ "type": "Feature", "properties": { "osmid": 1825156072.0 }, "geometry": { "type": "Point", "coordinates": [ 2747139.0, 8279817.0 ] } },
{ "type": "Feature", "properties": { "osmid": 7948698973.0 }, "geometry": { "type": "Point", "coordinates": [ 2760912.0, 8273352.0 ] } },
{ "type": "Feature", "properties": { "osmid": 6898441186.0 }, "geometry": { "type": "Point", "coordinates": [ 2750805.0, 8267559.0 ] } },
{ "type": "Feature", "properties": { "osmid": 1168153104.0 }, "geometry": { "type": "Point", "coordinates": [ 2749111.0, 8268300.0 ] } },
{ "type": "Feature", "properties": { "osmid": 436419439.0 }, "geometry": { "type": "Point", "coordinates": [ 2747415.0, 8280257.0 ] } },
{ "type": "Feature", "properties": { "osmid": 7100226090.0 }, "geometry": { "type": "Point", "coordinates": [ 2760772.0, 8277459.0 ] } },
{ "type": "Feature", "properties": { "osmid": 2094671894.0 }, "geometry": { "type": "Point", "coordinates": [ 2748119.0, 8268888.0 ] } },
{ "type": "Feature", "properties": { "osmid": 3828386363.0 }, "geometry": { "type": "Point", "coordinates": [ 2761189.0, 8273982.0 ] } },
{ "type": "Feature", "properties": { "osmid": 12106575596.0 }, "geometry": { "type": "Point", "coordinates": [ 2751703.0, 8282841.0 ] } },
{ "type": "Feature", "properties": { "osmid": 4738119304.0 }, "geometry": { "type": "Point", "coordinates": [ 2747552.0, 8269283.0 ] } },
{ "type": "Feature", "properties": { "osmid": 11062121723.0 }, "geometry": { "type": "Point", "coordinates": [ 2761330.0, 8275988.0 ] } },
{ "type": "Feature", "properties": { "osmid": 13108507805.0 }, "geometry": { "type": "Point", "coordinates": [ 2760980.0, 8272372.0 ] } },
{ "type": "Feature", "properties": { "osmid": 5838437420.0 }, "geometry": { "type": "Point", "coordinates": [ 2749869.0, 8267487.0 ] } },
{ "type": "Feature", "properties": { "osmid": 7315081689.0 }, "geometry": { "type": "Point", "coordinates": [ 2753094.0, 8266711.0 ] } },
{ "type": "Feature", "properties": { "osmid": 10052400882.0 }, "geometry": { "type": "Point", "coordinates": [ 2748619.0, 8268101.0 ] } },
{ "type": "Feature", "properties": { "osmid": 843782245.0 }, "geometry": { "type": "Point", "coordinates": [ 2761361.0, 8273054.0 ] } },
{ "type": "Feature", "properties": { "osmid": 1352867031.0 }, "geometry": { "type": "Point", "coordinates": [ 2749194.0, 8267710.0 ] } },
{ "type": "Feature", "properties": { "osmid": 12957218155.0 }, "geometry": { "type": "Point", "coordinates": [ 2752538.0, 8266671.0 ] } },
{ "type": "Feature", "properties": { "osmid": 8308520283.0 }, "geometry": { "type": "Point", "coordinates": [ 2746998.0, 8269435.0 ] } },
{ "type": "Feature", "properties": { "osmid": 1728211485.0 }, "geometry": { "type": "Point", "coordinates": [ 2752027.0, 8283297.0 ] } },
{ "type": "Feature", "properties": { "osmid": 9178139782.0 }, "geometry": { "type": "Point", "coordinates": [ 2761669.0, 8275414.0 ] } },
{ "type": "Feature", "properties": { "osmid": 5938004739.0 }, "geometry": { "type": "Point", "coordinates": [ 2760530.0, 8270634.0 ] } },
{ "type": "Feature", "properties": { "osmid": 11791070.0 }, "geometry": { "type": "Point", "coordinates": [ 2750236.0, 8267069.0 ] } },
{ "type": "Feature", "properties": { "osmid": 928375309.0 }, "geometry": { "type": "Point", "coordinates": [ 2747547.0, 8268722.0 ] } },
{ "type": "Feature", "properties": { "osmid": 11685114042.0 }, "geometry": { "type": "Point", "coordinates": [ 2744964.0, 8273149.0 ] } },
{ "type": "Feature", "properties": { "osmid": 1168153049.0 }, "geometry": { "type": "Point", "coordinates": [ 2748079.0, 8268223.0 ] } },
{ "type": "Feature", "properties": { "osmid": 748143689.0 }, "geometry": { "type": "Point", "coordinates": [ 2744756.0, 8273679.0 ] } },
{ "type": "Feature", "properties": { "osmid": 7100226122.0 }, "geometry": { "type": "Point", "coordinates": [ 2761300.0, 8278091.0 ] } },
{ "type": "Feature", "properties": { "osmid": 2240486067.0 }, "geometry": { "type": "Point", "coordinates": [ 2761899.0, 8274375.0 ] } },
{ "type": "Feature", "properties": { "osmid": 436388682.0 }, "geometry": { "type": "Point", "coordinates": [ 2746932.0, 8280935.0 ] } },
{ "type": "Feature", "properties": { "osmid": 2378474234.0 }, "geometry": { "type": "Point", "coordinates": [ 2747023.0, 8268914.0 ] } },
{ "type": "Feature", "properties": { "osmid": 1559664150.0 }, "geometry": { "type": "Point", "coordinates": [ 2746449.0, 8269548.0 ] } },
{ "type": "Feature", "properties": { "osmid": 8188720220.0 }, "geometry": { "type": "Point", "coordinates": [ 2748694.0, 8267556.0 ] } },
{ "type": "Feature", "properties": { "osmid": 2235141898.0 }, "geometry": { "type": "Point", "coordinates": [ 2749166.0, 8267205.0 ] } },
{ "type": "Feature", "properties": { "osmid": 4803438849.0 }, "geometry": { "type": "Point", "coordinates": [ 2746008.0, 8269973.0 ] } },
{ "type": "Feature", "properties": { "osmid": 11149541867.0 }, "geometry": { "type": "Point", "coordinates": [ 2762025.0, 8276170.0 ] } },
{ "type": "Feature", "properties": { "osmid": 4805541863.0 }, "geometry": { "type": "Point", "coordinates": [ 2748173.0, 8267628.0 ] } },
{ "type": "Feature", "properties": { "osmid": 11791449.0 }, "geometry": { "type": "Point", "coordinates": [ 2747381.0, 8268197.0 ] } },
{ "type": "Feature", "properties": { "osmid": 6838858576.0 }, "geometry": { "type": "Point", "coordinates": [ 2746508.0, 8269019.0 ] } },
{ "type": "Feature", "properties": { "osmid": 11922636456.0 }, "geometry": { "type": "Point", "coordinates": [ 2752383.0, 8266002.0 ] } },
{ "type": "Feature", "properties": { "osmid": 645792577.0 }, "geometry": { "type": "Point", "coordinates": [ 2761924.0, 8272342.0 ] } },
{ "type": "Feature", "properties": { "osmid": 10770259127.0 }, "geometry": { "type": "Point", "coordinates": [ 2760668.0, 8269759.0 ] } },
{ "type": "Feature", "properties": { "osmid": 1879352635.0 }, "geometry": { "type": "Point", "coordinates": [ 2762327.0, 8274785.0 ] } },
{ "type": "Feature", "properties": { "osmid": 13094410547.0 }, "geometry": { "type": "Point", "coordinates": [ 2762173.0, 8273144.0 ] } },
{ "type": "Feature", "properties": { "osmid": 1246202556.0 }, "geometry": { "type": "Point", "coordinates": [ 2747653.0, 8267760.0 ] } },
{ "type": "Feature", "properties": { "osmid": 11791081.0 }, "geometry": { "type": "Point", "coordinates": [ 2749572.0, 8266611.0 ] } },
{ "type": "Feature", "properties": { "osmid": 557764689.0 }, "geometry": { "type": "Point", "coordinates": [ 2744219.0, 8273552.0 ] } },
{ "type": "Feature", "properties": { "osmid": 1683920942.0 }, "geometry": { "type": "Point", "coordinates": [ 2748598.0, 8267047.0 ] } },
{ "type": "Feature", "properties": { "osmid": 355210069.0 }, "geometry": { "type": "Point", "coordinates": [ 2746732.0, 8268489.0 ] } },
{ "type": "Feature", "properties": { "osmid": 7100224773.0 }, "geometry": { "type": "Point", "coordinates": [ 2761666.0, 8278863.0 ] } },
{ "type": "Feature", "properties": { "osmid": 7555692464.0 }, "geometry": { "type": "Point", "coordinates": [ 2745482.0, 8269939.0 ] } },
{ "type": "Feature", "properties": { "osmid": 9245909613.0 }, "geometry": { "type": "Point", "coordinates": [ 2745902.0, 8269337.0 ] } },
{ "type": "Feature", "properties": { "osmid": 1194191426.0 }, "geometry": { "type": "Point", "coordinates": [ 2748977.0, 8266696.0 ] } },
{ "type": "Feature", "properties": { "osmid": 11073661160.0 }, "geometry": { "type": "Point", "coordinates": [ 2762530.0, 8276336.0 ] } },
{ "type": "Feature", "properties": { "osmid": 617412746.0 }, "geometry": { "type": "Point", "coordinates": [ 2762381.0, 8277198.0 ] } },
{ "type": "Feature", "properties": { "osmid": 8687774565.0 }, "geometry": { "type": "Point", "coordinates": [ 2744777.0, 8270863.0 ] } },
{ "type": "Feature", "properties": { "osmid": 1194191397.0 }, "geometry": { "type": "Point", "coordinates": [ 2748088.0, 8267070.0 ] } },
{ "type": "Feature", "properties": { "osmid": 578419881.0 }, "geometry": { "type": "Point", "coordinates": [ 2762077.0, 8278461.0 ] } },
{ "type": "Feature", "properties": { "osmid": 1243522933.0 }, "geometry": { "type": "Point", "coordinates": [ 2746865.0, 8267989.0 ] } },
{ "type": "Feature", "properties": { "osmid": 1628546240.0 }, "geometry": { "type": "Point", "coordinates": [ 2762378.0, 8277727.0 ] } },
{ "type": "Feature", "properties": { "osmid": 488295103.0 }, "geometry": { "type": "Point", "coordinates": [ 2751591.0, 8265559.0 ] } },
{ "type": "Feature", "properties": { "osmid": 4737878689.0 }, "geometry": { "type": "Point", "coordinates": [ 2746021.0, 8268730.0 ] } },
{ "type": "Feature", "properties": { "osmid": 2609346654.0 }, "geometry": { "type": "Point", "coordinates": [ 2762675.0, 8273185.0 ] } },
{ "type": "Feature", "properties": { "osmid": 2323914856.0 }, "geometry": { "type": "Point", "coordinates": [ 2762834.0, 8275599.0 ] } },
{ "type": "Feature", "properties": { "osmid": 60610823.0 }, "geometry": { "type": "Point", "coordinates": [ 2752619.0, 8265401.0 ] } },
{ "type": "Feature", "properties": { "osmid": 1250227076.0 }, "geometry": { "type": "Point", "coordinates": [ 2747141.0, 8267546.0 ] } },
{ "type": "Feature", "properties": { "osmid": 6838955384.0 }, "geometry": { "type": "Point", "coordinates": [ 2745391.0, 8269405.0 ] } },
{ "type": "Feature", "properties": { "osmid": 349199226.0 }, "geometry": { "type": "Point", "coordinates": [ 2744339.0, 8271303.0 ] } },
{ "type": "Feature", "properties": { "osmid": 1021093675.0 }, "geometry": { "type": "Point", "coordinates": [ 2762925.0, 8274565.0 ] } },
{ "type": "Feature", "properties": { "osmid": 1194191403.0 }, "geometry": { "type": "Point", "coordinates": [ 2748496.0, 8266542.0 ] } },
{ "type": "Feature", "properties": { "osmid": 5654406709.0 }, "geometry": { "type": "Point", "coordinates": [ 2743892.0, 8272427.0 ] } },
{ "type": "Feature", "properties": { "osmid": 5899280464.0 }, "geometry": { "type": "Point", "coordinates": [ 2746196.0, 8268260.0 ] } },
{ "type": "Feature", "properties": { "osmid": 5068984325.0 }, "geometry": { "type": "Point", "coordinates": [ 2743993.0, 8271927.0 ] } },
{ "type": "Feature", "properties": { "osmid": 10819551576.0 }, "geometry": { "type": "Point", "coordinates": [ 2747502.0, 8267097.0 ] } },
{ "type": "Feature", "properties": { "osmid": 617412750.0 }, "geometry": { "type": "Point", "coordinates": [ 2762857.0, 8277524.0 ] } },
{ "type": "Feature", "properties": { "osmid": 306944519.0 }, "geometry": { "type": "Point", "coordinates": [ 2744640.0, 8269986.0 ] } },
{ "type": "Feature", "properties": { "osmid": 488295060.0 }, "geometry": { "type": "Point", "coordinates": [ 2750942.0, 8265278.0 ] } },
{ "type": "Feature", "properties": { "osmid": 1243522899.0 }, "geometry": { "type": "Point", "coordinates": [ 2746395.0, 8267701.0 ] } },
{ "type": "Feature", "properties": { "osmid": 642560265.0 }, "geometry": { "type": "Point", "coordinates": [ 2762921.0, 8272223.0 ] } },
{ "type": "Feature", "properties": { "osmid": 7645530879.0 }, "geometry": { "type": "Point", "coordinates": [ 2763098.0, 8277079.0 ] } },
{ "type": "Feature", "properties": { "osmid": 1194191384.0 }, "geometry": { "type": "Point", "coordinates": [ 2747722.0, 8266587.0 ] } },
{ "type": "Feature", "properties": { "osmid": 2054450582.0 }, "geometry": { "type": "Point", "coordinates": [ 2745226.0, 8268934.0 ] } },
{ "type": "Feature", "properties": { "osmid": 3119176018.0 }, "geometry": { "type": "Point", "coordinates": [ 2763297.0, 8275821.0 ] } },
{ "type": "Feature", "properties": { "osmid": 11681642600.0 }, "geometry": { "type": "Point", "coordinates": [ 2761462.0, 8269113.0 ] } },
{ "type": "Feature", "properties": { "osmid": 12453139230.0 }, "geometry": { "type": "Point", "coordinates": [ 2763222.0, 8276592.0 ] } },
{ "type": "Feature", "properties": { "osmid": 1021093631.0 }, "geometry": { "type": "Point", "coordinates": [ 2763367.0, 8274992.0 ] } },
{ "type": "Feature", "properties": { "osmid": 930620325.0 }, "geometry": { "type": "Point", "coordinates": [ 2752657.0, 8264877.0 ] } },
{ "type": "Feature", "properties": { "osmid": 9272373087.0 }, "geometry": { "type": "Point", "coordinates": [ 2751719.0, 8264973.0 ] } },
{ "type": "Feature", "properties": { "osmid": 11360304615.0 }, "geometry": { "type": "Point", "coordinates": [ 2763269.0, 8273317.0 ] } },
{ "type": "Feature", "properties": { "osmid": 293128828.0 }, "geometry": { "type": "Point", "coordinates": [ 2743766.0, 8271438.0 ] } },
{ "type": "Feature", "properties": { "osmid": 11939273577.0 }, "geometry": { "type": "Point", "coordinates": [ 2762182.0, 8279824.0 ] } },
{ "type": "Feature", "properties": { "osmid": 347545512.0 }, "geometry": { "type": "Point", "coordinates": [ 2744173.0, 8270370.0 ] } },
{ "type": "Feature", "properties": { "osmid": 10236738327.0 }, "geometry": { "type": "Point", "coordinates": [ 2746946.0, 8266958.0 ] } },
{ "type": "Feature", "properties": { "osmid": 9118494080.0 }, "geometry": { "type": "Point", "coordinates": [ 2762983.0, 8278311.0 ] } },
{ "type": "Feature", "properties": { "osmid": 1450778965.0 }, "geometry": { "type": "Point", "coordinates": [ 2745656.0, 8268056.0 ] } },
{ "type": "Feature", "properties": { "osmid": 7021771386.0 }, "geometry": { "type": "Point", "coordinates": [ 2753583.0, 8264669.0 ] } },
{ "type": "Feature", "properties": { "osmid": 1262555858.0 }, "geometry": { "type": "Point", "coordinates": [ 2745256.0, 8268388.0 ] } },
{ "type": "Feature", "properties": { "osmid": 797348771.0 }, "geometry": { "type": "Point", "coordinates": [ 2750070.0, 8265102.0 ] } },
{ "type": "Feature", "properties": { "osmid": 5676194217.0 }, "geometry": { "type": "Point", "coordinates": [ 2743306.0, 8272052.0 ] } },
{ "type": "Feature", "properties": { "osmid": 5913488813.0 }, "geometry": { "type": "Point", "coordinates": [ 2746378.0, 8267189.0 ] } },
{ "type": "Feature", "properties": { "osmid": 499140574.0 }, "geometry": { "type": "Point", "coordinates": [ 2762745.0, 8279388.0 ] } },
{ "type": "Feature", "properties": { "osmid": 327037492.0 }, "geometry": { "type": "Point", "coordinates": [ 2749430.0, 8265253.0 ] } },
{ "type": "Feature", "properties": { "osmid": 5863239700.0 }, "geometry": { "type": "Point", "coordinates": [ 2743059.0, 8272708.0 ] } },
{ "type": "Feature", "properties": { "osmid": 617412765.0 }, "geometry": { "type": "Point", "coordinates": [ 2763349.0, 8277773.0 ] } },
{ "type": "Feature", "properties": { "osmid": 293273033.0 }, "geometry": { "type": "Point", "coordinates": [ 2744189.0, 8269691.0 ] } },
{ "type": "Feature", "properties": { "osmid": 9457628940.0 }, "geometry": { "type": "Point", "coordinates": [ 2747119.0, 8266426.0 ] } },
{ "type": "Feature", "properties": { "osmid": 2670846639.0 }, "geometry": { "type": "Point", "coordinates": [ 2763838.0, 8274700.0 ] } },
{ "type": "Feature", "properties": { "osmid": 9243433797.0 }, "geometry": { "type": "Point", "coordinates": [ 2745854.0, 8267410.0 ] } },
{ "type": "Feature", "properties": { "osmid": 748143639.0 }, "geometry": { "type": "Point", "coordinates": [ 2742668.0, 8274160.0 ] } },
{ "type": "Feature", "properties": { "osmid": 2155986783.0 }, "geometry": { "type": "Point", "coordinates": [ 2763897.0, 8275292.0 ] } },
{ "type": "Feature", "properties": { "osmid": 347545359.0 }, "geometry": { "type": "Point", "coordinates": [ 2743173.0, 8271521.0 ] } },
{ "type": "Feature", "properties": { "osmid": 768883426.0 }, "geometry": { "type": "Point", "coordinates": [ 2762791.0, 8279894.0 ] } },
{ "type": "Feature", "properties": { "osmid": 8977702148.0 }, "geometry": { "type": "Point", "coordinates": [ 2763543.0, 8271925.0 ] } },
{ "type": "Feature", "properties": { "osmid": 283190624.0 }, "geometry": { "type": "Point", "coordinates": [ 2761824.0, 8268498.0 ] } },
{ "type": "Feature", "properties": { "osmid": 5913255318.0 }, "geometry": { "type": "Point", "coordinates": [ 2744756.0, 8268417.0 ] } },
{ "type": "Feature", "properties": { "osmid": 1269313179.0 }, "geometry": { "type": "Point", "coordinates": [ 2745181.0, 8267876.0 ] } },
{ "type": "Feature", "properties": { "osmid": 327037489.0 }, "geometry": { "type": "Point", "coordinates": [ 2748774.0, 8265194.0 ] } },
{ "type": "Feature", "properties": { "osmid": 11795001.0 }, "geometry": { "type": "Point", "coordinates": [ 2763940.0, 8276790.0 ] } },
{ "type": "Feature", "properties": { "osmid": 1037853990.0 }, "geometry": { "type": "Point", "coordinates": [ 2763247.0, 8279258.0 ] } },
{ "type": "Feature", "properties": { "osmid": 940117284.0 }, "geometry": { "type": "Point", "coordinates": [ 2746320.0, 8266634.0 ] } },
{ "type": "Feature", "properties": { "osmid": 7819735787.0 }, "geometry": { "type": "Point", "coordinates": [ 2742569.0, 8272889.0 ] } },
{ "type": "Feature", "properties": { "osmid": 327037495.0 }, "geometry": { "type": "Point", "coordinates": [ 2749370.0, 8264741.0 ] } },
{ "type": "Feature", "properties": { "osmid": 1250291428.0 }, "geometry": { "type": "Point", "coordinates": [ 2745340.0, 8267396.0 ] } },
{ "type": "Feature", "properties": { "osmid": 1128046861.0 }, "geometry": { "type": "Point", "coordinates": [ 2762735.0, 8280544.0 ] } },
{ "type": "Feature", "properties": { "osmid": 293118492.0 }, "geometry": { "type": "Point", "coordinates": [ 2743320.0, 8270242.0 ] } },
{ "type": "Feature", "properties": { "osmid": 293273140.0 }, "geometry": { "type": "Point", "coordinates": [ 2743050.0, 8270812.0 ] } },
{ "type": "Feature", "properties": { "osmid": 602800847.0 }, "geometry": { "type": "Point", "coordinates": [ 2745725.0, 8266922.0 ] } },
{ "type": "Feature", "properties": { "osmid": 293273026.0 }, "geometry": { "type": "Point", "coordinates": [ 2743753.0, 8269367.0 ] } },
{ "type": "Feature", "properties": { "osmid": 391264876.0 }, "geometry": { "type": "Point", "coordinates": [ 2747992.0, 8265134.0 ] } },
{ "type": "Feature", "properties": { "osmid": 8068128975.0 }, "geometry": { "type": "Point", "coordinates": [ 2763408.0, 8279797.0 ] } },
{ "type": "Feature", "properties": { "osmid": 912358526.0 }, "geometry": { "type": "Point", "coordinates": [ 2747227.0, 8265512.0 ] } },
{ "type": "Feature", "properties": { "osmid": 318884083.0 }, "geometry": { "type": "Point", "coordinates": [ 2743348.0, 8269692.0 ] } },
{ "type": "Feature", "properties": { "osmid": 323082199.0 }, "geometry": { "type": "Point", "coordinates": [ 2748408.0, 8264827.0 ] } },
{ "type": "Feature", "properties": { "osmid": 10839178565.0 }, "geometry": { "type": "Point", "coordinates": [ 2746719.0, 8265746.0 ] } },
{ "type": "Feature", "properties": { "osmid": 7765391817.0 }, "geometry": { "type": "Point", "coordinates": [ 2763814.0, 8279168.0 ] } },
{ "type": "Feature", "properties": { "osmid": 13094410528.0 }, "geometry": { "type": "Point", "coordinates": [ 2764587.0, 8273976.0 ] } },
{ "type": "Feature", "properties": { "osmid": 748143574.0 }, "geometry": { "type": "Point", "coordinates": [ 2742004.0, 8273208.0 ] } },
{ "type": "Feature", "properties": { "osmid": 742505967.0 }, "geometry": { "type": "Point", "coordinates": [ 2762241.0, 8267869.0 ] } },
{ "type": "Feature", "properties": { "osmid": 9240551210.0 }, "geometry": { "type": "Point", "coordinates": [ 2742058.0, 8272625.0 ] } },
{ "type": "Feature", "properties": { "osmid": 347545316.0 }, "geometry": { "type": "Point", "coordinates": [ 2742703.0, 8270370.0 ] } },
{ "type": "Feature", "properties": { "osmid": 409614242.0 }, "geometry": { "type": "Point", "coordinates": [ 2764809.0, 8275018.0 ] } },
{ "type": "Feature", "properties": { "osmid": 10013534472.0 }, "geometry": { "type": "Point", "coordinates": [ 2751565.0, 8263541.0 ] } },
{ "type": "Feature", "properties": { "osmid": 1837991724.0 }, "geometry": { "type": "Point", "coordinates": [ 2743568.0, 8268680.0 ] } },
{ "type": "Feature", "properties": { "osmid": 617412786.0 }, "geometry": { "type": "Point", "coordinates": [ 2764380.0, 8278228.0 ] } },
{ "type": "Feature", "properties": { "osmid": 325978031.0 }, "geometry": { "type": "Point", "coordinates": [ 2747547.0, 8264894.0 ] } },
{ "type": "Feature", "properties": { "osmid": 297423453.0 }, "geometry": { "type": "Point", "coordinates": [ 2743142.0, 8269224.0 ] } },
{ "type": "Feature", "properties": { "osmid": 3124967956.0 }, "geometry": { "type": "Point", "coordinates": [ 2745394.0, 8266342.0 ] } },
{ "type": "Feature", "properties": { "osmid": 318884062.0 }, "geometry": { "type": "Point", "coordinates": [ 2742770.0, 8269806.0 ] } },
{ "type": "Feature", "properties": { "osmid": 930620586.0 }, "geometry": { "type": "Point", "coordinates": [ 2763916.0, 8279947.0 ] } },
{ "type": "Feature", "properties": { "osmid": 11362317908.0 }, "geometry": { "type": "Point", "coordinates": [ 2764316.0, 8279239.0 ] } },
{ "type": "Feature", "properties": { "osmid": 4555869366.0 }, "geometry": { "type": "Point", "coordinates": [ 2764512.0, 8278734.0 ] } },
{ "type": "Feature", "properties": { "osmid": 614466105.0 }, "geometry": { "type": "Point", "coordinates": [ 2765088.0, 8275967.0 ] } },
{ "type": "Feature", "properties": { "osmid": 6736285597.0 }, "geometry": { "type": "Point", "coordinates": [ 2741505.0, 8273299.0 ] } },
{ "type": "Feature", "properties": { "osmid": 12204989627.0 }, "geometry": { "type": "Point", "coordinates": [ 2763490.0, 8281043.0 ] } },
{ "type": "Feature", "properties": { "osmid": 762775233.0 }, "geometry": { "type": "Point", "coordinates": [ 2741391.0, 8276463.0 ] } },
{ "type": "Feature", "properties": { "osmid": 10171668028.0 }, "geometry": { "type": "Point", "coordinates": [ 2765106.0, 8276999.0 ] } },
{ "type": "Feature", "properties": { "osmid": 11175041815.0 }, "geometry": { "type": "Point", "coordinates": [ 2744887.0, 8266298.0 ] } },
{ "type": "Feature", "properties": { "osmid": 297425564.0 }, "geometry": { "type": "Point", "coordinates": [ 2742640.0, 8269225.0 ] } },
{ "type": "Feature", "properties": { "osmid": 617412800.0 }, "geometry": { "type": "Point", "coordinates": [ 2764946.0, 8278166.0 ] } },
{ "type": "Feature", "properties": { "osmid": 294173455.0 }, "geometry": { "type": "Point", "coordinates": [ 2743057.0, 8268441.0 ] } },
{ "type": "Feature", "properties": { "osmid": 11421271523.0 }, "geometry": { "type": "Point", "coordinates": [ 2741467.0, 8272168.0 ] } },
{ "type": "Feature", "properties": { "osmid": 282542436.0 }, "geometry": { "type": "Point", "coordinates": [ 2764516.0, 8279724.0 ] } },
{ "type": "Feature", "properties": { "osmid": 2131293777.0 }, "geometry": { "type": "Point", "coordinates": [ 2741069.0, 8273800.0 ] } },
{ "type": "Feature", "properties": { "osmid": 11795236.0 }, "geometry": { "type": "Point", "coordinates": [ 2765520.0, 8275464.0 ] } },
{ "type": "Feature", "properties": { "osmid": 421673514.0 }, "geometry": { "type": "Point", "coordinates": [ 2763688.0, 8281506.0 ] } },
{ "type": "Feature", "properties": { "osmid": 627107851.0 }, "geometry": { "type": "Point", "coordinates": [ 2764117.0, 8280910.0 ] } },
{ "type": "Feature", "properties": { "osmid": 11273550.0 }, "geometry": { "type": "Point", "coordinates": [ 2740897.0, 8274276.0 ] } },
{ "type": "Feature", "properties": { "osmid": 930620390.0 }, "geometry": { "type": "Point", "coordinates": [ 2764881.0, 8279345.0 ] } },
{ "type": "Feature", "properties": { "osmid": 4144490992.0 }, "geometry": { "type": "Point", "coordinates": [ 2744328.0, 8266212.0 ] } },
{ "type": "Feature", "properties": { "osmid": 756659953.0 }, "geometry": { "type": "Point", "coordinates": [ 2740837.0, 8276486.0 ] } },
{ "type": "Feature", "properties": { "osmid": 715799259.0 }, "geometry": { "type": "Point", "coordinates": [ 2765394.0, 8271734.0 ] } },
{ "type": "Feature", "properties": { "osmid": 4247586273.0 }, "geometry": { "type": "Point", "coordinates": [ 2742106.0, 8269215.0 ] } },
{ "type": "Feature", "properties": { "osmid": 1918796671.0 }, "geometry": { "type": "Point", "coordinates": [ 2743544.0, 8267011.0 ] } },
{ "type": "Feature", "properties": { "osmid": 294173413.0 }, "geometry": { "type": "Point", "coordinates": [ 2742800.0, 8267990.0 ] } },
{ "type": "Feature", "properties": { "osmid": 6023128258.0 }, "geometry": { "type": "Point", "coordinates": [ 2765833.0, 8275946.0 ] } },
{ "type": "Feature", "properties": { "osmid": 5290030172.0 }, "geometry": { "type": "Point", "coordinates": [ 2765604.0, 8277719.0 ] } },
{ "type": "Feature", "properties": { "osmid": 8792958942.0 }, "geometry": { "type": "Point", "coordinates": [ 2754711.0, 8262339.0 ] } },
{ "type": "Feature", "properties": { "osmid": 313029331.0 }, "geometry": { "type": "Point", "coordinates": [ 2740655.0, 8273298.0 ] } },
{ "type": "Feature", "properties": { "osmid": 13719589336.0 }, "geometry": { "type": "Point", "coordinates": [ 2763518.0, 8282581.0 ] } },
{ "type": "Feature", "properties": { "osmid": 2362746062.0 }, "geometry": { "type": "Point", "coordinates": [ 2740517.0, 8273880.0 ] } },
{ "type": "Feature", "properties": { "osmid": 5290030179.0 }, "geometry": { "type": "Point", "coordinates": [ 2765896.0, 8277080.0 ] } },
{ "type": "Feature", "properties": { "osmid": 2511278907.0 }, "geometry": { "type": "Point", "coordinates": [ 2742319.0, 8268334.0 ] } },
{ "type": "Feature", "properties": { "osmid": 620153407.0 }, "geometry": { "type": "Point", "coordinates": [ 2764175.0, 8281695.0 ] } },
{ "type": "Feature", "properties": { "osmid": 10665356469.0 }, "geometry": { "type": "Point", "coordinates": [ 2765619.0, 8278591.0 ] } },
{ "type": "Feature", "properties": { "osmid": 930620853.0 }, "geometry": { "type": "Point", "coordinates": [ 2765470.0, 8279179.0 ] } },
{ "type": "Feature", "properties": { "osmid": 3144064796.0 }, "geometry": { "type": "Point", "coordinates": [ 2766171.0, 8275449.0 ] } },
{ "type": "Feature", "properties": { "osmid": 11175041874.0 }, "geometry": { "type": "Point", "coordinates": [ 2743732.0, 8266251.0 ] } },
{ "type": "Feature", "properties": { "osmid": 624788467.0 }, "geometry": { "type": "Point", "coordinates": [ 2763991.0, 8282333.0 ] } },
{ "type": "Feature", "properties": { "osmid": 773862733.0 }, "geometry": { "type": "Point", "coordinates": [ 2766234.0, 8276349.0 ] } },
{ "type": "Feature", "properties": { "osmid": 10073145976.0 }, "geometry": { "type": "Point", "coordinates": [ 2750745.0, 8262135.0 ] } },
{ "type": "Feature", "properties": { "osmid": 2485031738.0 }, "geometry": { "type": "Point", "coordinates": [ 2751979.0, 8261937.0 ] } },
{ "type": "Feature", "properties": { "osmid": 1299376416.0 }, "geometry": { "type": "Point", "coordinates": [ 2746269.0, 8263756.0 ] } },
{ "type": "Feature", "properties": { "osmid": 5306850796.0 }, "geometry": { "type": "Point", "coordinates": [ 2766176.0, 8278322.0 ] } },
{ "type": "Feature", "properties": { "osmid": 762775253.0 }, "geometry": { "type": "Point", "coordinates": [ 2740181.0, 8277527.0 ] } },
{ "type": "Feature", "properties": { "osmid": 11385718100.0 }, "geometry": { "type": "Point", "coordinates": [ 2751463.0, 8261752.0 ] } },
{ "type": "Feature", "properties": { "osmid": 1787432003.0 }, "geometry": { "type": "Point", "coordinates": [ 2754345.0, 8261628.0 ] } },
{ "type": "Feature", "properties": { "osmid": 2131293775.0 }, "geometry": { "type": "Point", "coordinates": [ 2739850.0, 8273947.0 ] } },
{ "type": "Feature", "properties": { "osmid": 313029475.0 }, "geometry": { "type": "Point", "coordinates": [ 2739950.0, 8272961.0 ] } },
{ "type": "Feature", "properties": { "osmid": 11293623822.0 }, "geometry": { "type": "Point", "coordinates": [ 2739775.0, 8275251.0 ] } },
{ "type": "Feature", "properties": { "osmid": 4246816445.0 }, "geometry": { "type": "Point", "coordinates": [ 2741199.0, 8268531.0 ] } },
{ "type": "Feature", "properties": { "osmid": 929296095.0 }, "geometry": { "type": "Point", "coordinates": [ 2765791.0, 8280530.0 ] } },
{ "type": "Feature", "properties": { "osmid": 8113106366.0 }, "geometry": { "type": "Point", "coordinates": [ 2764720.0, 8282513.0 ] } },
{ "type": "Feature", "properties": { "osmid": 48074987.0 }, "geometry": { "type": "Point", "coordinates": [ 2750516.0, 8261546.0 ] } },
{ "type": "Feature", "properties": { "osmid": 1694979217.0 }, "geometry": { "type": "Point", "coordinates": [ 2739538.0, 8274371.0 ] } },
{ "type": "Feature", "properties": { "osmid": 617412850.0 }, "geometry": { "type": "Point", "coordinates": [ 2766562.0, 8278662.0 ] } },
{ "type": "Feature", "properties": { "osmid": 11930253122.0 }, "geometry": { "type": "Point", "coordinates": [ 2766385.0, 8279297.0 ] } },
{ "type": "Feature", "properties": { "osmid": 7132090240.0 }, "geometry": { "type": "Point", "coordinates": [ 2739540.0, 8273382.0 ] } },
{ "type": "Feature", "properties": { "osmid": 3856846081.0 }, "geometry": { "type": "Point", "coordinates": [ 2739462.0, 8276356.0 ] } },
{ "type": "Feature", "properties": { "osmid": 48075048.0 }, "geometry": { "type": "Point", "coordinates": [ 2751085.0, 8261252.0 ] } },
{ "type": "Feature", "properties": { "osmid": 5290034829.0 }, "geometry": { "type": "Point", "coordinates": [ 2767126.0, 8277111.0 ] } },
{ "type": "Feature", "properties": { "osmid": 2129578279.0 }, "geometry": { "type": "Point", "coordinates": [ 2740643.0, 8268874.0 ] } },
{ "type": "Feature", "properties": { "osmid": 1299376428.0 }, "geometry": { "type": "Point", "coordinates": [ 2745547.0, 8263260.0 ] } },
{ "type": "Feature", "properties": { "osmid": 34039241.0 }, "geometry": { "type": "Point", "coordinates": [ 2743274.0, 8265098.0 ] } },
{ "type": "Feature", "properties": { "osmid": 12470910815.0 }, "geometry": { "type": "Point", "coordinates": [ 2764736.0, 8283140.0 ] } },
{ "type": "Feature", "properties": { "osmid": 637934392.0 }, "geometry": { "type": "Point", "coordinates": [ 2765252.0, 8282371.0 ] } },
{ "type": "Feature", "properties": { "osmid": 12868363990.0 }, "geometry": { "type": "Point", "coordinates": [ 2766561.0, 8279790.0 ] } },
{ "type": "Feature", "properties": { "osmid": 1187361174.0 }, "geometry": { "type": "Point", "coordinates": [ 2739137.0, 8274044.0 ] } },
{ "type": "Feature", "properties": { "osmid": 12872774375.0 }, "geometry": { "type": "Point", "coordinates": [ 2755439.0, 8260956.0 ] } },
{ "type": "Feature", "properties": { "osmid": 965007348.0 }, "geometry": { "type": "Point", "coordinates": [ 2739343.0, 8277743.0 ] } },
{ "type": "Feature", "properties": { "osmid": 6387616819.0 }, "geometry": { "type": "Point", "coordinates": [ 2739104.0, 8275994.0 ] } },
{ "type": "Feature", "properties": { "osmid": 2205149910.0 }, "geometry": { "type": "Point", "coordinates": [ 2766290.0, 8280666.0 ] } },
{ "type": "Feature", "properties": { "osmid": 1386595556.0 }, "geometry": { "type": "Point", "coordinates": [ 2764481.0, 8283721.0 ] } },
{ "type": "Feature", "properties": { "osmid": 2572018845.0 }, "geometry": { "type": "Point", "coordinates": [ 2767626.0, 8275914.0 ] } },
{ "type": "Feature", "properties": { "osmid": 12812020440.0 }, "geometry": { "type": "Point", "coordinates": [ 2766991.0, 8279417.0 ] } },
{ "type": "Feature", "properties": { "osmid": 13364315679.0 }, "geometry": { "type": "Point", "coordinates": [ 2765308.0, 8282927.0 ] } },
{ "type": "Feature", "properties": { "osmid": 8857053725.0 }, "geometry": { "type": "Point", "coordinates": [ 2765751.0, 8282259.0 ] } },
{ "type": "Feature", "properties": { "osmid": 620146326.0 }, "geometry": { "type": "Point", "coordinates": [ 2767288.0, 8278579.0 ] } },
{ "type": "Feature", "properties": { "osmid": 1086492869.0 }, "geometry": { "type": "Point", "coordinates": [ 2765129.0, 8283462.0 ] } },
{ "type": "Feature", "properties": { "osmid": 1918796574.0 }, "geometry": { "type": "Point", "coordinates": [ 2743850.0, 8263803.0 ] } },
{ "type": "Feature", "properties": { "osmid": 13041691644.0 }, "geometry": { "type": "Point", "coordinates": [ 2738854.0, 8277482.0 ] } },
{ "type": "Feature", "properties": { "osmid": 767456283.0 }, "geometry": { "type": "Point", "coordinates": [ 2738625.0, 8275224.0 ] } },
{ "type": "Feature", "properties": { "osmid": 2595377909.0 }, "geometry": { "type": "Point", "coordinates": [ 2767933.0, 8275164.0 ] } },
{ "type": "Feature", "properties": { "osmid": 9993588805.0 }, "geometry": { "type": "Point", "coordinates": [ 2767587.0, 8278148.0 ] } },
{ "type": "Feature", "properties": { "osmid": 445652916.0 }, "geometry": { "type": "Point", "coordinates": [ 2767064.0, 8280038.0 ] } },
{ "type": "Feature", "properties": { "osmid": 8839861897.0 }, "geometry": { "type": "Point", "coordinates": [ 2767784.0, 8277448.0 ] } },
{ "type": "Feature", "properties": { "osmid": 932165134.0 }, "geometry": { "type": "Point", "coordinates": [ 2756029.0, 8260469.0 ] } },
{ "type": "Feature", "properties": { "osmid": 295257581.0 }, "geometry": { "type": "Point", "coordinates": [ 2742557.0, 8264796.0 ] } },
{ "type": "Feature", "properties": { "osmid": 10234994935.0 }, "geometry": { "type": "Point", "coordinates": [ 2738834.0, 8278523.0 ] } },
{ "type": "Feature", "properties": { "osmid": 4423088089.0 }, "geometry": { "type": "Point", "coordinates": [ 2767578.0, 8279056.0 ] } },
{ "type": "Feature", "properties": { "osmid": 614383487.0 }, "geometry": { "type": "Point", "coordinates": [ 2768095.0, 8276671.0 ] } },
{ "type": "Feature", "properties": { "osmid": 6150382855.0 }, "geometry": { "type": "Point", "coordinates": [ 2765091.0, 8284136.0 ] } },
{ "type": "Feature", "properties": { "osmid": 613215878.0 }, "geometry": { "type": "Point", "coordinates": [ 2768285.0, 8276140.0 ] } },
{ "type": "Feature", "properties": { "osmid": 1071178218.0 }, "geometry": { "type": "Point", "coordinates": [ 2764771.0, 8284717.0 ] } },
{ "type": "Feature", "properties": { "osmid": 886560966.0 }, "geometry": { "type": "Point", "coordinates": [ 2765572.0, 8283727.0 ] } },
{ "type": "Feature", "properties": { "osmid": 4463431414.0 }, "geometry": { "type": "Point", "coordinates": [ 2742930.0, 8263917.0 ] } },
{ "type": "Feature", "properties": { "osmid": 4423087886.0 }, "geometry": { "type": "Point", "coordinates": [ 2767964.0, 8278736.0 ] } },
{ "type": "Feature", "properties": { "osmid": 2526467390.0 }, "geometry": { "type": "Point", "coordinates": [ 2768285.0, 8277327.0 ] } },
{ "type": "Feature", "properties": { "osmid": 9160456485.0 }, "geometry": { "type": "Point", "coordinates": [ 2767621.0, 8280005.0 ] } },
{ "type": "Feature", "properties": { "osmid": 10293947393.0 }, "geometry": { "type": "Point", "coordinates": [ 2743276.0, 8263462.0 ] } },
{ "type": "Feature", "properties": { "osmid": 932165098.0 }, "geometry": { "type": "Point", "coordinates": [ 2756735.0, 8260047.0 ] } },
{ "type": "Feature", "properties": { "osmid": 7983190941.0 }, "geometry": { "type": "Point", "coordinates": [ 2737888.0, 8274766.0 ] } },
{ "type": "Feature", "properties": { "osmid": 4863394620.0 }, "geometry": { "type": "Point", "coordinates": [ 2737885.0, 8276107.0 ] } },
{ "type": "Feature", "properties": { "osmid": 767456365.0 }, "geometry": { "type": "Point", "coordinates": [ 2737870.0, 8276672.0 ] } },
{ "type": "Feature", "properties": { "osmid": 12836991913.0 }, "geometry": { "type": "Point", "coordinates": [ 2768035.0, 8279687.0 ] } },
{ "type": "Feature", "properties": { "osmid": 343611458.0 }, "geometry": { "type": "Point", "coordinates": [ 2768681.0, 8277009.0 ] } },
{ "type": "Feature", "properties": { "osmid": 886560961.0 }, "geometry": { "type": "Point", "coordinates": [ 2765672.0, 8284359.0 ] } },
{ "type": "Feature", "properties": { "osmid": 11750622178.0 }, "geometry": { "type": "Point", "coordinates": [ 2768253.0, 8270805.0 ] } },
{ "type": "Feature", "properties": { "osmid": 2131111610.0 }, "geometry": { "type": "Point", "coordinates": [ 2756384.0, 8259682.0 ] } },
{ "type": "Feature", "properties": { "osmid": 1874609777.0 }, "geometry": { "type": "Point", "coordinates": [ 2741859.0, 8264312.0 ] } },
{ "type": "Feature", "properties": { "osmid": 1683544373.0 }, "geometry": { "type": "Point", "coordinates": [ 2765214.0, 8285054.0 ] } },
{ "type": "Feature", "properties": { "osmid": 1462529612.0 }, "geometry": { "type": "Point", "coordinates": [ 2768088.0, 8280278.0 ] } },
{ "type": "Feature", "properties": { "osmid": 8467976883.0 }, "geometry": { "type": "Point", "coordinates": [ 2741380.0, 8264574.0 ] } },
{ "type": "Feature", "properties": { "osmid": 760623716.0 }, "geometry": { "type": "Point", "coordinates": [ 2744282.0, 8261936.0 ] } },
{ "type": "Feature", "properties": { "osmid": 343609519.0 }, "geometry": { "type": "Point", "coordinates": [ 2768861.0, 8277770.0 ] } },
{ "type": "Feature", "properties": { "osmid": 31084294.0 }, "geometry": { "type": "Point", "coordinates": [ 2769125.0, 8275958.0 ] } },
{ "type": "Feature", "properties": { "osmid": 11796032.0 }, "geometry": { "type": "Point", "coordinates": [ 2768559.0, 8279442.0 ] } },
{ "type": "Feature", "properties": { "osmid": 797518745.0 }, "geometry": { "type": "Point", "coordinates": [ 2765760.0, 8284892.0 ] } },
{ "type": "Feature", "properties": { "osmid": 438156604.0 }, "geometry": { "type": "Point", "coordinates": [ 2740756.0, 8264918.0 ] } },
{ "type": "Feature", "properties": { "osmid": 343491633.0 }, "geometry": { "type": "Point", "coordinates": [ 2769167.0, 8277272.0 ] } },
{ "type": "Feature", "properties": { "osmid": 1851308893.0 }, "geometry": { "type": "Point", "coordinates": [ 2768563.0, 8279967.0 ] } },
{ "type": "Feature", "properties": { "osmid": 2285111440.0 }, "geometry": { "type": "Point", "coordinates": [ 2769328.0, 8276511.0 ] } },
{ "type": "Feature", "properties": { "osmid": 7603546926.0 }, "geometry": { "type": "Point", "coordinates": [ 2766239.0, 8284633.0 ] } },
{ "type": "Feature", "properties": { "osmid": 2202593444.0 }, "geometry": { "type": "Point", "coordinates": [ 2765135.0, 8286078.0 ] } },
{ "type": "Feature", "properties": { "osmid": 624534213.0 }, "geometry": { "type": "Point", "coordinates": [ 2739584.0, 8266219.0 ] } },
{ "type": "Feature", "properties": { "osmid": 7406237164.0 }, "geometry": { "type": "Point", "coordinates": [ 2737028.0, 8275896.0 ] } },
{ "type": "Feature", "properties": { "osmid": 2520990941.0 }, "geometry": { "type": "Point", "coordinates": [ 2769220.0, 8278238.0 ] } },
{ "type": "Feature", "properties": { "osmid": 282557087.0 }, "geometry": { "type": "Point", "coordinates": [ 2768594.0, 8280553.0 ] } },
{ "type": "Feature", "properties": { "osmid": 930620550.0 }, "geometry": { "type": "Point", "coordinates": [ 2768436.0, 8281216.0 ] } },
{ "type": "Feature", "properties": { "osmid": 795898191.0 }, "geometry": { "type": "Point", "coordinates": [ 2765908.0, 8285463.0 ] } },
{ "type": "Feature", "properties": { "osmid": 11465297076.0 }, "geometry": { "type": "Point", "coordinates": [ 2740013.0, 8265271.0 ] } },
{ "type": "Feature", "properties": { "osmid": 11984913165.0 }, "geometry": { "type": "Point", "coordinates": [ 2764925.0, 8286607.0 ] } },
{ "type": "Feature", "properties": { "osmid": 2386815826.0 }, "geometry": { "type": "Point", "coordinates": [ 2769265.0, 8278991.0 ] } },
{ "type": "Feature", "properties": { "osmid": 5933864109.0 }, "geometry": { "type": "Point", "coordinates": [ 2764043.0, 8287469.0 ] } },
{ "type": "Feature", "properties": { "osmid": 5933864150.0 }, "geometry": { "type": "Point", "coordinates": [ 2764437.0, 8287146.0 ] } },
{ "type": "Feature", "properties": { "osmid": 2069168423.0 }, "geometry": { "type": "Point", "coordinates": [ 2769833.0, 8276284.0 ] } },
{ "type": "Feature", "properties": { "osmid": 282555959.0 }, "geometry": { "type": "Point", "coordinates": [ 2769140.0, 8279930.0 ] } },
{ "type": "Feature", "properties": { "osmid": 1073573832.0 }, "geometry": { "type": "Point", "coordinates": [ 2766458.0, 8285142.0 ] } },
{ "type": "Feature", "properties": { "osmid": 59209308.0 }, "geometry": { "type": "Point", "coordinates": [ 2765704.0, 8286145.0 ] } },
{ "type": "Feature", "properties": { "osmid": 8467976908.0 }, "geometry": { "type": "Point", "coordinates": [ 2739321.0, 8265652.0 ] } },
{ "type": "Feature", "properties": { "osmid": 13094134985.0 }, "geometry": { "type": "Point", "coordinates": [ 2763751.0, 8288186.0 ] } },
{ "type": "Feature", "properties": { "osmid": 777309170.0 }, "geometry": { "type": "Point", "coordinates": [ 2769949.0, 8277596.0 ] } },
{ "type": "Feature", "properties": { "osmid": 1477621963.0 }, "geometry": { "type": "Point", "coordinates": [ 2765413.0, 8286741.0 ] } },
{ "type": "Feature", "properties": { "osmid": 13593706367.0 }, "geometry": { "type": "Point", "coordinates": [ 2769167.0, 8280772.0 ] } },
{ "type": "Feature", "properties": { "osmid": 740098223.0 }, "geometry": { "type": "Point", "coordinates": [ 2767110.0, 8284721.0 ] } },
{ "type": "Feature", "properties": { "osmid": 845036490.0 }, "geometry": { "type": "Point", "coordinates": [ 2736350.0, 8275629.0 ] } },
{ "type": "Feature", "properties": { "osmid": 282550848.0 }, "geometry": { "type": "Point", "coordinates": [ 2764548.0, 8287660.0 ] } },
{ "type": "Feature", "properties": { "osmid": 282556936.0 }, "geometry": { "type": "Point", "coordinates": [ 2769652.0, 8279513.0 ] } },
{ "type": "Feature", "properties": { "osmid": 1037870016.0 }, "geometry": { "type": "Point", "coordinates": [ 2764947.0, 8287347.0 ] } },
{ "type": "Feature", "properties": { "osmid": 795898222.0 }, "geometry": { "type": "Point", "coordinates": [ 2766437.0, 8285812.0 ] } },
{ "type": "Feature", "properties": { "osmid": 10054081780.0 }, "geometry": { "type": "Point", "coordinates": [ 2769599.0, 8280352.0 ] } },
{ "type": "Feature", "properties": { "osmid": 11473139817.0 }, "geometry": { "type": "Point", "coordinates": [ 2743059.0, 8261112.0 ] } },
{ "type": "Feature", "properties": { "osmid": 1038845698.0 }, "geometry": { "type": "Point", "coordinates": [ 2766957.0, 8285435.0 ] } },
{ "type": "Feature", "properties": { "osmid": 3177762110.0 }, "geometry": { "type": "Point", "coordinates": [ 2736248.0, 8277790.0 ] } },
{ "type": "Feature", "properties": { "osmid": 1037870009.0 }, "geometry": { "type": "Point", "coordinates": [ 2765992.0, 8286635.0 ] } },
{ "type": "Feature", "properties": { "osmid": 11800736.0 }, "geometry": { "type": "Point", "coordinates": [ 2770386.0, 8277212.0 ] } },
{ "type": "Feature", "properties": { "osmid": 1037866169.0 }, "geometry": { "type": "Point", "coordinates": [ 2764408.0, 8288225.0 ] } },
{ "type": "Feature", "properties": { "osmid": 7132071490.0 }, "geometry": { "type": "Point", "coordinates": [ 2770127.0, 8279333.0 ] } },
{ "type": "Feature", "properties": { "osmid": 5933862962.0 }, "geometry": { "type": "Point", "coordinates": [ 2763963.0, 8288740.0 ] } },
{ "type": "Feature", "properties": { "osmid": 282551965.0 }, "geometry": { "type": "Point", "coordinates": [ 2765411.0, 8287555.0 ] } },
{ "type": "Feature", "properties": { "osmid": 3127954353.0 }, "geometry": { "type": "Point", "coordinates": [ 2770669.0, 8276800.0 ] } },
{ "type": "Feature", "properties": { "osmid": 1252366428.0 }, "geometry": { "type": "Point", "coordinates": [ 2765865.0, 8287172.0 ] } },
{ "type": "Feature", "properties": { "osmid": 1967398949.0 }, "geometry": { "type": "Point", "coordinates": [ 2766710.0, 8286248.0 ] } },
{ "type": "Feature", "properties": { "osmid": 5292111004.0 }, "geometry": { "type": "Point", "coordinates": [ 2737883.0, 8266359.0 ] } },
{ "type": "Feature", "properties": { "osmid": 777375236.0 }, "geometry": { "type": "Point", "coordinates": [ 2770705.0, 8277663.0 ] } },
{ "type": "Feature", "properties": { "osmid": 1252428289.0 }, "geometry": { "type": "Point", "coordinates": [ 2764964.0, 8288198.0 ] } },
{ "type": "Feature", "properties": { "osmid": 7132005283.0 }, "geometry": { "type": "Point", "coordinates": [ 2770350.0, 8279820.0 ] } },
{ "type": "Feature", "properties": { "osmid": 1477621889.0 }, "geometry": { "type": "Point", "coordinates": [ 2767247.0, 8286060.0 ] } },
{ "type": "Feature", "properties": { "osmid": 8857053778.0 }, "geometry": { "type": "Point", "coordinates": [ 2769260.0, 8282961.0 ] } },
{ "type": "Feature", "properties": { "osmid": 59209269.0 }, "geometry": { "type": "Point", "coordinates": [ 2766601.0, 8286885.0 ] } },
{ "type": "Feature", "properties": { "osmid": 3177762126.0 }, "geometry": { "type": "Point", "coordinates": [ 2735622.0, 8277837.0 ] } },
{ "type": "Feature", "properties": { "osmid": 2152318084.0 }, "geometry": { "type": "Point", "coordinates": [ 2735976.0, 8279604.0 ] } },
{ "type": "Feature", "properties": { "osmid": 5989384168.0 }, "geometry": { "type": "Point", "coordinates": [ 2770774.0, 8278779.0 ] } },
{ "type": "Feature", "properties": { "osmid": 7240884029.0 }, "geometry": { "type": "Point", "coordinates": [ 2771054.0, 8277238.0 ] } },
{ "type": "Feature", "properties": { "osmid": 1037866210.0 }, "geometry": { "type": "Point", "coordinates": [ 2765528.0, 8288096.0 ] } },
{ "type": "Feature", "properties": { "osmid": 2201760256.0 }, "geometry": { "type": "Point", "coordinates": [ 2766173.0, 8287571.0 ] } },
{ "type": "Feature", "properties": { "osmid": 2956427972.0 }, "geometry": { "type": "Point", "coordinates": [ 2771212.0, 8277868.0 ] } },
{ "type": "Feature", "properties": { "osmid": 1070798531.0 }, "geometry": { "type": "Point", "coordinates": [ 2769272.0, 8283660.0 ] } },
{ "type": "Feature", "properties": { "osmid": 4780567962.0 }, "geometry": { "type": "Point", "coordinates": [ 2742374.0, 8260376.0 ] } },
{ "type": "Feature", "properties": { "osmid": 611667541.0 }, "geometry": { "type": "Point", "coordinates": [ 2771430.0, 8276861.0 ] } },
{ "type": "Feature", "properties": { "osmid": 1477621908.0 }, "geometry": { "type": "Point", "coordinates": [ 2767215.0, 8286768.0 ] } },
{ "type": "Feature", "properties": { "osmid": 1485618119.0 }, "geometry": { "type": "Point", "coordinates": [ 2767751.0, 8286141.0 ] } },
{ "type": "Feature", "properties": { "osmid": 36126884.0 }, "geometry": { "type": "Point", "coordinates": [ 2743415.0, 8259466.0 ] } },
{ "type": "Feature", "properties": { "osmid": 8300856359.0 }, "geometry": { "type": "Point", "coordinates": [ 2771607.0, 8276290.0 ] } },
{ "type": "Feature", "properties": { "osmid": 633025552.0 }, "geometry": { "type": "Point", "coordinates": [ 2771166.0, 8279209.0 ] } },
{ "type": "Feature", "properties": { "osmid": 2185761669.0 }, "geometry": { "type": "Point", "coordinates": [ 2766740.0, 8287562.0 ] } },
{ "type": "Feature", "properties": { "osmid": 3861081127.0 }, "geometry": { "type": "Point", "coordinates": [ 2766169.0, 8288157.0 ] } },
{ "type": "Feature", "properties": { "osmid": 633030369.0 }, "geometry": { "type": "Point", "coordinates": [ 2769831.0, 8283135.0 ] } },
{ "type": "Feature", "properties": { "osmid": 6685327969.0 }, "geometry": { "type": "Point", "coordinates": [ 2771425.0, 8278476.0 ] } },
{ "type": "Feature", "properties": { "osmid": 31084352.0 }, "geometry": { "type": "Point", "coordinates": [ 2771624.0, 8277453.0 ] } },
{ "type": "Feature", "properties": { "osmid": 3578461371.0 }, "geometry": { "type": "Point", "coordinates": [ 2769333.0, 8284214.0 ] } },
{ "type": "Feature", "properties": { "osmid": 2201760234.0 }, "geometry": { "type": "Point", "coordinates": [ 2767204.0, 8287286.0 ] } },
{ "type": "Feature", "properties": { "osmid": 282553612.0 }, "geometry": { "type": "Point", "coordinates": [ 2768280.0, 8286025.0 ] } },
{ "type": "Feature", "properties": { "osmid": 958407896.0 }, "geometry": { "type": "Point", "coordinates": [ 2735398.0, 8280360.0 ] } },
{ "type": "Feature", "properties": { "osmid": 1464058355.0 }, "geometry": { "type": "Point", "coordinates": [ 2742539.0, 8259676.0 ] } },
{ "type": "Feature", "properties": { "osmid": 1458076045.0 }, "geometry": { "type": "Point", "coordinates": [ 2767834.0, 8286799.0 ] } },
{ "type": "Feature", "properties": { "osmid": 1070798673.0 }, "geometry": { "type": "Point", "coordinates": [ 2769256.0, 8284843.0 ] } },
{ "type": "Feature", "properties": { "osmid": 1104932399.0 }, "geometry": { "type": "Point", "coordinates": [ 2772049.0, 8275479.0 ] } },
{ "type": "Feature", "properties": { "osmid": 11797540.0 }, "geometry": { "type": "Point", "coordinates": [ 2768777.0, 8285707.0 ] } },
{ "type": "Feature", "properties": { "osmid": 3676007334.0 }, "geometry": { "type": "Point", "coordinates": [ 2772020.0, 8277012.0 ] } },
{ "type": "Feature", "properties": { "osmid": 13094010789.0 }, "geometry": { "type": "Point", "coordinates": [ 2770311.0, 8283314.0 ] } },
{ "type": "Feature", "properties": { "osmid": 1044885650.0 }, "geometry": { "type": "Point", "coordinates": [ 2770005.0, 8283970.0 ] } },
{ "type": "Feature", "properties": { "osmid": 59820131.0 }, "geometry": { "type": "Point", "coordinates": [ 2767911.0, 8287294.0 ] } },
{ "type": "Feature", "properties": { "osmid": 1485618170.0 }, "geometry": { "type": "Point", "coordinates": [ 2768477.0, 8286601.0 ] } },
{ "type": "Feature", "properties": { "osmid": 929287732.0 }, "geometry": { "type": "Point", "coordinates": [ 2770705.0, 8282896.0 ] } },
{ "type": "Feature", "properties": { "osmid": 9214354850.0 }, "geometry": { "type": "Point", "coordinates": [ 2772275.0, 8277447.0 ] } },
{ "type": "Feature", "properties": { "osmid": 282553000.0 }, "geometry": { "type": "Point", "coordinates": [ 2767518.0, 8287888.0 ] } },
{ "type": "Feature", "properties": { "osmid": 1464058365.0 }, "geometry": { "type": "Point", "coordinates": [ 2741954.0, 8259290.0 ] } },
{ "type": "Feature", "properties": { "osmid": 1044885775.0 }, "geometry": { "type": "Point", "coordinates": [ 2769519.0, 8285485.0 ] } },
{ "type": "Feature", "properties": { "osmid": 1044886197.0 }, "geometry": { "type": "Point", "coordinates": [ 2770039.0, 8284725.0 ] } },
{ "type": "Feature", "properties": { "osmid": 947029791.0 }, "geometry": { "type": "Point", "coordinates": [ 2769269.0, 8285983.0 ] } },
{ "type": "Feature", "properties": { "osmid": 11797552.0 }, "geometry": { "type": "Point", "coordinates": [ 2769006.0, 8286449.0 ] } },
{ "type": "Feature", "properties": { "osmid": 9525521903.0 }, "geometry": { "type": "Point", "coordinates": [ 2772425.0, 8278910.0 ] } },
{ "type": "Feature", "properties": { "osmid": 59820137.0 }, "geometry": { "type": "Point", "coordinates": [ 2768421.0, 8287444.0 ] } },
{ "type": "Feature", "properties": { "osmid": 59881353.0 }, "geometry": { "type": "Point", "coordinates": [ 2768105.0, 8287857.0 ] } },
{ "type": "Feature", "properties": { "osmid": 3610701389.0 }, "geometry": { "type": "Point", "coordinates": [ 2768808.0, 8287086.0 ] } },
{ "type": "Feature", "properties": { "osmid": 8145617770.0 }, "geometry": { "type": "Point", "coordinates": [ 2771193.0, 8283151.0 ] } },
{ "type": "Feature", "properties": { "osmid": 1070798751.0 }, "geometry": { "type": "Point", "coordinates": [ 2771012.0, 8283640.0 ] } },
{ "type": "Feature", "properties": { "osmid": 2289744276.0 }, "geometry": { "type": "Point", "coordinates": [ 2770071.0, 8285448.0 ] } },
{ "type": "Feature", "properties": { "osmid": 2242784285.0 }, "geometry": { "type": "Point", "coordinates": [ 2769825.0, 8285907.0 ] } },
{ "type": "Feature", "properties": { "osmid": 11039793130.0 }, "geometry": { "type": "Point", "coordinates": [ 2773086.0, 8276722.0 ] } },
{ "type": "Feature", "properties": { "osmid": 633025611.0 }, "geometry": { "type": "Point", "coordinates": [ 2772447.0, 8280548.0 ] } },
{ "type": "Feature", "properties": { "osmid": 282554264.0 }, "geometry": { "type": "Point", "coordinates": [ 2769475.0, 8286701.0 ] } },
{ "type": "Feature", "properties": { "osmid": 59881329.0 }, "geometry": { "type": "Point", "coordinates": [ 2768938.0, 8287594.0 ] } },
{ "type": "Feature", "properties": { "osmid": 1890203128.0 }, "geometry": { "type": "Point", "coordinates": [ 2773326.0, 8277192.0 ] } },
{ "type": "Feature", "properties": { "osmid": 12063006596.0 }, "geometry": { "type": "Point", "coordinates": [ 2741884.0, 8258214.0 ] } },
{ "type": "Feature", "properties": { "osmid": 6027567884.0 }, "geometry": { "type": "Point", "coordinates": [ 2769396.0, 8287256.0 ] } },
{ "type": "Feature", "properties": { "osmid": 10614246349.0 }, "geometry": { "type": "Point", "coordinates": [ 2740287.0, 8259320.0 ] } },
{ "type": "Feature", "properties": { "osmid": 848783328.0 }, "geometry": { "type": "Point", "coordinates": [ 2772349.0, 8282071.0 ] } },
{ "type": "Feature", "properties": { "osmid": 1450313962.0 }, "geometry": { "type": "Point", "coordinates": [ 2741829.0, 8257628.0 ] } },
{ "type": "Feature", "properties": { "osmid": 11222963430.0 }, "geometry": { "type": "Point", "coordinates": [ 2771242.0, 8285548.0 ] } },
{ "type": "Feature", "properties": { "osmid": 9610393450.0 }, "geometry": { "type": "Point", "coordinates": [ 2770171.0, 8287376.0 ] } },
{ "type": "Feature", "properties": { "osmid": 34633562.0 }, "geometry": { "type": "Point", "coordinates": [ 2740190.0, 8258240.0 ] } },
{ "type": "Feature", "properties": { "osmid": 5914952070.0 }, "geometry": { "type": "Point", "coordinates": [ 2741656.0, 8257056.0 ] } },
{ "type": "Feature", "properties": { "osmid": 11362460620.0 }, "geometry": { "type": "Point", "coordinates": [ 2773134.0, 8283269.0 ] } }
]
}
