{
"type": "FeatureCollection",
"name": "tirana-city_boundary",
"crs": { "type": "name", "properties": { "name": "urn:ogc:def:crs:EPSG::3857" } },
"features": [
{ "type": "Feature", "properties": { "bbox_west": 19.7547343, "bbox_south": 41.2955352, "bbox_east": 19.876438, "bbox_north": 41.365853, "place_id": 402795375, "osm_type": "relation", "osm_id": 1250106, "lat": 41.3281482, "lon": 19.8184435, "class": "boundary", "type": "administrative", "place_rank": 16, "importance": 0.67088886433553019, "addresstype": "city", "name": "Tirana", "display_name": "Tirana, Tirana Municipality, Tirana County, Central Albania, 1001-1028, Albania" }, "geometry": { "type": "Polygon", "coordinates": [ [ [ 2202157.0, 5062059.0 ], [ 2202128.0, 5062072.0 ], [ 2202106.0, 5062082.0 ], [ 2202087.0, 5062090.0 ], [ 2202078.0, 5062094.0 ], [ 2202057.0, 5062104.0 ], [ 2202034.0, 5062114.0 ], [ 2202011.0, 5062124.0 ], [ 2201985.0, 5062136.0 ], [ 2201975.0, 5062140.0 ], [ 2201953.0, 5062148.0 ], [ 2201933.0, 5062155.0 ], [ 2201919.0, 5062160.0 ], [ 2201910.0, 5062163.0 ], [ 2201902.0, 5062166.0 ], [ 2201888.0, 5062170.0 ], [ 2201873.0, 5062175.0 ], [ 2201864.0, 5062176.0 ], [ 2201848.0, 5062178.0 ], [ 2201831.0, 5062179.0 ], [ 2201821.0, 5062178.0 ], [ 2201794.0, 5062173.0 ], [ 2201783.0, 5062171.0 ], [ 2201774.0, 5062174.0 ], [ 2201756.0, 5062178.0 ], [ 2201742.0, 5062182.0 ], [ 2201726.0, 5062186.0 ], [ 2201705.0, 5062192.0 ], [ 2201667.0, 5062201.0 ], [ 2201642.0, 5062199.0 ], [ 2201618.0, 5062192.0 ], [ 2201600.0, 5062187.0 ], [ 2201588.0, 5062189.0 ], [ 2201568.0, 5062193.0 ], [ 2201563.0, 5062202.0 ], [ 2201557.0, 5062214.0 ], [ 2201549.0, 5062229.0 ], [ 2201540.0, 5062245.0 ], [ 2201537.0, 5062251.0 ], [ 2201536.0, 5062255.0 ], [ 2201532.0, 5062261.0 ], [ 2201530.0, 5062265.0 ], [ 2201522.0, 5062282.0 ], [ 2201517.0, 5062294.0 ], [ 2201517.0, 5062307.0 ], [ 2201516.0, 5062331.0 ], [ 2201516.0, 5062371.0 ], [ 2201515.0, 5062414.0 ], [ 2201505.0, 5062441.0 ], [ 2201495.0, 5062469.0 ], [ 2201482.0, 5062481.0 ], [ 2201490.0, 5062500.0 ], [ 2201492.0, 5062504.0 ], [ 2201503.0, 5062517.0 ], [ 2201505.0, 5062523.0 ], [ 2201504.0, 5062529.0 ], [ 2201505.0, 5062536.0 ], [ 2201514.0, 5062554.0 ], [ 2201527.0, 5062584.0 ], [ 2201534.0, 5062598.0 ], [ 2201541.0, 5062613.0 ], [ 2201554.0, 5062639.0 ], [ 2201561.0, 5062648.0 ], [ 2201571.0, 5062665.0 ], [ 2201572.0, 5062674.0 ], [ 2201587.0, 5062703.0 ], [ 2201599.0, 5062728.0 ], [ 2201656.0, 5062847.0 ], [ 2201687.0, 5062910.0 ], [ 2201697.0, 5062930.0 ], [ 2201700.0, 5062936.0 ], [ 2201703.0, 5062942.0 ], [ 2201768.0, 5062912.0 ], [ 2201789.0, 5062959.0 ], [ 2201823.0, 5063035.0 ], [ 2201839.0, 5063071.0 ], [ 2201833.0, 5063078.0 ], [ 2201824.0, 5063088.0 ], [ 2201828.0, 5063096.0 ], [ 2201831.0, 5063106.0 ], [ 2201849.0, 5063150.0 ], [ 2201866.0, 5063192.0 ], [ 2201884.0, 5063234.0 ], [ 2201934.0, 5063345.0 ], [ 2201965.0, 5063416.0 ], [ 2201979.0, 5063449.0 ], [ 2201983.0, 5063457.0 ], [ 2201987.0, 5063465.0 ], [ 2201918.0, 5063499.0 ], [ 2201879.0, 5063520.0 ], [ 2201856.0, 5063533.0 ], [ 2201832.0, 5063548.0 ], [ 2201817.0, 5063557.0 ], [ 2201787.0, 5063575.0 ], [ 2201741.0, 5063603.0 ], [ 2201727.0, 5063612.0 ], [ 2201677.0, 5063647.0 ], [ 2201660.0, 5063658.0 ], [ 2201630.0, 5063681.0 ], [ 2201598.0, 5063705.0 ], [ 2201544.0, 5063745.0 ], [ 2201489.0, 5063787.0 ], [ 2201473.0, 5063800.0 ], [ 2201420.0, 5063841.0 ], [ 2201391.0, 5063864.0 ], [ 2201242.0, 5063977.0 ], [ 2201061.0, 5064116.0 ], [ 2201026.0, 5064143.0 ], [ 2200991.0, 5064168.0 ], [ 2200935.0, 5064209.0 ], [ 2200933.0, 5064212.0 ], [ 2200901.0, 5064236.0 ], [ 2200860.0, 5064267.0 ], [ 2200826.0, 5064292.0 ], [ 2200792.0, 5064319.0 ], [ 2200742.0, 5064357.0 ], [ 2200662.0, 5064419.0 ], [ 2200603.0, 5064460.0 ], [ 2200595.0, 5064466.0 ], [ 2200586.0, 5064472.0 ], [ 2200539.0, 5064499.0 ], [ 2200492.0, 5064522.0 ], [ 2200470.0, 5064531.0 ], [ 2200450.0, 5064539.0 ], [ 2200428.0, 5064548.0 ], [ 2200373.0, 5064564.0 ], [ 2200329.0, 5064578.0 ], [ 2200295.0, 5064587.0 ], [ 2200011.0, 5064667.0 ], [ 2199874.0, 5064707.0 ], [ 2199747.0, 5064745.0 ], [ 2199698.0, 5064758.0 ], [ 2199648.0, 5064772.0 ], [ 2199562.0, 5064798.0 ], [ 2199478.0, 5064822.0 ], [ 2199488.0, 5064862.0 ], [ 2199494.0, 5064886.0 ], [ 2199525.0, 5064927.0 ], [ 2199573.0, 5065077.0 ], [ 2199556.0, 5065081.0 ], [ 2199582.0, 5065164.0 ], [ 2199614.0, 5065158.0 ], [ 2199631.0, 5065247.0 ], [ 2199647.0, 5065244.0 ], [ 2199654.0, 5065279.0 ], [ 2199646.0, 5065281.0 ], [ 2199648.0, 5065292.0 ], [ 2199605.0, 5065301.0 ], [ 2199598.0, 5065311.0 ], [ 2199609.0, 5065409.0 ], [ 2199603.0, 5065410.0 ], [ 2199584.0, 5065432.0 ], [ 2199587.0, 5065474.0 ], [ 2199529.0, 5065481.0 ], [ 2199530.0, 5065487.0 ], [ 2199499.0, 5065490.0 ], [ 2199498.0, 5065481.0 ], [ 2199422.0, 5065471.0 ], [ 2199327.0, 5065498.0 ], [ 2199281.0, 5065518.0 ], [ 2199224.0, 5065540.0 ], [ 2199165.0, 5065561.0 ], [ 2199136.0, 5065564.0 ], [ 2199100.0, 5065562.0 ], [ 2199180.0, 5065850.0 ], [ 2199183.0, 5065853.0 ], [ 2199184.0, 5065857.0 ], [ 2199184.0, 5065861.0 ], [ 2199184.0, 5065864.0 ], [ 2199212.0, 5065965.0 ], [ 2199227.0, 5066021.0 ], [ 2199235.0, 5066050.0 ], [ 2199238.0, 5066052.0 ], [ 2199241.0, 5066056.0 ], [ 2199242.0, 5066060.0 ], [ 2199240.0, 5066063.0 ], [ 2199239.0, 5066068.0 ], [ 2199280.0, 5066232.0 ], [ 2199283.0, 5066232.0 ], [ 2199295.0, 5066287.0 ], [ 2199290.0, 5066289.0 ], [ 2199324.0, 5066374.0 ], [ 2199335.0, 5066408.0 ], [ 2199336.0, 5066412.0 ], [ 2199339.0, 5066414.0 ], [ 2199342.0, 5066417.0 ], [ 2199347.0, 5066417.0 ], [ 2199351.0, 5066416.0 ], [ 2199355.0, 5066414.0 ], [ 2199371.0, 5066383.0 ], [ 2199374.0, 5066379.0 ], [ 2199384.0, 5066372.0 ], [ 2199404.0, 5066398.0 ], [ 2199408.0, 5066405.0 ], [ 2199410.0, 5066456.0 ], [ 2199488.0, 5066448.0 ], [ 2199499.0, 5066440.0 ], [ 2199572.0, 5066433.0 ], [ 2199565.0, 5066395.0 ], [ 2199530.0, 5066329.0 ], [ 2199519.0, 5066276.0 ], [ 2199525.0, 5066231.0 ], [ 2199542.0, 5066201.0 ], [ 2199563.0, 5066161.0 ], [ 2199596.0, 5066140.0 ], [ 2199637.0, 5066096.0 ], [ 2199659.0, 5066069.0 ], [ 2199712.0, 5065998.0 ], [ 2199761.0, 5065950.0 ], [ 2199878.0, 5065762.0 ], [ 2200132.0, 5065892.0 ], [ 2200131.0, 5065894.0 ], [ 2200161.0, 5065910.0 ], [ 2200170.0, 5065914.0 ], [ 2200197.0, 5065919.0 ], [ 2200175.0, 5066035.0 ], [ 2200101.0, 5066026.0 ], [ 2200061.0, 5066091.0 ], [ 2200086.0, 5066106.0 ], [ 2200109.0, 5066155.0 ], [ 2200133.0, 5066170.0 ], [ 2200180.0, 5066171.0 ], [ 2200216.0, 5066177.0 ], [ 2200242.0, 5066134.0 ], [ 2200285.0, 5066161.0 ], [ 2200326.0, 5066200.0 ], [ 2200413.0, 5066162.0 ], [ 2200431.0, 5066155.0 ], [ 2200452.0, 5066153.0 ], [ 2200477.0, 5066150.0 ], [ 2200498.0, 5066146.0 ], [ 2200531.0, 5066141.0 ], [ 2200532.0, 5066137.0 ], [ 2200542.0, 5066142.0 ], [ 2200548.0, 5066184.0 ], [ 2200562.0, 5066230.0 ], [ 2200568.0, 5066227.0 ], [ 2200571.0, 5066230.0 ], [ 2200580.0, 5066221.0 ], [ 2200619.0, 5066258.0 ], [ 2200626.0, 5066265.0 ], [ 2200662.0, 5066259.0 ], [ 2200703.0, 5066264.0 ], [ 2200739.0, 5066274.0 ], [ 2200837.0, 5066168.0 ], [ 2200864.0, 5066168.0 ], [ 2200926.0, 5066180.0 ], [ 2200937.0, 5066151.0 ], [ 2200960.0, 5066069.0 ], [ 2200969.0, 5065997.0 ], [ 2200972.0, 5065961.0 ], [ 2200977.0, 5065911.0 ], [ 2200981.0, 5065869.0 ], [ 2200985.0, 5065837.0 ], [ 2201006.0, 5065776.0 ], [ 2201020.0, 5065780.0 ], [ 2201032.0, 5065783.0 ], [ 2201040.0, 5065783.0 ], [ 2201054.0, 5065788.0 ], [ 2201074.0, 5065788.0 ], [ 2201099.0, 5065784.0 ], [ 2201124.0, 5065788.0 ], [ 2201149.0, 5065797.0 ], [ 2201182.0, 5065805.0 ], [ 2201226.0, 5065816.0 ], [ 2201267.0, 5065828.0 ], [ 2201306.0, 5065841.0 ], [ 2201349.0, 5065857.0 ], [ 2201401.0, 5065875.0 ], [ 2201461.0, 5065895.0 ], [ 2201513.0, 5065908.0 ], [ 2201568.0, 5065924.0 ], [ 2201670.0, 5065955.0 ], [ 2201678.0, 5065968.0 ], [ 2201684.0, 5065985.0 ], [ 2201688.0, 5066012.0 ], [ 2201691.0, 5066050.0 ], [ 2201699.0, 5066072.0 ], [ 2201719.0, 5066115.0 ], [ 2201731.0, 5066137.0 ], [ 2201753.0, 5066193.0 ], [ 2201764.0, 5066192.0 ], [ 2201766.0, 5066183.0 ], [ 2201773.0, 5066176.0 ], [ 2201836.0, 5066126.0 ], [ 2201865.0, 5066092.0 ], [ 2201924.0, 5066023.0 ], [ 2201934.0, 5065998.0 ], [ 2201946.0, 5065941.0 ], [ 2201957.0, 5065898.0 ], [ 2201961.0, 5065876.0 ], [ 2201961.0, 5065841.0 ], [ 2201951.0, 5065833.0 ], [ 2201962.0, 5065802.0 ], [ 2201979.0, 5065778.0 ], [ 2201991.0, 5065768.0 ], [ 2201991.0, 5065757.0 ], [ 2201989.0, 5065682.0 ], [ 2201984.0, 5065646.0 ], [ 2201981.0, 5065628.0 ], [ 2201981.0, 5065587.0 ], [ 2201975.0, 5065559.0 ], [ 2201967.0, 5065539.0 ], [ 2201958.0, 5065529.0 ], [ 2201947.0, 5065525.0 ], [ 2201941.0, 5065523.0 ], [ 2201937.0, 5065518.0 ], [ 2201935.0, 5065497.0 ], [ 2201998.0, 5065489.0 ], [ 2202007.0, 5065491.0 ], [ 2202017.0, 5065495.0 ], [ 2202028.0, 5065502.0 ], [ 2202042.0, 5065509.0 ], [ 2202085.0, 5065470.0 ], [ 2202116.0, 5065439.0 ], [ 2202098.0, 5065419.0 ], [ 2202070.0, 5065372.0 ], [ 2202049.0, 5065339.0 ], [ 2202025.0, 5065308.0 ], [ 2201936.0, 5065242.0 ], [ 2201896.0, 5065220.0 ], [ 2201833.0, 5065194.0 ], [ 2201756.0, 5065176.0 ], [ 2201730.0, 5065172.0 ], [ 2201724.0, 5065176.0 ], [ 2201708.0, 5065192.0 ], [ 2201689.0, 5065173.0 ], [ 2201622.0, 5065121.0 ], [ 2201655.0, 5065074.0 ], [ 2201663.0, 5065057.0 ], [ 2201675.0, 5065034.0 ], [ 2201722.0, 5064945.0 ], [ 2201736.0, 5064939.0 ], [ 2201753.0, 5064921.0 ], [ 2201760.0, 5064914.0 ], [ 2201877.0, 5064826.0 ], [ 2201878.0, 5064819.0 ], [ 2201886.0, 5064813.0 ], [ 2201889.0, 5064817.0 ], [ 2201946.0, 5064782.0 ], [ 2201992.0, 5064739.0 ], [ 2201837.0, 5064561.0 ], [ 2201793.0, 5064574.0 ], [ 2201653.0, 5064427.0 ], [ 2201625.0, 5064391.0 ], [ 2201588.0, 5064355.0 ], [ 2201514.0, 5064295.0 ], [ 2201608.0, 5064274.0 ], [ 2201662.0, 5064234.0 ], [ 2201716.0, 5064204.0 ], [ 2201822.0, 5064156.0 ], [ 2201851.0, 5064127.0 ], [ 2201885.0, 5064104.0 ], [ 2201954.0, 5064064.0 ], [ 2202047.0, 5064037.0 ], [ 2202112.0, 5064023.0 ], [ 2202183.0, 5064036.0 ], [ 2202241.0, 5064066.0 ], [ 2202246.0, 5064090.0 ], [ 2202234.0, 5064110.0 ], [ 2202241.0, 5064135.0 ], [ 2202279.0, 5064146.0 ], [ 2202330.0, 5064125.0 ], [ 2202416.0, 5064115.0 ], [ 2202485.0, 5064079.0 ], [ 2202551.0, 5064065.0 ], [ 2202611.0, 5064037.0 ], [ 2202776.0, 5064030.0 ], [ 2202853.0, 5064040.0 ], [ 2203037.0, 5064067.0 ], [ 2203078.0, 5064040.0 ], [ 2203210.0, 5063926.0 ], [ 2203344.0, 5063917.0 ], [ 2203488.0, 5063873.0 ], [ 2203615.0, 5063831.0 ], [ 2203750.0, 5063841.0 ], [ 2203783.0, 5063850.0 ], [ 2203892.0, 5063882.0 ], [ 2203979.0, 5063925.0 ], [ 2204021.0, 5063968.0 ], [ 2204040.0, 5063987.0 ], [ 2204058.0, 5064051.0 ], [ 2204084.0, 5064117.0 ], [ 2204125.0, 5064144.0 ], [ 2204196.0, 5064156.0 ], [ 2204256.0, 5064153.0 ], [ 2204283.0, 5064137.0 ], [ 2204350.0, 5064127.0 ], [ 2204383.0, 5064133.0 ], [ 2204426.0, 5064154.0 ], [ 2204508.0, 5064179.0 ], [ 2204636.0, 5064225.0 ], [ 2204792.0, 5064251.0 ], [ 2205012.0, 5064299.0 ], [ 2205063.0, 5064313.0 ], [ 2205130.0, 5064341.0 ], [ 2205258.0, 5064399.0 ], [ 2205338.0, 5064418.0 ], [ 2205464.0, 5064414.0 ], [ 2205543.0, 5064403.0 ], [ 2205566.0, 5064413.0 ], [ 2205624.0, 5064431.0 ], [ 2205653.0, 5064413.0 ], [ 2205738.0, 5064349.0 ], [ 2205904.0, 5064334.0 ], [ 2205954.0, 5064307.0 ], [ 2205991.0, 5064278.0 ], [ 2206116.0, 5064205.0 ], [ 2206225.0, 5064176.0 ], [ 2206340.0, 5064206.0 ], [ 2206427.0, 5064256.0 ], [ 2206530.0, 5064334.0 ], [ 2206610.0, 5064363.0 ], [ 2206653.0, 5064367.0 ], [ 2206744.0, 5064357.0 ], [ 2206939.0, 5064336.0 ], [ 2207065.0, 5064317.0 ], [ 2207136.0, 5064329.0 ], [ 2207245.0, 5064365.0 ], [ 2207356.0, 5064391.0 ], [ 2207490.0, 5064393.0 ], [ 2207563.0, 5064388.0 ], [ 2207668.0, 5064386.0 ], [ 2207747.0, 5064374.0 ], [ 2207872.0, 5064377.0 ], [ 2207955.0, 5064399.0 ], [ 2208032.0, 5064437.0 ], [ 2208088.0, 5064477.0 ], [ 2208138.0, 5064504.0 ], [ 2208338.0, 5064639.0 ], [ 2208376.0, 5064660.0 ], [ 2208467.0, 5064711.0 ], [ 2208515.0, 5064711.0 ], [ 2208590.0, 5064726.0 ], [ 2208717.0, 5064750.0 ], [ 2208753.0, 5064766.0 ], [ 2208779.0, 5064800.0 ], [ 2208838.0, 5064858.0 ], [ 2208900.0, 5064932.0 ], [ 2208929.0, 5064953.0 ], [ 2209010.0, 5064997.0 ], [ 2209045.0, 5065031.0 ], [ 2209097.0, 5065101.0 ], [ 2209135.0, 5065158.0 ], [ 2209173.0, 5065235.0 ], [ 2209204.0, 5065302.0 ], [ 2209299.0, 5065407.0 ], [ 2209388.0, 5065463.0 ], [ 2209393.0, 5065447.0 ], [ 2209491.0, 5065362.0 ], [ 2209497.0, 5065357.0 ], [ 2209501.0, 5065355.0 ], [ 2209505.0, 5065358.0 ], [ 2209521.0, 5065375.0 ], [ 2209548.0, 5065399.0 ], [ 2209576.0, 5065422.0 ], [ 2209588.0, 5065433.0 ], [ 2209604.0, 5065447.0 ], [ 2209632.0, 5065470.0 ], [ 2209667.0, 5065498.0 ], [ 2209683.0, 5065511.0 ], [ 2209697.0, 5065523.0 ], [ 2209725.0, 5065543.0 ], [ 2209754.0, 5065567.0 ], [ 2209797.0, 5065600.0 ], [ 2209830.0, 5065550.0 ], [ 2209841.0, 5065533.0 ], [ 2209852.0, 5065504.0 ], [ 2209851.0, 5065479.0 ], [ 2209844.0, 5065457.0 ], [ 2209868.0, 5065445.0 ], [ 2209877.0, 5065440.0 ], [ 2209899.0, 5065437.0 ], [ 2209932.0, 5065442.0 ], [ 2209949.0, 5065451.0 ], [ 2209967.0, 5065461.0 ], [ 2210001.0, 5065465.0 ], [ 2210050.0, 5065462.0 ], [ 2210121.0, 5065459.0 ], [ 2210173.0, 5065456.0 ], [ 2210193.0, 5065447.0 ], [ 2210213.0, 5065434.0 ], [ 2210234.0, 5065402.0 ], [ 2210256.0, 5065370.0 ], [ 2210284.0, 5065365.0 ], [ 2210310.0, 5065361.0 ], [ 2210339.0, 5065359.0 ], [ 2210369.0, 5065358.0 ], [ 2210342.0, 5065286.0 ], [ 2210371.0, 5065271.0 ], [ 2210354.0, 5065219.0 ], [ 2210301.0, 5065232.0 ], [ 2210304.0, 5065198.0 ], [ 2210303.0, 5065161.0 ], [ 2210304.0, 5065142.0 ], [ 2210291.0, 5065121.0 ], [ 2210273.0, 5065102.0 ], [ 2210260.0, 5065095.0 ], [ 2210242.0, 5065027.0 ], [ 2210234.0, 5065004.0 ], [ 2210233.0, 5064984.0 ], [ 2210243.0, 5064964.0 ], [ 2210256.0, 5064955.0 ], [ 2210259.0, 5064946.0 ], [ 2210264.0, 5064937.0 ], [ 2210268.0, 5064928.0 ], [ 2210277.0, 5064894.0 ], [ 2210281.0, 5064882.0 ], [ 2210278.0, 5064849.0 ], [ 2210251.0, 5064797.0 ], [ 2210238.0, 5064773.0 ], [ 2210307.0, 5064730.0 ], [ 2210340.0, 5064697.0 ], [ 2210394.0, 5064684.0 ], [ 2210404.0, 5064586.0 ], [ 2210409.0, 5064576.0 ], [ 2210450.0, 5064568.0 ], [ 2210482.0, 5064559.0 ], [ 2210505.0, 5064523.0 ], [ 2210530.0, 5064498.0 ], [ 2210555.0, 5064466.0 ], [ 2210561.0, 5064430.0 ], [ 2210568.0, 5064385.0 ], [ 2210563.0, 5064352.0 ], [ 2210517.0, 5064366.0 ], [ 2210454.0, 5064386.0 ], [ 2210412.0, 5064400.0 ], [ 2210366.0, 5064415.0 ], [ 2210338.0, 5064424.0 ], [ 2210309.0, 5064432.0 ], [ 2210281.0, 5064440.0 ], [ 2210264.0, 5064440.0 ], [ 2210248.0, 5064425.0 ], [ 2210230.0, 5064408.0 ], [ 2210215.0, 5064401.0 ], [ 2210151.0, 5064375.0 ], [ 2210124.0, 5064360.0 ], [ 2210099.0, 5064338.0 ], [ 2210084.0, 5064333.0 ], [ 2210042.0, 5064326.0 ], [ 2210018.0, 5064319.0 ], [ 2209997.0, 5064318.0 ], [ 2210000.0, 5064236.0 ], [ 2209999.0, 5064161.0 ], [ 2209998.0, 5064134.0 ], [ 2209998.0, 5064089.0 ], [ 2209997.0, 5064062.0 ], [ 2209998.0, 5064037.0 ], [ 2209988.0, 5064042.0 ], [ 2209960.0, 5064045.0 ], [ 2209938.0, 5064044.0 ], [ 2209914.0, 5064049.0 ], [ 2209891.0, 5064053.0 ], [ 2209860.0, 5064048.0 ], [ 2209857.0, 5064042.0 ], [ 2209857.0, 5063968.0 ], [ 2209858.0, 5063897.0 ], [ 2209865.0, 5063869.0 ], [ 2209914.0, 5063831.0 ], [ 2209967.0, 5063787.0 ], [ 2210000.0, 5063757.0 ], [ 2210028.0, 5063723.0 ], [ 2210056.0, 5063667.0 ], [ 2210072.0, 5063635.0 ], [ 2210093.0, 5063598.0 ], [ 2210103.0, 5063579.0 ], [ 2210113.0, 5063568.0 ], [ 2210112.0, 5063566.0 ], [ 2210117.0, 5063563.0 ], [ 2210132.0, 5063545.0 ], [ 2210141.0, 5063540.0 ], [ 2210145.0, 5063527.0 ], [ 2210154.0, 5063528.0 ], [ 2210156.0, 5063528.0 ], [ 2210177.0, 5063530.0 ], [ 2210182.0, 5063507.0 ], [ 2210200.0, 5063421.0 ], [ 2210206.0, 5063399.0 ], [ 2210202.0, 5063385.0 ], [ 2210196.0, 5063361.0 ], [ 2210197.0, 5063357.0 ], [ 2210197.0, 5063333.0 ], [ 2210205.0, 5063297.0 ], [ 2210214.0, 5063273.0 ], [ 2210207.0, 5063259.0 ], [ 2210202.0, 5063251.0 ], [ 2210201.0, 5063242.0 ], [ 2210214.0, 5063232.0 ], [ 2210255.0, 5063207.0 ], [ 2210271.0, 5063193.0 ], [ 2210293.0, 5063170.0 ], [ 2210305.0, 5063155.0 ], [ 2210306.0, 5063144.0 ], [ 2210314.0, 5063121.0 ], [ 2210324.0, 5063107.0 ], [ 2210331.0, 5063094.0 ], [ 2210350.0, 5063073.0 ], [ 2210398.0, 5062999.0 ], [ 2210407.0, 5062985.0 ], [ 2210425.0, 5062958.0 ], [ 2210444.0, 5062932.0 ], [ 2210499.0, 5062856.0 ], [ 2210548.0, 5062788.0 ], [ 2210607.0, 5062703.0 ], [ 2210670.0, 5062611.0 ], [ 2210806.0, 5062574.0 ], [ 2210922.0, 5062553.0 ], [ 2211049.0, 5062536.0 ], [ 2211085.0, 5062531.0 ], [ 2211157.0, 5062542.0 ], [ 2211197.0, 5062555.0 ], [ 2211196.0, 5062533.0 ], [ 2211273.0, 5062544.0 ], [ 2211282.0, 5062468.0 ], [ 2211323.0, 5062309.0 ], [ 2211512.0, 5062236.0 ], [ 2211556.0, 5062250.0 ], [ 2211619.0, 5062279.0 ], [ 2211656.0, 5062291.0 ], [ 2211675.0, 5062295.0 ], [ 2211712.0, 5062285.0 ], [ 2211728.0, 5062283.0 ], [ 2211738.0, 5062294.0 ], [ 2211744.0, 5062305.0 ], [ 2211749.0, 5062318.0 ], [ 2211750.0, 5062334.0 ], [ 2211744.0, 5062351.0 ], [ 2211770.0, 5062396.0 ], [ 2211827.0, 5062409.0 ], [ 2211856.0, 5062426.0 ], [ 2211917.0, 5062447.0 ], [ 2211952.0, 5062445.0 ], [ 2212033.0, 5062398.0 ], [ 2212074.0, 5062383.0 ], [ 2212124.0, 5062373.0 ], [ 2212154.0, 5062328.0 ], [ 2212157.0, 5062327.0 ], [ 2212210.0, 5062316.0 ], [ 2212207.0, 5062062.0 ], [ 2212206.0, 5062038.0 ], [ 2212268.0, 5062033.0 ], [ 2212401.0, 5062019.0 ], [ 2212455.0, 5062008.0 ], [ 2212480.0, 5061999.0 ], [ 2212495.0, 5061988.0 ], [ 2212509.0, 5061972.0 ], [ 2212522.0, 5061954.0 ], [ 2212527.0, 5061916.0 ], [ 2212525.0, 5061864.0 ], [ 2212496.0, 5061724.0 ], [ 2212515.0, 5061692.0 ], [ 2212513.0, 5061680.0 ], [ 2212528.0, 5061662.0 ], [ 2212547.0, 5061646.0 ], [ 2212557.0, 5061634.0 ], [ 2212567.0, 5061618.0 ], [ 2212570.0, 5061609.0 ], [ 2212574.0, 5061590.0 ], [ 2212572.0, 5061578.0 ], [ 2212553.0, 5061575.0 ], [ 2212602.0, 5061529.0 ], [ 2212596.0, 5061500.0 ], [ 2212574.0, 5061456.0 ], [ 2212584.0, 5061403.0 ], [ 2212606.0, 5061353.0 ], [ 2212635.0, 5061326.0 ], [ 2212537.0, 5061202.0 ], [ 2212512.0, 5061220.0 ], [ 2212505.0, 5061225.0 ], [ 2212498.0, 5061228.0 ], [ 2212490.0, 5061227.0 ], [ 2212451.0, 5061210.0 ], [ 2212230.0, 5061295.0 ], [ 2212178.0, 5061290.0 ], [ 2212167.0, 5061285.0 ], [ 2212155.0, 5061259.0 ], [ 2212145.0, 5061238.0 ], [ 2212134.0, 5061185.0 ], [ 2212131.0, 5061180.0 ], [ 2212077.0, 5061163.0 ], [ 2212044.0, 5061157.0 ], [ 2212001.0, 5061167.0 ], [ 2211859.0, 5061199.0 ], [ 2211823.0, 5061213.0 ], [ 2211781.0, 5061222.0 ], [ 2211761.0, 5061223.0 ], [ 2211620.0, 5061247.0 ], [ 2211605.0, 5061256.0 ], [ 2211540.0, 5061270.0 ], [ 2211530.0, 5061257.0 ], [ 2211529.0, 5061231.0 ], [ 2211525.0, 5061128.0 ], [ 2211520.0, 5061082.0 ], [ 2211498.0, 5061037.0 ], [ 2211473.0, 5060995.0 ], [ 2211452.0, 5060960.0 ], [ 2211451.0, 5060931.0 ], [ 2211414.0, 5060921.0 ], [ 2211417.0, 5060879.0 ], [ 2211362.0, 5060863.0 ], [ 2211358.0, 5060829.0 ], [ 2211399.0, 5060771.0 ], [ 2211380.0, 5060676.0 ], [ 2211412.0, 5060657.0 ], [ 2211402.0, 5060641.0 ], [ 2211368.0, 5060644.0 ], [ 2211319.0, 5060660.0 ], [ 2211289.0, 5060672.0 ], [ 2211241.0, 5060573.0 ], [ 2211175.0, 5060501.0 ], [ 2211149.0, 5060462.0 ], [ 2210989.0, 5060462.0 ], [ 2210887.0, 5060340.0 ], [ 2210811.0, 5060257.0 ], [ 2210779.0, 5060224.0 ], [ 2210745.0, 5060191.0 ], [ 2210768.0, 5060119.0 ], [ 2210739.0, 5060054.0 ], [ 2210711.0, 5060001.0 ], [ 2210614.0, 5059892.0 ], [ 2210598.0, 5059864.0 ], [ 2210589.0, 5059858.0 ], [ 2210568.0, 5059858.0 ], [ 2210550.0, 5059856.0 ], [ 2210531.0, 5059855.0 ], [ 2210508.0, 5059848.0 ], [ 2210453.0, 5059828.0 ], [ 2210402.0, 5059805.0 ], [ 2210340.0, 5059785.0 ], [ 2210320.0, 5059781.0 ], [ 2210304.0, 5059779.0 ], [ 2210290.0, 5059776.0 ], [ 2210261.0, 5059763.0 ], [ 2210238.0, 5059755.0 ], [ 2210239.0, 5059739.0 ], [ 2210253.0, 5059716.0 ], [ 2210256.0, 5059699.0 ], [ 2210279.0, 5059666.0 ], [ 2210295.0, 5059628.0 ], [ 2210339.0, 5059553.0 ], [ 2210346.0, 5059541.0 ], [ 2210356.0, 5059520.0 ], [ 2210366.0, 5059512.0 ], [ 2210333.0, 5059474.0 ], [ 2210304.0, 5059448.0 ], [ 2210284.0, 5059429.0 ], [ 2210269.0, 5059411.0 ], [ 2210252.0, 5059404.0 ], [ 2210218.0, 5059393.0 ], [ 2210192.0, 5059390.0 ], [ 2210177.0, 5059381.0 ], [ 2210162.0, 5059376.0 ], [ 2210153.0, 5059367.0 ], [ 2210145.0, 5059362.0 ], [ 2210133.0, 5059346.0 ], [ 2210118.0, 5059332.0 ], [ 2210095.0, 5059316.0 ], [ 2210069.0, 5059302.0 ], [ 2210038.0, 5059283.0 ], [ 2209991.0, 5059250.0 ], [ 2209945.0, 5059225.0 ], [ 2209887.0, 5059189.0 ], [ 2209837.0, 5059167.0 ], [ 2209714.0, 5059106.0 ], [ 2209602.0, 5059060.0 ], [ 2209553.0, 5059048.0 ], [ 2209538.0, 5059036.0 ], [ 2209533.0, 5059011.0 ], [ 2209513.0, 5058975.0 ], [ 2209494.0, 5058947.0 ], [ 2209448.0, 5058923.0 ], [ 2209413.0, 5058897.0 ], [ 2209382.0, 5058879.0 ], [ 2209364.0, 5058859.0 ], [ 2209342.0, 5058844.0 ], [ 2209316.0, 5058823.0 ], [ 2209289.0, 5058808.0 ], [ 2209260.0, 5058791.0 ], [ 2209243.0, 5058787.0 ], [ 2209219.0, 5058780.0 ], [ 2209173.0, 5058768.0 ], [ 2209167.0, 5058702.0 ], [ 2209137.0, 5058698.0 ], [ 2209125.0, 5058681.0 ], [ 2209117.0, 5058655.0 ], [ 2209111.0, 5058634.0 ], [ 2209103.0, 5058600.0 ], [ 2209095.0, 5058571.0 ], [ 2209077.0, 5058533.0 ], [ 2209086.0, 5058518.0 ], [ 2209090.0, 5058489.0 ], [ 2209105.0, 5058459.0 ], [ 2209119.0, 5058437.0 ], [ 2209133.0, 5058422.0 ], [ 2209146.0, 5058425.0 ], [ 2209160.0, 5058420.0 ], [ 2209174.0, 5058409.0 ], [ 2209191.0, 5058385.0 ], [ 2209206.0, 5058346.0 ], [ 2209223.0, 5058300.0 ], [ 2209255.0, 5058251.0 ], [ 2209279.0, 5058195.0 ], [ 2209298.0, 5058133.0 ], [ 2209310.0, 5058047.0 ], [ 2209317.0, 5058004.0 ], [ 2209333.0, 5057959.0 ], [ 2209348.0, 5057933.0 ], [ 2209371.0, 5057918.0 ], [ 2209385.0, 5057880.0 ], [ 2209403.0, 5057818.0 ], [ 2209412.0, 5057780.0 ], [ 2209420.0, 5057742.0 ], [ 2209434.0, 5057715.0 ], [ 2209450.0, 5057668.0 ], [ 2209454.0, 5057625.0 ], [ 2209462.0, 5057581.0 ], [ 2209466.0, 5057542.0 ], [ 2209483.0, 5057499.0 ], [ 2209497.0, 5057483.0 ], [ 2209510.0, 5057473.0 ], [ 2209519.0, 5057462.0 ], [ 2209533.0, 5057443.0 ], [ 2209535.0, 5057427.0 ], [ 2209540.0, 5057394.0 ], [ 2209540.0, 5057366.0 ], [ 2209541.0, 5057322.0 ], [ 2209559.0, 5057298.0 ], [ 2209608.0, 5057327.0 ], [ 2209668.0, 5057225.0 ], [ 2209653.0, 5057222.0 ], [ 2209652.0, 5057212.0 ], [ 2209650.0, 5057195.0 ], [ 2209649.0, 5057180.0 ], [ 2209638.0, 5057169.0 ], [ 2209630.0, 5057156.0 ], [ 2209628.0, 5057155.0 ], [ 2209621.0, 5057149.0 ], [ 2209620.0, 5057142.0 ], [ 2209623.0, 5057131.0 ], [ 2209633.0, 5057117.0 ], [ 2209645.0, 5057101.0 ], [ 2209661.0, 5057086.0 ], [ 2209671.0, 5057074.0 ], [ 2209674.0, 5057070.0 ], [ 2209679.0, 5057058.0 ], [ 2209683.0, 5057049.0 ], [ 2209687.0, 5057023.0 ], [ 2209690.0, 5056990.0 ], [ 2209691.0, 5056985.0 ], [ 2209696.0, 5056976.0 ], [ 2209700.0, 5056970.0 ], [ 2209704.0, 5056966.0 ], [ 2209710.0, 5056963.0 ], [ 2209721.0, 5056959.0 ], [ 2209732.0, 5056958.0 ], [ 2209738.0, 5056956.0 ], [ 2209760.0, 5056954.0 ], [ 2209767.0, 5056953.0 ], [ 2209772.0, 5056951.0 ], [ 2209778.0, 5056948.0 ], [ 2209783.0, 5056946.0 ], [ 2209787.0, 5056942.0 ], [ 2209793.0, 5056935.0 ], [ 2209799.0, 5056925.0 ], [ 2209803.0, 5056901.0 ], [ 2209806.0, 5056840.0 ], [ 2209806.0, 5056802.0 ], [ 2209805.0, 5056788.0 ], [ 2209800.0, 5056759.0 ], [ 2209792.0, 5056736.0 ], [ 2209777.0, 5056705.0 ], [ 2209766.0, 5056684.0 ], [ 2209760.0, 5056676.0 ], [ 2209742.0, 5056657.0 ], [ 2209704.0, 5056625.0 ], [ 2209745.0, 5056583.0 ], [ 2209713.0, 5056559.0 ], [ 2209687.0, 5056539.0 ], [ 2209665.0, 5056520.0 ], [ 2209654.0, 5056507.0 ], [ 2209651.0, 5056503.0 ], [ 2209648.0, 5056501.0 ], [ 2209629.0, 5056494.0 ], [ 2209617.0, 5056489.0 ], [ 2209623.0, 5056464.0 ], [ 2209638.0, 5056411.0 ], [ 2209659.0, 5056349.0 ], [ 2209666.0, 5056320.0 ], [ 2209587.0, 5056286.0 ], [ 2209520.0, 5056257.0 ], [ 2209485.0, 5056242.0 ], [ 2209361.0, 5056186.0 ], [ 2209297.0, 5056154.0 ], [ 2209260.0, 5056137.0 ], [ 2209249.0, 5056130.0 ], [ 2209243.0, 5056126.0 ], [ 2209240.0, 5056120.0 ], [ 2209230.0, 5056104.0 ], [ 2209217.0, 5056082.0 ], [ 2209212.0, 5056066.0 ], [ 2209211.0, 5056060.0 ], [ 2209211.0, 5056053.0 ], [ 2209215.0, 5056039.0 ], [ 2209209.0, 5056039.0 ], [ 2209163.0, 5056044.0 ], [ 2209026.0, 5056079.0 ], [ 2208990.0, 5056103.0 ], [ 2208950.0, 5056157.0 ], [ 2208927.0, 5056187.0 ], [ 2208893.0, 5056229.0 ], [ 2208875.0, 5056254.0 ], [ 2208855.0, 5056254.0 ], [ 2208807.0, 5056260.0 ], [ 2208752.0, 5056280.0 ], [ 2208692.0, 5056302.0 ], [ 2208656.0, 5056317.0 ], [ 2208607.0, 5056322.0 ], [ 2208570.0, 5056348.0 ], [ 2208520.0, 5056376.0 ], [ 2208476.0, 5056383.0 ], [ 2208446.0, 5056381.0 ], [ 2208395.0, 5056380.0 ], [ 2208351.0, 5056374.0 ], [ 2208296.0, 5056372.0 ], [ 2208242.0, 5056353.0 ], [ 2208201.0, 5056342.0 ], [ 2208173.0, 5056339.0 ], [ 2208112.0, 5056300.0 ], [ 2208071.0, 5056282.0 ], [ 2208031.0, 5056259.0 ], [ 2208003.0, 5056256.0 ], [ 2207969.0, 5056239.0 ], [ 2207937.0, 5056222.0 ], [ 2207907.0, 5056214.0 ], [ 2207872.0, 5056208.0 ], [ 2207828.0, 5056203.0 ], [ 2207787.0, 5056192.0 ], [ 2207749.0, 5056170.0 ], [ 2207719.0, 5056157.0 ], [ 2207709.0, 5056126.0 ], [ 2207692.0, 5056106.0 ], [ 2207662.0, 5056072.0 ], [ 2207620.0, 5056052.0 ], [ 2207578.0, 5056043.0 ], [ 2207536.0, 5056041.0 ], [ 2207501.0, 5056042.0 ], [ 2207468.0, 5056031.0 ], [ 2207454.0, 5056044.0 ], [ 2207417.0, 5056053.0 ], [ 2207383.0, 5056072.0 ], [ 2207343.0, 5056088.0 ], [ 2207363.0, 5056111.0 ], [ 2207367.0, 5056127.0 ], [ 2207372.0, 5056145.0 ], [ 2207369.0, 5056162.0 ], [ 2207351.0, 5056171.0 ], [ 2207332.0, 5056186.0 ], [ 2207306.0, 5056189.0 ], [ 2207297.0, 5056220.0 ], [ 2207285.0, 5056242.0 ], [ 2207284.0, 5056253.0 ], [ 2207279.0, 5056269.0 ], [ 2207152.0, 5056330.0 ], [ 2207175.0, 5056383.0 ], [ 2207099.0, 5056428.0 ], [ 2207039.0, 5056453.0 ], [ 2206967.0, 5056461.0 ], [ 2206915.0, 5056436.0 ], [ 2206929.0, 5056572.0 ], [ 2206963.0, 5056590.0 ], [ 2206987.0, 5056610.0 ], [ 2207025.0, 5056634.0 ], [ 2207027.0, 5056673.0 ], [ 2207013.0, 5056726.0 ], [ 2206977.0, 5056783.0 ], [ 2206975.0, 5056835.0 ], [ 2206962.0, 5056913.0 ], [ 2206940.0, 5056956.0 ], [ 2206913.0, 5056981.0 ], [ 2206893.0, 5057017.0 ], [ 2206930.0, 5057051.0 ], [ 2206912.0, 5057095.0 ], [ 2206899.0, 5057135.0 ], [ 2206860.0, 5057220.0 ], [ 2206805.0, 5057325.0 ], [ 2206751.0, 5057414.0 ], [ 2206724.0, 5057448.0 ], [ 2206679.0, 5057479.0 ], [ 2206653.0, 5057468.0 ], [ 2206633.0, 5057434.0 ], [ 2206592.0, 5057401.0 ], [ 2206546.0, 5057389.0 ], [ 2206503.0, 5057384.0 ], [ 2206458.0, 5057407.0 ], [ 2206422.0, 5057455.0 ], [ 2206389.0, 5057471.0 ], [ 2206368.0, 5057462.0 ], [ 2206339.0, 5057424.0 ], [ 2206323.0, 5057366.0 ], [ 2206304.0, 5057312.0 ], [ 2206264.0, 5057249.0 ], [ 2206223.0, 5057235.0 ], [ 2206155.0, 5057241.0 ], [ 2206114.0, 5057264.0 ], [ 2206110.0, 5057295.0 ], [ 2206099.0, 5057356.0 ], [ 2206085.0, 5057427.0 ], [ 2205993.0, 5057429.0 ], [ 2205872.0, 5057465.0 ], [ 2205845.0, 5057480.0 ], [ 2205820.0, 5057499.0 ], [ 2205800.0, 5057518.0 ], [ 2205777.0, 5057544.0 ], [ 2205763.0, 5057568.0 ], [ 2205744.0, 5057586.0 ], [ 2205716.0, 5057625.0 ], [ 2205700.0, 5057646.0 ], [ 2205666.0, 5057679.0 ], [ 2205611.0, 5057729.0 ], [ 2205551.0, 5057771.0 ], [ 2205502.0, 5057811.0 ], [ 2205475.0, 5057829.0 ], [ 2205427.0, 5057859.0 ], [ 2205411.0, 5057882.0 ], [ 2205399.0, 5057914.0 ], [ 2205387.0, 5057945.0 ], [ 2205377.0, 5058028.0 ], [ 2205388.0, 5058124.0 ], [ 2205420.0, 5058178.0 ], [ 2205409.0, 5058186.0 ], [ 2205338.0, 5058238.0 ], [ 2205237.0, 5058300.0 ], [ 2205151.0, 5058363.0 ], [ 2205172.0, 5058408.0 ], [ 2205024.0, 5058453.0 ], [ 2204970.0, 5058504.0 ], [ 2204935.0, 5058510.0 ], [ 2204908.0, 5058501.0 ], [ 2204917.0, 5058623.0 ], [ 2204598.0, 5058702.0 ], [ 2204291.0, 5058736.0 ], [ 2204137.0, 5058770.0 ], [ 2204062.0, 5058809.0 ], [ 2203987.0, 5058865.0 ], [ 2203935.0, 5058893.0 ], [ 2203944.0, 5058848.0 ], [ 2203937.0, 5058778.0 ], [ 2203941.0, 5058691.0 ], [ 2203936.0, 5058662.0 ], [ 2203925.0, 5058641.0 ], [ 2203926.0, 5058589.0 ], [ 2203867.0, 5058527.0 ], [ 2203797.0, 5058567.0 ], [ 2203691.0, 5058588.0 ], [ 2203655.0, 5058587.0 ], [ 2203629.0, 5058592.0 ], [ 2203580.0, 5058607.0 ], [ 2203505.0, 5058607.0 ], [ 2203485.0, 5058604.0 ], [ 2203453.0, 5058609.0 ], [ 2203430.0, 5058620.0 ], [ 2203426.0, 5058610.0 ], [ 2203418.0, 5058594.0 ], [ 2203427.0, 5058568.0 ], [ 2203437.0, 5058557.0 ], [ 2203409.0, 5058534.0 ], [ 2203351.0, 5058498.0 ], [ 2203320.0, 5058488.0 ], [ 2203286.0, 5058485.0 ], [ 2203251.0, 5058501.0 ], [ 2203227.0, 5058489.0 ], [ 2203192.0, 5058475.0 ], [ 2203181.0, 5058499.0 ], [ 2203151.0, 5058498.0 ], [ 2203149.0, 5058467.0 ], [ 2203124.0, 5058426.0 ], [ 2203133.0, 5058396.0 ], [ 2203111.0, 5058368.0 ], [ 2203105.0, 5058320.0 ], [ 2203043.0, 5058337.0 ], [ 2203027.0, 5058329.0 ], [ 2203014.0, 5058311.0 ], [ 2202994.0, 5058280.0 ], [ 2202977.0, 5058255.0 ], [ 2202963.0, 5058227.0 ], [ 2202901.0, 5058228.0 ], [ 2202866.0, 5058229.0 ], [ 2202833.0, 5058228.0 ], [ 2202805.0, 5058226.0 ], [ 2202780.0, 5058259.0 ], [ 2202765.0, 5058290.0 ], [ 2202747.0, 5058301.0 ], [ 2202727.0, 5058374.0 ], [ 2202719.0, 5058383.0 ], [ 2202693.0, 5058383.0 ], [ 2202677.0, 5058379.0 ], [ 2202660.0, 5058374.0 ], [ 2202642.0, 5058375.0 ], [ 2202626.0, 5058377.0 ], [ 2202622.0, 5058376.0 ], [ 2202613.0, 5058374.0 ], [ 2202599.0, 5058372.0 ], [ 2202586.0, 5058373.0 ], [ 2202577.0, 5058373.0 ], [ 2202570.0, 5058371.0 ], [ 2202558.0, 5058376.0 ], [ 2202545.0, 5058375.0 ], [ 2202532.0, 5058362.0 ], [ 2202523.0, 5058353.0 ], [ 2202500.0, 5058350.0 ], [ 2202480.0, 5058348.0 ], [ 2202461.0, 5058359.0 ], [ 2202446.0, 5058375.0 ], [ 2202434.0, 5058391.0 ], [ 2202421.0, 5058412.0 ], [ 2202396.0, 5058443.0 ], [ 2202371.0, 5058479.0 ], [ 2202339.0, 5058496.0 ], [ 2202333.0, 5058515.0 ], [ 2202318.0, 5058552.0 ], [ 2202288.0, 5058585.0 ], [ 2202289.0, 5058620.0 ], [ 2202283.0, 5058638.0 ], [ 2202265.0, 5058667.0 ], [ 2202242.0, 5058660.0 ], [ 2202206.0, 5058650.0 ], [ 2202163.0, 5058631.0 ], [ 2202137.0, 5058622.0 ], [ 2202118.0, 5058616.0 ], [ 2202087.0, 5058631.0 ], [ 2202079.0, 5058661.0 ], [ 2202066.0, 5058696.0 ], [ 2202063.0, 5058711.0 ], [ 2202046.0, 5058746.0 ], [ 2202034.0, 5058767.0 ], [ 2202032.0, 5058775.0 ], [ 2202033.0, 5058791.0 ], [ 2202018.0, 5058801.0 ], [ 2202006.0, 5058808.0 ], [ 2201989.0, 5058810.0 ], [ 2201964.0, 5058797.0 ], [ 2201953.0, 5058786.0 ], [ 2201934.0, 5058766.0 ], [ 2201918.0, 5058756.0 ], [ 2201912.0, 5058741.0 ], [ 2201893.0, 5058733.0 ], [ 2201896.0, 5058717.0 ], [ 2201904.0, 5058700.0 ], [ 2201893.0, 5058684.0 ], [ 2201887.0, 5058659.0 ], [ 2201878.0, 5058632.0 ], [ 2201869.0, 5058594.0 ], [ 2201865.0, 5058572.0 ], [ 2201862.0, 5058553.0 ], [ 2201874.0, 5058536.0 ], [ 2201879.0, 5058535.0 ], [ 2201884.0, 5058531.0 ], [ 2201888.0, 5058529.0 ], [ 2201892.0, 5058527.0 ], [ 2201897.0, 5058524.0 ], [ 2201902.0, 5058521.0 ], [ 2201909.0, 5058518.0 ], [ 2201920.0, 5058512.0 ], [ 2201929.0, 5058508.0 ], [ 2201939.0, 5058501.0 ], [ 2201952.0, 5058496.0 ], [ 2201963.0, 5058488.0 ], [ 2201971.0, 5058479.0 ], [ 2201978.0, 5058465.0 ], [ 2201995.0, 5058450.0 ], [ 2202005.0, 5058438.0 ], [ 2202028.0, 5058429.0 ], [ 2202054.0, 5058417.0 ], [ 2202088.0, 5058408.0 ], [ 2202113.0, 5058411.0 ], [ 2202130.0, 5058406.0 ], [ 2202150.0, 5058405.0 ], [ 2202194.0, 5058377.0 ], [ 2202522.0, 5058087.0 ], [ 2202603.0, 5058028.0 ], [ 2202684.0, 5058047.0 ], [ 2202735.0, 5058034.0 ], [ 2202753.0, 5058007.0 ], [ 2202658.0, 5057967.0 ], [ 2202561.0, 5057884.0 ], [ 2202509.0, 5057724.0 ], [ 2202463.0, 5057626.0 ], [ 2202394.0, 5057536.0 ], [ 2202359.0, 5057516.0 ], [ 2202338.0, 5057472.0 ], [ 2202310.0, 5057394.0 ], [ 2202234.0, 5057338.0 ], [ 2202199.0, 5057300.0 ], [ 2202131.0, 5057291.0 ], [ 2202108.0, 5057297.0 ], [ 2202082.0, 5057324.0 ], [ 2202051.0, 5057322.0 ], [ 2201973.0, 5057290.0 ], [ 2201919.0, 5057228.0 ], [ 2201847.0, 5057169.0 ], [ 2201815.0, 5057133.0 ], [ 2201728.0, 5057093.0 ], [ 2201669.0, 5057076.0 ], [ 2201637.0, 5057070.0 ], [ 2201606.0, 5057069.0 ], [ 2201589.0, 5057059.0 ], [ 2201563.0, 5057028.0 ], [ 2201556.0, 5056985.0 ], [ 2201496.0, 5056911.0 ], [ 2201360.0, 5056750.0 ], [ 2201257.0, 5056853.0 ], [ 2200872.0, 5057231.0 ], [ 2200629.0, 5057092.0 ], [ 2200517.0, 5057039.0 ], [ 2200512.0, 5057029.0 ], [ 2200491.0, 5057005.0 ], [ 2200474.0, 5056993.0 ], [ 2200433.0, 5056963.0 ], [ 2200422.0, 5056950.0 ], [ 2200371.0, 5056928.0 ], [ 2200326.0, 5056908.0 ], [ 2200311.0, 5056905.0 ], [ 2200281.0, 5056902.0 ], [ 2200261.0, 5056902.0 ], [ 2200238.0, 5056902.0 ], [ 2200214.0, 5056902.0 ], [ 2200197.0, 5056902.0 ], [ 2200162.0, 5056900.0 ], [ 2200153.0, 5056898.0 ], [ 2200147.0, 5056895.0 ], [ 2200141.0, 5056891.0 ], [ 2200123.0, 5056871.0 ], [ 2200104.0, 5056853.0 ], [ 2200045.0, 5056805.0 ], [ 2200004.0, 5056776.0 ], [ 2199934.0, 5056743.0 ], [ 2199837.0, 5056696.0 ], [ 2199824.0, 5056690.0 ], [ 2199768.0, 5056676.0 ], [ 2199741.0, 5056669.0 ], [ 2199720.0, 5056662.0 ], [ 2199705.0, 5056656.0 ], [ 2199694.0, 5056652.0 ], [ 2199695.0, 5056673.0 ], [ 2199696.0, 5056705.0 ], [ 2199700.0, 5056726.0 ], [ 2199706.0, 5056745.0 ], [ 2199709.0, 5056754.0 ], [ 2199715.0, 5056784.0 ], [ 2199706.0, 5056854.0 ], [ 2199707.0, 5056917.0 ], [ 2199687.0, 5056967.0 ], [ 2199666.0, 5057012.0 ], [ 2199644.0, 5057058.0 ], [ 2199618.0, 5057116.0 ], [ 2199583.0, 5057176.0 ], [ 2199562.0, 5057211.0 ], [ 2199541.0, 5057244.0 ], [ 2199491.0, 5057322.0 ], [ 2199438.0, 5057405.0 ], [ 2199407.0, 5057452.0 ], [ 2199392.0, 5057506.0 ], [ 2199366.0, 5057596.0 ], [ 2199358.0, 5057623.0 ], [ 2199348.0, 5057649.0 ], [ 2199346.0, 5057658.0 ], [ 2199370.0, 5057677.0 ], [ 2199386.0, 5057691.0 ], [ 2199394.0, 5057704.0 ], [ 2199399.0, 5057715.0 ], [ 2199427.0, 5057784.0 ], [ 2199468.0, 5057886.0 ], [ 2199510.0, 5057988.0 ], [ 2199367.0, 5058092.0 ], [ 2199365.0, 5058108.0 ], [ 2199264.0, 5058222.0 ], [ 2199208.0, 5058287.0 ], [ 2199195.0, 5058303.0 ], [ 2199248.0, 5058354.0 ], [ 2199268.0, 5058376.0 ], [ 2199087.0, 5058483.0 ], [ 2199122.0, 5058531.0 ], [ 2199140.0, 5058558.0 ], [ 2199157.0, 5058587.0 ], [ 2199169.0, 5058596.0 ], [ 2199276.0, 5058639.0 ], [ 2199226.0, 5058736.0 ], [ 2199218.0, 5058740.0 ], [ 2199194.0, 5058741.0 ], [ 2199187.0, 5058747.0 ], [ 2199179.0, 5058757.0 ], [ 2199177.0, 5058783.0 ], [ 2199177.0, 5058809.0 ], [ 2199184.0, 5058891.0 ], [ 2199197.0, 5058989.0 ], [ 2199420.0, 5059109.0 ], [ 2199477.0, 5059136.0 ], [ 2199565.0, 5059180.0 ], [ 2199606.0, 5059202.0 ], [ 2199638.0, 5059220.0 ], [ 2199672.0, 5059238.0 ], [ 2199691.0, 5059248.0 ], [ 2199668.0, 5059274.0 ], [ 2199659.0, 5059285.0 ], [ 2199677.0, 5059295.0 ], [ 2199707.0, 5059308.0 ], [ 2199757.0, 5059335.0 ], [ 2199799.0, 5059357.0 ], [ 2199830.0, 5059373.0 ], [ 2199853.0, 5059391.0 ], [ 2199867.0, 5059404.0 ], [ 2199887.0, 5059414.0 ], [ 2199921.0, 5059433.0 ], [ 2200020.0, 5059486.0 ], [ 2200121.0, 5059540.0 ], [ 2200219.0, 5059592.0 ], [ 2200243.0, 5059605.0 ], [ 2200323.0, 5059643.0 ], [ 2200302.0, 5059698.0 ], [ 2200298.0, 5059713.0 ], [ 2200298.0, 5059728.0 ], [ 2200299.0, 5059764.0 ], [ 2200303.0, 5059776.0 ], [ 2200306.0, 5059790.0 ], [ 2200312.0, 5059816.0 ], [ 2200315.0, 5059835.0 ], [ 2200335.0, 5059843.0 ], [ 2200360.0, 5059852.0 ], [ 2200384.0, 5059860.0 ], [ 2200419.0, 5059886.0 ], [ 2200438.0, 5059899.0 ], [ 2200486.0, 5059933.0 ], [ 2200519.0, 5059972.0 ], [ 2200545.0, 5060004.0 ], [ 2200564.0, 5060033.0 ], [ 2200576.0, 5060056.0 ], [ 2200580.0, 5060055.0 ], [ 2200580.0, 5060050.0 ], [ 2200582.0, 5060029.0 ], [ 2200585.0, 5060010.0 ], [ 2200587.0, 5060000.0 ], [ 2200633.0, 5059982.0 ], [ 2200655.0, 5059970.0 ], [ 2200686.0, 5059954.0 ], [ 2200723.0, 5059928.0 ], [ 2200742.0, 5059914.0 ], [ 2200769.0, 5059895.0 ], [ 2200809.0, 5059866.0 ], [ 2200809.0, 5059865.0 ], [ 2200810.0, 5059865.0 ], [ 2200807.0, 5059861.0 ], [ 2200653.0, 5059628.0 ], [ 2200609.0, 5059561.0 ], [ 2200604.0, 5059554.0 ], [ 2200574.0, 5059502.0 ], [ 2200595.0, 5059488.0 ], [ 2200626.0, 5059486.0 ], [ 2200639.0, 5059451.0 ], [ 2200643.0, 5059443.0 ], [ 2200667.0, 5059391.0 ], [ 2200707.0, 5059302.0 ], [ 2200795.0, 5059319.0 ], [ 2200944.0, 5059346.0 ], [ 2201062.0, 5059369.0 ], [ 2201182.0, 5059393.0 ], [ 2201247.0, 5059406.0 ], [ 2201287.0, 5059411.0 ], [ 2201303.0, 5059413.0 ], [ 2201337.0, 5059418.0 ], [ 2201418.0, 5059430.0 ], [ 2201405.0, 5059464.0 ], [ 2201394.0, 5059487.0 ], [ 2201376.0, 5059526.0 ], [ 2201352.0, 5059580.0 ], [ 2201330.0, 5059624.0 ], [ 2201306.0, 5059680.0 ], [ 2201273.0, 5059757.0 ], [ 2201249.0, 5059813.0 ], [ 2201180.0, 5059984.0 ], [ 2201156.0, 5060045.0 ], [ 2201148.0, 5060074.0 ], [ 2201145.0, 5060089.0 ], [ 2201146.0, 5060103.0 ], [ 2201151.0, 5060124.0 ], [ 2201160.0, 5060146.0 ], [ 2201181.0, 5060201.0 ], [ 2201193.0, 5060231.0 ], [ 2201204.0, 5060260.0 ], [ 2201211.0, 5060278.0 ], [ 2201250.0, 5060278.0 ], [ 2201291.0, 5060276.0 ], [ 2201356.0, 5060263.0 ], [ 2201422.0, 5060248.0 ], [ 2201477.0, 5060242.0 ], [ 2201514.0, 5060224.0 ], [ 2201621.0, 5060202.0 ], [ 2201784.0, 5060169.0 ], [ 2201826.0, 5060286.0 ], [ 2201870.0, 5060404.0 ], [ 2201888.0, 5060401.0 ], [ 2201893.0, 5060423.0 ], [ 2201895.0, 5060423.0 ], [ 2201895.0, 5060425.0 ], [ 2201928.0, 5060419.0 ], [ 2201929.0, 5060417.0 ], [ 2201930.0, 5060416.0 ], [ 2201974.0, 5060408.0 ], [ 2201975.0, 5060409.0 ], [ 2201982.0, 5060406.0 ], [ 2202027.0, 5060396.0 ], [ 2202055.0, 5060391.0 ], [ 2202057.0, 5060393.0 ], [ 2202138.0, 5060377.0 ], [ 2202130.0, 5060336.0 ], [ 2202133.0, 5060336.0 ], [ 2202144.0, 5060335.0 ], [ 2202147.0, 5060333.0 ], [ 2202152.0, 5060332.0 ], [ 2202173.0, 5060327.0 ], [ 2202188.0, 5060325.0 ], [ 2202200.0, 5060328.0 ], [ 2202217.0, 5060335.0 ], [ 2202229.0, 5060345.0 ], [ 2202232.0, 5060348.0 ], [ 2202238.0, 5060353.0 ], [ 2202242.0, 5060356.0 ], [ 2202243.0, 5060356.0 ], [ 2202244.0, 5060357.0 ], [ 2202246.0, 5060357.0 ], [ 2202248.0, 5060358.0 ], [ 2202251.0, 5060358.0 ], [ 2202255.0, 5060357.0 ], [ 2202259.0, 5060357.0 ], [ 2202264.0, 5060350.0 ], [ 2202271.0, 5060343.0 ], [ 2202274.0, 5060340.0 ], [ 2202292.0, 5060319.0 ], [ 2202314.0, 5060300.0 ], [ 2202332.0, 5060285.0 ], [ 2202346.0, 5060297.0 ], [ 2202403.0, 5060249.0 ], [ 2202420.0, 5060267.0 ], [ 2202447.0, 5060296.0 ], [ 2202464.0, 5060315.0 ], [ 2202493.0, 5060346.0 ], [ 2202520.0, 5060375.0 ], [ 2202523.0, 5060378.0 ], [ 2202526.0, 5060381.0 ], [ 2202550.0, 5060360.0 ], [ 2202558.0, 5060350.0 ], [ 2202564.0, 5060347.0 ], [ 2202570.0, 5060344.0 ], [ 2202589.0, 5060328.0 ], [ 2202591.0, 5060327.0 ], [ 2202607.0, 5060348.0 ], [ 2202618.0, 5060362.0 ], [ 2202629.0, 5060375.0 ], [ 2202632.0, 5060379.0 ], [ 2202637.0, 5060384.0 ], [ 2202641.0, 5060389.0 ], [ 2202649.0, 5060397.0 ], [ 2202670.0, 5060418.0 ], [ 2202678.0, 5060424.0 ], [ 2202686.0, 5060429.0 ], [ 2202688.0, 5060428.0 ], [ 2202722.0, 5060447.0 ], [ 2202722.0, 5060448.0 ], [ 2202707.0, 5060487.0 ], [ 2202690.0, 5060528.0 ], [ 2202670.0, 5060579.0 ], [ 2202657.0, 5060609.0 ], [ 2202642.0, 5060646.0 ], [ 2202628.0, 5060680.0 ], [ 2202603.0, 5060743.0 ], [ 2202588.0, 5060781.0 ], [ 2202555.0, 5060866.0 ], [ 2202544.0, 5060893.0 ], [ 2202533.0, 5060921.0 ], [ 2202525.0, 5060939.0 ], [ 2202511.0, 5060976.0 ], [ 2202497.0, 5061013.0 ], [ 2202478.0, 5061061.0 ], [ 2202469.0, 5061087.0 ], [ 2202459.0, 5061107.0 ], [ 2202428.0, 5061181.0 ], [ 2202384.0, 5061290.0 ], [ 2202367.0, 5061334.0 ], [ 2202346.0, 5061377.0 ], [ 2202332.0, 5061423.0 ], [ 2202284.0, 5061542.0 ], [ 2202264.0, 5061599.0 ], [ 2202255.0, 5061631.0 ], [ 2202249.0, 5061651.0 ], [ 2202245.0, 5061667.0 ], [ 2202238.0, 5061709.0 ], [ 2202233.0, 5061755.0 ], [ 2202233.0, 5061756.0 ], [ 2202233.0, 5061761.0 ], [ 2202233.0, 5061799.0 ], [ 2202234.0, 5061817.0 ], [ 2202236.0, 5061837.0 ], [ 2202237.0, 5061856.0 ], [ 2202244.0, 5061891.0 ], [ 2202253.0, 5061929.0 ], [ 2202261.0, 5061954.0 ], [ 2202265.0, 5061966.0 ], [ 2202273.0, 5061985.0 ], [ 2202278.0, 5061997.0 ], [ 2202279.0, 5062001.0 ], [ 2202280.0, 5062003.0 ], [ 2202240.0, 5062021.0 ], [ 2202197.0, 5062041.0 ], [ 2202157.0, 5062059.0 ] ] ] } }
]
}
