{
"type": "FeatureCollection",
"name": "vilnius-rail",
"crs": { "type": "name", "properties": { "name": "urn:ogc:def:crs:EPSG::3857" } },
"features": [
{ "type": "Feature", "properties": { "osmid": 12666359179.0 }, "geometry": { "type": "Point", "coordinates": [ 2822464.0, 7299734.0 ] } },
{ "type": "Feature", "properties": { "osmid": 8758680352.0 }, "geometry": { "type": "Point", "coordinates": [ 2813449.0, 7291181.0 ] } },
{ "type": "Feature", "properties": { "osmid": 11524897910.0 }, "geometry": { "type": "Point", "coordinates": [ 2832677.0, 7303853.0 ] } },
{ "type": "Feature", "properties": { "osmid": 905169370.0 }, "geometry": { "type": "Point", "coordinates": [ 2802679.0, 7290276.0 ] } },
{ "type": "Feature", "properties": { "osmid": 294893817.0 }, "geometry": { "type": "Point", "coordinates": [ 2814990.0, 7315530.0 ] } },
{ "type": "Feature", "properties": { "osmid": 1395427062.0 }, "geometry": { "type": "Point", "coordinates": [ 2814553.0, 7315260.0 ] } },
{ "type": "Feature", "properties": { "osmid": 315821367.0 }, "geometry": { "type": "Point", "coordinates": [ 2815261.0, 7315033.0 ] } },
{ "type": "Feature", "properties": { "osmid": 336047441.0 }, "geometry": { "type": "Point", "coordinates": [ 2814615.0, 7316023.0 ] } },
{ "type": "Feature", "properties": { "osmid": 4251778641.0 }, "geometry": { "type": "Point", "coordinates": [ 2814280.0, 7314805.0 ] } },
{ "type": "Feature", "properties": { "osmid": 7235619896.0 }, "geometry": { "type": "Point", "coordinates": [ 2814439.0, 7316553.0 ] } },
{ "type": "Feature", "properties": { "osmid": 268068185.0 }, "geometry": { "type": "Point", "coordinates": [ 2814918.0, 7314003.0 ] } },
{ "type": "Feature", "properties": { "osmid": 135375439.0 }, "geometry": { "type": "Point", "coordinates": [ 2813574.0, 7316262.0 ] } },
{ "type": "Feature", "properties": { "osmid": 3810437258.0 }, "geometry": { "type": "Point", "coordinates": [ 2814186.0, 7313974.0 ] } },
{ "type": "Feature", "properties": { "osmid": 2389283854.0 }, "geometry": { "type": "Point", "coordinates": [ 2813307.0, 7315039.0 ] } },
{ "type": "Feature", "properties": { "osmid": 135381852.0 }, "geometry": { "type": "Point", "coordinates": [ 2813764.0, 7316839.0 ] } },
{ "type": "Feature", "properties": { "osmid": 374135703.0 }, "geometry": { "type": "Point", "coordinates": [ 2815706.0, 7313507.0 ] } },
{ "type": "Feature", "properties": { "osmid": 11559801944.0 }, "geometry": { "type": "Point", "coordinates": [ 2813007.0, 7316412.0 ] } },
{ "type": "Feature", "properties": { "osmid": 1811571740.0 }, "geometry": { "type": "Point", "coordinates": [ 2814195.0, 7313461.0 ] } },
{ "type": "Feature", "properties": { "osmid": 135390918.0 }, "geometry": { "type": "Point", "coordinates": [ 2813189.0, 7316968.0 ] } },
{ "type": "Feature", "properties": { "osmid": 480860274.0 }, "geometry": { "type": "Point", "coordinates": [ 2813003.0, 7314163.0 ] } },
{ "type": "Feature", "properties": { "osmid": 9142924688.0 }, "geometry": { "type": "Point", "coordinates": [ 2815245.0, 7312965.0 ] } },
{ "type": "Feature", "properties": { "osmid": 135385614.0 }, "geometry": { "type": "Point", "coordinates": [ 2812650.0, 7316790.0 ] } },
{ "type": "Feature", "properties": { "osmid": 993794320.0 }, "geometry": { "type": "Point", "coordinates": [ 2812756.0, 7317393.0 ] } },
{ "type": "Feature", "properties": { "osmid": 2510625141.0 }, "geometry": { "type": "Point", "coordinates": [ 2813058.0, 7317999.0 ] } },
{ "type": "Feature", "properties": { "osmid": 135388082.0 }, "geometry": { "type": "Point", "coordinates": [ 2812136.0, 7316963.0 ] } },
{ "type": "Feature", "properties": { "osmid": 340812565.0 }, "geometry": { "type": "Point", "coordinates": [ 2812992.0, 7312612.0 ] } },
{ "type": "Feature", "properties": { "osmid": 1597662340.0 }, "geometry": { "type": "Point", "coordinates": [ 2815776.0, 7312051.0 ] } },
{ "type": "Feature", "properties": { "osmid": 340813015.0 }, "geometry": { "type": "Point", "coordinates": [ 2812383.0, 7312984.0 ] } },
{ "type": "Feature", "properties": { "osmid": 12673462751.0 }, "geometry": { "type": "Point", "coordinates": [ 2814618.0, 7319427.0 ] } },
{ "type": "Feature", "properties": { "osmid": 12673462766.0 }, "geometry": { "type": "Point", "coordinates": [ 2813682.0, 7319297.0 ] } },
{ "type": "Feature", "properties": { "osmid": 56010441.0 }, "geometry": { "type": "Point", "coordinates": [ 2811601.0, 7313135.0 ] } },
{ "type": "Feature", "properties": { "osmid": 43021599.0 }, "geometry": { "type": "Point", "coordinates": [ 2813845.0, 7311399.0 ] } },
{ "type": "Feature", "properties": { "osmid": 776600037.0 }, "geometry": { "type": "Point", "coordinates": [ 2812616.0, 7311893.0 ] } },
{ "type": "Feature", "properties": { "osmid": 775866803.0 }, "geometry": { "type": "Point", "coordinates": [ 2813966.0, 7310883.0 ] } },
{ "type": "Feature", "properties": { "osmid": 36431744.0 }, "geometry": { "type": "Point", "coordinates": [ 2810952.0, 7312876.0 ] } },
{ "type": "Feature", "properties": { "osmid": 480916490.0 }, "geometry": { "type": "Point", "coordinates": [ 2818839.0, 7318809.0 ] } },
{ "type": "Feature", "properties": { "osmid": 448106907.0 }, "geometry": { "type": "Point", "coordinates": [ 2810259.0, 7313585.0 ] } },
{ "type": "Feature", "properties": { "osmid": 2008163602.0 }, "geometry": { "type": "Point", "coordinates": [ 2812608.0, 7310954.0 ] } },
{ "type": "Feature", "properties": { "osmid": 1640852519.0 }, "geometry": { "type": "Point", "coordinates": [ 2811942.0, 7311224.0 ] } },
{ "type": "Feature", "properties": { "osmid": 1610127516.0 }, "geometry": { "type": "Point", "coordinates": [ 2809831.0, 7314049.0 ] } },
{ "type": "Feature", "properties": { "osmid": 469963443.0 }, "geometry": { "type": "Point", "coordinates": [ 2810440.0, 7312667.0 ] } },
{ "type": "Feature", "properties": { "osmid": 448106874.0 }, "geometry": { "type": "Point", "coordinates": [ 2809544.0, 7314804.0 ] } },
{ "type": "Feature", "properties": { "osmid": 13009887097.0 }, "geometry": { "type": "Point", "coordinates": [ 2810989.0, 7311664.0 ] } },
{ "type": "Feature", "properties": { "osmid": 667350905.0 }, "geometry": { "type": "Point", "coordinates": [ 2820450.0, 7316719.0 ] } },
{ "type": "Feature", "properties": { "osmid": 12165061817.0 }, "geometry": { "type": "Point", "coordinates": [ 2812087.0, 7310708.0 ] } },
{ "type": "Feature", "properties": { "osmid": 13183701244.0 }, "geometry": { "type": "Point", "coordinates": [ 2815440.0, 7309907.0 ] } },
{ "type": "Feature", "properties": { "osmid": 480916519.0 }, "geometry": { "type": "Point", "coordinates": [ 2818775.0, 7319754.0 ] } },
{ "type": "Feature", "properties": { "osmid": 56007139.0 }, "geometry": { "type": "Point", "coordinates": [ 2809239.0, 7314374.0 ] } },
{ "type": "Feature", "properties": { "osmid": 56007133.0 }, "geometry": { "type": "Point", "coordinates": [ 2809118.0, 7313780.0 ] } },
{ "type": "Feature", "properties": { "osmid": 1639391186.0 }, "geometry": { "type": "Point", "coordinates": [ 2821098.0, 7316448.0 ] } },
{ "type": "Feature", "properties": { "osmid": 458236578.0 }, "geometry": { "type": "Point", "coordinates": [ 2816069.0, 7321623.0 ] } },
{ "type": "Feature", "properties": { "osmid": 2612804658.0 }, "geometry": { "type": "Point", "coordinates": [ 2813390.0, 7309479.0 ] } },
{ "type": "Feature", "properties": { "osmid": 2611571440.0 }, "geometry": { "type": "Point", "coordinates": [ 2814174.0, 7309197.0 ] } },
{ "type": "Feature", "properties": { "osmid": 43006757.0 }, "geometry": { "type": "Point", "coordinates": [ 2811229.0, 7310324.0 ] } },
{ "type": "Feature", "properties": { "osmid": 1637430372.0 }, "geometry": { "type": "Point", "coordinates": [ 2821415.0, 7315266.0 ] } },
{ "type": "Feature", "properties": { "osmid": 2612804655.0 }, "geometry": { "type": "Point", "coordinates": [ 2812865.0, 7309444.0 ] } },
{ "type": "Feature", "properties": { "osmid": 3771658565.0 }, "geometry": { "type": "Point", "coordinates": [ 2820578.0, 7318753.0 ] } },
{ "type": "Feature", "properties": { "osmid": 459133720.0 }, "geometry": { "type": "Point", "coordinates": [ 2817178.0, 7321651.0 ] } },
{ "type": "Feature", "properties": { "osmid": 11366004169.0 }, "geometry": { "type": "Point", "coordinates": [ 2809688.0, 7311721.0 ] } },
{ "type": "Feature", "properties": { "osmid": 268066123.0 }, "geometry": { "type": "Point", "coordinates": [ 2815674.0, 7322036.0 ] } },
{ "type": "Feature", "properties": { "osmid": 480916565.0 }, "geometry": { "type": "Point", "coordinates": [ 2819706.0, 7320189.0 ] } },
{ "type": "Feature", "properties": { "osmid": 458236075.0 }, "geometry": { "type": "Point", "coordinates": [ 2815201.0, 7322303.0 ] } },
{ "type": "Feature", "properties": { "osmid": 441293889.0 }, "geometry": { "type": "Point", "coordinates": [ 2817671.0, 7309268.0 ] } },
{ "type": "Feature", "properties": { "osmid": 32260122.0 }, "geometry": { "type": "Point", "coordinates": [ 2814239.0, 7308701.0 ] } },
{ "type": "Feature", "properties": { "osmid": 371184045.0 }, "geometry": { "type": "Point", "coordinates": [ 2820345.0, 7319881.0 ] } },
{ "type": "Feature", "properties": { "osmid": 1637429795.0 }, "geometry": { "type": "Point", "coordinates": [ 2821851.0, 7314744.0 ] } },
{ "type": "Feature", "properties": { "osmid": 32144576.0 }, "geometry": { "type": "Point", "coordinates": [ 2811342.0, 7309604.0 ] } },
{ "type": "Feature", "properties": { "osmid": 5989495363.0 }, "geometry": { "type": "Point", "coordinates": [ 2821013.0, 7319078.0 ] } },
{ "type": "Feature", "properties": { "osmid": 8185011235.0 }, "geometry": { "type": "Point", "coordinates": [ 2818224.0, 7309080.0 ] } },
{ "type": "Feature", "properties": { "osmid": 1477541347.0 }, "geometry": { "type": "Point", "coordinates": [ 2822215.0, 7316179.0 ] } },
{ "type": "Feature", "properties": { "osmid": 32323272.0 }, "geometry": { "type": "Point", "coordinates": [ 2815793.0, 7308289.0 ] } },
{ "type": "Feature", "properties": { "osmid": 8439363353.0 }, "geometry": { "type": "Point", "coordinates": [ 2813976.0, 7308273.0 ] } },
{ "type": "Feature", "properties": { "osmid": 43019402.0 }, "geometry": { "type": "Point", "coordinates": [ 2810121.0, 7310023.0 ] } },
{ "type": "Feature", "properties": { "osmid": 60178189.0 }, "geometry": { "type": "Point", "coordinates": [ 2813468.0, 7308338.0 ] } },
{ "type": "Feature", "properties": { "osmid": 39634250.0 }, "geometry": { "type": "Point", "coordinates": [ 2809414.0, 7310716.0 ] } },
{ "type": "Feature", "properties": { "osmid": 2598238769.0 }, "geometry": { "type": "Point", "coordinates": [ 2817235.0, 7308468.0 ] } },
{ "type": "Feature", "properties": { "osmid": 11154279159.0 }, "geometry": { "type": "Point", "coordinates": [ 2821228.0, 7319596.0 ] } },
{ "type": "Feature", "properties": { "osmid": 4961050597.0 }, "geometry": { "type": "Point", "coordinates": [ 2820559.0, 7310494.0 ] } },
{ "type": "Feature", "properties": { "osmid": 41149704.0 }, "geometry": { "type": "Point", "coordinates": [ 2811345.0, 7308955.0 ] } },
{ "type": "Feature", "properties": { "osmid": 2264346573.0 }, "geometry": { "type": "Point", "coordinates": [ 2808457.0, 7311780.0 ] } },
{ "type": "Feature", "properties": { "osmid": 4541409725.0 }, "geometry": { "type": "Point", "coordinates": [ 2808729.0, 7311275.0 ] } },
{ "type": "Feature", "properties": { "osmid": 449400472.0 }, "geometry": { "type": "Point", "coordinates": [ 2808081.0, 7312306.0 ] } },
{ "type": "Feature", "properties": { "osmid": 2253999021.0 }, "geometry": { "type": "Point", "coordinates": [ 2814471.0, 7307888.0 ] } },
{ "type": "Feature", "properties": { "osmid": 9759191056.0 }, "geometry": { "type": "Point", "coordinates": [ 2819287.0, 7308997.0 ] } },
{ "type": "Feature", "properties": { "osmid": 2611619073.0 }, "geometry": { "type": "Point", "coordinates": [ 2816663.0, 7307826.0 ] } },
{ "type": "Feature", "properties": { "osmid": 941660525.0 }, "geometry": { "type": "Point", "coordinates": [ 2809303.0, 7310050.0 ] } },
{ "type": "Feature", "properties": { "osmid": 5700293574.0 }, "geometry": { "type": "Point", "coordinates": [ 2809692.0, 7309669.0 ] } },
{ "type": "Feature", "properties": { "osmid": 12803493383.0 }, "geometry": { "type": "Point", "coordinates": [ 2821493.0, 7320098.0 ] } },
{ "type": "Feature", "properties": { "osmid": 377652318.0 }, "geometry": { "type": "Point", "coordinates": [ 2818196.0, 7308193.0 ] } },
{ "type": "Feature", "properties": { "osmid": 1102511093.0 }, "geometry": { "type": "Point", "coordinates": [ 2814859.0, 7307501.0 ] } },
{ "type": "Feature", "properties": { "osmid": 3542350891.0 }, "geometry": { "type": "Point", "coordinates": [ 2807527.0, 7312547.0 ] } },
{ "type": "Feature", "properties": { "osmid": 9832793996.0 }, "geometry": { "type": "Point", "coordinates": [ 2818758.0, 7308412.0 ] } },
{ "type": "Feature", "properties": { "osmid": 2406856976.0 }, "geometry": { "type": "Point", "coordinates": [ 2815863.0, 7307353.0 ] } },
{ "type": "Feature", "properties": { "osmid": 12598464313.0 }, "geometry": { "type": "Point", "coordinates": [ 2809856.0, 7308972.0 ] } },
{ "type": "Feature", "properties": { "osmid": 2917247659.0 }, "geometry": { "type": "Point", "coordinates": [ 2814128.0, 7307207.0 ] } },
{ "type": "Feature", "properties": { "osmid": 2387328240.0 }, "geometry": { "type": "Point", "coordinates": [ 2811508.0, 7307896.0 ] } },
{ "type": "Feature", "properties": { "osmid": 1163810586.0 }, "geometry": { "type": "Point", "coordinates": [ 2813627.0, 7307190.0 ] } },
{ "type": "Feature", "properties": { "osmid": 249454020.0 }, "geometry": { "type": "Point", "coordinates": [ 2808450.0, 7310135.0 ] } },
{ "type": "Feature", "properties": { "osmid": 4381113932.0 }, "geometry": { "type": "Point", "coordinates": [ 2815152.0, 7307047.0 ] } },
{ "type": "Feature", "properties": { "osmid": 12675644866.0 }, "geometry": { "type": "Point", "coordinates": [ 2822357.0, 7319823.0 ] } },
{ "type": "Feature", "properties": { "osmid": 4138552251.0 }, "geometry": { "type": "Point", "coordinates": [ 2819407.0, 7308215.0 ] } },
{ "type": "Feature", "properties": { "osmid": 7810331205.0 }, "geometry": { "type": "Point", "coordinates": [ 2807466.0, 7311363.0 ] } },
{ "type": "Feature", "properties": { "osmid": 9842555377.0 }, "geometry": { "type": "Point", "coordinates": [ 2817924.0, 7307409.0 ] } },
{ "type": "Feature", "properties": { "osmid": 268065222.0 }, "geometry": { "type": "Point", "coordinates": [ 2815298.0, 7324229.0 ] } },
{ "type": "Feature", "properties": { "osmid": 2611619080.0 }, "geometry": { "type": "Point", "coordinates": [ 2816947.0, 7306964.0 ] } },
{ "type": "Feature", "properties": { "osmid": 10918161327.0 }, "geometry": { "type": "Point", "coordinates": [ 2811680.0, 7307347.0 ] } },
{ "type": "Feature", "properties": { "osmid": 34823217.0 }, "geometry": { "type": "Point", "coordinates": [ 2810367.0, 7307981.0 ] } },
{ "type": "Feature", "properties": { "osmid": 745443453.0 }, "geometry": { "type": "Point", "coordinates": [ 2823740.0, 7317012.0 ] } },
{ "type": "Feature", "properties": { "osmid": 2777573543.0 }, "geometry": { "type": "Point", "coordinates": [ 2816418.0, 7306680.0 ] } },
{ "type": "Feature", "properties": { "osmid": 10162543431.0 }, "geometry": { "type": "Point", "coordinates": [ 2814357.0, 7306572.0 ] } },
{ "type": "Feature", "properties": { "osmid": 1138940115.0 }, "geometry": { "type": "Point", "coordinates": [ 2813753.0, 7306564.0 ] } },
{ "type": "Feature", "properties": { "osmid": 6015197254.0 }, "geometry": { "type": "Point", "coordinates": [ 2820638.0, 7308441.0 ] } },
{ "type": "Feature", "properties": { "osmid": 3794309063.0 }, "geometry": { "type": "Point", "coordinates": [ 2807445.0, 7310450.0 ] } },
{ "type": "Feature", "properties": { "osmid": 6903590811.0 }, "geometry": { "type": "Point", "coordinates": [ 2810696.0, 7307482.0 ] } },
{ "type": "Feature", "properties": { "osmid": 2237731161.0 }, "geometry": { "type": "Point", "coordinates": [ 2821520.0, 7309127.0 ] } },
{ "type": "Feature", "properties": { "osmid": 3665047720.0 }, "geometry": { "type": "Point", "coordinates": [ 2814879.0, 7306327.0 ] } },
{ "type": "Feature", "properties": { "osmid": 2640255135.0 }, "geometry": { "type": "Point", "coordinates": [ 2815587.0, 7306254.0 ] } },
{ "type": "Feature", "properties": { "osmid": 673605204.0 }, "geometry": { "type": "Point", "coordinates": [ 2818162.0, 7306749.0 ] } },
{ "type": "Feature", "properties": { "osmid": 12206881339.0 }, "geometry": { "type": "Point", "coordinates": [ 2806981.0, 7310246.0 ] } },
{ "type": "Feature", "properties": { "osmid": 4459523902.0 }, "geometry": { "type": "Point", "coordinates": [ 2820985.0, 7323093.0 ] } },
{ "type": "Feature", "properties": { "osmid": 6990911571.0 }, "geometry": { "type": "Point", "coordinates": [ 2816902.0, 7306065.0 ] } },
{ "type": "Feature", "properties": { "osmid": 1243504663.0 }, "geometry": { "type": "Point", "coordinates": [ 2810544.0, 7306953.0 ] } },
{ "type": "Feature", "properties": { "osmid": 9625252795.0 }, "geometry": { "type": "Point", "coordinates": [ 2806609.0, 7310715.0 ] } },
{ "type": "Feature", "properties": { "osmid": 55931619.0 }, "geometry": { "type": "Point", "coordinates": [ 2812253.0, 7306213.0 ] } },
{ "type": "Feature", "properties": { "osmid": 1397497364.0 }, "geometry": { "type": "Point", "coordinates": [ 2807340.0, 7309448.0 ] } },
{ "type": "Feature", "properties": { "osmid": 135504061.0 }, "geometry": { "type": "Point", "coordinates": [ 2813816.0, 7305823.0 ] } },
{ "type": "Feature", "properties": { "osmid": 9164828770.0 }, "geometry": { "type": "Point", "coordinates": [ 2810829.0, 7306387.0 ] } },
{ "type": "Feature", "properties": { "osmid": 2517150614.0 }, "geometry": { "type": "Point", "coordinates": [ 2811552.0, 7306068.0 ] } },
{ "type": "Feature", "properties": { "osmid": 3948095343.0 }, "geometry": { "type": "Point", "coordinates": [ 2815388.0, 7305457.0 ] } },
{ "type": "Feature", "properties": { "osmid": 7865652383.0 }, "geometry": { "type": "Point", "coordinates": [ 2813270.0, 7305538.0 ] } },
{ "type": "Feature", "properties": { "osmid": 4207446081.0 }, "geometry": { "type": "Point", "coordinates": [ 2817571.0, 7305655.0 ] } },
{ "type": "Feature", "properties": { "osmid": 4582388109.0 }, "geometry": { "type": "Point", "coordinates": [ 2805902.0, 7310714.0 ] } },
{ "type": "Feature", "properties": { "osmid": 59980256.0 }, "geometry": { "type": "Point", "coordinates": [ 2814216.0, 7305120.0 ] } },
{ "type": "Feature", "properties": { "osmid": 3567107323.0 }, "geometry": { "type": "Point", "coordinates": [ 2809744.0, 7306289.0 ] } },
{ "type": "Feature", "properties": { "osmid": 2584833495.0 }, "geometry": { "type": "Point", "coordinates": [ 2812762.0, 7305135.0 ] } },
{ "type": "Feature", "properties": { "osmid": 2590515355.0 }, "geometry": { "type": "Point", "coordinates": [ 2817352.0, 7305143.0 ] } },
{ "type": "Feature", "properties": { "osmid": 3375522057.0 }, "geometry": { "type": "Point", "coordinates": [ 2824339.0, 7310330.0 ] } },
{ "type": "Feature", "properties": { "osmid": 1834104393.0 }, "geometry": { "type": "Point", "coordinates": [ 2816861.0, 7304988.0 ] } },
{ "type": "Feature", "properties": { "osmid": 3421974676.0 }, "geometry": { "type": "Point", "coordinates": [ 2815318.0, 7304827.0 ] } },
{ "type": "Feature", "properties": { "osmid": 1869061073.0 }, "geometry": { "type": "Point", "coordinates": [ 2810537.0, 7305741.0 ] } },
{ "type": "Feature", "properties": { "osmid": 289496177.0 }, "geometry": { "type": "Point", "coordinates": [ 2815832.0, 7304712.0 ] } },
{ "type": "Feature", "properties": { "osmid": 2783599022.0 }, "geometry": { "type": "Point", "coordinates": [ 2813419.0, 7304749.0 ] } },
{ "type": "Feature", "properties": { "osmid": 267528263.0 }, "geometry": { "type": "Point", "coordinates": [ 2808889.0, 7306495.0 ] } },
{ "type": "Feature", "properties": { "osmid": 4011268845.0 }, "geometry": { "type": "Point", "coordinates": [ 2814124.0, 7304602.0 ] } },
{ "type": "Feature", "properties": { "osmid": 371207087.0 }, "geometry": { "type": "Point", "coordinates": [ 2822112.0, 7323989.0 ] } },
{ "type": "Feature", "properties": { "osmid": 477639615.0 }, "geometry": { "type": "Point", "coordinates": [ 2826026.0, 7314396.0 ] } },
{ "type": "Feature", "properties": { "osmid": 4583837564.0 }, "geometry": { "type": "Point", "coordinates": [ 2806254.0, 7308646.0 ] } },
{ "type": "Feature", "properties": { "osmid": 1389421656.0 }, "geometry": { "type": "Point", "coordinates": [ 2807593.0, 7307112.0 ] } },
{ "type": "Feature", "properties": { "osmid": 2552611881.0 }, "geometry": { "type": "Point", "coordinates": [ 2815320.0, 7304303.0 ] } },
{ "type": "Feature", "properties": { "osmid": 5329653819.0 }, "geometry": { "type": "Point", "coordinates": [ 2826153.0, 7313363.0 ] } },
{ "type": "Feature", "properties": { "osmid": 9364030287.0 }, "geometry": { "type": "Point", "coordinates": [ 2813678.0, 7304196.0 ] } },
{ "type": "Feature", "properties": { "osmid": 1578086294.0 }, "geometry": { "type": "Point", "coordinates": [ 2812269.0, 7304231.0 ] } },
{ "type": "Feature", "properties": { "osmid": 11066589366.0 }, "geometry": { "type": "Point", "coordinates": [ 2812834.0, 7304025.0 ] } },
{ "type": "Feature", "properties": { "osmid": 8765445341.0 }, "geometry": { "type": "Point", "coordinates": [ 2814169.0, 7303846.0 ] } },
{ "type": "Feature", "properties": { "osmid": 33735520.0 }, "geometry": { "type": "Point", "coordinates": [ 2811203.0, 7304344.0 ] } },
{ "type": "Feature", "properties": { "osmid": 60175095.0 }, "geometry": { "type": "Point", "coordinates": [ 2817965.0, 7303987.0 ] } },
{ "type": "Feature", "properties": { "osmid": 9364030273.0 }, "geometry": { "type": "Point", "coordinates": [ 2813531.0, 7303690.0 ] } },
{ "type": "Feature", "properties": { "osmid": 2554447180.0 }, "geometry": { "type": "Point", "coordinates": [ 2809458.0, 7304776.0 ] } },
{ "type": "Feature", "properties": { "osmid": 1871447691.0 }, "geometry": { "type": "Point", "coordinates": [ 2812372.0, 7303705.0 ] } },
{ "type": "Feature", "properties": { "osmid": 828267325.0 }, "geometry": { "type": "Point", "coordinates": [ 2811844.0, 7303708.0 ] } },
{ "type": "Feature", "properties": { "osmid": 2554447240.0 }, "geometry": { "type": "Point", "coordinates": [ 2808791.0, 7304966.0 ] } },
{ "type": "Feature", "properties": { "osmid": 10941881632.0 }, "geometry": { "type": "Point", "coordinates": [ 2808161.0, 7305349.0 ] } },
{ "type": "Feature", "properties": { "osmid": 2640255107.0 }, "geometry": { "type": "Point", "coordinates": [ 2816152.0, 7303245.0 ] } },
{ "type": "Feature", "properties": { "osmid": 1248439320.0 }, "geometry": { "type": "Point", "coordinates": [ 2811224.0, 7303764.0 ] } },
{ "type": "Feature", "properties": { "osmid": 60175218.0 }, "geometry": { "type": "Point", "coordinates": [ 2817830.0, 7303497.0 ] } },
{ "type": "Feature", "properties": { "osmid": 2839318415.0 }, "geometry": { "type": "Point", "coordinates": [ 2814023.0, 7303178.0 ] } },
{ "type": "Feature", "properties": { "osmid": 750875564.0 }, "geometry": { "type": "Point", "coordinates": [ 2810176.0, 7303878.0 ] } },
{ "type": "Feature", "properties": { "osmid": 5075926290.0 }, "geometry": { "type": "Point", "coordinates": [ 2815570.0, 7302935.0 ] } },
{ "type": "Feature", "properties": { "osmid": 7855460217.0 }, "geometry": { "type": "Point", "coordinates": [ 2812803.0, 7303109.0 ] } },
{ "type": "Feature", "properties": { "osmid": 3706036745.0 }, "geometry": { "type": "Point", "coordinates": [ 2809080.0, 7304280.0 ] } },
{ "type": "Feature", "properties": { "osmid": 2085943453.0 }, "geometry": { "type": "Point", "coordinates": [ 2812238.0, 7303100.0 ] } },
{ "type": "Feature", "properties": { "osmid": 1834110415.0 }, "geometry": { "type": "Point", "coordinates": [ 2814387.0, 7302805.0 ] } },
{ "type": "Feature", "properties": { "osmid": 32603258.0 }, "geometry": { "type": "Point", "coordinates": [ 2816453.0, 7302823.0 ] } },
{ "type": "Feature", "properties": { "osmid": 249518129.0 }, "geometry": { "type": "Point", "coordinates": [ 2817498.0, 7302931.0 ] } },
{ "type": "Feature", "properties": { "osmid": 308933256.0 }, "geometry": { "type": "Point", "coordinates": [ 2813558.0, 7302708.0 ] } },
{ "type": "Feature", "properties": { "osmid": 4811427633.0 }, "geometry": { "type": "Point", "coordinates": [ 2811652.0, 7302999.0 ] } },
{ "type": "Feature", "properties": { "osmid": 1385720536.0 }, "geometry": { "type": "Point", "coordinates": [ 2807934.0, 7304489.0 ] } },
{ "type": "Feature", "properties": { "osmid": 32866039.0 }, "geometry": { "type": "Point", "coordinates": [ 2810307.0, 7303231.0 ] } },
{ "type": "Feature", "properties": { "osmid": 7653612351.0 }, "geometry": { "type": "Point", "coordinates": [ 2815203.0, 7302359.0 ] } },
{ "type": "Feature", "properties": { "osmid": 11293554688.0 }, "geometry": { "type": "Point", "coordinates": [ 2814132.0, 7302320.0 ] } },
{ "type": "Feature", "properties": { "osmid": 130133670.0 }, "geometry": { "type": "Point", "coordinates": [ 2816213.0, 7302297.0 ] } },
{ "type": "Feature", "properties": { "osmid": 12422743559.0 }, "geometry": { "type": "Point", "coordinates": [ 2805925.0, 7305754.0 ] } },
{ "type": "Feature", "properties": { "osmid": 4095396684.0 }, "geometry": { "type": "Point", "coordinates": [ 2808669.0, 7303790.0 ] } },
{ "type": "Feature", "properties": { "osmid": 13682361749.0 }, "geometry": { "type": "Point", "coordinates": [ 2807347.0, 7304558.0 ] } },
{ "type": "Feature", "properties": { "osmid": 1563525459.0 }, "geometry": { "type": "Point", "coordinates": [ 2817717.0, 7302422.0 ] } },
{ "type": "Feature", "properties": { "osmid": 7921124943.0 }, "geometry": { "type": "Point", "coordinates": [ 2806661.0, 7304953.0 ] } },
{ "type": "Feature", "properties": { "osmid": 337186760.0 }, "geometry": { "type": "Point", "coordinates": [ 2815684.0, 7302063.0 ] } },
{ "type": "Feature", "properties": { "osmid": 13260917038.0 }, "geometry": { "type": "Point", "coordinates": [ 2827708.0, 7310919.0 ] } },
{ "type": "Feature", "properties": { "osmid": 532020438.0 }, "geometry": { "type": "Point", "coordinates": [ 2813093.0, 7302134.0 ] } },
{ "type": "Feature", "properties": { "osmid": 7554637012.0 }, "geometry": { "type": "Point", "coordinates": [ 2815077.0, 7301843.0 ] } },
{ "type": "Feature", "properties": { "osmid": 420048239.0 }, "geometry": { "type": "Point", "coordinates": [ 2804652.0, 7306381.0 ] } },
{ "type": "Feature", "properties": { "osmid": 3452241796.0 }, "geometry": { "type": "Point", "coordinates": [ 2807678.0, 7303816.0 ] } },
{ "type": "Feature", "properties": { "osmid": 8274083854.0 }, "geometry": { "type": "Point", "coordinates": [ 2805881.0, 7305061.0 ] } },
{ "type": "Feature", "properties": { "osmid": 1132347675.0 }, "geometry": { "type": "Point", "coordinates": [ 2811706.0, 7302027.0 ] } },
{ "type": "Feature", "properties": { "osmid": 31440978.0 }, "geometry": { "type": "Point", "coordinates": [ 2814597.0, 7301494.0 ] } },
{ "type": "Feature", "properties": { "osmid": 9099147867.0 }, "geometry": { "type": "Point", "coordinates": [ 2809630.0, 7302550.0 ] } },
{ "type": "Feature", "properties": { "osmid": 1848995267.0 }, "geometry": { "type": "Point", "coordinates": [ 2810416.0, 7302142.0 ] } },
{ "type": "Feature", "properties": { "osmid": 33768526.0 }, "geometry": { "type": "Point", "coordinates": [ 2815667.0, 7301360.0 ] } },
{ "type": "Feature", "properties": { "osmid": 2763698265.0 }, "geometry": { "type": "Point", "coordinates": [ 2804490.0, 7305731.0 ] } },
{ "type": "Feature", "properties": { "osmid": 2623403082.0 }, "geometry": { "type": "Point", "coordinates": [ 2806638.0, 7303837.0 ] } },
{ "type": "Feature", "properties": { "osmid": 12077476484.0 }, "geometry": { "type": "Point", "coordinates": [ 2805159.0, 7304791.0 ] } },
{ "type": "Feature", "properties": { "osmid": 4704842713.0 }, "geometry": { "type": "Point", "coordinates": [ 2815163.0, 7300971.0 ] } },
{ "type": "Feature", "properties": { "osmid": 31441262.0 }, "geometry": { "type": "Point", "coordinates": [ 2814401.0, 7300957.0 ] } },
{ "type": "Feature", "properties": { "osmid": 8735823722.0 }, "geometry": { "type": "Point", "coordinates": [ 2805784.0, 7304216.0 ] } },
{ "type": "Feature", "properties": { "osmid": 2388521067.0 }, "geometry": { "type": "Point", "coordinates": [ 2817168.0, 7301097.0 ] } },
{ "type": "Feature", "properties": { "osmid": 3014905342.0 }, "geometry": { "type": "Point", "coordinates": [ 2807744.0, 7302724.0 ] } },
{ "type": "Feature", "properties": { "osmid": 10580951663.0 }, "geometry": { "type": "Point", "coordinates": [ 2813327.0, 7300900.0 ] } },
{ "type": "Feature", "properties": { "osmid": 10008298088.0 }, "geometry": { "type": "Point", "coordinates": [ 2803242.0, 7306639.0 ] } },
{ "type": "Feature", "properties": { "osmid": 2811306811.0 }, "geometry": { "type": "Point", "coordinates": [ 2819488.0, 7301483.0 ] } },
{ "type": "Feature", "properties": { "osmid": 1364322387.0 }, "geometry": { "type": "Point", "coordinates": [ 2802753.0, 7307215.0 ] } },
{ "type": "Feature", "properties": { "osmid": 3827821128.0 }, "geometry": { "type": "Point", "coordinates": [ 2819030.0, 7301216.0 ] } },
{ "type": "Feature", "properties": { "osmid": 32327925.0 }, "geometry": { "type": "Point", "coordinates": [ 2812469.0, 7300814.0 ] } },
{ "type": "Feature", "properties": { "osmid": 59971613.0 }, "geometry": { "type": "Point", "coordinates": [ 2815545.0, 7300602.0 ] } },
{ "type": "Feature", "properties": { "osmid": 10170826977.0 }, "geometry": { "type": "Point", "coordinates": [ 2807126.0, 7302820.0 ] } },
{ "type": "Feature", "properties": { "osmid": 10312962727.0 }, "geometry": { "type": "Point", "coordinates": [ 2814882.0, 7300553.0 ] } },
{ "type": "Feature", "properties": { "osmid": 3581041425.0 }, "geometry": { "type": "Point", "coordinates": [ 2804150.0, 7305088.0 ] } },
{ "type": "Feature", "properties": { "osmid": 12663040750.0 }, "geometry": { "type": "Point", "coordinates": [ 2826507.0, 7305777.0 ] } },
{ "type": "Feature", "properties": { "osmid": 2380260935.0 }, "geometry": { "type": "Point", "coordinates": [ 2818628.0, 7300863.0 ] } },
{ "type": "Feature", "properties": { "osmid": 13363064552.0 }, "geometry": { "type": "Point", "coordinates": [ 2802682.0, 7306647.0 ] } },
{ "type": "Feature", "properties": { "osmid": 1727984089.0 }, "geometry": { "type": "Point", "coordinates": [ 2803274.0, 7305877.0 ] } },
{ "type": "Feature", "properties": { "osmid": 337165342.0 }, "geometry": { "type": "Point", "coordinates": [ 2814173.0, 7300348.0 ] } },
{ "type": "Feature", "properties": { "osmid": 9407478299.0 }, "geometry": { "type": "Point", "coordinates": [ 2812941.0, 7300378.0 ] } },
{ "type": "Feature", "properties": { "osmid": 1457471845.0 }, "geometry": { "type": "Point", "coordinates": [ 2807395.0, 7302229.0 ] } },
{ "type": "Feature", "properties": { "osmid": 32334808.0 }, "geometry": { "type": "Point", "coordinates": [ 2812076.0, 7300453.0 ] } },
{ "type": "Feature", "properties": { "osmid": 4212313931.0 }, "geometry": { "type": "Point", "coordinates": [ 2818033.0, 7300476.0 ] } },
{ "type": "Feature", "properties": { "osmid": 33766010.0 }, "geometry": { "type": "Point", "coordinates": [ 2815301.0, 7300146.0 ] } },
{ "type": "Feature", "properties": { "osmid": 10008300237.0 }, "geometry": { "type": "Point", "coordinates": [ 2802816.0, 7306077.0 ] } },
{ "type": "Feature", "properties": { "osmid": 7310337723.0 }, "geometry": { "type": "Point", "coordinates": [ 2827047.0, 7305750.0 ] } },
{ "type": "Feature", "properties": { "osmid": 32334805.0 }, "geometry": { "type": "Point", "coordinates": [ 2811231.0, 7300462.0 ] } },
{ "type": "Feature", "properties": { "osmid": 2512211916.0 }, "geometry": { "type": "Point", "coordinates": [ 2805697.0, 7303058.0 ] } },
{ "type": "Feature", "properties": { "osmid": 2783882928.0 }, "geometry": { "type": "Point", "coordinates": [ 2806092.0, 7302749.0 ] } },
{ "type": "Feature", "properties": { "osmid": 59971555.0 }, "geometry": { "type": "Point", "coordinates": [ 2814634.0, 7299956.0 ] } },
{ "type": "Feature", "properties": { "osmid": 10188899375.0 }, "geometry": { "type": "Point", "coordinates": [ 2803234.0, 7305279.0 ] } },
{ "type": "Feature", "properties": { "osmid": 4937363501.0 }, "geometry": { "type": "Point", "coordinates": [ 2810662.0, 7300483.0 ] } },
{ "type": "Feature", "properties": { "osmid": 10657083481.0 }, "geometry": { "type": "Point", "coordinates": [ 2809400.0, 7300877.0 ] } },
{ "type": "Feature", "properties": { "osmid": 59968433.0 }, "geometry": { "type": "Point", "coordinates": [ 2816153.0, 7299860.0 ] } },
{ "type": "Feature", "properties": { "osmid": 7554125499.0 }, "geometry": { "type": "Point", "coordinates": [ 2816783.0, 7299841.0 ] } },
{ "type": "Feature", "properties": { "osmid": 2789835515.0 }, "geometry": { "type": "Point", "coordinates": [ 2817799.0, 7299958.0 ] } },
{ "type": "Feature", "properties": { "osmid": 33766004.0 }, "geometry": { "type": "Point", "coordinates": [ 2815480.0, 7299630.0 ] } },
{ "type": "Feature", "properties": { "osmid": 32083719.0 }, "geometry": { "type": "Point", "coordinates": [ 2811665.0, 7299959.0 ] } },
{ "type": "Feature", "properties": { "osmid": 12237323565.0 }, "geometry": { "type": "Point", "coordinates": [ 2802223.0, 7305815.0 ] } },
{ "type": "Feature", "properties": { "osmid": 736965630.0 }, "geometry": { "type": "Point", "coordinates": [ 2825269.0, 7303198.0 ] } },
{ "type": "Feature", "properties": { "osmid": 51405358.0 }, "geometry": { "type": "Point", "coordinates": [ 2813788.0, 7299479.0 ] } },
{ "type": "Feature", "properties": { "osmid": 59971494.0 }, "geometry": { "type": "Point", "coordinates": [ 2815072.0, 7299321.0 ] } },
{ "type": "Feature", "properties": { "osmid": 1920888065.0 }, "geometry": { "type": "Point", "coordinates": [ 2817161.0, 7299414.0 ] } },
{ "type": "Feature", "properties": { "osmid": 249521989.0 }, "geometry": { "type": "Point", "coordinates": [ 2822754.0, 7301237.0 ] } },
{ "type": "Feature", "properties": { "osmid": 729755947.0 }, "geometry": { "type": "Point", "coordinates": [ 2809121.0, 7300314.0 ] } },
{ "type": "Feature", "properties": { "osmid": 10267677412.0 }, "geometry": { "type": "Point", "coordinates": [ 2802433.0, 7305087.0 ] } },
{ "type": "Feature", "properties": { "osmid": 10628612810.0 }, "geometry": { "type": "Point", "coordinates": [ 2825055.0, 7302604.0 ] } },
{ "type": "Feature", "properties": { "osmid": 695427233.0 }, "geometry": { "type": "Point", "coordinates": [ 2818940.0, 7299603.0 ] } },
{ "type": "Feature", "properties": { "osmid": 5031805574.0 }, "geometry": { "type": "Point", "coordinates": [ 2803256.0, 7304036.0 ] } },
{ "type": "Feature", "properties": { "osmid": 3169288900.0 }, "geometry": { "type": "Point", "coordinates": [ 2813248.0, 7299143.0 ] } },
{ "type": "Feature", "properties": { "osmid": 34103772.0 }, "geometry": { "type": "Point", "coordinates": [ 2815567.0, 7299002.0 ] } },
{ "type": "Feature", "properties": { "osmid": 8427245753.0 }, "geometry": { "type": "Point", "coordinates": [ 2802803.0, 7304283.0 ] } },
{ "type": "Feature", "properties": { "osmid": 9718492771.0 }, "geometry": { "type": "Point", "coordinates": [ 2811751.0, 7299208.0 ] } },
{ "type": "Feature", "properties": { "osmid": 3151977657.0 }, "geometry": { "type": "Point", "coordinates": [ 2814796.0, 7298886.0 ] } },
{ "type": "Feature", "properties": { "osmid": 34104099.0 }, "geometry": { "type": "Point", "coordinates": [ 2816719.0, 7298943.0 ] } },
{ "type": "Feature", "properties": { "osmid": 10291066060.0 }, "geometry": { "type": "Point", "coordinates": [ 2811166.0, 7299290.0 ] } },
{ "type": "Feature", "properties": { "osmid": 8792201797.0 }, "geometry": { "type": "Point", "coordinates": [ 2816185.0, 7298839.0 ] } },
{ "type": "Feature", "properties": { "osmid": 3393579701.0 }, "geometry": { "type": "Point", "coordinates": [ 2801335.0, 7305849.0 ] } },
{ "type": "Feature", "properties": { "osmid": 2352487980.0 }, "geometry": { "type": "Point", "coordinates": [ 2807013.0, 7300813.0 ] } },
{ "type": "Feature", "properties": { "osmid": 3169288908.0 }, "geometry": { "type": "Point", "coordinates": [ 2812585.0, 7298742.0 ] } },
{ "type": "Feature", "properties": { "osmid": 3765346644.0 }, "geometry": { "type": "Point", "coordinates": [ 2815318.0, 7298527.0 ] } },
{ "type": "Feature", "properties": { "osmid": 2783882624.0 }, "geometry": { "type": "Point", "coordinates": [ 2805900.0, 7301081.0 ] } },
{ "type": "Feature", "properties": { "osmid": 828838241.0 }, "geometry": { "type": "Point", "coordinates": [ 2802159.0, 7304134.0 ] } },
{ "type": "Feature", "properties": { "osmid": 87870658.0 }, "geometry": { "type": "Point", "coordinates": [ 2806300.0, 7300648.0 ] } },
{ "type": "Feature", "properties": { "osmid": 59973298.0 }, "geometry": { "type": "Point", "coordinates": [ 2801301.0, 7304997.0 ] } },
{ "type": "Feature", "properties": { "osmid": 534620253.0 }, "geometry": { "type": "Point", "coordinates": [ 2814485.0, 7298139.0 ] } },
{ "type": "Feature", "properties": { "osmid": 510121433.0 }, "geometry": { "type": "Point", "coordinates": [ 2816219.0, 7298135.0 ] } },
{ "type": "Feature", "properties": { "osmid": 1997393102.0 }, "geometry": { "type": "Point", "coordinates": [ 2809647.0, 7298926.0 ] } },
{ "type": "Feature", "properties": { "osmid": 7418688411.0 }, "geometry": { "type": "Point", "coordinates": [ 2811958.0, 7298254.0 ] } },
{ "type": "Feature", "properties": { "osmid": 13593882849.0 }, "geometry": { "type": "Point", "coordinates": [ 2809084.0, 7298978.0 ] } },
{ "type": "Feature", "properties": { "osmid": 12813155025.0 }, "geometry": { "type": "Point", "coordinates": [ 2805648.0, 7300601.0 ] } },
{ "type": "Feature", "properties": { "osmid": 6561550164.0 }, "geometry": { "type": "Point", "coordinates": [ 2807138.0, 7299732.0 ] } },
{ "type": "Feature", "properties": { "osmid": 2398996888.0 }, "geometry": { "type": "Point", "coordinates": [ 2817021.0, 7297938.0 ] } },
{ "type": "Feature", "properties": { "osmid": 1469182356.0 }, "geometry": { "type": "Point", "coordinates": [ 2807688.0, 7299385.0 ] } },
{ "type": "Feature", "properties": { "osmid": 9097427904.0 }, "geometry": { "type": "Point", "coordinates": [ 2800779.0, 7304880.0 ] } },
{ "type": "Feature", "properties": { "osmid": 59973235.0 }, "geometry": { "type": "Point", "coordinates": [ 2803875.0, 7301630.0 ] } },
{ "type": "Feature", "properties": { "osmid": 12139455621.0 }, "geometry": { "type": "Point", "coordinates": [ 2804909.0, 7300823.0 ] } },
{ "type": "Feature", "properties": { "osmid": 3717560726.0 }, "geometry": { "type": "Point", "coordinates": [ 2806097.0, 7300074.0 ] } },
{ "type": "Feature", "properties": { "osmid": 53408729.0 }, "geometry": { "type": "Point", "coordinates": [ 2801696.0, 7303606.0 ] } },
{ "type": "Feature", "properties": { "osmid": 6177045533.0 }, "geometry": { "type": "Point", "coordinates": [ 2827211.0, 7302451.0 ] } },
{ "type": "Feature", "properties": { "osmid": 733901594.0 }, "geometry": { "type": "Point", "coordinates": [ 2817940.0, 7297873.0 ] } },
{ "type": "Feature", "properties": { "osmid": 10654399855.0 }, "geometry": { "type": "Point", "coordinates": [ 2813540.0, 7297669.0 ] } },
{ "type": "Feature", "properties": { "osmid": 1670006427.0 }, "geometry": { "type": "Point", "coordinates": [ 2826080.0, 7301413.0 ] } },
{ "type": "Feature", "properties": { "osmid": 6188817226.0 }, "geometry": { "type": "Point", "coordinates": [ 2826943.0, 7301967.0 ] } },
{ "type": "Feature", "properties": { "osmid": 12307110191.0 }, "geometry": { "type": "Point", "coordinates": [ 2828717.0, 7303654.0 ] } },
{ "type": "Feature", "properties": { "osmid": 9098619017.0 }, "geometry": { "type": "Point", "coordinates": [ 2811439.0, 7297704.0 ] } },
{ "type": "Feature", "properties": { "osmid": 718757654.0 }, "geometry": { "type": "Point", "coordinates": [ 2817361.0, 7297501.0 ] } },
{ "type": "Feature", "properties": { "osmid": 13009744046.0 }, "geometry": { "type": "Point", "coordinates": [ 2816224.0, 7297207.0 ] } },
{ "type": "Feature", "properties": { "osmid": 8229100502.0 }, "geometry": { "type": "Point", "coordinates": [ 2807744.0, 7298579.0 ] } },
{ "type": "Feature", "properties": { "osmid": 1434182565.0 }, "geometry": { "type": "Point", "coordinates": [ 2809370.0, 7297950.0 ] } },
{ "type": "Feature", "properties": { "osmid": 3862902114.0 }, "geometry": { "type": "Point", "coordinates": [ 2808369.0, 7298270.0 ] } },
{ "type": "Feature", "properties": { "osmid": 2237033032.0 }, "geometry": { "type": "Point", "coordinates": [ 2827468.0, 7301830.0 ] } },
{ "type": "Feature", "properties": { "osmid": 3993686092.0 }, "geometry": { "type": "Point", "coordinates": [ 2828498.0, 7302766.0 ] } },
{ "type": "Feature", "properties": { "osmid": 3309328961.0 }, "geometry": { "type": "Point", "coordinates": [ 2805759.0, 7299177.0 ] } },
{ "type": "Feature", "properties": { "osmid": 484785416.0 }, "geometry": { "type": "Point", "coordinates": [ 2804119.0, 7300200.0 ] } },
{ "type": "Feature", "properties": { "osmid": 251898965.0 }, "geometry": { "type": "Point", "coordinates": [ 2810312.0, 7297196.0 ] } },
{ "type": "Feature", "properties": { "osmid": 11944711951.0 }, "geometry": { "type": "Point", "coordinates": [ 2816422.0, 7296656.0 ] } },
{ "type": "Feature", "properties": { "osmid": 11255293227.0 }, "geometry": { "type": "Point", "coordinates": [ 2824627.0, 7299228.0 ] } },
{ "type": "Feature", "properties": { "osmid": 5324055627.0 }, "geometry": { "type": "Point", "coordinates": [ 2806875.0, 7298364.0 ] } },
{ "type": "Feature", "properties": { "osmid": 9356117612.0 }, "geometry": { "type": "Point", "coordinates": [ 2812306.0, 7296595.0 ] } },
{ "type": "Feature", "properties": { "osmid": 2659254878.0 }, "geometry": { "type": "Point", "coordinates": [ 2813411.0, 7296461.0 ] } },
{ "type": "Feature", "properties": { "osmid": 6159051215.0 }, "geometry": { "type": "Point", "coordinates": [ 2828797.0, 7302111.0 ] } },
{ "type": "Feature", "properties": { "osmid": 663836338.0 }, "geometry": { "type": "Point", "coordinates": [ 2809802.0, 7296970.0 ] } },
{ "type": "Feature", "properties": { "osmid": 50146631.0 }, "geometry": { "type": "Point", "coordinates": [ 2806760.0, 7297865.0 ] } },
{ "type": "Feature", "properties": { "osmid": 7366255507.0 }, "geometry": { "type": "Point", "coordinates": [ 2804732.0, 7298935.0 ] } },
{ "type": "Feature", "properties": { "osmid": 841824380.0 }, "geometry": { "type": "Point", "coordinates": [ 2821670.0, 7297156.0 ] } },
{ "type": "Feature", "properties": { "osmid": 1197493941.0 }, "geometry": { "type": "Point", "coordinates": [ 2821182.0, 7296971.0 ] } },
{ "type": "Feature", "properties": { "osmid": 10651727555.0 }, "geometry": { "type": "Point", "coordinates": [ 2807240.0, 7297560.0 ] } },
{ "type": "Feature", "properties": { "osmid": 662089078.0 }, "geometry": { "type": "Point", "coordinates": [ 2812542.0, 7295948.0 ] } },
{ "type": "Feature", "properties": { "osmid": 285959883.0 }, "geometry": { "type": "Point", "coordinates": [ 2822911.0, 7297392.0 ] } },
{ "type": "Feature", "properties": { "osmid": 2420804242.0 }, "geometry": { "type": "Point", "coordinates": [ 2829524.0, 7302085.0 ] } },
{ "type": "Feature", "properties": { "osmid": 2496167521.0 }, "geometry": { "type": "Point", "coordinates": [ 2813273.0, 7295764.0 ] } },
{ "type": "Feature", "properties": { "osmid": 387188912.0 }, "geometry": { "type": "Point", "coordinates": [ 2815080.0, 7295553.0 ] } },
{ "type": "Feature", "properties": { "osmid": 1584131822.0 }, "geometry": { "type": "Point", "coordinates": [ 2830022.0, 7302307.0 ] } },
{ "type": "Feature", "properties": { "osmid": 32869028.0 }, "geometry": { "type": "Point", "coordinates": [ 2805042.0, 7298099.0 ] } },
{ "type": "Feature", "properties": { "osmid": 841824330.0 }, "geometry": { "type": "Point", "coordinates": [ 2823654.0, 7297420.0 ] } },
{ "type": "Feature", "properties": { "osmid": 448429475.0 }, "geometry": { "type": "Point", "coordinates": [ 2828933.0, 7301051.0 ] } },
{ "type": "Feature", "properties": { "osmid": 833756791.0 }, "geometry": { "type": "Point", "coordinates": [ 2822044.0, 7296697.0 ] } },
{ "type": "Feature", "properties": { "osmid": 11255296641.0 }, "geometry": { "type": "Point", "coordinates": [ 2824451.0, 7297732.0 ] } },
{ "type": "Feature", "properties": { "osmid": 2493892853.0 }, "geometry": { "type": "Point", "coordinates": [ 2813642.0, 7295348.0 ] } },
{ "type": "Feature", "properties": { "osmid": 2493892825.0 }, "geometry": { "type": "Point", "coordinates": [ 2814506.0, 7295295.0 ] } },
{ "type": "Feature", "properties": { "osmid": 285960053.0 }, "geometry": { "type": "Point", "coordinates": [ 2823245.0, 7296926.0 ] } },
{ "type": "Feature", "properties": { "osmid": 10002009834.0 }, "geometry": { "type": "Point", "coordinates": [ 2829815.0, 7301540.0 ] } },
{ "type": "Feature", "properties": { "osmid": 9045730410.0 }, "geometry": { "type": "Point", "coordinates": [ 2816550.0, 7295180.0 ] } },
{ "type": "Feature", "properties": { "osmid": 6188806492.0 }, "geometry": { "type": "Point", "coordinates": [ 2829529.0, 7301097.0 ] } },
{ "type": "Feature", "properties": { "osmid": 959751980.0 }, "geometry": { "type": "Point", "coordinates": [ 2822573.0, 7296408.0 ] } },
{ "type": "Feature", "properties": { "osmid": 10175047254.0 }, "geometry": { "type": "Point", "coordinates": [ 2828950.0, 7300356.0 ] } },
{ "type": "Feature", "properties": { "osmid": 5769919371.0 }, "geometry": { "type": "Point", "coordinates": [ 2813196.0, 7294837.0 ] } },
{ "type": "Feature", "properties": { "osmid": 4548765944.0 }, "geometry": { "type": "Point", "coordinates": [ 2814430.0, 7294751.0 ] } },
{ "type": "Feature", "properties": { "osmid": 2206344623.0 }, "geometry": { "type": "Point", "coordinates": [ 2831830.0, 7303177.0 ] } },
{ "type": "Feature", "properties": { "osmid": 766866965.0 }, "geometry": { "type": "Point", "coordinates": [ 2817736.0, 7294509.0 ] } },
{ "type": "Feature", "properties": { "osmid": 9045730406.0 }, "geometry": { "type": "Point", "coordinates": [ 2816712.0, 7294376.0 ] } },
{ "type": "Feature", "properties": { "osmid": 266974559.0 }, "geometry": { "type": "Point", "coordinates": [ 2803954.0, 7297383.0 ] } },
{ "type": "Feature", "properties": { "osmid": 266974520.0 }, "geometry": { "type": "Point", "coordinates": [ 2804558.0, 7297020.0 ] } },
{ "type": "Feature", "properties": { "osmid": 4667193894.0 }, "geometry": { "type": "Point", "coordinates": [ 2829921.0, 7300390.0 ] } },
{ "type": "Feature", "properties": { "osmid": 1780507294.0 }, "geometry": { "type": "Point", "coordinates": [ 2813776.0, 7294246.0 ] } },
{ "type": "Feature", "properties": { "osmid": 13361588228.0 }, "geometry": { "type": "Point", "coordinates": [ 2823576.0, 7295957.0 ] } },
{ "type": "Feature", "properties": { "osmid": 5484457092.0 }, "geometry": { "type": "Point", "coordinates": [ 2804119.0, 7296655.0 ] } },
{ "type": "Feature", "properties": { "osmid": 2347283799.0 }, "geometry": { "type": "Point", "coordinates": [ 2803475.0, 7296636.0 ] } },
{ "type": "Feature", "properties": { "osmid": 13359780373.0 }, "geometry": { "type": "Point", "coordinates": [ 2816715.0, 7293421.0 ] } },
{ "type": "Feature", "properties": { "osmid": 2496147984.0 }, "geometry": { "type": "Point", "coordinates": [ 2812582.0, 7293477.0 ] } },
{ "type": "Feature", "properties": { "osmid": 2335578099.0 }, "geometry": { "type": "Point", "coordinates": [ 2833090.0, 7302681.0 ] } },
{ "type": "Feature", "properties": { "osmid": 13359780444.0 }, "geometry": { "type": "Point", "coordinates": [ 2817420.0, 7293430.0 ] } },
{ "type": "Feature", "properties": { "osmid": 53431536.0 }, "geometry": { "type": "Point", "coordinates": [ 2803840.0, 7296234.0 ] } },
{ "type": "Feature", "properties": { "osmid": 13359780426.0 }, "geometry": { "type": "Point", "coordinates": [ 2818162.0, 7293326.0 ] } },
{ "type": "Feature", "properties": { "osmid": 270264166.0 }, "geometry": { "type": "Point", "coordinates": [ 2813901.0, 7293057.0 ] } },
{ "type": "Feature", "properties": { "osmid": 53431487.0 }, "geometry": { "type": "Point", "coordinates": [ 2803478.0, 7295878.0 ] } },
{ "type": "Feature", "properties": { "osmid": 13359780336.0 }, "geometry": { "type": "Point", "coordinates": [ 2817345.0, 7292090.0 ] } },
{ "type": "Feature", "properties": { "osmid": 12095550493.0 }, "geometry": { "type": "Point", "coordinates": [ 2800796.0, 7296128.0 ] } },
{ "type": "Feature", "properties": { "osmid": 2379125207.0 }, "geometry": { "type": "Point", "coordinates": [ 2811283.0, 7291236.0 ] } },
{ "type": "Feature", "properties": { "osmid": 4932660173.0 }, "geometry": { "type": "Point", "coordinates": [ 2800251.0, 7295802.0 ] } },
{ "type": "Feature", "properties": { "osmid": 685958364.0 }, "geometry": { "type": "Point", "coordinates": [ 2805799.0, 7292176.0 ] } },
{ "type": "Feature", "properties": { "osmid": 5482024055.0 }, "geometry": { "type": "Point", "coordinates": [ 2799709.0, 7295044.0 ] } },
{ "type": "Feature", "properties": { "osmid": 7829422520.0 }, "geometry": { "type": "Point", "coordinates": [ 2798856.0, 7295676.0 ] } },
{ "type": "Feature", "properties": { "osmid": 843984923.0 }, "geometry": { "type": "Point", "coordinates": [ 2795608.0, 7297699.0 ] } },
{ "type": "Feature", "properties": { "osmid": 4327710053.0 }, "geometry": { "type": "Point", "coordinates": [ 2799811.0, 7291776.0 ] } },
{ "type": "Feature", "properties": { "osmid": 2627375912.0 }, "geometry": { "type": "Point", "coordinates": [ 2799832.0, 7290936.0 ] } },
{ "type": "Feature", "properties": { "osmid": 56699034.0 }, "geometry": { "type": "Point", "coordinates": [ 2798108.0, 7291544.0 ] } },
{ "type": "Feature", "properties": { "osmid": 11370504502.0 }, "geometry": { "type": "Point", "coordinates": [ 2812114.0, 7285782.0 ] } },
{ "type": "Feature", "properties": { "osmid": 11795215752.0 }, "geometry": { "type": "Point", "coordinates": [ 2799679.0, 7289775.0 ] } },
{ "type": "Feature", "properties": { "osmid": 2517834270.0 }, "geometry": { "type": "Point", "coordinates": [ 2797110.0, 7290869.0 ] } },
{ "type": "Feature", "properties": { "osmid": 8023079707.0 }, "geometry": { "type": "Point", "coordinates": [ 2797656.0, 7290276.0 ] } },
{ "type": "Feature", "properties": { "osmid": 5670776440.0 }, "geometry": { "type": "Point", "coordinates": [ 2801058.0, 7287764.0 ] } },
{ "type": "Feature", "properties": { "osmid": 274670134.0 }, "geometry": { "type": "Point", "coordinates": [ 2795123.0, 7290725.0 ] } },
{ "type": "Feature", "properties": { "osmid": 1875565945.0 }, "geometry": { "type": "Point", "coordinates": [ 2795413.0, 7289876.0 ] } },
{ "type": "Feature", "properties": { "osmid": 6960688310.0 }, "geometry": { "type": "Point", "coordinates": [ 2795394.0, 7289243.0 ] } },
{ "type": "Feature", "properties": { "osmid": 7025149519.0 }, "geometry": { "type": "Point", "coordinates": [ 2796057.0, 7287782.0 ] } },
{ "type": "Feature", "properties": { "osmid": 13380760131.0 }, "geometry": { "type": "Point", "coordinates": [ 2789590.0, 7290886.0 ] } },
{ "type": "Feature", "properties": { "osmid": 7900746354.0 }, "geometry": { "type": "Point", "coordinates": [ 2800367.0, 7283259.0 ] } },
{ "type": "Feature", "properties": { "osmid": 7900746366.0 }, "geometry": { "type": "Point", "coordinates": [ 2802566.0, 7281692.0 ] } }
]
}
