{
"type": "FeatureCollection",
"name": "vilnius-city_boundary",
"crs": { "type": "name", "properties": { "name": "urn:ogc:def:crs:EPSG::3857" } },
"features": [
{ "type": "Feature", "properties": { "bbox_west": 25.0245351, "bbox_south": 54.5689058, "bbox_east": 25.4814574, "bbox_north": 54.83232, "place_id": 159203433, "osm_type": "relation", "osm_id": 1529146, "lat": 54.6870458, "lon": 25.2829111, "class": "boundary", "type": "administrative", "place_rank": 16, "importance": 0.73755773162398841, "addresstype": "city", "name": "Vilnius", "display_name": "Vilnius, Vilnius city municipality, Vilnius County, Lithuania" }, "geometry": { "type": "Polygon", "coordinates": [ [ [ 2786016.0, 7289274.0 ], [ 2787452.0, 7290295.0 ], [ 2787478.0, 7290299.0 ], [ 2788029.0, 7290377.0 ], [ 2787977.0, 7290708.0 ], [ 2788516.0, 7290595.0 ], [ 2788523.0, 7290685.0 ], [ 2788604.0, 7290700.0 ], [ 2788599.0, 7290736.0 ], [ 2789597.0, 7290893.0 ], [ 2789630.0, 7290898.0 ], [ 2789490.0, 7291352.0 ], [ 2790242.0, 7291394.0 ], [ 2790219.0, 7291745.0 ], [ 2790975.0, 7291723.0 ], [ 2791514.0, 7292173.0 ], [ 2791543.0, 7292306.0 ], [ 2790592.0, 7292817.0 ], [ 2790591.0, 7293067.0 ], [ 2791270.0, 7293023.0 ], [ 2791330.0, 7293720.0 ], [ 2791337.0, 7294175.0 ], [ 2791144.0, 7294188.0 ], [ 2791147.0, 7294227.0 ], [ 2791208.0, 7295293.0 ], [ 2792101.0, 7295296.0 ], [ 2792277.0, 7295334.0 ], [ 2792633.0, 7295434.0 ], [ 2792780.0, 7295351.0 ], [ 2792885.0, 7295418.0 ], [ 2793068.0, 7295494.0 ], [ 2793317.0, 7295465.0 ], [ 2793718.0, 7295456.0 ], [ 2794103.0, 7295416.0 ], [ 2794784.0, 7295326.0 ], [ 2794999.0, 7295370.0 ], [ 2795160.0, 7295365.0 ], [ 2795245.0, 7295371.0 ], [ 2795266.0, 7295566.0 ], [ 2795222.0, 7295809.0 ], [ 2795305.0, 7295846.0 ], [ 2795268.0, 7295896.0 ], [ 2795219.0, 7295958.0 ], [ 2795192.0, 7295990.0 ], [ 2795172.0, 7296007.0 ], [ 2795138.0, 7296029.0 ], [ 2795060.0, 7296058.0 ], [ 2795046.0, 7296059.0 ], [ 2795034.0, 7296052.0 ], [ 2795013.0, 7296022.0 ], [ 2794998.0, 7296012.0 ], [ 2794982.0, 7296009.0 ], [ 2794965.0, 7296010.0 ], [ 2794952.0, 7296013.0 ], [ 2794944.0, 7296019.0 ], [ 2794939.0, 7296029.0 ], [ 2794939.0, 7296050.0 ], [ 2794937.0, 7296076.0 ], [ 2794932.0, 7296091.0 ], [ 2794921.0, 7296105.0 ], [ 2794887.0, 7296115.0 ], [ 2794799.0, 7296130.0 ], [ 2794713.0, 7296133.0 ], [ 2794652.0, 7296131.0 ], [ 2794612.0, 7296130.0 ], [ 2794584.0, 7296133.0 ], [ 2794545.0, 7296142.0 ], [ 2794522.0, 7296160.0 ], [ 2794510.0, 7296184.0 ], [ 2794507.0, 7296213.0 ], [ 2794513.0, 7296245.0 ], [ 2794530.0, 7296286.0 ], [ 2794550.0, 7296337.0 ], [ 2794570.0, 7296399.0 ], [ 2794582.0, 7296431.0 ], [ 2794604.0, 7296469.0 ], [ 2794641.0, 7296517.0 ], [ 2794675.0, 7296567.0 ], [ 2794694.0, 7296605.0 ], [ 2794709.0, 7296627.0 ], [ 2794733.0, 7296650.0 ], [ 2794770.0, 7296670.0 ], [ 2794808.0, 7296677.0 ], [ 2794835.0, 7296674.0 ], [ 2794902.0, 7296647.0 ], [ 2794934.0, 7296640.0 ], [ 2794984.0, 7296644.0 ], [ 2795012.0, 7296658.0 ], [ 2795038.0, 7296676.0 ], [ 2795067.0, 7296716.0 ], [ 2795100.0, 7296777.0 ], [ 2795119.0, 7296810.0 ], [ 2795138.0, 7296833.0 ], [ 2795157.0, 7296858.0 ], [ 2795186.0, 7296881.0 ], [ 2795220.0, 7296899.0 ], [ 2794262.0, 7296681.0 ], [ 2794113.0, 7296632.0 ], [ 2793548.0, 7296508.0 ], [ 2793030.0, 7296528.0 ], [ 2792576.0, 7296512.0 ], [ 2792213.0, 7296792.0 ], [ 2792177.0, 7296820.0 ], [ 2792258.0, 7296993.0 ], [ 2792286.0, 7296979.0 ], [ 2792297.0, 7297010.0 ], [ 2792390.0, 7296961.0 ], [ 2792424.0, 7297076.0 ], [ 2792487.0, 7297287.0 ], [ 2792559.0, 7297271.0 ], [ 2792613.0, 7297507.0 ], [ 2792646.0, 7297487.0 ], [ 2792687.0, 7297473.0 ], [ 2792750.0, 7297457.0 ], [ 2792786.0, 7297444.0 ], [ 2792866.0, 7297408.0 ], [ 2792918.0, 7297395.0 ], [ 2792936.0, 7297395.0 ], [ 2792951.0, 7297398.0 ], [ 2792964.0, 7297404.0 ], [ 2792973.0, 7297410.0 ], [ 2792981.0, 7297419.0 ], [ 2792987.0, 7297435.0 ], [ 2792988.0, 7297448.0 ], [ 2792987.0, 7297511.0 ], [ 2792999.0, 7297569.0 ], [ 2793018.0, 7297626.0 ], [ 2793044.0, 7297669.0 ], [ 2793068.0, 7297702.0 ], [ 2793086.0, 7297722.0 ], [ 2793108.0, 7297735.0 ], [ 2793129.0, 7297736.0 ], [ 2793154.0, 7297731.0 ], [ 2793188.0, 7297715.0 ], [ 2793221.0, 7297685.0 ], [ 2793246.0, 7297658.0 ], [ 2793260.0, 7297636.0 ], [ 2793269.0, 7297605.0 ], [ 2793269.0, 7297592.0 ], [ 2793261.0, 7297570.0 ], [ 2793231.0, 7297540.0 ], [ 2793189.0, 7297486.0 ], [ 2793174.0, 7297445.0 ], [ 2793172.0, 7297403.0 ], [ 2793168.0, 7297388.0 ], [ 2793154.0, 7297363.0 ], [ 2793138.0, 7297324.0 ], [ 2793127.0, 7297274.0 ], [ 2793125.0, 7297237.0 ], [ 2793128.0, 7297222.0 ], [ 2793133.0, 7297209.0 ], [ 2793140.0, 7297199.0 ], [ 2793151.0, 7297190.0 ], [ 2793168.0, 7297180.0 ], [ 2793192.0, 7297172.0 ], [ 2793233.0, 7297163.0 ], [ 2793288.0, 7297141.0 ], [ 2793306.0, 7297129.0 ], [ 2793319.0, 7297115.0 ], [ 2793328.0, 7297096.0 ], [ 2793344.0, 7297036.0 ], [ 2793347.0, 7296993.0 ], [ 2793351.0, 7296968.0 ], [ 2793360.0, 7296951.0 ], [ 2793372.0, 7296934.0 ], [ 2793393.0, 7296924.0 ], [ 2793422.0, 7296912.0 ], [ 2793455.0, 7296907.0 ], [ 2793484.0, 7296913.0 ], [ 2793518.0, 7296924.0 ], [ 2793592.0, 7296978.0 ], [ 2793680.0, 7297035.0 ], [ 2793760.0, 7297067.0 ], [ 2793792.0, 7297085.0 ], [ 2793808.0, 7297104.0 ], [ 2793830.0, 7297156.0 ], [ 2793842.0, 7297167.0 ], [ 2793855.0, 7297174.0 ], [ 2793882.0, 7297182.0 ], [ 2793906.0, 7297196.0 ], [ 2793932.0, 7297210.0 ], [ 2793966.0, 7297216.0 ], [ 2794000.0, 7297210.0 ], [ 2794050.0, 7297180.0 ], [ 2794073.0, 7297172.0 ], [ 2794105.0, 7297170.0 ], [ 2794207.0, 7297198.0 ], [ 2794258.0, 7297205.0 ], [ 2794306.0, 7297207.0 ], [ 2794343.0, 7297209.0 ], [ 2794375.0, 7297216.0 ], [ 2794406.0, 7297235.0 ], [ 2794439.0, 7297265.0 ], [ 2794467.0, 7297302.0 ], [ 2794487.0, 7297349.0 ], [ 2794515.0, 7297437.0 ], [ 2794527.0, 7297471.0 ], [ 2794533.0, 7297511.0 ], [ 2794556.0, 7297584.0 ], [ 2794589.0, 7297642.0 ], [ 2794671.0, 7297713.0 ], [ 2794727.0, 7297747.0 ], [ 2794756.0, 7297759.0 ], [ 2794784.0, 7297765.0 ], [ 2794822.0, 7297765.0 ], [ 2794846.0, 7297755.0 ], [ 2794864.0, 7297737.0 ], [ 2794870.0, 7297721.0 ], [ 2794870.0, 7297696.0 ], [ 2794861.0, 7297626.0 ], [ 2794865.0, 7297591.0 ], [ 2794870.0, 7297571.0 ], [ 2794882.0, 7297547.0 ], [ 2794908.0, 7297512.0 ], [ 2794947.0, 7297457.0 ], [ 2794965.0, 7297431.0 ], [ 2794979.0, 7297416.0 ], [ 2795005.0, 7297405.0 ], [ 2795043.0, 7297394.0 ], [ 2795089.0, 7297379.0 ], [ 2795151.0, 7297354.0 ], [ 2795210.0, 7297321.0 ], [ 2795265.0, 7297291.0 ], [ 2795353.0, 7297229.0 ], [ 2795374.0, 7297207.0 ], [ 2795386.0, 7297186.0 ], [ 2795398.0, 7297156.0 ], [ 2795417.0, 7297077.0 ], [ 2795589.0, 7297110.0 ], [ 2795550.0, 7297432.0 ], [ 2795369.0, 7297643.0 ], [ 2794352.0, 7298162.0 ], [ 2794454.0, 7298361.0 ], [ 2794606.0, 7298595.0 ], [ 2794677.0, 7298674.0 ], [ 2794799.0, 7298831.0 ], [ 2794869.0, 7298986.0 ], [ 2795080.0, 7298894.0 ], [ 2795182.0, 7298841.0 ], [ 2795273.0, 7298803.0 ], [ 2795369.0, 7298778.0 ], [ 2795744.0, 7298700.0 ], [ 2795890.0, 7298674.0 ], [ 2795977.0, 7298666.0 ], [ 2796035.0, 7298667.0 ], [ 2796118.0, 7298676.0 ], [ 2796223.0, 7298707.0 ], [ 2796383.0, 7298769.0 ], [ 2796537.0, 7298847.0 ], [ 2796785.0, 7299029.0 ], [ 2797188.0, 7299320.0 ], [ 2797272.0, 7299395.0 ], [ 2797313.0, 7299454.0 ], [ 2797346.0, 7299533.0 ], [ 2797383.0, 7299618.0 ], [ 2797414.0, 7299678.0 ], [ 2797440.0, 7299707.0 ], [ 2797479.0, 7299736.0 ], [ 2797564.0, 7299766.0 ], [ 2797649.0, 7299813.0 ], [ 2797838.0, 7299967.0 ], [ 2797916.0, 7300036.0 ], [ 2798023.0, 7300143.0 ], [ 2798093.0, 7300197.0 ], [ 2798161.0, 7300225.0 ], [ 2798267.0, 7300246.0 ], [ 2798412.0, 7300270.0 ], [ 2798558.0, 7300289.0 ], [ 2798691.0, 7300290.0 ], [ 2798820.0, 7300283.0 ], [ 2798936.0, 7300251.0 ], [ 2799022.0, 7300209.0 ], [ 2799065.0, 7300191.0 ], [ 2799205.0, 7300106.0 ], [ 2799402.0, 7299961.0 ], [ 2799506.0, 7299906.0 ], [ 2799627.0, 7299863.0 ], [ 2799740.0, 7299841.0 ], [ 2799858.0, 7299829.0 ], [ 2799964.0, 7299832.0 ], [ 2800029.0, 7299850.0 ], [ 2800069.0, 7299874.0 ], [ 2800103.0, 7299917.0 ], [ 2800197.0, 7300043.0 ], [ 2800229.0, 7300074.0 ], [ 2800288.0, 7300104.0 ], [ 2800340.0, 7300125.0 ], [ 2800527.0, 7300154.0 ], [ 2800619.0, 7300154.0 ], [ 2800676.0, 7300146.0 ], [ 2800723.0, 7300131.0 ], [ 2800767.0, 7300109.0 ], [ 2800808.0, 7300083.0 ], [ 2800854.0, 7300045.0 ], [ 2800895.0, 7299991.0 ], [ 2800958.0, 7299889.0 ], [ 2800994.0, 7299786.0 ], [ 2801036.0, 7299589.0 ], [ 2801073.0, 7299446.0 ], [ 2801134.0, 7299287.0 ], [ 2801167.0, 7299190.0 ], [ 2801199.0, 7299063.0 ], [ 2801234.0, 7298954.0 ], [ 2801322.0, 7298761.0 ], [ 2801366.0, 7298682.0 ], [ 2801424.0, 7298604.0 ], [ 2801474.0, 7298555.0 ], [ 2801532.0, 7298518.0 ], [ 2801603.0, 7298489.0 ], [ 2801675.0, 7298472.0 ], [ 2801749.0, 7298467.0 ], [ 2801896.0, 7298481.0 ], [ 2802035.0, 7298501.0 ], [ 2802198.0, 7298519.0 ], [ 2802320.0, 7298544.0 ], [ 2802370.0, 7298564.0 ], [ 2802429.0, 7298598.0 ], [ 2802509.0, 7298660.0 ], [ 2802576.0, 7298713.0 ], [ 2802628.0, 7298735.0 ], [ 2802689.0, 7298750.0 ], [ 2802736.0, 7298756.0 ], [ 2802805.0, 7298755.0 ], [ 2804087.0, 7300169.0 ], [ 2804349.0, 7300594.0 ], [ 2803933.0, 7301063.0 ], [ 2803799.0, 7302087.0 ], [ 2803284.0, 7302767.0 ], [ 2803277.0, 7303069.0 ], [ 2803245.0, 7303744.0 ], [ 2803069.0, 7304113.0 ], [ 2802784.0, 7304005.0 ], [ 2802583.0, 7303900.0 ], [ 2802590.0, 7303789.0 ], [ 2802410.0, 7303732.0 ], [ 2802318.0, 7303717.0 ], [ 2802316.0, 7303586.0 ], [ 2801892.0, 7303522.0 ], [ 2801836.0, 7303402.0 ], [ 2801792.0, 7303357.0 ], [ 2801595.0, 7303446.0 ], [ 2801465.0, 7303596.0 ], [ 2801438.0, 7303524.0 ], [ 2801228.0, 7303549.0 ], [ 2801247.0, 7303711.0 ], [ 2801089.0, 7303759.0 ], [ 2800830.0, 7303934.0 ], [ 2800451.0, 7304072.0 ], [ 2800409.0, 7304074.0 ], [ 2800373.0, 7304070.0 ], [ 2800145.0, 7304013.0 ], [ 2800073.0, 7303941.0 ], [ 2799982.0, 7303768.0 ], [ 2799972.0, 7303677.0 ], [ 2799909.0, 7303547.0 ], [ 2799679.0, 7303251.0 ], [ 2799634.0, 7303212.0 ], [ 2799430.0, 7303103.0 ], [ 2799191.0, 7303240.0 ], [ 2799234.0, 7303497.0 ], [ 2799132.0, 7303501.0 ], [ 2798826.0, 7303518.0 ], [ 2798296.0, 7303324.0 ], [ 2797997.0, 7302968.0 ], [ 2797880.0, 7303205.0 ], [ 2797682.0, 7303159.0 ], [ 2797352.0, 7303362.0 ], [ 2796899.0, 7303549.0 ], [ 2796808.0, 7303690.0 ], [ 2796485.0, 7303728.0 ], [ 2796343.0, 7303752.0 ], [ 2796216.0, 7303774.0 ], [ 2796154.0, 7303635.0 ], [ 2796004.0, 7303694.0 ], [ 2795606.0, 7303844.0 ], [ 2795278.0, 7303980.0 ], [ 2794745.0, 7304059.0 ], [ 2794630.0, 7304101.0 ], [ 2794493.0, 7304150.0 ], [ 2794234.0, 7304290.0 ], [ 2794534.0, 7304724.0 ], [ 2794771.0, 7304597.0 ], [ 2795591.0, 7305586.0 ], [ 2796199.0, 7305365.0 ], [ 2797031.0, 7305065.0 ], [ 2797184.0, 7305354.0 ], [ 2797737.0, 7305065.0 ], [ 2797849.0, 7305030.0 ], [ 2797957.0, 7305014.0 ], [ 2797994.0, 7305037.0 ], [ 2797998.0, 7305069.0 ], [ 2797983.0, 7305187.0 ], [ 2797987.0, 7305199.0 ], [ 2798008.0, 7305224.0 ], [ 2798029.0, 7305239.0 ], [ 2798092.0, 7305253.0 ], [ 2798472.0, 7305319.0 ], [ 2798266.0, 7305569.0 ], [ 2798460.0, 7305820.0 ], [ 2798557.0, 7305800.0 ], [ 2798614.0, 7305945.0 ], [ 2798687.0, 7305937.0 ], [ 2798725.0, 7305930.0 ], [ 2799113.0, 7305754.0 ], [ 2799312.0, 7305849.0 ], [ 2799506.0, 7305941.0 ], [ 2799638.0, 7306216.0 ], [ 2799664.0, 7306354.0 ], [ 2799707.0, 7306523.0 ], [ 2799802.0, 7306638.0 ], [ 2799967.0, 7306756.0 ], [ 2799425.0, 7308621.0 ], [ 2799786.0, 7308724.0 ], [ 2799962.0, 7308808.0 ], [ 2800164.0, 7309574.0 ], [ 2800286.0, 7309542.0 ], [ 2800878.0, 7309331.0 ], [ 2801241.0, 7309114.0 ], [ 2801391.0, 7308863.0 ], [ 2801677.0, 7308699.0 ], [ 2801924.0, 7309067.0 ], [ 2802723.0, 7308499.0 ], [ 2802810.0, 7308437.0 ], [ 2802779.0, 7308372.0 ], [ 2802785.0, 7308367.0 ], [ 2803116.0, 7308123.0 ], [ 2803736.0, 7307984.0 ], [ 2803839.0, 7308017.0 ], [ 2803911.0, 7307616.0 ], [ 2803725.0, 7307396.0 ], [ 2803915.0, 7306895.0 ], [ 2803964.0, 7306820.0 ], [ 2804166.0, 7306843.0 ], [ 2804247.0, 7306998.0 ], [ 2804321.0, 7307011.0 ], [ 2804346.0, 7306986.0 ], [ 2804399.0, 7306973.0 ], [ 2804845.0, 7306865.0 ], [ 2805077.0, 7306503.0 ], [ 2805141.0, 7306379.0 ], [ 2805174.0, 7306458.0 ], [ 2805192.0, 7306508.0 ], [ 2805198.0, 7306545.0 ], [ 2805197.0, 7306575.0 ], [ 2805167.0, 7306658.0 ], [ 2805156.0, 7306696.0 ], [ 2805154.0, 7306731.0 ], [ 2805164.0, 7306762.0 ], [ 2805220.0, 7306847.0 ], [ 2805244.0, 7306895.0 ], [ 2805255.0, 7306951.0 ], [ 2805237.0, 7307056.0 ], [ 2805245.0, 7307097.0 ], [ 2805256.0, 7307132.0 ], [ 2805308.0, 7307094.0 ], [ 2805336.0, 7307084.0 ], [ 2805379.0, 7307081.0 ], [ 2805411.0, 7307096.0 ], [ 2805435.0, 7307119.0 ], [ 2805455.0, 7307161.0 ], [ 2805457.0, 7307214.0 ], [ 2805453.0, 7307229.0 ], [ 2805521.0, 7307266.0 ], [ 2805383.0, 7307671.0 ], [ 2805389.0, 7307673.0 ], [ 2805461.0, 7307700.0 ], [ 2805482.0, 7307711.0 ], [ 2805494.0, 7307729.0 ], [ 2805500.0, 7307746.0 ], [ 2805500.0, 7307767.0 ], [ 2805486.0, 7307796.0 ], [ 2805457.0, 7307827.0 ], [ 2805442.0, 7307843.0 ], [ 2805435.0, 7307863.0 ], [ 2805435.0, 7307877.0 ], [ 2805443.0, 7307897.0 ], [ 2805452.0, 7307925.0 ], [ 2805451.0, 7307981.0 ], [ 2805437.0, 7308028.0 ], [ 2805412.0, 7308059.0 ], [ 2805386.0, 7308075.0 ], [ 2805472.0, 7308589.0 ], [ 2805358.0, 7308827.0 ], [ 2805453.0, 7308905.0 ], [ 2805429.0, 7308987.0 ], [ 2805512.0, 7309177.0 ], [ 2805632.0, 7309143.0 ], [ 2805687.0, 7309179.0 ], [ 2805885.0, 7309300.0 ], [ 2805893.0, 7310610.0 ], [ 2805891.0, 7310708.0 ], [ 2805893.0, 7310753.0 ], [ 2805900.0, 7311039.0 ], [ 2805927.0, 7311862.0 ], [ 2805833.0, 7312568.0 ], [ 2805387.0, 7312389.0 ], [ 2805188.0, 7312486.0 ], [ 2805004.0, 7312382.0 ], [ 2804790.0, 7312189.0 ], [ 2804565.0, 7311914.0 ], [ 2804518.0, 7311810.0 ], [ 2804648.0, 7311439.0 ], [ 2804742.0, 7311063.0 ], [ 2804732.0, 7310788.0 ], [ 2804423.0, 7310716.0 ], [ 2804181.0, 7310768.0 ], [ 2804161.0, 7310777.0 ], [ 2804080.0, 7310829.0 ], [ 2803256.0, 7311526.0 ], [ 2802981.0, 7311940.0 ], [ 2802637.0, 7312289.0 ], [ 2802793.0, 7312404.0 ], [ 2802742.0, 7312511.0 ], [ 2802619.0, 7312790.0 ], [ 2802315.0, 7313016.0 ], [ 2802353.0, 7313835.0 ], [ 2802359.0, 7313928.0 ], [ 2802427.0, 7314118.0 ], [ 2802508.0, 7314097.0 ], [ 2802610.0, 7314070.0 ], [ 2802693.0, 7314047.0 ], [ 2802702.0, 7314045.0 ], [ 2802716.0, 7314040.0 ], [ 2802756.0, 7314029.0 ], [ 2803100.0, 7313934.0 ], [ 2803306.0, 7313268.0 ], [ 2804004.0, 7313659.0 ], [ 2803790.0, 7314111.0 ], [ 2804079.0, 7314266.0 ], [ 2804283.0, 7314375.0 ], [ 2804323.0, 7314430.0 ], [ 2804411.0, 7314603.0 ], [ 2804547.0, 7314844.0 ], [ 2804581.0, 7314905.0 ], [ 2804591.0, 7314923.0 ], [ 2804859.0, 7314473.0 ], [ 2804973.0, 7314275.0 ], [ 2805417.0, 7315086.0 ], [ 2805577.0, 7315405.0 ], [ 2805735.0, 7315141.0 ], [ 2806229.0, 7314438.0 ], [ 2806827.0, 7313524.0 ], [ 2806851.0, 7313540.0 ], [ 2806893.0, 7313572.0 ], [ 2806957.0, 7313691.0 ], [ 2807027.0, 7313846.0 ], [ 2807226.0, 7314288.0 ], [ 2807238.0, 7314318.0 ], [ 2807246.0, 7314347.0 ], [ 2807254.0, 7314388.0 ], [ 2807258.0, 7314438.0 ], [ 2807281.0, 7314667.0 ], [ 2807291.0, 7314707.0 ], [ 2808529.0, 7314286.0 ], [ 2808560.0, 7314902.0 ], [ 2808563.0, 7314976.0 ], [ 2809076.0, 7314873.0 ], [ 2809114.0, 7314869.0 ], [ 2809176.0, 7314873.0 ], [ 2809198.0, 7314873.0 ], [ 2809225.0, 7314872.0 ], [ 2809331.0, 7314855.0 ], [ 2809376.0, 7315041.0 ], [ 2809609.0, 7315021.0 ], [ 2809619.0, 7314919.0 ], [ 2809750.0, 7314903.0 ], [ 2809779.0, 7314922.0 ], [ 2809792.0, 7315022.0 ], [ 2809919.0, 7315057.0 ], [ 2810105.0, 7315616.0 ], [ 2810088.0, 7315903.0 ], [ 2810152.0, 7315965.0 ], [ 2810263.0, 7316123.0 ], [ 2810376.0, 7316138.0 ], [ 2810537.0, 7316293.0 ], [ 2810734.0, 7316498.0 ], [ 2810562.0, 7316719.0 ], [ 2811277.0, 7317091.0 ], [ 2811380.0, 7317144.0 ], [ 2812199.0, 7317569.0 ], [ 2812838.0, 7317879.0 ], [ 2812839.0, 7317888.0 ], [ 2812756.0, 7318008.0 ], [ 2812722.0, 7318199.0 ], [ 2812626.0, 7318312.0 ], [ 2812554.0, 7318354.0 ], [ 2812531.0, 7318418.0 ], [ 2812482.0, 7318419.0 ], [ 2812465.0, 7318481.0 ], [ 2812455.0, 7318545.0 ], [ 2812509.0, 7318596.0 ], [ 2812494.0, 7318697.0 ], [ 2812654.0, 7318713.0 ], [ 2812696.0, 7318718.0 ], [ 2812833.0, 7318735.0 ], [ 2812850.0, 7318685.0 ], [ 2812866.0, 7318676.0 ], [ 2812888.0, 7318582.0 ], [ 2813077.0, 7318615.0 ], [ 2813082.0, 7318593.0 ], [ 2813123.0, 7318588.0 ], [ 2813134.0, 7318475.0 ], [ 2813167.0, 7318477.0 ], [ 2813169.0, 7318414.0 ], [ 2813326.0, 7318421.0 ], [ 2813281.0, 7318205.0 ], [ 2813296.0, 7318193.0 ], [ 2813707.0, 7318119.0 ], [ 2813780.0, 7318324.0 ], [ 2814693.0, 7318194.0 ], [ 2814662.0, 7318998.0 ], [ 2813510.0, 7318964.0 ], [ 2813535.0, 7319069.0 ], [ 2813577.0, 7319297.0 ], [ 2813601.0, 7319468.0 ], [ 2813625.0, 7319688.0 ], [ 2813640.0, 7319853.0 ], [ 2813649.0, 7319989.0 ], [ 2813660.0, 7320186.0 ], [ 2813663.0, 7320445.0 ], [ 2813672.0, 7321441.0 ], [ 2813677.0, 7322022.0 ], [ 2814245.0, 7322086.0 ], [ 2814341.0, 7322362.0 ], [ 2814374.0, 7322451.0 ], [ 2814402.0, 7322473.0 ], [ 2814433.0, 7322477.0 ], [ 2814827.0, 7322358.0 ], [ 2815075.0, 7322270.0 ], [ 2815167.0, 7322415.0 ], [ 2815182.0, 7322443.0 ], [ 2815366.0, 7322780.0 ], [ 2815149.0, 7322816.0 ], [ 2815117.0, 7322828.0 ], [ 2815317.0, 7323044.0 ], [ 2815223.0, 7323197.0 ], [ 2815028.0, 7323141.0 ], [ 2814976.0, 7323562.0 ], [ 2815213.0, 7323462.0 ], [ 2815249.0, 7323673.0 ], [ 2815309.0, 7324019.0 ], [ 2815370.0, 7324151.0 ], [ 2815232.0, 7324294.0 ], [ 2815198.0, 7324473.0 ], [ 2815263.0, 7324614.0 ], [ 2815215.0, 7324675.0 ], [ 2815172.0, 7324772.0 ], [ 2815304.0, 7324997.0 ], [ 2815427.0, 7324941.0 ], [ 2815713.0, 7324994.0 ], [ 2815729.0, 7325407.0 ], [ 2815463.0, 7325385.0 ], [ 2815442.0, 7325548.0 ], [ 2815345.0, 7325631.0 ], [ 2815277.0, 7325690.0 ], [ 2815164.0, 7325612.0 ], [ 2814973.0, 7325480.0 ], [ 2814731.0, 7325765.0 ], [ 2814750.0, 7326080.0 ], [ 2814854.0, 7326316.0 ], [ 2814811.0, 7326450.0 ], [ 2814871.0, 7326779.0 ], [ 2814906.0, 7326801.0 ], [ 2814889.0, 7326864.0 ], [ 2814906.0, 7326968.0 ], [ 2814997.0, 7327153.0 ], [ 2814758.0, 7327239.0 ], [ 2814840.0, 7327368.0 ], [ 2814600.0, 7327484.0 ], [ 2814616.0, 7327521.0 ], [ 2814662.0, 7327634.0 ], [ 2814844.0, 7327653.0 ], [ 2815203.0, 7327526.0 ], [ 2815236.0, 7327586.0 ], [ 2815687.0, 7328401.0 ], [ 2815944.0, 7328375.0 ], [ 2815969.0, 7328451.0 ], [ 2816121.0, 7328437.0 ], [ 2816127.0, 7328359.0 ], [ 2816254.0, 7328351.0 ], [ 2816402.0, 7328104.0 ], [ 2816555.0, 7328108.0 ], [ 2816692.0, 7328328.0 ], [ 2816976.0, 7328316.0 ], [ 2817105.0, 7328824.0 ], [ 2817556.0, 7329107.0 ], [ 2817993.0, 7329391.0 ], [ 2818257.0, 7329006.0 ], [ 2818343.0, 7328754.0 ], [ 2818667.0, 7328417.0 ], [ 2818644.0, 7328268.0 ], [ 2818612.0, 7328136.0 ], [ 2818754.0, 7328243.0 ], [ 2818826.0, 7328222.0 ], [ 2818845.0, 7328222.0 ], [ 2818848.0, 7328216.0 ], [ 2819141.0, 7328133.0 ], [ 2819128.0, 7328161.0 ], [ 2819099.0, 7328224.0 ], [ 2819061.0, 7328297.0 ], [ 2819208.0, 7328336.0 ], [ 2819303.0, 7328200.0 ], [ 2819211.0, 7328124.0 ], [ 2819392.0, 7328014.0 ], [ 2819587.0, 7327949.0 ], [ 2819728.0, 7327907.0 ], [ 2819700.0, 7327858.0 ], [ 2819747.0, 7327819.0 ], [ 2819806.0, 7327790.0 ], [ 2819907.0, 7327708.0 ], [ 2819888.0, 7327691.0 ], [ 2820139.0, 7327736.0 ], [ 2820210.0, 7327713.0 ], [ 2820259.0, 7327521.0 ], [ 2820325.0, 7327261.0 ], [ 2820128.0, 7327167.0 ], [ 2819864.0, 7327061.0 ], [ 2819152.0, 7326780.0 ], [ 2818776.0, 7326639.0 ], [ 2818788.0, 7326456.0 ], [ 2819093.0, 7326492.0 ], [ 2819152.0, 7326189.0 ], [ 2819300.0, 7326161.0 ], [ 2819361.0, 7326205.0 ], [ 2819593.0, 7325904.0 ], [ 2819449.0, 7325755.0 ], [ 2819487.0, 7325335.0 ], [ 2819629.0, 7325161.0 ], [ 2819892.0, 7324988.0 ], [ 2819966.0, 7324972.0 ], [ 2820380.0, 7325093.0 ], [ 2820498.0, 7325224.0 ], [ 2820913.0, 7325109.0 ], [ 2821098.0, 7325107.0 ], [ 2821968.0, 7324770.0 ], [ 2822015.0, 7324799.0 ], [ 2822062.0, 7325049.0 ], [ 2822096.0, 7325289.0 ], [ 2821959.0, 7325636.0 ], [ 2821937.0, 7325660.0 ], [ 2821883.0, 7325866.0 ], [ 2821959.0, 7325904.0 ], [ 2822046.0, 7325942.0 ], [ 2822043.0, 7325873.0 ], [ 2822055.0, 7325869.0 ], [ 2822056.0, 7325825.0 ], [ 2822076.0, 7325825.0 ], [ 2822082.0, 7325789.0 ], [ 2822119.0, 7325654.0 ], [ 2822138.0, 7325665.0 ], [ 2822231.0, 7325426.0 ], [ 2822293.0, 7325341.0 ], [ 2822325.0, 7325287.0 ], [ 2822389.0, 7325175.0 ], [ 2822404.0, 7325137.0 ], [ 2822415.0, 7325103.0 ], [ 2822427.0, 7325065.0 ], [ 2822437.0, 7324977.0 ], [ 2822458.0, 7324800.0 ], [ 2822525.0, 7324808.0 ], [ 2822564.0, 7324755.0 ], [ 2822602.0, 7324604.0 ], [ 2822623.0, 7324602.0 ], [ 2822624.0, 7324560.0 ], [ 2822629.0, 7324536.0 ], [ 2822650.0, 7324445.0 ], [ 2822677.0, 7324359.0 ], [ 2822718.0, 7324354.0 ], [ 2822858.0, 7324358.0 ], [ 2823031.0, 7324359.0 ], [ 2823097.0, 7324498.0 ], [ 2823134.0, 7324605.0 ], [ 2823157.0, 7324778.0 ], [ 2823154.0, 7324883.0 ], [ 2823131.0, 7325006.0 ], [ 2823095.0, 7325098.0 ], [ 2823036.0, 7325185.0 ], [ 2822997.0, 7325241.0 ], [ 2822973.0, 7325316.0 ], [ 2822971.0, 7325374.0 ], [ 2822979.0, 7325428.0 ], [ 2823018.0, 7325513.0 ], [ 2823064.0, 7325643.0 ], [ 2823074.0, 7325701.0 ], [ 2823075.0, 7325773.0 ], [ 2823061.0, 7325850.0 ], [ 2822984.0, 7326085.0 ], [ 2822919.0, 7326249.0 ], [ 2822847.0, 7326440.0 ], [ 2822798.0, 7326524.0 ], [ 2822747.0, 7326607.0 ], [ 2822711.0, 7326700.0 ], [ 2822685.0, 7326860.0 ], [ 2822681.0, 7326929.0 ], [ 2822690.0, 7326994.0 ], [ 2822703.0, 7327033.0 ], [ 2822763.0, 7327184.0 ], [ 2822795.0, 7327248.0 ], [ 2822834.0, 7327313.0 ], [ 2822879.0, 7327375.0 ], [ 2823047.0, 7327537.0 ], [ 2823580.0, 7328008.0 ], [ 2823757.0, 7328166.0 ], [ 2823801.0, 7328137.0 ], [ 2823941.0, 7328049.0 ], [ 2823683.0, 7327728.0 ], [ 2823346.0, 7327505.0 ], [ 2823124.0, 7327294.0 ], [ 2823090.0, 7327292.0 ], [ 2822954.0, 7327012.0 ], [ 2823036.0, 7326756.0 ], [ 2823062.0, 7326674.0 ], [ 2823144.0, 7326299.0 ], [ 2823419.0, 7326226.0 ], [ 2825001.0, 7326205.0 ], [ 2824988.0, 7325231.0 ], [ 2824972.0, 7324263.0 ], [ 2826411.0, 7324234.0 ], [ 2826551.0, 7324233.0 ], [ 2827651.0, 7324212.0 ], [ 2828581.0, 7324190.0 ], [ 2828411.0, 7323904.0 ], [ 2828460.0, 7323901.0 ], [ 2828484.0, 7323900.0 ], [ 2829301.0, 7323856.0 ], [ 2829263.0, 7323001.0 ], [ 2830019.0, 7323085.0 ], [ 2831192.0, 7323215.0 ], [ 2832668.0, 7323376.0 ], [ 2833642.0, 7323482.0 ], [ 2833731.0, 7322734.0 ], [ 2833654.0, 7322267.0 ], [ 2833628.0, 7321191.0 ], [ 2833586.0, 7318888.0 ], [ 2833562.0, 7317722.0 ], [ 2833558.0, 7317529.0 ], [ 2833535.0, 7317073.0 ], [ 2833361.0, 7313575.0 ], [ 2833243.0, 7311737.0 ], [ 2832872.0, 7311712.0 ], [ 2832436.0, 7312057.0 ], [ 2832409.0, 7312215.0 ], [ 2832202.0, 7312253.0 ], [ 2832020.0, 7312354.0 ], [ 2831723.0, 7311951.0 ], [ 2831772.0, 7311643.0 ], [ 2830526.0, 7311368.0 ], [ 2830593.0, 7311121.0 ], [ 2830610.0, 7310815.0 ], [ 2830446.0, 7310742.0 ], [ 2830292.0, 7310681.0 ], [ 2830302.0, 7310396.0 ], [ 2830325.0, 7310148.0 ], [ 2830334.0, 7310030.0 ], [ 2830353.0, 7309792.0 ], [ 2830367.0, 7309615.0 ], [ 2830180.0, 7309503.0 ], [ 2830159.0, 7309495.0 ], [ 2829556.0, 7309400.0 ], [ 2829554.0, 7309274.0 ], [ 2829360.0, 7309288.0 ], [ 2828848.0, 7309293.0 ], [ 2828849.0, 7309226.0 ], [ 2828902.0, 7308978.0 ], [ 2828902.0, 7308876.0 ], [ 2828894.0, 7308766.0 ], [ 2828856.0, 7308577.0 ], [ 2828678.0, 7308489.0 ], [ 2828707.0, 7308421.0 ], [ 2828642.0, 7308391.0 ], [ 2828616.0, 7308457.0 ], [ 2828545.0, 7308422.0 ], [ 2828563.0, 7308374.0 ], [ 2828440.0, 7308370.0 ], [ 2828429.0, 7308365.0 ], [ 2828456.0, 7307892.0 ], [ 2828444.0, 7307317.0 ], [ 2828716.0, 7307358.0 ], [ 2828861.0, 7307395.0 ], [ 2828877.0, 7307350.0 ], [ 2828889.0, 7307290.0 ], [ 2828895.0, 7307219.0 ], [ 2828901.0, 7306909.0 ], [ 2828895.0, 7306448.0 ], [ 2828902.0, 7306398.0 ], [ 2828911.0, 7306368.0 ], [ 2828926.0, 7306341.0 ], [ 2828996.0, 7306247.0 ], [ 2829028.0, 7306212.0 ], [ 2829137.0, 7306105.0 ], [ 2829196.0, 7306140.0 ], [ 2829456.0, 7306061.0 ], [ 2829558.0, 7306040.0 ], [ 2830143.0, 7305789.0 ], [ 2830169.0, 7305780.0 ], [ 2830207.0, 7305743.0 ], [ 2830527.0, 7305614.0 ], [ 2830714.0, 7305912.0 ], [ 2830598.0, 7306186.0 ], [ 2830457.0, 7306265.0 ], [ 2830397.0, 7306267.0 ], [ 2830401.0, 7306336.0 ], [ 2830410.0, 7306374.0 ], [ 2830489.0, 7306582.0 ], [ 2830512.0, 7306632.0 ], [ 2830511.0, 7306720.0 ], [ 2830577.0, 7306895.0 ], [ 2830722.0, 7306606.0 ], [ 2830744.0, 7306579.0 ], [ 2830779.0, 7306556.0 ], [ 2830821.0, 7306538.0 ], [ 2830869.0, 7306528.0 ], [ 2830925.0, 7306535.0 ], [ 2831213.0, 7306609.0 ], [ 2831495.0, 7306213.0 ], [ 2831633.0, 7306152.0 ], [ 2831739.0, 7305898.0 ], [ 2831980.0, 7305523.0 ], [ 2832083.0, 7305384.0 ], [ 2832337.0, 7305296.0 ], [ 2832661.0, 7305192.0 ], [ 2832815.0, 7305143.0 ], [ 2833142.0, 7305014.0 ], [ 2833291.0, 7304935.0 ], [ 2833762.0, 7305000.0 ], [ 2833795.0, 7305051.0 ], [ 2833854.0, 7305050.0 ], [ 2833860.0, 7305026.0 ], [ 2833956.0, 7305052.0 ], [ 2833940.0, 7305167.0 ], [ 2834037.0, 7305227.0 ], [ 2834079.0, 7305357.0 ], [ 2834151.0, 7305318.0 ], [ 2834316.0, 7305392.0 ], [ 2834390.0, 7305386.0 ], [ 2834428.0, 7305298.0 ], [ 2834649.0, 7305377.0 ], [ 2834616.0, 7305442.0 ], [ 2834713.0, 7305489.0 ], [ 2834840.0, 7304932.0 ], [ 2834875.0, 7304704.0 ], [ 2834243.0, 7303261.0 ], [ 2834749.0, 7303286.0 ], [ 2834795.0, 7302990.0 ], [ 2835595.0, 7302981.0 ], [ 2836397.0, 7303277.0 ], [ 2836572.0, 7302638.0 ], [ 2836583.0, 7302604.0 ], [ 2836409.0, 7302535.0 ], [ 2836496.0, 7301910.0 ], [ 2836543.0, 7301511.0 ], [ 2836577.0, 7301482.0 ], [ 2836527.0, 7301411.0 ], [ 2836501.0, 7301360.0 ], [ 2836491.0, 7301332.0 ], [ 2836483.0, 7301296.0 ], [ 2836471.0, 7301199.0 ], [ 2836464.0, 7301177.0 ], [ 2836455.0, 7301165.0 ], [ 2836434.0, 7301147.0 ], [ 2836417.0, 7301138.0 ], [ 2836406.0, 7301134.0 ], [ 2836394.0, 7301132.0 ], [ 2836331.0, 7301135.0 ], [ 2836320.0, 7301134.0 ], [ 2836307.0, 7301130.0 ], [ 2836288.0, 7301121.0 ], [ 2836274.0, 7301108.0 ], [ 2836255.0, 7301067.0 ], [ 2836242.0, 7301055.0 ], [ 2836225.0, 7301048.0 ], [ 2836205.0, 7301047.0 ], [ 2836177.0, 7301061.0 ], [ 2836124.0, 7301098.0 ], [ 2836107.0, 7301104.0 ], [ 2836092.0, 7301102.0 ], [ 2836081.0, 7301095.0 ], [ 2836063.0, 7301070.0 ], [ 2836033.0, 7301042.0 ], [ 2836008.0, 7301026.0 ], [ 2835978.0, 7301018.0 ], [ 2835945.0, 7301017.0 ], [ 2835913.0, 7301015.0 ], [ 2835893.0, 7301018.0 ], [ 2835879.0, 7301026.0 ], [ 2835860.0, 7301039.0 ], [ 2835839.0, 7301062.0 ], [ 2835794.0, 7301134.0 ], [ 2835701.0, 7301248.0 ], [ 2835676.0, 7301292.0 ], [ 2835581.0, 7301516.0 ], [ 2835554.0, 7301554.0 ], [ 2835524.0, 7301585.0 ], [ 2835483.0, 7301623.0 ], [ 2835456.0, 7301642.0 ], [ 2835424.0, 7301656.0 ], [ 2835395.0, 7301667.0 ], [ 2835354.0, 7301672.0 ], [ 2835288.0, 7301671.0 ], [ 2835105.0, 7301656.0 ], [ 2835012.0, 7301638.0 ], [ 2834952.0, 7301615.0 ], [ 2834865.0, 7301573.0 ], [ 2834854.0, 7301567.0 ], [ 2834813.0, 7301544.0 ], [ 2834771.0, 7301514.0 ], [ 2834724.0, 7301478.0 ], [ 2834695.0, 7301450.0 ], [ 2834661.0, 7301409.0 ], [ 2834625.0, 7301353.0 ], [ 2834578.0, 7301289.0 ], [ 2834544.0, 7301249.0 ], [ 2834518.0, 7301216.0 ], [ 2834500.0, 7301185.0 ], [ 2834485.0, 7301160.0 ], [ 2834469.0, 7301151.0 ], [ 2834452.0, 7301147.0 ], [ 2834428.0, 7301147.0 ], [ 2834401.0, 7301156.0 ], [ 2834362.0, 7301179.0 ], [ 2834275.0, 7301249.0 ], [ 2834229.0, 7301281.0 ], [ 2834182.0, 7301303.0 ], [ 2834133.0, 7301326.0 ], [ 2834097.0, 7301354.0 ], [ 2834068.0, 7301388.0 ], [ 2834037.0, 7301408.0 ], [ 2834010.0, 7301423.0 ], [ 2833799.0, 7301304.0 ], [ 2833538.0, 7301212.0 ], [ 2833015.0, 7301022.0 ], [ 2832595.0, 7300340.0 ], [ 2833203.0, 7299680.0 ], [ 2832670.0, 7299188.0 ], [ 2831811.0, 7299069.0 ], [ 2831638.0, 7298793.0 ], [ 2831484.0, 7298917.0 ], [ 2831155.0, 7299145.0 ], [ 2830984.0, 7299361.0 ], [ 2830943.0, 7299175.0 ], [ 2830912.0, 7299092.0 ], [ 2830760.0, 7298962.0 ], [ 2830680.0, 7298895.0 ], [ 2830440.0, 7299059.0 ], [ 2830376.0, 7299103.0 ], [ 2830315.0, 7299136.0 ], [ 2830224.0, 7299169.0 ], [ 2830001.0, 7299233.0 ], [ 2829940.0, 7299244.0 ], [ 2829902.0, 7299244.0 ], [ 2829821.0, 7299235.0 ], [ 2829588.0, 7299513.0 ], [ 2829184.0, 7299641.0 ], [ 2829143.0, 7299771.0 ], [ 2829089.0, 7299961.0 ], [ 2829066.0, 7299954.0 ], [ 2828913.0, 7300298.0 ], [ 2828823.0, 7300259.0 ], [ 2828566.0, 7300144.0 ], [ 2828662.0, 7299304.0 ], [ 2828516.0, 7299165.0 ], [ 2828046.0, 7299157.0 ], [ 2827980.0, 7297971.0 ], [ 2827895.0, 7297878.0 ], [ 2827828.0, 7297823.0 ], [ 2827783.0, 7297790.0 ], [ 2827705.0, 7297743.0 ], [ 2827626.0, 7297703.0 ], [ 2827460.0, 7297709.0 ], [ 2827371.0, 7297686.0 ], [ 2826834.0, 7297572.0 ], [ 2826410.0, 7297503.0 ], [ 2826041.0, 7297377.0 ], [ 2825775.0, 7297180.0 ], [ 2825582.0, 7296925.0 ], [ 2825480.0, 7296662.0 ], [ 2825401.0, 7296193.0 ], [ 2825318.0, 7295687.0 ], [ 2825311.0, 7295657.0 ], [ 2825237.0, 7295486.0 ], [ 2824957.0, 7294897.0 ], [ 2824381.0, 7293857.0 ], [ 2824283.0, 7293697.0 ], [ 2824184.0, 7293580.0 ], [ 2824081.0, 7293474.0 ], [ 2823716.0, 7293150.0 ], [ 2823624.0, 7293069.0 ], [ 2823571.0, 7293008.0 ], [ 2823521.0, 7292929.0 ], [ 2823478.0, 7292827.0 ], [ 2823453.0, 7292750.0 ], [ 2823436.0, 7292675.0 ], [ 2823433.0, 7292591.0 ], [ 2823440.0, 7292309.0 ], [ 2823436.0, 7292225.0 ], [ 2823392.0, 7292238.0 ], [ 2823161.0, 7292260.0 ], [ 2822402.0, 7292567.0 ], [ 2822165.0, 7292718.0 ], [ 2822103.0, 7292648.0 ], [ 2820356.0, 7293403.0 ], [ 2820165.0, 7293484.0 ], [ 2820059.0, 7293529.0 ], [ 2819012.0, 7293974.0 ], [ 2818981.0, 7293903.0 ], [ 2818833.0, 7293564.0 ], [ 2818593.0, 7293668.0 ], [ 2818569.0, 7292180.0 ], [ 2818621.0, 7291413.0 ], [ 2818673.0, 7290631.0 ], [ 2818792.0, 7290393.0 ], [ 2819275.0, 7290609.0 ], [ 2819493.0, 7289767.0 ], [ 2818694.0, 7289541.0 ], [ 2818800.0, 7287915.0 ], [ 2819067.0, 7287522.0 ], [ 2819139.0, 7287435.0 ], [ 2819405.0, 7286951.0 ], [ 2819821.0, 7286483.0 ], [ 2819195.0, 7286090.0 ], [ 2818755.0, 7285954.0 ], [ 2818877.0, 7285341.0 ], [ 2817908.0, 7285135.0 ], [ 2817940.0, 7284489.0 ], [ 2817890.0, 7284468.0 ], [ 2817818.0, 7284438.0 ], [ 2815942.0, 7283640.0 ], [ 2815518.0, 7283515.0 ], [ 2815555.0, 7283419.0 ], [ 2815488.0, 7283391.0 ], [ 2815446.0, 7283475.0 ], [ 2814995.0, 7283235.0 ], [ 2815003.0, 7283599.0 ], [ 2814549.0, 7283566.0 ], [ 2814107.0, 7283630.0 ], [ 2813149.0, 7283176.0 ], [ 2812866.0, 7283203.0 ], [ 2812839.0, 7283046.0 ], [ 2812405.0, 7283094.0 ], [ 2812300.0, 7282834.0 ], [ 2812194.0, 7282819.0 ], [ 2812092.0, 7282825.0 ], [ 2812023.0, 7282923.0 ], [ 2812005.0, 7283084.0 ], [ 2811988.0, 7283091.0 ], [ 2811908.0, 7283084.0 ], [ 2811817.0, 7283066.0 ], [ 2811784.0, 7282998.0 ], [ 2811599.0, 7282959.0 ], [ 2811551.0, 7282807.0 ], [ 2811384.0, 7282866.0 ], [ 2811223.0, 7282971.0 ], [ 2811135.0, 7283134.0 ], [ 2811191.0, 7283274.0 ], [ 2811038.0, 7283425.0 ], [ 2811018.0, 7283404.0 ], [ 2810924.0, 7283492.0 ], [ 2810885.0, 7283529.0 ], [ 2810906.0, 7283555.0 ], [ 2810747.0, 7283646.0 ], [ 2810718.0, 7283641.0 ], [ 2810686.0, 7283656.0 ], [ 2810647.0, 7283516.0 ], [ 2810699.0, 7283333.0 ], [ 2810785.0, 7283239.0 ], [ 2810469.0, 7282710.0 ], [ 2810391.0, 7282728.0 ], [ 2810347.0, 7282790.0 ], [ 2810280.0, 7282885.0 ], [ 2810237.0, 7282930.0 ], [ 2810043.0, 7283230.0 ], [ 2809799.0, 7283269.0 ], [ 2809510.0, 7282916.0 ], [ 2809536.0, 7282882.0 ], [ 2809294.0, 7282523.0 ], [ 2809434.0, 7282425.0 ], [ 2809580.0, 7282301.0 ], [ 2809810.0, 7282080.0 ], [ 2809603.0, 7281888.0 ], [ 2809550.0, 7281682.0 ], [ 2809397.0, 7281597.0 ], [ 2809331.0, 7281484.0 ], [ 2810420.0, 7280370.0 ], [ 2810001.0, 7279976.0 ], [ 2809769.0, 7279757.0 ], [ 2809370.0, 7279770.0 ], [ 2809005.0, 7280104.0 ], [ 2809019.0, 7281200.0 ], [ 2808681.0, 7281675.0 ], [ 2808054.0, 7282266.0 ], [ 2807965.0, 7282309.0 ], [ 2807636.0, 7282403.0 ], [ 2807073.0, 7282413.0 ], [ 2806819.0, 7282500.0 ], [ 2806600.0, 7282221.0 ], [ 2806526.0, 7282281.0 ], [ 2806542.0, 7282473.0 ], [ 2806496.0, 7282569.0 ], [ 2806419.0, 7282744.0 ], [ 2806230.0, 7282982.0 ], [ 2805499.0, 7284540.0 ], [ 2805331.0, 7284743.0 ], [ 2805286.0, 7284699.0 ], [ 2805203.0, 7284568.0 ], [ 2804893.0, 7284749.0 ], [ 2804690.0, 7285013.0 ], [ 2804530.0, 7284902.0 ], [ 2804306.0, 7285070.0 ], [ 2804206.0, 7284904.0 ], [ 2803754.0, 7285199.0 ], [ 2803867.0, 7285286.0 ], [ 2803607.0, 7285472.0 ], [ 2803266.0, 7285692.0 ], [ 2803022.0, 7285629.0 ], [ 2802832.0, 7285798.0 ], [ 2802650.0, 7285876.0 ], [ 2802568.0, 7285777.0 ], [ 2802282.0, 7285904.0 ], [ 2802038.0, 7285609.0 ], [ 2802007.0, 7285619.0 ], [ 2801181.0, 7284668.0 ], [ 2801091.0, 7284593.0 ], [ 2801116.0, 7284549.0 ], [ 2801134.0, 7284526.0 ], [ 2801167.0, 7284494.0 ], [ 2801187.0, 7284484.0 ], [ 2801204.0, 7284478.0 ], [ 2801223.0, 7284475.0 ], [ 2801242.0, 7284476.0 ], [ 2801346.0, 7284493.0 ], [ 2801367.0, 7284494.0 ], [ 2801379.0, 7284490.0 ], [ 2801389.0, 7284481.0 ], [ 2801403.0, 7284464.0 ], [ 2801412.0, 7284437.0 ], [ 2801421.0, 7284411.0 ], [ 2801436.0, 7284375.0 ], [ 2801454.0, 7284344.0 ], [ 2801475.0, 7284322.0 ], [ 2801502.0, 7284301.0 ], [ 2801547.0, 7284262.0 ], [ 2801625.0, 7284212.0 ], [ 2801651.0, 7284196.0 ], [ 2801692.0, 7284179.0 ], [ 2801711.0, 7284172.0 ], [ 2801736.0, 7284168.0 ], [ 2801752.0, 7284170.0 ], [ 2801774.0, 7284174.0 ], [ 2801792.0, 7284179.0 ], [ 2801872.0, 7284212.0 ], [ 2801897.0, 7284225.0 ], [ 2801918.0, 7284240.0 ], [ 2801953.0, 7284267.0 ], [ 2801986.0, 7284299.0 ], [ 2802018.0, 7284323.0 ], [ 2802067.0, 7284357.0 ], [ 2802090.0, 7284366.0 ], [ 2802117.0, 7284368.0 ], [ 2802149.0, 7284366.0 ], [ 2802180.0, 7284365.0 ], [ 2802198.0, 7284367.0 ], [ 2802230.0, 7284373.0 ], [ 2802285.0, 7284372.0 ], [ 2802300.0, 7284370.0 ], [ 2802324.0, 7284362.0 ], [ 2802344.0, 7284352.0 ], [ 2802371.0, 7284334.0 ], [ 2802401.0, 7284305.0 ], [ 2802415.0, 7284293.0 ], [ 2802427.0, 7284286.0 ], [ 2802438.0, 7284283.0 ], [ 2802448.0, 7284285.0 ], [ 2802459.0, 7284290.0 ], [ 2802473.0, 7284298.0 ], [ 2802485.0, 7284303.0 ], [ 2802492.0, 7284303.0 ], [ 2802503.0, 7284304.0 ], [ 2802550.0, 7284298.0 ], [ 2802563.0, 7284297.0 ], [ 2802575.0, 7284295.0 ], [ 2802583.0, 7284291.0 ], [ 2802588.0, 7284286.0 ], [ 2802606.0, 7284259.0 ], [ 2802614.0, 7284251.0 ], [ 2802621.0, 7284247.0 ], [ 2802634.0, 7284241.0 ], [ 2802671.0, 7284232.0 ], [ 2802724.0, 7284219.0 ], [ 2802765.0, 7284204.0 ], [ 2802662.0, 7283955.0 ], [ 2802662.0, 7283829.0 ], [ 2803012.0, 7283567.0 ], [ 2803347.0, 7283316.0 ], [ 2803310.0, 7283223.0 ], [ 2803496.0, 7283108.0 ], [ 2803516.0, 7283079.0 ], [ 2803598.0, 7282971.0 ], [ 2803476.0, 7282660.0 ], [ 2803400.0, 7282567.0 ], [ 2803667.0, 7281247.0 ], [ 2803735.0, 7278766.0 ], [ 2803390.0, 7278747.0 ], [ 2803174.0, 7278711.0 ], [ 2803036.0, 7278645.0 ], [ 2801872.0, 7278838.0 ], [ 2801829.0, 7278864.0 ], [ 2800582.0, 7279008.0 ], [ 2800481.0, 7279034.0 ], [ 2799958.0, 7279278.0 ], [ 2799615.0, 7279453.0 ], [ 2799485.0, 7279530.0 ], [ 2799512.0, 7280108.0 ], [ 2799183.0, 7280427.0 ], [ 2798810.0, 7280583.0 ], [ 2798764.0, 7280601.0 ], [ 2798757.0, 7280438.0 ], [ 2798355.0, 7280605.0 ], [ 2798046.0, 7280278.0 ], [ 2797363.0, 7280584.0 ], [ 2797639.0, 7279554.0 ], [ 2796488.0, 7278796.0 ], [ 2795833.0, 7280527.0 ], [ 2795570.0, 7280462.0 ], [ 2794498.0, 7281317.0 ], [ 2793689.0, 7282225.0 ], [ 2793635.0, 7282273.0 ], [ 2793408.0, 7282524.0 ], [ 2793364.0, 7282517.0 ], [ 2793290.0, 7282655.0 ], [ 2793752.0, 7282673.0 ], [ 2795734.0, 7283082.0 ], [ 2795499.0, 7284039.0 ], [ 2795616.0, 7284313.0 ], [ 2795844.0, 7284814.0 ], [ 2795846.0, 7284832.0 ], [ 2795843.0, 7284845.0 ], [ 2795825.0, 7284862.0 ], [ 2794940.0, 7285593.0 ], [ 2794937.0, 7285597.0 ], [ 2794672.0, 7285362.0 ], [ 2794044.0, 7286350.0 ], [ 2792337.0, 7285624.0 ], [ 2791720.0, 7284445.0 ], [ 2791692.0, 7284475.0 ], [ 2791444.0, 7284758.0 ], [ 2791417.0, 7284809.0 ], [ 2791403.0, 7284848.0 ], [ 2791385.0, 7285064.0 ], [ 2791350.0, 7285356.0 ], [ 2791279.0, 7285901.0 ], [ 2791241.0, 7286008.0 ], [ 2791168.0, 7286155.0 ], [ 2791111.0, 7286239.0 ], [ 2790950.0, 7286422.0 ], [ 2790910.0, 7286489.0 ], [ 2790689.0, 7287258.0 ], [ 2790656.0, 7287371.0 ], [ 2790344.0, 7288411.0 ], [ 2787793.0, 7288792.0 ], [ 2786440.0, 7288994.0 ], [ 2786031.0, 7289046.0 ], [ 2785719.0, 7289076.0 ], [ 2786016.0, 7289274.0 ] ] ] } }
]
}
