{
"type": "FeatureCollection",
"name": "vilnius-closeness_centrality-rail",
"crs": { "type": "name", "properties": { "name": "urn:ogc:def:crs:EPSG::3857" } },
"features": [
{ "type": "Feature", "properties": { "closeness_centrality": 6.4792222813129708e-05, "source": 1474096742, "target": 12666359179, "ordering_closeness_centrality": 0, "length": 8869, "length_cumulative": 8869 }, "geometry": { "type": "LineString", "coordinates": [ [ 2814696.0, 7298068.0 ], [ 2814675.0, 7298103.0 ], [ 2814660.0, 7298126.0 ], [ 2814652.0, 7298121.0 ], [ 2814644.0, 7298133.0 ], [ 2814629.0, 7298157.0 ], [ 2814625.0, 7298163.0 ], [ 2814623.0, 7298167.0 ], [ 2814619.0, 7298173.0 ], [ 2814613.0, 7298183.0 ], [ 2814670.0, 7298216.0 ], [ 2814677.0, 7298220.0 ], [ 2814686.0, 7298228.0 ], [ 2814690.0, 7298235.0 ], [ 2814693.0, 7298242.0 ], [ 2814695.0, 7298252.0 ], [ 2814700.0, 7298265.0 ], [ 2814706.0, 7298273.0 ], [ 2814711.0, 7298278.0 ], [ 2814725.0, 7298288.0 ], [ 2814736.0, 7298297.0 ], [ 2814819.0, 7298337.0 ], [ 2814853.0, 7298351.0 ], [ 2814881.0, 7298360.0 ], [ 2814909.0, 7298370.0 ], [ 2814965.0, 7298389.0 ], [ 2814990.0, 7298397.0 ], [ 2815061.0, 7298417.0 ], [ 2815203.0, 7298461.0 ], [ 2815281.0, 7298487.0 ], [ 2815287.0, 7298489.0 ], [ 2815308.0, 7298498.0 ], [ 2815328.0, 7298506.0 ], [ 2815468.0, 7298573.0 ], [ 2815501.0, 7298587.0 ], [ 2815521.0, 7298594.0 ], [ 2815547.0, 7298602.0 ], [ 2815591.0, 7298612.0 ], [ 2815629.0, 7298619.0 ], [ 2815701.0, 7298629.0 ], [ 2815722.0, 7298631.0 ], [ 2815768.0, 7298635.0 ], [ 2815790.0, 7298637.0 ], [ 2815816.0, 7298640.0 ], [ 2815845.0, 7298647.0 ], [ 2815872.0, 7298655.0 ], [ 2815890.0, 7298660.0 ], [ 2815894.0, 7298661.0 ], [ 2815910.0, 7298667.0 ], [ 2815937.0, 7298677.0 ], [ 2815970.0, 7298693.0 ], [ 2816075.0, 7298745.0 ], [ 2816167.0, 7298793.0 ], [ 2816193.0, 7298806.0 ], [ 2816219.0, 7298820.0 ], [ 2816319.0, 7298875.0 ], [ 2816350.0, 7298891.0 ], [ 2816449.0, 7298940.0 ], [ 2816519.0, 7298972.0 ], [ 2816638.0, 7299016.0 ], [ 2816737.0, 7299053.0 ], [ 2816788.0, 7299071.0 ], [ 2816862.0, 7299098.0 ], [ 2816975.0, 7299134.0 ], [ 2817053.0, 7299164.0 ], [ 2817091.0, 7299184.0 ], [ 2817135.0, 7299208.0 ], [ 2817199.0, 7299249.0 ], [ 2817234.0, 7299273.0 ], [ 2817274.0, 7299300.0 ], [ 2817294.0, 7299291.0 ], [ 2817405.0, 7299269.0 ], [ 2817414.0, 7299257.0 ], [ 2817425.0, 7299259.0 ], [ 2817455.0, 7299260.0 ], [ 2817486.0, 7299261.0 ], [ 2817503.0, 7299257.0 ], [ 2817521.0, 7299242.0 ], [ 2817539.0, 7299226.0 ], [ 2817560.0, 7299208.0 ], [ 2817599.0, 7299174.0 ], [ 2817613.0, 7299162.0 ], [ 2817661.0, 7299119.0 ], [ 2817667.0, 7299117.0 ], [ 2817673.0, 7299117.0 ], [ 2817678.0, 7299118.0 ], [ 2817683.0, 7299120.0 ], [ 2817685.0, 7299113.0 ], [ 2817690.0, 7299109.0 ], [ 2817694.0, 7299100.0 ], [ 2817704.0, 7299104.0 ], [ 2817710.0, 7299089.0 ], [ 2817719.0, 7299071.0 ], [ 2817724.0, 7299064.0 ], [ 2817733.0, 7299056.0 ], [ 2817763.0, 7299028.0 ], [ 2817784.0, 7299009.0 ], [ 2817796.0, 7299003.0 ], [ 2817808.0, 7298999.0 ], [ 2817826.0, 7298997.0 ], [ 2817893.0, 7298993.0 ], [ 2817925.0, 7298990.0 ], [ 2817942.0, 7298991.0 ], [ 2817957.0, 7298994.0 ], [ 2817966.0, 7298996.0 ], [ 2817981.0, 7299002.0 ], [ 2818010.0, 7299017.0 ], [ 2818049.0, 7299037.0 ], [ 2818085.0, 7299055.0 ], [ 2818111.0, 7299067.0 ], [ 2818138.0, 7299078.0 ], [ 2818168.0, 7299089.0 ], [ 2818180.0, 7299093.0 ], [ 2818201.0, 7299099.0 ], [ 2818218.0, 7299101.0 ], [ 2818236.0, 7299101.0 ], [ 2818246.0, 7299100.0 ], [ 2818258.0, 7299098.0 ], [ 2818281.0, 7299093.0 ], [ 2818314.0, 7299080.0 ], [ 2818392.0, 7299046.0 ], [ 2818416.0, 7299036.0 ], [ 2818491.0, 7299008.0 ], [ 2818504.0, 7299003.0 ], [ 2818516.0, 7298998.0 ], [ 2818568.0, 7298978.0 ], [ 2818596.0, 7298968.0 ], [ 2818608.0, 7298965.0 ], [ 2818645.0, 7298954.0 ], [ 2818783.0, 7298916.0 ], [ 2818791.0, 7298914.0 ], [ 2818832.0, 7298902.0 ], [ 2818836.0, 7298908.0 ], [ 2818840.0, 7298913.0 ], [ 2818842.0, 7298915.0 ], [ 2818854.0, 7298921.0 ], [ 2818886.0, 7298931.0 ], [ 2818898.0, 7298937.0 ], [ 2818915.0, 7298945.0 ], [ 2818975.0, 7298989.0 ], [ 2818998.0, 7299002.0 ], [ 2819023.0, 7299013.0 ], [ 2819045.0, 7299021.0 ], [ 2819072.0, 7299028.0 ], [ 2819094.0, 7299032.0 ], [ 2819120.0, 7299035.0 ], [ 2819143.0, 7299034.0 ], [ 2819160.0, 7299033.0 ], [ 2819205.0, 7299026.0 ], [ 2819260.0, 7299015.0 ], [ 2819307.0, 7299008.0 ], [ 2819349.0, 7299006.0 ], [ 2819405.0, 7299008.0 ], [ 2819626.0, 7299019.0 ], [ 2819680.0, 7299024.0 ], [ 2819713.0, 7299025.0 ], [ 2819731.0, 7299023.0 ], [ 2819749.0, 7299015.0 ], [ 2819769.0, 7298999.0 ], [ 2819788.0, 7298983.0 ], [ 2819806.0, 7298973.0 ], [ 2819819.0, 7298967.0 ], [ 2819835.0, 7298964.0 ], [ 2819852.0, 7298962.0 ], [ 2819865.0, 7298964.0 ], [ 2819883.0, 7298969.0 ], [ 2819911.0, 7298979.0 ], [ 2820003.0, 7299015.0 ], [ 2820142.0, 7299061.0 ], [ 2820151.0, 7299064.0 ], [ 2820160.0, 7299067.0 ], [ 2820185.0, 7299077.0 ], [ 2820208.0, 7299089.0 ], [ 2820225.0, 7299097.0 ], [ 2820264.0, 7299119.0 ], [ 2820294.0, 7299137.0 ], [ 2820360.0, 7299177.0 ], [ 2820568.0, 7299288.0 ], [ 2820619.0, 7299313.0 ], [ 2820655.0, 7299326.0 ], [ 2820687.0, 7299336.0 ], [ 2820722.0, 7299343.0 ], [ 2820767.0, 7299344.0 ], [ 2820835.0, 7299344.0 ], [ 2820867.0, 7299342.0 ], [ 2820935.0, 7299341.0 ], [ 2820955.0, 7299341.0 ], [ 2821098.0, 7299339.0 ], [ 2821215.0, 7299338.0 ], [ 2821235.0, 7299337.0 ], [ 2821267.0, 7299339.0 ], [ 2821301.0, 7299341.0 ], [ 2821339.0, 7299347.0 ], [ 2821398.0, 7299359.0 ], [ 2821428.0, 7299364.0 ], [ 2821446.0, 7299364.0 ], [ 2821464.0, 7299363.0 ], [ 2821482.0, 7299359.0 ], [ 2821515.0, 7299345.0 ], [ 2821575.0, 7299318.0 ], [ 2821618.0, 7299302.0 ], [ 2821655.0, 7299292.0 ], [ 2821685.0, 7299285.0 ], [ 2821703.0, 7299283.0 ], [ 2821716.0, 7299281.0 ], [ 2821732.0, 7299283.0 ], [ 2821748.0, 7299285.0 ], [ 2821768.0, 7299292.0 ], [ 2821805.0, 7299310.0 ], [ 2821832.0, 7299324.0 ], [ 2821847.0, 7299329.0 ], [ 2821859.0, 7299331.0 ], [ 2821858.0, 7299340.0 ], [ 2821860.0, 7299345.0 ], [ 2821863.0, 7299351.0 ], [ 2821888.0, 7299382.0 ], [ 2821932.0, 7299427.0 ], [ 2822004.0, 7299499.0 ], [ 2822044.0, 7299535.0 ], [ 2822170.0, 7299620.0 ], [ 2822316.0, 7299712.0 ], [ 2822324.0, 7299717.0 ], [ 2822470.0, 7299800.0 ], [ 2822473.0, 7299788.0 ], [ 2822472.0, 7299781.0 ], [ 2822450.0, 7299766.0 ], [ 2822449.0, 7299760.0 ], [ 2822452.0, 7299754.0 ], [ 2822464.0, 7299734.0 ] ] } },
{ "type": "Feature", "properties": { "closeness_centrality": 6.3494612282851142e-05, "source": 1474096742, "target": 2280600113, "ordering_closeness_centrality": 1, "length": 6671, "length_cumulative": 15541 }, "geometry": { "type": "LineString", "coordinates": [ [ 2814613.0, 7298183.0 ], [ 2814564.0, 7298153.0 ], [ 2814549.0, 7298144.0 ], [ 2814544.0, 7298141.0 ], [ 2814538.0, 7298139.0 ], [ 2814532.0, 7298139.0 ], [ 2814523.0, 7298139.0 ], [ 2814514.0, 7298142.0 ], [ 2814511.0, 7298143.0 ], [ 2814505.0, 7298144.0 ], [ 2814492.0, 7298146.0 ], [ 2814481.0, 7298146.0 ], [ 2814474.0, 7298145.0 ], [ 2814423.0, 7298115.0 ], [ 2814397.0, 7298099.0 ], [ 2814382.0, 7298090.0 ], [ 2814374.0, 7298084.0 ], [ 2814343.0, 7298066.0 ], [ 2814304.0, 7298041.0 ], [ 2814257.0, 7298013.0 ], [ 2814216.0, 7297988.0 ], [ 2813955.0, 7297828.0 ], [ 2813934.0, 7297815.0 ], [ 2813842.0, 7297758.0 ], [ 2813634.0, 7297629.0 ], [ 2813621.0, 7297623.0 ], [ 2813608.0, 7297618.0 ], [ 2813603.0, 7297617.0 ], [ 2813593.0, 7297613.0 ], [ 2813582.0, 7297612.0 ], [ 2813572.0, 7297613.0 ], [ 2813558.0, 7297616.0 ], [ 2813552.0, 7297617.0 ], [ 2813542.0, 7297617.0 ], [ 2813536.0, 7297617.0 ], [ 2813531.0, 7297615.0 ], [ 2813527.0, 7297614.0 ], [ 2813523.0, 7297615.0 ], [ 2813519.0, 7297617.0 ], [ 2813509.0, 7297617.0 ], [ 2813503.0, 7297616.0 ], [ 2813496.0, 7297614.0 ], [ 2813480.0, 7297611.0 ], [ 2813455.0, 7297608.0 ], [ 2813436.0, 7297608.0 ], [ 2813403.0, 7297599.0 ], [ 2813329.0, 7297580.0 ], [ 2813321.0, 7297577.0 ], [ 2813309.0, 7297573.0 ], [ 2813288.0, 7297562.0 ], [ 2813300.0, 7297535.0 ], [ 2813311.0, 7297500.0 ], [ 2813328.0, 7297436.0 ], [ 2813354.0, 7297324.0 ], [ 2813358.0, 7297307.0 ], [ 2813365.0, 7297275.0 ], [ 2813367.0, 7297259.0 ], [ 2813390.0, 7297029.0 ], [ 2813414.0, 7296798.0 ], [ 2813410.0, 7296776.0 ], [ 2813409.0, 7296759.0 ], [ 2813411.0, 7296736.0 ], [ 2813421.0, 7296652.0 ], [ 2813423.0, 7296630.0 ], [ 2813426.0, 7296594.0 ], [ 2813428.0, 7296543.0 ], [ 2813427.0, 7296486.0 ], [ 2813424.0, 7296460.0 ], [ 2813422.0, 7296440.0 ], [ 2813419.0, 7296418.0 ], [ 2813409.0, 7296355.0 ], [ 2813406.0, 7296331.0 ], [ 2813402.0, 7296292.0 ], [ 2813400.0, 7296262.0 ], [ 2813397.0, 7296233.0 ], [ 2813396.0, 7296218.0 ], [ 2813397.0, 7296195.0 ], [ 2813394.0, 7296183.0 ], [ 2813378.0, 7296113.0 ], [ 2813364.0, 7296044.0 ], [ 2813316.0, 7295814.0 ], [ 2813297.0, 7295721.0 ], [ 2813267.0, 7295565.0 ], [ 2813237.0, 7295423.0 ], [ 2813218.0, 7295337.0 ], [ 2813197.0, 7295239.0 ], [ 2813194.0, 7295224.0 ], [ 2813165.0, 7295079.0 ], [ 2813158.0, 7295037.0 ], [ 2813156.0, 7295007.0 ], [ 2813156.0, 7294960.0 ], [ 2813162.0, 7294925.0 ], [ 2813169.0, 7294884.0 ], [ 2813180.0, 7294834.0 ], [ 2813213.0, 7294661.0 ], [ 2813219.0, 7294635.0 ], [ 2813246.0, 7294498.0 ], [ 2813282.0, 7294314.0 ], [ 2813302.0, 7294207.0 ], [ 2813372.0, 7293851.0 ], [ 2813373.0, 7293842.0 ], [ 2813399.0, 7293698.0 ], [ 2813420.0, 7293516.0 ], [ 2813422.0, 7293497.0 ], [ 2813439.0, 7293345.0 ], [ 2813452.0, 7293214.0 ], [ 2813455.0, 7293188.0 ], [ 2813465.0, 7293089.0 ], [ 2813474.0, 7293009.0 ], [ 2813483.0, 7292929.0 ], [ 2813494.0, 7292929.0 ], [ 2813500.0, 7292930.0 ], [ 2813502.0, 7292925.0 ], [ 2813507.0, 7292921.0 ], [ 2813513.0, 7292920.0 ], [ 2813513.0, 7292906.0 ], [ 2813513.0, 7292891.0 ], [ 2813513.0, 7292877.0 ], [ 2813714.0, 7292875.0 ], [ 2813732.0, 7292880.0 ], [ 2813816.0, 7292879.0 ], [ 2813828.0, 7292876.0 ], [ 2813830.0, 7292875.0 ], [ 2813829.0, 7292871.0 ], [ 2813809.0, 7292813.0 ], [ 2813797.0, 7292814.0 ] ] } },
{ "type": "Feature", "properties": { "closeness_centrality": 6.1582133935183698e-05, "source": 12666359179, "target": 2280600113, "ordering_closeness_centrality": 2, "length": 11154, "length_cumulative": 26696 }, "geometry": { "type": "LineString", "coordinates": [ [ 2813830.0, 7292875.0 ], [ 2813857.0, 7292875.0 ], [ 2813882.0, 7292875.0 ], [ 2813881.0, 7292884.0 ], [ 2813881.0, 7292905.0 ], [ 2813881.0, 7292920.0 ], [ 2813888.0, 7292920.0 ], [ 2813893.0, 7292923.0 ], [ 2813895.0, 7292935.0 ], [ 2813894.0, 7292981.0 ], [ 2813896.0, 7292981.0 ], [ 2813907.0, 7292981.0 ], [ 2813906.0, 7293006.0 ], [ 2813904.0, 7293033.0 ], [ 2813901.0, 7293057.0 ], [ 2813897.0, 7293068.0 ], [ 2813883.0, 7293109.0 ], [ 2813865.0, 7293138.0 ], [ 2813862.0, 7293143.0 ], [ 2813854.0, 7293157.0 ], [ 2813842.0, 7293192.0 ], [ 2813811.0, 7293299.0 ], [ 2813784.0, 7293397.0 ], [ 2813776.0, 7293432.0 ], [ 2813766.0, 7293480.0 ], [ 2813759.0, 7293522.0 ], [ 2813748.0, 7293602.0 ], [ 2813746.0, 7293637.0 ], [ 2813783.0, 7293640.0 ], [ 2813782.0, 7293671.0 ], [ 2813783.0, 7293692.0 ], [ 2813846.0, 7293694.0 ], [ 2813853.0, 7293694.0 ], [ 2813853.0, 7293713.0 ], [ 2813853.0, 7293723.0 ], [ 2813853.0, 7293737.0 ], [ 2813889.0, 7293739.0 ], [ 2813994.0, 7293748.0 ], [ 2814001.0, 7293750.0 ], [ 2814005.0, 7293752.0 ], [ 2814008.0, 7293756.0 ], [ 2814010.0, 7293763.0 ], [ 2814014.0, 7294060.0 ], [ 2814017.0, 7294149.0 ], [ 2814018.0, 7294226.0 ], [ 2814019.0, 7294251.0 ], [ 2814146.0, 7294253.0 ], [ 2814255.0, 7294255.0 ], [ 2814329.0, 7294257.0 ], [ 2814345.0, 7294257.0 ], [ 2814356.0, 7294257.0 ], [ 2814369.0, 7294258.0 ], [ 2814379.0, 7294259.0 ], [ 2814386.0, 7294261.0 ], [ 2814390.0, 7294264.0 ], [ 2814393.0, 7294272.0 ], [ 2814395.0, 7294282.0 ], [ 2814424.0, 7294516.0 ], [ 2814427.0, 7294535.0 ], [ 2814454.0, 7294749.0 ], [ 2814456.0, 7294771.0 ], [ 2814457.0, 7294777.0 ], [ 2814458.0, 7294786.0 ], [ 2814460.0, 7294801.0 ], [ 2814482.0, 7294988.0 ], [ 2814496.0, 7295039.0 ], [ 2814490.0, 7295043.0 ], [ 2814484.0, 7295096.0 ], [ 2814475.0, 7295136.0 ], [ 2814432.0, 7295283.0 ], [ 2814430.0, 7295292.0 ], [ 2814487.0, 7295313.0 ], [ 2814491.0, 7295320.0 ], [ 2814495.0, 7295327.0 ], [ 2814501.0, 7295325.0 ], [ 2814519.0, 7295317.0 ], [ 2814540.0, 7295313.0 ], [ 2814556.0, 7295314.0 ], [ 2814565.0, 7295318.0 ], [ 2814712.0, 7295371.0 ], [ 2814769.0, 7295391.0 ], [ 2814809.0, 7295405.0 ], [ 2814848.0, 7295417.0 ], [ 2814905.0, 7295433.0 ], [ 2814950.0, 7295445.0 ], [ 2815055.0, 7295469.0 ], [ 2815063.0, 7295471.0 ], [ 2815128.0, 7295487.0 ], [ 2815198.0, 7295500.0 ], [ 2815265.0, 7295514.0 ], [ 2815316.0, 7295525.0 ], [ 2815360.0, 7295534.0 ], [ 2815390.0, 7295540.0 ], [ 2815404.0, 7295543.0 ], [ 2815408.0, 7295545.0 ], [ 2815411.0, 7295549.0 ], [ 2815411.0, 7295557.0 ], [ 2815417.0, 7295562.0 ], [ 2815381.0, 7295621.0 ], [ 2815386.0, 7295625.0 ], [ 2815394.0, 7295631.0 ], [ 2815436.0, 7295657.0 ], [ 2815481.0, 7295676.0 ], [ 2815516.0, 7295682.0 ], [ 2815705.0, 7295683.0 ], [ 2815716.0, 7295683.0 ], [ 2815754.0, 7295684.0 ], [ 2815757.0, 7295876.0 ], [ 2815757.0, 7295905.0 ], [ 2815778.0, 7295907.0 ], [ 2815854.0, 7295903.0 ], [ 2815858.0, 7295917.0 ], [ 2815873.0, 7295930.0 ], [ 2815895.0, 7295939.0 ], [ 2815911.0, 7295948.0 ], [ 2815917.0, 7295973.0 ], [ 2815928.0, 7296003.0 ], [ 2815929.0, 7296011.0 ], [ 2815926.0, 7296020.0 ], [ 2815940.0, 7296024.0 ], [ 2816013.0, 7296051.0 ], [ 2816058.0, 7296069.0 ], [ 2816074.0, 7296064.0 ], [ 2816091.0, 7296059.0 ], [ 2816177.0, 7296128.0 ], [ 2816257.0, 7296213.0 ], [ 2816291.0, 7296243.0 ], [ 2816341.0, 7296286.0 ], [ 2816365.0, 7296315.0 ], [ 2816373.0, 7296325.0 ], [ 2816376.0, 7296329.0 ], [ 2816383.0, 7296343.0 ], [ 2816390.0, 7296364.0 ], [ 2816392.0, 7296381.0 ], [ 2816458.0, 7296436.0 ], [ 2816494.0, 7296472.0 ], [ 2816516.0, 7296493.0 ], [ 2816553.0, 7296531.0 ], [ 2816570.0, 7296547.0 ], [ 2816546.0, 7296572.0 ], [ 2816564.0, 7296597.0 ], [ 2816624.0, 7296676.0 ], [ 2816649.0, 7296710.0 ], [ 2816675.0, 7296747.0 ], [ 2816752.0, 7296857.0 ], [ 2816871.0, 7297027.0 ], [ 2816901.0, 7297071.0 ], [ 2816917.0, 7297094.0 ], [ 2816934.0, 7297122.0 ], [ 2816953.0, 7297158.0 ], [ 2816965.0, 7297184.0 ], [ 2816974.0, 7297206.0 ], [ 2816983.0, 7297242.0 ], [ 2816988.0, 7297284.0 ], [ 2816989.0, 7297314.0 ], [ 2816989.0, 7297352.0 ], [ 2816984.0, 7297385.0 ], [ 2816981.0, 7297411.0 ], [ 2816978.0, 7297435.0 ], [ 2817001.0, 7297430.0 ], [ 2817047.0, 7297420.0 ], [ 2817078.0, 7297415.0 ], [ 2817096.0, 7297412.0 ], [ 2817130.0, 7297408.0 ], [ 2817167.0, 7297404.0 ], [ 2817193.0, 7297398.0 ], [ 2817242.0, 7297380.0 ], [ 2817260.0, 7297375.0 ], [ 2817287.0, 7297369.0 ], [ 2817301.0, 7297368.0 ], [ 2817324.0, 7297369.0 ], [ 2817345.0, 7297370.0 ], [ 2817410.0, 7297383.0 ], [ 2817547.0, 7297414.0 ], [ 2817560.0, 7297417.0 ], [ 2817612.0, 7297428.0 ], [ 2817659.0, 7297439.0 ], [ 2817739.0, 7297456.0 ], [ 2817955.0, 7297503.0 ], [ 2818006.0, 7297515.0 ], [ 2818026.0, 7297519.0 ], [ 2818040.0, 7297520.0 ], [ 2818059.0, 7297520.0 ], [ 2818080.0, 7297520.0 ], [ 2818111.0, 7297516.0 ], [ 2818140.0, 7297510.0 ], [ 2818178.0, 7297502.0 ], [ 2818181.0, 7297520.0 ], [ 2818181.0, 7297537.0 ], [ 2818181.0, 7297584.0 ], [ 2818179.0, 7297634.0 ], [ 2818174.0, 7297652.0 ], [ 2818160.0, 7297668.0 ], [ 2818141.0, 7297686.0 ], [ 2818145.0, 7297717.0 ], [ 2818152.0, 7297733.0 ], [ 2818160.0, 7297742.0 ], [ 2818168.0, 7297744.0 ], [ 2818187.0, 7297762.0 ], [ 2818221.0, 7297804.0 ], [ 2818224.0, 7297815.0 ], [ 2818229.0, 7297823.0 ], [ 2818231.0, 7297835.0 ], [ 2818238.0, 7297834.0 ], [ 2818249.0, 7297825.0 ], [ 2818256.0, 7297818.0 ], [ 2818284.0, 7297811.0 ], [ 2818306.0, 7297803.0 ], [ 2818340.0, 7297796.0 ], [ 2818395.0, 7297780.0 ], [ 2818442.0, 7297770.0 ], [ 2818489.0, 7297762.0 ], [ 2818510.0, 7297761.0 ], [ 2818538.0, 7297757.0 ], [ 2818582.0, 7297750.0 ], [ 2818628.0, 7297746.0 ], [ 2818642.0, 7297750.0 ], [ 2818656.0, 7297746.0 ], [ 2818665.0, 7297746.0 ], [ 2818701.0, 7297746.0 ], [ 2818757.0, 7297747.0 ], [ 2818809.0, 7297747.0 ], [ 2818815.0, 7297748.0 ], [ 2818870.0, 7297751.0 ], [ 2818918.0, 7297757.0 ], [ 2818958.0, 7297763.0 ], [ 2818984.0, 7297766.0 ], [ 2819013.0, 7297771.0 ], [ 2819040.0, 7297776.0 ], [ 2819100.0, 7297790.0 ], [ 2819158.0, 7297805.0 ], [ 2819180.0, 7297812.0 ], [ 2819198.0, 7297818.0 ], [ 2819225.0, 7297826.0 ], [ 2819248.0, 7297835.0 ], [ 2819286.0, 7297850.0 ], [ 2819291.0, 7297850.0 ], [ 2819297.0, 7297852.0 ], [ 2819301.0, 7297854.0 ], [ 2819309.0, 7297857.0 ], [ 2819301.0, 7297878.0 ], [ 2819293.0, 7297906.0 ], [ 2819289.0, 7297925.0 ], [ 2819288.0, 7297939.0 ], [ 2819289.0, 7297956.0 ], [ 2819297.0, 7297978.0 ], [ 2819309.0, 7298001.0 ], [ 2819337.0, 7298058.0 ], [ 2819355.0, 7298102.0 ], [ 2819358.0, 7298127.0 ], [ 2819357.0, 7298145.0 ], [ 2819353.0, 7298167.0 ], [ 2819332.0, 7298229.0 ], [ 2819354.0, 7298235.0 ], [ 2819377.0, 7298239.0 ], [ 2819439.0, 7298249.0 ], [ 2819524.0, 7298263.0 ], [ 2819550.0, 7298269.0 ], [ 2819576.0, 7298283.0 ], [ 2819594.0, 7298294.0 ], [ 2819613.0, 7298304.0 ], [ 2819625.0, 7298307.0 ], [ 2819632.0, 7298314.0 ], [ 2819642.0, 7298320.0 ], [ 2819657.0, 7298327.0 ], [ 2819666.0, 7298334.0 ], [ 2819674.0, 7298340.0 ], [ 2819681.0, 7298348.0 ], [ 2819688.0, 7298358.0 ], [ 2819693.0, 7298366.0 ], [ 2819701.0, 7298378.0 ], [ 2819708.0, 7298389.0 ], [ 2819710.0, 7298394.0 ], [ 2819724.0, 7298417.0 ], [ 2819747.0, 7298461.0 ], [ 2819761.0, 7298496.0 ], [ 2819783.0, 7298595.0 ], [ 2819793.0, 7298632.0 ], [ 2819805.0, 7298665.0 ], [ 2819818.0, 7298708.0 ], [ 2819818.0, 7298731.0 ], [ 2819817.0, 7298754.0 ], [ 2819821.0, 7298775.0 ], [ 2819828.0, 7298785.0 ], [ 2819833.0, 7298802.0 ], [ 2819841.0, 7298814.0 ], [ 2819843.0, 7298827.0 ], [ 2819848.0, 7298844.0 ], [ 2819852.0, 7298867.0 ], [ 2819860.0, 7298896.0 ], [ 2819868.0, 7298926.0 ], [ 2819876.0, 7298950.0 ], [ 2819883.0, 7298969.0 ] ] } },
{ "type": "Feature", "properties": { "closeness_centrality": 6.0051930083328508e-05, "source": 1474096742, "target": 3993686098, "ordering_closeness_centrality": 3, "length": 13633, "length_cumulative": 40329 }, "geometry": { "type": "LineString", "coordinates": [ [ 2828509.0, 7302688.0 ], [ 2828537.0, 7302693.0 ], [ 2828532.0, 7302721.0 ], [ 2828528.0, 7302748.0 ], [ 2828524.0, 7302771.0 ], [ 2828498.0, 7302766.0 ], [ 2828481.0, 7302764.0 ], [ 2828385.0, 7302754.0 ], [ 2828384.0, 7302764.0 ], [ 2828237.0, 7302747.0 ], [ 2828162.0, 7302742.0 ], [ 2828068.0, 7302738.0 ], [ 2828006.0, 7302739.0 ], [ 2827958.0, 7302740.0 ], [ 2827855.0, 7302741.0 ], [ 2827804.0, 7302741.0 ], [ 2827787.0, 7302743.0 ], [ 2827764.0, 7302749.0 ], [ 2827706.0, 7302768.0 ], [ 2827688.0, 7302775.0 ], [ 2827640.0, 7302792.0 ], [ 2827634.0, 7302795.0 ], [ 2827538.0, 7302830.0 ], [ 2827531.0, 7302833.0 ], [ 2827503.0, 7302845.0 ], [ 2827500.0, 7302847.0 ], [ 2827436.0, 7302881.0 ], [ 2827422.0, 7302886.0 ], [ 2827420.0, 7302887.0 ], [ 2827405.0, 7302890.0 ], [ 2827398.0, 7302891.0 ], [ 2827375.0, 7302893.0 ], [ 2827360.0, 7302894.0 ], [ 2827337.0, 7302896.0 ], [ 2827319.0, 7302898.0 ], [ 2827297.0, 7302899.0 ], [ 2827253.0, 7302901.0 ], [ 2827173.0, 7302906.0 ], [ 2827159.0, 7302907.0 ], [ 2827146.0, 7302907.0 ], [ 2827129.0, 7302908.0 ], [ 2827110.0, 7302910.0 ], [ 2827094.0, 7302911.0 ], [ 2827053.0, 7302917.0 ], [ 2827045.0, 7302918.0 ], [ 2827030.0, 7302920.0 ], [ 2826941.0, 7302935.0 ], [ 2826866.0, 7302947.0 ], [ 2826783.0, 7302961.0 ], [ 2826734.0, 7302968.0 ], [ 2826639.0, 7302983.0 ], [ 2826631.0, 7302984.0 ], [ 2826606.0, 7302988.0 ], [ 2826549.0, 7302995.0 ], [ 2826523.0, 7302999.0 ], [ 2826491.0, 7303004.0 ], [ 2826433.0, 7303011.0 ], [ 2826404.0, 7303014.0 ], [ 2826385.0, 7303016.0 ], [ 2826346.0, 7303019.0 ], [ 2826329.0, 7303020.0 ], [ 2826282.0, 7303023.0 ], [ 2826250.0, 7303024.0 ], [ 2826179.0, 7303022.0 ], [ 2826163.0, 7303020.0 ], [ 2826106.0, 7303009.0 ], [ 2826001.0, 7302987.0 ], [ 2825915.0, 7302969.0 ], [ 2825882.0, 7302963.0 ], [ 2825867.0, 7302960.0 ], [ 2825833.0, 7302952.0 ], [ 2825789.0, 7302943.0 ], [ 2825763.0, 7302939.0 ], [ 2825751.0, 7302939.0 ], [ 2825739.0, 7302939.0 ], [ 2825714.0, 7302943.0 ], [ 2825686.0, 7302950.0 ], [ 2825646.0, 7302964.0 ], [ 2825638.0, 7302967.0 ], [ 2825616.0, 7302977.0 ], [ 2825593.0, 7302990.0 ], [ 2825572.0, 7303004.0 ], [ 2825551.0, 7303020.0 ], [ 2825532.0, 7303037.0 ], [ 2825511.0, 7303062.0 ], [ 2825413.0, 7303202.0 ], [ 2825390.0, 7303236.0 ], [ 2825384.0, 7303245.0 ], [ 2825375.0, 7303259.0 ], [ 2825359.0, 7303279.0 ], [ 2825346.0, 7303297.0 ], [ 2825328.0, 7303323.0 ], [ 2825295.0, 7303363.0 ], [ 2825273.0, 7303381.0 ], [ 2825248.0, 7303398.0 ], [ 2825217.0, 7303415.0 ], [ 2825171.0, 7303435.0 ], [ 2825159.0, 7303440.0 ], [ 2825150.0, 7303442.0 ], [ 2825132.0, 7303447.0 ], [ 2825099.0, 7303452.0 ], [ 2825071.0, 7303451.0 ], [ 2825037.0, 7303447.0 ], [ 2825001.0, 7303439.0 ], [ 2824879.0, 7303400.0 ], [ 2824791.0, 7303371.0 ], [ 2824548.0, 7303293.0 ], [ 2824475.0, 7303270.0 ], [ 2824404.0, 7303246.0 ], [ 2824365.0, 7303231.0 ], [ 2824340.0, 7303218.0 ], [ 2824321.0, 7303205.0 ], [ 2824297.0, 7303186.0 ], [ 2824270.0, 7303156.0 ], [ 2824243.0, 7303131.0 ], [ 2824219.0, 7303112.0 ], [ 2824186.0, 7303088.0 ], [ 2824148.0, 7303061.0 ], [ 2824146.0, 7303060.0 ], [ 2824136.0, 7303052.0 ], [ 2824079.0, 7303012.0 ], [ 2824072.0, 7303007.0 ], [ 2824051.0, 7302994.0 ], [ 2824037.0, 7302987.0 ], [ 2824015.0, 7302978.0 ], [ 2823979.0, 7302966.0 ], [ 2823941.0, 7302952.0 ], [ 2823850.0, 7302920.0 ], [ 2823812.0, 7302906.0 ], [ 2823739.0, 7302878.0 ], [ 2823538.0, 7302798.0 ], [ 2823517.0, 7302789.0 ], [ 2823492.0, 7302778.0 ], [ 2823424.0, 7302749.0 ], [ 2823396.0, 7302741.0 ], [ 2823367.0, 7302735.0 ], [ 2823356.0, 7302733.0 ], [ 2823303.0, 7302724.0 ], [ 2823249.0, 7302714.0 ], [ 2823218.0, 7302705.0 ], [ 2823180.0, 7302692.0 ], [ 2823154.0, 7302681.0 ], [ 2823131.0, 7302669.0 ], [ 2823085.0, 7302646.0 ], [ 2823035.0, 7302622.0 ], [ 2823015.0, 7302616.0 ], [ 2822998.0, 7302614.0 ], [ 2822976.0, 7302614.0 ], [ 2822960.0, 7302614.0 ], [ 2822945.0, 7302616.0 ], [ 2822928.0, 7302620.0 ], [ 2822911.0, 7302626.0 ], [ 2822894.0, 7302633.0 ], [ 2822875.0, 7302645.0 ], [ 2822829.0, 7302679.0 ], [ 2822736.0, 7302750.0 ], [ 2822705.0, 7302770.0 ], [ 2822686.0, 7302778.0 ], [ 2822673.0, 7302783.0 ], [ 2822651.0, 7302785.0 ], [ 2822633.0, 7302786.0 ], [ 2822613.0, 7302784.0 ], [ 2822592.0, 7302780.0 ], [ 2822566.0, 7302772.0 ], [ 2822513.0, 7302752.0 ], [ 2822376.0, 7302693.0 ], [ 2822313.0, 7302667.0 ], [ 2822305.0, 7302664.0 ], [ 2822288.0, 7302660.0 ], [ 2822265.0, 7302658.0 ], [ 2822242.0, 7302658.0 ], [ 2822224.0, 7302660.0 ], [ 2822208.0, 7302663.0 ], [ 2822162.0, 7302678.0 ], [ 2822137.0, 7302686.0 ], [ 2822098.0, 7302695.0 ], [ 2822059.0, 7302701.0 ], [ 2822021.0, 7302705.0 ], [ 2821961.0, 7302706.0 ], [ 2821934.0, 7302703.0 ], [ 2821889.0, 7302697.0 ], [ 2821850.0, 7302688.0 ], [ 2821811.0, 7302675.0 ], [ 2821779.0, 7302661.0 ], [ 2821751.0, 7302648.0 ], [ 2821714.0, 7302626.0 ], [ 2821677.0, 7302601.0 ], [ 2821607.0, 7302550.0 ], [ 2821549.0, 7302505.0 ], [ 2821500.0, 7302459.0 ], [ 2821436.0, 7302408.0 ], [ 2821354.0, 7302345.0 ], [ 2821218.0, 7302238.0 ], [ 2821062.0, 7302123.0 ], [ 2821024.0, 7302096.0 ], [ 2820973.0, 7302064.0 ], [ 2820966.0, 7302059.0 ], [ 2820915.0, 7302030.0 ], [ 2820882.0, 7302013.0 ], [ 2820840.0, 7301991.0 ], [ 2820786.0, 7301966.0 ], [ 2820740.0, 7301947.0 ], [ 2820685.0, 7301926.0 ], [ 2820631.0, 7301907.0 ], [ 2820574.0, 7301889.0 ], [ 2820514.0, 7301872.0 ], [ 2820465.0, 7301861.0 ], [ 2820456.0, 7301859.0 ], [ 2820400.0, 7301848.0 ], [ 2820343.0, 7301838.0 ], [ 2820251.0, 7301825.0 ], [ 2820107.0, 7301805.0 ], [ 2820049.0, 7301797.0 ], [ 2820020.0, 7301791.0 ], [ 2819995.0, 7301786.0 ], [ 2819931.0, 7301769.0 ], [ 2819872.0, 7301751.0 ], [ 2819851.0, 7301743.0 ], [ 2819806.0, 7301725.0 ], [ 2819758.0, 7301704.0 ], [ 2819718.0, 7301683.0 ], [ 2819663.0, 7301651.0 ], [ 2819600.0, 7301608.0 ], [ 2819400.0, 7301456.0 ], [ 2819119.0, 7301237.0 ], [ 2819067.0, 7301196.0 ], [ 2819040.0, 7301173.0 ], [ 2818902.0, 7301052.0 ], [ 2818730.0, 7300894.0 ], [ 2818592.0, 7300768.0 ], [ 2818503.0, 7300687.0 ], [ 2818457.0, 7300652.0 ], [ 2818426.0, 7300631.0 ], [ 2818383.0, 7300601.0 ], [ 2818324.0, 7300566.0 ], [ 2818233.0, 7300512.0 ], [ 2818125.0, 7300449.0 ], [ 2818080.0, 7300420.0 ], [ 2818052.0, 7300399.0 ], [ 2818031.0, 7300384.0 ], [ 2817991.0, 7300346.0 ], [ 2817970.0, 7300323.0 ], [ 2817949.0, 7300295.0 ], [ 2817932.0, 7300268.0 ], [ 2817917.0, 7300243.0 ], [ 2817905.0, 7300218.0 ], [ 2817883.0, 7300171.0 ], [ 2817862.0, 7300124.0 ], [ 2817840.0, 7300085.0 ], [ 2817791.0, 7300008.0 ], [ 2817769.0, 7299976.0 ], [ 2817685.0, 7299851.0 ], [ 2817671.0, 7299831.0 ], [ 2817646.0, 7299794.0 ], [ 2817619.0, 7299754.0 ], [ 2817594.0, 7299718.0 ], [ 2817537.0, 7299637.0 ], [ 2817478.0, 7299555.0 ], [ 2817450.0, 7299517.0 ], [ 2817418.0, 7299479.0 ], [ 2817371.0, 7299428.0 ], [ 2817336.0, 7299395.0 ], [ 2817246.0, 7299319.0 ], [ 2817220.0, 7299297.0 ], [ 2817195.0, 7299278.0 ], [ 2817158.0, 7299252.0 ], [ 2817125.0, 7299234.0 ], [ 2817064.0, 7299199.0 ], [ 2816968.0, 7299150.0 ], [ 2816862.0, 7299098.0 ] ] } },
{ "type": "Feature", "properties": { "closeness_centrality": 5.974276647634951e-05, "source": 12666359179, "target": 8758680352, "ordering_closeness_centrality": 4, "length": 2096, "length_cumulative": 42425 }, "geometry": { "type": "MultiLineString", "coordinates": [ [ [ 2813449.0, 7291181.0 ], [ 2813451.0, 7291187.0 ], [ 2813463.0, 7291252.0 ], [ 2813512.0, 7291518.0 ], [ 2813521.0, 7291562.0 ], [ 2813533.0, 7291623.0 ], [ 2813543.0, 7291677.0 ], [ 2813551.0, 7291717.0 ], [ 2813584.0, 7291888.0 ], [ 2813587.0, 7291916.0 ], [ 2813588.0, 7291943.0 ], [ 2813582.0, 7292001.0 ], [ 2813573.0, 7292080.0 ], [ 2813559.0, 7292211.0 ], [ 2813551.0, 7292289.0 ], [ 2813522.0, 7292559.0 ], [ 2813512.0, 7292645.0 ], [ 2813527.0, 7292646.0 ], [ 2813515.0, 7292755.0 ], [ 2813511.0, 7292847.0 ], [ 2813513.0, 7292877.0 ] ], [ [ 2813513.0, 7292906.0 ], [ 2813732.0, 7292906.0 ], [ 2813816.0, 7292906.0 ], [ 2813881.0, 7292905.0 ] ] ] } },
{ "type": "Feature", "properties": { "closeness_centrality": 5.8139451735661065e-05, "source": 12666359179, "target": 3993686098, "ordering_closeness_centrality": 6, "length": 7955, "length_cumulative": 50380 }, "geometry": { "type": "LineString", "coordinates": [ [ 2822470.0, 7299800.0 ], [ 2822703.0, 7299936.0 ], [ 2822736.0, 7299955.0 ], [ 2822756.0, 7299972.0 ], [ 2822804.0, 7300016.0 ], [ 2822833.0, 7300061.0 ], [ 2822874.0, 7300076.0 ], [ 2822902.0, 7300079.0 ], [ 2822914.0, 7300069.0 ], [ 2822928.0, 7300056.0 ], [ 2822946.0, 7300025.0 ], [ 2822954.0, 7300011.0 ], [ 2822957.0, 7300006.0 ], [ 2822985.0, 7299965.0 ], [ 2823003.0, 7299930.0 ], [ 2823010.0, 7299913.0 ], [ 2823013.0, 7299902.0 ], [ 2823014.0, 7299894.0 ], [ 2823013.0, 7299879.0 ], [ 2823021.0, 7299880.0 ], [ 2823026.0, 7299877.0 ], [ 2823030.0, 7299874.0 ], [ 2823031.0, 7299870.0 ], [ 2823031.0, 7299866.0 ], [ 2823029.0, 7299859.0 ], [ 2823024.0, 7299856.0 ], [ 2823015.0, 7299853.0 ], [ 2823030.0, 7299852.0 ], [ 2823064.0, 7299849.0 ], [ 2823123.0, 7299869.0 ], [ 2823189.0, 7299893.0 ], [ 2823183.0, 7299911.0 ], [ 2823174.0, 7299931.0 ], [ 2823165.0, 7299954.0 ], [ 2823165.0, 7299963.0 ], [ 2823174.0, 7299968.0 ], [ 2823303.0, 7300030.0 ], [ 2823317.0, 7300030.0 ], [ 2823328.0, 7300024.0 ], [ 2823340.0, 7300004.0 ], [ 2823360.0, 7299956.0 ], [ 2823429.0, 7299986.0 ], [ 2823526.0, 7300029.0 ], [ 2823531.0, 7300031.0 ], [ 2823681.0, 7300093.0 ], [ 2823687.0, 7300096.0 ], [ 2823744.0, 7300133.0 ], [ 2823815.0, 7300163.0 ], [ 2823850.0, 7300184.0 ], [ 2823871.0, 7300201.0 ], [ 2823872.0, 7300202.0 ], [ 2823897.0, 7300225.0 ], [ 2823935.0, 7300260.0 ], [ 2823952.0, 7300276.0 ], [ 2824046.0, 7300364.0 ], [ 2824122.0, 7300433.0 ], [ 2824182.0, 7300467.0 ], [ 2824212.0, 7300477.0 ], [ 2824227.0, 7300482.0 ], [ 2824260.0, 7300499.0 ], [ 2824286.0, 7300516.0 ], [ 2824328.0, 7300550.0 ], [ 2824400.0, 7300583.0 ], [ 2824430.0, 7300593.0 ], [ 2824525.0, 7300628.0 ], [ 2824637.0, 7300660.0 ], [ 2824762.0, 7300690.0 ], [ 2824846.0, 7300703.0 ], [ 2824851.0, 7300716.0 ], [ 2824855.0, 7300735.0 ], [ 2824852.0, 7300753.0 ], [ 2824868.0, 7300777.0 ], [ 2824892.0, 7300816.0 ], [ 2824926.0, 7300831.0 ], [ 2824949.0, 7300834.0 ], [ 2824963.0, 7300854.0 ], [ 2824998.0, 7300877.0 ], [ 2825056.0, 7300896.0 ], [ 2825096.0, 7300909.0 ], [ 2825113.0, 7300937.0 ], [ 2825138.0, 7300960.0 ], [ 2825163.0, 7300972.0 ], [ 2825172.0, 7300996.0 ], [ 2825182.0, 7301017.0 ], [ 2825188.0, 7301030.0 ], [ 2825187.0, 7301073.0 ], [ 2825186.0, 7301084.0 ], [ 2825184.0, 7301101.0 ], [ 2825191.0, 7301119.0 ], [ 2825210.0, 7301138.0 ], [ 2825248.0, 7301132.0 ], [ 2825271.0, 7301126.0 ], [ 2825298.0, 7301108.0 ], [ 2825335.0, 7301135.0 ], [ 2825350.0, 7301145.0 ], [ 2825380.0, 7301188.0 ], [ 2825420.0, 7301193.0 ], [ 2825463.0, 7301212.0 ], [ 2825518.0, 7301229.0 ], [ 2825537.0, 7301228.0 ], [ 2825563.0, 7301222.0 ], [ 2825618.0, 7301229.0 ], [ 2825641.0, 7301227.0 ], [ 2825657.0, 7301226.0 ], [ 2825702.0, 7301232.0 ], [ 2825775.0, 7301231.0 ], [ 2825807.0, 7301234.0 ], [ 2825822.0, 7301238.0 ], [ 2825894.0, 7301243.0 ], [ 2825921.0, 7301242.0 ], [ 2825936.0, 7301240.0 ], [ 2825950.0, 7301240.0 ], [ 2825966.0, 7301244.0 ], [ 2826017.0, 7301200.0 ], [ 2826032.0, 7301190.0 ], [ 2826051.0, 7301188.0 ], [ 2826071.0, 7301186.0 ], [ 2826103.0, 7301202.0 ], [ 2826131.0, 7301208.0 ], [ 2826176.0, 7301231.0 ], [ 2826212.0, 7301249.0 ], [ 2826226.0, 7301267.0 ], [ 2826235.0, 7301292.0 ], [ 2826246.0, 7301299.0 ], [ 2826266.0, 7301301.0 ], [ 2826313.0, 7301311.0 ], [ 2826331.0, 7301321.0 ], [ 2826376.0, 7301320.0 ], [ 2826385.0, 7301323.0 ], [ 2826395.0, 7301330.0 ], [ 2826404.0, 7301333.0 ], [ 2826438.0, 7301340.0 ], [ 2826451.0, 7301339.0 ], [ 2826485.0, 7301350.0 ], [ 2826504.0, 7301356.0 ], [ 2826520.0, 7301366.0 ], [ 2826536.0, 7301377.0 ], [ 2826560.0, 7301395.0 ], [ 2826591.0, 7301403.0 ], [ 2826597.0, 7301413.0 ], [ 2826622.0, 7301421.0 ], [ 2826642.0, 7301423.0 ], [ 2826658.0, 7301430.0 ], [ 2826671.0, 7301442.0 ], [ 2826693.0, 7301461.0 ], [ 2826722.0, 7301487.0 ], [ 2826736.0, 7301503.0 ], [ 2826741.0, 7301512.0 ], [ 2826782.0, 7301532.0 ], [ 2826798.0, 7301554.0 ], [ 2826800.0, 7301571.0 ], [ 2826815.0, 7301596.0 ], [ 2826820.0, 7301618.0 ], [ 2826846.0, 7301643.0 ], [ 2826850.0, 7301667.0 ], [ 2826863.0, 7301685.0 ], [ 2826883.0, 7301699.0 ], [ 2826903.0, 7301710.0 ], [ 2826919.0, 7301716.0 ], [ 2826923.0, 7301734.0 ], [ 2826937.0, 7301774.0 ], [ 2826947.0, 7301805.0 ], [ 2826960.0, 7301832.0 ], [ 2826971.0, 7301853.0 ], [ 2826984.0, 7301872.0 ], [ 2826990.0, 7301897.0 ], [ 2826993.0, 7301928.0 ], [ 2827027.0, 7301915.0 ], [ 2827044.0, 7301929.0 ], [ 2827068.0, 7301922.0 ], [ 2827113.0, 7301910.0 ], [ 2827194.0, 7301888.0 ], [ 2827255.0, 7301870.0 ], [ 2827320.0, 7301854.0 ], [ 2827327.0, 7301866.0 ], [ 2827379.0, 7301856.0 ], [ 2827426.0, 7301849.0 ], [ 2827468.0, 7301845.0 ], [ 2827520.0, 7301841.0 ], [ 2827564.0, 7301840.0 ], [ 2827597.0, 7301840.0 ], [ 2827619.0, 7301842.0 ], [ 2827641.0, 7301844.0 ], [ 2827666.0, 7301847.0 ], [ 2827721.0, 7301855.0 ], [ 2827758.0, 7301863.0 ], [ 2827796.0, 7301872.0 ], [ 2827825.0, 7301879.0 ], [ 2827856.0, 7301889.0 ], [ 2827879.0, 7301896.0 ], [ 2827901.0, 7301904.0 ], [ 2827920.0, 7301912.0 ], [ 2827939.0, 7301920.0 ], [ 2827964.0, 7301932.0 ], [ 2827990.0, 7301945.0 ], [ 2828019.0, 7301962.0 ], [ 2828048.0, 7301981.0 ], [ 2828077.0, 7302002.0 ], [ 2828105.0, 7302024.0 ], [ 2828136.0, 7302053.0 ], [ 2828169.0, 7302087.0 ], [ 2828191.0, 7302111.0 ], [ 2828218.0, 7302153.0 ], [ 2828224.0, 7302160.0 ], [ 2828283.0, 7302229.0 ], [ 2828334.0, 7302284.0 ], [ 2828384.0, 7302333.0 ], [ 2828403.0, 7302350.0 ], [ 2828422.0, 7302365.0 ], [ 2828440.0, 7302379.0 ], [ 2828496.0, 7302415.0 ], [ 2828485.0, 7302435.0 ], [ 2828531.0, 7302459.0 ], [ 2828526.0, 7302496.0 ], [ 2828523.0, 7302516.0 ], [ 2828515.0, 7302557.0 ], [ 2828508.0, 7302600.0 ], [ 2828504.0, 7302626.0 ], [ 2828518.0, 7302628.0 ], [ 2828547.0, 7302633.0 ], [ 2828544.0, 7302649.0 ], [ 2828541.0, 7302663.0 ], [ 2828537.0, 7302693.0 ] ] } },
{ "type": "Feature", "properties": { "closeness_centrality": 5.5382663584455999e-05, "source": 1474096742, "target": 905169370, "ordering_closeness_centrality": 7, "length": 15818, "length_cumulative": 66199 }, "geometry": { "type": "LineString", "coordinates": [ [ 2814382.0, 7298090.0 ], [ 2814366.0, 7298114.0 ], [ 2814348.0, 7298102.0 ], [ 2814338.0, 7298116.0 ], [ 2814236.0, 7298054.0 ], [ 2814225.0, 7298049.0 ], [ 2814204.0, 7298041.0 ], [ 2814184.0, 7298036.0 ], [ 2814176.0, 7298035.0 ], [ 2814166.0, 7298023.0 ], [ 2814159.0, 7298019.0 ], [ 2814149.0, 7298028.0 ], [ 2814136.0, 7298017.0 ], [ 2814126.0, 7298014.0 ], [ 2814116.0, 7298014.0 ], [ 2814091.0, 7298019.0 ], [ 2814067.0, 7298024.0 ], [ 2814036.0, 7298032.0 ], [ 2814010.0, 7298040.0 ], [ 2813990.0, 7298045.0 ], [ 2813923.0, 7298065.0 ], [ 2813890.0, 7298074.0 ], [ 2813789.0, 7298103.0 ], [ 2813770.0, 7298109.0 ], [ 2813758.0, 7298112.0 ], [ 2813751.0, 7298117.0 ], [ 2813746.0, 7298119.0 ], [ 2813736.0, 7298122.0 ], [ 2813726.0, 7298125.0 ], [ 2813695.0, 7298134.0 ], [ 2813688.0, 7298138.0 ], [ 2813678.0, 7298145.0 ], [ 2813670.0, 7298148.0 ], [ 2813661.0, 7298150.0 ], [ 2813654.0, 7298151.0 ], [ 2813643.0, 7298147.0 ], [ 2813605.0, 7298135.0 ], [ 2813561.0, 7298120.0 ], [ 2813540.0, 7298113.0 ], [ 2813468.0, 7298088.0 ], [ 2813461.0, 7298085.0 ], [ 2813450.0, 7298081.0 ], [ 2813435.0, 7298076.0 ], [ 2813341.0, 7298046.0 ], [ 2813324.0, 7298041.0 ], [ 2813275.0, 7298026.0 ], [ 2813263.0, 7298022.0 ], [ 2813241.0, 7298015.0 ], [ 2813190.0, 7297999.0 ], [ 2813118.0, 7297976.0 ], [ 2813091.0, 7297967.0 ], [ 2813070.0, 7297961.0 ], [ 2812995.0, 7297937.0 ], [ 2812954.0, 7297923.0 ], [ 2812890.0, 7297902.0 ], [ 2812844.0, 7297888.0 ], [ 2812746.0, 7297856.0 ], [ 2812708.0, 7297843.0 ], [ 2812690.0, 7297837.0 ], [ 2812670.0, 7297830.0 ], [ 2812627.0, 7297815.0 ], [ 2812555.0, 7297789.0 ], [ 2812472.0, 7297761.0 ], [ 2812411.0, 7297741.0 ], [ 2812376.0, 7297729.0 ], [ 2812332.0, 7297714.0 ], [ 2812301.0, 7297703.0 ], [ 2812275.0, 7297694.0 ], [ 2812266.0, 7297691.0 ], [ 2812254.0, 7297687.0 ], [ 2812196.0, 7297667.0 ], [ 2812153.0, 7297653.0 ], [ 2812082.0, 7297628.0 ], [ 2812057.0, 7297619.0 ], [ 2812047.0, 7297615.0 ], [ 2811872.0, 7297554.0 ], [ 2811790.0, 7297526.0 ], [ 2811635.0, 7297473.0 ], [ 2811573.0, 7297452.0 ], [ 2811446.0, 7297407.0 ], [ 2811374.0, 7297382.0 ], [ 2811364.0, 7297379.0 ], [ 2811346.0, 7297372.0 ], [ 2811322.0, 7297364.0 ], [ 2811296.0, 7297356.0 ], [ 2811288.0, 7297373.0 ], [ 2811287.0, 7297376.0 ], [ 2811274.0, 7297379.0 ], [ 2811191.0, 7297381.0 ], [ 2811094.0, 7297387.0 ], [ 2811048.0, 7297393.0 ], [ 2811035.0, 7297388.0 ], [ 2811028.0, 7297407.0 ], [ 2810859.0, 7297349.0 ], [ 2810640.0, 7297275.0 ], [ 2810482.0, 7297221.0 ], [ 2810440.0, 7297206.0 ], [ 2810387.0, 7297188.0 ], [ 2810316.0, 7297161.0 ], [ 2810281.0, 7297147.0 ], [ 2810256.0, 7297134.0 ], [ 2810245.0, 7297129.0 ], [ 2810222.0, 7297115.0 ], [ 2810199.0, 7297100.0 ], [ 2810177.0, 7297082.0 ], [ 2810159.0, 7297065.0 ], [ 2810142.0, 7297046.0 ], [ 2810125.0, 7297022.0 ], [ 2810111.0, 7296999.0 ], [ 2810073.0, 7296908.0 ], [ 2810065.0, 7296890.0 ], [ 2810057.0, 7296870.0 ], [ 2810055.0, 7296866.0 ], [ 2810046.0, 7296850.0 ], [ 2810036.0, 7296836.0 ], [ 2810019.0, 7296820.0 ], [ 2810011.0, 7296816.0 ], [ 2809994.0, 7296809.0 ], [ 2809984.0, 7296807.0 ], [ 2809970.0, 7296805.0 ], [ 2809955.0, 7296806.0 ], [ 2809905.0, 7296810.0 ], [ 2809841.0, 7296815.0 ], [ 2809805.0, 7296818.0 ], [ 2809743.0, 7296823.0 ], [ 2809653.0, 7296830.0 ], [ 2809605.0, 7296834.0 ], [ 2809596.0, 7296835.0 ], [ 2809472.0, 7296844.0 ], [ 2809391.0, 7296851.0 ], [ 2809322.0, 7296857.0 ], [ 2809304.0, 7296859.0 ], [ 2809301.0, 7296859.0 ], [ 2809285.0, 7296861.0 ], [ 2809260.0, 7296864.0 ], [ 2809246.0, 7296827.0 ], [ 2809151.0, 7296571.0 ], [ 2809102.0, 7296440.0 ], [ 2809079.0, 7296377.0 ], [ 2809007.0, 7296188.0 ], [ 2808993.0, 7296147.0 ], [ 2808983.0, 7296113.0 ], [ 2808973.0, 7296083.0 ], [ 2808960.0, 7296052.0 ], [ 2808944.0, 7296019.0 ], [ 2808928.0, 7295989.0 ], [ 2808919.0, 7295974.0 ], [ 2808906.0, 7295957.0 ], [ 2808899.0, 7295949.0 ], [ 2808894.0, 7295942.0 ], [ 2808871.0, 7295918.0 ], [ 2808657.0, 7295708.0 ], [ 2808588.0, 7295635.0 ], [ 2808402.0, 7295459.0 ], [ 2808154.0, 7295219.0 ], [ 2807987.0, 7295057.0 ], [ 2807970.0, 7295040.0 ], [ 2807943.0, 7295014.0 ], [ 2807790.0, 7294867.0 ], [ 2807645.0, 7294724.0 ], [ 2807532.0, 7294613.0 ], [ 2807522.0, 7294605.0 ], [ 2807440.0, 7294525.0 ], [ 2807304.0, 7294395.0 ], [ 2807238.0, 7294329.0 ], [ 2807173.0, 7294263.0 ], [ 2807113.0, 7294206.0 ], [ 2807103.0, 7294196.0 ], [ 2807079.0, 7294173.0 ], [ 2807019.0, 7294116.0 ], [ 2806953.0, 7294052.0 ], [ 2806928.0, 7294028.0 ], [ 2806841.0, 7293943.0 ], [ 2806683.0, 7293789.0 ], [ 2806518.0, 7293632.0 ], [ 2806500.0, 7293614.0 ], [ 2806446.0, 7293561.0 ], [ 2806396.0, 7293514.0 ], [ 2806183.0, 7293316.0 ], [ 2806171.0, 7293305.0 ], [ 2806120.0, 7293257.0 ], [ 2806083.0, 7293229.0 ], [ 2806059.0, 7293212.0 ], [ 2806001.0, 7293174.0 ], [ 2805952.0, 7293145.0 ], [ 2805947.0, 7293142.0 ], [ 2805917.0, 7293124.0 ], [ 2805901.0, 7293114.0 ], [ 2805893.0, 7293109.0 ], [ 2805875.0, 7293099.0 ], [ 2805879.0, 7293073.0 ], [ 2805877.0, 7293057.0 ], [ 2805876.0, 7293038.0 ], [ 2805874.0, 7293005.0 ], [ 2805872.0, 7292916.0 ], [ 2805872.0, 7292885.0 ], [ 2805870.0, 7292871.0 ], [ 2805868.0, 7292863.0 ], [ 2805865.0, 7292855.0 ], [ 2805859.0, 7292847.0 ], [ 2805866.0, 7292841.0 ], [ 2805873.0, 7292837.0 ], [ 2805879.0, 7292832.0 ], [ 2805881.0, 7292808.0 ], [ 2805884.0, 7292784.0 ], [ 2805893.0, 7292708.0 ], [ 2805895.0, 7292686.0 ], [ 2805895.0, 7292682.0 ], [ 2805897.0, 7292660.0 ], [ 2805900.0, 7292610.0 ], [ 2805901.0, 7292518.0 ], [ 2805901.0, 7292513.0 ], [ 2805900.0, 7292431.0 ], [ 2805896.0, 7292391.0 ], [ 2805886.0, 7292350.0 ], [ 2805882.0, 7292335.0 ], [ 2805862.0, 7292286.0 ], [ 2805824.0, 7292219.0 ], [ 2805805.0, 7292187.0 ], [ 2805799.0, 7292176.0 ], [ 2805791.0, 7292163.0 ], [ 2805767.0, 7292128.0 ], [ 2805756.0, 7292115.0 ], [ 2805740.0, 7292100.0 ], [ 2805729.0, 7292091.0 ], [ 2805719.0, 7292080.0 ], [ 2805700.0, 7292067.0 ], [ 2805693.0, 7292063.0 ], [ 2805660.0, 7292048.0 ], [ 2805635.0, 7292039.0 ], [ 2805611.0, 7292034.0 ], [ 2805561.0, 7292022.0 ], [ 2805547.0, 7292022.0 ], [ 2805534.0, 7292017.0 ], [ 2805529.0, 7292015.0 ], [ 2805518.0, 7292015.0 ], [ 2805516.0, 7292016.0 ], [ 2805511.0, 7292018.0 ], [ 2805505.0, 7292018.0 ], [ 2805499.0, 7292016.0 ], [ 2805494.0, 7292013.0 ], [ 2805491.0, 7292009.0 ], [ 2805490.0, 7292003.0 ], [ 2805490.0, 7291996.0 ], [ 2805481.0, 7291993.0 ], [ 2805400.0, 7291944.0 ], [ 2805301.0, 7291852.0 ], [ 2805244.0, 7291775.0 ], [ 2805231.0, 7291762.0 ], [ 2805140.0, 7291728.0 ], [ 2805054.0, 7291694.0 ], [ 2805025.0, 7291672.0 ], [ 2804944.0, 7291610.0 ], [ 2804800.0, 7291487.0 ], [ 2804727.0, 7291441.0 ], [ 2804683.0, 7291398.0 ], [ 2804676.0, 7291386.0 ], [ 2804645.0, 7291370.0 ], [ 2804596.0, 7291363.0 ], [ 2804581.0, 7291357.0 ], [ 2804560.0, 7291327.0 ], [ 2804411.0, 7291236.0 ], [ 2804323.0, 7291179.0 ], [ 2804178.0, 7291085.0 ], [ 2804098.0, 7291036.0 ], [ 2804035.0, 7291002.0 ], [ 2804011.0, 7291008.0 ], [ 2803995.0, 7291014.0 ], [ 2803977.0, 7291015.0 ], [ 2803937.0, 7291010.0 ], [ 2803904.0, 7291004.0 ], [ 2803858.0, 7290986.0 ], [ 2803847.0, 7290987.0 ], [ 2803837.0, 7290986.0 ], [ 2803812.0, 7290979.0 ], [ 2803798.0, 7290972.0 ], [ 2803787.0, 7290970.0 ], [ 2803719.0, 7290964.0 ], [ 2803708.0, 7290961.0 ], [ 2803692.0, 7290953.0 ], [ 2803694.0, 7290944.0 ], [ 2803362.0, 7290841.0 ], [ 2803350.0, 7290841.0 ], [ 2803346.0, 7290836.0 ], [ 2803340.0, 7290833.0 ], [ 2803316.0, 7290825.0 ], [ 2803278.0, 7290813.0 ], [ 2803261.0, 7290809.0 ], [ 2803264.0, 7290799.0 ], [ 2803277.0, 7290757.0 ], [ 2803268.0, 7290754.0 ], [ 2803273.0, 7290739.0 ], [ 2803282.0, 7290701.0 ], [ 2803264.0, 7290697.0 ], [ 2803268.0, 7290686.0 ], [ 2803336.0, 7290456.0 ], [ 2803339.0, 7290454.0 ], [ 2803158.0, 7290392.0 ], [ 2803069.0, 7290367.0 ], [ 2802960.0, 7290336.0 ], [ 2802932.0, 7290328.0 ], [ 2802911.0, 7290318.0 ], [ 2802891.0, 7290307.0 ], [ 2802872.0, 7290295.0 ], [ 2802856.0, 7290284.0 ], [ 2802845.0, 7290276.0 ], [ 2802836.0, 7290263.0 ], [ 2802836.0, 7290246.0 ], [ 2802730.0, 7290240.0 ], [ 2802725.0, 7290239.0 ], [ 2802726.0, 7290254.0 ], [ 2802724.0, 7290265.0 ], [ 2802722.0, 7290272.0 ], [ 2802717.0, 7290276.0 ], [ 2802711.0, 7290278.0 ], [ 2802704.0, 7290279.0 ], [ 2802679.0, 7290276.0 ] ] } },
{ "type": "Feature", "properties": { "closeness_centrality": 5.4516731959497846e-05, "source": 12666359179, "target": 79666134, "ordering_closeness_centrality": 8, "length": 4639, "length_cumulative": 70839 }, "geometry": { "type": "LineString", "coordinates": [ [ 2828496.0, 7302415.0 ], [ 2828554.0, 7302448.0 ], [ 2828566.0, 7302454.0 ], [ 2828603.0, 7302470.0 ], [ 2828649.0, 7302490.0 ], [ 2828688.0, 7302507.0 ], [ 2828714.0, 7302518.0 ], [ 2828766.0, 7302540.0 ], [ 2828791.0, 7302549.0 ], [ 2828848.0, 7302571.0 ], [ 2828855.0, 7302574.0 ], [ 2828986.0, 7302629.0 ], [ 2829079.0, 7302668.0 ], [ 2829098.0, 7302675.0 ], [ 2829131.0, 7302688.0 ], [ 2829152.0, 7302695.0 ], [ 2829176.0, 7302703.0 ], [ 2829185.0, 7302705.0 ], [ 2829196.0, 7302708.0 ], [ 2829268.0, 7302726.0 ], [ 2829396.0, 7302751.0 ], [ 2829411.0, 7302755.0 ], [ 2829512.0, 7302776.0 ], [ 2829576.0, 7302790.0 ], [ 2829618.0, 7302798.0 ], [ 2829625.0, 7302800.0 ], [ 2829659.0, 7302807.0 ], [ 2829678.0, 7302812.0 ], [ 2829695.0, 7302819.0 ], [ 2829717.0, 7302827.0 ], [ 2829755.0, 7302843.0 ], [ 2829767.0, 7302849.0 ], [ 2829784.0, 7302857.0 ], [ 2830008.0, 7302970.0 ], [ 2830037.0, 7302983.0 ], [ 2830057.0, 7302989.0 ], [ 2830077.0, 7302992.0 ], [ 2830106.0, 7302994.0 ], [ 2830211.0, 7302999.0 ], [ 2830252.0, 7303000.0 ], [ 2830286.0, 7303002.0 ], [ 2830455.0, 7303012.0 ], [ 2830475.0, 7303013.0 ], [ 2830594.0, 7303019.0 ], [ 2830661.0, 7303023.0 ], [ 2830813.0, 7303031.0 ], [ 2830869.0, 7303033.0 ], [ 2830921.0, 7303036.0 ], [ 2830961.0, 7303037.0 ], [ 2831007.0, 7303037.0 ], [ 2831044.0, 7303037.0 ], [ 2831119.0, 7303037.0 ], [ 2831218.0, 7303040.0 ], [ 2831253.0, 7303043.0 ], [ 2831303.0, 7303046.0 ], [ 2831336.0, 7303040.0 ], [ 2831390.0, 7303023.0 ], [ 2831404.0, 7303021.0 ], [ 2831439.0, 7303016.0 ], [ 2831463.0, 7303016.0 ], [ 2831508.0, 7303016.0 ], [ 2831548.0, 7303017.0 ], [ 2831592.0, 7303016.0 ], [ 2831622.0, 7303009.0 ], [ 2831684.0, 7302993.0 ], [ 2831733.0, 7302981.0 ], [ 2831843.0, 7302954.0 ], [ 2831870.0, 7302948.0 ], [ 2831904.0, 7302940.0 ], [ 2831939.0, 7302932.0 ], [ 2832011.0, 7302914.0 ], [ 2832064.0, 7302900.0 ], [ 2832105.0, 7302891.0 ], [ 2832240.0, 7302860.0 ], [ 2832385.0, 7302827.0 ], [ 2832414.0, 7302821.0 ], [ 2832446.0, 7302813.0 ], [ 2832470.0, 7302808.0 ], [ 2832713.0, 7302752.0 ], [ 2832762.0, 7302741.0 ], [ 2832781.0, 7302737.0 ], [ 2832824.0, 7302724.0 ], [ 2832848.0, 7302715.0 ], [ 2832896.0, 7302696.0 ], [ 2832964.0, 7302666.0 ], [ 2832973.0, 7302661.0 ] ] } },
{ "type": "Feature", "properties": { "closeness_centrality": 5.217257470650999e-05, "source": 2280600113, "target": 905169370, "ordering_closeness_centrality": 9, "length": 12177, "length_cumulative": 83016 }, "geometry": { "type": "LineString", "coordinates": [ [ 2803339.0, 7290454.0 ], [ 2803368.0, 7290467.0 ], [ 2803409.0, 7290486.0 ], [ 2803418.0, 7290489.0 ], [ 2803425.0, 7290489.0 ], [ 2803431.0, 7290486.0 ], [ 2803435.0, 7290484.0 ], [ 2803443.0, 7290484.0 ], [ 2803490.0, 7290498.0 ], [ 2803515.0, 7290501.0 ], [ 2803553.0, 7290502.0 ], [ 2803574.0, 7290518.0 ], [ 2803623.0, 7290565.0 ], [ 2803672.0, 7290595.0 ], [ 2803693.0, 7290594.0 ], [ 2803702.0, 7290593.0 ], [ 2803714.0, 7290590.0 ], [ 2803759.0, 7290579.0 ], [ 2803781.0, 7290570.0 ], [ 2803799.0, 7290558.0 ], [ 2803795.0, 7290538.0 ], [ 2803793.0, 7290504.0 ], [ 2803803.0, 7290476.0 ], [ 2803804.0, 7290446.0 ], [ 2803784.0, 7290382.0 ], [ 2803787.0, 7290353.0 ], [ 2803794.0, 7290345.0 ], [ 2803806.0, 7290369.0 ], [ 2803820.0, 7290379.0 ], [ 2803833.0, 7290384.0 ], [ 2803866.0, 7290392.0 ], [ 2803992.0, 7290396.0 ], [ 2804246.0, 7290394.0 ], [ 2804272.0, 7290380.0 ], [ 2804303.0, 7290366.0 ], [ 2804338.0, 7290357.0 ], [ 2804421.0, 7290345.0 ], [ 2804492.0, 7290335.0 ], [ 2804556.0, 7290323.0 ], [ 2804575.0, 7290317.0 ], [ 2804650.0, 7290236.0 ], [ 2804874.0, 7290349.0 ], [ 2804947.0, 7290357.0 ], [ 2804971.0, 7290384.0 ], [ 2805064.0, 7290381.0 ], [ 2805078.0, 7290391.0 ], [ 2805078.0, 7290416.0 ], [ 2805083.0, 7290427.0 ], [ 2805097.0, 7290415.0 ], [ 2805115.0, 7290403.0 ], [ 2805192.0, 7290392.0 ], [ 2805210.0, 7290394.0 ], [ 2805294.0, 7290479.0 ], [ 2805336.0, 7290502.0 ], [ 2805412.0, 7290463.0 ], [ 2805467.0, 7290398.0 ], [ 2805532.0, 7290334.0 ], [ 2805599.0, 7290237.0 ], [ 2805637.0, 7290170.0 ], [ 2805645.0, 7290163.0 ], [ 2805730.0, 7290167.0 ], [ 2805829.0, 7290156.0 ], [ 2805903.0, 7290166.0 ], [ 2805953.0, 7290170.0 ], [ 2806084.0, 7290169.0 ], [ 2806084.0, 7290170.0 ], [ 2806140.0, 7290191.0 ], [ 2806204.0, 7290192.0 ], [ 2806267.0, 7290193.0 ], [ 2806361.0, 7290194.0 ], [ 2806432.0, 7290195.0 ], [ 2806524.0, 7290200.0 ], [ 2806565.0, 7290188.0 ], [ 2806590.0, 7290172.0 ], [ 2806637.0, 7290151.0 ], [ 2806685.0, 7290139.0 ], [ 2806750.0, 7290142.0 ], [ 2806822.0, 7290165.0 ], [ 2806887.0, 7290189.0 ], [ 2806927.0, 7290195.0 ], [ 2806985.0, 7290195.0 ], [ 2807043.0, 7290189.0 ], [ 2807064.0, 7290202.0 ], [ 2807079.0, 7290220.0 ], [ 2807127.0, 7290263.0 ], [ 2807190.0, 7290314.0 ], [ 2807201.0, 7290331.0 ], [ 2807203.0, 7290347.0 ], [ 2807207.0, 7290381.0 ], [ 2807228.0, 7290452.0 ], [ 2807245.0, 7290522.0 ], [ 2807253.0, 7290539.0 ], [ 2807262.0, 7290553.0 ], [ 2807301.0, 7290593.0 ], [ 2807322.0, 7290608.0 ], [ 2807338.0, 7290617.0 ], [ 2807353.0, 7290622.0 ], [ 2807370.0, 7290620.0 ], [ 2807388.0, 7290622.0 ], [ 2807415.0, 7290630.0 ], [ 2807444.0, 7290644.0 ], [ 2807484.0, 7290654.0 ], [ 2807501.0, 7290656.0 ], [ 2807515.0, 7290655.0 ], [ 2807541.0, 7290652.0 ], [ 2807561.0, 7290649.0 ], [ 2807571.0, 7290651.0 ], [ 2807586.0, 7290655.0 ], [ 2807597.0, 7290664.0 ], [ 2807612.0, 7290681.0 ], [ 2807673.0, 7290738.0 ], [ 2807695.0, 7290755.0 ], [ 2807737.0, 7290789.0 ], [ 2807794.0, 7290827.0 ], [ 2807803.0, 7290831.0 ], [ 2807810.0, 7290832.0 ], [ 2807817.0, 7290832.0 ], [ 2807820.0, 7290842.0 ], [ 2807824.0, 7290850.0 ], [ 2807832.0, 7290860.0 ], [ 2807845.0, 7290870.0 ], [ 2807856.0, 7290877.0 ], [ 2807877.0, 7290885.0 ], [ 2807899.0, 7290889.0 ], [ 2807918.0, 7290890.0 ], [ 2807937.0, 7290888.0 ], [ 2807967.0, 7290883.0 ], [ 2808065.0, 7290859.0 ], [ 2808099.0, 7290855.0 ], [ 2808134.0, 7290856.0 ], [ 2808293.0, 7290874.0 ], [ 2808335.0, 7290876.0 ], [ 2808366.0, 7290873.0 ], [ 2808452.0, 7290852.0 ], [ 2808480.0, 7290845.0 ], [ 2808508.0, 7290842.0 ], [ 2808525.0, 7290841.0 ], [ 2808567.0, 7290840.0 ], [ 2808597.0, 7290846.0 ], [ 2808632.0, 7290852.0 ], [ 2808640.0, 7290854.0 ], [ 2808681.0, 7290860.0 ], [ 2808686.0, 7290861.0 ], [ 2808736.0, 7290866.0 ], [ 2808749.0, 7290865.0 ], [ 2808765.0, 7290865.0 ], [ 2808782.0, 7290864.0 ], [ 2808842.0, 7290860.0 ], [ 2808882.0, 7290856.0 ], [ 2808965.0, 7290856.0 ], [ 2809022.0, 7290854.0 ], [ 2809056.0, 7290849.0 ], [ 2809100.0, 7290834.0 ], [ 2809164.0, 7290806.0 ], [ 2809169.0, 7290803.0 ], [ 2809174.0, 7290802.0 ], [ 2809190.0, 7290796.0 ], [ 2809204.0, 7290792.0 ], [ 2809216.0, 7290789.0 ], [ 2809230.0, 7290788.0 ], [ 2809242.0, 7290788.0 ], [ 2809280.0, 7290789.0 ], [ 2809308.0, 7290792.0 ], [ 2809332.0, 7290797.0 ], [ 2809370.0, 7290807.0 ], [ 2809475.0, 7290854.0 ], [ 2809557.0, 7290882.0 ], [ 2809622.0, 7290919.0 ], [ 2809665.0, 7290943.0 ], [ 2809685.0, 7290953.0 ], [ 2809708.0, 7290962.0 ], [ 2809755.0, 7290979.0 ], [ 2809817.0, 7290998.0 ], [ 2809861.0, 7291008.0 ], [ 2809871.0, 7291011.0 ], [ 2810046.0, 7291041.0 ], [ 2810057.0, 7291043.0 ], [ 2810104.0, 7291055.0 ], [ 2810305.0, 7291111.0 ], [ 2810376.0, 7291127.0 ], [ 2810431.0, 7291137.0 ], [ 2810512.0, 7291148.0 ], [ 2810586.0, 7291152.0 ], [ 2810613.0, 7291151.0 ], [ 2810644.0, 7291150.0 ], [ 2810683.0, 7291146.0 ], [ 2810705.0, 7291141.0 ], [ 2810720.0, 7291139.0 ], [ 2810749.0, 7291129.0 ], [ 2810766.0, 7291124.0 ], [ 2810818.0, 7291110.0 ], [ 2810847.0, 7291105.0 ], [ 2810882.0, 7291103.0 ], [ 2810907.0, 7291104.0 ], [ 2810926.0, 7291106.0 ], [ 2810960.0, 7291115.0 ], [ 2811008.0, 7291133.0 ], [ 2811077.0, 7291161.0 ], [ 2811159.0, 7291196.0 ], [ 2811173.0, 7291199.0 ], [ 2811180.0, 7291201.0 ], [ 2811194.0, 7291201.0 ], [ 2811208.0, 7291195.0 ], [ 2811219.0, 7291214.0 ], [ 2811256.0, 7291280.0 ], [ 2811313.0, 7291367.0 ], [ 2811404.0, 7291499.0 ], [ 2811426.0, 7291485.0 ], [ 2811460.0, 7291537.0 ], [ 2811484.0, 7291573.0 ], [ 2811494.0, 7291583.0 ], [ 2811507.0, 7291591.0 ], [ 2811531.0, 7291616.0 ], [ 2811647.0, 7291708.0 ], [ 2811650.0, 7291724.0 ], [ 2811653.0, 7291738.0 ], [ 2811778.0, 7291751.0 ], [ 2811787.0, 7291752.0 ], [ 2811906.0, 7291764.0 ], [ 2812111.0, 7291784.0 ], [ 2812158.0, 7291789.0 ], [ 2812214.0, 7291795.0 ], [ 2812277.0, 7291801.0 ], [ 2812310.0, 7291805.0 ], [ 2812408.0, 7291814.0 ], [ 2812421.0, 7291816.0 ], [ 2812475.0, 7291821.0 ], [ 2812521.0, 7291826.0 ], [ 2812544.0, 7291828.0 ], [ 2812564.0, 7291830.0 ], [ 2812667.0, 7291841.0 ], [ 2812683.0, 7291843.0 ], [ 2812701.0, 7291844.0 ], [ 2812702.0, 7291862.0 ], [ 2812700.0, 7292013.0 ], [ 2812699.0, 7292065.0 ], [ 2812698.0, 7292092.0 ], [ 2812698.0, 7292096.0 ], [ 2812692.0, 7292157.0 ], [ 2812706.0, 7292158.0 ], [ 2812700.0, 7292233.0 ], [ 2812706.0, 7292234.0 ], [ 2812718.0, 7292236.0 ], [ 2812728.0, 7292240.0 ], [ 2812747.0, 7292252.0 ], [ 2812759.0, 7292263.0 ], [ 2812774.0, 7292269.0 ], [ 2812791.0, 7292276.0 ], [ 2812807.0, 7292283.0 ], [ 2812832.0, 7292290.0 ], [ 2812859.0, 7292300.0 ], [ 2812862.0, 7292301.0 ], [ 2812918.0, 7292310.0 ], [ 2812945.0, 7292327.0 ], [ 2813009.0, 7292337.0 ], [ 2813123.0, 7292350.0 ], [ 2813140.0, 7292367.0 ], [ 2813142.0, 7292389.0 ], [ 2813230.0, 7292398.0 ], [ 2813300.0, 7292412.0 ], [ 2813292.0, 7292504.0 ], [ 2813291.0, 7292509.0 ], [ 2813291.0, 7292516.0 ], [ 2813332.0, 7292521.0 ], [ 2813381.0, 7292527.0 ], [ 2813380.0, 7292542.0 ], [ 2813446.0, 7292550.0 ], [ 2813507.0, 7292557.0 ], [ 2813522.0, 7292559.0 ] ] } },
{ "type": "Feature", "properties": { "closeness_centrality": 5.1905492006278314e-05, "source": 1474096742, "target": 1737450722, "ordering_closeness_centrality": 10, "length": 9412, "length_cumulative": 92428 }, "geometry": { "type": "LineString", "coordinates": [ [ 2805875.0, 7293099.0 ], [ 2805849.0, 7293083.0 ], [ 2805698.0, 7292992.0 ], [ 2805338.0, 7292774.0 ], [ 2804975.0, 7292557.0 ], [ 2804526.0, 7292284.0 ], [ 2804408.0, 7292214.0 ], [ 2804294.0, 7292147.0 ], [ 2804258.0, 7292129.0 ], [ 2804223.0, 7292112.0 ], [ 2804187.0, 7292099.0 ], [ 2804166.0, 7292093.0 ], [ 2804145.0, 7292088.0 ], [ 2804121.0, 7292084.0 ], [ 2804097.0, 7292081.0 ], [ 2804070.0, 7292079.0 ], [ 2804044.0, 7292080.0 ], [ 2804022.0, 7292082.0 ], [ 2804002.0, 7292085.0 ], [ 2803981.0, 7292089.0 ], [ 2803961.0, 7292095.0 ], [ 2803943.0, 7292100.0 ], [ 2803926.0, 7292107.0 ], [ 2803908.0, 7292114.0 ], [ 2803891.0, 7292123.0 ], [ 2803857.0, 7292140.0 ], [ 2803830.0, 7292156.0 ], [ 2803805.0, 7292173.0 ], [ 2803716.0, 7292235.0 ], [ 2803644.0, 7292288.0 ], [ 2803593.0, 7292326.0 ], [ 2803550.0, 7292359.0 ], [ 2803469.0, 7292390.0 ], [ 2803440.0, 7292401.0 ], [ 2803417.0, 7292408.0 ], [ 2803400.0, 7292412.0 ], [ 2803383.0, 7292414.0 ], [ 2803358.0, 7292416.0 ], [ 2803332.0, 7292417.0 ], [ 2803307.0, 7292416.0 ], [ 2803287.0, 7292415.0 ], [ 2803264.0, 7292412.0 ], [ 2803234.0, 7292406.0 ], [ 2803206.0, 7292399.0 ], [ 2803181.0, 7292392.0 ], [ 2803161.0, 7292384.0 ], [ 2803142.0, 7292375.0 ], [ 2803123.0, 7292366.0 ], [ 2803102.0, 7292353.0 ], [ 2803072.0, 7292333.0 ], [ 2803054.0, 7292318.0 ], [ 2803030.0, 7292298.0 ], [ 2802985.0, 7292262.0 ], [ 2802952.0, 7292222.0 ], [ 2802925.0, 7292188.0 ], [ 2802891.0, 7292144.0 ], [ 2802867.0, 7292118.0 ], [ 2802817.0, 7292067.0 ], [ 2802778.0, 7292031.0 ], [ 2802739.0, 7291994.0 ], [ 2802706.0, 7291963.0 ], [ 2802283.0, 7291566.0 ], [ 2802225.0, 7291519.0 ], [ 2802162.0, 7291469.0 ], [ 2802029.0, 7291391.0 ], [ 2801908.0, 7291331.0 ], [ 2801818.0, 7291294.0 ], [ 2801736.0, 7291264.0 ], [ 2801642.0, 7291237.0 ], [ 2801586.0, 7291223.0 ], [ 2801514.0, 7291207.0 ], [ 2801464.0, 7291198.0 ], [ 2801414.0, 7291190.0 ], [ 2801266.0, 7291168.0 ], [ 2800844.0, 7291104.0 ], [ 2800834.0, 7291103.0 ], [ 2800780.0, 7291095.0 ], [ 2800583.0, 7291066.0 ], [ 2800474.0, 7291049.0 ], [ 2800378.0, 7291032.0 ], [ 2800257.0, 7291008.0 ], [ 2800239.0, 7291008.0 ], [ 2800222.0, 7291006.0 ], [ 2800173.0, 7290995.0 ], [ 2800103.0, 7290978.0 ], [ 2800013.0, 7290956.0 ], [ 2799926.0, 7290934.0 ], [ 2799867.0, 7290919.0 ], [ 2799838.0, 7290912.0 ], [ 2799785.0, 7290898.0 ], [ 2799749.0, 7290887.0 ], [ 2799711.0, 7290875.0 ], [ 2799637.0, 7290849.0 ], [ 2799551.0, 7290817.0 ], [ 2799527.0, 7290812.0 ], [ 2799513.0, 7290810.0 ], [ 2799492.0, 7290808.0 ], [ 2799436.0, 7290804.0 ], [ 2799417.0, 7290801.0 ], [ 2799408.0, 7290799.0 ], [ 2799309.0, 7290790.0 ], [ 2799171.0, 7290778.0 ], [ 2799084.0, 7290772.0 ], [ 2799045.0, 7290768.0 ], [ 2798981.0, 7290763.0 ], [ 2798920.0, 7290761.0 ], [ 2798889.0, 7290765.0 ], [ 2798747.0, 7290796.0 ], [ 2798440.0, 7290866.0 ], [ 2798229.0, 7290917.0 ], [ 2798209.0, 7290925.0 ], [ 2798194.0, 7290934.0 ], [ 2798180.0, 7290923.0 ], [ 2798163.0, 7290911.0 ], [ 2798137.0, 7290902.0 ], [ 2798054.0, 7290919.0 ], [ 2797998.0, 7290926.0 ], [ 2797978.0, 7290933.0 ], [ 2797698.0, 7290999.0 ], [ 2797688.0, 7290996.0 ], [ 2797599.0, 7291013.0 ], [ 2797551.0, 7291023.0 ], [ 2797511.0, 7291033.0 ], [ 2797502.0, 7291067.0 ], [ 2797465.0, 7291079.0 ], [ 2797454.0, 7291108.0 ], [ 2797434.0, 7291097.0 ], [ 2797428.0, 7291088.0 ], [ 2797415.0, 7291077.0 ], [ 2797409.0, 7291075.0 ], [ 2797403.0, 7291076.0 ] ] } },
{ "type": "Feature", "properties": { "closeness_centrality": 5.1379753970385092e-05, "source": 79666134, "target": 8758680352, "ordering_closeness_centrality": 11, "length": 1362, "length_cumulative": 93791 }, "geometry": { "type": "LineString", "coordinates": [ [ 2821859.0, 7299331.0 ], [ 2821868.0, 7299332.0 ], [ 2821876.0, 7299332.0 ], [ 2821882.0, 7299330.0 ], [ 2821887.0, 7299329.0 ], [ 2821894.0, 7299324.0 ], [ 2821909.0, 7299310.0 ], [ 2821914.0, 7299306.0 ], [ 2821950.0, 7299277.0 ], [ 2821972.0, 7299266.0 ], [ 2821987.0, 7299262.0 ], [ 2822001.0, 7299261.0 ], [ 2822017.0, 7299263.0 ], [ 2822035.0, 7299268.0 ], [ 2822067.0, 7299275.0 ], [ 2822136.0, 7299289.0 ], [ 2822221.0, 7299307.0 ], [ 2822250.0, 7299315.0 ], [ 2822270.0, 7299326.0 ], [ 2822314.0, 7299361.0 ], [ 2822353.0, 7299396.0 ], [ 2822505.0, 7299518.0 ], [ 2822518.0, 7299530.0 ], [ 2822531.0, 7299539.0 ], [ 2822920.0, 7299811.0 ], [ 2822977.0, 7299851.0 ], [ 2822990.0, 7299855.0 ], [ 2823002.0, 7299855.0 ], [ 2823015.0, 7299853.0 ] ] } },
{ "type": "Feature", "properties": { "closeness_centrality": 5.0333207247675802e-05, "source": 8758680352, "target": 905169370, "ordering_closeness_centrality": 12, "length": 1105, "length_cumulative": 94896 }, "geometry": { "type": "LineString", "coordinates": [ [ 2812701.0, 7291844.0 ], [ 2812721.0, 7291846.0 ], [ 2812735.0, 7291847.0 ], [ 2812791.0, 7291854.0 ], [ 2812888.0, 7291865.0 ], [ 2812944.0, 7291871.0 ], [ 2813035.0, 7291881.0 ], [ 2813085.0, 7291886.0 ], [ 2813092.0, 7291887.0 ], [ 2813204.0, 7291899.0 ], [ 2813235.0, 7291903.0 ], [ 2813313.0, 7291911.0 ], [ 2813379.0, 7291919.0 ], [ 2813426.0, 7291924.0 ], [ 2813437.0, 7291925.0 ], [ 2813440.0, 7291926.0 ], [ 2813455.0, 7291927.0 ], [ 2813467.0, 7291929.0 ], [ 2813483.0, 7291931.0 ], [ 2813501.0, 7291933.0 ], [ 2813570.0, 7291941.0 ], [ 2813571.0, 7291927.0 ], [ 2813538.0, 7291741.0 ], [ 2813540.0, 7291732.0 ], [ 2813551.0, 7291717.0 ] ] } },
{ "type": "Feature", "properties": { "closeness_centrality": 4.9776439229696646e-05, "source": 3993686098, "target": 79666134, "ordering_closeness_centrality": 13, "length": 394, "length_cumulative": 95290 }, "geometry": { "type": "LineString", "coordinates": [ [ 2828547.0, 7302633.0 ], [ 2828562.0, 7302609.0 ], [ 2828578.0, 7302594.0 ], [ 2828634.0, 7302603.0 ], [ 2828661.0, 7302608.0 ], [ 2828672.0, 7302610.0 ], [ 2828691.0, 7302613.0 ], [ 2828690.0, 7302621.0 ], [ 2828720.0, 7302625.0 ], [ 2828839.0, 7302642.0 ], [ 2828851.0, 7302589.0 ], [ 2828854.0, 7302578.0 ], [ 2828855.0, 7302574.0 ] ] } },
{ "type": "Feature", "properties": { "closeness_centrality": 4.9251749633033125e-05, "source": 3993686098, "target": 11524897910, "ordering_closeness_centrality": 14, "length": 1653, "length_cumulative": 96944 }, "geometry": { "type": "LineString", "coordinates": [ [ 2831684.0, 7302993.0 ], [ 2831720.0, 7303017.0 ], [ 2831769.0, 7303059.0 ], [ 2831777.0, 7303077.0 ], [ 2831796.0, 7303111.0 ], [ 2831802.0, 7303122.0 ], [ 2831812.0, 7303141.0 ], [ 2831814.0, 7303145.0 ], [ 2831818.0, 7303153.0 ], [ 2831821.0, 7303160.0 ], [ 2831830.0, 7303177.0 ], [ 2831842.0, 7303203.0 ], [ 2831901.0, 7303324.0 ], [ 2831921.0, 7303366.0 ], [ 2831969.0, 7303468.0 ], [ 2831981.0, 7303481.0 ], [ 2832092.0, 7303577.0 ], [ 2832131.0, 7303615.0 ], [ 2832147.0, 7303648.0 ], [ 2832156.0, 7303676.0 ], [ 2832189.0, 7303686.0 ], [ 2832240.0, 7303698.0 ], [ 2832409.0, 7303729.0 ], [ 2832426.0, 7303730.0 ], [ 2832435.0, 7303728.0 ], [ 2832444.0, 7303724.0 ], [ 2832449.0, 7303719.0 ], [ 2832467.0, 7303683.0 ], [ 2832472.0, 7303693.0 ], [ 2832476.0, 7303699.0 ], [ 2832489.0, 7303706.0 ], [ 2832500.0, 7303711.0 ], [ 2832508.0, 7303722.0 ], [ 2832517.0, 7303736.0 ], [ 2832522.0, 7303743.0 ], [ 2832524.0, 7303751.0 ], [ 2832528.0, 7303756.0 ], [ 2832536.0, 7303758.0 ], [ 2832544.0, 7303759.0 ], [ 2832557.0, 7303767.0 ], [ 2832582.0, 7303778.0 ], [ 2832585.0, 7303784.0 ], [ 2832584.0, 7303792.0 ], [ 2832583.0, 7303797.0 ], [ 2832580.0, 7303801.0 ], [ 2832591.0, 7303817.0 ], [ 2832601.0, 7303828.0 ], [ 2832610.0, 7303861.0 ], [ 2832611.0, 7303880.0 ], [ 2832611.0, 7303894.0 ], [ 2832610.0, 7303905.0 ], [ 2832613.0, 7303909.0 ], [ 2832672.0, 7303925.0 ], [ 2832685.0, 7303931.0 ], [ 2832699.0, 7303884.0 ], [ 2832698.0, 7303875.0 ], [ 2832691.0, 7303864.0 ], [ 2832677.0, 7303853.0 ] ] } },
{ "type": "Feature", "properties": { "closeness_centrality": 4.5629029856869913e-05, "source": 79666134, "target": 11524897910, "ordering_closeness_centrality": 15, "length": 1515, "length_cumulative": 98460 }, "geometry": { "type": "LineString", "coordinates": [ [ 2832467.0, 7303683.0 ], [ 2832474.0, 7303671.0 ], [ 2832497.0, 7303644.0 ], [ 2832505.0, 7303629.0 ], [ 2832512.0, 7303615.0 ], [ 2832518.0, 7303590.0 ], [ 2832527.0, 7303571.0 ], [ 2832538.0, 7303549.0 ], [ 2832547.0, 7303538.0 ], [ 2832563.0, 7303526.0 ], [ 2832584.0, 7303518.0 ], [ 2832659.0, 7303499.0 ], [ 2832675.0, 7303492.0 ], [ 2832694.0, 7303482.0 ], [ 2832763.0, 7303434.0 ], [ 2832776.0, 7303428.0 ], [ 2832789.0, 7303425.0 ], [ 2832808.0, 7303424.0 ], [ 2832815.0, 7303421.0 ], [ 2832823.0, 7303415.0 ], [ 2832829.0, 7303405.0 ], [ 2832830.0, 7303395.0 ], [ 2832828.0, 7303319.0 ], [ 2832809.0, 7303224.0 ], [ 2832836.0, 7303215.0 ], [ 2832875.0, 7303206.0 ], [ 2832904.0, 7303199.0 ], [ 2832934.0, 7303188.0 ], [ 2832953.0, 7303180.0 ], [ 2832960.0, 7303176.0 ], [ 2832984.0, 7303161.0 ], [ 2832998.0, 7303146.0 ], [ 2833046.0, 7303078.0 ], [ 2833060.0, 7303062.0 ], [ 2833091.0, 7303031.0 ], [ 2833098.0, 7303027.0 ], [ 2833104.0, 7303026.0 ], [ 2833092.0, 7302728.0 ], [ 2833090.0, 7302681.0 ], [ 2833090.0, 7302668.0 ], [ 2833064.0, 7302672.0 ], [ 2833054.0, 7302672.0 ], [ 2833045.0, 7302671.0 ], [ 2833016.0, 7302665.0 ], [ 2833005.0, 7302663.0 ], [ 2832996.0, 7302661.0 ], [ 2832985.0, 7302660.0 ], [ 2832973.0, 7302661.0 ] ] } },
{ "type": "Feature", "properties": { "closeness_centrality": 4.0583454429937169e-05, "source": 905169370, "target": 1737450722, "ordering_closeness_centrality": 16, "length": 4425, "length_cumulative": 102886 }, "geometry": { "type": "MultiLineString", "coordinates": [ [ [ 2799084.0, 7290772.0 ], [ 2799114.0, 7290766.0 ], [ 2799125.0, 7290763.0 ], [ 2799142.0, 7290756.0 ], [ 2799164.0, 7290743.0 ], [ 2799198.0, 7290715.0 ], [ 2799208.0, 7290707.0 ], [ 2799233.0, 7290660.0 ], [ 2799262.0, 7290643.0 ], [ 2799306.0, 7290628.0 ], [ 2799327.0, 7290624.0 ], [ 2799353.0, 7290622.0 ], [ 2799395.0, 7290614.0 ], [ 2799404.0, 7290612.0 ], [ 2799432.0, 7290607.0 ], [ 2799456.0, 7290600.0 ], [ 2799489.0, 7290591.0 ], [ 2799532.0, 7290584.0 ], [ 2799590.0, 7290575.0 ], [ 2799661.0, 7290559.0 ], [ 2799768.0, 7290538.0 ], [ 2799811.0, 7290527.0 ], [ 2799851.0, 7290531.0 ], [ 2799861.0, 7290540.0 ], [ 2799922.0, 7290529.0 ], [ 2799923.0, 7290527.0 ], [ 2799925.0, 7290523.0 ], [ 2799927.0, 7290511.0 ], [ 2799932.0, 7290501.0 ], [ 2799940.0, 7290491.0 ], [ 2799952.0, 7290481.0 ], [ 2799967.0, 7290475.0 ], [ 2800152.0, 7290427.0 ], [ 2800323.0, 7290377.0 ], [ 2800478.0, 7290343.0 ], [ 2800630.0, 7290304.0 ], [ 2800718.0, 7290283.0 ], [ 2800762.0, 7290284.0 ], [ 2800820.0, 7290275.0 ], [ 2800858.0, 7290278.0 ], [ 2800906.0, 7290285.0 ], [ 2800933.0, 7290289.0 ], [ 2800940.0, 7290291.0 ], [ 2800960.0, 7290313.0 ], [ 2801259.0, 7290602.0 ], [ 2801270.0, 7290610.0 ], [ 2801278.0, 7290617.0 ], [ 2801283.0, 7290621.0 ], [ 2801354.0, 7290553.0 ], [ 2801376.0, 7290535.0 ], [ 2801415.0, 7290495.0 ], [ 2801481.0, 7290433.0 ], [ 2801540.0, 7290386.0 ], [ 2801589.0, 7290349.0 ], [ 2801612.0, 7290335.0 ], [ 2801624.0, 7290331.0 ], [ 2801638.0, 7290331.0 ], [ 2801679.0, 7290336.0 ], [ 2801702.0, 7290342.0 ], [ 2801717.0, 7290351.0 ], [ 2801749.0, 7290378.0 ], [ 2801787.0, 7290410.0 ], [ 2801815.0, 7290434.0 ], [ 2801841.0, 7290400.0 ], [ 2801848.0, 7290395.0 ], [ 2801860.0, 7290393.0 ], [ 2801899.0, 7290401.0 ], [ 2802048.0, 7290432.0 ], [ 2802112.0, 7290445.0 ], [ 2802152.0, 7290451.0 ], [ 2802222.0, 7290461.0 ], [ 2802228.0, 7290453.0 ], [ 2802251.0, 7290441.0 ], [ 2802280.0, 7290433.0 ], [ 2802295.0, 7290437.0 ], [ 2802313.0, 7290443.0 ], [ 2802347.0, 7290459.0 ], [ 2802368.0, 7290469.0 ] ], [ [ 2802368.0, 7290469.0 ], [ 2802383.0, 7290476.0 ], [ 2802376.0, 7290499.0 ], [ 2802367.0, 7290538.0 ], [ 2802356.0, 7290534.0 ], [ 2802365.0, 7290485.0 ], [ 2802368.0, 7290469.0 ] ], [ [ 2802679.0, 7290276.0 ], [ 2802642.0, 7290252.0 ], [ 2802632.0, 7290246.0 ], [ 2802619.0, 7290238.0 ], [ 2802590.0, 7290221.0 ], [ 2802527.0, 7290211.0 ], [ 2802464.0, 7290200.0 ], [ 2802439.0, 7290218.0 ], [ 2802438.0, 7290224.0 ], [ 2802417.0, 7290221.0 ], [ 2802413.0, 7290239.0 ], [ 2802411.0, 7290249.0 ], [ 2802404.0, 7290285.0 ], [ 2802368.0, 7290469.0 ] ] ] } }
]
}
