{
"type": "FeatureCollection",
"name": "zagreb-grid",
"crs": { "type": "name", "properties": { "name": "urn:ogc:def:crs:EPSG::3857" } },
"features": [
{ "type": "Feature", "properties": { "osmid": 2022014501.0 }, "geometry": { "type": "Point", "coordinates": [ 1778453.0, 5757104.0 ] } },
{ "type": "Feature", "properties": { "osmid": 2126931023.0 }, "geometry": { "type": "Point", "coordinates": [ 1783579.0, 5750275.0 ] } },
{ "type": "Feature", "properties": { "osmid": 1556893965.0 }, "geometry": { "type": "Point", "coordinates": [ 1771636.0, 5750288.0 ] } },
{ "type": "Feature", "properties": { "osmid": 11243710488.0 }, "geometry": { "type": "Point", "coordinates": [ 1781876.0, 5755396.0 ] } },
{ "type": "Feature", "properties": { "osmid": 2060239802.0 }, "geometry": { "type": "Point", "coordinates": [ 1781858.0, 5741746.0 ] } },
{ "type": "Feature", "properties": { "osmid": 1029680574.0 }, "geometry": { "type": "Point", "coordinates": [ 1780169.0, 5753708.0 ] } },
{ "type": "Feature", "properties": { "osmid": 1182625427.0 }, "geometry": { "type": "Point", "coordinates": [ 1797246.0, 5769062.0 ] } },
{ "type": "Feature", "properties": { "osmid": 1034052703.0 }, "geometry": { "type": "Point", "coordinates": [ 1768208.0, 5740028.0 ] } },
{ "type": "Feature", "properties": { "osmid": 364039537.0 }, "geometry": { "type": "Point", "coordinates": [ 1800661.0, 5751986.0 ] } },
{ "type": "Feature", "properties": { "osmid": 320535023.0 }, "geometry": { "type": "Point", "coordinates": [ 1769930.0, 5750263.0 ] } },
{ "type": "Feature", "properties": { "osmid": 3878938707.0 }, "geometry": { "type": "Point", "coordinates": [ 1788710.0, 5760545.0 ] } },
{ "type": "Feature", "properties": { "osmid": 3629149408.0 }, "geometry": { "type": "Point", "coordinates": [ 1800626.0, 5762243.0 ] } },
{ "type": "Feature", "properties": { "osmid": 594863516.0 }, "geometry": { "type": "Point", "coordinates": [ 1790421.0, 5746851.0 ] } },
{ "type": "Feature", "properties": { "osmid": 8066697255.0 }, "geometry": { "type": "Point", "coordinates": [ 1769926.0, 5733240.0 ] } },
{ "type": "Feature", "properties": { "osmid": 8734365647.0 }, "geometry": { "type": "Point", "coordinates": [ 1766486.0, 5743474.0 ] } },
{ "type": "Feature", "properties": { "osmid": 8501295953.0 }, "geometry": { "type": "Point", "coordinates": [ 1769910.0, 5753723.0 ] } },
{ "type": "Feature", "properties": { "osmid": 6450836365.0 }, "geometry": { "type": "Point", "coordinates": [ 1773308.0, 5748584.0 ] } },
{ "type": "Feature", "properties": { "osmid": 339300298.0 }, "geometry": { "type": "Point", "coordinates": [ 1781889.0, 5752011.0 ] } },
{ "type": "Feature", "properties": { "osmid": 12710123534.0 }, "geometry": { "type": "Point", "coordinates": [ 1764774.0, 5728107.0 ] } },
{ "type": "Feature", "properties": { "osmid": 8684922575.0 }, "geometry": { "type": "Point", "coordinates": [ 1788727.0, 5753697.0 ] } },
{ "type": "Feature", "properties": { "osmid": 11829987531.0 }, "geometry": { "type": "Point", "coordinates": [ 1797260.0, 5753710.0 ] } },
{ "type": "Feature", "properties": { "osmid": 8107756150.0 }, "geometry": { "type": "Point", "coordinates": [ 1778470.0, 5752019.0 ] } },
{ "type": "Feature", "properties": { "osmid": 7847391630.0 }, "geometry": { "type": "Point", "coordinates": [ 1773302.0, 5741744.0 ] } },
{ "type": "Feature", "properties": { "osmid": 6796090845.0 }, "geometry": { "type": "Point", "coordinates": [ 1766541.0, 5750278.0 ] } },
{ "type": "Feature", "properties": { "osmid": 7642958227.0 }, "geometry": { "type": "Point", "coordinates": [ 1783580.0, 5745127.0 ] } },
{ "type": "Feature", "properties": { "osmid": 2314692076.0 }, "geometry": { "type": "Point", "coordinates": [ 1773367.0, 5726369.0 ] } },
{ "type": "Feature", "properties": { "osmid": 8254448410.0 }, "geometry": { "type": "Point", "coordinates": [ 1771640.0, 5753663.0 ] } },
{ "type": "Feature", "properties": { "osmid": 11217718056.0 }, "geometry": { "type": "Point", "coordinates": [ 1768179.0, 5750267.0 ] } },
{ "type": "Feature", "properties": { "osmid": 1619846857.0 }, "geometry": { "type": "Point", "coordinates": [ 1785253.0, 5760550.0 ] } },
{ "type": "Feature", "properties": { "osmid": 8398337322.0 }, "geometry": { "type": "Point", "coordinates": [ 1771668.0, 5748576.0 ] } },
{ "type": "Feature", "properties": { "osmid": 8122217940.0 }, "geometry": { "type": "Point", "coordinates": [ 1790446.0, 5769064.0 ] } },
{ "type": "Feature", "properties": { "osmid": 3407711475.0 }, "geometry": { "type": "Point", "coordinates": [ 1797212.0, 5757075.0 ] } },
{ "type": "Feature", "properties": { "osmid": 320402851.0 }, "geometry": { "type": "Point", "coordinates": [ 1764758.0, 5746860.0 ] } },
{ "type": "Feature", "properties": { "osmid": 1828383624.0 }, "geometry": { "type": "Point", "coordinates": [ 1769955.0, 5741724.0 ] } },
{ "type": "Feature", "properties": { "osmid": 4340290005.0 }, "geometry": { "type": "Point", "coordinates": [ 1781833.0, 5767330.0 ] } },
{ "type": "Feature", "properties": { "osmid": 1018085116.0 }, "geometry": { "type": "Point", "coordinates": [ 1771605.0, 5751953.0 ] } },
{ "type": "Feature", "properties": { "osmid": 9919026110.0 }, "geometry": { "type": "Point", "coordinates": [ 1771612.0, 5741789.0 ] } },
{ "type": "Feature", "properties": { "osmid": 12821322261.0 }, "geometry": { "type": "Point", "coordinates": [ 1788721.0, 5748538.0 ] } },
{ "type": "Feature", "properties": { "osmid": 12879081249.0 }, "geometry": { "type": "Point", "coordinates": [ 1759697.0, 5736586.0 ] } },
{ "type": "Feature", "properties": { "osmid": 1024775956.0 }, "geometry": { "type": "Point", "coordinates": [ 1776739.0, 5751944.0 ] } },
{ "type": "Feature", "properties": { "osmid": 8494822882.0 }, "geometry": { "type": "Point", "coordinates": [ 1771579.0, 5745167.0 ] } },
{ "type": "Feature", "properties": { "osmid": 3839233919.0 }, "geometry": { "type": "Point", "coordinates": [ 1783538.0, 5751959.0 ] } },
{ "type": "Feature", "properties": { "osmid": 576434629.0 }, "geometry": { "type": "Point", "coordinates": [ 1768183.0, 5753657.0 ] } },
{ "type": "Feature", "properties": { "osmid": 1435439317.0 }, "geometry": { "type": "Point", "coordinates": [ 1778477.0, 5753744.0 ] } },
{ "type": "Feature", "properties": { "osmid": 11234678819.0 }, "geometry": { "type": "Point", "coordinates": [ 1788690.0, 5752041.0 ] } },
{ "type": "Feature", "properties": { "osmid": 1556907569.0 }, "geometry": { "type": "Point", "coordinates": [ 1768163.0, 5741757.0 ] } },
{ "type": "Feature", "properties": { "osmid": 4112422571.0 }, "geometry": { "type": "Point", "coordinates": [ 1769878.0, 5757142.0 ] } },
{ "type": "Feature", "properties": { "osmid": 4720034728.0 }, "geometry": { "type": "Point", "coordinates": [ 1771589.0, 5721300.0 ] } },
{ "type": "Feature", "properties": { "osmid": 3945311521.0 }, "geometry": { "type": "Point", "coordinates": [ 1780190.0, 5736673.0 ] } },
{ "type": "Feature", "properties": { "osmid": 597642905.0 }, "geometry": { "type": "Point", "coordinates": [ 1793765.0, 5753702.0 ] } },
{ "type": "Feature", "properties": { "osmid": 8536902316.0 }, "geometry": { "type": "Point", "coordinates": [ 1793847.0, 5762186.0 ] } },
{ "type": "Feature", "properties": { "osmid": 594790598.0 }, "geometry": { "type": "Point", "coordinates": [ 1788737.0, 5746910.0 ] } },
{ "type": "Feature", "properties": { "osmid": 322030481.0 }, "geometry": { "type": "Point", "coordinates": [ 1783608.0, 5746822.0 ] } },
{ "type": "Feature", "properties": { "osmid": 3468193237.0 }, "geometry": { "type": "Point", "coordinates": [ 1785341.0, 5748577.0 ] } },
{ "type": "Feature", "properties": { "osmid": 10129289850.0 }, "geometry": { "type": "Point", "coordinates": [ 1761363.0, 5753751.0 ] } },
{ "type": "Feature", "properties": { "osmid": 8158445276.0 }, "geometry": { "type": "Point", "coordinates": [ 1778511.0, 5746888.0 ] } },
{ "type": "Feature", "properties": { "osmid": 1014436720.0 }, "geometry": { "type": "Point", "coordinates": [ 1761375.0, 5734978.0 ] } },
{ "type": "Feature", "properties": { "osmid": 1015745137.0 }, "geometry": { "type": "Point", "coordinates": [ 1780143.0, 5758875.0 ] } },
{ "type": "Feature", "properties": { "osmid": 13235332744.0 }, "geometry": { "type": "Point", "coordinates": [ 1783558.0, 5743513.0 ] } },
{ "type": "Feature", "properties": { "osmid": 920368256.0 }, "geometry": { "type": "Point", "coordinates": [ 1783551.0, 5753643.0 ] } },
{ "type": "Feature", "properties": { "osmid": 295577390.0 }, "geometry": { "type": "Point", "coordinates": [ 1780110.0, 5765617.0 ] } },
{ "type": "Feature", "properties": { "osmid": 5832096429.0 }, "geometry": { "type": "Point", "coordinates": [ 1781810.0, 5750267.0 ] } },
{ "type": "Feature", "properties": { "osmid": 10108884123.0 }, "geometry": { "type": "Point", "coordinates": [ 1769958.0, 5755355.0 ] } },
{ "type": "Feature", "properties": { "osmid": 1555757321.0 }, "geometry": { "type": "Point", "coordinates": [ 1773319.0, 5745102.0 ] } },
{ "type": "Feature", "properties": { "osmid": 705952101.0 }, "geometry": { "type": "Point", "coordinates": [ 1788636.0, 5769076.0 ] } },
{ "type": "Feature", "properties": { "osmid": 12552298660.0 }, "geometry": { "type": "Point", "coordinates": [ 1776806.0, 5741719.0 ] } },
{ "type": "Feature", "properties": { "osmid": 3138754139.0 }, "geometry": { "type": "Point", "coordinates": [ 1774996.0, 5762279.0 ] } },
{ "type": "Feature", "properties": { "osmid": 4485768818.0 }, "geometry": { "type": "Point", "coordinates": [ 1775031.0, 5726450.0 ] } },
{ "type": "Feature", "properties": { "osmid": 576434107.0 }, "geometry": { "type": "Point", "coordinates": [ 1766565.0, 5752020.0 ] } },
{ "type": "Feature", "properties": { "osmid": 405775582.0 }, "geometry": { "type": "Point", "coordinates": [ 1783560.0, 5748513.0 ] } },
{ "type": "Feature", "properties": { "osmid": 2506863633.0 }, "geometry": { "type": "Point", "coordinates": [ 1775052.0, 5741814.0 ] } },
{ "type": "Feature", "properties": { "osmid": 1182609629.0 }, "geometry": { "type": "Point", "coordinates": [ 1795481.0, 5762282.0 ] } },
{ "type": "Feature", "properties": { "osmid": 12644081690.0 }, "geometry": { "type": "Point", "coordinates": [ 1805830.0, 5758795.0 ] } },
{ "type": "Feature", "properties": { "osmid": 1579572700.0 }, "geometry": { "type": "Point", "coordinates": [ 1783533.0, 5760475.0 ] } },
{ "type": "Feature", "properties": { "osmid": 380494279.0 }, "geometry": { "type": "Point", "coordinates": [ 1786988.0, 5751924.0 ] } },
{ "type": "Feature", "properties": { "osmid": 12648598327.0 }, "geometry": { "type": "Point", "coordinates": [ 1764867.0, 5750288.0 ] } },
{ "type": "Feature", "properties": { "osmid": 1705104457.0 }, "geometry": { "type": "Point", "coordinates": [ 1778521.0, 5755375.0 ] } },
{ "type": "Feature", "properties": { "osmid": 3743975855.0 }, "geometry": { "type": "Point", "coordinates": [ 1771694.0, 5736600.0 ] } },
{ "type": "Feature", "properties": { "osmid": 1501836630.0 }, "geometry": { "type": "Point", "coordinates": [ 1793882.0, 5763905.0 ] } },
{ "type": "Feature", "properties": { "osmid": 11332303055.0 }, "geometry": { "type": "Point", "coordinates": [ 1795524.0, 5752064.0 ] } },
{ "type": "Feature", "properties": { "osmid": 1547936743.0 }, "geometry": { "type": "Point", "coordinates": [ 1790395.0, 5767427.0 ] } },
{ "type": "Feature", "properties": { "osmid": 2287076221.0 }, "geometry": { "type": "Point", "coordinates": [ 1769882.0, 5752055.0 ] } },
{ "type": "Feature", "properties": { "osmid": 8809913140.0 }, "geometry": { "type": "Point", "coordinates": [ 1793833.0, 5746944.0 ] } },
{ "type": "Feature", "properties": { "osmid": 7804789312.0 }, "geometry": { "type": "Point", "coordinates": [ 1780148.0, 5757035.0 ] } },
{ "type": "Feature", "properties": { "osmid": 6502174953.0 }, "geometry": { "type": "Point", "coordinates": [ 1780165.0, 5752069.0 ] } },
{ "type": "Feature", "properties": { "osmid": 6109688425.0 }, "geometry": { "type": "Point", "coordinates": [ 1775005.0, 5760597.0 ] } },
{ "type": "Feature", "properties": { "osmid": 9998269965.0 }, "geometry": { "type": "Point", "coordinates": [ 1793811.0, 5757031.0 ] } },
{ "type": "Feature", "properties": { "osmid": 730700156.0 }, "geometry": { "type": "Point", "coordinates": [ 1776825.0, 5763964.0 ] } },
{ "type": "Feature", "properties": { "osmid": 2177175373.0 }, "geometry": { "type": "Point", "coordinates": [ 1792146.0, 5763866.0 ] } },
{ "type": "Feature", "properties": { "osmid": 12027521015.0 }, "geometry": { "type": "Point", "coordinates": [ 1775121.0, 5751969.0 ] } },
{ "type": "Feature", "properties": { "osmid": 9349728373.0 }, "geometry": { "type": "Point", "coordinates": [ 1790353.0, 5763875.0 ] } },
{ "type": "Feature", "properties": { "osmid": 1505632218.0 }, "geometry": { "type": "Point", "coordinates": [ 1790321.0, 5770762.0 ] } },
{ "type": "Feature", "properties": { "osmid": 11330757113.0 }, "geometry": { "type": "Point", "coordinates": [ 1785338.0, 5758755.0 ] } },
{ "type": "Feature", "properties": { "osmid": 10604972211.0 }, "geometry": { "type": "Point", "coordinates": [ 1763174.0, 5750303.0 ] } },
{ "type": "Feature", "properties": { "osmid": 4115997811.0 }, "geometry": { "type": "Point", "coordinates": [ 1787073.0, 5765633.0 ] } },
{ "type": "Feature", "properties": { "osmid": 3801182284.0 }, "geometry": { "type": "Point", "coordinates": [ 1768198.0, 5743538.0 ] } },
{ "type": "Feature", "properties": { "osmid": 2449936927.0 }, "geometry": { "type": "Point", "coordinates": [ 1795602.0, 5755369.0 ] } },
{ "type": "Feature", "properties": { "osmid": 3666126998.0 }, "geometry": { "type": "Point", "coordinates": [ 1764747.0, 5755470.0 ] } },
{ "type": "Feature", "properties": { "osmid": 1511976671.0 }, "geometry": { "type": "Point", "coordinates": [ 1792150.0, 5768985.0 ] } },
{ "type": "Feature", "properties": { "osmid": 4889041022.0 }, "geometry": { "type": "Point", "coordinates": [ 1773330.0, 5734835.0 ] } },
{ "type": "Feature", "properties": { "osmid": 808597039.0 }, "geometry": { "type": "Point", "coordinates": [ 1788784.0, 5772478.0 ] } },
{ "type": "Feature", "properties": { "osmid": 1117471630.0 }, "geometry": { "type": "Point", "coordinates": [ 1804103.0, 5757187.0 ] } },
{ "type": "Feature", "properties": { "osmid": 8490090945.0 }, "geometry": { "type": "Point", "coordinates": [ 1788660.0, 5758897.0 ] } },
{ "type": "Feature", "properties": { "osmid": 1797409333.0 }, "geometry": { "type": "Point", "coordinates": [ 1788635.0, 5764001.0 ] } },
{ "type": "Feature", "properties": { "osmid": 1038211157.0 }, "geometry": { "type": "Point", "coordinates": [ 1783563.0, 5762146.0 ] } },
{ "type": "Feature", "properties": { "osmid": 11028122786.0 }, "geometry": { "type": "Point", "coordinates": [ 1790385.0, 5752075.0 ] } },
{ "type": "Feature", "properties": { "osmid": 576498293.0 }, "geometry": { "type": "Point", "coordinates": [ 1773247.0, 5751988.0 ] } },
{ "type": "Feature", "properties": { "osmid": 576498625.0 }, "geometry": { "type": "Point", "coordinates": [ 1773355.0, 5753612.0 ] } },
{ "type": "Feature", "properties": { "osmid": 2308643451.0 }, "geometry": { "type": "Point", "coordinates": [ 1786971.0, 5755319.0 ] } },
{ "type": "Feature", "properties": { "osmid": 3991204859.0 }, "geometry": { "type": "Point", "coordinates": [ 1759592.0, 5733236.0 ] } },
{ "type": "Feature", "properties": { "osmid": 11028122754.0 }, "geometry": { "type": "Point", "coordinates": [ 1788664.0, 5750200.0 ] } },
{ "type": "Feature", "properties": { "osmid": 2393166641.0 }, "geometry": { "type": "Point", "coordinates": [ 1770004.0, 5728125.0 ] } },
{ "type": "Feature", "properties": { "osmid": 3662337804.0 }, "geometry": { "type": "Point", "coordinates": [ 1773244.0, 5757130.0 ] } },
{ "type": "Feature", "properties": { "osmid": 9990700884.0 }, "geometry": { "type": "Point", "coordinates": [ 1795557.0, 5768973.0 ] } },
{ "type": "Feature", "properties": { "osmid": 4383750199.0 }, "geometry": { "type": "Point", "coordinates": [ 1792189.0, 5755352.0 ] } },
{ "type": "Feature", "properties": { "osmid": 3217963536.0 }, "geometry": { "type": "Point", "coordinates": [ 1793738.0, 5765599.0 ] } },
{ "type": "Feature", "properties": { "osmid": 4488175752.0 }, "geometry": { "type": "Point", "coordinates": [ 1775026.0, 5727997.0 ] } },
{ "type": "Feature", "properties": { "osmid": 322243546.0 }, "geometry": { "type": "Point", "coordinates": [ 1786898.0, 5746902.0 ] } },
{ "type": "Feature", "properties": { "osmid": 364039230.0 }, "geometry": { "type": "Point", "coordinates": [ 1800631.0, 5750186.0 ] } },
{ "type": "Feature", "properties": { "osmid": 10040447416.0 }, "geometry": { "type": "Point", "coordinates": [ 1798852.0, 5750236.0 ] } },
{ "type": "Feature", "properties": { "osmid": 1515771774.0 }, "geometry": { "type": "Point", "coordinates": [ 1787049.0, 5757030.0 ] } },
{ "type": "Feature", "properties": { "osmid": 576979613.0 }, "geometry": { "type": "Point", "coordinates": [ 1775114.0, 5755335.0 ] } },
{ "type": "Feature", "properties": { "osmid": 4541060331.0 }, "geometry": { "type": "Point", "coordinates": [ 1795592.0, 5765722.0 ] } },
{ "type": "Feature", "properties": { "osmid": 8562005572.0 }, "geometry": { "type": "Point", "coordinates": [ 1785312.0, 5764036.0 ] } },
{ "type": "Feature", "properties": { "osmid": 4960633125.0 }, "geometry": { "type": "Point", "coordinates": [ 1758035.0, 5729721.0 ] } },
{ "type": "Feature", "properties": { "osmid": 4159626628.0 }, "geometry": { "type": "Point", "coordinates": [ 1797320.0, 5763887.0 ] } },
{ "type": "Feature", "properties": { "osmid": 576594250.0 }, "geometry": { "type": "Point", "coordinates": [ 1774940.0, 5753681.0 ] } },
{ "type": "Feature", "properties": { "osmid": 3104676637.0 }, "geometry": { "type": "Point", "coordinates": [ 1771680.0, 5760616.0 ] } },
{ "type": "Feature", "properties": { "osmid": 884355959.0 }, "geometry": { "type": "Point", "coordinates": [ 1775088.0, 5736531.0 ] } },
{ "type": "Feature", "properties": { "osmid": 4159745213.0 }, "geometry": { "type": "Point", "coordinates": [ 1770026.0, 5745185.0 ] } },
{ "type": "Feature", "properties": { "osmid": 9032717049.0 }, "geometry": { "type": "Point", "coordinates": [ 1790404.0, 5748684.0 ] } },
{ "type": "Feature", "properties": { "osmid": 6550193253.0 }, "geometry": { "type": "Point", "coordinates": [ 1786884.0, 5763912.0 ] } },
{ "type": "Feature", "properties": { "osmid": 319517473.0 }, "geometry": { "type": "Point", "coordinates": [ 1781965.0, 5753642.0 ] } },
{ "type": "Feature", "properties": { "osmid": 10111219259.0 }, "geometry": { "type": "Point", "coordinates": [ 1793829.0, 5760414.0 ] } },
{ "type": "Feature", "properties": { "osmid": 7555228182.0 }, "geometry": { "type": "Point", "coordinates": [ 1768127.0, 5746942.0 ] } },
{ "type": "Feature", "properties": { "osmid": 4539131283.0 }, "geometry": { "type": "Point", "coordinates": [ 1769992.0, 5731418.0 ] } },
{ "type": "Feature", "properties": { "osmid": 7248352270.0 }, "geometry": { "type": "Point", "coordinates": [ 1785378.0, 5750217.0 ] } },
{ "type": "Feature", "properties": { "osmid": 7123399294.0 }, "geometry": { "type": "Point", "coordinates": [ 1787002.0, 5758703.0 ] } },
{ "type": "Feature", "properties": { "osmid": 8488040558.0 }, "geometry": { "type": "Point", "coordinates": [ 1783655.0, 5757026.0 ] } },
{ "type": "Feature", "properties": { "osmid": 2009583846.0 }, "geometry": { "type": "Point", "coordinates": [ 1776775.0, 5756998.0 ] } },
{ "type": "Feature", "properties": { "osmid": 7837715793.0 }, "geometry": { "type": "Point", "coordinates": [ 1781753.0, 5740041.0 ] } },
{ "type": "Feature", "properties": { "osmid": 1761261428.0 }, "geometry": { "type": "Point", "coordinates": [ 1773280.0, 5762336.0 ] } },
{ "type": "Feature", "properties": { "osmid": 705952212.0 }, "geometry": { "type": "Point", "coordinates": [ 1786895.0, 5770836.0 ] } },
{ "type": "Feature", "properties": { "osmid": 7928470783.0 }, "geometry": { "type": "Point", "coordinates": [ 1775123.0, 5735006.0 ] } },
{ "type": "Feature", "properties": { "osmid": 340409835.0 }, "geometry": { "type": "Point", "coordinates": [ 1795645.0, 5753708.0 ] } },
{ "type": "Feature", "properties": { "osmid": 7890364977.0 }, "geometry": { "type": "Point", "coordinates": [ 1769835.0, 5740127.0 ] } },
{ "type": "Feature", "properties": { "osmid": 364055893.0 }, "geometry": { "type": "Point", "coordinates": [ 1797231.0, 5752112.0 ] } },
{ "type": "Feature", "properties": { "osmid": 7146280527.0 }, "geometry": { "type": "Point", "coordinates": [ 1792199.0, 5753782.0 ] } },
{ "type": "Feature", "properties": { "osmid": 3836259875.0 }, "geometry": { "type": "Point", "coordinates": [ 1771723.0, 5734996.0 ] } },
{ "type": "Feature", "properties": { "osmid": 5078476073.0 }, "geometry": { "type": "Point", "coordinates": [ 1773357.0, 5721144.0 ] } },
{ "type": "Feature", "properties": { "osmid": 8738697569.0 }, "geometry": { "type": "Point", "coordinates": [ 1790529.0, 5758841.0 ] } },
{ "type": "Feature", "properties": { "osmid": 2463864832.0 }, "geometry": { "type": "Point", "coordinates": [ 1785213.0, 5755297.0 ] } },
{ "type": "Feature", "properties": { "osmid": 8313094312.0 }, "geometry": { "type": "Point", "coordinates": [ 1769915.0, 5734789.0 ] } },
{ "type": "Feature", "properties": { "osmid": 4693714349.0 }, "geometry": { "type": "Point", "coordinates": [ 1775074.0, 5723099.0 ] } },
{ "type": "Feature", "properties": { "osmid": 10723806206.0 }, "geometry": { "type": "Point", "coordinates": [ 1776637.0, 5755474.0 ] } },
{ "type": "Feature", "properties": { "osmid": 8750249476.0 }, "geometry": { "type": "Point", "coordinates": [ 1790527.0, 5760474.0 ] } },
{ "type": "Feature", "properties": { "osmid": 485993479.0 }, "geometry": { "type": "Point", "coordinates": [ 1797107.0, 5767397.0 ] } },
{ "type": "Feature", "properties": { "osmid": 3761669746.0 }, "geometry": { "type": "Point", "coordinates": [ 1778399.0, 5734799.0 ] } },
{ "type": "Feature", "properties": { "osmid": 4172212497.0 }, "geometry": { "type": "Point", "coordinates": [ 1783446.0, 5765612.0 ] } },
{ "type": "Feature", "properties": { "osmid": 9998054441.0 }, "geometry": { "type": "Point", "coordinates": [ 1769973.0, 5736503.0 ] } },
{ "type": "Feature", "properties": { "osmid": 12810456546.0 }, "geometry": { "type": "Point", "coordinates": [ 1768303.0, 5727991.0 ] } },
{ "type": "Feature", "properties": { "osmid": 4338184375.0 }, "geometry": { "type": "Point", "coordinates": [ 1792192.0, 5767464.0 ] } },
{ "type": "Feature", "properties": { "osmid": 6547105808.0 }, "geometry": { "type": "Point", "coordinates": [ 1788742.0, 5762361.0 ] } },
{ "type": "Feature", "properties": { "osmid": 10095589945.0 }, "geometry": { "type": "Point", "coordinates": [ 1780272.0, 5767436.0 ] } },
{ "type": "Feature", "properties": { "osmid": 12830124045.0 }, "geometry": { "type": "Point", "coordinates": [ 1798801.0, 5751982.0 ] } },
{ "type": "Feature", "properties": { "osmid": 9378374192.0 }, "geometry": { "type": "Point", "coordinates": [ 1780029.0, 5738375.0 ] } },
{ "type": "Feature", "properties": { "osmid": 428971513.0 }, "geometry": { "type": "Point", "coordinates": [ 1783537.0, 5755267.0 ] } },
{ "type": "Feature", "properties": { "osmid": 6544552642.0 }, "geometry": { "type": "Point", "coordinates": [ 1788557.0, 5765618.0 ] } },
{ "type": "Feature", "properties": { "osmid": 4931933123.0 }, "geometry": { "type": "Point", "coordinates": [ 1764658.0, 5745139.0 ] } },
{ "type": "Feature", "properties": { "osmid": 8846512485.0 }, "geometry": { "type": "Point", "coordinates": [ 1781850.0, 5758961.0 ] } },
{ "type": "Feature", "properties": { "osmid": 2083657330.0 }, "geometry": { "type": "Point", "coordinates": [ 1757835.0, 5733165.0 ] } },
{ "type": "Feature", "properties": { "osmid": 1022693045.0 }, "geometry": { "type": "Point", "coordinates": [ 1774903.0, 5757157.0 ] } },
{ "type": "Feature", "properties": { "osmid": 2448216921.0 }, "geometry": { "type": "Point", "coordinates": [ 1798990.0, 5755267.0 ] } },
{ "type": "Feature", "properties": { "osmid": 7682447491.0 }, "geometry": { "type": "Point", "coordinates": [ 1771738.0, 5758915.0 ] } },
{ "type": "Feature", "properties": { "osmid": 968512062.0 }, "geometry": { "type": "Point", "coordinates": [ 1780108.0, 5755267.0 ] } },
{ "type": "Feature", "properties": { "osmid": 1623646473.0 }, "geometry": { "type": "Point", "coordinates": [ 1786876.0, 5762139.0 ] } },
{ "type": "Feature", "properties": { "osmid": 7182127163.0 }, "geometry": { "type": "Point", "coordinates": [ 1764785.0, 5752138.0 ] } },
{ "type": "Feature", "properties": { "osmid": 5037096652.0 }, "geometry": { "type": "Point", "coordinates": [ 1771740.0, 5726482.0 ] } },
{ "type": "Feature", "properties": { "osmid": 474787540.0 }, "geometry": { "type": "Point", "coordinates": [ 1788549.0, 5745141.0 ] } },
{ "type": "Feature", "properties": { "osmid": 1445665414.0 }, "geometry": { "type": "Point", "coordinates": [ 1761513.0, 5728176.0 ] } },
{ "type": "Feature", "properties": { "osmid": 8152213997.0 }, "geometry": { "type": "Point", "coordinates": [ 1757910.0, 5736487.0 ] } },
{ "type": "Feature", "properties": { "osmid": 4167694527.0 }, "geometry": { "type": "Point", "coordinates": [ 1773486.0, 5738304.0 ] } },
{ "type": "Feature", "properties": { "osmid": 7041557924.0 }, "geometry": { "type": "Point", "coordinates": [ 1798934.0, 5760680.0 ] } },
{ "type": "Feature", "properties": { "osmid": 7257444468.0 }, "geometry": { "type": "Point", "coordinates": [ 1768361.0, 5745211.0 ] } },
{ "type": "Feature", "properties": { "osmid": 8071352096.0 }, "geometry": { "type": "Point", "coordinates": [ 1804208.0, 5755465.0 ] } },
{ "type": "Feature", "properties": { "osmid": 4173107590.0 }, "geometry": { "type": "Point", "coordinates": [ 1785237.0, 5768907.0 ] } },
{ "type": "Feature", "properties": { "osmid": 583528916.0 }, "geometry": { "type": "Point", "coordinates": [ 1785355.0, 5745019.0 ] } },
{ "type": "Feature", "properties": { "osmid": 321898830.0 }, "geometry": { "type": "Point", "coordinates": [ 1768372.0, 5755374.0 ] } },
{ "type": "Feature", "properties": { "osmid": 1015840870.0 }, "geometry": { "type": "Point", "coordinates": [ 1768299.0, 5738473.0 ] } },
{ "type": "Feature", "properties": { "osmid": 12830116439.0 }, "geometry": { "type": "Point", "coordinates": [ 1776911.0, 5753682.0 ] } },
{ "type": "Feature", "properties": { "osmid": 3927019558.0 }, "geometry": { "type": "Point", "coordinates": [ 1769891.0, 5722810.0 ] } },
{ "type": "Feature", "properties": { "osmid": 1568082727.0 }, "geometry": { "type": "Point", "coordinates": [ 1792036.0, 5772620.0 ] } },
{ "type": "Feature", "properties": { "osmid": 1555738816.0 }, "geometry": { "type": "Point", "coordinates": [ 1774910.0, 5745262.0 ] } },
{ "type": "Feature", "properties": { "osmid": 10712102708.0 }, "geometry": { "type": "Point", "coordinates": [ 1804140.0, 5758963.0 ] } },
{ "type": "Feature", "properties": { "osmid": 9773497159.0 }, "geometry": { "type": "Point", "coordinates": [ 1791950.0, 5748538.0 ] } },
{ "type": "Feature", "properties": { "osmid": 1521740692.0 }, "geometry": { "type": "Point", "coordinates": [ 1788847.0, 5767278.0 ] } },
{ "type": "Feature", "properties": { "osmid": 1114097536.0 }, "geometry": { "type": "Point", "coordinates": [ 1803991.0, 5753850.0 ] } },
{ "type": "Feature", "properties": { "osmid": 10006992994.0 }, "geometry": { "type": "Point", "coordinates": [ 1776904.0, 5739978.0 ] } },
{ "type": "Feature", "properties": { "osmid": 4799367383.0 }, "geometry": { "type": "Point", "coordinates": [ 1790380.0, 5772641.0 ] } },
{ "type": "Feature", "properties": { "osmid": 6699989864.0 }, "geometry": { "type": "Point", "coordinates": [ 1785130.0, 5767282.0 ] } },
{ "type": "Feature", "properties": { "osmid": 1189556854.0 }, "geometry": { "type": "Point", "coordinates": [ 1773324.0, 5760694.0 ] } },
{ "type": "Feature", "properties": { "osmid": 10022840195.0 }, "geometry": { "type": "Point", "coordinates": [ 1793795.0, 5758987.0 ] } },
{ "type": "Feature", "properties": { "osmid": 10753035728.0 }, "geometry": { "type": "Point", "coordinates": [ 1802467.0, 5750411.0 ] } },
{ "type": "Feature", "properties": { "osmid": 1126629023.0 }, "geometry": { "type": "Point", "coordinates": [ 1776696.0, 5758981.0 ] } },
{ "type": "Feature", "properties": { "osmid": 3530843086.0 }, "geometry": { "type": "Point", "coordinates": [ 1775020.0, 5731678.0 ] } },
{ "type": "Feature", "properties": { "osmid": 1041129634.0 }, "geometry": { "type": "Point", "coordinates": [ 1766442.0, 5729639.0 ] } },
{ "type": "Feature", "properties": { "osmid": 8069319523.0 }, "geometry": { "type": "Point", "coordinates": [ 1805940.0, 5755380.0 ] } },
{ "type": "Feature", "properties": { "osmid": 4799368018.0 }, "geometry": { "type": "Point", "coordinates": [ 1793950.0, 5770884.0 ] } },
{ "type": "Feature", "properties": { "osmid": 6471784918.0 }, "geometry": { "type": "Point", "coordinates": [ 1781753.0, 5738200.0 ] } },
{ "type": "Feature", "properties": { "osmid": 5821376752.0 }, "geometry": { "type": "Point", "coordinates": [ 1780008.0, 5760617.0 ] } },
{ "type": "Feature", "properties": { "osmid": 6080133890.0 }, "geometry": { "type": "Point", "coordinates": [ 1764741.0, 5743627.0 ] } },
{ "type": "Feature", "properties": { "osmid": 4720059262.0 }, "geometry": { "type": "Point", "coordinates": [ 1763124.0, 5731687.0 ] } },
{ "type": "Feature", "properties": { "osmid": 576660272.0 }, "geometry": { "type": "Point", "coordinates": [ 1768395.0, 5752020.0 ] } },
{ "type": "Feature", "properties": { "osmid": 8343017594.0 }, "geometry": { "type": "Point", "coordinates": [ 1783425.0, 5741643.0 ] } },
{ "type": "Feature", "properties": { "osmid": 10069050699.0 }, "geometry": { "type": "Point", "coordinates": [ 1768034.0, 5726437.0 ] } },
{ "type": "Feature", "properties": { "osmid": 7780646373.0 }, "geometry": { "type": "Point", "coordinates": [ 1764747.0, 5729979.0 ] } },
{ "type": "Feature", "properties": { "osmid": 762815205.0 }, "geometry": { "type": "Point", "coordinates": [ 1778639.0, 5763900.0 ] } },
{ "type": "Feature", "properties": { "osmid": 7682446999.0 }, "geometry": { "type": "Point", "coordinates": [ 1762904.0, 5753693.0 ] } },
{ "type": "Feature", "properties": { "osmid": 8074270517.0 }, "geometry": { "type": "Point", "coordinates": [ 1800700.0, 5753879.0 ] } },
{ "type": "Feature", "properties": { "osmid": 2298055192.0 }, "geometry": { "type": "Point", "coordinates": [ 1762975.0, 5745014.0 ] } },
{ "type": "Feature", "properties": { "osmid": 11059415066.0 }, "geometry": { "type": "Point", "coordinates": [ 1795590.0, 5750467.0 ] } },
{ "type": "Feature", "properties": { "osmid": 7017426120.0 }, "geometry": { "type": "Point", "coordinates": [ 1797415.0, 5770699.0 ] } },
{ "type": "Feature", "properties": { "osmid": 10741571920.0 }, "geometry": { "type": "Point", "coordinates": [ 1791933.0, 5758897.0 ] } },
{ "type": "Feature", "properties": { "osmid": 10022840165.0 }, "geometry": { "type": "Point", "coordinates": [ 1795490.0, 5756920.0 ] } },
{ "type": "Feature", "properties": { "osmid": 2700107388.0 }, "geometry": { "type": "Point", "coordinates": [ 1785215.0, 5756929.0 ] } },
{ "type": "Feature", "properties": { "osmid": 355738278.0 }, "geometry": { "type": "Point", "coordinates": [ 1800480.0, 5748474.0 ] } },
{ "type": "Feature", "properties": { "osmid": 7717895315.0 }, "geometry": { "type": "Point", "coordinates": [ 1766581.0, 5745344.0 ] } },
{ "type": "Feature", "properties": { "osmid": 8152291642.0 }, "geometry": { "type": "Point", "coordinates": [ 1771537.0, 5743631.0 ] } },
{ "type": "Feature", "properties": { "osmid": 1442654979.0 }, "geometry": { "type": "Point", "coordinates": [ 1776942.0, 5738289.0 ] } },
{ "type": "Feature", "properties": { "osmid": 7026907789.0 }, "geometry": { "type": "Point", "coordinates": [ 1781809.0, 5756921.0 ] } },
{ "type": "Feature", "properties": { "osmid": 7396220230.0 }, "geometry": { "type": "Point", "coordinates": [ 1769836.0, 5758637.0 ] } },
{ "type": "Feature", "properties": { "osmid": 2100214379.0 }, "geometry": { "type": "Point", "coordinates": [ 1773251.0, 5755221.0 ] } },
{ "type": "Feature", "properties": { "osmid": 2449454651.0 }, "geometry": { "type": "Point", "coordinates": [ 1797126.0, 5758646.0 ] } },
{ "type": "Feature", "properties": { "osmid": 12644083837.0 }, "geometry": { "type": "Point", "coordinates": [ 1785234.0, 5741946.0 ] } },
{ "type": "Feature", "properties": { "osmid": 8251276696.0 }, "geometry": { "type": "Point", "coordinates": [ 1773235.0, 5736806.0 ] } },
{ "type": "Feature", "properties": { "osmid": 10608776317.0 }, "geometry": { "type": "Point", "coordinates": [ 1785223.0, 5743260.0 ] } },
{ "type": "Feature", "properties": { "osmid": 2177175452.0 }, "geometry": { "type": "Point", "coordinates": [ 1790586.0, 5765741.0 ] } },
{ "type": "Feature", "properties": { "osmid": 5651956267.0 }, "geometry": { "type": "Point", "coordinates": [ 1768068.0, 5748431.0 ] } },
{ "type": "Feature", "properties": { "osmid": 11815592217.0 }, "geometry": { "type": "Point", "coordinates": [ 1766435.0, 5748770.0 ] } },
{ "type": "Feature", "properties": { "osmid": 319629571.0 }, "geometry": { "type": "Point", "coordinates": [ 1771505.0, 5733381.0 ] } },
{ "type": "Feature", "properties": { "osmid": 10037475621.0 }, "geometry": { "type": "Point", "coordinates": [ 1792299.0, 5762324.0 ] } },
{ "type": "Feature", "properties": { "osmid": 2107219728.0 }, "geometry": { "type": "Point", "coordinates": [ 1795735.0, 5748547.0 ] } },
{ "type": "Feature", "properties": { "osmid": 6328856404.0 }, "geometry": { "type": "Point", "coordinates": [ 1766602.0, 5727903.0 ] } },
{ "type": "Feature", "properties": { "osmid": 7682507418.0 }, "geometry": { "type": "Point", "coordinates": [ 1768267.0, 5756906.0 ] } },
{ "type": "Feature", "properties": { "osmid": 2631207853.0 }, "geometry": { "type": "Point", "coordinates": [ 1773379.0, 5759026.0 ] } },
{ "type": "Feature", "properties": { "osmid": 7716756484.0 }, "geometry": { "type": "Point", "coordinates": [ 1802542.0, 5753798.0 ] } },
{ "type": "Feature", "properties": { "osmid": 3593198537.0 }, "geometry": { "type": "Point", "coordinates": [ 1771418.0, 5762289.0 ] } },
{ "type": "Feature", "properties": { "osmid": 8074270521.0 }, "geometry": { "type": "Point", "coordinates": [ 1798985.0, 5756899.0 ] } },
{ "type": "Feature", "properties": { "osmid": 420578032.0 }, "geometry": { "type": "Point", "coordinates": [ 1771444.0, 5757234.0 ] } },
{ "type": "Feature", "properties": { "osmid": 7896995444.0 }, "geometry": { "type": "Point", "coordinates": [ 1797034.0, 5748674.0 ] } },
{ "type": "Feature", "properties": { "osmid": 7041557950.0 }, "geometry": { "type": "Point", "coordinates": [ 1797060.0, 5762091.0 ] } },
{ "type": "Feature", "properties": { "osmid": 2098456753.0 }, "geometry": { "type": "Point", "coordinates": [ 1798758.0, 5765516.0 ] } },
{ "type": "Feature", "properties": { "osmid": 7257330816.0 }, "geometry": { "type": "Point", "coordinates": [ 1769771.0, 5743627.0 ] } },
{ "type": "Feature", "properties": { "osmid": 3896905943.0 }, "geometry": { "type": "Point", "coordinates": [ 1782080.0, 5736540.0 ] } },
{ "type": "Feature", "properties": { "osmid": 4720059284.0 }, "geometry": { "type": "Point", "coordinates": [ 1764992.0, 5731632.0 ] } },
{ "type": "Feature", "properties": { "osmid": 7856298277.0 }, "geometry": { "type": "Point", "coordinates": [ 1787139.0, 5741926.0 ] } },
{ "type": "Feature", "properties": { "osmid": 6326349750.0 }, "geometry": { "type": "Point", "coordinates": [ 1766698.0, 5726517.0 ] } },
{ "type": "Feature", "properties": { "osmid": 3658280881.0 }, "geometry": { "type": "Point", "coordinates": [ 1762947.0, 5752172.0 ] } },
{ "type": "Feature", "properties": { "osmid": 896163659.0 }, "geometry": { "type": "Point", "coordinates": [ 1774839.0, 5724560.0 ] } },
{ "type": "Feature", "properties": { "osmid": 1621240176.0 }, "geometry": { "type": "Point", "coordinates": [ 1787174.0, 5760674.0 ] } },
{ "type": "Feature", "properties": { "osmid": 4240870742.0 }, "geometry": { "type": "Point", "coordinates": [ 1800516.0, 5747068.0 ] } },
{ "type": "Feature", "properties": { "osmid": 6564651998.0 }, "geometry": { "type": "Point", "coordinates": [ 1785092.0, 5762377.0 ] } },
{ "type": "Feature", "properties": { "osmid": 4959132306.0 }, "geometry": { "type": "Point", "coordinates": [ 1769755.0, 5738160.0 ] } },
{ "type": "Feature", "properties": { "osmid": 528068420.0 }, "geometry": { "type": "Point", "coordinates": [ 1788618.0, 5757339.0 ] } },
{ "type": "Feature", "properties": { "osmid": 4172241115.0 }, "geometry": { "type": "Point", "coordinates": [ 1786752.0, 5767305.0 ] } },
{ "type": "Feature", "properties": { "osmid": 4799368242.0 }, "geometry": { "type": "Point", "coordinates": [ 1793802.0, 5772231.0 ] } },
{ "type": "Feature", "properties": { "osmid": 3902655588.0 }, "geometry": { "type": "Point", "coordinates": [ 1776516.0, 5736711.0 ] } },
{ "type": "Feature", "properties": { "osmid": 9033895567.0 }, "geometry": { "type": "Point", "coordinates": [ 1778548.0, 5738104.0 ] } },
{ "type": "Feature", "properties": { "osmid": 9274686440.0 }, "geometry": { "type": "Point", "coordinates": [ 1778573.0, 5740261.0 ] } },
{ "type": "Feature", "properties": { "osmid": 1504375849.0 }, "geometry": { "type": "Point", "coordinates": [ 1757721.0, 5731542.0 ] } },
{ "type": "Feature", "properties": { "osmid": 1113948137.0 }, "geometry": { "type": "Point", "coordinates": [ 1805601.0, 5756920.0 ] } },
{ "type": "Feature", "properties": { "osmid": 1033937669.0 }, "geometry": { "type": "Point", "coordinates": [ 1768104.0, 5736859.0 ] } },
{ "type": "Feature", "properties": { "osmid": 10226291722.0 }, "geometry": { "type": "Point", "coordinates": [ 1776610.0, 5729583.0 ] } },
{ "type": "Feature", "properties": { "osmid": 8548589203.0 }, "geometry": { "type": "Point", "coordinates": [ 1774963.0, 5759065.0 ] } },
{ "type": "Feature", "properties": { "osmid": 7892948336.0 }, "geometry": { "type": "Point", "coordinates": [ 1800516.0, 5757335.0 ] } },
{ "type": "Feature", "properties": { "osmid": 1033192758.0 }, "geometry": { "type": "Point", "coordinates": [ 1800386.0, 5767343.0 ] } },
{ "type": "Feature", "properties": { "osmid": 319628992.0 }, "geometry": { "type": "Point", "coordinates": [ 1778449.0, 5736894.0 ] } },
{ "type": "Feature", "properties": { "osmid": 7931370490.0 }, "geometry": { "type": "Point", "coordinates": [ 1783346.0, 5758685.0 ] } },
{ "type": "Feature", "properties": { "osmid": 7146764556.0 }, "geometry": { "type": "Point", "coordinates": [ 1790158.0, 5756995.0 ] } },
{ "type": "Feature", "properties": { "osmid": 1331351833.0 }, "geometry": { "type": "Point", "coordinates": [ 1768153.0, 5734651.0 ] } },
{ "type": "Feature", "properties": { "osmid": 4383750096.0 }, "geometry": { "type": "Point", "coordinates": [ 1792148.0, 5757386.0 ] } },
{ "type": "Feature", "properties": { "osmid": 2429558218.0 }, "geometry": { "type": "Point", "coordinates": [ 1796975.0, 5760422.0 ] } },
{ "type": "Feature", "properties": { "osmid": 8666663806.0 }, "geometry": { "type": "Point", "coordinates": [ 1770142.0, 5760698.0 ] } },
{ "type": "Feature", "properties": { "osmid": 6611729495.0 }, "geometry": { "type": "Point", "coordinates": [ 1771813.0, 5755191.0 ] } },
{ "type": "Feature", "properties": { "osmid": 5948002205.0 }, "geometry": { "type": "Point", "coordinates": [ 1797465.0, 5755567.0 ] } },
{ "type": "Feature", "properties": { "osmid": 12000285902.0 }, "geometry": { "type": "Point", "coordinates": [ 1799091.0, 5770526.0 ] } },
{ "type": "Feature", "properties": { "osmid": 8113102327.0 }, "geometry": { "type": "Point", "coordinates": [ 1773299.0, 5729514.0 ] } },
{ "type": "Feature", "properties": { "osmid": 1033218924.0 }, "geometry": { "type": "Point", "coordinates": [ 1798665.0, 5767454.0 ] } },
{ "type": "Feature", "properties": { "osmid": 3247703228.0 }, "geometry": { "type": "Point", "coordinates": [ 1786878.0, 5743186.0 ] } },
{ "type": "Feature", "properties": { "osmid": 567666421.0 }, "geometry": { "type": "Point", "coordinates": [ 1771359.0, 5738218.0 ] } },
{ "type": "Feature", "properties": { "osmid": 13570009904.0 }, "geometry": { "type": "Point", "coordinates": [ 1802281.0, 5752277.0 ] } },
{ "type": "Feature", "properties": { "osmid": 4097603431.0 }, "geometry": { "type": "Point", "coordinates": [ 1800368.0, 5769161.0 ] } },
{ "type": "Feature", "properties": { "osmid": 6549008954.0 }, "geometry": { "type": "Point", "coordinates": [ 1759960.0, 5735021.0 ] } },
{ "type": "Feature", "properties": { "osmid": 2099781678.0 }, "geometry": { "type": "Point", "coordinates": [ 1796934.0, 5765676.0 ] } },
{ "type": "Feature", "properties": { "osmid": 5536362480.0 }, "geometry": { "type": "Point", "coordinates": [ 1783855.0, 5769180.0 ] } },
{ "type": "Feature", "properties": { "osmid": 7340361595.0 }, "geometry": { "type": "Point", "coordinates": [ 1761653.0, 5733361.0 ] } },
{ "type": "Feature", "properties": { "osmid": 7717895327.0 }, "geometry": { "type": "Point", "coordinates": [ 1763384.0, 5748669.0 ] } },
{ "type": "Feature", "properties": { "osmid": 3996416214.0 }, "geometry": { "type": "Point", "coordinates": [ 1799237.0, 5769144.0 ] } },
{ "type": "Feature", "properties": { "osmid": 10709315289.0 }, "geometry": { "type": "Point", "coordinates": [ 1803929.0, 5760246.0 ] } },
{ "type": "Feature", "properties": { "osmid": 4338184487.0 }, "geometry": { "type": "Point", "coordinates": [ 1802656.0, 5760447.0 ] } },
{ "type": "Feature", "properties": { "osmid": 1212197386.0 }, "geometry": { "type": "Point", "coordinates": [ 1802193.0, 5762500.0 ] } },
{ "type": "Feature", "properties": { "osmid": 4178741706.0 }, "geometry": { "type": "Point", "coordinates": [ 1788390.0, 5743365.0 ] } },
{ "type": "Feature", "properties": { "osmid": 2321321481.0 }, "geometry": { "type": "Point", "coordinates": [ 1782051.0, 5762497.0 ] } },
{ "type": "Feature", "properties": { "osmid": 3530843318.0 }, "geometry": { "type": "Point", "coordinates": [ 1773035.0, 5733335.0 ] } },
{ "type": "Feature", "properties": { "osmid": 9888568617.0 }, "geometry": { "type": "Point", "coordinates": [ 1763416.0, 5729804.0 ] } },
{ "type": "Feature", "properties": { "osmid": 4693596136.0 }, "geometry": { "type": "Point", "coordinates": [ 1773198.0, 5740348.0 ] } },
{ "type": "Feature", "properties": { "osmid": 2025221106.0 }, "geometry": { "type": "Point", "coordinates": [ 1766726.0, 5736372.0 ] } },
{ "type": "Feature", "properties": { "osmid": 7025278697.0 }, "geometry": { "type": "Point", "coordinates": [ 1774763.0, 5738524.0 ] } },
{ "type": "Feature", "properties": { "osmid": 6374772877.0 }, "geometry": { "type": "Point", "coordinates": [ 1766678.0, 5747165.0 ] } },
{ "type": "Feature", "properties": { "osmid": 10069050866.0 }, "geometry": { "type": "Point", "coordinates": [ 1771945.0, 5728233.0 ] } },
{ "type": "Feature", "properties": { "osmid": 12547811742.0 }, "geometry": { "type": "Point", "coordinates": [ 1793934.0, 5768733.0 ] } },
{ "type": "Feature", "properties": { "osmid": 4759479155.0 }, "geometry": { "type": "Point", "coordinates": [ 1790658.0, 5761994.0 ] } },
{ "type": "Feature", "properties": { "osmid": 945059041.0 }, "geometry": { "type": "Point", "coordinates": [ 1786688.0, 5769238.0 ] } },
{ "type": "Feature", "properties": { "osmid": 10031654409.0 }, "geometry": { "type": "Point", "coordinates": [ 1795878.0, 5763891.0 ] } },
{ "type": "Feature", "properties": { "osmid": 3750904281.0 }, "geometry": { "type": "Point", "coordinates": [ 1782225.0, 5763919.0 ] } },
{ "type": "Feature", "properties": { "osmid": 469505549.0 }, "geometry": { "type": "Point", "coordinates": [ 1775111.0, 5730149.0 ] } },
{ "type": "Feature", "properties": { "osmid": 5948002356.0 }, "geometry": { "type": "Point", "coordinates": [ 1799214.0, 5753929.0 ] } },
{ "type": "Feature", "properties": { "osmid": 1961584321.0 }, "geometry": { "type": "Point", "coordinates": [ 1795765.0, 5767621.0 ] } },
{ "type": "Feature", "properties": { "osmid": 8750349819.0 }, "geometry": { "type": "Point", "coordinates": [ 1792218.0, 5760870.0 ] } },
{ "type": "Feature", "properties": { "osmid": 10031813176.0 }, "geometry": { "type": "Point", "coordinates": [ 1790525.0, 5755065.0 ] } },
{ "type": "Feature", "properties": { "osmid": 702785252.0 }, "geometry": { "type": "Point", "coordinates": [ 1773005.0, 5722823.0 ] } },
{ "type": "Feature", "properties": { "osmid": 9633407908.0 }, "geometry": { "type": "Point", "coordinates": [ 1791748.0, 5746930.0 ] } },
{ "type": "Feature", "properties": { "osmid": 1504364992.0 }, "geometry": { "type": "Point", "coordinates": [ 1758146.0, 5734592.0 ] } },
{ "type": "Feature", "properties": { "osmid": 1504217251.0 }, "geometry": { "type": "Point", "coordinates": [ 1791747.0, 5765724.0 ] } },
{ "type": "Feature", "properties": { "osmid": 8058649680.0 }, "geometry": { "type": "Point", "coordinates": [ 1771570.0, 5722602.0 ] } },
{ "type": "Feature", "properties": { "osmid": 8830008000.0 }, "geometry": { "type": "Point", "coordinates": [ 1798855.0, 5764305.0 ] } },
{ "type": "Feature", "properties": { "osmid": 4720059236.0 }, "geometry": { "type": "Point", "coordinates": [ 1767834.0, 5733204.0 ] } },
{ "type": "Feature", "properties": { "osmid": 5323724199.0 }, "geometry": { "type": "Point", "coordinates": [ 1798582.0, 5772346.0 ] } },
{ "type": "Feature", "properties": { "osmid": 3811371921.0 }, "geometry": { "type": "Point", "coordinates": [ 1766811.0, 5756880.0 ] } },
{ "type": "Feature", "properties": { "osmid": 3172728312.0 }, "geometry": { "type": "Point", "coordinates": [ 1782106.0, 5765338.0 ] } },
{ "type": "Feature", "properties": { "osmid": 8808812364.0 }, "geometry": { "type": "Point", "coordinates": [ 1775428.0, 5739991.0 ] } },
{ "type": "Feature", "properties": { "osmid": 3003452096.0 }, "geometry": { "type": "Point", "coordinates": [ 1771880.0, 5731826.0 ] } },
{ "type": "Feature", "properties": { "osmid": 13073563732.0 }, "geometry": { "type": "Point", "coordinates": [ 1796821.0, 5774214.0 ] } },
{ "type": "Feature", "properties": { "osmid": 1117471440.0 }, "geometry": { "type": "Point", "coordinates": [ 1800973.0, 5755149.0 ] } },
{ "type": "Feature", "properties": { "osmid": 6475130299.0 }, "geometry": { "type": "Point", "coordinates": [ 1798638.0, 5748874.0 ] } },
{ "type": "Feature", "properties": { "osmid": 1490563515.0 }, "geometry": { "type": "Point", "coordinates": [ 1763315.0, 5727727.0 ] } },
{ "type": "Feature", "properties": { "osmid": 7716795202.0 }, "geometry": { "type": "Point", "coordinates": [ 1802475.0, 5754987.0 ] } },
{ "type": "Feature", "properties": { "osmid": 13071921914.0 }, "geometry": { "type": "Point", "coordinates": [ 1797445.0, 5772855.0 ] } },
{ "type": "Feature", "properties": { "osmid": 4693608160.0 }, "geometry": { "type": "Point", "coordinates": [ 1777001.0, 5735276.0 ] } },
{ "type": "Feature", "properties": { "osmid": 1398464940.0 }, "geometry": { "type": "Point", "coordinates": [ 1768656.0, 5731492.0 ] } },
{ "type": "Feature", "properties": { "osmid": 5404995699.0 }, "geometry": { "type": "Point", "coordinates": [ 1777067.0, 5765338.0 ] } },
{ "type": "Feature", "properties": { "osmid": 2956138282.0 }, "geometry": { "type": "Point", "coordinates": [ 1795920.0, 5773974.0 ] } },
{ "type": "Feature", "properties": { "osmid": 10145004944.0 }, "geometry": { "type": "Point", "coordinates": [ 1795076.0, 5746855.0 ] } },
{ "type": "Feature", "properties": { "osmid": 4172211654.0 }, "geometry": { "type": "Point", "coordinates": [ 1783412.0, 5766934.0 ] } },
{ "type": "Feature", "properties": { "osmid": 1445665453.0 }, "geometry": { "type": "Point", "coordinates": [ 1761637.0, 5730183.0 ] } },
{ "type": "Feature", "properties": { "osmid": 4338184569.0 }, "geometry": { "type": "Point", "coordinates": [ 1802261.0, 5759270.0 ] } },
{ "type": "Feature", "properties": { "osmid": 13211939267.0 }, "geometry": { "type": "Point", "coordinates": [ 1783146.0, 5738502.0 ] } },
{ "type": "Feature", "properties": { "osmid": 9268106350.0 }, "geometry": { "type": "Point", "coordinates": [ 1788838.0, 5755845.0 ] } },
{ "type": "Feature", "properties": { "osmid": 7918082775.0 }, "geometry": { "type": "Point", "coordinates": [ 1790583.0, 5750710.0 ] } },
{ "type": "Feature", "properties": { "osmid": 10771163674.0 }, "geometry": { "type": "Point", "coordinates": [ 1763288.0, 5726807.0 ] } },
{ "type": "Feature", "properties": { "osmid": 12760662946.0 }, "geometry": { "type": "Point", "coordinates": [ 1803662.0, 5750029.0 ] } },
{ "type": "Feature", "properties": { "osmid": 1157114042.0 }, "geometry": { "type": "Point", "coordinates": [ 1765261.0, 5757003.0 ] } },
{ "type": "Feature", "properties": { "osmid": 1033219009.0 }, "geometry": { "type": "Point", "coordinates": [ 1795912.0, 5770484.0 ] } },
{ "type": "Feature", "properties": { "osmid": 4720061295.0 }, "geometry": { "type": "Point", "coordinates": [ 1766934.0, 5733437.0 ] } },
{ "type": "Feature", "properties": { "osmid": 4577149844.0 }, "geometry": { "type": "Point", "coordinates": [ 1803580.0, 5762290.0 ] } },
{ "type": "Feature", "properties": { "osmid": 13314758128.0 }, "geometry": { "type": "Point", "coordinates": [ 1783148.0, 5740269.0 ] } },
{ "type": "Feature", "properties": { "osmid": 464132030.0 }, "geometry": { "type": "Point", "coordinates": [ 1767731.0, 5729863.0 ] } },
{ "type": "Feature", "properties": { "osmid": 4163528374.0 }, "geometry": { "type": "Point", "coordinates": [ 1765225.0, 5732967.0 ] } },
{ "type": "Feature", "properties": { "osmid": 2476412102.0 }, "geometry": { "type": "Point", "coordinates": [ 1800153.0, 5758800.0 ] } },
{ "type": "Feature", "properties": { "osmid": 3530843303.0 }, "geometry": { "type": "Point", "coordinates": [ 1773734.0, 5731799.0 ] } },
{ "type": "Feature", "properties": { "osmid": 512008315.0 }, "geometry": { "type": "Point", "coordinates": [ 1763525.0, 5746630.0 ] } },
{ "type": "Feature", "properties": { "osmid": 13768048446.0 }, "geometry": { "type": "Point", "coordinates": [ 1772031.0, 5739750.0 ] } },
{ "type": "Feature", "properties": { "osmid": 20968570.0 }, "geometry": { "type": "Point", "coordinates": [ 1775802.0, 5750143.0 ] } },
{ "type": "Feature", "properties": { "osmid": 1473467086.0 }, "geometry": { "type": "Point", "coordinates": [ 1776346.0, 5749891.0 ] } },
{ "type": "Feature", "properties": { "osmid": 1473467095.0 }, "geometry": { "type": "Point", "coordinates": [ 1776361.0, 5750414.0 ] } },
{ "type": "Feature", "properties": { "osmid": 3668476632.0 }, "geometry": { "type": "Point", "coordinates": [ 1775841.0, 5749301.0 ] } },
{ "type": "Feature", "properties": { "osmid": 3668438479.0 }, "geometry": { "type": "Point", "coordinates": [ 1774868.0, 5750199.0 ] } },
{ "type": "Feature", "properties": { "osmid": 3631647028.0 }, "geometry": { "type": "Point", "coordinates": [ 1776925.0, 5749848.0 ] } },
{ "type": "Feature", "properties": { "osmid": 8880455667.0 }, "geometry": { "type": "Point", "coordinates": [ 1777128.0, 5749352.0 ] } },
{ "type": "Feature", "properties": { "osmid": 6486724435.0 }, "geometry": { "type": "Point", "coordinates": [ 1777414.0, 5750031.0 ] } },
{ "type": "Feature", "properties": { "osmid": 3668502419.0 }, "geometry": { "type": "Point", "coordinates": [ 1776002.0, 5748360.0 ] } },
{ "type": "Feature", "properties": { "osmid": 319117747.0 }, "geometry": { "type": "Point", "coordinates": [ 1775276.0, 5748182.0 ] } },
{ "type": "Feature", "properties": { "osmid": 3147674542.0 }, "geometry": { "type": "Point", "coordinates": [ 1776631.0, 5748216.0 ] } },
{ "type": "Feature", "properties": { "osmid": 1280650742.0 }, "geometry": { "type": "Point", "coordinates": [ 1778000.0, 5750040.0 ] } },
{ "type": "Feature", "properties": { "osmid": 319117745.0 }, "geometry": { "type": "Point", "coordinates": [ 1774783.0, 5748080.0 ] } },
{ "type": "Feature", "properties": { "osmid": 2919507140.0 }, "geometry": { "type": "Point", "coordinates": [ 1778023.0, 5749501.0 ] } },
{ "type": "Feature", "properties": { "osmid": 8579000124.0 }, "geometry": { "type": "Point", "coordinates": [ 1777241.0, 5748257.0 ] } },
{ "type": "Feature", "properties": { "osmid": 1224131881.0 }, "geometry": { "type": "Point", "coordinates": [ 1778035.0, 5751270.0 ] } },
{ "type": "Feature", "properties": { "osmid": 1194121661.0 }, "geometry": { "type": "Point", "coordinates": [ 1777753.0, 5748356.0 ] } },
{ "type": "Feature", "properties": { "osmid": 1449060511.0 }, "geometry": { "type": "Point", "coordinates": [ 1775493.0, 5747467.0 ] } },
{ "type": "Feature", "properties": { "osmid": 8432902361.0 }, "geometry": { "type": "Point", "coordinates": [ 1776480.0, 5747459.0 ] } },
{ "type": "Feature", "properties": { "osmid": 1890261258.0 }, "geometry": { "type": "Point", "coordinates": [ 1778261.0, 5748858.0 ] } },
{ "type": "Feature", "properties": { "osmid": 1721620356.0 }, "geometry": { "type": "Point", "coordinates": [ 1773025.0, 5750546.0 ] } },
{ "type": "Feature", "properties": { "osmid": 1696869264.0 }, "geometry": { "type": "Point", "coordinates": [ 1774907.0, 5747454.0 ] } },
{ "type": "Feature", "properties": { "osmid": 8574659545.0 }, "geometry": { "type": "Point", "coordinates": [ 1778637.0, 5749551.0 ] } },
{ "type": "Feature", "properties": { "osmid": 7967758100.0 }, "geometry": { "type": "Point", "coordinates": [ 1778835.0, 5750221.0 ] } },
{ "type": "Feature", "properties": { "osmid": 8040750101.0 }, "geometry": { "type": "Point", "coordinates": [ 1772956.0, 5751220.0 ] } },
{ "type": "Feature", "properties": { "osmid": 506253266.0 }, "geometry": { "type": "Point", "coordinates": [ 1778262.0, 5748317.0 ] } },
{ "type": "Feature", "properties": { "osmid": 8243369080.0 }, "geometry": { "type": "Point", "coordinates": [ 1774120.0, 5747413.0 ] } },
{ "type": "Feature", "properties": { "osmid": 1201128425.0 }, "geometry": { "type": "Point", "coordinates": [ 1777632.0, 5747464.0 ] } },
{ "type": "Feature", "properties": { "osmid": 2049753486.0 }, "geometry": { "type": "Point", "coordinates": [ 1778792.0, 5751505.0 ] } },
{ "type": "Feature", "properties": { "osmid": 1706117774.0 }, "geometry": { "type": "Point", "coordinates": [ 1776282.0, 5746890.0 ] } },
{ "type": "Feature", "properties": { "osmid": 8731195682.0 }, "geometry": { "type": "Point", "coordinates": [ 1775005.0, 5746938.0 ] } },
{ "type": "Feature", "properties": { "osmid": 20969402.0 }, "geometry": { "type": "Point", "coordinates": [ 1779179.0, 5750669.0 ] } },
{ "type": "Feature", "properties": { "osmid": 1371587749.0 }, "geometry": { "type": "Point", "coordinates": [ 1779116.0, 5749281.0 ] } },
{ "type": "Feature", "properties": { "osmid": 1457124014.0 }, "geometry": { "type": "Point", "coordinates": [ 1778830.0, 5748437.0 ] } },
{ "type": "Feature", "properties": { "osmid": 8248551055.0 }, "geometry": { "type": "Point", "coordinates": [ 1773487.0, 5747466.0 ] } },
{ "type": "Feature", "properties": { "osmid": 13730699923.0 }, "geometry": { "type": "Point", "coordinates": [ 1779194.0, 5751200.0 ] } },
{ "type": "Feature", "properties": { "osmid": 1201128189.0 }, "geometry": { "type": "Point", "coordinates": [ 1778313.0, 5747519.0 ] } },
{ "type": "Feature", "properties": { "osmid": 2631788386.0 }, "geometry": { "type": "Point", "coordinates": [ 1772323.0, 5751235.0 ] } },
{ "type": "Feature", "properties": { "osmid": 355757661.0 }, "geometry": { "type": "Point", "coordinates": [ 1778724.0, 5747936.0 ] } },
{ "type": "Feature", "properties": { "osmid": 1449125372.0 }, "geometry": { "type": "Point", "coordinates": [ 1775129.0, 5746452.0 ] } },
{ "type": "Feature", "properties": { "osmid": 1788963594.0 }, "geometry": { "type": "Point", "coordinates": [ 1775958.0, 5746335.0 ] } },
{ "type": "Feature", "properties": { "osmid": 1449132058.0 }, "geometry": { "type": "Point", "coordinates": [ 1774597.0, 5746505.0 ] } },
{ "type": "Feature", "properties": { "osmid": 7304557483.0 }, "geometry": { "type": "Point", "coordinates": [ 1779698.0, 5750306.0 ] } },
{ "type": "Feature", "properties": { "osmid": 3451123594.0 }, "geometry": { "type": "Point", "coordinates": [ 1778833.0, 5752676.0 ] } },
{ "type": "Feature", "properties": { "osmid": 9529630092.0 }, "geometry": { "type": "Point", "coordinates": [ 1774096.0, 5746498.0 ] } },
{ "type": "Feature", "properties": { "osmid": 1712607314.0 }, "geometry": { "type": "Point", "coordinates": [ 1779480.0, 5748496.0 ] } },
{ "type": "Feature", "properties": { "osmid": 1448722867.0 }, "geometry": { "type": "Point", "coordinates": [ 1772579.0, 5747574.0 ] } },
{ "type": "Feature", "properties": { "osmid": 1577040942.0 }, "geometry": { "type": "Point", "coordinates": [ 1775415.0, 5745966.0 ] } },
{ "type": "Feature", "properties": { "osmid": 1712611772.0 }, "geometry": { "type": "Point", "coordinates": [ 1779906.0, 5748802.0 ] } },
{ "type": "Feature", "properties": { "osmid": 1129424213.0 }, "geometry": { "type": "Point", "coordinates": [ 1773324.0, 5746439.0 ] } },
{ "type": "Feature", "properties": { "osmid": 3538341692.0 }, "geometry": { "type": "Point", "coordinates": [ 1780270.0, 5750337.0 ] } },
{ "type": "Feature", "properties": { "osmid": 12213842248.0 }, "geometry": { "type": "Point", "coordinates": [ 1774547.0, 5745846.0 ] } },
{ "type": "Feature", "properties": { "osmid": 11484041140.0 }, "geometry": { "type": "Point", "coordinates": [ 1780232.0, 5749397.0 ] } },
{ "type": "Feature", "properties": { "osmid": 7884732006.0 }, "geometry": { "type": "Point", "coordinates": [ 1776085.0, 5745651.0 ] } },
{ "type": "Feature", "properties": { "osmid": 2152589230.0 }, "geometry": { "type": "Point", "coordinates": [ 1772445.0, 5747025.0 ] } },
{ "type": "Feature", "properties": { "osmid": 3665868509.0 }, "geometry": { "type": "Point", "coordinates": [ 1772782.0, 5746520.0 ] } },
{ "type": "Feature", "properties": { "osmid": 1201128328.0 }, "geometry": { "type": "Point", "coordinates": [ 1777309.0, 5745664.0 ] } },
{ "type": "Feature", "properties": { "osmid": 9944445704.0 }, "geometry": { "type": "Point", "coordinates": [ 1780421.0, 5748890.0 ] } },
{ "type": "Feature", "properties": { "osmid": 12253743799.0 }, "geometry": { "type": "Point", "coordinates": [ 1773869.0, 5745752.0 ] } },
{ "type": "Feature", "properties": { "osmid": 1729163499.0 }, "geometry": { "type": "Point", "coordinates": [ 1777864.0, 5745682.0 ] } },
{ "type": "Feature", "properties": { "osmid": 8875309183.0 }, "geometry": { "type": "Point", "coordinates": [ 1776510.0, 5745248.0 ] } },
{ "type": "Feature", "properties": { "osmid": 8012318976.0 }, "geometry": { "type": "Point", "coordinates": [ 1780858.0, 5750660.0 ] } },
{ "type": "Feature", "properties": { "osmid": 3665868473.0 }, "geometry": { "type": "Point", "coordinates": [ 1771851.0, 5746927.0 ] } },
{ "type": "Feature", "properties": { "osmid": 6376733102.0 }, "geometry": { "type": "Point", "coordinates": [ 1770708.0, 5749372.0 ] } },
{ "type": "Feature", "properties": { "osmid": 1491763246.0 }, "geometry": { "type": "Point", "coordinates": [ 1771071.0, 5747956.0 ] } },
{ "type": "Feature", "properties": { "osmid": 1201128451.0 }, "geometry": { "type": "Point", "coordinates": [ 1778656.0, 5745703.0 ] } },
{ "type": "Feature", "properties": { "osmid": 12214348615.0 }, "geometry": { "type": "Point", "coordinates": [ 1781071.0, 5749626.0 ] } },
{ "type": "Feature", "properties": { "osmid": 326294904.0 }, "geometry": { "type": "Point", "coordinates": [ 1775987.0, 5744849.0 ] } },
{ "type": "Feature", "properties": { "osmid": 8579850314.0 }, "geometry": { "type": "Point", "coordinates": [ 1780772.0, 5748267.0 ] } },
{ "type": "Feature", "properties": { "osmid": 10568663607.0 }, "geometry": { "type": "Point", "coordinates": [ 1770657.0, 5748660.0 ] } },
{ "type": "Feature", "properties": { "osmid": 1480144414.0 }, "geometry": { "type": "Point", "coordinates": [ 1772856.0, 5745669.0 ] } },
{ "type": "Feature", "properties": { "osmid": 8730693704.0 }, "geometry": { "type": "Point", "coordinates": [ 1781064.0, 5748997.0 ] } },
{ "type": "Feature", "properties": { "osmid": 1448495498.0 }, "geometry": { "type": "Point", "coordinates": [ 1781194.0, 5750225.0 ] } },
{ "type": "Feature", "properties": { "osmid": 3665868500.0 }, "geometry": { "type": "Point", "coordinates": [ 1771294.0, 5747096.0 ] } },
{ "type": "Feature", "properties": { "osmid": 1425657115.0 }, "geometry": { "type": "Point", "coordinates": [ 1772058.0, 5746174.0 ] } },
{ "type": "Feature", "properties": { "osmid": 8879946092.0 }, "geometry": { "type": "Point", "coordinates": [ 1776742.0, 5744761.0 ] } },
{ "type": "Feature", "properties": { "osmid": 8400708774.0 }, "geometry": { "type": "Point", "coordinates": [ 1777299.0, 5744764.0 ] } },
{ "type": "Feature", "properties": { "osmid": 4819941838.0 }, "geometry": { "type": "Point", "coordinates": [ 1779201.0, 5745712.0 ] } },
{ "type": "Feature", "properties": { "osmid": 6515534457.0 }, "geometry": { "type": "Point", "coordinates": [ 1780873.0, 5747733.0 ] } },
{ "type": "Feature", "properties": { "osmid": 3667874000.0 }, "geometry": { "type": "Point", "coordinates": [ 1770233.0, 5749188.0 ] } },
{ "type": "Feature", "properties": { "osmid": 10907683609.0 }, "geometry": { "type": "Point", "coordinates": [ 1774203.0, 5755572.0 ] } },
{ "type": "Feature", "properties": { "osmid": 1365634466.0 }, "geometry": { "type": "Point", "coordinates": [ 1770482.0, 5748086.0 ] } },
{ "type": "Feature", "properties": { "osmid": 11869896627.0 }, "geometry": { "type": "Point", "coordinates": [ 1781554.0, 5749780.0 ] } },
{ "type": "Feature", "properties": { "osmid": 8041374812.0 }, "geometry": { "type": "Point", "coordinates": [ 1780561.0, 5746872.0 ] } },
{ "type": "Feature", "properties": { "osmid": 9525286621.0 }, "geometry": { "type": "Point", "coordinates": [ 1770791.0, 5747168.0 ] } },
{ "type": "Feature", "properties": { "osmid": 326293025.0 }, "geometry": { "type": "Point", "coordinates": [ 1775459.0, 5744322.0 ] } },
{ "type": "Feature", "properties": { "osmid": 1450117812.0 }, "geometry": { "type": "Point", "coordinates": [ 1781554.0, 5748625.0 ] } },
{ "type": "Feature", "properties": { "osmid": 506239005.0 }, "geometry": { "type": "Point", "coordinates": [ 1778830.0, 5745014.0 ] } },
{ "type": "Feature", "properties": { "osmid": 3255994901.0 }, "geometry": { "type": "Point", "coordinates": [ 1774779.0, 5744248.0 ] } },
{ "type": "Feature", "properties": { "osmid": 8096609486.0 }, "geometry": { "type": "Point", "coordinates": [ 1769746.0, 5749409.0 ] } },
{ "type": "Feature", "properties": { "osmid": 560436673.0 }, "geometry": { "type": "Point", "coordinates": [ 1779974.0, 5745578.0 ] } },
{ "type": "Feature", "properties": { "osmid": 318927535.0 }, "geometry": { "type": "Point", "coordinates": [ 1779597.0, 5745226.0 ] } },
{ "type": "Feature", "properties": { "osmid": 1449036653.0 }, "geometry": { "type": "Point", "coordinates": [ 1770012.0, 5747879.0 ] } },
{ "type": "Feature", "properties": { "osmid": 3665868491.0 }, "geometry": { "type": "Point", "coordinates": [ 1770189.0, 5747301.0 ] } },
{ "type": "Feature", "properties": { "osmid": 1698292605.0 }, "geometry": { "type": "Point", "coordinates": [ 1782042.0, 5749060.0 ] } },
{ "type": "Feature", "properties": { "osmid": 3675246959.0 }, "geometry": { "type": "Point", "coordinates": [ 1781414.0, 5747125.0 ] } },
{ "type": "Feature", "properties": { "osmid": 2050706893.0 }, "geometry": { "type": "Point", "coordinates": [ 1775602.0, 5743748.0 ] } },
{ "type": "Feature", "properties": { "osmid": 1456162858.0 }, "geometry": { "type": "Point", "coordinates": [ 1778864.0, 5744474.0 ] } },
{ "type": "Feature", "properties": { "osmid": 1722775307.0 }, "geometry": { "type": "Point", "coordinates": [ 1774995.0, 5743725.0 ] } },
{ "type": "Feature", "properties": { "osmid": 8731132394.0 }, "geometry": { "type": "Point", "coordinates": [ 1769560.0, 5748426.0 ] } },
{ "type": "Feature", "properties": { "osmid": 2361036706.0 }, "geometry": { "type": "Point", "coordinates": [ 1782060.0, 5748470.0 ] } },
{ "type": "Feature", "properties": { "osmid": 8595782087.0 }, "geometry": { "type": "Point", "coordinates": [ 1777046.0, 5743781.0 ] } },
{ "type": "Feature", "properties": { "osmid": 536520333.0 }, "geometry": { "type": "Point", "coordinates": [ 1779476.0, 5744732.0 ] } },
{ "type": "Feature", "properties": { "osmid": 3667888542.0 }, "geometry": { "type": "Point", "coordinates": [ 1769334.0, 5748944.0 ] } },
{ "type": "Feature", "properties": { "osmid": 13718162990.0 }, "geometry": { "type": "Point", "coordinates": [ 1780007.0, 5744915.0 ] } },
{ "type": "Feature", "properties": { "osmid": 3639252224.0 }, "geometry": { "type": "Point", "coordinates": [ 1781542.0, 5746633.0 ] } },
{ "type": "Feature", "properties": { "osmid": 1449181373.0 }, "geometry": { "type": "Point", "coordinates": [ 1769605.0, 5747521.0 ] } },
{ "type": "Feature", "properties": { "osmid": 2048105770.0 }, "geometry": { "type": "Point", "coordinates": [ 1769106.0, 5749419.0 ] } },
{ "type": "Feature", "properties": { "osmid": 11920395654.0 }, "geometry": { "type": "Point", "coordinates": [ 1782586.0, 5750564.0 ] } },
{ "type": "Feature", "properties": { "osmid": 9163373690.0 }, "geometry": { "type": "Point", "coordinates": [ 1782502.0, 5748836.0 ] } },
{ "type": "Feature", "properties": { "osmid": 3641465503.0 }, "geometry": { "type": "Point", "coordinates": [ 1774453.0, 5743441.0 ] } },
{ "type": "Feature", "properties": { "osmid": 5098114511.0 }, "geometry": { "type": "Point", "coordinates": [ 1782588.0, 5751356.0 ] } },
{ "type": "Feature", "properties": { "osmid": 8157782536.0 }, "geometry": { "type": "Point", "coordinates": [ 1773694.0, 5743577.0 ] } },
{ "type": "Feature", "properties": { "osmid": 9319389683.0 }, "geometry": { "type": "Point", "coordinates": [ 1769830.0, 5746695.0 ] } },
{ "type": "Feature", "properties": { "osmid": 11645771588.0 }, "geometry": { "type": "Point", "coordinates": [ 1773681.0, 5756732.0 ] } },
{ "type": "Feature", "properties": { "osmid": 8583942817.0 }, "geometry": { "type": "Point", "coordinates": [ 1777905.0, 5743524.0 ] } },
{ "type": "Feature", "properties": { "osmid": 1449036678.0 }, "geometry": { "type": "Point", "coordinates": [ 1769151.0, 5747929.0 ] } },
{ "type": "Feature", "properties": { "osmid": 8880382799.0 }, "geometry": { "type": "Point", "coordinates": [ 1778979.0, 5743867.0 ] } },
{ "type": "Feature", "properties": { "osmid": 7302417588.0 }, "geometry": { "type": "Point", "coordinates": [ 1781578.0, 5746115.0 ] } },
{ "type": "Feature", "properties": { "osmid": 3255909929.0 }, "geometry": { "type": "Point", "coordinates": [ 1775091.0, 5743132.0 ] } },
{ "type": "Feature", "properties": { "osmid": 2361036696.0 }, "geometry": { "type": "Point", "coordinates": [ 1782604.0, 5748280.0 ] } },
{ "type": "Feature", "properties": { "osmid": 7237024380.0 }, "geometry": { "type": "Point", "coordinates": [ 1781150.0, 5745506.0 ] } },
{ "type": "Feature", "properties": { "osmid": 7771093786.0 }, "geometry": { "type": "Point", "coordinates": [ 1771722.0, 5744272.0 ] } },
{ "type": "Feature", "properties": { "osmid": 8897294937.0 }, "geometry": { "type": "Point", "coordinates": [ 1780028.0, 5744370.0 ] } },
{ "type": "Feature", "properties": { "osmid": 8273972983.0 }, "geometry": { "type": "Point", "coordinates": [ 1782062.0, 5746680.0 ] } },
{ "type": "Feature", "properties": { "osmid": 3641636789.0 }, "geometry": { "type": "Point", "coordinates": [ 1780704.0, 5744797.0 ] } },
{ "type": "Feature", "properties": { "osmid": 5758075877.0 }, "geometry": { "type": "Point", "coordinates": [ 1768441.0, 5748774.0 ] } },
{ "type": "Feature", "properties": { "osmid": 8261763922.0 }, "geometry": { "type": "Point", "coordinates": [ 1782123.0, 5746094.0 ] } },
{ "type": "Feature", "properties": { "osmid": 1449036688.0 }, "geometry": { "type": "Point", "coordinates": [ 1768614.0, 5747958.0 ] } },
{ "type": "Feature", "properties": { "osmid": 1200968726.0 }, "geometry": { "type": "Point", "coordinates": [ 1781228.0, 5744930.0 ] } },
{ "type": "Feature", "properties": { "osmid": 6497965210.0 }, "geometry": { "type": "Point", "coordinates": [ 1781665.0, 5745395.0 ] } },
{ "type": "Feature", "properties": { "osmid": 7990395247.0 }, "geometry": { "type": "Point", "coordinates": [ 1783342.0, 5749022.0 ] } },
{ "type": "Feature", "properties": { "osmid": 3667486512.0 }, "geometry": { "type": "Point", "coordinates": [ 1783109.0, 5747923.0 ] } },
{ "type": "Feature", "properties": { "osmid": 1723664832.0 }, "geometry": { "type": "Point", "coordinates": [ 1778948.0, 5743184.0 ] } },
{ "type": "Feature", "properties": { "osmid": 3639452795.0 }, "geometry": { "type": "Point", "coordinates": [ 1780399.0, 5744018.0 ] } },
{ "type": "Feature", "properties": { "osmid": 12378523578.0 }, "geometry": { "type": "Point", "coordinates": [ 1773890.0, 5757675.0 ] } },
{ "type": "Feature", "properties": { "osmid": 8009842738.0 }, "geometry": { "type": "Point", "coordinates": [ 1780930.0, 5744070.0 ] } },
{ "type": "Feature", "properties": { "osmid": 5146009964.0 }, "geometry": { "type": "Point", "coordinates": [ 1773116.0, 5757656.0 ] } },
{ "type": "Feature", "properties": { "osmid": 6726178470.0 }, "geometry": { "type": "Point", "coordinates": [ 1780082.0, 5743284.0 ] } },
{ "type": "Feature", "properties": { "osmid": 1718635696.0 }, "geometry": { "type": "Point", "coordinates": [ 1783876.0, 5749139.0 ] } },
{ "type": "Feature", "properties": { "osmid": 8852941906.0 }, "geometry": { "type": "Point", "coordinates": [ 1783669.0, 5747895.0 ] } },
{ "type": "Feature", "properties": { "osmid": 3642223267.0 }, "geometry": { "type": "Point", "coordinates": [ 1767910.0, 5747908.0 ] } },
{ "type": "Feature", "properties": { "osmid": 3641155037.0 }, "geometry": { "type": "Point", "coordinates": [ 1780565.0, 5743440.0 ] } },
{ "type": "Feature", "properties": { "osmid": 1480432438.0 }, "geometry": { "type": "Point", "coordinates": [ 1781478.0, 5744117.0 ] } },
{ "type": "Feature", "properties": { "osmid": 13526355394.0 }, "geometry": { "type": "Point", "coordinates": [ 1779573.0, 5742723.0 ] } },
{ "type": "Feature", "properties": { "osmid": 1864727010.0 }, "geometry": { "type": "Point", "coordinates": [ 1779186.0, 5757899.0 ] } },
{ "type": "Feature", "properties": { "osmid": 3667368524.0 }, "geometry": { "type": "Point", "coordinates": [ 1783849.0, 5747291.0 ] } },
{ "type": "Feature", "properties": { "osmid": 2937241979.0 }, "geometry": { "type": "Point", "coordinates": [ 1781161.0, 5743471.0 ] } },
{ "type": "Feature", "properties": { "osmid": 5098115621.0 }, "geometry": { "type": "Point", "coordinates": [ 1784216.0, 5751886.0 ] } },
{ "type": "Feature", "properties": { "osmid": 1734375141.0 }, "geometry": { "type": "Point", "coordinates": [ 1767235.0, 5749397.0 ] } },
{ "type": "Feature", "properties": { "osmid": 2883754693.0 }, "geometry": { "type": "Point", "coordinates": [ 1779110.0, 5742166.0 ] } },
{ "type": "Feature", "properties": { "osmid": 4269623543.0 }, "geometry": { "type": "Point", "coordinates": [ 1780140.0, 5742674.0 ] } },
{ "type": "Feature", "properties": { "osmid": 12543947409.0 }, "geometry": { "type": "Point", "coordinates": [ 1773142.0, 5758399.0 ] } },
{ "type": "Feature", "properties": { "osmid": 12546074972.0 }, "geometry": { "type": "Point", "coordinates": [ 1778105.0, 5741779.0 ] } },
{ "type": "Feature", "properties": { "osmid": 10767957068.0 }, "geometry": { "type": "Point", "coordinates": [ 1778102.0, 5758527.0 ] } },
{ "type": "Feature", "properties": { "osmid": 2822681147.0 }, "geometry": { "type": "Point", "coordinates": [ 1767147.0, 5748759.0 ] } },
{ "type": "Feature", "properties": { "osmid": 10310525407.0 }, "geometry": { "type": "Point", "coordinates": [ 1784459.0, 5748598.0 ] } },
{ "type": "Feature", "properties": { "osmid": 1480452856.0 }, "geometry": { "type": "Point", "coordinates": [ 1781685.0, 5743375.0 ] } },
{ "type": "Feature", "properties": { "osmid": 11645763003.0 }, "geometry": { "type": "Point", "coordinates": [ 1772654.0, 5758642.0 ] } },
{ "type": "Feature", "properties": { "osmid": 558325881.0 }, "geometry": { "type": "Point", "coordinates": [ 1780064.0, 5742132.0 ] } },
{ "type": "Feature", "properties": { "osmid": 2142603000.0 }, "geometry": { "type": "Point", "coordinates": [ 1766981.0, 5747964.0 ] } },
{ "type": "Feature", "properties": { "osmid": 10767956987.0 }, "geometry": { "type": "Point", "coordinates": [ 1777516.0, 5759208.0 ] } },
{ "type": "Feature", "properties": { "osmid": 1449200951.0 }, "geometry": { "type": "Point", "coordinates": [ 1784443.0, 5746866.0 ] } },
{ "type": "Feature", "properties": { "osmid": 3666107839.0 }, "geometry": { "type": "Point", "coordinates": [ 1785060.0, 5752377.0 ] } },
{ "type": "Feature", "properties": { "osmid": 5819912365.0 }, "geometry": { "type": "Point", "coordinates": [ 1772685.0, 5759156.0 ] } },
{ "type": "Feature", "properties": { "osmid": 497586915.0 }, "geometry": { "type": "Point", "coordinates": [ 1784875.0, 5753266.0 ] } },
{ "type": "Feature", "properties": { "osmid": 1258544584.0 }, "geometry": { "type": "Point", "coordinates": [ 1784769.0, 5753813.0 ] } },
{ "type": "Feature", "properties": { "osmid": 12498228160.0 }, "geometry": { "type": "Point", "coordinates": [ 1766652.0, 5753403.0 ] } },
{ "type": "Feature", "properties": { "osmid": 3874233894.0 }, "geometry": { "type": "Point", "coordinates": [ 1780001.0, 5741375.0 ] } },
{ "type": "Feature", "properties": { "osmid": 10908309632.0 }, "geometry": { "type": "Point", "coordinates": [ 1778740.0, 5759415.0 ] } },
{ "type": "Feature", "properties": { "osmid": 593379873.0 }, "geometry": { "type": "Point", "coordinates": [ 1785273.0, 5747912.0 ] } },
{ "type": "Feature", "properties": { "osmid": 7990426943.0 }, "geometry": { "type": "Point", "coordinates": [ 1784861.0, 5746573.0 ] } },
{ "type": "Feature", "properties": { "osmid": 5231094667.0 }, "geometry": { "type": "Point", "coordinates": [ 1782799.0, 5756953.0 ] } },
{ "type": "Feature", "properties": { "osmid": 10612210631.0 }, "geometry": { "type": "Point", "coordinates": [ 1784406.0, 5754820.0 ] } },
{ "type": "Feature", "properties": { "osmid": 330030681.0 }, "geometry": { "type": "Point", "coordinates": [ 1781902.0, 5742451.0 ] } },
{ "type": "Feature", "properties": { "osmid": 330359611.0 }, "geometry": { "type": "Point", "coordinates": [ 1781150.0, 5741818.0 ] } },
{ "type": "Feature", "properties": { "osmid": 7990426917.0 }, "geometry": { "type": "Point", "coordinates": [ 1785258.0, 5746940.0 ] } },
{ "type": "Feature", "properties": { "osmid": 9677182937.0 }, "geometry": { "type": "Point", "coordinates": [ 1772488.0, 5759729.0 ] } },
{ "type": "Feature", "properties": { "osmid": 3874233867.0 }, "geometry": { "type": "Point", "coordinates": [ 1780460.0, 5741127.0 ] } },
{ "type": "Feature", "properties": { "osmid": 1258455222.0 }, "geometry": { "type": "Point", "coordinates": [ 1785366.0, 5753538.0 ] } },
{ "type": "Feature", "properties": { "osmid": 2136520702.0 }, "geometry": { "type": "Point", "coordinates": [ 1765568.0, 5750185.0 ] } },
{ "type": "Feature", "properties": { "osmid": 3667486478.0 }, "geometry": { "type": "Point", "coordinates": [ 1785325.0, 5746231.0 ] } },
{ "type": "Feature", "properties": { "osmid": 2136520711.0 }, "geometry": { "type": "Point", "coordinates": [ 1765418.0, 5749403.0 ] } },
{ "type": "Feature", "properties": { "osmid": 3845469401.0 }, "geometry": { "type": "Point", "coordinates": [ 1779110.0, 5760038.0 ] } },
{ "type": "Feature", "properties": { "osmid": 12549592508.0 }, "geometry": { "type": "Point", "coordinates": [ 1777975.0, 5760381.0 ] } },
{ "type": "Feature", "properties": { "osmid": 12498212338.0 }, "geometry": { "type": "Point", "coordinates": [ 1766480.0, 5755233.0 ] } },
{ "type": "Feature", "properties": { "osmid": 1740259214.0 }, "geometry": { "type": "Point", "coordinates": [ 1765279.0, 5748648.0 ] } },
{ "type": "Feature", "properties": { "osmid": 1426881588.0 }, "geometry": { "type": "Point", "coordinates": [ 1765379.0, 5747905.0 ] } },
{ "type": "Feature", "properties": { "osmid": 3977069859.0 }, "geometry": { "type": "Point", "coordinates": [ 1781615.0, 5741199.0 ] } },
{ "type": "Feature", "properties": { "osmid": 9026027276.0 }, "geometry": { "type": "Point", "coordinates": [ 1777254.0, 5760751.0 ] } },
{ "type": "Feature", "properties": { "osmid": 11607852760.0 }, "geometry": { "type": "Point", "coordinates": [ 1767304.0, 5756657.0 ] } },
{ "type": "Feature", "properties": { "osmid": 11607861016.0 }, "geometry": { "type": "Point", "coordinates": [ 1766742.0, 5755895.0 ] } },
{ "type": "Feature", "properties": { "osmid": 3675292281.0 }, "geometry": { "type": "Point", "coordinates": [ 1786494.0, 5748945.0 ] } },
{ "type": "Feature", "properties": { "osmid": 11235608946.0 }, "geometry": { "type": "Point", "coordinates": [ 1765980.0, 5754616.0 ] } },
{ "type": "Feature", "properties": { "osmid": 3667486509.0 }, "geometry": { "type": "Point", "coordinates": [ 1785742.0, 5745932.0 ] } },
{ "type": "Feature", "properties": { "osmid": 12814302456.0 }, "geometry": { "type": "Point", "coordinates": [ 1786071.0, 5753601.0 ] } },
{ "type": "Feature", "properties": { "osmid": 8887888304.0 }, "geometry": { "type": "Point", "coordinates": [ 1781323.0, 5740782.0 ] } },
{ "type": "Feature", "properties": { "osmid": 2904500927.0 }, "geometry": { "type": "Point", "coordinates": [ 1778412.0, 5760707.0 ] } },
{ "type": "Feature", "properties": { "osmid": 5646278977.0 }, "geometry": { "type": "Point", "coordinates": [ 1782893.0, 5758456.0 ] } },
{ "type": "Feature", "properties": { "osmid": 2541591443.0 }, "geometry": { "type": "Point", "coordinates": [ 1786594.0, 5748238.0 ] } },
{ "type": "Feature", "properties": { "osmid": 11645763028.0 }, "geometry": { "type": "Point", "coordinates": [ 1772393.0, 5760575.0 ] } },
{ "type": "Feature", "properties": { "osmid": 2910838613.0 }, "geometry": { "type": "Point", "coordinates": [ 1780326.0, 5740068.0 ] } },
{ "type": "Feature", "properties": { "osmid": 4057091835.0 }, "geometry": { "type": "Point", "coordinates": [ 1779134.0, 5760746.0 ] } },
{ "type": "Feature", "properties": { "osmid": 3675267626.0 }, "geometry": { "type": "Point", "coordinates": [ 1786721.0, 5747754.0 ] } },
{ "type": "Feature", "properties": { "osmid": 8235020445.0 }, "geometry": { "type": "Point", "coordinates": [ 1765326.0, 5754330.0 ] } },
{ "type": "Feature", "properties": { "osmid": 3666136032.0 }, "geometry": { "type": "Point", "coordinates": [ 1786299.0, 5754329.0 ] } },
{ "type": "Feature", "properties": { "osmid": 3073754782.0 }, "geometry": { "type": "Point", "coordinates": [ 1782103.0, 5740694.0 ] } },
{ "type": "Feature", "properties": { "osmid": 8181114976.0 }, "geometry": { "type": "Point", "coordinates": [ 1786636.0, 5753755.0 ] } },
{ "type": "Feature", "properties": { "osmid": 10951086556.0 }, "geometry": { "type": "Point", "coordinates": [ 1777052.0, 5761553.0 ] } },
{ "type": "Feature", "properties": { "osmid": 3667399098.0 }, "geometry": { "type": "Point", "coordinates": [ 1786316.0, 5745523.0 ] } },
{ "type": "Feature", "properties": { "osmid": 420579282.0 }, "geometry": { "type": "Point", "coordinates": [ 1772138.0, 5761035.0 ] } },
{ "type": "Feature", "properties": { "osmid": 12531861187.0 }, "geometry": { "type": "Point", "coordinates": [ 1765312.0, 5754947.0 ] } },
{ "type": "Feature", "properties": { "osmid": 574827178.0 }, "geometry": { "type": "Point", "coordinates": [ 1787360.0, 5750226.0 ] } },
{ "type": "Feature", "properties": { "osmid": 320400868.0 }, "geometry": { "type": "Point", "coordinates": [ 1764253.0, 5750791.0 ] } },
{ "type": "Feature", "properties": { "osmid": 8578436530.0 }, "geometry": { "type": "Point", "coordinates": [ 1764817.0, 5753852.0 ] } },
{ "type": "Feature", "properties": { "osmid": 420580294.0 }, "geometry": { "type": "Point", "coordinates": [ 1773549.0, 5761587.0 ] } },
{ "type": "Feature", "properties": { "osmid": 10115291177.0 }, "geometry": { "type": "Point", "coordinates": [ 1767330.0, 5741937.0 ] } },
{ "type": "Feature", "properties": { "osmid": 12549592556.0 }, "geometry": { "type": "Point", "coordinates": [ 1779129.0, 5761541.0 ] } },
{ "type": "Feature", "properties": { "osmid": 1162514249.0 }, "geometry": { "type": "Point", "coordinates": [ 1780416.0, 5761202.0 ] } },
{ "type": "Feature", "properties": { "osmid": 8574442347.0 }, "geometry": { "type": "Point", "coordinates": [ 1786912.0, 5754770.0 ] } },
{ "type": "Feature", "properties": { "osmid": 2905225653.0 }, "geometry": { "type": "Point", "coordinates": [ 1777203.0, 5762098.0 ] } },
{ "type": "Feature", "properties": { "osmid": 8722729009.0 }, "geometry": { "type": "Point", "coordinates": [ 1781076.0, 5760968.0 ] } },
{ "type": "Feature", "properties": { "osmid": 12543947189.0 }, "geometry": { "type": "Point", "coordinates": [ 1772169.0, 5761641.0 ] } },
{ "type": "Feature", "properties": { "osmid": 2915092555.0 }, "geometry": { "type": "Point", "coordinates": [ 1781099.0, 5739274.0 ] } },
{ "type": "Feature", "properties": { "osmid": 1579616316.0 }, "geometry": { "type": "Point", "coordinates": [ 1781876.0, 5760704.0 ] } },
{ "type": "Feature", "properties": { "osmid": 2190991859.0 }, "geometry": { "type": "Point", "coordinates": [ 1763602.0, 5750873.0 ] } },
{ "type": "Feature", "properties": { "osmid": 9520389100.0 }, "geometry": { "type": "Point", "coordinates": [ 1776670.0, 5762360.0 ] } },
{ "type": "Feature", "properties": { "osmid": 12549592519.0 }, "geometry": { "type": "Point", "coordinates": [ 1779000.0, 5762150.0 ] } },
{ "type": "Feature", "properties": { "osmid": 6412728568.0 }, "geometry": { "type": "Point", "coordinates": [ 1787099.0, 5744956.0 ] } },
{ "type": "Feature", "properties": { "osmid": 9785690258.0 }, "geometry": { "type": "Point", "coordinates": [ 1788168.0, 5751735.0 ] } },
{ "type": "Feature", "properties": { "osmid": 10951861578.0 }, "geometry": { "type": "Point", "coordinates": [ 1781225.0, 5761451.0 ] } },
{ "type": "Feature", "properties": { "osmid": 9080076510.0 }, "geometry": { "type": "Point", "coordinates": [ 1766311.0, 5741854.0 ] } },
{ "type": "Feature", "properties": { "osmid": 12543947031.0 }, "geometry": { "type": "Point", "coordinates": [ 1773783.0, 5762631.0 ] } },
{ "type": "Feature", "properties": { "osmid": 1152071375.0 }, "geometry": { "type": "Point", "coordinates": [ 1776260.0, 5762847.0 ] } },
{ "type": "Feature", "properties": { "osmid": 10951860308.0 }, "geometry": { "type": "Point", "coordinates": [ 1779777.0, 5762238.0 ] } },
{ "type": "Feature", "properties": { "osmid": 10978254937.0 }, "geometry": { "type": "Point", "coordinates": [ 1780782.0, 5761874.0 ] } },
{ "type": "Feature", "properties": { "osmid": 12565027004.0 }, "geometry": { "type": "Point", "coordinates": [ 1763002.0, 5751022.0 ] } },
{ "type": "Feature", "properties": { "osmid": 8174173905.0 }, "geometry": { "type": "Point", "coordinates": [ 1778160.0, 5762797.0 ] } },
{ "type": "Feature", "properties": { "osmid": 8832135109.0 }, "geometry": { "type": "Point", "coordinates": [ 1778787.0, 5762666.0 ] } },
{ "type": "Feature", "properties": { "osmid": 598143957.0 }, "geometry": { "type": "Point", "coordinates": [ 1788569.0, 5752965.0 ] } },
{ "type": "Feature", "properties": { "osmid": 6412734921.0 }, "geometry": { "type": "Point", "coordinates": [ 1787754.0, 5744484.0 ] } },
{ "type": "Feature", "properties": { "osmid": 9522095315.0 }, "geometry": { "type": "Point", "coordinates": [ 1779901.0, 5762812.0 ] } },
{ "type": "Feature", "properties": { "osmid": 420579882.0 }, "geometry": { "type": "Point", "coordinates": [ 1775819.0, 5763510.0 ] } },
{ "type": "Feature", "properties": { "osmid": 12556260781.0 }, "geometry": { "type": "Point", "coordinates": [ 1775275.0, 5763565.0 ] } },
{ "type": "Feature", "properties": { "osmid": 4111123592.0 }, "geometry": { "type": "Point", "coordinates": [ 1782258.0, 5738087.0 ] } },
{ "type": "Feature", "properties": { "osmid": 12698153780.0 }, "geometry": { "type": "Point", "coordinates": [ 1775327.0, 5764126.0 ] } },
{ "type": "Feature", "properties": { "osmid": 1790686005.0 }, "geometry": { "type": "Point", "coordinates": [ 1789690.0, 5748421.0 ] } },
{ "type": "Feature", "properties": { "osmid": 8887931515.0 }, "geometry": { "type": "Point", "coordinates": [ 1789712.0, 5752077.0 ] } },
{ "type": "Feature", "properties": { "osmid": 12541577267.0 }, "geometry": { "type": "Point", "coordinates": [ 1782878.0, 5737703.0 ] } },
{ "type": "Feature", "properties": { "osmid": 8174156603.0 }, "geometry": { "type": "Point", "coordinates": [ 1777921.0, 5764305.0 ] } },
{ "type": "Feature", "properties": { "osmid": 9620791047.0 }, "geometry": { "type": "Point", "coordinates": [ 1780006.0, 5763913.0 ] } },
{ "type": "Feature", "properties": { "osmid": 12542171016.0 }, "geometry": { "type": "Point", "coordinates": [ 1790132.0, 5752648.0 ] } },
{ "type": "Feature", "properties": { "osmid": 9025935425.0 }, "geometry": { "type": "Point", "coordinates": [ 1777612.0, 5764849.0 ] } },
{ "type": "Feature", "properties": { "osmid": 9668691277.0 }, "geometry": { "type": "Point", "coordinates": [ 1781248.0, 5736222.0 ] } },
{ "type": "Feature", "properties": { "osmid": 11899077045.0 }, "geometry": { "type": "Point", "coordinates": [ 1778803.0, 5765180.0 ] } },
{ "type": "Feature", "properties": { "osmid": 12987604315.0 }, "geometry": { "type": "Point", "coordinates": [ 1790769.0, 5753658.0 ] } },
{ "type": "Feature", "properties": { "osmid": 1964718866.0 }, "geometry": { "type": "Point", "coordinates": [ 1791183.0, 5749292.0 ] } },
{ "type": "Feature", "properties": { "osmid": 1567387512.0 }, "geometry": { "type": "Point", "coordinates": [ 1778321.0, 5765491.0 ] } },
{ "type": "Feature", "properties": { "osmid": 3236031401.0 }, "geometry": { "type": "Point", "coordinates": [ 1780703.0, 5735240.0 ] } },
{ "type": "Feature", "properties": { "osmid": 11973765807.0 }, "geometry": { "type": "Point", "coordinates": [ 1791155.0, 5754066.0 ] } },
{ "type": "Feature", "properties": { "osmid": 2308345375.0 }, "geometry": { "type": "Point", "coordinates": [ 1791358.0, 5753500.0 ] } },
{ "type": "Feature", "properties": { "osmid": 1964520038.0 }, "geometry": { "type": "Point", "coordinates": [ 1792284.0, 5749385.0 ] } },
{ "type": "Feature", "properties": { "osmid": 10911214724.0 }, "geometry": { "type": "Point", "coordinates": [ 1792395.0, 5749951.0 ] } },
{ "type": "Feature", "properties": { "osmid": 10951860346.0 }, "geometry": { "type": "Point", "coordinates": [ 1784081.0, 5764563.0 ] } },
{ "type": "Feature", "properties": { "osmid": 10560489854.0 }, "geometry": { "type": "Point", "coordinates": [ 1792235.0, 5752869.0 ] } },
{ "type": "Feature", "properties": { "osmid": 10911214731.0 }, "geometry": { "type": "Point", "coordinates": [ 1792448.0, 5750967.0 ] } },
{ "type": "Feature", "properties": { "osmid": 10567472028.0 }, "geometry": { "type": "Point", "coordinates": [ 1792414.0, 5751633.0 ] } },
{ "type": "Feature", "properties": { "osmid": 1729001168.0 }, "geometry": { "type": "Point", "coordinates": [ 1792950.0, 5750394.0 ] } },
{ "type": "Feature", "properties": { "osmid": 13257309666.0 }, "geometry": { "type": "Point", "coordinates": [ 1792848.0, 5752194.0 ] } },
{ "type": "Feature", "properties": { "osmid": 3099432000.0 }, "geometry": { "type": "Point", "coordinates": [ 1793067.0, 5749252.0 ] } },
{ "type": "Feature", "properties": { "osmid": 10951860348.0 }, "geometry": { "type": "Point", "coordinates": [ 1784042.0, 5765354.0 ] } },
{ "type": "Feature", "properties": { "osmid": 3668764685.0 }, "geometry": { "type": "Point", "coordinates": [ 1793154.0, 5749934.0 ] } },
{ "type": "Feature", "properties": { "osmid": 9762551056.0 }, "geometry": { "type": "Point", "coordinates": [ 1792980.0, 5752951.0 ] } },
{ "type": "Feature", "properties": { "osmid": 12556260822.0 }, "geometry": { "type": "Point", "coordinates": [ 1784707.0, 5765233.0 ] } },
{ "type": "Feature", "properties": { "osmid": 9762531994.0 }, "geometry": { "type": "Point", "coordinates": [ 1793041.0, 5753560.0 ] } },
{ "type": "Feature", "properties": { "osmid": 10030220678.0 }, "geometry": { "type": "Point", "coordinates": [ 1793431.0, 5751578.0 ] } },
{ "type": "Feature", "properties": { "osmid": 10030287019.0 }, "geometry": { "type": "Point", "coordinates": [ 1793497.0, 5752148.0 ] } },
{ "type": "Feature", "properties": { "osmid": 12901991465.0 }, "geometry": { "type": "Point", "coordinates": [ 1784313.0, 5765877.0 ] } },
{ "type": "Feature", "properties": { "osmid": 9764575203.0 }, "geometry": { "type": "Point", "coordinates": [ 1793778.0, 5748963.0 ] } },
{ "type": "Feature", "properties": { "osmid": 1733169031.0 }, "geometry": { "type": "Point", "coordinates": [ 1793878.0, 5750278.0 ] } },
{ "type": "Feature", "properties": { "osmid": 9501140871.0 }, "geometry": { "type": "Point", "coordinates": [ 1785141.0, 5765753.0 ] } },
{ "type": "Feature", "properties": { "osmid": 9497612387.0 }, "geometry": { "type": "Point", "coordinates": [ 1784351.0, 5766428.0 ] } },
{ "type": "Feature", "properties": { "osmid": 9497642964.0 }, "geometry": { "type": "Point", "coordinates": [ 1784963.0, 5766233.0 ] } },
{ "type": "Feature", "properties": { "osmid": 8262691323.0 }, "geometry": { "type": "Point", "coordinates": [ 1794328.0, 5748778.0 ] } },
{ "type": "Feature", "properties": { "osmid": 1156990649.0 }, "geometry": { "type": "Point", "coordinates": [ 1785511.0, 5766248.0 ] } },
{ "type": "Feature", "properties": { "osmid": 9592586495.0 }, "geometry": { "type": "Point", "coordinates": [ 1785031.0, 5766751.0 ] } },
{ "type": "Feature", "properties": { "osmid": 9497612370.0 }, "geometry": { "type": "Point", "coordinates": [ 1784376.0, 5767442.0 ] } },
{ "type": "Feature", "properties": { "osmid": 9039697609.0 }, "geometry": { "type": "Point", "coordinates": [ 1784489.0, 5767942.0 ] } },
{ "type": "Feature", "properties": { "osmid": 8562037510.0 }, "geometry": { "type": "Point", "coordinates": [ 1786004.0, 5767425.0 ] } },
{ "type": "Feature", "properties": { "osmid": 12237729948.0 }, "geometry": { "type": "Point", "coordinates": [ 1784623.0, 5768572.0 ] } },
{ "type": "Feature", "properties": { "osmid": 11847461501.0 }, "geometry": { "type": "Point", "coordinates": [ 1796819.0, 5752450.0 ] } },
{ "type": "Feature", "properties": { "osmid": 10031653798.0 }, "geometry": { "type": "Point", "coordinates": [ 1798088.0, 5758359.0 ] } },
{ "type": "Feature", "properties": { "osmid": 10031654330.0 }, "geometry": { "type": "Point", "coordinates": [ 1798405.0, 5758839.0 ] } }
]
}
