{
"type": "FeatureCollection",
"name": "zagreb-rail",
"crs": { "type": "name", "properties": { "name": "urn:ogc:def:crs:EPSG::3857" } },
"features": [
{ "type": "Feature", "properties": { "osmid": 12699955035.0 }, "geometry": { "type": "Point", "coordinates": [ 1790664.0, 5752278.0 ] } },
{ "type": "Feature", "properties": { "osmid": 1504121513.0 }, "geometry": { "type": "Point", "coordinates": [ 1769102.0, 5739483.0 ] } },
{ "type": "Feature", "properties": { "osmid": 6973859128.0 }, "geometry": { "type": "Point", "coordinates": [ 1786551.0, 5751291.0 ] } },
{ "type": "Feature", "properties": { "osmid": 1624963348.0 }, "geometry": { "type": "Point", "coordinates": [ 1779023.0, 5741300.0 ] } },
{ "type": "Feature", "properties": { "osmid": 1342456141.0 }, "geometry": { "type": "Point", "coordinates": [ 1769617.0, 5750308.0 ] } },
{ "type": "Feature", "properties": { "osmid": 1332272600.0 }, "geometry": { "type": "Point", "coordinates": [ 1772999.0, 5750044.0 ] } },
{ "type": "Feature", "properties": { "osmid": 1404325727.0 }, "geometry": { "type": "Point", "coordinates": [ 1766962.0, 5750539.0 ] } },
{ "type": "Feature", "properties": { "osmid": 1504359057.0 }, "geometry": { "type": "Point", "coordinates": [ 1758681.0, 5731992.0 ] } },
{ "type": "Feature", "properties": { "osmid": 6973859137.0 }, "geometry": { "type": "Point", "coordinates": [ 1799889.0, 5750080.0 ] } },
{ "type": "Feature", "properties": { "osmid": 1571498913.0 }, "geometry": { "type": "Point", "coordinates": [ 1783785.0, 5750640.0 ] } },
{ "type": "Feature", "properties": { "osmid": 11032351721.0 }, "geometry": { "type": "Point", "coordinates": [ 1760719.0, 5734596.0 ] } },
{ "type": "Feature", "properties": { "osmid": 20968570.0 }, "geometry": { "type": "Point", "coordinates": [ 1775802.0, 5750143.0 ] } },
{ "type": "Feature", "properties": { "osmid": 1473467086.0 }, "geometry": { "type": "Point", "coordinates": [ 1776346.0, 5749891.0 ] } },
{ "type": "Feature", "properties": { "osmid": 1473467095.0 }, "geometry": { "type": "Point", "coordinates": [ 1776361.0, 5750414.0 ] } },
{ "type": "Feature", "properties": { "osmid": 3668476632.0 }, "geometry": { "type": "Point", "coordinates": [ 1775841.0, 5749301.0 ] } },
{ "type": "Feature", "properties": { "osmid": 3668438479.0 }, "geometry": { "type": "Point", "coordinates": [ 1774868.0, 5750199.0 ] } },
{ "type": "Feature", "properties": { "osmid": 3631647028.0 }, "geometry": { "type": "Point", "coordinates": [ 1776925.0, 5749848.0 ] } },
{ "type": "Feature", "properties": { "osmid": 8880455667.0 }, "geometry": { "type": "Point", "coordinates": [ 1777128.0, 5749352.0 ] } },
{ "type": "Feature", "properties": { "osmid": 6486724435.0 }, "geometry": { "type": "Point", "coordinates": [ 1777414.0, 5750031.0 ] } },
{ "type": "Feature", "properties": { "osmid": 3668502419.0 }, "geometry": { "type": "Point", "coordinates": [ 1776002.0, 5748360.0 ] } },
{ "type": "Feature", "properties": { "osmid": 319117747.0 }, "geometry": { "type": "Point", "coordinates": [ 1775276.0, 5748182.0 ] } },
{ "type": "Feature", "properties": { "osmid": 3147674542.0 }, "geometry": { "type": "Point", "coordinates": [ 1776631.0, 5748216.0 ] } },
{ "type": "Feature", "properties": { "osmid": 1280650742.0 }, "geometry": { "type": "Point", "coordinates": [ 1778000.0, 5750040.0 ] } },
{ "type": "Feature", "properties": { "osmid": 319117745.0 }, "geometry": { "type": "Point", "coordinates": [ 1774783.0, 5748080.0 ] } },
{ "type": "Feature", "properties": { "osmid": 2919507140.0 }, "geometry": { "type": "Point", "coordinates": [ 1778023.0, 5749501.0 ] } },
{ "type": "Feature", "properties": { "osmid": 8579000124.0 }, "geometry": { "type": "Point", "coordinates": [ 1777241.0, 5748257.0 ] } },
{ "type": "Feature", "properties": { "osmid": 1224131881.0 }, "geometry": { "type": "Point", "coordinates": [ 1778035.0, 5751270.0 ] } },
{ "type": "Feature", "properties": { "osmid": 1194121661.0 }, "geometry": { "type": "Point", "coordinates": [ 1777753.0, 5748356.0 ] } },
{ "type": "Feature", "properties": { "osmid": 1449060511.0 }, "geometry": { "type": "Point", "coordinates": [ 1775493.0, 5747467.0 ] } },
{ "type": "Feature", "properties": { "osmid": 8432902361.0 }, "geometry": { "type": "Point", "coordinates": [ 1776480.0, 5747459.0 ] } },
{ "type": "Feature", "properties": { "osmid": 1890261258.0 }, "geometry": { "type": "Point", "coordinates": [ 1778261.0, 5748858.0 ] } },
{ "type": "Feature", "properties": { "osmid": 1721620356.0 }, "geometry": { "type": "Point", "coordinates": [ 1773025.0, 5750546.0 ] } },
{ "type": "Feature", "properties": { "osmid": 1696869264.0 }, "geometry": { "type": "Point", "coordinates": [ 1774907.0, 5747454.0 ] } },
{ "type": "Feature", "properties": { "osmid": 8574659545.0 }, "geometry": { "type": "Point", "coordinates": [ 1778637.0, 5749551.0 ] } },
{ "type": "Feature", "properties": { "osmid": 7967758100.0 }, "geometry": { "type": "Point", "coordinates": [ 1778835.0, 5750221.0 ] } },
{ "type": "Feature", "properties": { "osmid": 8040750101.0 }, "geometry": { "type": "Point", "coordinates": [ 1772956.0, 5751220.0 ] } },
{ "type": "Feature", "properties": { "osmid": 506253266.0 }, "geometry": { "type": "Point", "coordinates": [ 1778262.0, 5748317.0 ] } },
{ "type": "Feature", "properties": { "osmid": 8243369080.0 }, "geometry": { "type": "Point", "coordinates": [ 1774120.0, 5747413.0 ] } },
{ "type": "Feature", "properties": { "osmid": 1201128425.0 }, "geometry": { "type": "Point", "coordinates": [ 1777632.0, 5747464.0 ] } },
{ "type": "Feature", "properties": { "osmid": 2049753486.0 }, "geometry": { "type": "Point", "coordinates": [ 1778792.0, 5751505.0 ] } },
{ "type": "Feature", "properties": { "osmid": 1706117774.0 }, "geometry": { "type": "Point", "coordinates": [ 1776282.0, 5746890.0 ] } },
{ "type": "Feature", "properties": { "osmid": 8731195682.0 }, "geometry": { "type": "Point", "coordinates": [ 1775005.0, 5746938.0 ] } },
{ "type": "Feature", "properties": { "osmid": 20969402.0 }, "geometry": { "type": "Point", "coordinates": [ 1779179.0, 5750669.0 ] } },
{ "type": "Feature", "properties": { "osmid": 1371587749.0 }, "geometry": { "type": "Point", "coordinates": [ 1779116.0, 5749281.0 ] } },
{ "type": "Feature", "properties": { "osmid": 1457124014.0 }, "geometry": { "type": "Point", "coordinates": [ 1778830.0, 5748437.0 ] } },
{ "type": "Feature", "properties": { "osmid": 8248551055.0 }, "geometry": { "type": "Point", "coordinates": [ 1773487.0, 5747466.0 ] } },
{ "type": "Feature", "properties": { "osmid": 13730699923.0 }, "geometry": { "type": "Point", "coordinates": [ 1779194.0, 5751200.0 ] } },
{ "type": "Feature", "properties": { "osmid": 1201128189.0 }, "geometry": { "type": "Point", "coordinates": [ 1778313.0, 5747519.0 ] } },
{ "type": "Feature", "properties": { "osmid": 2631788386.0 }, "geometry": { "type": "Point", "coordinates": [ 1772323.0, 5751235.0 ] } },
{ "type": "Feature", "properties": { "osmid": 355757661.0 }, "geometry": { "type": "Point", "coordinates": [ 1778724.0, 5747936.0 ] } },
{ "type": "Feature", "properties": { "osmid": 1449125372.0 }, "geometry": { "type": "Point", "coordinates": [ 1775129.0, 5746452.0 ] } },
{ "type": "Feature", "properties": { "osmid": 1788963594.0 }, "geometry": { "type": "Point", "coordinates": [ 1775958.0, 5746335.0 ] } },
{ "type": "Feature", "properties": { "osmid": 1449132058.0 }, "geometry": { "type": "Point", "coordinates": [ 1774597.0, 5746505.0 ] } },
{ "type": "Feature", "properties": { "osmid": 7304557483.0 }, "geometry": { "type": "Point", "coordinates": [ 1779698.0, 5750306.0 ] } },
{ "type": "Feature", "properties": { "osmid": 3451123594.0 }, "geometry": { "type": "Point", "coordinates": [ 1778833.0, 5752676.0 ] } },
{ "type": "Feature", "properties": { "osmid": 9529630092.0 }, "geometry": { "type": "Point", "coordinates": [ 1774096.0, 5746498.0 ] } },
{ "type": "Feature", "properties": { "osmid": 1712607314.0 }, "geometry": { "type": "Point", "coordinates": [ 1779480.0, 5748496.0 ] } },
{ "type": "Feature", "properties": { "osmid": 1448722867.0 }, "geometry": { "type": "Point", "coordinates": [ 1772579.0, 5747574.0 ] } },
{ "type": "Feature", "properties": { "osmid": 1577040942.0 }, "geometry": { "type": "Point", "coordinates": [ 1775415.0, 5745966.0 ] } },
{ "type": "Feature", "properties": { "osmid": 1712611772.0 }, "geometry": { "type": "Point", "coordinates": [ 1779906.0, 5748802.0 ] } },
{ "type": "Feature", "properties": { "osmid": 1129424213.0 }, "geometry": { "type": "Point", "coordinates": [ 1773324.0, 5746439.0 ] } },
{ "type": "Feature", "properties": { "osmid": 3538341692.0 }, "geometry": { "type": "Point", "coordinates": [ 1780270.0, 5750337.0 ] } },
{ "type": "Feature", "properties": { "osmid": 12213842248.0 }, "geometry": { "type": "Point", "coordinates": [ 1774547.0, 5745846.0 ] } },
{ "type": "Feature", "properties": { "osmid": 11484041140.0 }, "geometry": { "type": "Point", "coordinates": [ 1780232.0, 5749397.0 ] } },
{ "type": "Feature", "properties": { "osmid": 7884732006.0 }, "geometry": { "type": "Point", "coordinates": [ 1776085.0, 5745651.0 ] } },
{ "type": "Feature", "properties": { "osmid": 2152589230.0 }, "geometry": { "type": "Point", "coordinates": [ 1772445.0, 5747025.0 ] } },
{ "type": "Feature", "properties": { "osmid": 3665868509.0 }, "geometry": { "type": "Point", "coordinates": [ 1772782.0, 5746520.0 ] } },
{ "type": "Feature", "properties": { "osmid": 1201128328.0 }, "geometry": { "type": "Point", "coordinates": [ 1777309.0, 5745664.0 ] } },
{ "type": "Feature", "properties": { "osmid": 9944445704.0 }, "geometry": { "type": "Point", "coordinates": [ 1780421.0, 5748890.0 ] } },
{ "type": "Feature", "properties": { "osmid": 12253743799.0 }, "geometry": { "type": "Point", "coordinates": [ 1773869.0, 5745752.0 ] } },
{ "type": "Feature", "properties": { "osmid": 1729163499.0 }, "geometry": { "type": "Point", "coordinates": [ 1777864.0, 5745682.0 ] } },
{ "type": "Feature", "properties": { "osmid": 8875309183.0 }, "geometry": { "type": "Point", "coordinates": [ 1776510.0, 5745248.0 ] } },
{ "type": "Feature", "properties": { "osmid": 8012318976.0 }, "geometry": { "type": "Point", "coordinates": [ 1780858.0, 5750660.0 ] } },
{ "type": "Feature", "properties": { "osmid": 3665868473.0 }, "geometry": { "type": "Point", "coordinates": [ 1771851.0, 5746927.0 ] } },
{ "type": "Feature", "properties": { "osmid": 6376733102.0 }, "geometry": { "type": "Point", "coordinates": [ 1770708.0, 5749372.0 ] } },
{ "type": "Feature", "properties": { "osmid": 1491763246.0 }, "geometry": { "type": "Point", "coordinates": [ 1771071.0, 5747956.0 ] } },
{ "type": "Feature", "properties": { "osmid": 1201128451.0 }, "geometry": { "type": "Point", "coordinates": [ 1778656.0, 5745703.0 ] } },
{ "type": "Feature", "properties": { "osmid": 12214348615.0 }, "geometry": { "type": "Point", "coordinates": [ 1781071.0, 5749626.0 ] } },
{ "type": "Feature", "properties": { "osmid": 326294904.0 }, "geometry": { "type": "Point", "coordinates": [ 1775987.0, 5744849.0 ] } },
{ "type": "Feature", "properties": { "osmid": 8579850314.0 }, "geometry": { "type": "Point", "coordinates": [ 1780772.0, 5748267.0 ] } },
{ "type": "Feature", "properties": { "osmid": 10568663607.0 }, "geometry": { "type": "Point", "coordinates": [ 1770657.0, 5748660.0 ] } },
{ "type": "Feature", "properties": { "osmid": 1480144414.0 }, "geometry": { "type": "Point", "coordinates": [ 1772856.0, 5745669.0 ] } },
{ "type": "Feature", "properties": { "osmid": 8730693704.0 }, "geometry": { "type": "Point", "coordinates": [ 1781064.0, 5748997.0 ] } },
{ "type": "Feature", "properties": { "osmid": 1448495498.0 }, "geometry": { "type": "Point", "coordinates": [ 1781194.0, 5750225.0 ] } },
{ "type": "Feature", "properties": { "osmid": 3665868500.0 }, "geometry": { "type": "Point", "coordinates": [ 1771294.0, 5747096.0 ] } },
{ "type": "Feature", "properties": { "osmid": 1425657115.0 }, "geometry": { "type": "Point", "coordinates": [ 1772058.0, 5746174.0 ] } },
{ "type": "Feature", "properties": { "osmid": 8879946092.0 }, "geometry": { "type": "Point", "coordinates": [ 1776742.0, 5744761.0 ] } },
{ "type": "Feature", "properties": { "osmid": 8400708774.0 }, "geometry": { "type": "Point", "coordinates": [ 1777299.0, 5744764.0 ] } },
{ "type": "Feature", "properties": { "osmid": 4819941838.0 }, "geometry": { "type": "Point", "coordinates": [ 1779201.0, 5745712.0 ] } },
{ "type": "Feature", "properties": { "osmid": 6515534457.0 }, "geometry": { "type": "Point", "coordinates": [ 1780873.0, 5747733.0 ] } },
{ "type": "Feature", "properties": { "osmid": 3667874000.0 }, "geometry": { "type": "Point", "coordinates": [ 1770233.0, 5749188.0 ] } },
{ "type": "Feature", "properties": { "osmid": 10907683609.0 }, "geometry": { "type": "Point", "coordinates": [ 1774203.0, 5755572.0 ] } },
{ "type": "Feature", "properties": { "osmid": 1365634466.0 }, "geometry": { "type": "Point", "coordinates": [ 1770482.0, 5748086.0 ] } },
{ "type": "Feature", "properties": { "osmid": 11869896627.0 }, "geometry": { "type": "Point", "coordinates": [ 1781554.0, 5749780.0 ] } },
{ "type": "Feature", "properties": { "osmid": 8041374812.0 }, "geometry": { "type": "Point", "coordinates": [ 1780561.0, 5746872.0 ] } },
{ "type": "Feature", "properties": { "osmid": 9525286621.0 }, "geometry": { "type": "Point", "coordinates": [ 1770791.0, 5747168.0 ] } },
{ "type": "Feature", "properties": { "osmid": 326293025.0 }, "geometry": { "type": "Point", "coordinates": [ 1775459.0, 5744322.0 ] } },
{ "type": "Feature", "properties": { "osmid": 1450117812.0 }, "geometry": { "type": "Point", "coordinates": [ 1781554.0, 5748625.0 ] } },
{ "type": "Feature", "properties": { "osmid": 506239005.0 }, "geometry": { "type": "Point", "coordinates": [ 1778830.0, 5745014.0 ] } },
{ "type": "Feature", "properties": { "osmid": 3255994901.0 }, "geometry": { "type": "Point", "coordinates": [ 1774779.0, 5744248.0 ] } },
{ "type": "Feature", "properties": { "osmid": 8096609486.0 }, "geometry": { "type": "Point", "coordinates": [ 1769746.0, 5749409.0 ] } },
{ "type": "Feature", "properties": { "osmid": 560436673.0 }, "geometry": { "type": "Point", "coordinates": [ 1779974.0, 5745578.0 ] } },
{ "type": "Feature", "properties": { "osmid": 318927535.0 }, "geometry": { "type": "Point", "coordinates": [ 1779597.0, 5745226.0 ] } },
{ "type": "Feature", "properties": { "osmid": 1449036653.0 }, "geometry": { "type": "Point", "coordinates": [ 1770012.0, 5747879.0 ] } },
{ "type": "Feature", "properties": { "osmid": 3665868491.0 }, "geometry": { "type": "Point", "coordinates": [ 1770189.0, 5747301.0 ] } },
{ "type": "Feature", "properties": { "osmid": 1698292605.0 }, "geometry": { "type": "Point", "coordinates": [ 1782042.0, 5749060.0 ] } },
{ "type": "Feature", "properties": { "osmid": 3675246959.0 }, "geometry": { "type": "Point", "coordinates": [ 1781414.0, 5747125.0 ] } },
{ "type": "Feature", "properties": { "osmid": 2050706893.0 }, "geometry": { "type": "Point", "coordinates": [ 1775602.0, 5743748.0 ] } },
{ "type": "Feature", "properties": { "osmid": 1456162858.0 }, "geometry": { "type": "Point", "coordinates": [ 1778864.0, 5744474.0 ] } },
{ "type": "Feature", "properties": { "osmid": 1722775307.0 }, "geometry": { "type": "Point", "coordinates": [ 1774995.0, 5743725.0 ] } },
{ "type": "Feature", "properties": { "osmid": 8731132394.0 }, "geometry": { "type": "Point", "coordinates": [ 1769560.0, 5748426.0 ] } },
{ "type": "Feature", "properties": { "osmid": 2361036706.0 }, "geometry": { "type": "Point", "coordinates": [ 1782060.0, 5748470.0 ] } },
{ "type": "Feature", "properties": { "osmid": 8595782087.0 }, "geometry": { "type": "Point", "coordinates": [ 1777046.0, 5743781.0 ] } },
{ "type": "Feature", "properties": { "osmid": 536520333.0 }, "geometry": { "type": "Point", "coordinates": [ 1779476.0, 5744732.0 ] } },
{ "type": "Feature", "properties": { "osmid": 3667888542.0 }, "geometry": { "type": "Point", "coordinates": [ 1769334.0, 5748944.0 ] } },
{ "type": "Feature", "properties": { "osmid": 13718162990.0 }, "geometry": { "type": "Point", "coordinates": [ 1780007.0, 5744915.0 ] } },
{ "type": "Feature", "properties": { "osmid": 3639252224.0 }, "geometry": { "type": "Point", "coordinates": [ 1781542.0, 5746633.0 ] } },
{ "type": "Feature", "properties": { "osmid": 1449181373.0 }, "geometry": { "type": "Point", "coordinates": [ 1769605.0, 5747521.0 ] } },
{ "type": "Feature", "properties": { "osmid": 2048105770.0 }, "geometry": { "type": "Point", "coordinates": [ 1769106.0, 5749419.0 ] } },
{ "type": "Feature", "properties": { "osmid": 11920395654.0 }, "geometry": { "type": "Point", "coordinates": [ 1782586.0, 5750564.0 ] } },
{ "type": "Feature", "properties": { "osmid": 9163373690.0 }, "geometry": { "type": "Point", "coordinates": [ 1782502.0, 5748836.0 ] } },
{ "type": "Feature", "properties": { "osmid": 3641465503.0 }, "geometry": { "type": "Point", "coordinates": [ 1774453.0, 5743441.0 ] } },
{ "type": "Feature", "properties": { "osmid": 5098114511.0 }, "geometry": { "type": "Point", "coordinates": [ 1782588.0, 5751356.0 ] } },
{ "type": "Feature", "properties": { "osmid": 8157782536.0 }, "geometry": { "type": "Point", "coordinates": [ 1773694.0, 5743577.0 ] } },
{ "type": "Feature", "properties": { "osmid": 9319389683.0 }, "geometry": { "type": "Point", "coordinates": [ 1769830.0, 5746695.0 ] } },
{ "type": "Feature", "properties": { "osmid": 11645771588.0 }, "geometry": { "type": "Point", "coordinates": [ 1773681.0, 5756732.0 ] } },
{ "type": "Feature", "properties": { "osmid": 8583942817.0 }, "geometry": { "type": "Point", "coordinates": [ 1777905.0, 5743524.0 ] } },
{ "type": "Feature", "properties": { "osmid": 1449036678.0 }, "geometry": { "type": "Point", "coordinates": [ 1769151.0, 5747929.0 ] } },
{ "type": "Feature", "properties": { "osmid": 8880382799.0 }, "geometry": { "type": "Point", "coordinates": [ 1778979.0, 5743867.0 ] } },
{ "type": "Feature", "properties": { "osmid": 7302417588.0 }, "geometry": { "type": "Point", "coordinates": [ 1781578.0, 5746115.0 ] } },
{ "type": "Feature", "properties": { "osmid": 3255909929.0 }, "geometry": { "type": "Point", "coordinates": [ 1775091.0, 5743132.0 ] } },
{ "type": "Feature", "properties": { "osmid": 2361036696.0 }, "geometry": { "type": "Point", "coordinates": [ 1782604.0, 5748280.0 ] } },
{ "type": "Feature", "properties": { "osmid": 7237024380.0 }, "geometry": { "type": "Point", "coordinates": [ 1781150.0, 5745506.0 ] } },
{ "type": "Feature", "properties": { "osmid": 7771093786.0 }, "geometry": { "type": "Point", "coordinates": [ 1771722.0, 5744272.0 ] } },
{ "type": "Feature", "properties": { "osmid": 8897294937.0 }, "geometry": { "type": "Point", "coordinates": [ 1780028.0, 5744370.0 ] } },
{ "type": "Feature", "properties": { "osmid": 8273972983.0 }, "geometry": { "type": "Point", "coordinates": [ 1782062.0, 5746680.0 ] } },
{ "type": "Feature", "properties": { "osmid": 3641636789.0 }, "geometry": { "type": "Point", "coordinates": [ 1780704.0, 5744797.0 ] } },
{ "type": "Feature", "properties": { "osmid": 5758075877.0 }, "geometry": { "type": "Point", "coordinates": [ 1768441.0, 5748774.0 ] } },
{ "type": "Feature", "properties": { "osmid": 8261763922.0 }, "geometry": { "type": "Point", "coordinates": [ 1782123.0, 5746094.0 ] } },
{ "type": "Feature", "properties": { "osmid": 1449036688.0 }, "geometry": { "type": "Point", "coordinates": [ 1768614.0, 5747958.0 ] } },
{ "type": "Feature", "properties": { "osmid": 1200968726.0 }, "geometry": { "type": "Point", "coordinates": [ 1781228.0, 5744930.0 ] } },
{ "type": "Feature", "properties": { "osmid": 6497965210.0 }, "geometry": { "type": "Point", "coordinates": [ 1781665.0, 5745395.0 ] } },
{ "type": "Feature", "properties": { "osmid": 7990395247.0 }, "geometry": { "type": "Point", "coordinates": [ 1783342.0, 5749022.0 ] } },
{ "type": "Feature", "properties": { "osmid": 3667486512.0 }, "geometry": { "type": "Point", "coordinates": [ 1783109.0, 5747923.0 ] } },
{ "type": "Feature", "properties": { "osmid": 1723664832.0 }, "geometry": { "type": "Point", "coordinates": [ 1778948.0, 5743184.0 ] } },
{ "type": "Feature", "properties": { "osmid": 3639452795.0 }, "geometry": { "type": "Point", "coordinates": [ 1780399.0, 5744018.0 ] } },
{ "type": "Feature", "properties": { "osmid": 12378523578.0 }, "geometry": { "type": "Point", "coordinates": [ 1773890.0, 5757675.0 ] } },
{ "type": "Feature", "properties": { "osmid": 8009842738.0 }, "geometry": { "type": "Point", "coordinates": [ 1780930.0, 5744070.0 ] } },
{ "type": "Feature", "properties": { "osmid": 5146009964.0 }, "geometry": { "type": "Point", "coordinates": [ 1773116.0, 5757656.0 ] } },
{ "type": "Feature", "properties": { "osmid": 6726178470.0 }, "geometry": { "type": "Point", "coordinates": [ 1780082.0, 5743284.0 ] } },
{ "type": "Feature", "properties": { "osmid": 1718635696.0 }, "geometry": { "type": "Point", "coordinates": [ 1783876.0, 5749139.0 ] } },
{ "type": "Feature", "properties": { "osmid": 8852941906.0 }, "geometry": { "type": "Point", "coordinates": [ 1783669.0, 5747895.0 ] } },
{ "type": "Feature", "properties": { "osmid": 3642223267.0 }, "geometry": { "type": "Point", "coordinates": [ 1767910.0, 5747908.0 ] } },
{ "type": "Feature", "properties": { "osmid": 3641155037.0 }, "geometry": { "type": "Point", "coordinates": [ 1780565.0, 5743440.0 ] } },
{ "type": "Feature", "properties": { "osmid": 1480432438.0 }, "geometry": { "type": "Point", "coordinates": [ 1781478.0, 5744117.0 ] } },
{ "type": "Feature", "properties": { "osmid": 13526355394.0 }, "geometry": { "type": "Point", "coordinates": [ 1779573.0, 5742723.0 ] } },
{ "type": "Feature", "properties": { "osmid": 1864727010.0 }, "geometry": { "type": "Point", "coordinates": [ 1779186.0, 5757899.0 ] } },
{ "type": "Feature", "properties": { "osmid": 3667368524.0 }, "geometry": { "type": "Point", "coordinates": [ 1783849.0, 5747291.0 ] } },
{ "type": "Feature", "properties": { "osmid": 2937241979.0 }, "geometry": { "type": "Point", "coordinates": [ 1781161.0, 5743471.0 ] } },
{ "type": "Feature", "properties": { "osmid": 5098115621.0 }, "geometry": { "type": "Point", "coordinates": [ 1784216.0, 5751886.0 ] } },
{ "type": "Feature", "properties": { "osmid": 1734375141.0 }, "geometry": { "type": "Point", "coordinates": [ 1767235.0, 5749397.0 ] } },
{ "type": "Feature", "properties": { "osmid": 2883754693.0 }, "geometry": { "type": "Point", "coordinates": [ 1779110.0, 5742166.0 ] } },
{ "type": "Feature", "properties": { "osmid": 4269623543.0 }, "geometry": { "type": "Point", "coordinates": [ 1780140.0, 5742674.0 ] } },
{ "type": "Feature", "properties": { "osmid": 12543947409.0 }, "geometry": { "type": "Point", "coordinates": [ 1773142.0, 5758399.0 ] } },
{ "type": "Feature", "properties": { "osmid": 12546074972.0 }, "geometry": { "type": "Point", "coordinates": [ 1778105.0, 5741779.0 ] } },
{ "type": "Feature", "properties": { "osmid": 10767957068.0 }, "geometry": { "type": "Point", "coordinates": [ 1778102.0, 5758527.0 ] } },
{ "type": "Feature", "properties": { "osmid": 2822681147.0 }, "geometry": { "type": "Point", "coordinates": [ 1767147.0, 5748759.0 ] } },
{ "type": "Feature", "properties": { "osmid": 10310525407.0 }, "geometry": { "type": "Point", "coordinates": [ 1784459.0, 5748598.0 ] } },
{ "type": "Feature", "properties": { "osmid": 1480452856.0 }, "geometry": { "type": "Point", "coordinates": [ 1781685.0, 5743375.0 ] } },
{ "type": "Feature", "properties": { "osmid": 11645763003.0 }, "geometry": { "type": "Point", "coordinates": [ 1772654.0, 5758642.0 ] } },
{ "type": "Feature", "properties": { "osmid": 558325881.0 }, "geometry": { "type": "Point", "coordinates": [ 1780064.0, 5742132.0 ] } },
{ "type": "Feature", "properties": { "osmid": 2142603000.0 }, "geometry": { "type": "Point", "coordinates": [ 1766981.0, 5747964.0 ] } },
{ "type": "Feature", "properties": { "osmid": 10767956987.0 }, "geometry": { "type": "Point", "coordinates": [ 1777516.0, 5759208.0 ] } },
{ "type": "Feature", "properties": { "osmid": 1449200951.0 }, "geometry": { "type": "Point", "coordinates": [ 1784443.0, 5746866.0 ] } },
{ "type": "Feature", "properties": { "osmid": 3666107839.0 }, "geometry": { "type": "Point", "coordinates": [ 1785060.0, 5752377.0 ] } },
{ "type": "Feature", "properties": { "osmid": 5819912365.0 }, "geometry": { "type": "Point", "coordinates": [ 1772685.0, 5759156.0 ] } },
{ "type": "Feature", "properties": { "osmid": 497586915.0 }, "geometry": { "type": "Point", "coordinates": [ 1784875.0, 5753266.0 ] } },
{ "type": "Feature", "properties": { "osmid": 1258544584.0 }, "geometry": { "type": "Point", "coordinates": [ 1784769.0, 5753813.0 ] } },
{ "type": "Feature", "properties": { "osmid": 12498228160.0 }, "geometry": { "type": "Point", "coordinates": [ 1766652.0, 5753403.0 ] } },
{ "type": "Feature", "properties": { "osmid": 3874233894.0 }, "geometry": { "type": "Point", "coordinates": [ 1780001.0, 5741375.0 ] } },
{ "type": "Feature", "properties": { "osmid": 10908309632.0 }, "geometry": { "type": "Point", "coordinates": [ 1778740.0, 5759415.0 ] } },
{ "type": "Feature", "properties": { "osmid": 593379873.0 }, "geometry": { "type": "Point", "coordinates": [ 1785273.0, 5747912.0 ] } },
{ "type": "Feature", "properties": { "osmid": 7990426943.0 }, "geometry": { "type": "Point", "coordinates": [ 1784861.0, 5746573.0 ] } },
{ "type": "Feature", "properties": { "osmid": 5231094667.0 }, "geometry": { "type": "Point", "coordinates": [ 1782799.0, 5756953.0 ] } },
{ "type": "Feature", "properties": { "osmid": 10612210631.0 }, "geometry": { "type": "Point", "coordinates": [ 1784406.0, 5754820.0 ] } },
{ "type": "Feature", "properties": { "osmid": 330030681.0 }, "geometry": { "type": "Point", "coordinates": [ 1781902.0, 5742451.0 ] } },
{ "type": "Feature", "properties": { "osmid": 330359611.0 }, "geometry": { "type": "Point", "coordinates": [ 1781150.0, 5741818.0 ] } },
{ "type": "Feature", "properties": { "osmid": 7990426917.0 }, "geometry": { "type": "Point", "coordinates": [ 1785258.0, 5746940.0 ] } },
{ "type": "Feature", "properties": { "osmid": 9677182937.0 }, "geometry": { "type": "Point", "coordinates": [ 1772488.0, 5759729.0 ] } },
{ "type": "Feature", "properties": { "osmid": 3874233867.0 }, "geometry": { "type": "Point", "coordinates": [ 1780460.0, 5741127.0 ] } },
{ "type": "Feature", "properties": { "osmid": 1258455222.0 }, "geometry": { "type": "Point", "coordinates": [ 1785366.0, 5753538.0 ] } },
{ "type": "Feature", "properties": { "osmid": 2136520702.0 }, "geometry": { "type": "Point", "coordinates": [ 1765568.0, 5750185.0 ] } },
{ "type": "Feature", "properties": { "osmid": 3667486478.0 }, "geometry": { "type": "Point", "coordinates": [ 1785325.0, 5746231.0 ] } },
{ "type": "Feature", "properties": { "osmid": 2136520711.0 }, "geometry": { "type": "Point", "coordinates": [ 1765418.0, 5749403.0 ] } },
{ "type": "Feature", "properties": { "osmid": 3845469401.0 }, "geometry": { "type": "Point", "coordinates": [ 1779110.0, 5760038.0 ] } },
{ "type": "Feature", "properties": { "osmid": 12549592508.0 }, "geometry": { "type": "Point", "coordinates": [ 1777975.0, 5760381.0 ] } },
{ "type": "Feature", "properties": { "osmid": 12498212338.0 }, "geometry": { "type": "Point", "coordinates": [ 1766480.0, 5755233.0 ] } },
{ "type": "Feature", "properties": { "osmid": 1740259214.0 }, "geometry": { "type": "Point", "coordinates": [ 1765279.0, 5748648.0 ] } },
{ "type": "Feature", "properties": { "osmid": 1426881588.0 }, "geometry": { "type": "Point", "coordinates": [ 1765379.0, 5747905.0 ] } },
{ "type": "Feature", "properties": { "osmid": 3977069859.0 }, "geometry": { "type": "Point", "coordinates": [ 1781615.0, 5741199.0 ] } },
{ "type": "Feature", "properties": { "osmid": 9026027276.0 }, "geometry": { "type": "Point", "coordinates": [ 1777254.0, 5760751.0 ] } },
{ "type": "Feature", "properties": { "osmid": 11607852760.0 }, "geometry": { "type": "Point", "coordinates": [ 1767304.0, 5756657.0 ] } },
{ "type": "Feature", "properties": { "osmid": 11607861016.0 }, "geometry": { "type": "Point", "coordinates": [ 1766742.0, 5755895.0 ] } },
{ "type": "Feature", "properties": { "osmid": 3675292281.0 }, "geometry": { "type": "Point", "coordinates": [ 1786494.0, 5748945.0 ] } },
{ "type": "Feature", "properties": { "osmid": 11235608946.0 }, "geometry": { "type": "Point", "coordinates": [ 1765980.0, 5754616.0 ] } },
{ "type": "Feature", "properties": { "osmid": 3667486509.0 }, "geometry": { "type": "Point", "coordinates": [ 1785742.0, 5745932.0 ] } },
{ "type": "Feature", "properties": { "osmid": 12814302456.0 }, "geometry": { "type": "Point", "coordinates": [ 1786071.0, 5753601.0 ] } },
{ "type": "Feature", "properties": { "osmid": 8887888304.0 }, "geometry": { "type": "Point", "coordinates": [ 1781323.0, 5740782.0 ] } },
{ "type": "Feature", "properties": { "osmid": 2904500927.0 }, "geometry": { "type": "Point", "coordinates": [ 1778412.0, 5760707.0 ] } },
{ "type": "Feature", "properties": { "osmid": 5646278977.0 }, "geometry": { "type": "Point", "coordinates": [ 1782893.0, 5758456.0 ] } },
{ "type": "Feature", "properties": { "osmid": 2541591443.0 }, "geometry": { "type": "Point", "coordinates": [ 1786594.0, 5748238.0 ] } },
{ "type": "Feature", "properties": { "osmid": 11645763028.0 }, "geometry": { "type": "Point", "coordinates": [ 1772393.0, 5760575.0 ] } },
{ "type": "Feature", "properties": { "osmid": 2910838613.0 }, "geometry": { "type": "Point", "coordinates": [ 1780326.0, 5740068.0 ] } },
{ "type": "Feature", "properties": { "osmid": 4057091835.0 }, "geometry": { "type": "Point", "coordinates": [ 1779134.0, 5760746.0 ] } },
{ "type": "Feature", "properties": { "osmid": 3675267626.0 }, "geometry": { "type": "Point", "coordinates": [ 1786721.0, 5747754.0 ] } },
{ "type": "Feature", "properties": { "osmid": 8235020445.0 }, "geometry": { "type": "Point", "coordinates": [ 1765326.0, 5754330.0 ] } },
{ "type": "Feature", "properties": { "osmid": 3666136032.0 }, "geometry": { "type": "Point", "coordinates": [ 1786299.0, 5754329.0 ] } },
{ "type": "Feature", "properties": { "osmid": 3073754782.0 }, "geometry": { "type": "Point", "coordinates": [ 1782103.0, 5740694.0 ] } },
{ "type": "Feature", "properties": { "osmid": 8181114976.0 }, "geometry": { "type": "Point", "coordinates": [ 1786636.0, 5753755.0 ] } },
{ "type": "Feature", "properties": { "osmid": 10951086556.0 }, "geometry": { "type": "Point", "coordinates": [ 1777052.0, 5761553.0 ] } },
{ "type": "Feature", "properties": { "osmid": 3667399098.0 }, "geometry": { "type": "Point", "coordinates": [ 1786316.0, 5745523.0 ] } },
{ "type": "Feature", "properties": { "osmid": 420579282.0 }, "geometry": { "type": "Point", "coordinates": [ 1772138.0, 5761035.0 ] } },
{ "type": "Feature", "properties": { "osmid": 12531861187.0 }, "geometry": { "type": "Point", "coordinates": [ 1765312.0, 5754947.0 ] } },
{ "type": "Feature", "properties": { "osmid": 574827178.0 }, "geometry": { "type": "Point", "coordinates": [ 1787360.0, 5750226.0 ] } },
{ "type": "Feature", "properties": { "osmid": 320400868.0 }, "geometry": { "type": "Point", "coordinates": [ 1764253.0, 5750791.0 ] } },
{ "type": "Feature", "properties": { "osmid": 8578436530.0 }, "geometry": { "type": "Point", "coordinates": [ 1764817.0, 5753852.0 ] } },
{ "type": "Feature", "properties": { "osmid": 420580294.0 }, "geometry": { "type": "Point", "coordinates": [ 1773549.0, 5761587.0 ] } },
{ "type": "Feature", "properties": { "osmid": 10115291177.0 }, "geometry": { "type": "Point", "coordinates": [ 1767330.0, 5741937.0 ] } },
{ "type": "Feature", "properties": { "osmid": 12549592556.0 }, "geometry": { "type": "Point", "coordinates": [ 1779129.0, 5761541.0 ] } },
{ "type": "Feature", "properties": { "osmid": 1162514249.0 }, "geometry": { "type": "Point", "coordinates": [ 1780416.0, 5761202.0 ] } },
{ "type": "Feature", "properties": { "osmid": 8574442347.0 }, "geometry": { "type": "Point", "coordinates": [ 1786912.0, 5754770.0 ] } },
{ "type": "Feature", "properties": { "osmid": 2905225653.0 }, "geometry": { "type": "Point", "coordinates": [ 1777203.0, 5762098.0 ] } },
{ "type": "Feature", "properties": { "osmid": 8722729009.0 }, "geometry": { "type": "Point", "coordinates": [ 1781076.0, 5760968.0 ] } },
{ "type": "Feature", "properties": { "osmid": 12543947189.0 }, "geometry": { "type": "Point", "coordinates": [ 1772169.0, 5761641.0 ] } },
{ "type": "Feature", "properties": { "osmid": 2915092555.0 }, "geometry": { "type": "Point", "coordinates": [ 1781099.0, 5739274.0 ] } },
{ "type": "Feature", "properties": { "osmid": 1579616316.0 }, "geometry": { "type": "Point", "coordinates": [ 1781876.0, 5760704.0 ] } },
{ "type": "Feature", "properties": { "osmid": 2190991859.0 }, "geometry": { "type": "Point", "coordinates": [ 1763602.0, 5750873.0 ] } },
{ "type": "Feature", "properties": { "osmid": 9520389100.0 }, "geometry": { "type": "Point", "coordinates": [ 1776670.0, 5762360.0 ] } },
{ "type": "Feature", "properties": { "osmid": 12549592519.0 }, "geometry": { "type": "Point", "coordinates": [ 1779000.0, 5762150.0 ] } },
{ "type": "Feature", "properties": { "osmid": 6412728568.0 }, "geometry": { "type": "Point", "coordinates": [ 1787099.0, 5744956.0 ] } },
{ "type": "Feature", "properties": { "osmid": 9785690258.0 }, "geometry": { "type": "Point", "coordinates": [ 1788168.0, 5751735.0 ] } },
{ "type": "Feature", "properties": { "osmid": 10951861578.0 }, "geometry": { "type": "Point", "coordinates": [ 1781225.0, 5761451.0 ] } },
{ "type": "Feature", "properties": { "osmid": 9080076510.0 }, "geometry": { "type": "Point", "coordinates": [ 1766311.0, 5741854.0 ] } },
{ "type": "Feature", "properties": { "osmid": 12543947031.0 }, "geometry": { "type": "Point", "coordinates": [ 1773783.0, 5762631.0 ] } },
{ "type": "Feature", "properties": { "osmid": 1152071375.0 }, "geometry": { "type": "Point", "coordinates": [ 1776260.0, 5762847.0 ] } },
{ "type": "Feature", "properties": { "osmid": 10951860308.0 }, "geometry": { "type": "Point", "coordinates": [ 1779777.0, 5762238.0 ] } },
{ "type": "Feature", "properties": { "osmid": 10978254937.0 }, "geometry": { "type": "Point", "coordinates": [ 1780782.0, 5761874.0 ] } },
{ "type": "Feature", "properties": { "osmid": 12565027004.0 }, "geometry": { "type": "Point", "coordinates": [ 1763002.0, 5751022.0 ] } },
{ "type": "Feature", "properties": { "osmid": 8174173905.0 }, "geometry": { "type": "Point", "coordinates": [ 1778160.0, 5762797.0 ] } },
{ "type": "Feature", "properties": { "osmid": 8832135109.0 }, "geometry": { "type": "Point", "coordinates": [ 1778787.0, 5762666.0 ] } },
{ "type": "Feature", "properties": { "osmid": 598143957.0 }, "geometry": { "type": "Point", "coordinates": [ 1788569.0, 5752965.0 ] } },
{ "type": "Feature", "properties": { "osmid": 6412734921.0 }, "geometry": { "type": "Point", "coordinates": [ 1787754.0, 5744484.0 ] } },
{ "type": "Feature", "properties": { "osmid": 9522095315.0 }, "geometry": { "type": "Point", "coordinates": [ 1779901.0, 5762812.0 ] } },
{ "type": "Feature", "properties": { "osmid": 420579882.0 }, "geometry": { "type": "Point", "coordinates": [ 1775819.0, 5763510.0 ] } },
{ "type": "Feature", "properties": { "osmid": 12556260781.0 }, "geometry": { "type": "Point", "coordinates": [ 1775275.0, 5763565.0 ] } },
{ "type": "Feature", "properties": { "osmid": 4111123592.0 }, "geometry": { "type": "Point", "coordinates": [ 1782258.0, 5738087.0 ] } },
{ "type": "Feature", "properties": { "osmid": 12698153780.0 }, "geometry": { "type": "Point", "coordinates": [ 1775327.0, 5764126.0 ] } },
{ "type": "Feature", "properties": { "osmid": 1790686005.0 }, "geometry": { "type": "Point", "coordinates": [ 1789690.0, 5748421.0 ] } },
{ "type": "Feature", "properties": { "osmid": 8887931515.0 }, "geometry": { "type": "Point", "coordinates": [ 1789712.0, 5752077.0 ] } },
{ "type": "Feature", "properties": { "osmid": 12541577267.0 }, "geometry": { "type": "Point", "coordinates": [ 1782878.0, 5737703.0 ] } },
{ "type": "Feature", "properties": { "osmid": 8174156603.0 }, "geometry": { "type": "Point", "coordinates": [ 1777921.0, 5764305.0 ] } },
{ "type": "Feature", "properties": { "osmid": 9620791047.0 }, "geometry": { "type": "Point", "coordinates": [ 1780006.0, 5763913.0 ] } },
{ "type": "Feature", "properties": { "osmid": 12542171016.0 }, "geometry": { "type": "Point", "coordinates": [ 1790132.0, 5752648.0 ] } },
{ "type": "Feature", "properties": { "osmid": 9025935425.0 }, "geometry": { "type": "Point", "coordinates": [ 1777612.0, 5764849.0 ] } },
{ "type": "Feature", "properties": { "osmid": 9668691277.0 }, "geometry": { "type": "Point", "coordinates": [ 1781248.0, 5736222.0 ] } },
{ "type": "Feature", "properties": { "osmid": 11899077045.0 }, "geometry": { "type": "Point", "coordinates": [ 1778803.0, 5765180.0 ] } },
{ "type": "Feature", "properties": { "osmid": 12987604315.0 }, "geometry": { "type": "Point", "coordinates": [ 1790769.0, 5753658.0 ] } },
{ "type": "Feature", "properties": { "osmid": 1964718866.0 }, "geometry": { "type": "Point", "coordinates": [ 1791183.0, 5749292.0 ] } },
{ "type": "Feature", "properties": { "osmid": 1567387512.0 }, "geometry": { "type": "Point", "coordinates": [ 1778321.0, 5765491.0 ] } },
{ "type": "Feature", "properties": { "osmid": 3236031401.0 }, "geometry": { "type": "Point", "coordinates": [ 1780703.0, 5735240.0 ] } },
{ "type": "Feature", "properties": { "osmid": 11973765807.0 }, "geometry": { "type": "Point", "coordinates": [ 1791155.0, 5754066.0 ] } },
{ "type": "Feature", "properties": { "osmid": 2308345375.0 }, "geometry": { "type": "Point", "coordinates": [ 1791358.0, 5753500.0 ] } },
{ "type": "Feature", "properties": { "osmid": 1964520038.0 }, "geometry": { "type": "Point", "coordinates": [ 1792284.0, 5749385.0 ] } },
{ "type": "Feature", "properties": { "osmid": 10911214724.0 }, "geometry": { "type": "Point", "coordinates": [ 1792395.0, 5749951.0 ] } },
{ "type": "Feature", "properties": { "osmid": 10951860346.0 }, "geometry": { "type": "Point", "coordinates": [ 1784081.0, 5764563.0 ] } },
{ "type": "Feature", "properties": { "osmid": 10560489854.0 }, "geometry": { "type": "Point", "coordinates": [ 1792235.0, 5752869.0 ] } },
{ "type": "Feature", "properties": { "osmid": 10911214731.0 }, "geometry": { "type": "Point", "coordinates": [ 1792448.0, 5750967.0 ] } },
{ "type": "Feature", "properties": { "osmid": 10567472028.0 }, "geometry": { "type": "Point", "coordinates": [ 1792414.0, 5751633.0 ] } },
{ "type": "Feature", "properties": { "osmid": 1729001168.0 }, "geometry": { "type": "Point", "coordinates": [ 1792950.0, 5750394.0 ] } },
{ "type": "Feature", "properties": { "osmid": 13257309666.0 }, "geometry": { "type": "Point", "coordinates": [ 1792848.0, 5752194.0 ] } },
{ "type": "Feature", "properties": { "osmid": 3099432000.0 }, "geometry": { "type": "Point", "coordinates": [ 1793067.0, 5749252.0 ] } },
{ "type": "Feature", "properties": { "osmid": 10951860348.0 }, "geometry": { "type": "Point", "coordinates": [ 1784042.0, 5765354.0 ] } },
{ "type": "Feature", "properties": { "osmid": 3668764685.0 }, "geometry": { "type": "Point", "coordinates": [ 1793154.0, 5749934.0 ] } },
{ "type": "Feature", "properties": { "osmid": 9762551056.0 }, "geometry": { "type": "Point", "coordinates": [ 1792980.0, 5752951.0 ] } },
{ "type": "Feature", "properties": { "osmid": 12556260822.0 }, "geometry": { "type": "Point", "coordinates": [ 1784707.0, 5765233.0 ] } },
{ "type": "Feature", "properties": { "osmid": 9762531994.0 }, "geometry": { "type": "Point", "coordinates": [ 1793041.0, 5753560.0 ] } },
{ "type": "Feature", "properties": { "osmid": 10030220678.0 }, "geometry": { "type": "Point", "coordinates": [ 1793431.0, 5751578.0 ] } },
{ "type": "Feature", "properties": { "osmid": 10030287019.0 }, "geometry": { "type": "Point", "coordinates": [ 1793497.0, 5752148.0 ] } },
{ "type": "Feature", "properties": { "osmid": 12901991465.0 }, "geometry": { "type": "Point", "coordinates": [ 1784313.0, 5765877.0 ] } },
{ "type": "Feature", "properties": { "osmid": 9764575203.0 }, "geometry": { "type": "Point", "coordinates": [ 1793778.0, 5748963.0 ] } },
{ "type": "Feature", "properties": { "osmid": 1733169031.0 }, "geometry": { "type": "Point", "coordinates": [ 1793878.0, 5750278.0 ] } },
{ "type": "Feature", "properties": { "osmid": 9501140871.0 }, "geometry": { "type": "Point", "coordinates": [ 1785141.0, 5765753.0 ] } },
{ "type": "Feature", "properties": { "osmid": 9497612387.0 }, "geometry": { "type": "Point", "coordinates": [ 1784351.0, 5766428.0 ] } },
{ "type": "Feature", "properties": { "osmid": 9497642964.0 }, "geometry": { "type": "Point", "coordinates": [ 1784963.0, 5766233.0 ] } },
{ "type": "Feature", "properties": { "osmid": 8262691323.0 }, "geometry": { "type": "Point", "coordinates": [ 1794328.0, 5748778.0 ] } },
{ "type": "Feature", "properties": { "osmid": 1156990649.0 }, "geometry": { "type": "Point", "coordinates": [ 1785511.0, 5766248.0 ] } },
{ "type": "Feature", "properties": { "osmid": 9592586495.0 }, "geometry": { "type": "Point", "coordinates": [ 1785031.0, 5766751.0 ] } },
{ "type": "Feature", "properties": { "osmid": 9497612370.0 }, "geometry": { "type": "Point", "coordinates": [ 1784376.0, 5767442.0 ] } },
{ "type": "Feature", "properties": { "osmid": 9039697609.0 }, "geometry": { "type": "Point", "coordinates": [ 1784489.0, 5767942.0 ] } },
{ "type": "Feature", "properties": { "osmid": 8562037510.0 }, "geometry": { "type": "Point", "coordinates": [ 1786004.0, 5767425.0 ] } },
{ "type": "Feature", "properties": { "osmid": 12237729948.0 }, "geometry": { "type": "Point", "coordinates": [ 1784623.0, 5768572.0 ] } },
{ "type": "Feature", "properties": { "osmid": 11847461501.0 }, "geometry": { "type": "Point", "coordinates": [ 1796819.0, 5752450.0 ] } },
{ "type": "Feature", "properties": { "osmid": 10031653798.0 }, "geometry": { "type": "Point", "coordinates": [ 1798088.0, 5758359.0 ] } },
{ "type": "Feature", "properties": { "osmid": 10031654330.0 }, "geometry": { "type": "Point", "coordinates": [ 1798405.0, 5758839.0 ] } }
]
}
